{"type": "FeatureCollection", "name": "TrackSet", "crs": {"type": "name", "properties": {"name": "urn:ogc:def:crs:OGC:1.3:CRS84"}}, "bbox": [109.210104, 13.726899, 109.21884, 13.745089], "features": [{"type": "Feature", "bbox": [109.210104, 13.726899, 109.21884, 13.745089], "geometry": {"type": "LineString", "coordinates": [[109.212542, 13.745008], [109.212529, 13.74505], [109.212544, 13.744989], [109.2125, 13.744908], [109.212412, 13.74478], [109.212298, 13.744685], [109.212324, 13.744592], [109.212278, 13.744575], [109.212239, 13.744518], [109.212205, 13.744363], [109.212241, 13.744205], [109.212328, 13.744274], [109.21235, 13.744331], [109.212613, 13.744501], [109.212872, 13.744548], [109.213015, 13.744617], [109.213256, 13.744666], [109.213404, 13.744764], [109.213557, 13.744799], [109.213638, 13.744752], [109.213665, 13.744688], [109.213598, 13.744233], [109.213613, 13.744192], [109.21367, 13.744162], [109.213732, 13.744015], [109.21395, 13.743954], [109.21414, 13.743866], [109.214175, 13.743876], [109.214348, 13.743815], [109.214325, 13.743866], [109.214353, 13.743857], [109.214408, 13.743789], [109.214527, 13.743721], [109.214798, 13.743603], [109.2148, 13.743584], [109.214745, 13.743614], [109.214748, 13.743634], [109.214802, 13.743594], [109.214848, 13.74353], [109.214961, 13.743094], [109.215082, 13.743069], [109.215185, 13.743078], [109.215283, 13.742603], [109.215258, 13.742607], [109.215312, 13.742537], [109.215472, 13.742047], [109.215684, 13.741727], [109.215899, 13.741454], [109.215975, 13.741151], [109.216027, 13.741039], [109.216219, 13.740774], [109.216342, 13.740497], [109.216496, 13.74032], [109.216597, 13.740249], [109.216729, 13.739992], [109.216748, 13.739904], [109.216737, 13.73981], [109.216666, 13.739699], [109.216543, 13.739595], [109.21649, 13.739457], [109.216501, 13.739367], [109.216614, 13.73919], [109.216732, 13.739073], [109.216812, 13.738923], [109.216849, 13.738725], [109.216842, 13.738626], [109.216877, 13.738507], [109.216985, 13.738409], [109.217354, 13.738293], [109.21751, 13.738221], [109.217566, 13.738157], [109.21768, 13.737897], [109.217703, 13.73775], [109.217548, 13.737374], [109.217536, 13.73729], [109.217548, 13.737207], [109.21776, 13.737026], [109.217817, 13.736904], [109.217689, 13.736505], [109.217765, 13.736248], [109.217766, 13.736159], [109.217696, 13.736032], [109.217686, 13.735934], [109.217719, 13.735859], [109.217912, 13.735644], [109.218023, 13.735394], [109.218209, 13.735184], [109.218255, 13.734837], [109.218415, 13.734535], [109.218465, 13.734323], [109.218517, 13.734244], [109.218588, 13.733891], [109.218662, 13.733827], [109.218707, 13.73371], [109.218827, 13.733519], [109.21884, 13.733435], [109.218818, 13.733322], [109.218722, 13.733154], [109.218665, 13.732899], [109.218625, 13.732817], [109.218623, 13.732684], [109.218425, 13.73236], [109.218381, 13.732168], [109.218334, 13.732117], [109.218258, 13.731881], [109.218175, 13.73177], [109.218, 13.731632], [109.217972, 13.731562], [109.217986, 13.73126], [109.218038, 13.731055], [109.218036, 13.730975], [109.218113, 13.730713], [109.218089, 13.730505], [109.218011, 13.730232], [109.217912, 13.730074], [109.217849, 13.72978], [109.217819, 13.729724], [109.217654, 13.72956], [109.217663, 13.729426], [109.217805, 13.729155], [109.21783, 13.729064], [109.217852, 13.728758], [109.217974, 13.728639], [109.218132, 13.728322], [109.218119, 13.728101], [109.218028, 13.727974], [109.217705, 13.727794], [109.217646, 13.727727], [109.217552, 13.727546], [109.217473, 13.727461], [109.217175, 13.727332], [109.217014, 13.726995], [109.216749, 13.726906], [109.216637, 13.726899], [109.216523, 13.726924], [109.216371, 13.727027], [109.216173, 13.727049], [109.216099, 13.727111], [109.216094, 13.727178], [109.21605, 13.727213], [109.21602, 13.727287], [109.216018, 13.727451], [109.215981, 13.727582], [109.215739, 13.72782], [109.215548, 13.727919], [109.215502, 13.727965], [109.215409, 13.728088], [109.215362, 13.728313], [109.215328, 13.728333], [109.215275, 13.728488], [109.21521, 13.728515], [109.215167, 13.728563], [109.215168, 13.728634], [109.215239, 13.728725], [109.215292, 13.728897], [109.215267, 13.728972], [109.215126, 13.729164], [109.214997, 13.729277], [109.214812, 13.729539], [109.214747, 13.729563], [109.214691, 13.729662], [109.214463, 13.729828], [109.214506, 13.730171], [109.214426, 13.730471], [109.214475, 13.730632], [109.214415, 13.730855], [109.214455, 13.730986], [109.214434, 13.731079], [109.214405, 13.731076], [109.214386, 13.731114], [109.214393, 13.731199], [109.214323, 13.731292], [109.21436, 13.73137], [109.214354, 13.731499], [109.214297, 13.731593], [109.214303, 13.731666], [109.214255, 13.73173], [109.214211, 13.732072], [109.214218, 13.732143], [109.214328, 13.732264], [109.214315, 13.732307], [109.214339, 13.732323], [109.214333, 13.732373], [109.214364, 13.732414], [109.21435, 13.732508], [109.214307, 13.732537], [109.214295, 13.732603], [109.2142, 13.732632], [109.214204, 13.73267], [109.214164, 13.732705], [109.214137, 13.732819], [109.214087, 13.732866], [109.214086, 13.7329], [109.214011, 13.732896], [109.214001, 13.732919], [109.214068, 13.732993], [109.213936, 13.73304], [109.213858, 13.733152], [109.213767, 13.73321], [109.213684, 13.733312], [109.213616, 13.733336], [109.213633, 13.733345], [109.213601, 13.733422], [109.213318, 13.733628], [109.2133, 13.733688], [109.213312, 13.733745], [109.213268, 13.733775], [109.213248, 13.733822], [109.213192, 13.733843], [109.213206, 13.733912], [109.213216, 13.73387], [109.213195, 13.73384], [109.213236, 13.73381], [109.213189, 13.733789], [109.213186, 13.733691]]}, "properties": {"name": "1785282739.Stairway_to_heaven", "cmt": "2026-07-28", "tstamp": 1785196800, "desc": "UpHill", "src": "109.210104/13.726899/109.21884/13.745089", "bbox": "109.210104/13.726899/109.21884/13.745089"}}, {"type": "Feature", "bbox": [109.210104, 13.726899, 109.21884, 13.745089], "geometry": {"type": "LineString", "coordinates": [[109.213181, 13.733682], [109.213236, 13.733664], [109.213245, 13.733614], [109.213213, 13.733624], [109.213254, 13.73362], [109.213275, 13.733557], [109.213293, 13.733607], [109.213367, 13.733612], [109.213454, 13.733519], [109.213605, 13.733445], [109.213647, 13.733386], [109.213638, 13.733339], [109.213724, 13.733316], [109.213765, 13.733218], [109.213887, 13.733159], [109.213889, 13.733115], [109.213916, 13.733096], [109.213935, 13.733086], [109.213947, 13.733117], [109.213944, 13.73309], [109.214042, 13.733061], [109.214055, 13.732935], [109.214084, 13.732876], [109.214131, 13.732856], [109.214143, 13.732805], [109.214223, 13.732879], [109.214127, 13.732781], [109.214225, 13.732652], [109.214225, 13.732621], [109.214263, 13.732607], [109.214301, 13.732633], [109.214324, 13.732608], [109.214317, 13.732556], [109.214367, 13.732475], [109.214343, 13.732345], [109.214309, 13.732301], [109.214318, 13.732243], [109.214246, 13.732163], [109.214237, 13.731838], [109.214276, 13.731767], [109.214268, 13.73171], [109.214319, 13.731634], [109.214304, 13.731561], [109.21435, 13.731484], [109.214327, 13.731269], [109.214412, 13.731228], [109.214401, 13.731141], [109.214474, 13.731048], [109.214444, 13.73085], [109.214347, 13.730838], [109.214193, 13.730777], [109.214052, 13.730892], [109.213869, 13.730875], [109.213506, 13.731052], [109.213345, 13.730997], [109.213211, 13.731015], [109.213122, 13.730981], [109.213102, 13.731016], [109.213005, 13.731021], [109.212963, 13.731046], [109.212973, 13.731098], [109.21293, 13.731081], [109.212885, 13.731099], [109.212741, 13.731063], [109.21254, 13.730902], [109.212378, 13.730862], [109.212321, 13.730826], [109.212298, 13.730912], [109.212359, 13.731062], [109.212337, 13.731365], [109.212203, 13.731458], [109.212103, 13.731481], [109.212054, 13.73155], [109.212002, 13.731558], [109.211936, 13.731504], [109.211845, 13.731561], [109.211825, 13.731613], [109.211767, 13.731643], [109.211663, 13.731814], [109.21161, 13.732035], [109.211463, 13.732322], [109.211118, 13.732486], [109.210924, 13.732754], [109.210849, 13.732806], [109.210786, 13.732919], [109.210634, 13.733093], [109.210368, 13.733602], [109.21036, 13.733822], [109.210107, 13.734371], [109.210193, 13.734575], [109.21032, 13.735049], [109.210277, 13.735213], [109.210139, 13.735411], [109.210161, 13.735671], [109.210204, 13.73581], [109.21033, 13.735985], [109.210455, 13.736038], [109.210598, 13.736039], [109.210757, 13.736144], [109.210798, 13.736191], [109.210835, 13.736313], [109.210812, 13.736391], [109.210767, 13.736437], [109.210395, 13.736574], [109.21025, 13.73668], [109.210169, 13.736791], [109.210142, 13.736892], [109.210142, 13.737158], [109.210104, 13.737322], [109.210157, 13.737718], [109.210255, 13.738019], [109.21036, 13.738251], [109.210369, 13.738482], [109.210397, 13.738587], [109.210565, 13.738876], [109.210584, 13.738944], [109.210723, 13.739142], [109.211043, 13.739344], [109.211162, 13.73947], [109.211265, 13.739626], [109.211284, 13.739746], [109.211257, 13.739852], [109.211069, 13.740065], [109.211044, 13.740274], [109.21109, 13.740597], [109.211193, 13.740823], [109.211182, 13.741001], [109.211208, 13.741087], [109.211182, 13.741166], [109.211195, 13.741369], [109.211158, 13.741643], [109.211328, 13.742456], [109.21136, 13.742821], [109.211603, 13.743281], [109.211973, 13.743781], [109.212102, 13.74408], [109.212137, 13.744239], [109.212132, 13.744334], [109.212151, 13.744358], [109.212161, 13.744258], [109.212193, 13.744236], [109.212165, 13.744269], [109.212169, 13.744359], [109.212273, 13.744675], [109.212322, 13.744729], [109.212311, 13.744759], [109.212441, 13.744877]]}, "properties": {"name": "1785282739.Stairway_to_heaven", "cmt": "2026-07-28", "tstamp": 1785196800, "desc": "DownHill", "src": "109.210104/13.726899/109.21884/13.745089", "bbox": "109.210104/13.726899/109.21884/13.745089"}}, {"type": "Feature", "bbox": [109.210104, 13.726899, 109.21884, 13.745089], "geometry": {"type": "LineString", "coordinates": [[109.21244, 13.744904], [109.212478, 13.744961], [109.212454, 13.745089]]}, "properties": {"name": "1785282739.Stairway_to_heaven", "cmt": "2026-07-28", "tstamp": 1785196800, "desc": "UpHill", "src": "109.210104/13.726899/109.21884/13.745089", "bbox": "109.210104/13.726899/109.21884/13.745089"}}]}