{"type": "FeatureCollection", "name": "TrackSet", "crs": {"type": "name", "properties": {"name": "urn:ogc:def:crs:OGC:1.3:CRS84"}}, "bbox": [6.210905, 46.370424, 6.226862, 46.379253], "features": [{"type": "Feature", "bbox": [6.210905, 46.370424, 6.226862, 46.379253], "geometry": {"type": "LineString", "coordinates": [[6.225476, 46.370619], [6.225387, 46.37045], [6.225326, 46.370424], [6.225234, 46.370476], [6.224481, 46.3707], [6.224342, 46.370782], [6.224243, 46.370802], [6.224113, 46.370794], [6.223946, 46.37066], [6.223817, 46.370636], [6.223018, 46.371131], [6.222604, 46.371309], [6.222558, 46.371379], [6.222815, 46.371783], [6.223387, 46.372534], [6.223925, 46.373308], [6.224182, 46.373644], [6.224306, 46.373763], [6.224559, 46.374124], [6.225292, 46.374996], [6.225388, 46.375057], [6.225457, 46.375163], [6.225942, 46.37565], [6.225965, 46.375706], [6.226093, 46.375771], [6.226176, 46.375766], [6.226248, 46.375728], [6.226341, 46.375741], [6.226392, 46.375821], [6.226737, 46.376131], [6.226782, 46.37621], [6.226796, 46.376344], [6.226745, 46.376413], [6.225944, 46.376934], [6.225825, 46.376975], [6.22576, 46.377036], [6.225389, 46.377217], [6.224768, 46.377638], [6.224671, 46.377672], [6.224609, 46.377629], [6.224497, 46.377359], [6.224271, 46.377026], [6.224231, 46.376903], [6.224149, 46.376855], [6.224048, 46.376844], [6.22382, 46.376917], [6.223588, 46.376939], [6.222778, 46.376932], [6.222075, 46.376893], [6.220558, 46.376399], [6.220412, 46.376317], [6.219575, 46.376088], [6.219433, 46.37602], [6.21922, 46.375974], [6.218881, 46.37584], [6.218657, 46.375804], [6.218485, 46.375731], [6.218438, 46.375687], [6.217896, 46.375543], [6.217549, 46.3754], [6.216806, 46.375169], [6.21654, 46.375059], [6.216304, 46.375009], [6.215707, 46.374786], [6.215461, 46.37473], [6.21532, 46.374756], [6.215138, 46.374899], [6.21497, 46.375257], [6.214754, 46.375577], [6.214608, 46.375863], [6.214375, 46.376229], [6.214047, 46.376623], [6.21391, 46.376835], [6.21383, 46.377025], [6.213706, 46.377151], [6.213183, 46.376973], [6.211275, 46.376451], [6.210905, 46.376317], [6.210945, 46.376377], [6.2111, 46.376415], [6.211328, 46.376511], [6.212202, 46.376739], [6.213331, 46.37708], [6.214634, 46.377414], [6.215212, 46.377651], [6.215613, 46.377851], [6.216575, 46.378255], [6.217028, 46.378474], [6.217721, 46.378746], [6.217868, 46.378832], [6.218398, 46.379031], [6.219051, 46.379188], [6.219125, 46.379223], [6.219208, 46.379211], [6.219627, 46.379253], [6.22066, 46.3792], [6.221466, 46.379243], [6.221727, 46.379171], [6.221843, 46.379087], [6.222245, 46.378976], [6.222965, 46.378713], [6.223368, 46.378617], [6.223476, 46.378574], [6.223602, 46.378467], [6.224617, 46.377794], [6.22466, 46.377789], [6.224728, 46.377728], [6.224881, 46.377662], [6.22495, 46.377598], [6.225236, 46.377444], [6.225452, 46.377274], [6.226616, 46.376552], [6.226831, 46.376403], [6.226862, 46.376204], [6.226764, 46.376039], [6.226442, 46.375733], [6.226304, 46.375659], [6.226206, 46.375656], [6.226127, 46.375693], [6.226087, 46.375679], [6.226005, 46.37557], [6.225848, 46.375451], [6.225443, 46.375014], [6.225266, 46.374779], [6.224975, 46.37451], [6.22484, 46.374325], [6.224704, 46.374202], [6.224636, 46.374065], [6.224369, 46.37379], [6.22418, 46.373465], [6.224019, 46.373293], [6.223469, 46.372507], [6.223263, 46.372261], [6.222718, 46.371427], [6.222677, 46.371285], [6.223067, 46.371118], [6.223652, 46.37079], [6.223837, 46.370709], [6.223922, 46.370708], [6.22414, 46.370967], [6.224506, 46.371497], [6.224728, 46.371753], [6.224782, 46.371795], [6.22484, 46.371794], [6.224894, 46.371779], [6.22496, 46.371708], [6.22524, 46.371597], [6.225254, 46.371564], [6.225544, 46.37143], [6.225742, 46.371308], [6.226499, 46.371009]]}, "properties": {"name": "1786172838.Nyon_Triathlon_2026_Run", "cmt": "2026-08-08", "tstamp": 1786147200, "desc": "---", "src": "6.210905/46.370424/6.226862/46.379253", "bbox": "6.210905/46.370424/6.226862/46.379253"}}]}