{"type": "FeatureCollection", "name": "TrackSet", "crs": {"type": "name", "properties": {"name": "urn:ogc:def:crs:OGC:1.3:CRS84"}}, "bbox": [6.192447, 46.327878, 6.205426, 46.34345], "features": [{"type": "Feature", "bbox": [6.192447, 46.327878, 6.205426, 46.34345], "geometry": {"type": "LineString", "coordinates": [[6.194148, 46.331723], [6.19422, 46.331675], [6.194179, 46.331711], [6.19407, 46.331739], [6.194023, 46.331779], [6.193895, 46.331765], [6.19355, 46.331786], [6.193538, 46.331769], [6.193402, 46.331783], [6.193082, 46.331872], [6.193059, 46.331852], [6.192987, 46.331881], [6.193005, 46.332024], [6.192916, 46.33215], [6.192652, 46.332205], [6.192572, 46.332249], [6.192447, 46.332476], [6.192501, 46.332558], [6.192509, 46.332671], [6.192684, 46.333018], [6.192737, 46.333279], [6.192777, 46.333344], [6.19295, 46.333499], [6.193156, 46.333743], [6.193243, 46.333765], [6.193359, 46.333905], [6.193707, 46.334024], [6.19386, 46.334052], [6.194325, 46.334385], [6.194491, 46.334442], [6.194625, 46.334563], [6.194842, 46.334664], [6.195081, 46.334821], [6.195342, 46.334935], [6.195606, 46.335118], [6.195916, 46.335248], [6.196061, 46.33538], [6.196353, 46.335539], [6.196553, 46.335615], [6.197054, 46.335946], [6.197226, 46.336099], [6.197323, 46.336131], [6.197389, 46.336211], [6.197702, 46.336322], [6.198218, 46.336624], [6.198257, 46.336671], [6.198232, 46.336751], [6.198366, 46.336838], [6.198446, 46.336969], [6.198557, 46.33706], [6.198588, 46.337161], [6.198753, 46.337351], [6.198849, 46.337403], [6.198918, 46.33752], [6.199111, 46.337723], [6.199415, 46.337984], [6.1996, 46.338091], [6.199712, 46.338215], [6.200334, 46.338741], [6.201003, 46.339439], [6.201161, 46.339659], [6.201273, 46.339739], [6.201313, 46.339849], [6.201438, 46.339962], [6.201683, 46.340365], [6.201782, 46.340856], [6.201874, 46.341061], [6.202037, 46.341309], [6.202276, 46.341892], [6.202465, 46.342144], [6.202801, 46.342394], [6.203195, 46.34258], [6.203391, 46.342701], [6.204192, 46.34345], [6.204392, 46.343431], [6.204832, 46.343223], [6.20512, 46.342962], [6.205289, 46.342742], [6.20542, 46.34264], [6.205426, 46.342415], [6.205344, 46.3421], [6.205158, 46.341652], [6.205093, 46.341304], [6.20499, 46.340981], [6.204765, 46.340579], [6.204708, 46.340403], [6.20472, 46.340342], [6.204573, 46.340008], [6.204482, 46.339887], [6.204443, 46.339723], [6.20397, 46.339166], [6.203877, 46.339106], [6.203723, 46.338901], [6.203598, 46.33858], [6.203083, 46.337826], [6.202692, 46.336882], [6.202672, 46.336619], [6.202571, 46.336433], [6.202549, 46.336288], [6.202578, 46.336128], [6.202503, 46.335801], [6.202554, 46.335635], [6.202451, 46.335411], [6.202381, 46.335096], [6.202388, 46.334508], [6.202353, 46.334426], [6.202334, 46.334166], [6.20239, 46.333725], [6.202363, 46.332998], [6.202417, 46.332745], [6.202421, 46.332447], [6.202393, 46.33233], [6.202413, 46.332007], [6.202256, 46.331663], [6.202236, 46.331505], [6.202007, 46.331098], [6.201906, 46.330786], [6.201798, 46.330575], [6.201778, 46.330418], [6.201653, 46.330199], [6.201625, 46.330047], [6.201461, 46.32978], [6.201267, 46.329589], [6.201011, 46.329191], [6.200591, 46.328722], [6.200495, 46.328563], [6.199921, 46.327978], [6.199684, 46.327889], [6.199413, 46.327878], [6.198873, 46.328037], [6.197843, 46.32846], [6.197428, 46.328588], [6.19717, 46.328719], [6.196542, 46.328893], [6.196079, 46.329069], [6.195511, 46.329203], [6.195205, 46.329304], [6.194879, 46.329375], [6.194635, 46.329393], [6.194348, 46.329495], [6.193428, 46.329647], [6.193336, 46.329682], [6.193142, 46.329859], [6.193096, 46.330049], [6.193119, 46.330169], [6.193221, 46.330197], [6.193515, 46.330196], [6.193794, 46.330139], [6.193914, 46.330146], [6.193994, 46.330179], [6.194113, 46.330477], [6.194495, 46.331185], [6.194681, 46.33164], [6.194628, 46.331687], [6.194289, 46.331788]]}, "properties": {"name": "1791559802.Friday_Evening_Run", "cmt": "2026-10-09", "tstamp": 1791504000, "desc": "---", "src": "6.192447/46.327878/6.205426/46.34345", "bbox": "6.192447/46.327878/6.205426/46.34345"}}]}