{"type": "FeatureCollection", "name": "TrackSet", "crs": {"type": "name", "properties": {"name": "urn:ogc:def:crs:OGC:1.3:CRS84"}}, "bbox": [7.187364, 46.079354, 7.212878, 46.089009], "features": [{"type": "Feature", "bbox": [7.187364, 46.079354, 7.212878, 46.089009], "geometry": {"type": "LineString", "coordinates": [[7.212272, 46.079828], [7.2122, 46.079952], [7.212489, 46.080176], [7.212535, 46.080238], [7.212535, 46.080297], [7.212582, 46.08032], [7.212568, 46.080337], [7.212602, 46.080338], [7.21256, 46.08033], [7.212576, 46.0803], [7.212619, 46.080296], [7.212579, 46.080306], [7.212542, 46.080283], [7.212527, 46.0803], [7.212557, 46.080337], [7.212489, 46.080401], [7.212468, 46.080685], [7.212641, 46.080778], [7.212759, 46.080891], [7.212707, 46.080998], [7.212813, 46.081067], [7.212843, 46.081119], [7.212837, 46.081189], [7.212773, 46.08126], [7.212787, 46.081292], [7.212739, 46.081379], [7.212564, 46.08143], [7.212444, 46.081557], [7.212561, 46.081649], [7.212598, 46.081736], [7.212588, 46.08185], [7.212528, 46.081928], [7.212549, 46.081986], [7.212528, 46.082011], [7.212613, 46.082074], [7.212597, 46.082163], [7.212702, 46.082226], [7.212663, 46.08232], [7.21259, 46.082322], [7.212656, 46.08232], [7.212651, 46.082376], [7.212567, 46.08241], [7.212524, 46.082482], [7.212584, 46.082596], [7.212369, 46.082617], [7.21232, 46.082684], [7.212029, 46.082823], [7.211822, 46.083004], [7.211658, 46.083022], [7.211443, 46.083103], [7.211189, 46.083141], [7.211132, 46.083159], [7.211059, 46.083235], [7.210882, 46.083316], [7.210844, 46.083311], [7.210585, 46.083641], [7.210545, 46.083761], [7.210569, 46.083899], [7.210605, 46.083951], [7.210618, 46.083935], [7.210588, 46.084001], [7.210408, 46.084083], [7.210496, 46.084408], [7.210459, 46.084444], [7.210357, 46.084409], [7.210271, 46.084408], [7.210224, 46.084438], [7.20989, 46.08447], [7.209545, 46.084542], [7.209361, 46.084547], [7.208897, 46.084632], [7.208517, 46.084663], [7.207683, 46.084857], [7.207723, 46.084998], [7.207828, 46.085083], [7.207949, 46.085266], [7.207963, 46.085501], [7.208019, 46.085603], [7.208024, 46.085698], [7.208061, 46.085715], [7.208037, 46.085757], [7.207974, 46.085785], [7.207849, 46.085761], [7.207773, 46.085794], [7.207562, 46.085785], [7.207333, 46.085815], [7.207216, 46.085853], [7.207144, 46.085848], [7.206993, 46.085913], [7.206703, 46.085968], [7.206569, 46.086051], [7.206453, 46.086074], [7.206439, 46.08611], [7.206331, 46.086176], [7.206221, 46.086197], [7.205866, 46.086424], [7.205635, 46.086619], [7.205406, 46.086868], [7.205245, 46.086972], [7.204863, 46.087479], [7.204725, 46.087616], [7.204605, 46.08769], [7.204075, 46.08781], [7.20384, 46.08782], [7.202575, 46.087681], [7.201561, 46.087507], [7.200984, 46.087468], [7.200933, 46.087442], [7.200799, 46.087448], [7.200736, 46.087424], [7.200266, 46.087445], [7.200053, 46.087481], [7.199904, 46.087475], [7.199569, 46.087541], [7.1993, 46.087643], [7.198964, 46.087828], [7.198777, 46.087883], [7.198654, 46.087947], [7.198018, 46.08812], [7.197221, 46.088109], [7.196396, 46.088179], [7.195092, 46.088168], [7.194488, 46.088256], [7.194057, 46.088392], [7.193845, 46.088505], [7.193745, 46.088603], [7.193602, 46.088677], [7.193414, 46.088885], [7.193204, 46.088967], [7.192582, 46.089009], [7.192043, 46.088992], [7.191882, 46.088965], [7.19165, 46.088859], [7.191394, 46.088673], [7.191181, 46.088628], [7.191028, 46.08864], [7.190986, 46.088621], [7.190821, 46.088653], [7.190603, 46.088629], [7.190432, 46.088642], [7.190304, 46.088621], [7.190222, 46.08858], [7.189531, 46.088507], [7.189081, 46.08856], [7.188937, 46.088603], [7.18852, 46.088607], [7.188487, 46.088634], [7.188397, 46.088627], [7.188211, 46.088674], [7.187724, 46.088659], [7.187507, 46.088606], [7.187389, 46.088537], [7.187364, 46.088455], [7.187542, 46.088335], [7.187558, 46.088285], [7.187632, 46.088234], [7.187717, 46.08809], [7.187713, 46.088045], [7.187835, 46.08795], [7.187849, 46.087888], [7.188064, 46.087631], [7.188171, 46.087442], [7.188271, 46.087377], [7.188468, 46.087174], [7.190028, 46.087474], [7.190645, 46.087541], [7.190763, 46.087572], [7.191071, 46.087583], [7.191558, 46.087666], [7.19165, 46.087661], [7.191966, 46.087741], [7.192278, 46.087749], [7.192503, 46.087703], [7.192584, 46.087711], [7.19264, 46.087669], [7.192877, 46.087666], [7.19297, 46.087693], [7.193022, 46.087615], [7.193126, 46.087563], [7.193392, 46.087513], [7.194367, 46.087111], [7.194785, 46.087119], [7.195376, 46.087068], [7.195543, 46.087122], [7.195904, 46.087147], [7.196091, 46.087107], [7.196507, 46.087088], [7.196815, 46.086986], [7.197018, 46.086972], [7.1973, 46.086898], [7.198008, 46.086639], [7.198305, 46.08657], [7.198909, 46.086349], [7.200133, 46.086126], [7.200352, 46.086044], [7.200599, 46.085989], [7.200952, 46.085832], [7.201172, 46.085685], [7.201286, 46.085653], [7.201434, 46.085496], [7.201607, 46.085386], [7.20176, 46.085196], [7.201827, 46.085173], [7.201864, 46.085119], [7.201994, 46.085037], [7.202248, 46.084725], [7.202614, 46.084416], [7.20273, 46.084257], [7.203017, 46.084023], [7.203108, 46.084006], [7.203341, 46.083844], [7.203592, 46.083617], [7.203825, 46.083501], [7.205584, 46.082973], [7.20618, 46.0829], [7.206574, 46.082941], [7.206776, 46.082905], [7.207109, 46.082911], [7.207216, 46.08288], [7.20753, 46.082875], [7.207681, 46.08283], [7.207903, 46.082818], [7.20798, 46.082776], [7.208132, 46.082755], [7.208212, 46.082707], [7.208388, 46.082709], [7.208896, 46.082644], [7.209008, 46.082649], [7.209269, 46.082582], [7.209671, 46.082565], [7.209853, 46.082581], [7.210643, 46.082381], [7.211148, 46.082186], [7.211386, 46.082144], [7.211458, 46.082176], [7.211635, 46.082134], [7.211783, 46.082063], [7.211911, 46.081957], [7.212142, 46.081836], [7.212302, 46.081661], [7.212541, 46.081467], [7.212605, 46.081444], [7.212636, 46.081333], [7.212791, 46.081258], [7.212878, 46.081173], [7.21285, 46.081057], [7.212749, 46.080962], [7.21278, 46.080929], [7.21276, 46.080857], [7.212528, 46.080616], [7.212528, 46.080477], [7.212482, 46.080428], [7.212515, 46.080374], [7.212474, 46.080328], [7.212607, 46.080234], [7.212593, 46.080148], [7.212303, 46.079995], [7.212202, 46.079895], [7.212125, 46.07987], [7.21225, 46.079784], [7.212219, 46.079691], [7.212306, 46.079631], [7.212326, 46.079599], [7.212298, 46.079594], [7.212337, 46.079568], [7.212399, 46.079422], [7.212416, 46.079461], [7.212433, 46.079354], [7.212463, 46.079583], [7.212459, 46.079537], [7.212363, 46.079555], [7.212321, 46.079602], [7.212331, 46.079565], [7.212231, 46.079579], [7.212206, 46.079613], [7.212289, 46.079608], [7.212291, 46.079588], [7.212159, 46.079648], [7.212285, 46.079567], [7.212296, 46.079594], [7.212239, 46.079623], [7.212247, 46.079607], [7.212278, 46.079621], [7.212233, 46.079622], [7.212252, 46.079596], [7.212258, 46.079645], [7.212313, 46.079639], [7.21228, 46.079663], [7.21228, 46.079631], [7.212308, 46.079632], [7.212313, 46.07966], [7.212249, 46.079636], [7.212226, 46.079651], [7.212261, 46.079631], [7.212253, 46.079576], [7.212285, 46.079565], [7.212291, 46.079655], [7.212253, 46.079617], [7.212317, 46.079576], [7.21231, 46.079625], [7.212305, 46.079587], [7.212226, 46.079663], [7.212291, 46.079577], [7.212273, 46.079524], [7.212313, 46.079657], [7.212367, 46.079672], [7.212239, 46.079576], [7.212266, 46.079596], [7.21224, 46.079655], [7.21211, 46.079709], [7.211877, 46.079915], [7.211772, 46.079928], [7.211687, 46.079984], [7.211491, 46.08002], [7.211472, 46.080004], [7.211379, 46.080047], [7.211281, 46.08002], [7.21121, 46.080035], [7.211115, 46.07998], [7.211071, 46.079997], [7.210929, 46.079983], [7.210857, 46.080008], [7.210769, 46.079982], [7.210791, 46.079866], [7.21066, 46.079838], [7.210741, 46.079853], [7.21068, 46.079877], [7.210719, 46.079898], [7.210759, 46.079856], [7.210785, 46.079881], [7.210742, 46.079905], [7.210703, 46.079886], [7.210617, 46.079913], [7.210631, 46.079886], [7.210656, 46.079905]]}, "properties": {"name": "1784985736.Le_Chable_walk_before_Verbier_concert_with_Luke", "cmt": "2026-07-25", "tstamp": 1784937600, "desc": "---", "src": "7.187364/46.079354/7.212878/46.089009", "bbox": "7.187364/46.079354/7.212878/46.089009"}}]}