{"type": "FeatureCollection", "name": "TrackSet", "crs": {"type": "name", "properties": {"name": "urn:ogc:def:crs:OGC:1.3:CRS84"}}, "bbox": [7.218332, 46.093656, 7.233291, 46.099368], "features": [{"type": "Feature", "bbox": [7.218332, 46.093656, 7.233291, 46.099368], "geometry": {"type": "LineString", "coordinates": [[7.233291, 46.093656], [7.233238, 46.093752], [7.23317, 46.093729], [7.232994, 46.093839], [7.232829, 46.093851], [7.232682, 46.093913], [7.232497, 46.093916], [7.232137, 46.094101], [7.232041, 46.094182], [7.23191, 46.094226], [7.231831, 46.094316], [7.231686, 46.094371], [7.23156, 46.094487], [7.231274, 46.094674], [7.231139, 46.094811], [7.23105, 46.094971], [7.230909, 46.095045], [7.230888, 46.095085], [7.230818, 46.095088], [7.230527, 46.095311], [7.230225, 46.095428], [7.230184, 46.095469], [7.230052, 46.095521], [7.229993, 46.09558], [7.229607, 46.095712], [7.229487, 46.095815], [7.229289, 46.095873], [7.229113, 46.095999], [7.229107, 46.096091], [7.22901, 46.096175], [7.22889, 46.09616], [7.228593, 46.096175], [7.228349, 46.096252], [7.228332, 46.096291], [7.228232, 46.096349], [7.228062, 46.096355], [7.22796, 46.096434], [7.227741, 46.096509], [7.2276, 46.096509], [7.227303, 46.096576], [7.226938, 46.096736], [7.226782, 46.096727], [7.226472, 46.0968], [7.22637, 46.096785], [7.226261, 46.096834], [7.226048, 46.09681], [7.225947, 46.096909], [7.225746, 46.096974], [7.225657, 46.097057], [7.2256, 46.097053], [7.225375, 46.097169], [7.225286, 46.097177], [7.225146, 46.097284], [7.225139, 46.097319], [7.224862, 46.097469], [7.224646, 46.097676], [7.224553, 46.097635], [7.224614, 46.09768], [7.224529, 46.097554], [7.224611, 46.097629], [7.224567, 46.097581], [7.224593, 46.097704], [7.224634, 46.097745], [7.224499, 46.097566], [7.224485, 46.097612], [7.224534, 46.097635], [7.22449, 46.097653], [7.224514, 46.097716], [7.224491, 46.097712], [7.224516, 46.097706], [7.22449, 46.09765], [7.22452, 46.097656], [7.224476, 46.097604], [7.224531, 46.097727], [7.224555, 46.09772], [7.224448, 46.097601], [7.22446, 46.097651], [7.224507, 46.097685], [7.224479, 46.097725], [7.224348, 46.097668], [7.224387, 46.097667], [7.224463, 46.097753], [7.22446, 46.097811], [7.224528, 46.09781], [7.224505, 46.097739], [7.224441, 46.097717], [7.224422, 46.09775], [7.224169, 46.097795], [7.224035, 46.097857], [7.223924, 46.097865], [7.223881, 46.097845], [7.223743, 46.09788], [7.223475, 46.097874], [7.223399, 46.097829], [7.223128, 46.097782], [7.222789, 46.097645], [7.222299, 46.097588], [7.222142, 46.097616], [7.222093, 46.097566], [7.221937, 46.097556], [7.221687, 46.097743], [7.221595, 46.097781], [7.221357, 46.097812], [7.221304, 46.097861], [7.221366, 46.097899], [7.221361, 46.097922], [7.221275, 46.097909], [7.22122, 46.097934], [7.221135, 46.097929], [7.220874, 46.098058], [7.220647, 46.098312], [7.220516, 46.098354], [7.220336, 46.098546], [7.220287, 46.098567], [7.220285, 46.098604], [7.220359, 46.098666], [7.220294, 46.09869], [7.220294, 46.098768], [7.219741, 46.098783], [7.219244, 46.098892], [7.219271, 46.098871], [7.219213, 46.098895], [7.219148, 46.099084], [7.219018, 46.099147], [7.218746, 46.099103], [7.218606, 46.099168], [7.218638, 46.099228], [7.218646, 46.09918], [7.2186, 46.099177], [7.21859, 46.099213], [7.218588, 46.099191], [7.218609, 46.099213], [7.218603, 46.099189], [7.218666, 46.099181], [7.218614, 46.099178], [7.218594, 46.0992], [7.218505, 46.099164], [7.218526, 46.099137], [7.21846, 46.099181], [7.218387, 46.099184], [7.218413, 46.099201], [7.218379, 46.099201], [7.218379, 46.099301], [7.21844, 46.099286], [7.218423, 46.099309], [7.218454, 46.099349], [7.218499, 46.099337], [7.218478, 46.099368], [7.218416, 46.099315], [7.21839, 46.09933], [7.218395, 46.099315], [7.218332, 46.099316], [7.218358, 46.099332], [7.218337, 46.099363], [7.218359, 46.099368], [7.218346, 46.099344], [7.218373, 46.099353]]}, "properties": {"name": "1784994933.Verbier_walk_to_concert_in_torrential_rain", "cmt": "2026-07-25", "tstamp": 1784937600, "desc": "---", "src": "7.218332/46.093656/7.233291/46.099368", "bbox": "7.218332/46.093656/7.233291/46.099368"}}]}