{"type": "FeatureCollection", "name": "TrackSet", "crs": {"type": "name", "properties": {"name": "urn:ogc:def:crs:OGC:1.3:CRS84"}}, "bbox": [6.14233, 46.18715, 6.162814, 46.211237], "features": [{"type": "Feature", "bbox": [6.14233, 46.18715, 6.162814, 46.211237], "geometry": {"type": "LineString", "coordinates": [[6.153606, 46.192483], [6.153513, 46.192423], [6.153436, 46.192306], [6.153382, 46.192082], [6.153319, 46.191943], [6.153251, 46.191879], [6.153238, 46.191735], [6.153374, 46.191685], [6.153538, 46.19167], [6.153532, 46.191652], [6.153533, 46.191687], [6.15358, 46.191691], [6.153675, 46.19166], [6.153699, 46.191612], [6.153668, 46.191467], [6.153798, 46.191457], [6.153931, 46.191392], [6.154044, 46.191384], [6.154262, 46.191295], [6.154285, 46.191222], [6.154366, 46.191169], [6.154385, 46.191125], [6.154551, 46.191059], [6.154597, 46.190996], [6.154739, 46.190923], [6.154827, 46.19084], [6.154944, 46.190822], [6.155083, 46.190715], [6.15518, 46.190691], [6.155204, 46.190576], [6.155343, 46.190466], [6.155414, 46.190348], [6.155759, 46.190088], [6.15586, 46.190002], [6.155879, 46.189935], [6.15599, 46.189866], [6.156028, 46.189727], [6.156151, 46.189635], [6.156158, 46.189565], [6.156235, 46.189539], [6.156277, 46.189489], [6.156417, 46.189477], [6.156541, 46.18938], [6.156579, 46.189302], [6.15667, 46.189264], [6.156768, 46.189088], [6.156828, 46.189062], [6.156882, 46.188979], [6.156954, 46.188979], [6.157026, 46.188948], [6.157078, 46.188905], [6.157107, 46.188824], [6.157239, 46.188716], [6.15742, 46.188672], [6.157431, 46.188557], [6.157522, 46.188546], [6.157673, 46.188412], [6.15783, 46.188356], [6.157924, 46.188283], [6.158117, 46.188229], [6.158271, 46.188065], [6.158529, 46.187915], [6.158568, 46.187846], [6.158704, 46.187737], [6.158955, 46.187643], [6.158931, 46.187634], [6.158955, 46.187687], [6.158991, 46.187688], [6.158988, 46.187665], [6.159152, 46.187538], [6.159151, 46.187365], [6.159225, 46.187328], [6.159334, 46.187323], [6.159417, 46.18725], [6.159443, 46.187258], [6.159308, 46.187246], [6.159247, 46.187278], [6.159091, 46.18724], [6.158975, 46.187262], [6.158866, 46.187197], [6.158852, 46.187211], [6.158883, 46.187208], [6.158883, 46.187261], [6.158956, 46.187343], [6.159363, 46.187188], [6.159502, 46.187184], [6.159553, 46.18715], [6.1596, 46.187185], [6.159606, 46.187166], [6.159705, 46.18716], [6.159854, 46.187315], [6.159968, 46.187368], [6.160034, 46.18746], [6.160132, 46.187496], [6.160187, 46.187569], [6.160215, 46.187722], [6.160332, 46.187778], [6.160508, 46.187992], [6.160717, 46.188072], [6.160751, 46.188169], [6.160821, 46.188241], [6.160821, 46.188315], [6.161003, 46.188531], [6.16099, 46.188569], [6.161043, 46.18869], [6.161225, 46.188548], [6.161269, 46.188536], [6.161417, 46.188566], [6.161524, 46.188518], [6.161588, 46.188466], [6.161561, 46.188476], [6.161548, 46.188346], [6.161638, 46.188475], [6.161372, 46.18839], [6.161262, 46.188287], [6.161278, 46.189916], [6.160908, 46.18976], [6.160831, 46.189759], [6.16089, 46.189776], [6.16092, 46.189665], [6.160969, 46.189742], [6.160953, 46.189722], [6.161084, 46.18968], [6.161082, 46.18971], [6.161206, 46.189767], [6.161259, 46.189819], [6.161317, 46.189935], [6.161446, 46.189989], [6.161912, 46.190358], [6.162103, 46.190633], [6.162264, 46.190693], [6.162307, 46.190755], [6.162413, 46.190814], [6.162467, 46.190928], [6.162622, 46.191003], [6.162677, 46.191069], [6.162782, 46.191092], [6.162814, 46.191139], [6.162693, 46.1913], [6.162541, 46.191363], [6.162358, 46.191515], [6.162077, 46.191633], [6.161821, 46.19178], [6.161581, 46.191812], [6.161435, 46.191858], [6.161348, 46.191911], [6.16125, 46.19203], [6.161213, 46.192035], [6.161125, 46.191991], [6.16115, 46.191991], [6.161108, 46.191904], [6.160997, 46.191907], [6.160885, 46.191971], [6.160736, 46.192155], [6.160579, 46.192216], [6.160366, 46.192352], [6.16021, 46.192491], [6.159969, 46.192608], [6.15984, 46.192638], [6.159705, 46.192723], [6.159441, 46.192802], [6.159303, 46.192877], [6.15892, 46.192958], [6.158476, 46.193085], [6.158032, 46.193156], [6.157729, 46.19326], [6.157234, 46.193373], [6.156833, 46.193493], [6.156305, 46.193735], [6.156236, 46.193819], [6.156027, 46.193936], [6.155994, 46.194022], [6.155869, 46.194166], [6.155747, 46.194186], [6.15565, 46.194251], [6.155586, 46.194261], [6.15536, 46.194429], [6.1552, 46.194413], [6.155055, 46.194534], [6.154884, 46.194544], [6.154875, 46.194736], [6.154841, 46.194763], [6.154886, 46.194771], [6.154689, 46.194825], [6.154593, 46.194889], [6.15437, 46.194968], [6.154244, 46.194948], [6.154073, 46.195081], [6.153985, 46.195082], [6.153908, 46.195149], [6.153841, 46.195153], [6.153797, 46.195273], [6.153908, 46.195366], [6.154012, 46.195377], [6.154047, 46.195412], [6.154116, 46.195425], [6.154123, 46.195405], [6.154362, 46.195428], [6.154429, 46.195496], [6.154486, 46.195512], [6.154549, 46.195623], [6.154525, 46.195665], [6.154629, 46.195754], [6.154657, 46.195745], [6.154737, 46.195913], [6.154723, 46.195892], [6.154666, 46.195916], [6.154309, 46.196138], [6.154146, 46.196143], [6.154036, 46.196097], [6.153783, 46.196139], [6.153577, 46.196225], [6.153494, 46.196307], [6.153173, 46.196411], [6.15315, 46.196465], [6.15296, 46.196569], [6.152973, 46.196605], [6.15305, 46.196642], [6.153052, 46.196711], [6.153023, 46.196606], [6.152889, 46.196552], [6.152973, 46.196549], [6.152823, 46.196456], [6.152702, 46.196586], [6.152758, 46.196666], [6.152716, 46.196732], [6.152743, 46.196759], [6.152719, 46.1968], [6.152517, 46.196931], [6.152207, 46.197025], [6.15203, 46.197189], [6.151921, 46.197202], [6.151787, 46.197269], [6.151609, 46.19741], [6.151473, 46.197643], [6.151215, 46.197794], [6.151059, 46.19794], [6.150855, 46.19801], [6.150799, 46.198109], [6.150527, 46.198305], [6.150408, 46.198332], [6.15038, 46.198424], [6.150313, 46.198436], [6.150286, 46.198511], [6.150227, 46.198536], [6.150158, 46.198622], [6.149719, 46.198822], [6.149399, 46.198899], [6.149426, 46.199173], [6.149372, 46.199223], [6.149363, 46.199376], [6.149199, 46.199697], [6.149233, 46.199804], [6.149225, 46.199829], [6.149192, 46.199829], [6.149183, 46.200081], [6.149125, 46.200191], [6.149177, 46.200311], [6.149164, 46.200481], [6.149178, 46.200523], [6.149206, 46.200523], [6.149183, 46.200508], [6.149133, 46.200539], [6.149309, 46.200546], [6.149359, 46.200606], [6.149528, 46.200612], [6.149482, 46.200672], [6.149623, 46.200701], [6.149491, 46.200807], [6.149437, 46.200888], [6.149415, 46.201052], [6.149535, 46.201132], [6.1496, 46.201326], [6.149724, 46.201435], [6.14968, 46.201456], [6.149749, 46.201587], [6.149734, 46.201678], [6.14976, 46.201748], [6.149804, 46.20185], [6.149882, 46.201876], [6.149918, 46.201918], [6.149834, 46.202036], [6.14978, 46.202061], [6.1498, 46.202144], [6.149726, 46.202195], [6.149791, 46.202271], [6.149808, 46.202325], [6.149782, 46.202348], [6.149845, 46.202406], [6.149962, 46.20245], [6.149998, 46.202507], [6.150155, 46.202551], [6.150086, 46.20254], [6.150034, 46.202423], [6.150008, 46.202502], [6.14996, 46.202485], [6.149898, 46.202512], [6.149792, 46.202497], [6.149584, 46.202538], [6.14934, 46.202613], [6.149126, 46.202715], [6.14899, 46.202731], [6.148924, 46.202763], [6.148569, 46.202765], [6.148154, 46.202891], [6.147836, 46.202939], [6.147799, 46.20302], [6.147905, 46.203196], [6.147907, 46.203259], [6.148023, 46.203348], [6.148022, 46.20339], [6.148088, 46.203463], [6.148057, 46.203487], [6.148101, 46.20357], [6.148097, 46.203792], [6.148173, 46.203847], [6.14819, 46.203893], [6.148174, 46.203968], [6.148039, 46.204055], [6.148097, 46.204188], [6.148087, 46.204302], [6.148065, 46.20435], [6.147979, 46.204368], [6.147876, 46.204436], [6.14771, 46.204443], [6.14769, 46.20448], [6.147534, 46.204518], [6.147495, 46.204505], [6.147404, 46.204566], [6.147153, 46.204522], [6.147029, 46.20461], [6.146977, 46.204595], [6.146848, 46.204713], [6.146654, 46.204754], [6.146564, 46.204797], [6.146561, 46.20484], [6.146711, 46.204968], [6.146838, 46.205316], [6.146856, 46.205415], [6.146806, 46.205482], [6.146942, 46.205876], [6.146784, 46.206227], [6.146721, 46.206287], [6.146659, 46.206464], [6.146593, 46.206539], [6.146534, 46.206758], [6.146545, 46.206853], [6.146457, 46.206945], [6.146361, 46.206983], [6.146125, 46.206921], [6.146149, 46.206908], [6.146115, 46.206891], [6.146135, 46.206873], [6.14607, 46.206853], [6.146102, 46.206864], [6.145939, 46.207038], [6.145833, 46.207021], [6.145781, 46.207045], [6.145965, 46.206945], [6.145986, 46.206961], [6.145933, 46.20693], [6.145981, 46.206978], [6.145879, 46.206914], [6.145637, 46.207311], [6.145675, 46.207381], [6.145607, 46.207379], [6.145669, 46.20735], [6.14567, 46.207422], [6.145715, 46.207408], [6.145621, 46.20758], [6.145493, 46.207628], [6.145468, 46.207668], [6.145441, 46.207662], [6.145318, 46.207953], [6.145213, 46.207956], [6.145215, 46.208024], [6.145061, 46.208189], [6.144735, 46.208406], [6.144606, 46.208456], [6.144575, 46.208491], [6.14441, 46.208543], [6.144287, 46.208661], [6.144053, 46.208779], [6.143407, 46.209251], [6.142942, 46.209464], [6.142359, 46.209907], [6.14233, 46.209947], [6.142372, 46.209945], [6.142354, 46.209962], [6.142453, 46.210101], [6.142511, 46.210113], [6.142412, 46.21008], [6.142407, 46.210048], [6.1425, 46.210046], [6.1425, 46.21007], [6.142525, 46.21004], [6.142506, 46.210063], [6.142963, 46.21063], [6.143055, 46.210699], [6.142969, 46.211035], [6.142983, 46.210998], [6.143001, 46.211053], [6.143016, 46.211009], [6.143037, 46.21103], [6.143066, 46.211009], [6.143121, 46.211125], [6.1432, 46.211196], [6.143264, 46.211236], [6.143312, 46.211214], [6.143323, 46.211165], [6.14334, 46.211237]]}, "properties": {"name": "1784889585.Geneva_again", "cmt": "2026-07-24", "tstamp": 1784851200, "desc": "---", "src": "6.14233/46.18715/6.162814/46.211237", "bbox": "6.14233/46.18715/6.162814/46.211237"}}]}