{"type": "FeatureCollection", "name": "TrackSet", "crs": {"type": "name", "properties": {"name": "urn:ogc:def:crs:OGC:1.3:CRS84"}}, "bbox": [6.190282, 46.328006, 6.196265, 46.331774], "features": [{"type": "Feature", "bbox": [6.190282, 46.328006, 6.196265, 46.331774], "geometry": {"type": "LineString", "coordinates": [[6.194474, 46.331557], [6.194555, 46.331615], [6.194523, 46.331649], [6.194586, 46.331586], [6.194619, 46.331578], [6.194699, 46.331626], [6.194714, 46.331596], [6.194626, 46.331393], [6.194642, 46.331334], [6.194601, 46.331315], [6.194597, 46.331219], [6.19451, 46.331091], [6.194506, 46.331026], [6.194456, 46.330984], [6.194452, 46.330904], [6.194376, 46.330772], [6.194298, 46.330729], [6.194232, 46.330635], [6.194182, 46.330628], [6.194209, 46.330636], [6.194096, 46.330659], [6.194229, 46.330677], [6.194265, 46.330583], [6.19421, 46.330494], [6.194188, 46.330508], [6.194199, 46.33047], [6.194154, 46.330458], [6.194191, 46.330401], [6.194152, 46.330399], [6.194191, 46.33038], [6.194166, 46.330313], [6.193916, 46.330069], [6.193262, 46.330165], [6.193227, 46.330145], [6.193251, 46.330126], [6.193186, 46.329984], [6.193214, 46.329853], [6.19326, 46.329854], [6.193271, 46.329775], [6.193398, 46.329669], [6.193616, 46.329616], [6.193782, 46.329614], [6.19389, 46.329559], [6.194173, 46.329516], [6.194218, 46.329488], [6.19433, 46.329495], [6.19447, 46.329449], [6.194502, 46.329461], [6.194665, 46.329373], [6.194813, 46.329373], [6.194916, 46.329337], [6.195035, 46.329343], [6.194985, 46.329359], [6.195018, 46.329374], [6.195131, 46.32936], [6.195385, 46.329257], [6.195491, 46.32928], [6.1956, 46.329231], [6.195786, 46.329201], [6.195887, 46.329134], [6.196092, 46.329108], [6.196119, 46.329133], [6.196168, 46.329086], [6.196265, 46.329097], [6.196212, 46.329082], [6.195954, 46.329104], [6.195854, 46.329164], [6.195468, 46.329258], [6.195404, 46.329247], [6.195126, 46.329292], [6.194976, 46.329352], [6.19474, 46.329397], [6.194739, 46.329382], [6.194705, 46.32941], [6.194636, 46.329391], [6.194569, 46.329427], [6.194599, 46.329433], [6.194521, 46.329416], [6.194516, 46.329452], [6.194237, 46.329478], [6.194122, 46.329527], [6.194008, 46.329527], [6.193856, 46.329578], [6.193479, 46.329628], [6.193471, 46.329654], [6.19334, 46.32969], [6.193204, 46.329791], [6.193179, 46.329953], [6.193198, 46.330035], [6.193143, 46.330184], [6.193107, 46.330266], [6.192938, 46.330443], [6.192698, 46.330577], [6.192392, 46.330681], [6.192275, 46.330744], [6.19197, 46.330813], [6.191911, 46.330783], [6.191837, 46.330678], [6.191867, 46.330624], [6.191819, 46.330523], [6.191828, 46.330451], [6.191725, 46.330301], [6.191732, 46.330187], [6.191679, 46.33009], [6.191597, 46.330022], [6.191581, 46.329972], [6.191472, 46.329908], [6.191442, 46.329852], [6.191366, 46.329826], [6.191264, 46.329738], [6.191209, 46.329727], [6.191148, 46.329635], [6.191093, 46.329634], [6.191071, 46.329556], [6.190968, 46.329518], [6.190854, 46.329321], [6.190807, 46.329318], [6.190745, 46.329215], [6.190617, 46.329124], [6.190619, 46.329107], [6.190773, 46.329133], [6.190774, 46.329], [6.190658, 46.328806], [6.190636, 46.328708], [6.190667, 46.328723], [6.190583, 46.328626], [6.190564, 46.328488], [6.190509, 46.328432], [6.190484, 46.328319], [6.190428, 46.328265], [6.190378, 46.328054], [6.190344, 46.328006], [6.190282, 46.328037], [6.190596, 46.328849], [6.190643, 46.328905], [6.190636, 46.328982], [6.190671, 46.329058], [6.190629, 46.329166], [6.190907, 46.329432], [6.191, 46.329472], [6.191103, 46.329639], [6.191243, 46.329728], [6.191322, 46.329845], [6.191461, 46.32991], [6.191494, 46.329965], [6.191485, 46.330024], [6.191672, 46.330219], [6.191826, 46.330602], [6.191782, 46.330786], [6.191898, 46.330835], [6.192118, 46.330815], [6.192438, 46.330723], [6.192555, 46.330624], [6.192847, 46.330533], [6.192951, 46.330463], [6.193103, 46.330351], [6.193167, 46.330204], [6.19345, 46.330185], [6.193554, 46.33014], [6.19367, 46.330143], [6.193694, 46.33012], [6.193857, 46.330087], [6.193941, 46.330129], [6.194051, 46.330285], [6.194106, 46.330458], [6.194206, 46.330596], [6.194186, 46.330612], [6.194213, 46.330599], [6.194185, 46.330618], [6.194209, 46.330618], [6.19417, 46.330618], [6.194213, 46.330622], [6.194196, 46.330604], [6.194243, 46.330597], [6.194232, 46.330634], [6.19421, 46.330618], [6.19424, 46.330619], [6.194193, 46.330622], [6.194184, 46.330668], [6.19422, 46.330679], [6.194181, 46.33063], [6.194239, 46.330621], [6.194211, 46.33064], [6.19424, 46.330649], [6.194245, 46.33071], [6.194284, 46.33072], [6.194466, 46.330978], [6.194499, 46.330986], [6.194502, 46.331079], [6.194643, 46.331358], [6.194673, 46.331571], [6.194635, 46.331676], [6.194574, 46.331735], [6.194442, 46.331774], [6.194273, 46.33176]]}, "properties": {"name": "1785613841.Founex_walk_again_with_friend_and_dog", "cmt": "2026-08-01", "tstamp": 1785542400, "desc": "---", "src": "6.190282/46.328006/6.196265/46.331774", "bbox": "6.190282/46.328006/6.196265/46.331774"}}]}