{"type": "FeatureCollection", "name": "TrackSet", "crs": {"type": "name", "properties": {"name": "urn:ogc:def:crs:OGC:1.3:CRS84"}}, "bbox": [7.377644, 46.074693, 7.397285, 46.082217], "features": [{"type": "Feature", "bbox": [7.377644, 46.074693, 7.397285, 46.082217], "geometry": {"type": "LineString", "coordinates": [[7.378612, 46.07478], [7.378549, 46.074693], [7.378482, 46.074694], [7.378423, 46.074725], [7.378363, 46.074888], [7.378299, 46.074909], [7.378345, 46.075007], [7.378329, 46.075033], [7.378273, 46.074985], [7.378034, 46.074977], [7.377965, 46.074956], [7.377959, 46.074932], [7.37787, 46.074978], [7.377803, 46.074926], [7.3777, 46.074938], [7.377644, 46.074977], [7.37783, 46.075218], [7.377915, 46.075291], [7.378045, 46.075347], [7.37811, 46.075518], [7.378238, 46.075595], [7.378212, 46.075685], [7.378304, 46.075706], [7.378304, 46.075777], [7.378602, 46.075829], [7.378805, 46.075916], [7.379251, 46.076015], [7.379702, 46.07608], [7.380134, 46.076248], [7.380503, 46.076358], [7.380615, 46.076365], [7.381259, 46.0766], [7.381535, 46.076613], [7.381736, 46.076679], [7.382486, 46.076817], [7.382723, 46.076834], [7.382973, 46.076912], [7.383177, 46.076931], [7.383291, 46.076968], [7.383516, 46.077155], [7.383361, 46.077106], [7.383234, 46.077097], [7.38323, 46.077157], [7.383119, 46.077178], [7.383118, 46.077248], [7.382927, 46.077291], [7.382723, 46.077268], [7.382699, 46.077292], [7.382609, 46.077265], [7.382496, 46.077327], [7.382606, 46.077369], [7.382802, 46.07752], [7.382893, 46.077508], [7.382996, 46.07759], [7.383047, 46.077659], [7.382942, 46.077709], [7.383132, 46.077804], [7.382971, 46.077896], [7.383125, 46.077999], [7.383245, 46.078017], [7.383177, 46.078046], [7.383194, 46.078082], [7.383352, 46.078122], [7.383372, 46.078164], [7.383564, 46.078236], [7.383698, 46.07826], [7.383839, 46.078382], [7.383922, 46.078403], [7.383956, 46.078457], [7.384015, 46.078484], [7.383967, 46.078514], [7.383963, 46.078573], [7.384251, 46.078783], [7.384494, 46.079024], [7.384472, 46.079147], [7.384505, 46.079223], [7.384729, 46.079476], [7.384885, 46.079488], [7.384897, 46.079557], [7.384951, 46.079603], [7.385522, 46.079755], [7.385938, 46.079797], [7.386188, 46.079873], [7.386544, 46.079915], [7.386696, 46.079963], [7.386995, 46.07991], [7.387003, 46.080007], [7.387139, 46.080034], [7.387161, 46.080057], [7.38686, 46.080195], [7.386792, 46.080183], [7.386664, 46.08025], [7.386515, 46.080287], [7.386499, 46.080302], [7.386544, 46.080348], [7.38668, 46.080405], [7.38686, 46.080435], [7.387023, 46.080597], [7.387064, 46.080612], [7.387085, 46.080586], [7.387201, 46.080788], [7.387511, 46.080984], [7.387759, 46.08103], [7.387889, 46.080952], [7.388525, 46.081063]]}, "properties": {"name": "1785234026.Cabane_Plafleuri_Dix_dam", "cmt": "2026-07-28", "tstamp": 1785196800, "desc": "DownHill", "src": "7.377644/46.074693/7.397285/46.082217", "bbox": "7.377644/46.074693/7.397285/46.082217"}}, {"type": "Feature", "bbox": [7.377644, 46.074693, 7.397285, 46.082217], "geometry": {"type": "LineString", "coordinates": [[7.393207, 46.081942], [7.393286, 46.081994], [7.393501, 46.081975], [7.393715, 46.081988], [7.393964, 46.082052], [7.3942, 46.082196], [7.394348, 46.082215], [7.394637, 46.082217], [7.394933, 46.082095], [7.395044, 46.082102], [7.395159, 46.082076], [7.395225, 46.082026], [7.395197, 46.082031], [7.395214, 46.081985], [7.395338, 46.081793], [7.395541, 46.081622], [7.395583, 46.081477], [7.395594, 46.081501], [7.395581, 46.081481], [7.395784, 46.081393], [7.395899, 46.081192], [7.396, 46.081153], [7.39599, 46.080874], [7.396154, 46.080614], [7.396793, 46.080248], [7.39697, 46.080178], [7.397152, 46.080045], [7.397285, 46.079844]]}, "properties": {"name": "1785234026.Cabane_Plafleuri_Dix_dam", "cmt": "2026-07-28", "tstamp": 1785196800, "desc": "UpHill", "src": "7.377644/46.074693/7.397285/46.082217", "bbox": "7.377644/46.074693/7.397285/46.082217"}}, {"type": "Feature", "bbox": [7.377644, 46.074693, 7.397285, 46.082217], "geometry": {"type": "LineString", "coordinates": [[7.397285, 46.079844], [7.397273, 46.079831]]}, "properties": {"name": "1785234026.Cabane_Plafleuri_Dix_dam", "cmt": "2026-07-28", "tstamp": 1785196800, "desc": "DownHill", "src": "7.377644/46.074693/7.397285/46.082217", "bbox": "7.377644/46.074693/7.397285/46.082217"}}]}