{"type": "FeatureCollection", "name": "TrackSet", "crs": {"type": "name", "properties": {"name": "urn:ogc:def:crs:OGC:1.3:CRS84"}}, "bbox": [7.377677, 46.074879, 7.397309, 46.082219], "features": [{"type": "Feature", "bbox": [7.377677, 46.074879, 7.397309, 46.082219], "geometry": {"type": "LineString", "coordinates": [[7.397309, 46.079848], [7.397285, 46.079835], [7.397243, 46.079887], [7.397169, 46.080031], [7.397123, 46.08003], [7.396738, 46.080245], [7.39656, 46.080311], [7.396451, 46.080392], [7.396204, 46.080455], [7.396076, 46.080518], [7.39603, 46.080514], [7.396012, 46.080669], [7.39594, 46.08078], [7.395908, 46.08101], [7.395858, 46.081131], [7.395813, 46.081162], [7.395698, 46.081392], [7.395656, 46.081379], [7.395668, 46.081402], [7.39566, 46.08137], [7.395691, 46.081392], [7.395558, 46.081452], [7.395493, 46.081589], [7.395361, 46.081641], [7.395329, 46.08177], [7.395281, 46.081808], [7.395273, 46.081875], [7.395172, 46.082023], [7.395005, 46.08209], [7.394872, 46.082085], [7.394709, 46.082161], [7.394618, 46.082168], [7.394575, 46.082219], [7.39453, 46.082191], [7.394437, 46.082203], [7.394355, 46.082199], [7.394338, 46.08217], [7.394216, 46.082176], [7.394076, 46.082039], [7.393817, 46.081992], [7.393753, 46.082001], [7.393706, 46.081967], [7.393443, 46.081968], [7.393377, 46.081944], [7.393303, 46.081965], [7.393056, 46.081921], [7.392746, 46.081914], [7.392667, 46.081877], [7.392392, 46.081883], [7.392359, 46.081839], [7.391992, 46.081688], [7.391907, 46.081583], [7.391842, 46.081579], [7.391699, 46.081458], [7.391689, 46.081398], [7.391625, 46.081375], [7.39159, 46.081321], [7.391463, 46.081318], [7.391359, 46.08135], [7.39119, 46.081314], [7.391101, 46.081262], [7.39105, 46.081278], [7.391, 46.081229], [7.390877, 46.081235], [7.390818, 46.081184], [7.39064, 46.081134], [7.390396, 46.080992], [7.39025, 46.080971], [7.390137, 46.080864], [7.390084, 46.08086], [7.390095, 46.080843], [7.390026, 46.080866], [7.389989, 46.080837], [7.389918, 46.08084], [7.389909, 46.080793], [7.389848, 46.080832], [7.3899, 46.080795], [7.389818, 46.080763], [7.3898, 46.0808], [7.3897, 46.080742], [7.3894, 46.080855], [7.389287, 46.080932], [7.389036, 46.080956]]}, "properties": {"name": "1785237705.Afternoon_Hike", "cmt": "2026-07-28", "tstamp": 1785196800, "desc": "DownHill", "src": "7.377677/46.074879/7.397309/46.082219", "bbox": "7.377677/46.074879/7.397309/46.082219"}}, {"type": "Feature", "bbox": [7.377677, 46.074879, 7.397309, 46.082219], "geometry": {"type": "LineString", "coordinates": [[7.389016, 46.08096], [7.388787, 46.081012], [7.388712, 46.081065], [7.388761, 46.081071], [7.388662, 46.081121], [7.388591, 46.081107], [7.388474, 46.081139], [7.388472, 46.081115], [7.388298, 46.081071], [7.388235, 46.081105], [7.388196, 46.081094], [7.388112, 46.081023], [7.388111, 46.080988], [7.388028, 46.080983], [7.388015, 46.080942], [7.387921, 46.080936], [7.387883, 46.080911], [7.387839, 46.080917], [7.387739, 46.081013], [7.387675, 46.080968], [7.387501, 46.080939], [7.387504, 46.080903], [7.387336, 46.080849], [7.38729, 46.080736], [7.387231, 46.080727], [7.387055, 46.080511], [7.387035, 46.080539], [7.387079, 46.080507], [7.387036, 46.080447], [7.386684, 46.080335], [7.386635, 46.080358], [7.386538, 46.080309], [7.38655, 46.08029], [7.386584, 46.080306], [7.386803, 46.080256], [7.386877, 46.080181], [7.386959, 46.080179], [7.387038, 46.080114], [7.387108, 46.080111], [7.387157, 46.080076], [7.387163, 46.08009], [7.387233, 46.080065], [7.387223, 46.080081], [7.387192, 46.079995], [7.387089, 46.080011], [7.387035, 46.079966], [7.387023, 46.079993], [7.386896, 46.079997], [7.386875, 46.08002], [7.386883, 46.079968], [7.386709, 46.079952], [7.386738, 46.079929], [7.3867, 46.0799], [7.386682, 46.079924], [7.386576, 46.079946], [7.386518, 46.079877], [7.386384, 46.079886], [7.386335, 46.079861], [7.386178, 46.079847], [7.386093, 46.079796], [7.38592, 46.079747], [7.385619, 46.079757], [7.3856, 46.079725], [7.385473, 46.079713], [7.385267, 46.079636], [7.384942, 46.079581], [7.384904, 46.079447], [7.384845, 46.079456], [7.384832, 46.079434], [7.384725, 46.079461], [7.384733, 46.079428], [7.38468, 46.079389], [7.384653, 46.079296], [7.384554, 46.079252], [7.384508, 46.079157], [7.384544, 46.07908], [7.384523, 46.078989], [7.384428, 46.078972], [7.384304, 46.078842], [7.384226, 46.078818], [7.384201, 46.078783], [7.384218, 46.078747], [7.384107, 46.078645], [7.384117, 46.078607], [7.384007, 46.07852], [7.384051, 46.07846], [7.383964, 46.078425], [7.383972, 46.07839], [7.383892, 46.078354], [7.383837, 46.078266], [7.383752, 46.078227], [7.383641, 46.07824], [7.383591, 46.078202], [7.383519, 46.07819], [7.383497, 46.078156], [7.383363, 46.078128], [7.383229, 46.078056], [7.383222, 46.078088], [7.383279, 46.078034], [7.383188, 46.077971], [7.383138, 46.077974], [7.383144, 46.077929], [7.383109, 46.07794], [7.383042, 46.077899], [7.382981, 46.077918], [7.383017, 46.077878], [7.383037, 46.07791], [7.38309, 46.077909], [7.383161, 46.077835], [7.383144, 46.077763], [7.383019, 46.077752], [7.382999, 46.077697], [7.382949, 46.077711], [7.382986, 46.077703], [7.38299, 46.077745], [7.382997, 46.077723], [7.383085, 46.077705], [7.383074, 46.077666], [7.383043, 46.077661], [7.383094, 46.077626], [7.383072, 46.077582], [7.383022, 46.077612], [7.382984, 46.077604], [7.38294, 46.077571], [7.38293, 46.077509], [7.382908, 46.077536], [7.3829, 46.077506], [7.38279, 46.077463], [7.382689, 46.077466], [7.382626, 46.077381], [7.382566, 46.077369], [7.382582, 46.077345], [7.382539, 46.077346], [7.382547, 46.077301], [7.382728, 46.077335], [7.382852, 46.077289], [7.38298, 46.077312], [7.383018, 46.077222], [7.382992, 46.077263], [7.383027, 46.07729], [7.383116, 46.077254], [7.383101, 46.077287], [7.383162, 46.07726], [7.383111, 46.077224], [7.383144, 46.077174], [7.383137, 46.077201], [7.383182, 46.077195], [7.383167, 46.077212], [7.383129, 46.077175], [7.38314, 46.077213], [7.38317, 46.077191], [7.38323, 46.077199], [7.383201, 46.077183], [7.383187, 46.077201], [7.383177, 46.077179], [7.38315, 46.077215], [7.383182, 46.077183], [7.383272, 46.077188], [7.38329, 46.077084], [7.383265, 46.077074], [7.383296, 46.077149], [7.383383, 46.077124], [7.383466, 46.077159], [7.38356, 46.077159], [7.383515, 46.077079], [7.383413, 46.076999], [7.383322, 46.076999], [7.383252, 46.076941], [7.383124, 46.076901], [7.383092, 46.076862], [7.382975, 46.076866], [7.3829, 46.07685], [7.382872, 46.07682], [7.382731, 46.076807], [7.382692, 46.076838], [7.382709, 46.076789], [7.382638, 46.076816], [7.382426, 46.076744], [7.382285, 46.076754], [7.382259, 46.076711], [7.382119, 46.076697], [7.381946, 46.076716], [7.381777, 46.076636], [7.381723, 46.076679], [7.381628, 46.076662], [7.381597, 46.076606], [7.381476, 46.0766], [7.381356, 46.076543], [7.38131, 46.076571], [7.381206, 46.076554], [7.381109, 46.076509], [7.381017, 46.07651], [7.380812, 46.076427], [7.380706, 46.076411], [7.380643, 46.076373], [7.380549, 46.07637], [7.38047, 46.076327], [7.38032, 46.076318], [7.380261, 46.076269], [7.380113, 46.076236], [7.380015, 46.076168], [7.379898, 46.076159], [7.379777, 46.076065], [7.37934, 46.075991], [7.379267, 46.075961], [7.379255, 46.075929], [7.378866, 46.075915], [7.378787, 46.075895], [7.378684, 46.075812], [7.378638, 46.075827], [7.378481, 46.075784], [7.378392, 46.075808], [7.37833, 46.07576], [7.378282, 46.075749], [7.378283, 46.075764], [7.378296, 46.075701], [7.378248, 46.075668], [7.3783, 46.07559], [7.378161, 46.075566], [7.378141, 46.075457], [7.378113, 46.075463], [7.378087, 46.075435], [7.378107, 46.075363], [7.378037, 46.075362], [7.378003, 46.075291], [7.377896, 46.075282], [7.377898, 46.075225], [7.377891, 46.075256], [7.377868, 46.075245], [7.377888, 46.075274], [7.377875, 46.075239], [7.377848, 46.075264], [7.37789, 46.075246], [7.377858, 46.075256], [7.377868, 46.07523], [7.377854, 46.075254], [7.377866, 46.075226], [7.377848, 46.075245], [7.377869, 46.075232], [7.377872, 46.075257], [7.377877, 46.075229], [7.377876, 46.075254], [7.377856, 46.075235], [7.377891, 46.075257], [7.377884, 46.075235], [7.377846, 46.075244], [7.377885, 46.075215], [7.377677, 46.075026], [7.377687, 46.074944], [7.377808, 46.074953], [7.377788, 46.074959], [7.377841, 46.074984], [7.377925, 46.075003], [7.37793, 46.074974], [7.377972, 46.07496], [7.378037, 46.074989], [7.378086, 46.074983], [7.378102, 46.075013], [7.378201, 46.074993], [7.378335, 46.07506], [7.378387, 46.075041], [7.378323, 46.074883], [7.378412, 46.074879], [7.378609, 46.074922], [7.37878, 46.074893]]}, "properties": {"name": "1785237705.Afternoon_Hike", "cmt": "2026-07-28", "tstamp": 1785196800, "desc": "UpHill", "src": "7.377677/46.074879/7.397309/46.082219", "bbox": "7.377677/46.074879/7.397309/46.082219"}}, {"type": "Feature", "bbox": [7.377677, 46.074879, 7.397309, 46.082219], "geometry": {"type": "LineString", "coordinates": [[7.378774, 46.074894], [7.37878, 46.074912]]}, "properties": {"name": "1785237705.Afternoon_Hike", "cmt": "2026-07-28", "tstamp": 1785196800, "desc": "DownHill", "src": "7.377677/46.074879/7.397309/46.082219", "bbox": "7.377677/46.074879/7.397309/46.082219"}}]}