{"type": "FeatureCollection", "name": "TrackSet", "crs": {"type": "name", "properties": {"name": "urn:ogc:def:crs:OGC:1.3:CRS84"}}, "bbox": [6.187419, 46.315002, 6.205214, 46.33608], "features": [{"type": "Feature", "bbox": [6.187419, 46.315002, 6.205214, 46.33608], "geometry": {"type": "LineString", "coordinates": [[6.194329, 46.33168], [6.194298, 46.331685], [6.194306, 46.331774], [6.194257, 46.331622], [6.194233, 46.331632], [6.194189, 46.331601], [6.194072, 46.331579], [6.194088, 46.331481], [6.194029, 46.331318], [6.194134, 46.331606], [6.194321, 46.331801], [6.194339, 46.331481], [6.194404, 46.331713], [6.194318, 46.331748], [6.194328, 46.331788], [6.194297, 46.331754], [6.194329, 46.331759], [6.19431, 46.331743], [6.194315, 46.331809], [6.194275, 46.331772], [6.194299, 46.331806], [6.194226, 46.331841], [6.194217, 46.331822], [6.194041, 46.331833], [6.193942, 46.331796], [6.193894, 46.331811], [6.193734, 46.331797], [6.193163, 46.331889], [6.19296, 46.331956], [6.192756, 46.332186], [6.192613, 46.332246], [6.192508, 46.332376], [6.192496, 46.332454], [6.192556, 46.332586], [6.192617, 46.332628], [6.192676, 46.332814], [6.192732, 46.332883], [6.192701, 46.332927], [6.192723, 46.333117], [6.19284, 46.33334], [6.19298, 46.333503], [6.193148, 46.33361], [6.193181, 46.333703], [6.193255, 46.333767], [6.193893, 46.334053], [6.19393, 46.334102], [6.193998, 46.334116], [6.194329, 46.334318], [6.194389, 46.334319], [6.194465, 46.334452], [6.194589, 46.334504], [6.194741, 46.334621], [6.19489, 46.334674], [6.195016, 46.334784], [6.195144, 46.334839], [6.195204, 46.33491], [6.195406, 46.334959], [6.195947, 46.335251], [6.196423, 46.335536], [6.196506, 46.335609], [6.196583, 46.335629], [6.196985, 46.335885], [6.19718, 46.335977], [6.197294, 46.336062], [6.197282, 46.33608], [6.19737, 46.336059], [6.197481, 46.335922], [6.197452, 46.335806], [6.197316, 46.335681], [6.197306, 46.335623], [6.197268, 46.335598], [6.197288, 46.335506], [6.197125, 46.335002], [6.197081, 46.334622], [6.196971, 46.334463], [6.196955, 46.334343], [6.197287, 46.334222], [6.197369, 46.334167], [6.197636, 46.334086], [6.198006, 46.333902], [6.198338, 46.333773], [6.198551, 46.333666], [6.198619, 46.333601], [6.198738, 46.333593], [6.199489, 46.333162], [6.199773, 46.332946], [6.199839, 46.332934], [6.19991, 46.33287], [6.2001, 46.332789], [6.200472, 46.332571], [6.200588, 46.33246], [6.200689, 46.33243], [6.200792, 46.3323], [6.200841, 46.33231], [6.200981, 46.332228], [6.201143, 46.332196], [6.201348, 46.332084], [6.201402, 46.332014], [6.201906, 46.331874], [6.202171, 46.331858], [6.202251, 46.331829], [6.202315, 46.331835], [6.202351, 46.331867], [6.202374, 46.331967], [6.202338, 46.332077], [6.202437, 46.332275], [6.202476, 46.332563], [6.202459, 46.332679], [6.202514, 46.332884], [6.202484, 46.333017], [6.202508, 46.333246], [6.202487, 46.333287], [6.202511, 46.333273], [6.202468, 46.3334], [6.202493, 46.333493], [6.202455, 46.333538], [6.20247, 46.333601], [6.202441, 46.33365], [6.202468, 46.333818], [6.202588, 46.33397], [6.202542, 46.334057], [6.202592, 46.33411], [6.202581, 46.334297], [6.202611, 46.334404], [6.202722, 46.334429], [6.202913, 46.334429], [6.203191, 46.334395], [6.203259, 46.334512], [6.203374, 46.334555], [6.20348, 46.334572], [6.203708, 46.334555], [6.203908, 46.334517], [6.204256, 46.334393], [6.204481, 46.334263], [6.204489, 46.334178], [6.204526, 46.334169], [6.20449, 46.334187], [6.204516, 46.33417], [6.204468, 46.334177], [6.204517, 46.334164], [6.204492, 46.334179], [6.204514, 46.334159], [6.204491, 46.334166], [6.204494, 46.334146], [6.204498, 46.334173], [6.204475, 46.334156], [6.204487, 46.334195], [6.204528, 46.33415], [6.204641, 46.334155], [6.203721, 46.334227], [6.204389, 46.334248], [6.204338, 46.334343], [6.204405, 46.334345], [6.204553, 46.334193], [6.204708, 46.334132], [6.204804, 46.334137], [6.20484, 46.334096], [6.204804, 46.334076], [6.204731, 46.334125], [6.204683, 46.334213], [6.204574, 46.334263], [6.204631, 46.334264], [6.2046, 46.334296], [6.204608, 46.334368], [6.204601, 46.334334], [6.204675, 46.334272], [6.204624, 46.334292], [6.204617, 46.334268], [6.204573, 46.334273], [6.204498, 46.334321], [6.204559, 46.334318], [6.204537, 46.334338], [6.204575, 46.33427], [6.204626, 46.334285], [6.204595, 46.334369], [6.204582, 46.334323], [6.204567, 46.334389], [6.204717, 46.334559], [6.204801, 46.334577], [6.204827, 46.334514], [6.204992, 46.334589], [6.204955, 46.334613], [6.204854, 46.33458], [6.204817, 46.33447], [6.204723, 46.334523], [6.204774, 46.334497], [6.204833, 46.334507], [6.204864, 46.334473], [6.204867, 46.334524], [6.204668, 46.334321], [6.20469, 46.334399], [6.204756, 46.334306], [6.204805, 46.334339], [6.204745, 46.334395], [6.204731, 46.334374], [6.204815, 46.334403], [6.204735, 46.334339], [6.204698, 46.334398], [6.204746, 46.334506], [6.204809, 46.334491], [6.204833, 46.334422], [6.20481, 46.334419], [6.204848, 46.334383], [6.20497, 46.33453], [6.205021, 46.334532], [6.205092, 46.334589], [6.205019, 46.334526], [6.204978, 46.334522], [6.20505, 46.334642], [6.204888, 46.33447], [6.204904, 46.334513], [6.204739, 46.334432], [6.204695, 46.334434], [6.204665, 46.334399], [6.204899, 46.334877], [6.205037, 46.334808], [6.205098, 46.334817], [6.205214, 46.334761], [6.205113, 46.334727], [6.204926, 46.33474], [6.204743, 46.334867], [6.204541, 46.334285], [6.204631, 46.334184], [6.20459, 46.334138], [6.204512, 46.334166], [6.204542, 46.334138], [6.204729, 46.334204], [6.204902, 46.334188], [6.204898, 46.334146], [6.204923, 46.33416], [6.204807, 46.334141], [6.204696, 46.334053], [6.204753, 46.334089], [6.204664, 46.334081], [6.204802, 46.333944], [6.204706, 46.333893], [6.204814, 46.333769], [6.204791, 46.333743], [6.204906, 46.333798], [6.204841, 46.333801], [6.204757, 46.333873], [6.204735, 46.333982], [6.204702, 46.333985], [6.204813, 46.333971], [6.20457, 46.334082], [6.204507, 46.33415], [6.204534, 46.334129], [6.204534, 46.334151], [6.204798, 46.333505], [6.204728, 46.333501], [6.204812, 46.333436], [6.204856, 46.333433], [6.204555, 46.333298], [6.204877, 46.333337], [6.204747, 46.333306], [6.204834, 46.333599], [6.205124, 46.333477], [6.205067, 46.33355], [6.205048, 46.333535], [6.20484, 46.33371], [6.204749, 46.333725], [6.204714, 46.333758], [6.204724, 46.333802], [6.20488, 46.333705], [6.205009, 46.333406], [6.20497, 46.333432], [6.204972, 46.333452], [6.204994, 46.33344], [6.204977, 46.33353], [6.20474, 46.333708], [6.204601, 46.33375], [6.204673, 46.333761], [6.204666, 46.333722], [6.204705, 46.333712], [6.204727, 46.333668], [6.204662, 46.333661], [6.20468, 46.33371], [6.204884, 46.333632], [6.204909, 46.33365], [6.204859, 46.333699], [6.204876, 46.333728], [6.204835, 46.33375], [6.204833, 46.333733], [6.20485, 46.333747], [6.204828, 46.333697], [6.204797, 46.333691], [6.204725, 46.333765], [6.204691, 46.333761], [6.204565, 46.333845], [6.204662, 46.333929], [6.204682, 46.333833], [6.204712, 46.333845], [6.204688, 46.333781], [6.204654, 46.333783], [6.204762, 46.333793], [6.2047, 46.333778], [6.20473, 46.333748], [6.204703, 46.333724], [6.204867, 46.333668], [6.204721, 46.333734], [6.204736, 46.333865], [6.204672, 46.333876], [6.204627, 46.333939], [6.204873, 46.33392], [6.204791, 46.333917], [6.204827, 46.333882], [6.204799, 46.333904], [6.20479, 46.333882], [6.20473, 46.333989], [6.204622, 46.334009], [6.204523, 46.333964], [6.203862, 46.334222], [6.20494, 46.333888], [6.204884, 46.333903], [6.204654, 46.33407], [6.204597, 46.334068], [6.204604, 46.334043], [6.204429, 46.333958], [6.204898, 46.333843], [6.204894, 46.333883], [6.20463, 46.334046], [6.204671, 46.333999], [6.204711, 46.333996], [6.204626, 46.334056], [6.204918, 46.333935], [6.204791, 46.333945], [6.204767, 46.333923], [6.204662, 46.33396], [6.204678, 46.334013], [6.204408, 46.334131], [6.20433, 46.334198], [6.204107, 46.334268], [6.204224, 46.334211], [6.204682, 46.334117], [6.204302, 46.334254], [6.204529, 46.334121], [6.204515, 46.334101], [6.204533, 46.334149], [6.204499, 46.334181], [6.204498, 46.334146], [6.204475, 46.334186], [6.204479, 46.334153], [6.204491, 46.334193], [6.20447, 46.334172], [6.204498, 46.334185], [6.204499, 46.334166], [6.204492, 46.334188], [6.2045, 46.334165], [6.20449, 46.334182], [6.204446, 46.33417], [6.204493, 46.334147], [6.204502, 46.334188], [6.204503, 46.334152], [6.204484, 46.334183], [6.204462, 46.334169], [6.204479, 46.3342], [6.204462, 46.334172], [6.204468, 46.334188], [6.20444, 46.334184], [6.204503, 46.334181], [6.204444, 46.334178], [6.204456, 46.334165], [6.204496, 46.334178], [6.204485, 46.334164], [6.204478, 46.334194], [6.204448, 46.334173], [6.204433, 46.334252], [6.204381, 46.334288], [6.203937, 46.334487], [6.203829, 46.334503], [6.203862, 46.334515], [6.203409, 46.334534], [6.203326, 46.334505], [6.203244, 46.334391], [6.20318, 46.334366], [6.202865, 46.334364], [6.202758, 46.334394], [6.202662, 46.334373], [6.202612, 46.334338], [6.202558, 46.334174], [6.202582, 46.334041], [6.202562, 46.334006], [6.202601, 46.333934], [6.20249, 46.333756], [6.202514, 46.333561], [6.202497, 46.333057], [6.20236, 46.333009], [6.20233, 46.332912], [6.202365, 46.33284], [6.202333, 46.33282], [6.202344, 46.332735], [6.202286, 46.332516], [6.202326, 46.332323], [6.20231, 46.332247], [6.202352, 46.332129], [6.202278, 46.332032], [6.202248, 46.331895], [6.202144, 46.33184], [6.201654, 46.331923], [6.201253, 46.332151], [6.201052, 46.332224], [6.200855, 46.33238], [6.200758, 46.332415], [6.200754, 46.332455], [6.200675, 46.332504], [6.200569, 46.332516], [6.200483, 46.332554], [6.200285, 46.332701], [6.200012, 46.332837], [6.199682, 46.333054], [6.19962, 46.33306], [6.199303, 46.333267], [6.199205, 46.333287], [6.199032, 46.333406], [6.19893, 46.333433], [6.198831, 46.333522], [6.198598, 46.333649], [6.198284, 46.333752], [6.198124, 46.333865], [6.197951, 46.333914], [6.19761, 46.334082], [6.197382, 46.334172], [6.197184, 46.334215], [6.197043, 46.334312], [6.196969, 46.334331], [6.196888, 46.334404], [6.196857, 46.334378], [6.196907, 46.334318], [6.197069, 46.334327], [6.19654, 46.334354], [6.196568, 46.334321], [6.196533, 46.334259], [6.196543, 46.334148], [6.196485, 46.334124], [6.196469, 46.334024], [6.19633, 46.333919], [6.195934, 46.333834], [6.195598, 46.333702], [6.195316, 46.333645], [6.195147, 46.333536], [6.194757, 46.333411], [6.194651, 46.333298], [6.194272, 46.33312], [6.194098, 46.333107], [6.193754, 46.333152], [6.1937, 46.33314], [6.193267, 46.333282], [6.193096, 46.333325], [6.193074, 46.333308], [6.193031, 46.333318], [6.192945, 46.333378], [6.192869, 46.333351], [6.192836, 46.333173], [6.192756, 46.333047], [6.192765, 46.332907], [6.192691, 46.332787], [6.192702, 46.332694], [6.192577, 46.332517], [6.192555, 46.332427], [6.19265, 46.332274], [6.192715, 46.332223], [6.192938, 46.332176], [6.193004, 46.332135], [6.193001, 46.331977], [6.19307, 46.331934], [6.19319, 46.331933], [6.193256, 46.3319], [6.193358, 46.331908], [6.193614, 46.331859], [6.19376, 46.33178], [6.194077, 46.331827], [6.194274, 46.331795], [6.194333, 46.331753], [6.19432, 46.33171], [6.1944, 46.331747], [6.19438, 46.33177], [6.194383, 46.331743], [6.194289, 46.331695], [6.194346, 46.331681], [6.194302, 46.331677], [6.194324, 46.331671], [6.194281, 46.331384], [6.194319, 46.33142], [6.19426, 46.331445], [6.19425, 46.331429], [6.194267, 46.331473], [6.194455, 46.331705], [6.19459, 46.331716], [6.194667, 46.331691], [6.194683, 46.331651], [6.194658, 46.331525], [6.194564, 46.331401], [6.194564, 46.331305], [6.194503, 46.331258], [6.194477, 46.331047], [6.19441, 46.330993], [6.194338, 46.330834], [6.194281, 46.330834], [6.194326, 46.330831], [6.194304, 46.330833], [6.194309, 46.330783], [6.194031, 46.330233], [6.193899, 46.330107], [6.193334, 46.330169], [6.193247, 46.330152], [6.193204, 46.330099], [6.193265, 46.32978], [6.193298, 46.32974], [6.19341, 46.329694], [6.193931, 46.329538], [6.194133, 46.329529], [6.194309, 46.329473], [6.194652, 46.329418], [6.194761, 46.329421], [6.194902, 46.329347], [6.194948, 46.329352], [6.195004, 46.329398], [6.195103, 46.329359], [6.195152, 46.329369], [6.195281, 46.329337], [6.195552, 46.329257], [6.195629, 46.329211], [6.195874, 46.329157], [6.196102, 46.328999], [6.196287, 46.328958], [6.196299, 46.328917], [6.196167, 46.32879], [6.195852, 46.328358], [6.195722, 46.328264], [6.195598, 46.328098], [6.195467, 46.328], [6.19537, 46.327836], [6.195217, 46.327692], [6.19515, 46.327547], [6.195051, 46.327457], [6.195041, 46.32739], [6.194918, 46.327242], [6.194807, 46.327019], [6.194462, 46.326663], [6.194101, 46.326146], [6.19404, 46.326167], [6.193921, 46.32607], [6.193793, 46.325894], [6.193598, 46.325704], [6.19355, 46.3256], [6.193467, 46.325569], [6.193364, 46.325569], [6.19289, 46.325788], [6.192731, 46.325833], [6.192663, 46.325813], [6.192636, 46.325694], [6.192497, 46.325533], [6.192462, 46.325428], [6.191977, 46.324738], [6.191889, 46.324653], [6.19136, 46.323853], [6.191403, 46.323788], [6.19187, 46.323516], [6.192128, 46.323211], [6.192105, 46.323111], [6.191965, 46.323011], [6.191532, 46.322798], [6.190804, 46.322229], [6.190763, 46.322133], [6.190426, 46.321738], [6.190389, 46.321575], [6.190195, 46.321223], [6.190124, 46.320991], [6.190051, 46.320902], [6.190045, 46.320774], [6.190081, 46.320677], [6.189799, 46.320396], [6.189479, 46.320146], [6.189196, 46.320074], [6.189155, 46.320035], [6.189158, 46.319962], [6.189194, 46.319928], [6.189419, 46.319817], [6.189498, 46.319731], [6.189628, 46.319693], [6.189653, 46.319656], [6.19005, 46.319587], [6.190245, 46.319515], [6.190357, 46.319422], [6.191157, 46.319205], [6.191397, 46.319055], [6.191451, 46.318977], [6.191687, 46.318891], [6.191767, 46.318798], [6.191788, 46.318804], [6.19179, 46.318774], [6.191837, 46.318759], [6.191832, 46.318723], [6.191891, 46.318708], [6.191898, 46.318605], [6.191954, 46.318572], [6.191989, 46.318577], [6.192, 46.318517], [6.192055, 46.318491], [6.192177, 46.318316], [6.192196, 46.317917], [6.192296, 46.3178], [6.192269, 46.31777], [6.192294, 46.317729], [6.19226, 46.317704], [6.192522, 46.317534], [6.192556, 46.317543], [6.192699, 46.317287], [6.192791, 46.317221], [6.192807, 46.317174], [6.192914, 46.317176], [6.193134, 46.316923], [6.193166, 46.316932], [6.193218, 46.316892], [6.193193, 46.316867], [6.193207, 46.316805], [6.193257, 46.316781], [6.19329, 46.316673], [6.193406, 46.316667], [6.193488, 46.316622], [6.193477, 46.316448], [6.193396, 46.316332], [6.193378, 46.31635], [6.193204, 46.316272], [6.193132, 46.316087], [6.193104, 46.316078], [6.193121, 46.316062], [6.193055, 46.316047], [6.193034, 46.315983], [6.192959, 46.315974], [6.19298, 46.315919], [6.192818, 46.315834], [6.192724, 46.315638], [6.19248, 46.315565], [6.192408, 46.315592], [6.192391, 46.315551], [6.192599, 46.315369], [6.192681, 46.315236], [6.192675, 46.315098], [6.19259, 46.315076], [6.192652, 46.31505], [6.192615, 46.315035], [6.19256, 46.31505], [6.192606, 46.31505], [6.192565, 46.315035], [6.192584, 46.315002], [6.192582, 46.31505], [6.19261, 46.315036], [6.192556, 46.315096], [6.192589, 46.315076], [6.192586, 46.315092], [6.192586, 46.315065], [6.192637, 46.315071], [6.192592, 46.315108], [6.192573, 46.31509], [6.192605, 46.31508], [6.192548, 46.315042], [6.19251, 46.315072], [6.192618, 46.315103], [6.192608, 46.315072], [6.192626, 46.315087], [6.192644, 46.315068], [6.192614, 46.315113], [6.19264, 46.315037], [6.192598, 46.315047], [6.192666, 46.315016], [6.192591, 46.315037], [6.192655, 46.315004], [6.192569, 46.315054], [6.192625, 46.315032], [6.192585, 46.315054], [6.192598, 46.315008], [6.192627, 46.315047], [6.192687, 46.315044], [6.192686, 46.315068], [6.192579, 46.315055], [6.192524, 46.315126], [6.192617, 46.315053], [6.19265, 46.315064], [6.192663, 46.315037], [6.192654, 46.315067], [6.192632, 46.315053], [6.192673, 46.315066], [6.192659, 46.315035], [6.192646, 46.315071], [6.192682, 46.315077], [6.192658, 46.315072], [6.192688, 46.315068], [6.192658, 46.315072], [6.192675, 46.31505], [6.192618, 46.315073], [6.192517, 46.315069], [6.192561, 46.315063], [6.192612, 46.31509], [6.192637, 46.315075], [6.192607, 46.315083], [6.192634, 46.315112], [6.192614, 46.315267], [6.192465, 46.315416], [6.192346, 46.315467], [6.19234, 46.315505], [6.192308, 46.315496], [6.192269, 46.315544], [6.19225, 46.315647], [6.192173, 46.315724], [6.192187, 46.315866], [6.192042, 46.316049], [6.191933, 46.316143], [6.191832, 46.31618], [6.191778, 46.316309], [6.191658, 46.316433], [6.191576, 46.316442], [6.191461, 46.316594], [6.191302, 46.316707], [6.191196, 46.316749], [6.191162, 46.316834], [6.190793, 46.317037], [6.19077, 46.31709], [6.190686, 46.317156], [6.190566, 46.3172], [6.190513, 46.317147], [6.190467, 46.317141], [6.190153, 46.317205], [6.18976, 46.317347], [6.188997, 46.317564], [6.18863, 46.317532], [6.188383, 46.317388], [6.18823, 46.317394], [6.188004, 46.317508], [6.187921, 46.317496], [6.187899, 46.317659], [6.18791, 46.317726], [6.187938, 46.317729], [6.18791, 46.317661], [6.187936, 46.317664], [6.187907, 46.317752], [6.187934, 46.317716], [6.187774, 46.317686], [6.187759, 46.317652], [6.187784, 46.31763], [6.187801, 46.317688], [6.187792, 46.317707], [6.187762, 46.317698], [6.187765, 46.317667], [6.187809, 46.317732], [6.18775, 46.31769], [6.187757, 46.317656], [6.187735, 46.317665], [6.187767, 46.317681], [6.18777, 46.317724], [6.187759, 46.317644], [6.187776, 46.317689], [6.187687, 46.317678], [6.187734, 46.317646], [6.187558, 46.317729], [6.187585, 46.317723], [6.187643, 46.317804], [6.187651, 46.317874], [6.187763, 46.318039], [6.18773, 46.318152], [6.187786, 46.318269], [6.187791, 46.318359], [6.187775, 46.318428], [6.18772, 46.318452], [6.187729, 46.318637], [6.187457, 46.318725], [6.187419, 46.318758], [6.18744, 46.31891], [6.187644, 46.319257], [6.187672, 46.319428], [6.187802, 46.319728], [6.187797, 46.319859], [6.187744, 46.319931], [6.18774, 46.320145], [6.187681, 46.32039], [6.187699, 46.320433], [6.187628, 46.320654], [6.187642, 46.320861], [6.187583, 46.320946], [6.187553, 46.321078], [6.187772, 46.321386], [6.187821, 46.321591], [6.188043, 46.321877], [6.188054, 46.322074], [6.188112, 46.322166], [6.188108, 46.322226], [6.188228, 46.322343], [6.188301, 46.322531], [6.188499, 46.322788], [6.188578, 46.32295], [6.188727, 46.3231], [6.188786, 46.323125], [6.188898, 46.323277], [6.189017, 46.323382], [6.189427, 46.323947], [6.189426, 46.324028], [6.189648, 46.32453], [6.189691, 46.324718], [6.189762, 46.32488], [6.18983, 46.324945], [6.18987, 46.325185], [6.189927, 46.325263], [6.189944, 46.325353], [6.189924, 46.325435], [6.189837, 46.325537], [6.18955, 46.325667], [6.189403, 46.325848], [6.189403, 46.326023], [6.18945, 46.326129], [6.189442, 46.32624], [6.189514, 46.326518], [6.189587, 46.326707], [6.189846, 46.327117], [6.189907, 46.327274], [6.190021, 46.327412], [6.19026, 46.327906], [6.190247, 46.327974], [6.190353, 46.328185], [6.190353, 46.328283], [6.190656, 46.328946], [6.190655, 46.329057], [6.190686, 46.329092], [6.190637, 46.32913], [6.190649, 46.329175], [6.190731, 46.32926], [6.190744, 46.329317], [6.190969, 46.329504], [6.191006, 46.329585], [6.191211, 46.329723], [6.191313, 46.329846], [6.191464, 46.329949], [6.191745, 46.330451], [6.191814, 46.330505], [6.191819, 46.330695], [6.191744, 46.330721], [6.191742, 46.330767], [6.191864, 46.330812], [6.191965, 46.330946], [6.191933, 46.330997], [6.191954, 46.331179], [6.192028, 46.331302], [6.192055, 46.331524], [6.192115, 46.331703], [6.192092, 46.331804], [6.192229, 46.331949], [6.192315, 46.332116], [6.192441, 46.33215], [6.19258, 46.332125], [6.192661, 46.332145], [6.192953, 46.332062], [6.193003, 46.331974], [6.193062, 46.331934], [6.193278, 46.331916], [6.193618, 46.331817], [6.194291, 46.331822], [6.19431, 46.331799], [6.194246, 46.331676]]}, "properties": {"name": "1785845992.Founex_walk_and_dip_in_lake_with_Julie", "cmt": "2026-08-04", "tstamp": 1785801600, "desc": "---", "src": "6.187419/46.315002/6.205214/46.33608", "bbox": "6.187419/46.315002/6.205214/46.33608"}}]}