{"type": "FeatureCollection", "name": "TrackSet", "crs": {"type": "name", "properties": {"name": "urn:ogc:def:crs:OGC:1.3:CRS84"}}, "bbox": [7.218348, 46.093741, 7.233367, 46.099408], "features": [{"type": "Feature", "bbox": [7.218348, 46.093741, 7.233367, 46.099408], "geometry": {"type": "LineString", "coordinates": [[7.233367, 46.093776], [7.233208, 46.093779], [7.233093, 46.093741], [7.233123, 46.093746], [7.232961, 46.093821], [7.23284, 46.093821], [7.232463, 46.093905], [7.232382, 46.094012], [7.232239, 46.094059], [7.232118, 46.094142], [7.23193, 46.094193], [7.231856, 46.094286], [7.231593, 46.094421], [7.231351, 46.094694], [7.231122, 46.094839], [7.231092, 46.094914], [7.230933, 46.094994], [7.230834, 46.095096], [7.230688, 46.095165], [7.230577, 46.095288], [7.230391, 46.095368], [7.230332, 46.095369], [7.230133, 46.095499], [7.230022, 46.095514], [7.229952, 46.095595], [7.229854, 46.095595], [7.229742, 46.095672], [7.229665, 46.095773], [7.229505, 46.095813], [7.229401, 46.095876], [7.229304, 46.0959], [7.229216, 46.09597], [7.229117, 46.096], [7.229076, 46.096118], [7.228981, 46.096174], [7.228851, 46.096152], [7.228783, 46.096184], [7.228558, 46.096202], [7.228408, 46.096273], [7.228319, 46.096287], [7.228301, 46.096317], [7.22819, 46.096321], [7.227975, 46.096418], [7.227508, 46.096519], [7.227275, 46.096633], [7.22699, 46.096665], [7.226898, 46.096713], [7.22641, 46.096772], [7.226383, 46.096795], [7.226223, 46.096824], [7.226188, 46.0969], [7.225991, 46.096905], [7.225833, 46.096943], [7.225686, 46.096999], [7.225528, 46.0971], [7.225367, 46.097112], [7.225248, 46.097172], [7.224822, 46.097463], [7.224725, 46.097569], [7.224564, 46.097609], [7.224447, 46.097601], [7.224337, 46.097646], [7.224295, 46.097705], [7.224213, 46.097743], [7.22384, 46.097849], [7.223488, 46.097868], [7.222952, 46.097734], [7.222847, 46.097679], [7.222386, 46.097591], [7.222171, 46.09758], [7.221894, 46.097607], [7.22136, 46.097898], [7.221123, 46.097944], [7.220881, 46.098029], [7.220734, 46.098209], [7.220474, 46.098388], [7.220385, 46.098418], [7.220317, 46.098573], [7.220356, 46.098607], [7.220331, 46.098603], [7.220299, 46.098741], [7.220209, 46.098778], [7.220071, 46.098745], [7.219934, 46.098794], [7.219886, 46.098776], [7.2197, 46.098795], [7.219258, 46.098876], [7.219173, 46.098946], [7.219137, 46.09907], [7.21901, 46.099137], [7.218891, 46.099123], [7.218844, 46.099159], [7.218844, 46.099142], [7.218766, 46.099136], [7.2187, 46.099186], [7.218528, 46.099224], [7.218505, 46.099149], [7.218468, 46.099157], [7.218447, 46.099263], [7.218348, 46.099366], [7.218442, 46.099358], [7.21846, 46.099408], [7.218455, 46.099302], [7.218413, 46.099268]]}, "properties": {"name": "1785427285.Verbier_walk_to_festival", "cmt": "2026-07-30", "tstamp": 1785369600, "desc": "---", "src": "7.218348/46.093741/7.233367/46.099408", "bbox": "7.218348/46.093741/7.233367/46.099408"}}]}