{"type": "FeatureCollection", "name": "TrackSet", "crs": {"type": "name", "properties": {"name": "urn:ogc:def:crs:OGC:1.3:CRS84"}}, "bbox": [7.378459, 46.01223, 7.417277, 46.074888], "features": [{"type": "Feature", "bbox": [7.378459, 46.01223, 7.417277, 46.074888], "geometry": {"type": "LineString", "coordinates": [[7.413693, 46.012354], [7.413672, 46.012324], [7.413739, 46.012301], [7.413832, 46.012299], [7.413841, 46.012327], [7.41391, 46.012342], [7.413928, 46.012308], [7.413892, 46.012307], [7.413893, 46.012327], [7.413918, 46.012312], [7.413941, 46.012345], [7.413892, 46.012341], [7.413916, 46.012353], [7.413882, 46.012379], [7.413938, 46.012343], [7.413889, 46.012363], [7.413831, 46.012307], [7.413719, 46.012266], [7.413663, 46.012282], [7.413597, 46.01223], [7.41351, 46.012248], [7.413442, 46.01223], [7.413396, 46.012361], [7.413337, 46.012382], [7.413334, 46.01241], [7.413278, 46.012393], [7.413275, 46.012437], [7.413234, 46.012465], [7.413268, 46.012486], [7.413237, 46.012523], [7.413271, 46.012564], [7.413239, 46.012589], [7.413185, 46.012587], [7.413264, 46.012644], [7.413207, 46.012708], [7.413167, 46.012696], [7.413145, 46.012719], [7.413135, 46.012843], [7.413093, 46.012886], [7.4132, 46.012896], [7.413218, 46.012973], [7.413279, 46.012963], [7.413252, 46.012983], [7.413284, 46.01299], [7.413266, 46.013021], [7.413296, 46.013012], [7.413278, 46.013048], [7.413319, 46.013042], [7.413233, 46.013138], [7.41327, 46.013237], [7.41323, 46.013223], [7.41325, 46.013241], [7.413235, 46.01322], [7.413261, 46.013218], [7.413229, 46.013202], [7.413263, 46.013234], [7.413304, 46.013434], [7.413392, 46.0135], [7.413349, 46.013492], [7.413372, 46.013463], [7.413339, 46.013481], [7.413376, 46.013488], [7.413366, 46.013459], [7.413383, 46.013486], [7.413384, 46.013625], [7.413341, 46.013644], [7.413349, 46.013694], [7.413393, 46.013708], [7.413428, 46.013768], [7.413409, 46.013745], [7.413389, 46.013819], [7.413424, 46.013894], [7.413464, 46.013946], [7.41355, 46.013961], [7.413599, 46.01394], [7.413651, 46.01397], [7.413697, 46.014052], [7.413819, 46.014123], [7.413809, 46.014182], [7.413941, 46.014299], [7.413984, 46.014397], [7.413975, 46.01448], [7.414008, 46.014502], [7.413983, 46.01463], [7.414039, 46.014659], [7.414039, 46.014709], [7.414075, 46.014716], [7.414091, 46.014828], [7.414067, 46.014872], [7.414116, 46.01488], [7.414176, 46.014976], [7.414219, 46.015069], [7.414226, 46.015192], [7.414314, 46.015285], [7.4143, 46.015325], [7.414349, 46.015419], [7.414381, 46.015421], [7.414356, 46.015423], [7.414413, 46.015507], [7.414482, 46.015531], [7.414587, 46.015706], [7.414862, 46.015845], [7.414857, 46.015975], [7.414937, 46.016028], [7.414956, 46.016083], [7.415009, 46.016098], [7.415052, 46.016159], [7.415232, 46.016273], [7.415312, 46.016259], [7.415341, 46.016224], [7.41545, 46.016226], [7.415509, 46.016302], [7.415545, 46.016277], [7.41563, 46.01627], [7.415717, 46.016309], [7.415713, 46.016402], [7.415788, 46.016445], [7.41584, 46.016426], [7.415846, 46.016459], [7.415913, 46.016484], [7.415926, 46.016451], [7.41599, 46.016441], [7.416044, 46.016477], [7.416128, 46.016439], [7.416217, 46.016527], [7.41631, 46.016511], [7.41634, 46.016529], [7.416427, 46.016784], [7.416554, 46.016835], [7.416565, 46.016873], [7.416805, 46.016972], [7.416854, 46.017058], [7.416852, 46.017146], [7.416912, 46.017185], [7.416919, 46.017243], [7.417016, 46.017248], [7.417276, 46.017503], [7.417277, 46.017561], [7.41722, 46.017596], [7.417216, 46.017672], [7.417087, 46.017764], [7.41708, 46.01782], [7.41698, 46.01793], [7.416936, 46.018043], [7.416814, 46.018168], [7.41678, 46.018294], [7.416636, 46.018485], [7.416656, 46.018507], [7.416611, 46.018609], [7.416628, 46.018673], [7.416593, 46.018707], [7.416582, 46.018794], [7.416517, 46.018822], [7.41634, 46.019069], [7.416403, 46.019192], [7.416313, 46.019383], [7.416327, 46.019478], [7.416436, 46.019646], [7.41646, 46.019628], [7.416456, 46.019762], [7.416333, 46.019909], [7.416354, 46.02017], [7.416194, 46.020243], [7.416217, 46.020366], [7.416169, 46.020474], [7.416159, 46.020819], [7.416077, 46.020907], [7.416085, 46.020963], [7.416151, 46.02098], [7.41617, 46.021018], [7.416111, 46.021173], [7.416164, 46.021245], [7.416166, 46.02129], [7.416128, 46.021319], [7.416156, 46.021378], [7.416062, 46.021457], [7.416068, 46.021544], [7.41596, 46.021678], [7.416021, 46.021748], [7.41604, 46.021825], [7.415979, 46.021956], [7.416008, 46.022065], [7.415949, 46.022116], [7.415908, 46.022247], [7.415952, 46.022441], [7.41592, 46.02248], [7.415959, 46.022579], [7.415905, 46.022668], [7.415927, 46.022721], [7.415846, 46.022772], [7.415886, 46.022982], [7.415989, 46.023072], [7.416024, 46.023152], [7.415994, 46.023194], [7.416015, 46.023353], [7.415954, 46.023479], [7.415983, 46.023623], [7.415881, 46.023791], [7.415889, 46.023932], [7.415796, 46.024021], [7.415814, 46.024069], [7.415757, 46.024095], [7.415804, 46.02416], [7.415778, 46.024195], [7.415981, 46.024254], [7.416038, 46.024245], [7.416042, 46.024327], [7.416076, 46.024355], [7.416035, 46.024356], [7.416035, 46.024399], [7.415966, 46.02447], [7.415945, 46.02466], [7.415804, 46.024816], [7.415815, 46.024841], [7.415786, 46.024829], [7.415759, 46.02486], [7.415776, 46.024895], [7.415837, 46.024915], [7.415853, 46.024941], [7.415823, 46.02497], [7.415921, 46.025077], [7.416027, 46.025097], [7.416063, 46.025195], [7.416124, 46.025237], [7.416066, 46.025265], [7.416052, 46.025336], [7.415948, 46.025358], [7.415823, 46.025349], [7.415833, 46.025384], [7.415766, 46.025381], [7.415757, 46.025411], [7.415815, 46.025475], [7.41581, 46.02554], [7.415898, 46.025566], [7.415763, 46.025612], [7.415717, 46.0256], [7.415752, 46.025638], [7.415668, 46.025674], [7.415603, 46.025764], [7.415639, 46.025764], [7.41561, 46.025817], [7.415544, 46.025858], [7.415553, 46.025904], [7.415459, 46.025973], [7.415431, 46.026046], [7.415304, 46.026168], [7.415177, 46.026353], [7.414941, 46.02653], [7.41481, 46.026703], [7.414712, 46.026739], [7.414688, 46.026784], [7.414722, 46.026846], [7.414687, 46.027049], [7.414644, 46.027109], [7.414659, 46.027168], [7.414611, 46.027335], [7.414639, 46.027362], [7.414578, 46.027409], [7.414557, 46.027493], [7.414619, 46.027541], [7.414629, 46.027691], [7.414691, 46.027717], [7.414735, 46.027775], [7.41475, 46.02787], [7.414678, 46.028016], [7.414693, 46.028214], [7.414645, 46.028262], [7.414638, 46.028317], [7.414729, 46.028521], [7.414692, 46.028508], [7.41463, 46.028712], [7.414555, 46.028742], [7.414457, 46.028893], [7.414358, 46.028942], [7.414263, 46.029036], [7.414223, 46.028999], [7.4141, 46.029005], [7.414082, 46.028977], [7.414012, 46.028979], [7.41395, 46.028941], [7.413723, 46.028925], [7.4137, 46.028896], [7.413624, 46.028937], [7.41366, 46.028968], [7.413606, 46.029024], [7.413664, 46.029078], [7.413587, 46.029116], [7.413577, 46.029154], [7.413553, 46.029151], [7.413571, 46.029124], [7.413525, 46.029132], [7.413492, 46.029108], [7.413581, 46.029185], [7.413526, 46.029203], [7.413501, 46.029245], [7.413313, 46.029314], [7.413288, 46.029283], [7.413224, 46.029278], [7.413164, 46.029323], [7.413025, 46.029316], [7.412967, 46.029379], [7.41282, 46.029388], [7.412755, 46.029463], [7.412709, 46.029449], [7.412665, 46.029477], [7.412611, 46.02946], [7.412571, 46.029486], [7.412594, 46.029493], [7.412564, 46.029487], [7.412575, 46.029535], [7.412544, 46.029537], [7.412416, 46.029671], [7.412524, 46.029677], [7.412587, 46.029744], [7.412522, 46.029779], [7.412394, 46.029795], [7.412315, 46.029859], [7.412403, 46.029896], [7.412342, 46.029901], [7.41235, 46.029927], [7.41225, 46.029994], [7.412265, 46.030008], [7.412186, 46.030019], [7.412296, 46.030082], [7.412199, 46.030118], [7.412171, 46.030171], [7.412124, 46.030171], [7.41213, 46.030231], [7.412253, 46.030261], [7.412213, 46.030326], [7.412247, 46.030343], [7.412178, 46.030368], [7.412191, 46.030396], [7.41212, 46.030461], [7.412143, 46.030497], [7.412068, 46.030534], [7.412062, 46.030664], [7.411928, 46.030754], [7.411927, 46.030779], [7.411796, 46.030839], [7.41182, 46.030876], [7.4118, 46.0309], [7.411717, 46.030931], [7.41167, 46.030898], [7.411659, 46.030954], [7.41149, 46.031011], [7.411498, 46.031041], [7.411558, 46.031054], [7.411559, 46.031084], [7.411609, 46.031104], [7.411577, 46.031147], [7.411641, 46.031208], [7.411699, 46.031196], [7.411889, 46.031271], [7.411889, 46.031297], [7.411831, 46.031309], [7.411837, 46.031376], [7.411808, 46.031388], [7.411924, 46.031386], [7.411846, 46.03143], [7.411773, 46.031547], [7.411659, 46.031586], [7.41169, 46.031661], [7.411642, 46.031762], [7.411557, 46.031827], [7.411494, 46.031842], [7.411475, 46.031903], [7.411399, 46.031937], [7.411296, 46.032076], [7.411278, 46.032126], [7.411322, 46.032177], [7.411183, 46.032257], [7.411185, 46.032314], [7.411106, 46.032384], [7.410872, 46.032362], [7.410831, 46.032381], [7.410704, 46.032311], [7.410658, 46.032323], [7.410647, 46.032354], [7.410558, 46.032323], [7.410421, 46.032327], [7.410355, 46.032377], [7.410239, 46.032407], [7.410149, 46.032496], [7.410045, 46.032538], [7.410026, 46.03262], [7.409949, 46.032662], [7.409952, 46.032713], [7.409906, 46.032764], [7.409845, 46.032767], [7.409834, 46.032804], [7.409867, 46.032786], [7.409906, 46.032797], [7.409855, 46.032816], [7.409825, 46.0328], [7.409881, 46.032788], [7.409848, 46.0328], [7.409836, 46.032776], [7.409873, 46.032754], [7.409844, 46.032728], [7.409787, 46.032746], [7.409785, 46.032773], [7.409708, 46.032769], [7.409742, 46.032833], [7.409702, 46.032871], [7.409757, 46.032975]]}, "properties": {"name": "1785217906.Cabane_de_dix_Cabane_Praflueri", "cmt": "2026-07-28", "tstamp": 1785196800, "desc": "DownHill", "src": "7.378459/46.01223/7.417277/46.074888", "bbox": "7.378459/46.01223/7.417277/46.074888"}}, {"type": "Feature", "bbox": [7.378459, 46.01223, 7.417277, 46.074888], "geometry": {"type": "LineString", "coordinates": [[7.409761, 46.032975], [7.409792, 46.032966], [7.409798, 46.033053], [7.409858, 46.033058], [7.409856, 46.033097], [7.409992, 46.033184], [7.410189, 46.033144], [7.410287, 46.033186], [7.410169, 46.033262], [7.409681, 46.033186], [7.409597, 46.033163], [7.409503, 46.033005], [7.409194, 46.032881], [7.408893, 46.032868], [7.408668, 46.032756], [7.40835, 46.032762], [7.40823, 46.032713], [7.408103, 46.032609], [7.408011, 46.032615], [7.407489, 46.032496], [7.40696, 46.032462], [7.406672, 46.032382], [7.406594, 46.032328], [7.406531, 46.032325], [7.406358, 46.032214], [7.406209, 46.032206], [7.406003, 46.032237], [7.405904, 46.032203], [7.405797, 46.032121], [7.405412, 46.031963], [7.405264, 46.031819], [7.405194, 46.031803], [7.405066, 46.031692], [7.404915, 46.031667], [7.404628, 46.031561], [7.404416, 46.031569], [7.404098, 46.0315], [7.403917, 46.031357], [7.403862, 46.031227], [7.403877, 46.031103], [7.403775, 46.030811], [7.4037, 46.030755], [7.403629, 46.030622], [7.403398, 46.030466], [7.403188, 46.030436], [7.403039, 46.030496], [7.402958, 46.030729], [7.402857, 46.030823], [7.402809, 46.031007], [7.402443, 46.031204], [7.402427, 46.031396], [7.402503, 46.031552], [7.402489, 46.031696], [7.402444, 46.031818], [7.402255, 46.032087], [7.402294, 46.032303], [7.402274, 46.032408], [7.402307, 46.032419], [7.402257, 46.032599], [7.402311, 46.032664], [7.40232, 46.032788], [7.402165, 46.03297], [7.402011, 46.033053], [7.401876, 46.033191], [7.401647, 46.0336], [7.401373, 46.033853], [7.401343, 46.033934], [7.401257, 46.034024], [7.401169, 46.034253], [7.400988, 46.034493], [7.400892, 46.03476], [7.400872, 46.03505], [7.400632, 46.035474], [7.400495, 46.035551], [7.400382, 46.035722], [7.400387, 46.035784], [7.400337, 46.035892], [7.400359, 46.036028], [7.400279, 46.036257], [7.400291, 46.036493], [7.40017, 46.03685], [7.400021, 46.03703], [7.400012, 46.037012], [7.39999, 46.037026], [7.399981, 46.037083], [7.399866, 46.03715], [7.399732, 46.0374], [7.399539, 46.037489], [7.399278, 46.037696], [7.398916, 46.037851], [7.398582, 46.037795], [7.398119, 46.037836], [7.398071, 46.037864], [7.397788, 46.038152], [7.397658, 46.038383], [7.397515, 46.038497], [7.397472, 46.038493], [7.397364, 46.038549], [7.397278, 46.038635], [7.397291, 46.038709], [7.397247, 46.038817], [7.39682, 46.038997], [7.396769, 46.03904], [7.39672, 46.039271], [7.396793, 46.039381], [7.396883, 46.03943], [7.3971, 46.039478], [7.397234, 46.039571], [7.39722, 46.03959], [7.397283, 46.039658], [7.397344, 46.039871], [7.397337, 46.040143], [7.397137, 46.040557], [7.396924, 46.040768], [7.396849, 46.040921], [7.396729, 46.041072], [7.396702, 46.041249], [7.396737, 46.041423], [7.396609, 46.041707], [7.396345, 46.041853], [7.396008, 46.041974], [7.395914, 46.042151], [7.395859, 46.042465], [7.395437, 46.042687], [7.395371, 46.042778], [7.395432, 46.043054], [7.395487, 46.043121], [7.395871, 46.043248], [7.395981, 46.043309], [7.396023, 46.043383], [7.39601, 46.043547], [7.396104, 46.043725], [7.396127, 46.043747], [7.396183, 46.043743], [7.396258, 46.043824], [7.396247, 46.043901], [7.396371, 46.043967], [7.396512, 46.044], [7.396505, 46.044044], [7.396533, 46.044063], [7.396488, 46.044156], [7.3965, 46.0442], [7.396114, 46.044391], [7.396089, 46.044575], [7.395828, 46.045133], [7.395696, 46.045252], [7.395609, 46.045396], [7.395421, 46.04557], [7.395295, 46.045648], [7.395159, 46.045937], [7.395136, 46.046112], [7.395072, 46.046275], [7.395006, 46.046384], [7.394768, 46.046545], [7.394514, 46.046896], [7.394477, 46.047046], [7.394512, 46.047224], [7.394461, 46.047345], [7.394448, 46.047597], [7.394414, 46.047676], [7.394407, 46.047778], [7.394441, 46.047807], [7.394369, 46.047853], [7.394355, 46.04791], [7.394385, 46.047966], [7.394271, 46.048262], [7.394216, 46.04832], [7.394199, 46.048435], [7.394053, 46.048669], [7.394006, 46.04883], [7.39387, 46.048997], [7.393465, 46.049251], [7.39333, 46.049555], [7.393345, 46.049653], [7.393294, 46.049775], [7.393165, 46.049903], [7.39311, 46.05008], [7.393026, 46.050211], [7.392968, 46.050249], [7.392919, 46.050341], [7.392854, 46.050372], [7.392799, 46.05046], [7.392786, 46.050529], [7.392833, 46.050642], [7.392806, 46.050827], [7.392672, 46.051321], [7.392565, 46.051477], [7.392586, 46.05149], [7.392557, 46.051478], [7.392586, 46.051473], [7.392568, 46.051458], [7.392526, 46.051499], [7.392285, 46.051568], [7.392392, 46.051785], [7.392472, 46.051846], [7.392503, 46.051938], [7.392487, 46.052045], [7.3923, 46.052181], [7.392075, 46.052293], [7.391685, 46.052411], [7.391611, 46.052512], [7.391599, 46.052606], [7.391537, 46.05271], [7.391467, 46.052781], [7.391328, 46.052822], [7.391273, 46.052888], [7.391263, 46.052962], [7.391205, 46.05304], [7.391224, 46.053281], [7.391184, 46.053344], [7.390563, 46.053807], [7.390534, 46.053947], [7.390551, 46.05434], [7.390512, 46.054698], [7.390406, 46.054869], [7.390365, 46.055128], [7.390189, 46.055328], [7.390038, 46.055415], [7.389973, 46.055519], [7.389948, 46.055616], [7.389966, 46.055756], [7.389825, 46.055974], [7.389853, 46.05624], [7.38975, 46.05643], [7.389745, 46.056526], [7.389662, 46.056736], [7.389555, 46.056923], [7.389169, 46.057327], [7.388758, 46.057486], [7.388578, 46.057598], [7.388399, 46.057831], [7.388386, 46.058051], [7.388533, 46.058327], [7.388516, 46.058578], [7.388561, 46.058638], [7.388595, 46.05863], [7.388547, 46.05866], [7.38855, 46.058719], [7.388634, 46.058829], [7.388631, 46.058873], [7.388669, 46.058895], [7.388704, 46.059051], [7.388811, 46.059147], [7.388859, 46.059306], [7.388912, 46.059381], [7.388949, 46.059387], [7.389053, 46.059586], [7.389164, 46.059623], [7.389288, 46.059767], [7.389526, 46.059863], [7.389571, 46.059911], [7.389353, 46.060341], [7.389356, 46.060457], [7.389471, 46.060765], [7.389504, 46.060721], [7.389529, 46.060725], [7.389531, 46.06068], [7.389562, 46.060689], [7.389554, 46.060666], [7.389588, 46.060686], [7.389556, 46.060661], [7.389582, 46.060662], [7.389552, 46.060663], [7.389556, 46.060686], [7.389529, 46.060677], [7.389533, 46.060695], [7.389535, 46.060667], [7.389596, 46.060675], [7.389582, 46.060689], [7.389542, 46.060666], [7.389573, 46.060675], [7.389546, 46.060671], [7.38957, 46.060655], [7.389528, 46.060656], [7.38945, 46.06072], [7.389479, 46.060889], [7.389446, 46.060961], [7.389451, 46.061077], [7.389563, 46.061298], [7.389555, 46.061416], [7.389503, 46.0615], [7.389454, 46.061736], [7.389498, 46.061849], [7.389492, 46.061931], [7.389438, 46.062035], [7.389266, 46.062218], [7.389237, 46.062335], [7.389172, 46.062433], [7.388622, 46.06274], [7.388523, 46.06287], [7.388337, 46.063005], [7.388098, 46.06307], [7.387981, 46.063142], [7.388072, 46.063321], [7.387969, 46.063444], [7.38789, 46.063458], [7.387568, 46.063441], [7.387477, 46.063468], [7.387483, 46.063534], [7.387665, 46.063751], [7.38775, 46.063817], [7.387734, 46.063781], [7.387768, 46.063792], [7.387703, 46.063867], [7.387568, 46.063853], [7.38746, 46.063727], [7.387337, 46.063683], [7.387339, 46.063658], [7.387293, 46.063655], [7.387248, 46.063606], [7.387135, 46.063584], [7.38715, 46.06355], [7.387114, 46.063474], [7.38702, 46.063483], [7.38698, 46.063518], [7.386913, 46.063517], [7.386902, 46.063427], [7.386626, 46.063307], [7.386589, 46.06326], [7.386486, 46.0633], [7.38651, 46.063359], [7.386435, 46.063317], [7.38631, 46.063316], [7.386226, 46.063277], [7.386192, 46.063296], [7.386145, 46.063285], [7.3861, 46.063347], [7.386119, 46.063405], [7.386239, 46.063507], [7.386149, 46.063531], [7.386105, 46.063595], [7.386091, 46.063573], [7.386053, 46.063578], [7.386026, 46.063628], [7.385959, 46.063656], [7.385756, 46.063645], [7.385702, 46.063685], [7.385626, 46.063675], [7.385299, 46.063758], [7.385241, 46.06381], [7.385028, 46.063838], [7.384976, 46.063901], [7.384981, 46.063966], [7.384936, 46.063993], [7.384987, 46.064098], [7.384978, 46.06417], [7.384931, 46.064229], [7.384868, 46.064239], [7.384761, 46.064116], [7.384561, 46.064045], [7.384558, 46.064011], [7.384489, 46.064011], [7.384476, 46.06398], [7.384434, 46.063972], [7.384449, 46.063929], [7.384329, 46.063923], [7.38426, 46.063894], [7.384227, 46.063811], [7.384088, 46.063768], [7.384082, 46.063728], [7.383889, 46.063716], [7.383786, 46.063685], [7.383713, 46.063624], [7.383643, 46.063633], [7.383402, 46.06359], [7.383108, 46.063484], [7.382966, 46.063495], [7.382698, 46.063395], [7.382524, 46.063394], [7.382431, 46.063354], [7.382287, 46.063372], [7.381756, 46.063265], [7.38171, 46.063279], [7.381594, 46.063249], [7.381538, 46.063204], [7.38144, 46.06321], [7.381338, 46.063152], [7.381168, 46.063128], [7.381093, 46.063087], [7.380892, 46.063097], [7.380806, 46.063078], [7.380518, 46.063102], [7.380279, 46.06308], [7.380147, 46.063191], [7.380234, 46.063325], [7.380251, 46.06351], [7.380353, 46.063719], [7.38033, 46.063768], [7.380392, 46.063844], [7.380388, 46.06396], [7.380469, 46.064009], [7.380442, 46.064098], [7.380464, 46.064241], [7.380495, 46.064251], [7.380483, 46.064284], [7.380524, 46.064348], [7.38059, 46.064385], [7.3804, 46.064504], [7.380429, 46.064562], [7.380406, 46.064595], [7.380505, 46.06471], [7.380589, 46.064758], [7.38061, 46.064832], [7.380693, 46.064906], [7.38069, 46.064941], [7.380796, 46.065014], [7.380975, 46.065064], [7.381031, 46.065207], [7.381111, 46.065233], [7.381104, 46.065284], [7.381243, 46.065404], [7.381293, 46.065526], [7.381539, 46.065642], [7.381759, 46.06564], [7.382291, 46.065852], [7.382441, 46.065886], [7.382474, 46.065873], [7.382443, 46.065893], [7.382458, 46.065949], [7.382568, 46.066069], [7.382552, 46.06611], [7.382709, 46.066237], [7.382718, 46.066445], [7.382757, 46.066451], [7.382766, 46.066563], [7.382825, 46.066606], [7.382725, 46.066573], [7.382709, 46.066606], [7.382762, 46.066628], [7.382747, 46.066645], [7.382683, 46.066625], [7.382715, 46.066586], [7.38261, 46.06664], [7.3825, 46.066637], [7.382479, 46.066617], [7.382176, 46.066576], [7.382084, 46.066512], [7.38206, 46.066595], [7.38211, 46.066668], [7.382192, 46.06672], [7.38206, 46.066717], [7.382024, 46.066743], [7.381919, 46.066711], [7.381889, 46.066731], [7.381909, 46.066753], [7.381809, 46.066697], [7.38179, 46.06673], [7.381729, 46.066733], [7.381596, 46.066866], [7.381593, 46.066955], [7.381508, 46.067094], [7.381519, 46.067132], [7.38172, 46.067194], [7.381792, 46.067193], [7.381917, 46.067278], [7.382024, 46.067281], [7.382054, 46.067371], [7.382204, 46.067405], [7.382069, 46.067443], [7.381856, 46.067606], [7.382063, 46.067657], [7.382104, 46.067639], [7.382135, 46.067678], [7.382207, 46.067661], [7.382337, 46.067692], [7.382474, 46.067651], [7.382679, 46.067704], [7.382749, 46.067695], [7.382781, 46.067717], [7.382904, 46.067699], [7.382993, 46.067756], [7.38308, 46.067769], [7.38312, 46.067829], [7.383296, 46.067923], [7.38335, 46.067943], [7.383394, 46.06792], [7.383462, 46.068028], [7.38359, 46.068015], [7.383726, 46.068041], [7.38375, 46.068068], [7.383705, 46.068162], [7.383746, 46.068188], [7.383728, 46.068258], [7.383769, 46.068329], [7.383717, 46.068444], [7.383844, 46.068575], [7.38378, 46.068624], [7.383775, 46.068663], [7.383857, 46.068727], [7.38383, 46.068778], [7.3838, 46.068751], [7.383769, 46.068759], [7.383685, 46.068831], [7.383636, 46.068814], [7.383539, 46.068834], [7.383435, 46.068921], [7.383615, 46.069054], [7.383632, 46.069095], [7.383606, 46.069115], [7.383693, 46.069141], [7.383666, 46.069163], [7.383717, 46.069237], [7.383711, 46.069286], [7.383761, 46.0693], [7.383828, 46.069284], [7.383833, 46.069304], [7.38393, 46.069316], [7.383945, 46.069354], [7.383898, 46.069408], [7.383801, 46.069434], [7.383704, 46.069516], [7.383713, 46.069561], [7.383803, 46.069606], [7.383801, 46.069639], [7.383923, 46.069748], [7.383791, 46.06983], [7.383796, 46.069867], [7.383827, 46.069917], [7.383902, 46.069956], [7.383938, 46.069949], [7.383999, 46.070003], [7.384275, 46.070134], [7.384577, 46.070159], [7.384606, 46.070187], [7.384489, 46.070195], [7.384436, 46.070245], [7.384299, 46.070273], [7.384296, 46.070299], [7.384597, 46.070334], [7.384653, 46.070361], [7.384672, 46.070347], [7.384933, 46.070503], [7.385017, 46.070488], [7.385292, 46.07061], [7.385201, 46.070594], [7.384954, 46.070655], [7.38448, 46.070644], [7.383963, 46.070735], [7.383528, 46.070726], [7.383286, 46.070757], [7.383252, 46.070785], [7.383197, 46.070777], [7.383085, 46.070844], [7.382785, 46.070851], [7.382645, 46.070885], [7.382357, 46.070793], [7.382068, 46.07074], [7.381827, 46.070748], [7.381481, 46.070652]]}, "properties": {"name": "1785217906.Cabane_de_dix_Cabane_Praflueri", "cmt": "2026-07-28", "tstamp": 1785196800, "desc": "UpHill", "src": "7.378459/46.01223/7.417277/46.074888", "bbox": "7.378459/46.01223/7.417277/46.074888"}}, {"type": "Feature", "bbox": [7.378459, 46.01223, 7.417277, 46.074888], "geometry": {"type": "LineString", "coordinates": [[7.381481, 46.070652], [7.381385, 46.070574], [7.381407, 46.070581], [7.3814, 46.070553], [7.381378, 46.070562], [7.381404, 46.070544], [7.381409, 46.070563], [7.381382, 46.070547], [7.381397, 46.070578], [7.381338, 46.07055], [7.381408, 46.070563], [7.381418, 46.070593], [7.381404, 46.070568], [7.381401, 46.070588], [7.381347, 46.07058], [7.381371, 46.070595], [7.381184, 46.070581], [7.381159, 46.070602], [7.381188, 46.070632], [7.38118, 46.070778], [7.381134, 46.070784], [7.381104, 46.070852], [7.380999, 46.070846], [7.381008, 46.070899], [7.380949, 46.070901], [7.380948, 46.070936], [7.380885, 46.070939], [7.380862, 46.070919], [7.380724, 46.07093], [7.380696, 46.070945], [7.380717, 46.070967], [7.380646, 46.071001], [7.380521, 46.07102], [7.380498, 46.071048], [7.38045, 46.071037], [7.38043, 46.071088], [7.380379, 46.071104], [7.380374, 46.071158], [7.380256, 46.071132], [7.38026, 46.071181], [7.38021, 46.071231], [7.380234, 46.071257], [7.380179, 46.07131], [7.380213, 46.071388], [7.380186, 46.071378], [7.380141, 46.071402], [7.380082, 46.071384], [7.380035, 46.071425], [7.379992, 46.071416], [7.379992, 46.071435], [7.379942, 46.071419], [7.379894, 46.071491], [7.379908, 46.07153], [7.379874, 46.071505], [7.379827, 46.071589], [7.379809, 46.071565], [7.379756, 46.071574], [7.379712, 46.071533], [7.379687, 46.071544], [7.379655, 46.071521], [7.379598, 46.071543], [7.379549, 46.071512], [7.379475, 46.071596], [7.379405, 46.071595], [7.379389, 46.071797], [7.379513, 46.072027], [7.37949, 46.072081], [7.379525, 46.072088], [7.379455, 46.072126], [7.379471, 46.072154], [7.379439, 46.072156], [7.379504, 46.072193], [7.379474, 46.072202], [7.379486, 46.072297], [7.379458, 46.072322], [7.379513, 46.072364], [7.37946, 46.072403], [7.379431, 46.072475], [7.379465, 46.07249], [7.3794, 46.072542], [7.379482, 46.072617], [7.379462, 46.072717], [7.379495, 46.072795], [7.379586, 46.072865], [7.379565, 46.072858], [7.379587, 46.07287], [7.379564, 46.072897], [7.379595, 46.072904], [7.379609, 46.072985], [7.379467, 46.073115], [7.379477, 46.073215], [7.379418, 46.073357], [7.379368, 46.073452], [7.379295, 46.07349], [7.379339, 46.073564], [7.379316, 46.07363], [7.379405, 46.073666], [7.37935, 46.073724], [7.379241, 46.074018], [7.379094, 46.074058], [7.378888, 46.074217], [7.378778, 46.074241], [7.378733, 46.074219], [7.378669, 46.074354], [7.378625, 46.074383], [7.37848, 46.074389], [7.378462, 46.074415], [7.378459, 46.074452], [7.378585, 46.074552], [7.378536, 46.074664], [7.378609, 46.074752], [7.378687, 46.074796]]}, "properties": {"name": "1785217906.Cabane_de_dix_Cabane_Praflueri", "cmt": "2026-07-28", "tstamp": 1785196800, "desc": "DownHill", "src": "7.378459/46.01223/7.417277/46.074888", "bbox": "7.378459/46.01223/7.417277/46.074888"}}, {"type": "Feature", "bbox": [7.378459, 46.01223, 7.417277, 46.074888], "geometry": {"type": "LineString", "coordinates": [[7.378691, 46.074801], [7.378742, 46.074823], [7.378729, 46.074872], [7.378784, 46.074888], [7.378697, 46.074864]]}, "properties": {"name": "1785217906.Cabane_de_dix_Cabane_Praflueri", "cmt": "2026-07-28", "tstamp": 1785196800, "desc": "UpHill", "src": "7.378459/46.01223/7.417277/46.074888", "bbox": "7.378459/46.01223/7.417277/46.074888"}}]}