{"type": "FeatureCollection", "name": "TrackSet", "crs": {"type": "name", "properties": {"name": "urn:ogc:def:crs:OGC:1.3:CRS84"}}, "bbox": [7.304391, 46.04681, 7.378737, 46.083036], "features": [{"type": "Feature", "bbox": [7.304391, 46.04681, 7.378737, 46.083036], "geometry": {"type": "LineString", "coordinates": [[7.378737, 46.074867], [7.378667, 46.074785], [7.378492, 46.074751], [7.378471, 46.074876], [7.378287, 46.074876], [7.378362, 46.075014], [7.37835, 46.075053], [7.378236, 46.074996], [7.37819, 46.07501], [7.378137, 46.07497], [7.378038, 46.074996], [7.377942, 46.074979], [7.377931, 46.07501], [7.377854, 46.074957], [7.377728, 46.074946], [7.37762, 46.074985], [7.377513, 46.075103], [7.377415, 46.075079], [7.377254, 46.075092], [7.376922, 46.075195], [7.37686, 46.075246], [7.376867, 46.075332], [7.376704, 46.075336], [7.376688, 46.075361], [7.376504, 46.075391], [7.376453, 46.07539], [7.376406, 46.075358], [7.376317, 46.075385], [7.376192, 46.07547], [7.376201, 46.075499], [7.376098, 46.075488], [7.376089, 46.075511], [7.376036, 46.075508], [7.375987, 46.075615], [7.375903, 46.075642], [7.375874, 46.07563], [7.375811, 46.075693], [7.375478, 46.075757], [7.375221, 46.075875], [7.375139, 46.075862], [7.375046, 46.075942], [7.37504, 46.075994], [7.374622, 46.076114], [7.374626, 46.076161], [7.37457, 46.0762], [7.374377, 46.076231], [7.374233, 46.076285], [7.374237, 46.07633], [7.374193, 46.07636], [7.374123, 46.076366], [7.373919, 46.076467], [7.373777, 46.07645], [7.373784, 46.076468], [7.373662, 46.0765], [7.373674, 46.076521], [7.373653, 46.0765], [7.373657, 46.076548], [7.373586, 46.076582], [7.373555, 46.076571], [7.37357, 46.076555], [7.373518, 46.076636], [7.37356, 46.076592], [7.37362, 46.076625], [7.373563, 46.076616], [7.373615, 46.076626], [7.373575, 46.076617], [7.373561, 46.076641], [7.373538, 46.076616], [7.373435, 46.076636], [7.373435, 46.076618], [7.37349, 46.076633], [7.373359, 46.076697], [7.373342, 46.076769], [7.373276, 46.076789], [7.37325, 46.07682], [7.373276, 46.076834], [7.373197, 46.076874], [7.373235, 46.076882], [7.373159, 46.076888], [7.373113, 46.07692], [7.373184, 46.076932], [7.373145, 46.076952], [7.373161, 46.076974], [7.373143, 46.076944], [7.373091, 46.07697], [7.373127, 46.076973], [7.373082, 46.076977], [7.373115, 46.076987], [7.373056, 46.076995], [7.373026, 46.077046], [7.372979, 46.07703], [7.372943, 46.077071], [7.372965, 46.077096], [7.372889, 46.077104], [7.372809, 46.07708], [7.372806, 46.077123], [7.372648, 46.077181], [7.372552, 46.077187], [7.372495, 46.077228], [7.372451, 46.077209], [7.372331, 46.07727], [7.372224, 46.077244], [7.372129, 46.077262], [7.372016, 46.077239], [7.371992, 46.077208], [7.372011, 46.077233], [7.371876, 46.07723], [7.371778, 46.077279], [7.371591, 46.077316], [7.371581, 46.077451], [7.371765, 46.077568], [7.371941, 46.077574], [7.371912, 46.077557], [7.371988, 46.077553], [7.371937, 46.077559], [7.371952, 46.077543], [7.371982, 46.077554], [7.371954, 46.07756], [7.372071, 46.077565], [7.372211, 46.077642], [7.372283, 46.077649], [7.372407, 46.07773], [7.37254, 46.07775], [7.372692, 46.077853], [7.372696, 46.07796], [7.372643, 46.078017], [7.372585, 46.078022], [7.372533, 46.078065], [7.37237, 46.078077], [7.372171, 46.078134], [7.372038, 46.078224], [7.372037, 46.078266], [7.37199, 46.078304], [7.372016, 46.078435], [7.372111, 46.078598], [7.372093, 46.078668], [7.371936, 46.078717], [7.371855, 46.078677], [7.37165, 46.078652], [7.371354, 46.078712], [7.371148, 46.078888], [7.370912, 46.078927], [7.370367, 46.079111], [7.370236, 46.079125], [7.370163, 46.079099], [7.369903, 46.079148], [7.369655, 46.079259], [7.369572, 46.079264], [7.369489, 46.079315], [7.369434, 46.079393], [7.369285, 46.079481], [7.369153, 46.079678], [7.369183, 46.07986], [7.369231, 46.07989], [7.369327, 46.08021], [7.369286, 46.080332], [7.36914, 46.080486], [7.368997, 46.080823], [7.369026, 46.081006], [7.369112, 46.081098], [7.369223, 46.081352], [7.369279, 46.081646], [7.369402, 46.081712], [7.369334, 46.081741], [7.369363, 46.081806], [7.369331, 46.0818], [7.369312, 46.081852], [7.369365, 46.081906], [7.369355, 46.081966], [7.369398, 46.081991], [7.369389, 46.082082], [7.36935, 46.082091], [7.369325, 46.08215], [7.369212, 46.082149], [7.369209, 46.082197], [7.369145, 46.082227], [7.369161, 46.082261], [7.369122, 46.082364], [7.369145, 46.082406], [7.369178, 46.082406], [7.369135, 46.08244], [7.369157, 46.082429], [7.369195, 46.082456], [7.36919, 46.082493], [7.369274, 46.082498], [7.36928, 46.082541], [7.369291, 46.082516], [7.369243, 46.082559], [7.369178, 46.082582], [7.369162, 46.082566], [7.369109, 46.082605], [7.369067, 46.082586], [7.369053, 46.082623], [7.36896, 46.082609], [7.369003, 46.082647], [7.368925, 46.082674], [7.368908, 46.082704], [7.368833, 46.082644], [7.368727, 46.082667], [7.368603, 46.082615], [7.368472, 46.082598], [7.368385, 46.082625], [7.368413, 46.082657], [7.368394, 46.082695], [7.368373, 46.082662], [7.368318, 46.082695], [7.368144, 46.082634], [7.368106, 46.082535], [7.368042, 46.082546], [7.367991, 46.082485], [7.367928, 46.082503], [7.367941, 46.082486], [7.367888, 46.082496], [7.367828, 46.082471], [7.367717, 46.082477], [7.367704, 46.082373], [7.367607, 46.082365], [7.367547, 46.082324], [7.367482, 46.082317], [7.367396, 46.082344], [7.367363, 46.082322], [7.367318, 46.082362], [7.36723, 46.082376], [7.3669, 46.08223], [7.366732, 46.082318], [7.366739, 46.08234], [7.366668, 46.082348], [7.366664, 46.082333], [7.366646, 46.082379], [7.366571, 46.082406], [7.366557, 46.082384], [7.366495, 46.082392], [7.366495, 46.082445], [7.366476, 46.082437], [7.366623, 46.082489], [7.366641, 46.082525], [7.366686, 46.082537], [7.366655, 46.082567], [7.366573, 46.082566], [7.366548, 46.082542], [7.366389, 46.082534], [7.366291, 46.082447], [7.366262, 46.082359], [7.366105, 46.08236], [7.366051, 46.082406], [7.365899, 46.082401], [7.365825, 46.082307], [7.365774, 46.082328], [7.36576, 46.082301], [7.365604, 46.082235], [7.36558, 46.082257], [7.365573, 46.082227], [7.365508, 46.082195], [7.36543, 46.082194], [7.365406, 46.082174], [7.365298, 46.082215], [7.365197, 46.082195], [7.365163, 46.082166], [7.365064, 46.082163], [7.365061, 46.082131], [7.364887, 46.081981], [7.364808, 46.081972], [7.364759, 46.082004], [7.364716, 46.081998], [7.364706, 46.082035], [7.364663, 46.082061], [7.364634, 46.082051], [7.364632, 46.082081], [7.364595, 46.082092], [7.364499, 46.082063], [7.364479, 46.082097], [7.364438, 46.082044], [7.364387, 46.082109], [7.364317, 46.082098], [7.364305, 46.082139], [7.364242, 46.082136], [7.364225, 46.082153], [7.364259, 46.082194], [7.364241, 46.082214], [7.364218, 46.082201], [7.364261, 46.082218], [7.364207, 46.082216], [7.364128, 46.08226], [7.364137, 46.082351], [7.36418, 46.082333], [7.364267, 46.082359], [7.364254, 46.082382], [7.364266, 46.082358], [7.364231, 46.082378], [7.364216, 46.082365], [7.364219, 46.082417], [7.364188, 46.082423], [7.364184, 46.082394], [7.364127, 46.082392], [7.364087, 46.082345], [7.364034, 46.08233]]}, "properties": {"name": "1785304305.Cabane_Prafleuri_Cabane_Louvie", "cmt": "2026-07-29", "tstamp": 1785283200, "desc": "UpHill", "src": "7.304391/46.04681/7.378737/46.083036", "bbox": "7.304391/46.04681/7.378737/46.083036"}}, {"type": "Feature", "bbox": [7.304391, 46.04681, 7.378737, 46.083036], "geometry": {"type": "LineString", "coordinates": [[7.36402, 46.082326], [7.363833, 46.082273], [7.363864, 46.082276], [7.363846, 46.08226], [7.363818, 46.082281], [7.363725, 46.082279], [7.363681, 46.082253], [7.363578, 46.082259], [7.363534, 46.082297], [7.363404, 46.082291], [7.363379, 46.082308], [7.36319, 46.082231], [7.363107, 46.082251], [7.363026, 46.082224], [7.36287, 46.082227], [7.3628, 46.08227], [7.362748, 46.08225], [7.362635, 46.082287], [7.362544, 46.082277], [7.362473, 46.082327], [7.362451, 46.082302], [7.362465, 46.082379], [7.362397, 46.082425], [7.362326, 46.082387], [7.362171, 46.082412], [7.362028, 46.082392], [7.361974, 46.082467], [7.361942, 46.082464], [7.36195, 46.082448], [7.36138, 46.082558], [7.361373, 46.08258], [7.361199, 46.082551], [7.361174, 46.082564], [7.361154, 46.082536], [7.361042, 46.082575], [7.36105, 46.082518], [7.360854, 46.08239], [7.36081, 46.082413], [7.360604, 46.082363], [7.36052, 46.082382], [7.36043, 46.082358], [7.360375, 46.082309], [7.360196, 46.082307], [7.360189, 46.082274], [7.360144, 46.082268], [7.360113, 46.082233], [7.360044, 46.082241], [7.359872, 46.082185], [7.359833, 46.082214], [7.359722, 46.082125], [7.359582, 46.082145], [7.359557, 46.08212], [7.359538, 46.08214], [7.359451, 46.082134], [7.359335, 46.082193], [7.359306, 46.082325], [7.359245, 46.082362], [7.359253, 46.08238], [7.359098, 46.082436], [7.359103, 46.082465], [7.359005, 46.082437], [7.358908, 46.08246], [7.358866, 46.082518], [7.358689, 46.082512], [7.35847, 46.082571], [7.358446, 46.082545], [7.358285, 46.08253], [7.358247, 46.082504], [7.35806, 46.082509], [7.357905, 46.082544], [7.357824, 46.082512], [7.357633, 46.082507], [7.357544, 46.082526], [7.357372, 46.082605], [7.357269, 46.082615], [7.357178, 46.082679], [7.357143, 46.082751], [7.356967, 46.082816], [7.356958, 46.082867], [7.356995, 46.082906], [7.356999, 46.082875], [7.356987, 46.082898], [7.356936, 46.082897], [7.356848, 46.08294], [7.356665, 46.082944], [7.356626, 46.082999], [7.356482, 46.083036], [7.356447, 46.082994], [7.356323, 46.082973], [7.356186, 46.082994], [7.356155, 46.082952], [7.355979, 46.082893], [7.356002, 46.082761], [7.355942, 46.082765], [7.355689, 46.082883], [7.355617, 46.082873], [7.355436, 46.082838], [7.355346, 46.082789], [7.355079, 46.082776], [7.3549, 46.082663], [7.354844, 46.082589], [7.35474, 46.082576], [7.354647, 46.08251], [7.354539, 46.082518], [7.354428, 46.082495], [7.354265, 46.082406], [7.354204, 46.08241], [7.35417, 46.082442], [7.354024, 46.082409], [7.353973, 46.082444], [7.353885, 46.082439], [7.353857, 46.082463], [7.353776, 46.082406], [7.353716, 46.082417], [7.353667, 46.082356], [7.353637, 46.082353], [7.353645, 46.082369], [7.353484, 46.082325], [7.353369, 46.082333], [7.353328, 46.082288], [7.353268, 46.082288], [7.353172, 46.082222], [7.353116, 46.082234], [7.353112, 46.082211], [7.353048, 46.082195], [7.353043, 46.082172], [7.353078, 46.082164], [7.353002, 46.082158], [7.352982, 46.082112], [7.352908, 46.082161], [7.352914, 46.082183], [7.352848, 46.082199], [7.353002, 46.082186], [7.353014, 46.082172], [7.352972, 46.082173], [7.352984, 46.082132], [7.352924, 46.082167], [7.352915, 46.082143], [7.352976, 46.082145], [7.353014, 46.082074], [7.352985, 46.082061], [7.353026, 46.082039], [7.353052, 46.082058], [7.353072, 46.081996], [7.353208, 46.081894], [7.353246, 46.08182], [7.353355, 46.081764], [7.353371, 46.081729], [7.353343, 46.081689], [7.353177, 46.081696], [7.35313, 46.081741], [7.353052, 46.081743], [7.353047, 46.081773], [7.352885, 46.081877], [7.352792, 46.081873], [7.352767, 46.081895], [7.352638, 46.081909], [7.352579, 46.081961], [7.352443, 46.081917], [7.352362, 46.081862], [7.352129, 46.081902], [7.35195, 46.081889], [7.351988, 46.081811], [7.351867, 46.081792], [7.351776, 46.08173], [7.351769, 46.081674], [7.351615, 46.08153], [7.351638, 46.081482], [7.351615, 46.081401], [7.35144, 46.081229], [7.351332, 46.081185], [7.351261, 46.081097], [7.35121, 46.080933], [7.351289, 46.080835], [7.351371, 46.080791], [7.351332, 46.080727], [7.35137, 46.080673], [7.351354, 46.080687], [7.351286, 46.080657], [7.351276, 46.08059], [7.351206, 46.080537], [7.351061, 46.08051], [7.351099, 46.080548], [7.351276, 46.0806], [7.351225, 46.080662], [7.351143, 46.080663], [7.351097, 46.08064], [7.351044, 46.080659], [7.350896, 46.080603], [7.35087, 46.08049], [7.350796, 46.080393], [7.350652, 46.080297], [7.350502, 46.080299], [7.350455, 46.080277], [7.35041, 46.080244], [7.350476, 46.080219], [7.350496, 46.080184], [7.350274, 46.080116], [7.350201, 46.080131], [7.35012, 46.080069], [7.350085, 46.079977], [7.350021, 46.079979], [7.349988, 46.080016], [7.349899, 46.080039], [7.349796, 46.08004], [7.349664, 46.079833], [7.349765, 46.079762], [7.349793, 46.079705], [7.349703, 46.079713], [7.349693, 46.079674], [7.349602, 46.079665], [7.349522, 46.079597], [7.349516, 46.079508], [7.349476, 46.079495], [7.349455, 46.079451], [7.349496, 46.079376], [7.349406, 46.079338], [7.349342, 46.079272], [7.349372, 46.079229], [7.349301, 46.079187], [7.349335, 46.079121], [7.349295, 46.079079], [7.349303, 46.079033], [7.349267, 46.079015], [7.349274, 46.078955], [7.349087, 46.078838], [7.348895, 46.078828], [7.348882, 46.078787], [7.348824, 46.078776], [7.348797, 46.078745], [7.348764, 46.078628], [7.348776, 46.078602], [7.348794, 46.078614], [7.348792, 46.078577], [7.348836, 46.078562], [7.34878, 46.078563], [7.348827, 46.078577], [7.348829, 46.078558], [7.348778, 46.078546], [7.348834, 46.078411], [7.34873, 46.078327], [7.348658, 46.078299], [7.348601, 46.078317], [7.348557, 46.078293], [7.348429, 46.078291], [7.348262, 46.078242], [7.348176, 46.078248], [7.348179, 46.078219], [7.348089, 46.07816], [7.347795, 46.078196], [7.347731, 46.078158], [7.347742, 46.07808], [7.347666, 46.07807], [7.347609, 46.078007], [7.347531, 46.077996], [7.347509, 46.077934], [7.34728, 46.077882], [7.347168, 46.077805], [7.347058, 46.077808], [7.347038, 46.077771], [7.346902, 46.077785], [7.346837, 46.077764], [7.346792, 46.077787], [7.34673, 46.077762], [7.346564, 46.077759], [7.346502, 46.077716], [7.346232, 46.077755], [7.346162, 46.077757], [7.346164, 46.07774], [7.346176, 46.07776], [7.346129, 46.077787], [7.346065, 46.077789], [7.346021, 46.077817], [7.345979, 46.077881], [7.345885, 46.07782], [7.345842, 46.077591], [7.345774, 46.077577], [7.345744, 46.077544], [7.345729, 46.077508], [7.34576, 46.077483], [7.345732, 46.077477], [7.345725, 46.077425], [7.345527, 46.077382], [7.345681, 46.07725], [7.345675, 46.077215], [7.3456, 46.077196], [7.345632, 46.077138], [7.345538, 46.077067], [7.345544, 46.07703], [7.345424, 46.076999], [7.345241, 46.076995], [7.345213, 46.076969], [7.345062, 46.076948], [7.344922, 46.076893], [7.344734, 46.076902], [7.344653, 46.076938], [7.344448, 46.07683], [7.344168, 46.076806], [7.344034, 46.076743], [7.343911, 46.076745], [7.343844, 46.076707], [7.343572, 46.076739], [7.343314, 46.076562], [7.343304, 46.076525], [7.343215, 46.076546], [7.343244, 46.076545], [7.343224, 46.076498], [7.343119, 46.076446], [7.343107, 46.076329], [7.343011, 46.076276], [7.342983, 46.076227], [7.342901, 46.076193], [7.34284, 46.07607], [7.342774, 46.076025], [7.342583, 46.07605], [7.342387, 46.07612], [7.342309, 46.076077], [7.342248, 46.07608], [7.342101, 46.076147], [7.342037, 46.076056], [7.342004, 46.07608], [7.34197, 46.076053], [7.341971, 46.076089], [7.341956, 46.076058], [7.341987, 46.076023], [7.341955, 46.076032], [7.341961, 46.07606], [7.342, 46.076059], [7.341989, 46.076042], [7.341967, 46.076042], [7.341997, 46.076063], [7.342, 46.076023], [7.341973, 46.076061], [7.34201, 46.076071], [7.341984, 46.076076], [7.341998, 46.076061], [7.34201, 46.076075], [7.341973, 46.076065], [7.341996, 46.076074], [7.341991, 46.076043], [7.342021, 46.076044], [7.341987, 46.076089], [7.34196, 46.07607], [7.341989, 46.076057], [7.341955, 46.076057], [7.342, 46.076067], [7.341976, 46.076049], [7.341998, 46.076064], [7.341961, 46.076063], [7.341976, 46.076077], [7.341989, 46.076061], [7.341981, 46.076034], [7.341896, 46.075981], [7.341757, 46.075965], [7.341666, 46.075986], [7.341601, 46.075961], [7.341503, 46.075979], [7.341447, 46.075909], [7.34135, 46.075878], [7.341178, 46.075919], [7.34111, 46.075872], [7.341064, 46.075878], [7.341002, 46.075809], [7.340835, 46.075732], [7.340787, 46.075588], [7.34068, 46.075464], [7.340512, 46.075409], [7.340504, 46.075384], [7.340444, 46.075389], [7.340378, 46.075339], [7.340283, 46.075371], [7.340239, 46.075344], [7.340098, 46.075325], [7.339939, 46.075355], [7.339867, 46.075341], [7.339799, 46.07539], [7.339686, 46.075376], [7.339625, 46.075415], [7.339519, 46.075423], [7.339456, 46.075458], [7.3393, 46.075417], [7.339276, 46.075448], [7.339177, 46.075453], [7.339082, 46.075489], [7.339064, 46.075547], [7.338956, 46.075558], [7.338847, 46.075512], [7.33861, 46.075504], [7.338337, 46.075455], [7.337987, 46.075477], [7.338009, 46.075499]]}, "properties": {"name": "1785304305.Cabane_Prafleuri_Cabane_Louvie", "cmt": "2026-07-29", "tstamp": 1785283200, "desc": "DownHill", "src": "7.304391/46.04681/7.378737/46.083036", "bbox": "7.304391/46.04681/7.378737/46.083036"}}, {"type": "Feature", "bbox": [7.304391, 46.04681, 7.378737, 46.083036], "geometry": {"type": "LineString", "coordinates": [[7.338017, 46.075501], [7.338031, 46.075523], [7.338071, 46.075511], [7.338037, 46.075514], [7.338013, 46.075471], [7.337884, 46.075492], [7.337776, 46.075442], [7.337596, 46.075518], [7.337526, 46.075531], [7.337568, 46.075515], [7.337553, 46.075502], [7.337551, 46.075536], [7.337362, 46.075604], [7.33737, 46.075631], [7.337231, 46.075657], [7.337194, 46.075619], [7.337202, 46.075577], [7.337128, 46.075565], [7.337088, 46.075661], [7.337024, 46.07566], [7.337032, 46.075693], [7.337066, 46.075693], [7.336985, 46.07568], [7.337028, 46.075668], [7.336968, 46.075654], [7.336957, 46.075712], [7.336917, 46.075702], [7.336868, 46.075739], [7.33684, 46.075852], [7.336695, 46.075923], [7.33667, 46.076016], [7.336589, 46.076102], [7.336587, 46.076178], [7.3365, 46.076281], [7.336511, 46.07637], [7.336462, 46.07642], [7.336408, 46.076563], [7.336447, 46.076604], [7.336432, 46.076659], [7.336463, 46.076623], [7.336407, 46.076622], [7.336416, 46.076602], [7.336377, 46.076615], [7.336285, 46.076566], [7.336248, 46.076474], [7.336209, 46.076469], [7.336207, 46.076392], [7.336096, 46.076348], [7.336105, 46.076286], [7.336083, 46.076256], [7.336021, 46.076243], [7.336027, 46.076207], [7.33585, 46.076136], [7.335844, 46.076085], [7.33569, 46.076057], [7.335618, 46.075932], [7.335508, 46.075887], [7.335362, 46.075891], [7.335318, 46.075831], [7.335262, 46.075807], [7.335278, 46.075788], [7.335244, 46.075782], [7.335214, 46.075812], [7.335259, 46.075792], [7.335187, 46.075777], [7.335145, 46.075727], [7.335101, 46.075736], [7.335073, 46.075694], [7.335095, 46.075616], [7.335057, 46.075561], [7.334976, 46.075523], [7.334948, 46.075434], [7.334868, 46.075398], [7.334773, 46.075294], [7.334686, 46.075187], [7.3347, 46.075163], [7.3347, 46.075195], [7.334673, 46.075155], [7.334669, 46.075171], [7.334637, 46.075163], [7.334567, 46.074949], [7.334513, 46.074994], [7.334383, 46.074952], [7.334264, 46.074966], [7.334252, 46.074943], [7.334253, 46.074979], [7.334148, 46.074975], [7.334112, 46.074946], [7.334043, 46.074946], [7.33384, 46.074872], [7.333746, 46.074815], [7.333674, 46.07482], [7.333707, 46.074849], [7.333663, 46.074883], [7.333636, 46.074852], [7.333568, 46.074862], [7.333534, 46.074921], [7.333459, 46.074938], [7.333477, 46.074926], [7.333446, 46.074907], [7.33327, 46.07494], [7.333285, 46.074891], [7.333167, 46.074897], [7.333142, 46.07493], [7.333075, 46.074939], [7.333076, 46.074959], [7.333063, 46.074939], [7.332993, 46.074987], [7.332999, 46.075078], [7.333015, 46.075022], [7.33293, 46.075061], [7.332792, 46.075024], [7.332771, 46.074985], [7.33266, 46.074978], [7.332605, 46.074997], [7.332587, 46.074969], [7.332571, 46.074984], [7.332568, 46.074944], [7.3326, 46.074924], [7.332536, 46.074914], [7.332324, 46.074967], [7.332301, 46.074976], [7.332327, 46.07499], [7.332323, 46.074957], [7.332221, 46.074959], [7.332186, 46.07491], [7.332123, 46.074909], [7.332176, 46.074903], [7.332144, 46.074891], [7.332177, 46.074883], [7.332163, 46.074922], [7.332202, 46.074916], [7.332177, 46.074907], [7.332193, 46.074886], [7.332143, 46.074914], [7.33211, 46.074892], [7.33214, 46.074886], [7.332115, 46.074863], [7.332163, 46.074874], [7.332167, 46.074782], [7.33208, 46.074768], [7.331977, 46.07481], [7.331934, 46.074769], [7.331919, 46.074784], [7.331958, 46.07473], [7.331935, 46.074746], [7.331921, 46.074715], [7.331965, 46.074624], [7.3319, 46.074602], [7.33183, 46.074614], [7.331841, 46.074588], [7.331774, 46.074576], [7.331776, 46.074557], [7.331659, 46.074614], [7.331509, 46.074635], [7.33144, 46.074554], [7.331392, 46.07456], [7.331349, 46.07448], [7.331289, 46.074477], [7.331302, 46.074454], [7.331275, 46.07443], [7.331232, 46.074433], [7.331233, 46.074377], [7.331187, 46.074361], [7.331237, 46.074353], [7.331215, 46.074331], [7.331238, 46.074287], [7.331168, 46.074244], [7.331114, 46.074264], [7.331122, 46.074158], [7.331137, 46.074182], [7.331106, 46.074189], [7.331109, 46.074164], [7.33116, 46.074159], [7.33115, 46.074094], [7.331124, 46.074086], [7.331144, 46.074042], [7.330992, 46.073979], [7.330949, 46.073909], [7.330891, 46.073884], [7.330789, 46.073884], [7.330801, 46.073864], [7.330682, 46.073825], [7.330651, 46.073886], [7.330457, 46.073917], [7.330394, 46.073891], [7.33027, 46.07391], [7.330074, 46.073963], [7.329992, 46.074029], [7.329921, 46.074026], [7.329726, 46.0741], [7.329734, 46.074035], [7.329531, 46.073975], [7.329557, 46.073953]]}, "properties": {"name": "1785304305.Cabane_Prafleuri_Cabane_Louvie", "cmt": "2026-07-29", "tstamp": 1785283200, "desc": "UpHill", "src": "7.304391/46.04681/7.378737/46.083036", "bbox": "7.304391/46.04681/7.378737/46.083036"}}, {"type": "Feature", "bbox": [7.304391, 46.04681, 7.378737, 46.083036], "geometry": {"type": "LineString", "coordinates": [[7.329556, 46.073953], [7.329526, 46.073964], [7.32949, 46.073944], [7.32951, 46.07396], [7.329515, 46.073918], [7.329571, 46.073918], [7.32953, 46.073909], [7.329531, 46.073941], [7.329534, 46.073923], [7.329488, 46.073957], [7.329508, 46.073847], [7.329413, 46.073855], [7.32941, 46.073828], [7.329364, 46.073811], [7.329333, 46.073823], [7.329214, 46.073795], [7.329149, 46.073685], [7.329061, 46.073657], [7.329003, 46.073586], [7.32885, 46.073543], [7.32889, 46.073532], [7.328885, 46.07351], [7.32879, 46.073503], [7.328726, 46.073423], [7.328574, 46.073397], [7.328537, 46.073405], [7.32856, 46.073408], [7.328544, 46.07344], [7.32857, 46.073403], [7.328524, 46.073408], [7.328572, 46.07339], [7.328551, 46.073414], [7.328517, 46.073406], [7.328563, 46.073383], [7.328521, 46.073392], [7.328545, 46.073374], [7.328474, 46.073355], [7.328385, 46.073258], [7.328437, 46.07325], [7.328403, 46.073245], [7.32843, 46.073207], [7.328392, 46.073206], [7.328389, 46.073177], [7.328355, 46.073168], [7.328379, 46.073169], [7.328351, 46.073176], [7.328369, 46.073142], [7.328198, 46.073127], [7.328218, 46.073095], [7.328165, 46.072944], [7.32819, 46.072918], [7.328081, 46.072927], [7.32807, 46.072893], [7.32796, 46.072868], [7.327957, 46.072833], [7.327766, 46.07276], [7.327652, 46.072688], [7.327663, 46.072656], [7.327613, 46.07265], [7.327584, 46.072606], [7.327513, 46.072585], [7.327503, 46.072526], [7.327444, 46.07252], [7.327466, 46.072509], [7.327413, 46.072433], [7.327325, 46.072416], [7.327333, 46.072328], [7.327163, 46.072233], [7.327141, 46.072253], [7.327175, 46.07226], [7.327117, 46.072231], [7.327115, 46.072182], [7.327052, 46.07217], [7.326981, 46.072076], [7.326893, 46.072078], [7.326838, 46.072143], [7.326844, 46.072118], [7.326773, 46.072081], [7.326768, 46.072049], [7.326741, 46.072056], [7.326742, 46.072033], [7.326645, 46.072022], [7.326632, 46.071992], [7.326602, 46.072005], [7.326665, 46.07202], [7.326642, 46.071934], [7.326605, 46.071931], [7.326594, 46.071918], [7.326622, 46.071921], [7.326585, 46.071897], [7.326567, 46.071907], [7.326567, 46.07184], [7.326472, 46.07185], [7.326393, 46.071808], [7.326377, 46.071756], [7.326325, 46.071725], [7.326351, 46.071729], [7.326363, 46.071697], [7.326265, 46.071688], [7.326231, 46.071643], [7.326066, 46.071615], [7.326054, 46.071638], [7.326004, 46.071605], [7.326037, 46.071626], [7.326021, 46.071609], [7.326057, 46.071602], [7.326062, 46.071629], [7.326021, 46.071618], [7.326047, 46.071636], [7.326008, 46.071619], [7.32605, 46.071618], [7.32606, 46.07164], [7.32606, 46.07161], [7.326035, 46.071648], [7.326062, 46.071606], [7.326039, 46.071594], [7.326132, 46.071669], [7.326036, 46.0716], [7.326106, 46.071615], [7.326086, 46.071588], [7.326045, 46.071614], [7.326081, 46.07162], [7.326035, 46.071616], [7.32606, 46.071629], [7.326057, 46.071605], [7.326084, 46.071607], [7.326113, 46.071631], [7.326093, 46.071607], [7.326121, 46.071582], [7.325882, 46.071532], [7.325774, 46.071452], [7.32554, 46.071411], [7.325378, 46.07142], [7.325315, 46.071403], [7.325141, 46.071435], [7.325046, 46.07143], [7.325018, 46.071447], [7.325052, 46.07146], [7.325024, 46.071466], [7.324747, 46.071437], [7.324697, 46.071461], [7.324618, 46.071423], [7.32452, 46.071417], [7.324522, 46.071383], [7.324363, 46.071348], [7.324129, 46.071333], [7.324021, 46.071362], [7.324015, 46.071427], [7.323957, 46.071497], [7.323857, 46.071383], [7.32374, 46.071385], [7.323684, 46.071412], [7.323472, 46.071407], [7.323279, 46.071363], [7.323182, 46.071398], [7.323033, 46.071403], [7.322836, 46.071306], [7.322759, 46.071316], [7.322771, 46.071304], [7.322694, 46.071271], [7.322717, 46.071261], [7.32269, 46.071299], [7.322575, 46.071188], [7.322543, 46.0712], [7.322427, 46.071151], [7.322389, 46.071159], [7.322269, 46.07109], [7.322169, 46.071097], [7.321987, 46.070915], [7.321836, 46.070846], [7.321834, 46.070807], [7.321683, 46.070721], [7.321698, 46.070695], [7.32164, 46.070692], [7.321608, 46.070664], [7.321528, 46.070677], [7.321454, 46.070658], [7.321382, 46.070681], [7.321306, 46.07063], [7.321219, 46.070639], [7.32114, 46.070615], [7.321049, 46.070537], [7.321025, 46.070472], [7.320964, 46.070428], [7.320951, 46.070441], [7.320954, 46.07037], [7.320914, 46.070337], [7.320845, 46.070351], [7.320793, 46.070328], [7.320772, 46.070373], [7.320682, 46.070319], [7.320632, 46.070324], [7.320603, 46.070262], [7.320569, 46.07028], [7.319601, 46.070307], [7.319498, 46.070211], [7.319336, 46.070238], [7.319297, 46.07018], [7.319228, 46.070191], [7.319197, 46.07025], [7.319158, 46.07023], [7.318903, 46.070238], [7.318502, 46.07013], [7.318014, 46.069908], [7.317893, 46.06989], [7.317841, 46.069837], [7.317763, 46.06983], [7.317629, 46.069706], [7.317466, 46.069662], [7.317384, 46.069605], [7.317092, 46.069506], [7.316967, 46.069372], [7.316778, 46.06928], [7.316796, 46.069288], [7.316759, 46.069314], [7.316709, 46.069234], [7.316666, 46.069236], [7.316549, 46.069172], [7.316404, 46.069206], [7.316429, 46.069207], [7.316423, 46.069231], [7.316405, 46.069217], [7.316312, 46.06926], [7.316187, 46.069224], [7.316161, 46.069163], [7.31612, 46.069144], [7.316133, 46.069107], [7.316104, 46.069073], [7.316049, 46.069055], [7.31587, 46.068848], [7.315729, 46.068761], [7.315723, 46.068709], [7.31555, 46.068602], [7.315421, 46.068588], [7.315206, 46.068523], [7.31517, 46.068547], [7.315116, 46.068525], [7.315098, 46.068538], [7.315002, 46.068488], [7.314843, 46.068506], [7.314714, 46.068448], [7.314665, 46.068469], [7.314677, 46.068449], [7.314649, 46.068441], [7.314585, 46.068467], [7.31438, 46.068477], [7.314299, 46.068513], [7.314139, 46.068471], [7.313798, 46.068453], [7.313747, 46.068425], [7.313761, 46.068405], [7.313663, 46.068377], [7.313597, 46.068385], [7.313511, 46.068336], [7.31318, 46.068312], [7.313075, 46.068277], [7.313041, 46.068213], [7.312925, 46.068115], [7.312794, 46.068042], [7.312524, 46.068023], [7.312365, 46.067975], [7.312336, 46.067907], [7.312171, 46.067747], [7.312112, 46.067613], [7.312138, 46.067597], [7.31209, 46.067573], [7.312119, 46.067548], [7.312058, 46.067449], [7.311801, 46.067245], [7.31173, 46.06709], [7.311584, 46.066991], [7.311379, 46.066761], [7.311181, 46.066659], [7.31118, 46.066511], [7.31113, 46.066379], [7.311184, 46.066301], [7.311106, 46.06621], [7.311115, 46.066164], [7.31106, 46.066123], [7.311096, 46.06602], [7.310932, 46.065783], [7.310961, 46.065702], [7.311039, 46.06566], [7.311041, 46.065634], [7.311021, 46.065674], [7.311032, 46.065658], [7.311061, 46.065669], [7.311061, 46.065642], [7.311047, 46.065658], [7.311087, 46.065651], [7.311032, 46.065667], [7.311061, 46.065642], [7.31103, 46.065676], [7.311088, 46.065631], [7.311008, 46.065673], [7.311021, 46.065649], [7.310995, 46.065653], [7.311011, 46.065676], [7.311007, 46.065658], [7.311059, 46.065647], [7.310979, 46.06566], [7.31103, 46.065693], [7.310993, 46.06569], [7.311033, 46.06567], [7.311004, 46.065684], [7.311012, 46.065651], [7.311039, 46.065664], [7.31099, 46.065665], [7.311015, 46.065686], [7.311004, 46.065653], [7.310928, 46.065672], [7.310874, 46.065654], [7.310877, 46.065563], [7.31084, 46.065499], [7.310783, 46.065476], [7.310743, 46.065388], [7.310674, 46.06535], [7.3107, 46.065216], [7.310639, 46.065216], [7.310658, 46.065154], [7.310483, 46.065109], [7.310425, 46.06506], [7.310429, 46.065018], [7.310399, 46.065024], [7.310349, 46.064971], [7.310349, 46.064935], [7.3104, 46.064921], [7.310402, 46.064866], [7.310428, 46.064872], [7.310476, 46.064783], [7.310405, 46.06474], [7.310383, 46.064674], [7.310397, 46.064641], [7.310466, 46.064655], [7.310483, 46.064536], [7.310357, 46.06443], [7.310317, 46.064359], [7.310172, 46.064275], [7.310114, 46.064208], [7.309878, 46.064091], [7.309882, 46.064046], [7.30984, 46.064012], [7.30976, 46.063826], [7.309629, 46.063769], [7.309607, 46.063723], [7.309456, 46.063637], [7.309387, 46.06365], [7.309293, 46.063627], [7.309282, 46.063577], [7.308987, 46.063423], [7.308817, 46.063283], [7.30883, 46.063236], [7.308792, 46.063183], [7.308625, 46.063096], [7.308357, 46.063115], [7.308247, 46.063148], [7.308177, 46.063199], [7.308045, 46.06321], [7.307942, 46.063268], [7.307575, 46.063342], [7.30754, 46.063323], [7.307465, 46.063334], [7.307452, 46.063298], [7.307285, 46.063246], [7.307138, 46.063085], [7.307065, 46.063096], [7.306989, 46.063041], [7.306865, 46.062999], [7.306839, 46.062909], [7.306785, 46.062913], [7.306799, 46.062926], [7.306818, 46.062909], [7.306784, 46.062962], [7.306772, 46.062937], [7.3068, 46.06292], [7.306719, 46.062961], [7.306807, 46.062943], [7.306711, 46.062919], [7.306658, 46.062974], [7.306614, 46.062937], [7.306514, 46.062954], [7.306466, 46.062931], [7.30632, 46.062939], [7.30628, 46.062906], [7.306154, 46.062879], [7.306146, 46.062833], [7.306067, 46.06279], [7.306067, 46.062689], [7.306028, 46.062642], [7.305938, 46.062644], [7.3059, 46.062617], [7.305741, 46.06259], [7.305749, 46.062569], [7.305708, 46.062552], [7.305658, 46.062553], [7.3055, 46.062435], [7.305446, 46.062357], [7.305296, 46.062301], [7.305214, 46.062243], [7.305169, 46.062133], [7.305059, 46.062045], [7.304974, 46.06191], [7.305022, 46.061738], [7.304953, 46.061483], [7.305001, 46.06135], [7.304995, 46.061224], [7.305035, 46.061105], [7.305016, 46.061046], [7.305041, 46.061012], [7.304912, 46.060852], [7.304835, 46.060607], [7.304646, 46.060385], [7.304565, 46.060159], [7.304391, 46.060073], [7.304505, 46.060141], [7.304559, 46.060144], [7.304591, 46.0602], [7.304654, 46.060205], [7.304741, 46.060071], [7.304701, 46.060001], [7.304761, 46.059997], [7.304792, 46.059926], [7.3048, 46.059953], [7.304837, 46.059943], [7.304855, 46.059867], [7.304869, 46.059854], [7.304895, 46.059876], [7.304938, 46.059781], [7.305036, 46.059826], [7.305113, 46.059754], [7.305125, 46.059699], [7.305183, 46.05976], [7.305224, 46.05963], [7.305412, 46.059866], [7.305461, 46.059819], [7.305507, 46.059824], [7.305529, 46.059753], [7.305527, 46.059787], [7.305609, 46.059785], [7.305627, 46.059732], [7.305628, 46.059775], [7.305664, 46.059794], [7.305723, 46.059747], [7.305735, 46.059645], [7.305798, 46.05965], [7.305873, 46.059691], [7.305884, 46.059627], [7.305912, 46.059623], [7.305898, 46.059659], [7.305936, 46.059669], [7.305974, 46.059743], [7.305951, 46.059762], [7.306002, 46.059768], [7.306019, 46.059721], [7.306063, 46.059712], [7.306149, 46.059606], [7.306168, 46.059575], [7.306142, 46.059546], [7.306254, 46.059489], [7.306281, 46.059535], [7.30627, 46.059508], [7.306316, 46.05948], [7.306318, 46.059447], [7.306305, 46.059494], [7.306346, 46.059508], [7.306343, 46.059557], [7.306391, 46.059609], [7.306414, 46.059597], [7.306435, 46.059627], [7.306462, 46.059582], [7.306486, 46.059602], [7.306507, 46.059581], [7.306536, 46.059635], [7.306667, 46.059551], [7.30677, 46.05944], [7.306788, 46.059355], [7.306872, 46.059329], [7.307046, 46.059111], [7.307199, 46.059093], [7.307164, 46.059117], [7.307198, 46.059106], [7.307175, 46.059107], [7.307213, 46.059131], [7.307284, 46.059136], [7.307353, 46.05907], [7.307442, 46.059067], [7.307546, 46.05902], [7.307606, 46.058935], [7.307739, 46.058918], [7.307808, 46.058839], [7.308056, 46.058806], [7.308067, 46.058824], [7.308166, 46.05874], [7.308144, 46.058822], [7.308211, 46.058817], [7.30831, 46.058765], [7.308435, 46.058758], [7.308486, 46.05872], [7.308541, 46.058733], [7.308568, 46.058777], [7.308625, 46.058773], [7.308619, 46.058811], [7.308675, 46.058812], [7.308692, 46.058855], [7.308789, 46.058848], [7.308849, 46.058871], [7.30891, 46.058857], [7.308997, 46.058909], [7.309045, 46.058905], [7.309063, 46.058957], [7.309136, 46.05901], [7.309134, 46.059083], [7.309192, 46.059119], [7.309173, 46.05915], [7.309284, 46.059267], [7.309292, 46.059346], [7.309363, 46.059369], [7.309365, 46.05941], [7.309415, 46.059448], [7.309411, 46.059506], [7.309493, 46.059567], [7.309732, 46.059553], [7.309831, 46.059596], [7.309954, 46.059523], [7.310009, 46.059521], [7.310035, 46.059489], [7.310208, 46.059452], [7.310276, 46.05946], [7.310347, 46.059505], [7.310459, 46.059496], [7.310531, 46.059428], [7.310509, 46.059395], [7.310557, 46.059286], [7.310546, 46.059238], [7.310646, 46.059171], [7.310651, 46.059188], [7.310702, 46.059172], [7.310803, 46.059057], [7.310757, 46.058987], [7.310754, 46.058855], [7.310732, 46.058811], [7.310706, 46.058822], [7.310666, 46.058794], [7.310649, 46.058704], [7.310677, 46.058642], [7.310764, 46.05858], [7.31073, 46.058558], [7.310786, 46.058488], [7.310768, 46.058344], [7.310813, 46.058316], [7.310749, 46.058207], [7.310795, 46.058141], [7.310897, 46.058139], [7.310974, 46.057712], [7.310972, 46.057727], [7.310937, 46.057714], [7.310909, 46.057758], [7.310872, 46.057712], [7.31089, 46.057669], [7.310818, 46.057653], [7.310823, 46.05759], [7.310738, 46.057561], [7.310729, 46.057503], [7.310656, 46.057423], [7.310663, 46.057356], [7.310577, 46.057272], [7.310564, 46.057155], [7.310413, 46.057159], [7.310407, 46.05712], [7.310333, 46.057105], [7.310334, 46.057057], [7.31023, 46.056967], [7.310257, 46.056923], [7.310236, 46.056901], [7.310042, 46.056814], [7.309963, 46.056736], [7.309949, 46.056652], [7.309857, 46.056573], [7.30989, 46.056519], [7.309825, 46.056423], [7.309829, 46.056357], [7.309702, 46.056218], [7.309723, 46.056052], [7.309661, 46.055997], [7.309642, 46.055916], [7.309582, 46.05589], [7.309596, 46.05581], [7.30945, 46.055747], [7.30938, 46.055664], [7.309154, 46.055628], [7.309157, 46.055586], [7.309047, 46.055554], [7.309007, 46.0554], [7.30894, 46.055435], [7.308986, 46.055401], [7.308984, 46.055358], [7.308926, 46.055306], [7.308927, 46.055161], [7.308874, 46.055089], [7.308853, 46.054979], [7.308793, 46.054912], [7.308752, 46.054897], [7.308609, 46.054942], [7.308583, 46.054914], [7.308496, 46.054896], [7.308359, 46.054953], [7.308246, 46.054889], [7.308276, 46.054863], [7.308226, 46.054857], [7.307932, 46.054702], [7.307715, 46.05452], [7.307666, 46.054439], [7.307722, 46.054358], [7.3077, 46.054212], [7.30764, 46.054149], [7.307639, 46.054069], [7.307677, 46.053972], [7.307749, 46.053997], [7.307754, 46.053898], [7.307803, 46.05387], [7.307786, 46.053791], [7.307831, 46.053753], [7.307804, 46.053739], [7.307886, 46.053746], [7.307926, 46.053814], [7.308084, 46.053892], [7.308118, 46.053885], [7.308106, 46.05377], [7.308135, 46.053758], [7.308129, 46.05379], [7.30814, 46.05377], [7.308182, 46.053782], [7.308286, 46.053854], [7.30828, 46.053884], [7.308434, 46.05392], [7.308415, 46.053859], [7.308454, 46.053823], [7.308444, 46.053782], [7.30836, 46.053722], [7.308305, 46.053613], [7.308307, 46.05342], [7.30845, 46.053022], [7.308535, 46.052977], [7.308532, 46.052942], [7.308617, 46.052877], [7.308787, 46.052943], [7.308941, 46.052969], [7.308999, 46.052943], [7.309017, 46.052851], [7.309229, 46.05282], [7.309181, 46.052826], [7.309249, 46.052632], [7.309194, 46.052478], [7.309151, 46.052432], [7.309053, 46.052397], [7.309021, 46.052337], [7.308959, 46.052301], [7.308898, 46.052152], [7.308744, 46.051988], [7.308666, 46.051954], [7.30861, 46.05181]]}, "properties": {"name": "1785304305.Cabane_Prafleuri_Cabane_Louvie", "cmt": "2026-07-29", "tstamp": 1785283200, "desc": "DownHill", "src": "7.304391/46.04681/7.378737/46.083036", "bbox": "7.304391/46.04681/7.378737/46.083036"}}, {"type": "Feature", "bbox": [7.304391, 46.04681, 7.378737, 46.083036], "geometry": {"type": "LineString", "coordinates": [[7.308606, 46.051797], [7.308579, 46.051755], [7.308489, 46.051741], [7.30845, 46.051706], [7.308265, 46.051674], [7.308128, 46.05168], [7.308111, 46.051656], [7.307961, 46.051757], [7.307896, 46.051755], [7.307828, 46.05166], [7.307729, 46.051583], [7.307703, 46.051589], [7.307736, 46.051575], [7.307724, 46.051614], [7.307543, 46.05153], [7.307425, 46.051418], [7.307302, 46.051211], [7.307173, 46.051142], [7.307076, 46.051124], [7.307036, 46.051034], [7.306958, 46.051006], [7.306942, 46.050961], [7.306941, 46.05099], [7.306895, 46.050957], [7.306817, 46.050855], [7.306761, 46.050832], [7.306745, 46.050846], [7.306722, 46.050802], [7.306617, 46.050777], [7.306559, 46.050721], [7.306586, 46.050601], [7.306569, 46.05051], [7.30653, 46.050469], [7.306559, 46.050331], [7.30653, 46.05032], [7.306628, 46.050139], [7.306612, 46.049979], [7.306568, 46.049942], [7.306589, 46.049876], [7.306441, 46.049624], [7.306411, 46.049511], [7.30634, 46.04944], [7.306337, 46.049363], [7.306095, 46.049094], [7.306079, 46.049027], [7.30611, 46.048926], [7.306019, 46.048818], [7.305959, 46.048625], [7.305973, 46.048487], [7.305877, 46.048399], [7.305863, 46.048352], [7.305775, 46.048327], [7.305758, 46.048271], [7.305697, 46.048243], [7.305721, 46.048183], [7.305692, 46.048024], [7.305623, 46.047954], [7.305643, 46.047841], [7.30553, 46.047771], [7.305559, 46.047707], [7.305506, 46.047643], [7.305415, 46.047625], [7.305453, 46.047583], [7.305426, 46.047516], [7.305447, 46.047429], [7.305404, 46.047374], [7.305441, 46.047323], [7.305529, 46.047306], [7.305574, 46.04732], [7.30558, 46.047294], [7.30569, 46.047273], [7.305753, 46.047305], [7.305784, 46.047278], [7.305925, 46.047313], [7.306073, 46.047306], [7.30633, 46.047376], [7.306374, 46.047408], [7.306507, 46.047423], [7.306537, 46.047399], [7.306518, 46.047367], [7.306569, 46.047341], [7.306543, 46.047239], [7.30657, 46.047089], [7.306621, 46.047012], [7.306547, 46.046933], [7.306553, 46.046881], [7.306581, 46.046888], [7.306527, 46.046896], [7.306573, 46.046871], [7.306578, 46.046818], [7.306512, 46.04681]]}, "properties": {"name": "1785304305.Cabane_Prafleuri_Cabane_Louvie", "cmt": "2026-07-29", "tstamp": 1785283200, "desc": "UpHill", "src": "7.304391/46.04681/7.378737/46.083036", "bbox": "7.304391/46.04681/7.378737/46.083036"}}]}