{"type": "FeatureCollection", "name": "TrackSet", "crs": {"type": "name", "properties": {"name": "urn:ogc:def:crs:OGC:1.3:CRS84"}}, "bbox": [6.189143, 46.315088, 6.19361, 46.322639], "features": [{"type": "Feature", "bbox": [6.189143, 46.315088, 6.19361, 46.322639], "geometry": {"type": "LineString", "coordinates": [[6.190746, 46.32116], [6.190562, 46.321077], [6.190483, 46.320857], [6.190314, 46.320755], [6.19008, 46.320695], [6.189698, 46.320297], [6.1895, 46.320158], [6.18921, 46.320061], [6.189176, 46.31996], [6.189331, 46.319871], [6.189496, 46.319812], [6.189603, 46.31972], [6.189803, 46.319665], [6.189972, 46.319579], [6.190085, 46.319571], [6.190115, 46.319539], [6.190164, 46.319533], [6.190164, 46.319483], [6.190336, 46.319496], [6.190364, 46.319423], [6.190553, 46.319413], [6.190593, 46.319372], [6.190718, 46.319341], [6.190723, 46.319296], [6.19081, 46.319258], [6.190897, 46.319253], [6.190916, 46.319227], [6.191054, 46.319223], [6.191094, 46.319173], [6.19119, 46.319128], [6.191305, 46.319117], [6.191427, 46.319008], [6.19172, 46.318892], [6.192003, 46.318571], [6.192053, 46.318419], [6.192139, 46.318325], [6.192197, 46.31831], [6.19226, 46.318248], [6.192287, 46.318189], [6.192253, 46.318177], [6.192277, 46.318162], [6.192263, 46.318116], [6.192148, 46.317953], [6.192156, 46.317896], [6.192237, 46.317852], [6.192272, 46.317784], [6.192341, 46.317736], [6.192375, 46.317591], [6.19241, 46.317564], [6.192488, 46.317583], [6.192588, 46.317517], [6.192715, 46.317334], [6.192812, 46.317267], [6.192943, 46.317106], [6.193033, 46.317052], [6.193165, 46.317039], [6.193381, 46.316847], [6.1936, 46.316736], [6.193394, 46.316369], [6.193428, 46.316229], [6.19345, 46.316234], [6.193192, 46.316165], [6.193213, 46.316121], [6.193218, 46.316152], [6.193411, 46.316158], [6.193344, 46.316121], [6.193317, 46.316133], [6.193377, 46.31612], [6.193141, 46.316128], [6.193116, 46.316148], [6.193085, 46.316132], [6.193114, 46.316033], [6.193295, 46.315899], [6.193246, 46.315901], [6.193287, 46.315822], [6.193026, 46.31569], [6.19288, 46.315796], [6.192872, 46.31585], [6.192729, 46.315762], [6.192587, 46.315736], [6.192513, 46.315678], [6.192474, 46.315679], [6.192489, 46.315612], [6.192443, 46.315553], [6.192469, 46.315478], [6.192781, 46.31523], [6.192752, 46.315125], [6.192815, 46.315133], [6.192779, 46.315108], [6.192772, 46.315132], [6.192853, 46.315138], [6.192801, 46.315136], [6.192794, 46.315164], [6.192762, 46.315136], [6.192822, 46.315123], [6.192744, 46.315139], [6.192801, 46.315088], [6.192763, 46.31512], [6.192736, 46.315114], [6.192838, 46.315124], [6.192799, 46.315116], [6.192723, 46.315205], [6.192653, 46.315242], [6.19264, 46.315287], [6.192512, 46.315338], [6.192503, 46.315394], [6.192331, 46.3155], [6.192316, 46.315545], [6.192415, 46.315645], [6.19255, 46.315671], [6.192602, 46.3157], [6.192616, 46.315755], [6.192772, 46.315819], [6.192774, 46.315903], [6.193013, 46.316147], [6.193102, 46.316135], [6.193034, 46.316168], [6.193069, 46.316183], [6.193048, 46.316197], [6.193515, 46.316464], [6.193451, 46.316371], [6.193319, 46.316413], [6.193424, 46.316395], [6.193419, 46.316347], [6.193403, 46.316399], [6.193515, 46.316509], [6.193493, 46.316458], [6.193531, 46.316385], [6.193482, 46.316399], [6.193466, 46.316384], [6.193499, 46.316376], [6.193476, 46.316361], [6.193497, 46.316374], [6.193506, 46.316331], [6.193466, 46.316355], [6.193547, 46.31634], [6.193533, 46.316311], [6.193491, 46.316287], [6.193426, 46.316289], [6.193487, 46.316453], [6.19361, 46.316496], [6.193595, 46.316539], [6.193511, 46.316602], [6.193508, 46.316642], [6.193425, 46.316676], [6.193273, 46.316684], [6.193173, 46.3168], [6.19323, 46.31687], [6.193218, 46.316892], [6.193015, 46.317006], [6.192825, 46.317174], [6.192762, 46.317185], [6.192643, 46.317331], [6.192571, 46.317494], [6.192343, 46.317629], [6.192276, 46.317727], [6.192224, 46.317753], [6.192122, 46.317925], [6.192092, 46.318297], [6.191966, 46.31843], [6.191899, 46.318605], [6.191668, 46.318832], [6.191349, 46.318979], [6.191197, 46.319101], [6.191052, 46.319131], [6.190918, 46.319209], [6.190713, 46.319263], [6.190571, 46.319345], [6.189993, 46.319559], [6.189867, 46.319636], [6.189519, 46.319752], [6.189143, 46.319976], [6.189184, 46.320071], [6.189705, 46.320346], [6.189731, 46.320402], [6.19015, 46.320763], [6.190467, 46.320864], [6.190485, 46.320887], [6.190489, 46.320945], [6.190598, 46.32114], [6.190558, 46.321175], [6.19058, 46.321265], [6.190554, 46.32131], [6.190567, 46.321347], [6.190617, 46.321359], [6.190617, 46.3214], [6.190577, 46.321398], [6.190557, 46.321436], [6.190675, 46.321553], [6.190617, 46.321627], [6.190474, 46.321595], [6.190558, 46.321578], [6.190902, 46.321817], [6.190335, 46.322071], [6.190332, 46.322095], [6.190388, 46.322105], [6.190301, 46.322158], [6.190344, 46.32218], [6.190313, 46.322226], [6.190379, 46.322297], [6.191327, 46.322115], [6.191391, 46.322108], [6.191416, 46.322147], [6.191515, 46.322134], [6.191474, 46.322208], [6.191528, 46.322171], [6.19149, 46.322181], [6.191576, 46.322159], [6.191464, 46.322229], [6.191255, 46.322313], [6.191175, 46.322281], [6.190959, 46.322412], [6.190876, 46.322403], [6.190905, 46.322411], [6.190874, 46.32242], [6.190929, 46.32241], [6.191114, 46.322576], [6.191147, 46.322542], [6.191221, 46.322633], [6.191238, 46.3226], [6.191271, 46.322639], [6.191223, 46.322625], [6.191678, 46.322229], [6.191782, 46.322226], [6.191633, 46.32228], [6.191668, 46.322257], [6.191541, 46.322292], [6.191502, 46.322283], [6.191549, 46.32224], [6.19159, 46.322245], [6.191596, 46.322208], [6.191526, 46.322167], [6.191408, 46.322147], [6.191385, 46.32213], [6.191411, 46.322114], [6.191325, 46.322118], [6.19136, 46.322068], [6.191328, 46.322067], [6.191307, 46.322033], [6.191424, 46.322024]]}, "properties": {"name": "1785744061.Morning_Walk", "cmt": "2026-08-03", "tstamp": 1785715200, "desc": "---", "src": "6.189143/46.315088/6.19361/46.322639", "bbox": "6.189143/46.315088/6.19361/46.322639"}}]}