{"type": "FeatureCollection", "name": "TrackSet", "crs": {"type": "name", "properties": {"name": "urn:ogc:def:crs:OGC:1.3:CRS84"}}, "bbox": [6.189959, 46.330658, 6.197427, 46.336753], "features": [{"type": "Feature", "bbox": [6.189959, 46.330658, 6.197427, 46.336753], "geometry": {"type": "LineString", "coordinates": [[6.19442, 46.331696], [6.194441, 46.331734], [6.194641, 46.331628], [6.194683, 46.331564], [6.194657, 46.331529], [6.194695, 46.331663], [6.194919, 46.331965], [6.194921, 46.331995], [6.19476, 46.33205], [6.19463, 46.332151], [6.194256, 46.332265], [6.194184, 46.33219], [6.194083, 46.332187], [6.193678, 46.332277], [6.193658, 46.332251], [6.193576, 46.332271], [6.19346, 46.332246], [6.193357, 46.332255], [6.19309, 46.33214], [6.192924, 46.332135], [6.19257, 46.332259], [6.19246, 46.332342], [6.192464, 46.332384], [6.192411, 46.332422], [6.192456, 46.332479], [6.19247, 46.332613], [6.192587, 46.332647], [6.19262, 46.33268], [6.192616, 46.332754], [6.192556, 46.33285], [6.192581, 46.332868], [6.192479, 46.3329], [6.192442, 46.332888], [6.192339, 46.332919], [6.192253, 46.332916], [6.192164, 46.332963], [6.191856, 46.332993], [6.191804, 46.333019], [6.191601, 46.333002], [6.19133, 46.333058], [6.191126, 46.333071], [6.191075, 46.333098], [6.190986, 46.333071], [6.190768, 46.333129], [6.190378, 46.333148], [6.190173, 46.33325], [6.190099, 46.333235], [6.189959, 46.333376], [6.19003, 46.333474], [6.190066, 46.333611], [6.190107, 46.333622], [6.190257, 46.333945], [6.190605, 46.334506], [6.190581, 46.334518], [6.190625, 46.334516], [6.190644, 46.334613], [6.191016, 46.33525], [6.1911, 46.335447], [6.191295, 46.335736], [6.191454, 46.336096], [6.191535, 46.336168], [6.19165, 46.336344], [6.191656, 46.336453], [6.191714, 46.33654], [6.191903, 46.336511], [6.192105, 46.336413], [6.192245, 46.336285], [6.192539, 46.336108], [6.192677, 46.336189], [6.192807, 46.336419], [6.192847, 46.336432], [6.192999, 46.33661], [6.193118, 46.33666], [6.193258, 46.336648], [6.193416, 46.33656], [6.193772, 46.336482], [6.193949, 46.336408], [6.194293, 46.336352], [6.194361, 46.336323], [6.194318, 46.336287], [6.194352, 46.336308], [6.194349, 46.336283], [6.19473, 46.336154], [6.194788, 46.336192], [6.194809, 46.336181], [6.194829, 46.336431], [6.194959, 46.33671], [6.195003, 46.336753], [6.195055, 46.33675], [6.19548, 46.33656], [6.195458, 46.336552], [6.195583, 46.336508], [6.195612, 46.336475], [6.195723, 46.33645], [6.195997, 46.336325], [6.196237, 46.336187], [6.196382, 46.336046], [6.196595, 46.33593], [6.196699, 46.335831], [6.1968, 46.335895], [6.196888, 46.335911], [6.196857, 46.335839], [6.196773, 46.335763], [6.196817, 46.335735], [6.196911, 46.335751], [6.197103, 46.335894], [6.197112, 46.335963], [6.197203, 46.336], [6.197267, 46.335995], [6.197222, 46.335995], [6.197217, 46.336046], [6.19739, 46.335977], [6.19738, 46.335945], [6.197427, 46.335943], [6.197351, 46.335734], [6.197315, 46.335711], [6.197322, 46.335623], [6.197224, 46.335524], [6.197259, 46.335441], [6.197243, 46.335257], [6.197159, 46.335079], [6.197091, 46.334604], [6.197014, 46.334536], [6.19698, 46.334414], [6.197051, 46.3343], [6.197131, 46.334296], [6.197233, 46.334239], [6.19617, 46.334287], [6.19613, 46.334266], [6.196388, 46.334263], [6.196332, 46.334228], [6.196444, 46.334259], [6.196413, 46.334245], [6.196492, 46.33419], [6.196457, 46.334163], [6.196495, 46.334105], [6.196477, 46.334062], [6.196284, 46.33392], [6.196067, 46.333851], [6.195984, 46.333849], [6.195952, 46.333827], [6.195945, 46.333843], [6.195682, 46.333722], [6.195356, 46.333645], [6.195336, 46.33366], [6.195233, 46.333595], [6.195094, 46.33355], [6.195098, 46.333565], [6.19497, 46.333542], [6.194715, 46.333344], [6.194657, 46.333334], [6.19443, 46.333179], [6.194246, 46.333103], [6.193895, 46.333085], [6.193772, 46.333138], [6.193605, 46.333153], [6.193571, 46.333185], [6.193477, 46.333197], [6.193462, 46.333228], [6.193252, 46.333287], [6.193092, 46.333296], [6.193001, 46.333346], [6.192824, 46.333296], [6.192825, 46.333158], [6.19274, 46.333048], [6.192768, 46.332895], [6.192966, 46.332861], [6.193023, 46.332792], [6.192991, 46.33269], [6.193012, 46.33256], [6.193109, 46.332571], [6.193301, 46.332494], [6.193397, 46.332414], [6.193395, 46.332329], [6.193454, 46.332286], [6.193609, 46.332303], [6.193764, 46.332274], [6.193856, 46.332294], [6.194172, 46.332198], [6.194241, 46.332263], [6.194359, 46.332248], [6.194445, 46.332204], [6.19456, 46.332186], [6.19494, 46.331996], [6.194942, 46.331953], [6.194733, 46.331665], [6.194567, 46.331685], [6.194567, 46.331717], [6.194381, 46.331786], [6.194307, 46.331785], [6.194289, 46.331711], [6.194239, 46.331751], [6.194303, 46.331668], [6.194307, 46.33171], [6.194337, 46.331685], [6.194233, 46.331577], [6.194268, 46.331715], [6.194291, 46.331693], [6.194284, 46.331754], [6.194348, 46.331824], [6.194442, 46.33178], [6.194514, 46.331802], [6.194577, 46.33174], [6.194654, 46.331709], [6.194691, 46.331644], [6.194603, 46.331349], [6.194494, 46.331112], [6.19445, 46.331085], [6.194471, 46.33103], [6.194425, 46.330922], [6.194408, 46.330902], [6.19439, 46.330915], [6.194343, 46.330794], [6.194246, 46.33066], [6.194215, 46.330658], [6.194219, 46.330683], [6.194237, 46.330662], [6.194266, 46.330671], [6.194246, 46.330681], [6.194406, 46.33085], [6.194619, 46.33145], [6.194798, 46.331773], [6.194719, 46.331672], [6.194567, 46.331727], [6.194439, 46.331742], [6.194358, 46.331785], [6.1943, 46.331772], [6.194103, 46.331846], [6.193964, 46.331856], [6.194196, 46.33186], [6.194431, 46.33179], [6.194491, 46.331792], [6.194734, 46.331875], [6.194747, 46.3319], [6.194844, 46.331875], [6.194854, 46.331826], [6.194334, 46.331694], [6.194351, 46.331657], [6.194281, 46.33173]]}, "properties": {"name": "1785522555.Founex_walk_with_great_friend_and_dog", "cmt": "2026-07-31", "tstamp": 1785456000, "desc": "---", "src": "6.189959/46.330658/6.197427/46.336753", "bbox": "6.189959/46.330658/6.197427/46.336753"}}]}