{"type": "FeatureCollection", "name": "TrackSet", "crs": {"type": "name", "properties": {"name": "urn:ogc:def:crs:OGC:1.3:CRS84"}}, "bbox": [7.414996, 46.010838, 7.417747, 46.012635], "features": [{"type": "Feature", "bbox": [7.414996, 46.010838, 7.417747, 46.012635], "geometry": {"type": "LineString", "coordinates": [[7.415943, 46.012623], [7.415912, 46.012635], [7.415932, 46.012622], [7.415858, 46.012614], [7.415772, 46.012556], [7.415755, 46.012588], [7.415715, 46.01258], [7.415717, 46.012632], [7.415706, 46.012583], [7.415549, 46.012598], [7.415449, 46.012568], [7.415384, 46.012585], [7.415361, 46.012529], [7.415301, 46.012538], [7.415249, 46.012494], [7.41528, 46.012445], [7.415258, 46.012381], [7.415212, 46.012361], [7.415301, 46.012284], [7.415269, 46.012267], [7.415306, 46.012222], [7.415288, 46.012208], [7.415326, 46.01218], [7.415464, 46.01218], [7.415475, 46.012126], [7.415383, 46.011971], [7.415382, 46.011782], [7.415301, 46.011628], [7.415334, 46.011587], [7.415279, 46.011533], [7.415142, 46.011488], [7.415118, 46.011432], [7.415075, 46.011429], [7.415078, 46.011404], [7.414996, 46.011347], [7.415041, 46.011295], [7.415184, 46.011243], [7.415277, 46.011238], [7.415409, 46.011146], [7.415596, 46.011104], [7.415718, 46.011011], [7.415796, 46.010985], [7.41597, 46.010999], [7.416168, 46.01096], [7.416324, 46.010978], [7.416504, 46.010962], [7.416613, 46.010888], [7.4166, 46.01087], [7.416747, 46.010918], [7.416945, 46.010838], [7.417126, 46.010846], [7.417223, 46.010879], [7.417228, 46.010904], [7.4175, 46.011058], [7.417679, 46.011047], [7.417669, 46.011073], [7.417747, 46.01109], [7.417723, 46.01113]]}, "properties": {"name": "1785167865.Afternoon_Walk", "cmt": "2026-07-27", "tstamp": 1785110400, "desc": "---", "src": "7.414996/46.010838/7.417747/46.012635", "bbox": "7.414996/46.010838/7.417747/46.012635"}}]}