{"type": "FeatureCollection", "name": "TrackSet", "crs": {"type": "name", "properties": {"name": "urn:ogc:def:crs:OGC:1.3:CRS84"}}, "bbox": [7.573401, 46.40019, 7.596388, 46.412503], "features": [{"type": "Feature", "bbox": [7.573401, 46.40019, 7.596388, 46.412503], "geometry": {"type": "LineString", "coordinates": [[7.574555, 46.400207], [7.574573, 46.400223], [7.574622, 46.40019], [7.574576, 46.400205], [7.574617, 46.400193], [7.574608, 46.400224], [7.57465, 46.400217], [7.574611, 46.400235], [7.574646, 46.400305], [7.574666, 46.400299], [7.574536, 46.400345], [7.574525, 46.400478], [7.574587, 46.400545], [7.574628, 46.400709], [7.574654, 46.400719], [7.574628, 46.400842], [7.574788, 46.401087], [7.57477, 46.401141], [7.574563, 46.401308], [7.574452, 46.401485], [7.574375, 46.401545], [7.574443, 46.401677], [7.574324, 46.401838], [7.574337, 46.401967], [7.574277, 46.40204], [7.574276, 46.402136], [7.574328, 46.40222], [7.5743, 46.402342], [7.574354, 46.402417], [7.574427, 46.402433], [7.574456, 46.402488], [7.574581, 46.402513], [7.574618, 46.402487], [7.574823, 46.402571], [7.574871, 46.402567], [7.574962, 46.40266], [7.575049, 46.402709], [7.575127, 46.402721], [7.575223, 46.402827], [7.575284, 46.402842], [7.575404, 46.402987], [7.575557, 46.402968], [7.57574, 46.402999], [7.575948, 46.402921], [7.576, 46.402972], [7.576115, 46.402976], [7.576235, 46.403038], [7.57624, 46.403021], [7.576289, 46.40303], [7.576291, 46.403053], [7.576387, 46.403046], [7.576668, 46.403102], [7.576758, 46.403071], [7.576842, 46.40308], [7.577056, 46.403048], [7.577179, 46.403074], [7.577532, 46.403072], [7.577632, 46.403016], [7.577689, 46.403047], [7.577776, 46.403053], [7.57784, 46.40318], [7.577928, 46.403144], [7.578124, 46.403215], [7.578151, 46.403323], [7.57826, 46.403416], [7.578335, 46.403444], [7.578782, 46.403585], [7.578896, 46.403594], [7.579046, 46.403564], [7.57895, 46.403474], [7.579025, 46.403593], [7.578997, 46.403601], [7.578987, 46.403571], [7.578968, 46.403608], [7.579033, 46.403696], [7.579298, 46.403855], [7.579361, 46.40394], [7.579557, 46.403986], [7.579949, 46.404219], [7.580156, 46.404283], [7.580362, 46.404436], [7.580511, 46.404516], [7.580628, 46.404547], [7.580696, 46.404609], [7.580926, 46.404608], [7.581128, 46.404693], [7.581318, 46.404717], [7.581467, 46.404821], [7.581728, 46.40483], [7.5818, 46.404803], [7.581931, 46.404836], [7.582022, 46.404818], [7.582262, 46.404907], [7.582334, 46.404948], [7.582372, 46.405006], [7.582553, 46.405105], [7.582939, 46.405127], [7.583066, 46.405098], [7.583235, 46.405117], [7.583328, 46.405153], [7.583389, 46.40512], [7.583467, 46.405136], [7.583753, 46.40512], [7.583913, 46.40516], [7.58426, 46.405146], [7.584376, 46.405179], [7.584375, 46.405159], [7.584339, 46.405182], [7.584453, 46.405312], [7.584426, 46.405406], [7.584482, 46.405494], [7.584443, 46.4055], [7.584448, 46.405466], [7.584435, 46.405484], [7.584464, 46.405459], [7.584479, 46.405581], [7.584569, 46.405659], [7.584646, 46.405851], [7.584636, 46.40598], [7.584737, 46.406078], [7.584725, 46.40612], [7.584855, 46.406278], [7.584914, 46.40631], [7.585046, 46.406328], [7.585175, 46.406447], [7.585252, 46.406482], [7.585292, 46.406525], [7.585277, 46.406541], [7.585385, 46.4066], [7.58542, 46.406661], [7.58568, 46.40683], [7.585779, 46.406942], [7.585911, 46.406968], [7.586057, 46.407032], [7.586233, 46.406976], [7.586362, 46.407043], [7.586808, 46.407619], [7.586957, 46.407707], [7.587033, 46.407794], [7.587192, 46.407851], [7.587256, 46.407945], [7.587364, 46.407979], [7.58746, 46.408044], [7.587506, 46.408049], [7.587552, 46.408005], [7.587668, 46.408048], [7.58778, 46.408169], [7.587881, 46.408209], [7.587915, 46.408289], [7.588063, 46.408357], [7.588074, 46.408333], [7.588115, 46.408481], [7.588402, 46.408716], [7.588423, 46.408792], [7.588513, 46.408874], [7.588546, 46.408949], [7.588881, 46.409198], [7.589015, 46.409217], [7.589274, 46.409407], [7.589498, 46.409443], [7.589661, 46.40943], [7.589739, 46.409455], [7.589824, 46.409534], [7.590034, 46.409548], [7.590152, 46.409584], [7.590336, 46.409672], [7.590445, 46.409786], [7.590486, 46.409764], [7.59056, 46.409774], [7.590624, 46.409832], [7.590657, 46.409798], [7.590755, 46.409771], [7.590803, 46.409825], [7.590868, 46.409832], [7.590994, 46.409807], [7.591139, 46.409825], [7.591267, 46.409791], [7.591338, 46.40982], [7.591374, 46.409791], [7.591486, 46.40979], [7.591547, 46.409697], [7.591624, 46.409678], [7.591606, 46.409796], [7.591658, 46.409844], [7.591706, 46.409824], [7.591727, 46.409837], [7.591691, 46.409856], [7.59176, 46.40986], [7.591823, 46.409974], [7.591888, 46.409982], [7.591887, 46.410043], [7.591975, 46.410003], [7.592108, 46.410119], [7.592303, 46.41017], [7.59245, 46.41035], [7.5925, 46.410332], [7.592539, 46.410378], [7.592603, 46.410324], [7.592815, 46.410262], [7.592867, 46.410306], [7.592936, 46.410286], [7.592979, 46.41033], [7.593035, 46.410326], [7.593097, 46.410404], [7.593179, 46.410379], [7.593212, 46.410462], [7.593275, 46.410465], [7.593285, 46.410514], [7.593391, 46.410464], [7.593457, 46.410508], [7.593453, 46.410545], [7.59358, 46.41063], [7.59365, 46.410633], [7.593683, 46.410675], [7.593784, 46.410703], [7.594005, 46.410842], [7.594039, 46.411001], [7.594128, 46.411101]]}, "properties": {"name": "1786623517.Lammerenhutte_Roter_Totz_Luke", "cmt": "2026-08-13", "tstamp": 1786579200, "desc": "UpHill", "src": "7.573401/46.40019/7.596388/46.412503", "bbox": "7.573401/46.40019/7.596388/46.412503"}}, {"type": "Feature", "bbox": [7.573401, 46.40019, 7.596388, 46.412503], "geometry": {"type": "LineString", "coordinates": [[7.594138, 46.411115], [7.594138, 46.411092], [7.594188, 46.411135], [7.594205, 46.411253], [7.594283, 46.411389], [7.594364, 46.411458], [7.594427, 46.411662], [7.594619, 46.411898], [7.594621, 46.411956], [7.594674, 46.412016], [7.594694, 46.412267], [7.594533, 46.412424], [7.594603, 46.412351], [7.594714, 46.412143], [7.594838, 46.412094], [7.594946, 46.411999], [7.595193, 46.411945], [7.595252, 46.411912], [7.595359, 46.411908], [7.595551, 46.411802], [7.595615, 46.411797], [7.59561, 46.411813], [7.595628, 46.411794], [7.595631, 46.411809], [7.59562, 46.411671], [7.595659, 46.411719], [7.595712, 46.411709], [7.595739, 46.411732], [7.595876, 46.411701], [7.596011, 46.411733], [7.596066, 46.411718], [7.596174, 46.411781], [7.596258, 46.411869], [7.596251, 46.411927], [7.596298, 46.411987], [7.596325, 46.412118], [7.596349, 46.412103], [7.596388, 46.412172], [7.596368, 46.412258], [7.596306, 46.412339], [7.596342, 46.412503], [7.596353, 46.412445], [7.596212, 46.412322], [7.596239, 46.412279], [7.596151, 46.41217], [7.596158, 46.412083], [7.596109, 46.412049], [7.596157, 46.412031], [7.596129, 46.412063], [7.59618, 46.412076], [7.596105, 46.412067], [7.596101, 46.412003], [7.596056, 46.411989], [7.596048, 46.412023], [7.596062, 46.411971], [7.596033, 46.411992], [7.596066, 46.411992], [7.595985, 46.411915], [7.596005, 46.411894], [7.596106, 46.411903], [7.596134, 46.411845], [7.596205, 46.411836], [7.596229, 46.411809], [7.596097, 46.411693], [7.596111, 46.411639], [7.59599, 46.411712], [7.595921, 46.411711], [7.595901, 46.411685], [7.595854, 46.411683], [7.595798, 46.411615], [7.595793, 46.41164], [7.595817, 46.41158], [7.595748, 46.411487], [7.595578, 46.411461], [7.595533, 46.41141], [7.595604, 46.411626], [7.595549, 46.411689], [7.59563, 46.411747], [7.595553, 46.411825], [7.595448, 46.411823], [7.595445, 46.411844], [7.595425, 46.411828], [7.595374, 46.411881], [7.595251, 46.411917], [7.594945, 46.41185], [7.594753, 46.411753], [7.594697, 46.411666], [7.594711, 46.411626], [7.594636, 46.411528], [7.594597, 46.411554], [7.59456, 46.411434], [7.594465, 46.411296], [7.594362, 46.411212], [7.59419, 46.410866], [7.593784, 46.410716], [7.593664, 46.410604], [7.593521, 46.410559], [7.593387, 46.410438], [7.593341, 46.410435], [7.593322, 46.410469], [7.593274, 46.410464], [7.593199, 46.410422], [7.593172, 46.410367], [7.593096, 46.410368], [7.593068, 46.410315], [7.592981, 46.410311], [7.59299, 46.410295], [7.592899, 46.410268], [7.592855, 46.410298], [7.592805, 46.410263], [7.592652, 46.410287], [7.592658, 46.410317], [7.592627, 46.410301], [7.592536, 46.41035], [7.592474, 46.410317], [7.59242, 46.410328], [7.592307, 46.41015], [7.592083, 46.410078], [7.591973, 46.410005], [7.591876, 46.410028], [7.591857, 46.409998], [7.591882, 46.409936], [7.591816, 46.409957], [7.591826, 46.409917], [7.591779, 46.409916], [7.591637, 46.409802], [7.591606, 46.409669], [7.591507, 46.409699], [7.591446, 46.409775], [7.591366, 46.409764], [7.591293, 46.409806], [7.591244, 46.409774], [7.591146, 46.409835], [7.590991, 46.409803], [7.590784, 46.409811], [7.590723, 46.409767], [7.590603, 46.409839], [7.590514, 46.409773], [7.59048, 46.409816], [7.590405, 46.409685], [7.590401, 46.409718], [7.590338, 46.409644], [7.590279, 46.409619], [7.590018, 46.409526], [7.589799, 46.409526], [7.589681, 46.409433], [7.58961, 46.409414], [7.58952, 46.40944], [7.589475, 46.409426], [7.589418, 46.409453], [7.589227, 46.409309], [7.589041, 46.409255], [7.588788, 46.409139], [7.588668, 46.409053], [7.588671, 46.409017], [7.588508, 46.408917], [7.588375, 46.408659], [7.588253, 46.40855], [7.588068, 46.408488], [7.588055, 46.408322], [7.587942, 46.408256], [7.587897, 46.408261], [7.587824, 46.408156], [7.587675, 46.408062], [7.587447, 46.407967], [7.587401, 46.407878], [7.587321, 46.407856], [7.587238, 46.407738], [7.587092, 46.407663], [7.587072, 46.407701], [7.587019, 46.407716], [7.586808, 46.407593], [7.586614, 46.407366], [7.586496, 46.407172], [7.586333, 46.407024], [7.586219, 46.406958], [7.586096, 46.406988], [7.586105, 46.407001], [7.586072, 46.406981], [7.586089, 46.406991], [7.586053, 46.407017], [7.585937, 46.407013], [7.585856, 46.406951], [7.585722, 46.4069], [7.585461, 46.406643], [7.585402, 46.40663], [7.585228, 46.406431], [7.585169, 46.406424], [7.58504, 46.406298], [7.584921, 46.406274], [7.58485, 46.406234], [7.584742, 46.406083], [7.584672, 46.406032], [7.584645, 46.405954], [7.584684, 46.405918], [7.58466, 46.405791], [7.584397, 46.405392], [7.584406, 46.405279], [7.584378, 46.405243], [7.584419, 46.405256], [7.584484, 46.405177], [7.584355, 46.405052], [7.584414, 46.405005], [7.584411, 46.404987], [7.584376, 46.404998], [7.58439, 46.405026], [7.584415, 46.404997], [7.584443, 46.405009], [7.584404, 46.404998], [7.584387, 46.40504], [7.584417, 46.405033], [7.584383, 46.405004], [7.584404, 46.405026], [7.58442, 46.404989], [7.584392, 46.405029], [7.584428, 46.40504], [7.584407, 46.405024], [7.584374, 46.405046], [7.584407, 46.405064], [7.584403, 46.405031], [7.584394, 46.40506], [7.584373, 46.405048], [7.584396, 46.405056], [7.584376, 46.405038], [7.584398, 46.405033], [7.584368, 46.405054], [7.584383, 46.405042], [7.58441, 46.405069], [7.584369, 46.405055], [7.584371, 46.405031], [7.584402, 46.405005], [7.584419, 46.405017], [7.584384, 46.40513], [7.584428, 46.405184], [7.584371, 46.405202], [7.584246, 46.405154], [7.583915, 46.405151], [7.583586, 46.405102], [7.583308, 46.405122], [7.583173, 46.405108], [7.583144, 46.405086], [7.582807, 46.405105], [7.582549, 46.40508], [7.582425, 46.405017], [7.582328, 46.404915], [7.582108, 46.40483], [7.581909, 46.404809], [7.581786, 46.404764], [7.581717, 46.404777], [7.58168, 46.404811], [7.581615, 46.40482], [7.581553, 46.404796], [7.581457, 46.404816], [7.581381, 46.404764], [7.581359, 46.404715], [7.58131, 46.404721], [7.58127, 46.404689], [7.581091, 46.404661], [7.581046, 46.404621], [7.580872, 46.404584], [7.580685, 46.404603], [7.580479, 46.404454], [7.580417, 46.404447], [7.580278, 46.404326], [7.579829, 46.404149], [7.579624, 46.40402], [7.579595, 46.404017], [7.579603, 46.40404], [7.579637, 46.404014], [7.579617, 46.403999], [7.579525, 46.403987], [7.579286, 46.403895], [7.57922, 46.403818], [7.578932, 46.403605], [7.578802, 46.403591], [7.578647, 46.403514], [7.578344, 46.403444], [7.578243, 46.403399], [7.578009, 46.403182], [7.577929, 46.403155], [7.577919, 46.403117], [7.577876, 46.403125], [7.577877, 46.403145], [7.577827, 46.403133], [7.577757, 46.403051], [7.577656, 46.403001], [7.577541, 46.402979], [7.577538, 46.403047], [7.577488, 46.403068], [7.577432, 46.403061], [7.577298, 46.402974], [7.577236, 46.402981], [7.577212, 46.403047], [7.577082, 46.403015], [7.577064, 46.402988], [7.576972, 46.403047], [7.576805, 46.403055], [7.576715, 46.403091], [7.576437, 46.403015], [7.576238, 46.403006], [7.576095, 46.40295], [7.575986, 46.402956], [7.575914, 46.402931], [7.575701, 46.402949], [7.57557, 46.402937], [7.575467, 46.402882], [7.575375, 46.40289], [7.575307, 46.402857], [7.575338, 46.402863], [7.575336, 46.402844], [7.575212, 46.402743], [7.574891, 46.402534], [7.574753, 46.402492], [7.574578, 46.402479], [7.574537, 46.402452], [7.574509, 46.402467], [7.574546, 46.402474], [7.574518, 46.402469], [7.574537, 46.402456], [7.574384, 46.402399], [7.57433, 46.402341], [7.574348, 46.402202], [7.574305, 46.402086], [7.574317, 46.40213], [7.574313, 46.402069], [7.574366, 46.402], [7.574346, 46.401869], [7.574454, 46.401694], [7.574382, 46.401552], [7.574376, 46.40141], [7.574261, 46.401311], [7.574222, 46.401226], [7.574216, 46.401105]]}, "properties": {"name": "1786623517.Lammerenhutte_Roter_Totz_Luke", "cmt": "2026-08-13", "tstamp": 1786579200, "desc": "DownHill", "src": "7.573401/46.40019/7.596388/46.412503", "bbox": "7.573401/46.40019/7.596388/46.412503"}}, {"type": "Feature", "bbox": [7.573401, 46.40019, 7.596388, 46.412503], "geometry": {"type": "LineString", "coordinates": [[7.574211, 46.401103], [7.574079, 46.40099], [7.574014, 46.400866], [7.573908, 46.40091], [7.573901, 46.400935], [7.573679, 46.400963], [7.573505, 46.400958], [7.573424, 46.400926], [7.573401, 46.400941], [7.573455, 46.400958], [7.573486, 46.400932], [7.57347, 46.400955], [7.573613, 46.400981]]}, "properties": {"name": "1786623517.Lammerenhutte_Roter_Totz_Luke", "cmt": "2026-08-13", "tstamp": 1786579200, "desc": "UpHill", "src": "7.573401/46.40019/7.596388/46.412503", "bbox": "7.573401/46.40019/7.596388/46.412503"}}]}