{"type": "FeatureCollection", "name": "TrackSet", "crs": {"type": "name", "properties": {"name": "urn:ogc:def:crs:OGC:1.3:CRS84"}}, "bbox": [7.205907, 46.079993, 7.23288, 46.099771], "features": [{"type": "Feature", "bbox": [7.205907, 46.079993, 7.23288, 46.099771], "geometry": {"type": "LineString", "coordinates": [[7.212257, 46.079993], [7.212286, 46.080096], [7.212619, 46.08021], [7.212757, 46.080606], [7.212709, 46.080399], [7.212641, 46.080387], [7.212599, 46.080488], [7.212581, 46.080373], [7.212583, 46.080427], [7.212521, 46.080477], [7.212594, 46.080526], [7.212589, 46.080567], [7.212553, 46.080566], [7.212582, 46.080602], [7.21251, 46.080618], [7.212536, 46.08063], [7.21254, 46.080615], [7.212388, 46.080613], [7.212475, 46.080601], [7.212479, 46.080638], [7.212542, 46.080663], [7.212562, 46.080699], [7.212529, 46.080715], [7.212785, 46.080939], [7.212748, 46.081027], [7.212844, 46.081128], [7.212833, 46.081206], [7.212702, 46.081368], [7.212363, 46.081544], [7.212393, 46.08154], [7.212491, 46.081641], [7.212639, 46.081683], [7.212593, 46.081684], [7.212617, 46.081716], [7.21257, 46.081786], [7.212558, 46.08189], [7.212514, 46.081932], [7.212529, 46.081961], [7.212565, 46.08196], [7.212576, 46.082028], [7.212644, 46.082083], [7.212705, 46.082213], [7.212687, 46.082265], [7.212504, 46.082479], [7.212499, 46.082553], [7.212199, 46.082745], [7.211952, 46.082841], [7.21183, 46.082985], [7.211616, 46.083012], [7.211572, 46.083049], [7.211202, 46.083163], [7.210845, 46.083318], [7.210678, 46.083486], [7.210605, 46.083618], [7.210565, 46.083817], [7.210574, 46.083973], [7.210456, 46.084091], [7.210409, 46.084093], [7.210368, 46.084165], [7.210444, 46.084283], [7.210422, 46.084396], [7.210527, 46.084525], [7.210576, 46.084696], [7.210523, 46.084751], [7.210519, 46.084994], [7.210376, 46.085117], [7.210411, 46.085172], [7.210403, 46.085233], [7.210466, 46.085318], [7.210561, 46.085378], [7.21067, 46.085546], [7.210666, 46.085599], [7.210851, 46.085759], [7.210868, 46.085846], [7.210953, 46.085963], [7.210746, 46.086362], [7.210737, 46.086491], [7.210793, 46.086584], [7.210803, 46.08668], [7.210793, 46.086723], [7.210752, 46.086731], [7.210756, 46.086845], [7.210815, 46.086942], [7.210712, 46.087145], [7.210717, 46.087229], [7.210691, 46.087252], [7.210726, 46.08731], [7.210706, 46.087412], [7.210663, 46.087463], [7.210679, 46.087504], [7.210552, 46.087583], [7.210374, 46.087627], [7.210455, 46.08772], [7.210456, 46.087873], [7.210399, 46.087895], [7.210377, 46.087986], [7.210344, 46.088006], [7.2103, 46.088229], [7.210275, 46.088253], [7.210161, 46.088258], [7.209853, 46.088353], [7.20984, 46.088463], [7.209715, 46.08856], [7.209507, 46.088535], [7.208732, 46.088758], [7.208363, 46.088735], [7.208293, 46.088768], [7.208288, 46.088818], [7.208435, 46.088941], [7.208716, 46.089009], [7.208787, 46.089056], [7.20876, 46.089188], [7.208829, 46.089285], [7.208868, 46.089553], [7.209004, 46.089609], [7.208989, 46.089655], [7.209019, 46.089709], [7.209103, 46.08977], [7.20909, 46.089892], [7.209124, 46.089995], [7.209183, 46.090047], [7.209115, 46.090086], [7.209164, 46.090127], [7.209165, 46.090272], [7.209223, 46.090278], [7.209323, 46.090354], [7.209279, 46.090397], [7.20923, 46.090398], [7.209111, 46.090511], [7.20906, 46.090724], [7.208985, 46.090752], [7.208944, 46.090863], [7.208974, 46.090929], [7.208908, 46.09097], [7.208935, 46.091013], [7.208905, 46.091025], [7.208926, 46.091111], [7.20889, 46.091201], [7.20895, 46.091218], [7.208997, 46.091292], [7.20905, 46.091289], [7.209132, 46.091333], [7.209137, 46.091315], [7.209105, 46.091329], [7.209253, 46.091393], [7.209321, 46.091493], [7.209544, 46.091535], [7.209545, 46.091605], [7.209467, 46.091607], [7.209474, 46.091649], [7.209426, 46.091649], [7.209427, 46.091727], [7.209403, 46.091714], [7.209318, 46.091746], [7.209251, 46.09182], [7.209243, 46.091843], [7.209313, 46.091884], [7.209374, 46.091888], [7.209341, 46.091895], [7.209346, 46.091869], [7.209429, 46.09189], [7.20938, 46.091931], [7.209393, 46.091968], [7.209298, 46.092043], [7.20928, 46.092117], [7.209126, 46.092198], [7.209082, 46.092197], [7.208979, 46.092272], [7.208999, 46.092309], [7.208946, 46.092319], [7.208946, 46.09236], [7.208909, 46.09236], [7.208879, 46.092426], [7.208922, 46.092489], [7.208872, 46.092471], [7.208921, 46.092455], [7.209063, 46.092521], [7.209151, 46.092507], [7.209106, 46.092461], [7.209257, 46.092486], [7.209317, 46.092474], [7.209382, 46.092518], [7.209347, 46.092463], [7.209381, 46.092444], [7.20934, 46.092435], [7.209372, 46.092436], [7.20931, 46.092487], [7.209351, 46.09253], [7.209321, 46.092556], [7.209337, 46.092594], [7.209264, 46.092584], [7.209227, 46.092634], [7.20914, 46.092629], [7.209134, 46.092678], [7.209064, 46.092684], [7.208915, 46.092789], [7.208928, 46.092818], [7.208804, 46.09286], [7.208806, 46.092924], [7.208755, 46.092949], [7.208781, 46.09299], [7.208663, 46.093063], [7.208654, 46.093113], [7.208679, 46.093097], [7.20868, 46.093114], [7.208595, 46.093157], [7.208544, 46.093155], [7.208533, 46.09322], [7.208445, 46.093238], [7.208428, 46.093299], [7.208387, 46.093308], [7.208368, 46.09327], [7.208353, 46.093291], [7.208255, 46.093233], [7.208126, 46.093221], [7.207941, 46.093132], [7.207798, 46.093137], [7.207761, 46.093171], [7.207864, 46.093303], [7.207841, 46.093348], [7.207969, 46.093422], [7.207942, 46.093457], [7.20798, 46.093563], [7.208078, 46.093638], [7.208054, 46.093664], [7.20812, 46.093697], [7.208134, 46.093783], [7.208223, 46.093811], [7.208333, 46.093904], [7.20846, 46.093879], [7.208511, 46.093828], [7.208554, 46.093851], [7.208591, 46.093824], [7.208653, 46.093828], [7.208628, 46.093827], [7.20864, 46.093793], [7.208633, 46.093823], [7.208588, 46.093815], [7.208521, 46.093893], [7.208501, 46.093929], [7.208535, 46.093961], [7.208416, 46.093992], [7.208406, 46.094033], [7.208331, 46.094054], [7.208348, 46.094099], [7.208318, 46.094131], [7.208223, 46.09417], [7.208074, 46.094141], [7.20808, 46.094201], [7.207993, 46.094227], [7.207886, 46.094225], [7.207858, 46.094249], [7.207749, 46.094262], [7.207679, 46.09425], [7.207614, 46.094275], [7.207537, 46.094258], [7.207345, 46.094289], [7.20733, 46.094313], [7.207245, 46.094306], [7.207145, 46.094395], [7.207196, 46.094462], [7.207375, 46.094481], [7.207421, 46.094456], [7.207452, 46.094526], [7.207494, 46.094507], [7.207565, 46.094547], [7.20763, 46.094527], [7.207605, 46.094554], [7.207755, 46.094585], [7.207776, 46.094669], [7.207949, 46.094672], [7.207863, 46.094739], [7.207513, 46.094717], [7.207409, 46.094772], [7.207438, 46.094872], [7.207418, 46.09489], [7.207459, 46.094969], [7.207497, 46.094962], [7.207584, 46.095008], [7.207687, 46.095002], [7.207735, 46.095031], [7.207858, 46.095028], [7.207862, 46.095049], [7.208018, 46.095084], [7.208015, 46.095103], [7.2081, 46.095127], [7.208166, 46.095196], [7.208501, 46.09512], [7.208543, 46.095095], [7.208567, 46.095031], [7.208625, 46.095035], [7.208717, 46.095], [7.208799, 46.095023], [7.208799, 46.094968], [7.208893, 46.094958], [7.208943, 46.094918], [7.208984, 46.094952], [7.20915, 46.094902], [7.209222, 46.094908], [7.209224, 46.094881], [7.20929, 46.094859], [7.209291, 46.094823], [7.209359, 46.09479], [7.209351, 46.094815], [7.209293, 46.094855], [7.209267, 46.094915], [7.208979, 46.095139], [7.208809, 46.095204], [7.208699, 46.095219], [7.208642, 46.095314], [7.208545, 46.095342], [7.208489, 46.095398], [7.208455, 46.095497], [7.208276, 46.095647], [7.208221, 46.095767], [7.208083, 46.095774], [7.207928, 46.095829], [7.20786, 46.095816], [7.207596, 46.095845], [7.20755, 46.095821], [7.207434, 46.095834], [7.207301, 46.095758], [7.207091, 46.095777], [7.206977, 46.095814], [7.206893, 46.095808], [7.206853, 46.095937], [7.206889, 46.095972], [7.206929, 46.09596], [7.206972, 46.096009], [7.207025, 46.096009], [7.207063, 46.096036], [7.207126, 46.09611], [7.207123, 46.096174], [7.207043, 46.096208], [7.20702, 46.096194], [7.206855, 46.096305], [7.206733, 46.096324], [7.206726, 46.096298], [7.206694, 46.096298], [7.206666, 46.096324], [7.206647, 46.096293], [7.206644, 46.096313], [7.206466, 46.096304], [7.206398, 46.096333], [7.206281, 46.096316], [7.206197, 46.096338], [7.206206, 46.096398], [7.206177, 46.096407], [7.206172, 46.096387], [7.206062, 46.096418], [7.205966, 46.096403], [7.205907, 46.096436], [7.205951, 46.096493], [7.205936, 46.096552], [7.205963, 46.096583], [7.205986, 46.09656], [7.206015, 46.096616], [7.20616, 46.096579], [7.206255, 46.096654], [7.206323, 46.096668], [7.206434, 46.096826], [7.206434, 46.096938], [7.206546, 46.096951], [7.206662, 46.097126], [7.206661, 46.097182], [7.206721, 46.097244], [7.206703, 46.097279], [7.206679, 46.097269], [7.206699, 46.097297], [7.206661, 46.097293], [7.206666, 46.097348], [7.206586, 46.097401], [7.206542, 46.097388], [7.206491, 46.097414], [7.206431, 46.097373], [7.206361, 46.097379], [7.206265, 46.097439], [7.206307, 46.097479], [7.206244, 46.097494], [7.206253, 46.09752], [7.206183, 46.097504], [7.206122, 46.097566], [7.206194, 46.097614], [7.206222, 46.097676], [7.206243, 46.097671], [7.206329, 46.097823], [7.206301, 46.09786], [7.206104, 46.097855], [7.206002, 46.097886], [7.206134, 46.098029], [7.206123, 46.098114], [7.205963, 46.098156], [7.205936, 46.098194], [7.206008, 46.098296], [7.20601, 46.098336], [7.205966, 46.09836], [7.206028, 46.098416], [7.205991, 46.098467], [7.206014, 46.098582], [7.206287, 46.098759], [7.206425, 46.098779], [7.206423, 46.09876], [7.206572, 46.098823], [7.206651, 46.098789], [7.206804, 46.09886], [7.206847, 46.098849], [7.206849, 46.098885], [7.206848, 46.098843], [7.207, 46.098809], [7.207042, 46.098819], [7.207194, 46.098709], [7.207353, 46.098674], [7.207411, 46.09868], [7.2074, 46.098693], [7.207426, 46.09867], [7.207381, 46.098696], [7.207465, 46.09872], [7.207509, 46.098715], [7.207541, 46.098676], [7.207513, 46.098708], [7.207503, 46.098695], [7.207545, 46.098703], [7.20751, 46.098726], [7.207517, 46.098703], [7.207847, 46.098688], [7.207936, 46.098652], [7.208037, 46.09866], [7.208099, 46.098693], [7.208247, 46.098677], [7.20834, 46.098709], [7.208516, 46.098642], [7.208621, 46.09873], [7.208696, 46.098728], [7.208807, 46.098669], [7.208979, 46.098724], [7.209005, 46.098768], [7.20908, 46.0988], [7.209163, 46.098756], [7.209335, 46.098753], [7.209391, 46.098726], [7.209473, 46.09874], [7.209644, 46.098699], [7.209816, 46.098696], [7.209996, 46.098762], [7.210117, 46.09873], [7.210476, 46.098748], [7.210696, 46.098867], [7.210859, 46.098989], [7.210988, 46.09902], [7.211369, 46.099196], [7.211468, 46.099276], [7.211742, 46.099416], [7.211895, 46.099534], [7.212478, 46.099753], [7.212655, 46.099771], [7.212931, 46.099724], [7.212987, 46.099689], [7.213092, 46.099712], [7.213278, 46.099659], [7.213485, 46.099632], [7.213636, 46.099641], [7.213969, 46.099585], [7.21416, 46.09959], [7.214411, 46.099473], [7.21452, 46.099301], [7.214894, 46.099156], [7.214947, 46.099175], [7.215432, 46.099075], [7.215498, 46.099038], [7.215773, 46.099018], [7.215953, 46.098978], [7.216192, 46.098817], [7.216355, 46.098758], [7.216585, 46.098604], [7.216808, 46.098431], [7.216894, 46.098285], [7.217002, 46.098239], [7.217056, 46.098184], [7.217148, 46.098145], [7.217385, 46.098117], [7.217786, 46.098012], [7.218092, 46.097859], [7.218522, 46.097721], [7.218859, 46.097691], [7.219016, 46.097718], [7.219074, 46.097691], [7.219157, 46.097693], [7.219261, 46.097719], [7.219432, 46.097688], [7.219978, 46.097732], [7.220485, 46.097697], [7.221003, 46.097761], [7.221151, 46.097735], [7.221223, 46.097753], [7.221591, 46.097726], [7.221675, 46.097701], [7.221861, 46.097732], [7.222404, 46.097653], [7.223121, 46.097768], [7.223434, 46.097897], [7.223647, 46.097908], [7.223924, 46.097882], [7.224524, 46.09772], [7.224685, 46.097641], [7.224867, 46.097514], [7.224946, 46.097415], [7.225354, 46.097165], [7.225533, 46.097117], [7.225594, 46.097072], [7.225837, 46.097011], [7.225877, 46.096981], [7.226022, 46.096969], [7.226062, 46.096946], [7.226028, 46.096936], [7.226357, 46.096857], [7.226402, 46.096837], [7.226427, 46.096781], [7.226579, 46.096825], [7.226613, 46.096762], [7.226583, 46.096741], [7.226599, 46.0968], [7.226576, 46.096823], [7.22661, 46.096842], [7.226554, 46.096751], [7.22656, 46.096794], [7.226611, 46.096794], [7.22661, 46.096767], [7.226623, 46.096796], [7.226731, 46.096753], [7.226831, 46.096775], [7.226866, 46.096745], [7.226976, 46.096736], [7.227129, 46.096675], [7.227247, 46.096672], [7.22727, 46.096644], [7.227233, 46.096558], [7.227347, 46.096526], [7.22737, 46.096481], [7.2274, 46.096525], [7.227426, 46.096489], [7.227382, 46.096498], [7.227405, 46.096529], [7.227442, 46.096471], [7.227425, 46.096505], [7.227462, 46.096505], [7.227472, 46.096482], [7.22745, 46.09649], [7.227479, 46.096499], [7.227414, 46.096483], [7.227456, 46.096445], [7.227496, 46.096495], [7.227511, 46.096471], [7.227625, 46.096446], [7.227594, 46.096592], [7.227694, 46.096505], [7.227687, 46.096553], [7.227503, 46.096794], [7.227495, 46.09685], [7.227544, 46.096881], [7.22745, 46.096958], [7.227477, 46.096971], [7.227551, 46.096867], [7.227536, 46.096936], [7.227279, 46.097146], [7.227541, 46.097052], [7.227533, 46.097151], [7.227474, 46.097219], [7.227543, 46.097184], [7.227608, 46.097237], [7.227598, 46.097293], [7.227533, 46.097377], [7.227245, 46.097476], [7.227196, 46.09753], [7.227428, 46.097353], [7.227409, 46.097447], [7.227481, 46.097459], [7.22754, 46.097416], [7.227531, 46.09756], [7.227572, 46.097608], [7.22753, 46.097603], [7.22767, 46.097641], [7.227755, 46.0976], [7.227682, 46.097631], [7.227657, 46.097567], [7.227692, 46.09754], [7.22784, 46.097515], [7.227899, 46.097574], [7.228015, 46.097441], [7.228041, 46.097484], [7.227935, 46.097548], [7.227948, 46.097698], [7.227624, 46.097849], [7.227887, 46.09783], [7.227905, 46.097781], [7.22681, 46.097637], [7.226889, 46.097557], [7.22692, 46.097456], [7.227004, 46.097406], [7.227391, 46.096596], [7.227403, 46.096496], [7.227426, 46.096517], [7.227443, 46.096489], [7.22748, 46.096521], [7.227482, 46.096466], [7.227493, 46.096523], [7.227505, 46.096491], [7.227634, 46.096485], [7.227702, 46.096448], [7.227772, 46.096467], [7.227859, 46.096394], [7.22791, 46.096415], [7.227968, 46.096362], [7.228058, 46.096377], [7.228108, 46.096361], [7.228279, 46.096411], [7.228309, 46.096383], [7.228432, 46.096355], [7.228474, 46.096296], [7.228603, 46.096236], [7.228675, 46.096236], [7.228679, 46.096284], [7.228676, 46.096266], [7.228687, 46.096281], [7.228883, 46.096216], [7.229042, 46.096214], [7.229108, 46.096165], [7.229142, 46.096183], [7.229223, 46.096132], [7.229311, 46.096135], [7.229352, 46.095973], [7.229298, 46.095983], [7.229318, 46.095968], [7.229251, 46.095973], [7.229253, 46.095955], [7.229305, 46.095947], [7.22929, 46.095979], [7.229341, 46.096001], [7.229159, 46.095956], [7.229452, 46.096048], [7.229435, 46.096062], [7.229483, 46.096079], [7.229496, 46.096025], [7.22956, 46.096005], [7.229494, 46.095908], [7.229549, 46.095834], [7.229674, 46.095764], [7.229826, 46.095739], [7.229846, 46.095714], [7.229879, 46.095721], [7.22989, 46.095801], [7.229969, 46.095706], [7.229964, 46.095684], [7.229917, 46.095696], [7.229881, 46.09567], [7.229883, 46.095624], [7.22995, 46.095629], [7.230001, 46.095574], [7.230047, 46.095603], [7.230043, 46.09563], [7.230084, 46.095584], [7.230124, 46.09559], [7.230218, 46.095521], [7.230293, 46.095434], [7.230388, 46.095446], [7.230568, 46.095307], [7.23074, 46.095253], [7.231169, 46.094913], [7.231256, 46.094791], [7.23148, 46.094586], [7.2316, 46.09454], [7.231704, 46.094414], [7.232207, 46.094141], [7.232438, 46.094094], [7.232685, 46.093991], [7.23287, 46.093752]]}, "properties": {"name": "1786273036.Le_Chable_Verbier_before_rain_Just_made_it", "cmt": "2026-08-09", "tstamp": 1786233600, "desc": "UpHill", "src": "7.205907/46.079993/7.23288/46.099771", "bbox": "7.205907/46.079993/7.23288/46.099771"}}, {"type": "Feature", "bbox": [7.205907, 46.079993, 7.23288, 46.099771], "geometry": {"type": "LineString", "coordinates": [[7.23288, 46.093744], [7.232766, 46.093654], [7.232736, 46.093666], [7.23276, 46.093619], [7.232738, 46.093612]]}, "properties": {"name": "1786273036.Le_Chable_Verbier_before_rain_Just_made_it", "cmt": "2026-08-09", "tstamp": 1786233600, "desc": "DownHill", "src": "7.205907/46.079993/7.23288/46.099771", "bbox": "7.205907/46.079993/7.23288/46.099771"}}]}