{"type": "FeatureCollection", "name": "TrackSet", "crs": {"type": "name", "properties": {"name": "urn:ogc:def:crs:OGC:1.3:CRS84"}}, "bbox": [6.187727, 46.317333, 6.196294, 46.331644], "features": [{"type": "Feature", "bbox": [6.187727, 46.317333, 6.196294, 46.331644], "geometry": {"type": "LineString", "coordinates": [[6.194451, 46.331546], [6.194607, 46.331644], [6.19466, 46.331625], [6.194694, 46.331573], [6.194679, 46.331478], [6.194598, 46.331246], [6.194557, 46.331231], [6.194519, 46.331119], [6.194461, 46.331066], [6.194363, 46.330789], [6.194237, 46.33056], [6.194171, 46.330503], [6.194054, 46.330226], [6.193901, 46.3301], [6.193212, 46.330106], [6.193221, 46.329837], [6.193251, 46.329757], [6.193453, 46.329649], [6.193566, 46.329634], [6.193736, 46.329567], [6.193905, 46.329576], [6.194719, 46.329388], [6.194907, 46.329387], [6.194957, 46.329408], [6.194997, 46.329335], [6.195262, 46.329317], [6.195398, 46.329272], [6.195366, 46.329229], [6.195325, 46.329274], [6.195364, 46.329284], [6.195398, 46.329253], [6.195418, 46.329271], [6.195402, 46.329255], [6.195809, 46.329159], [6.195982, 46.32905], [6.196249, 46.328959], [6.196294, 46.328905], [6.196198, 46.328802], [6.196201, 46.32873], [6.196151, 46.328673], [6.195963, 46.328465], [6.19576, 46.328299], [6.195677, 46.328161], [6.195519, 46.328022], [6.195484, 46.327944], [6.19533, 46.327825], [6.195171, 46.327565], [6.194995, 46.327371], [6.194981, 46.327295], [6.194862, 46.327092], [6.194663, 46.326826], [6.194265, 46.326374], [6.194148, 46.326281], [6.193552, 46.325647], [6.193423, 46.32558], [6.193266, 46.325615], [6.192754, 46.325813], [6.192716, 46.325816], [6.192675, 46.325778], [6.192386, 46.325284], [6.192187, 46.325049], [6.191629, 46.324265], [6.191567, 46.324107], [6.191375, 46.323812], [6.191397, 46.323768], [6.19178, 46.323587], [6.192028, 46.323365], [6.192121, 46.323209], [6.19212, 46.323096], [6.192061, 46.323036], [6.19192, 46.322962], [6.19167, 46.322893], [6.191547, 46.322762], [6.191381, 46.32269], [6.191289, 46.322565], [6.191156, 46.322477], [6.19104, 46.322343], [6.190767, 46.322126], [6.190532, 46.321828], [6.190319, 46.321481], [6.190118, 46.320917], [6.190098, 46.320661], [6.18959, 46.32019], [6.189201, 46.32005], [6.189179, 46.320025], [6.18921, 46.319959], [6.189156, 46.319894], [6.188996, 46.319897], [6.188839, 46.319805], [6.188812, 46.319721], [6.188745, 46.319682], [6.18864, 46.319394], [6.188529, 46.319257], [6.188338, 46.318744], [6.188213, 46.318531], [6.188094, 46.318202], [6.188093, 46.318032], [6.187995, 46.317792], [6.18809, 46.317737], [6.188097, 46.317387], [6.188132, 46.317347], [6.188208, 46.317348], [6.188181, 46.317333], [6.188216, 46.317481], [6.188162, 46.317533], [6.188079, 46.317482], [6.18802, 46.317489], [6.188035, 46.317516], [6.187998, 46.317544], [6.187874, 46.317556], [6.18778, 46.317612], [6.187837, 46.317569], [6.187844, 46.317672], [6.187829, 46.317644], [6.187914, 46.31758], [6.187788, 46.317662], [6.187801, 46.317707], [6.187752, 46.31772], [6.187759, 46.317697], [6.187747, 46.317711], [6.187727, 46.317692]]}, "properties": {"name": "1786259676.Founex_to_train", "cmt": "2026-08-09", "tstamp": 1786233600, "desc": "---", "src": "6.187727/46.317333/6.196294/46.331644", "bbox": "6.187727/46.317333/6.196294/46.331644"}}]}