{"type": "FeatureCollection", "name": "TrackSet", "crs": {"type": "name", "properties": {"name": "urn:ogc:def:crs:OGC:1.3:CRS84"}}, "bbox": [7.574047, 46.379373, 7.629478, 46.401642], "features": [{"type": "Feature", "bbox": [7.574047, 46.379373, 7.629478, 46.401642], "geometry": {"type": "LineString", "coordinates": [[7.628492, 46.379373], [7.62846, 46.379478], [7.62834, 46.379635], [7.628236, 46.379711], [7.628102, 46.379764], [7.627926, 46.379767], [7.627908, 46.379823], [7.62807, 46.379933], [7.628307, 46.379994], [7.62841, 46.380056], [7.628688, 46.380048], [7.628735, 46.38009], [7.628883, 46.380081], [7.629081, 46.380138], [7.6291, 46.380202], [7.62917, 46.380266], [7.629319, 46.380288], [7.629441, 46.380387], [7.629478, 46.38052], [7.629422, 46.380611], [7.629313, 46.380598], [7.629318, 46.38064], [7.629291, 46.380626], [7.629315, 46.380617], [7.629189, 46.380679], [7.629146, 46.380668], [7.629123, 46.380622], [7.629105, 46.380666], [7.629149, 46.380692], [7.628967, 46.380652], [7.629003, 46.380674], [7.628765, 46.380763], [7.628663, 46.380737], [7.62845, 46.380751], [7.628396, 46.380788], [7.628012, 46.380904], [7.627427, 46.380918], [7.627298, 46.381014], [7.627191, 46.381028], [7.62713, 46.381065], [7.626982, 46.381081], [7.626917, 46.381143], [7.626686, 46.381229], [7.626581, 46.381314], [7.626461, 46.381558], [7.626269, 46.38171], [7.626326, 46.381932], [7.626272, 46.382019], [7.626188, 46.382078], [7.626163, 46.382136], [7.626054, 46.382168], [7.625907, 46.38229], [7.625708, 46.382555], [7.625657, 46.38256], [7.625556, 46.382651], [7.625557, 46.382701], [7.625449, 46.382724], [7.625377, 46.382806], [7.625253, 46.382855], [7.625197, 46.382948], [7.625108, 46.383003], [7.625074, 46.383091], [7.624925, 46.38317], [7.6249, 46.383243], [7.624709, 46.383351], [7.624546, 46.383492], [7.624122, 46.383599], [7.624061, 46.383636], [7.623989, 46.383626], [7.624014, 46.38366], [7.623983, 46.383644], [7.624024, 46.3836], [7.623985, 46.38363], [7.624019, 46.383637], [7.623966, 46.38365], [7.623987, 46.383655], [7.623999, 46.383626], [7.623921, 46.383664], [7.623803, 46.383681], [7.623723, 46.383736], [7.623737, 46.383711], [7.623713, 46.383711], [7.623117, 46.384052], [7.623076, 46.384105], [7.622612, 46.384191], [7.622575, 46.384243], [7.622276, 46.384457], [7.621958, 46.384525], [7.621781, 46.384648], [7.621725, 46.384726], [7.621662, 46.384904], [7.621594, 46.384973], [7.621593, 46.385033], [7.621548, 46.385093], [7.62157, 46.385198], [7.621481, 46.385274], [7.621477, 46.385343], [7.62143, 46.385377], [7.621383, 46.38549], [7.621045, 46.385602], [7.620995, 46.385694], [7.620883, 46.385748], [7.620811, 46.385821], [7.620726, 46.385849], [7.62069, 46.385903], [7.620444, 46.385975], [7.620325, 46.386036], [7.620197, 46.386147], [7.62011, 46.386168], [7.620028, 46.386232], [7.619968, 46.38623], [7.619889, 46.386384], [7.61971, 46.386519], [7.619685, 46.386606], [7.619726, 46.386659], [7.619732, 46.386754], [7.61963, 46.387007], [7.61953, 46.387149], [7.61957, 46.387214], [7.619468, 46.387286], [7.61948, 46.387346], [7.619419, 46.387393], [7.619434, 46.387472], [7.619493, 46.387505], [7.619508, 46.387576], [7.619578, 46.387548], [7.619666, 46.387552], [7.619696, 46.38761], [7.61966, 46.387704], [7.619761, 46.38778], [7.619764, 46.387891], [7.619562, 46.387954], [7.619331, 46.387955], [7.619054, 46.388107], [7.618876, 46.388155], [7.618899, 46.388175], [7.61887, 46.3882], [7.618816, 46.38819], [7.618768, 46.388224], [7.618611, 46.388173], [7.618559, 46.388198], [7.618531, 46.388247], [7.618555, 46.388321], [7.618503, 46.388457], [7.618507, 46.388566], [7.618329, 46.388591], [7.61834, 46.388609], [7.618259, 46.38867], [7.618324, 46.388758], [7.618297, 46.388808], [7.618321, 46.388828], [7.618237, 46.388919], [7.618247, 46.389062], [7.61811, 46.389088], [7.618071, 46.389138], [7.618089, 46.389156], [7.617949, 46.389224], [7.617896, 46.389298], [7.617941, 46.389315], [7.617892, 46.38942], [7.617905, 46.389502], [7.617878, 46.389531], [7.61783, 46.389534], [7.617761, 46.389607], [7.61777, 46.389635], [7.617845, 46.389664], [7.617784, 46.389747], [7.617765, 46.389812], [7.617786, 46.389808], [7.617664, 46.389884], [7.617672, 46.389935], [7.617646, 46.389968], [7.617628, 46.389953], [7.617653, 46.389947], [7.617646, 46.389988], [7.61766, 46.389958], [7.617556, 46.389959], [7.61753, 46.390011], [7.617476, 46.390036], [7.6175, 46.390063], [7.617391, 46.390094], [7.617363, 46.390147], [7.617409, 46.390289], [7.617469, 46.390352], [7.61743, 46.390358], [7.617434, 46.390398], [7.617451, 46.390421], [7.617482, 46.390411], [7.617487, 46.390526], [7.617434, 46.390563], [7.61748, 46.3907], [7.617445, 46.390782], [7.617479, 46.390831], [7.617392, 46.390935], [7.617398, 46.390973], [7.6175, 46.391055], [7.617516, 46.391142], [7.617576, 46.391218], [7.617623, 46.391246], [7.617676, 46.391241], [7.617709, 46.391275], [7.61772, 46.391248], [7.61779, 46.391256], [7.617651, 46.391417], [7.617579, 46.391416], [7.617537, 46.391462], [7.617405, 46.391514], [7.617426, 46.391531], [7.617382, 46.391574], [7.617295, 46.391604], [7.617319, 46.391717], [7.617415, 46.391753], [7.61742, 46.391794], [7.617524, 46.391873], [7.617477, 46.391901], [7.617366, 46.391893], [7.61733, 46.391864], [7.617129, 46.391894], [7.617116, 46.391867], [7.617015, 46.391852], [7.6169, 46.391876], [7.616871, 46.391852], [7.616787, 46.391844], [7.616557, 46.391867], [7.616466, 46.391925], [7.616374, 46.391914], [7.616353, 46.391794], [7.61628, 46.391736], [7.616273, 46.391692], [7.616019, 46.391593], [7.615961, 46.391481], [7.615865, 46.391433], [7.615752, 46.39148], [7.61572, 46.391555], [7.615755, 46.391575], [7.615666, 46.391642], [7.615678, 46.391672], [7.615722, 46.391669], [7.61574, 46.391711], [7.615583, 46.391862], [7.615614, 46.391858], [7.61559, 46.391879], [7.615607, 46.391924], [7.61557, 46.391927], [7.61561, 46.391947], [7.615645, 46.392023], [7.615623, 46.392037], [7.615564, 46.392044], [7.615555, 46.391992], [7.6155, 46.391962], [7.615509, 46.391902], [7.615459, 46.391794], [7.615368, 46.391762], [7.615313, 46.391666], [7.615185, 46.39175], [7.615173, 46.3918], [7.615213, 46.391862], [7.615142, 46.39196], [7.615163, 46.391998], [7.615116, 46.392059], [7.615155, 46.392097], [7.615111, 46.39218], [7.61519, 46.39228], [7.615188, 46.392315], [7.615158, 46.392342], [7.615161, 46.39231], [7.615127, 46.392361], [7.615191, 46.392347], [7.61522, 46.392309], [7.615155, 46.392321], [7.615164, 46.392292], [7.6151, 46.392306], [7.615032, 46.392369], [7.615093, 46.392384], [7.615086, 46.392403], [7.615161, 46.392403], [7.615168, 46.392372], [7.615092, 46.392382], [7.615208, 46.392387], [7.615322, 46.392431], [7.615416, 46.392417], [7.615645, 46.392457], [7.615633, 46.392549], [7.615715, 46.392549], [7.61583, 46.392632], [7.615802, 46.392656], [7.615842, 46.39259], [7.615911, 46.392628], [7.615867, 46.392746], [7.615924, 46.392823], [7.616182, 46.392836], [7.616333, 46.392904], [7.616462, 46.392917], [7.616496, 46.392951], [7.616554, 46.392926], [7.616531, 46.392917], [7.616558, 46.39289], [7.616871, 46.392747], [7.616879, 46.392818], [7.61696, 46.392816], [7.617024, 46.392842], [7.617044, 46.392883], [7.617102, 46.392862], [7.617156, 46.392914], [7.617307, 46.392909], [7.617324, 46.392932], [7.617514, 46.392955], [7.617518, 46.392989], [7.61767, 46.392974], [7.617739, 46.393027], [7.617797, 46.392998], [7.617988, 46.392996], [7.618069, 46.393033], [7.618029, 46.393052], [7.618081, 46.393051], [7.617979, 46.393115], [7.617906, 46.393058], [7.617828, 46.393088], [7.617741, 46.393073], [7.617734, 46.393098], [7.617632, 46.393118], [7.617639, 46.393141], [7.617646, 46.393104], [7.617587, 46.393092], [7.617537, 46.39311], [7.617579, 46.39315], [7.617551, 46.393167], [7.617648, 46.393142], [7.617712, 46.393153], [7.61784, 46.393202], [7.617797, 46.39319], [7.617825, 46.393224], [7.617955, 46.393233], [7.617996, 46.393279], [7.617936, 46.393315], [7.617893, 46.393256], [7.617618, 46.393222], [7.617593, 46.393252], [7.617696, 46.393263], [7.617737, 46.393297], [7.617667, 46.39335], [7.617713, 46.393356], [7.617598, 46.393345], [7.617634, 46.393436], [7.617529, 46.393457], [7.617609, 46.393404], [7.61757, 46.393359], [7.617591, 46.393313], [7.617552, 46.39332], [7.617568, 46.393377], [7.61752, 46.393404], [7.617529, 46.393426], [7.617494, 46.393418], [7.617521, 46.393427], [7.617514, 46.393471], [7.617549, 46.39347], [7.617635, 46.3934], [7.617832, 46.393432], [7.617768, 46.393466], [7.617838, 46.393573], [7.617848, 46.393655], [7.617785, 46.393584], [7.617711, 46.393601], [7.617655, 46.393664], [7.617587, 46.393655], [7.617556, 46.393679], [7.617515, 46.393672], [7.617541, 46.393648], [7.617429, 46.393714], [7.617438, 46.393691], [7.617385, 46.393669], [7.617332, 46.393696], [7.617427, 46.393732], [7.617422, 46.393699], [7.617366, 46.393666], [7.617425, 46.393619], [7.617537, 46.393611], [7.617633, 46.393665], [7.617734, 46.39358], [7.617667, 46.393531], [7.61768, 46.393501], [7.61742, 46.393479], [7.617376, 46.393439], [7.617164, 46.393383], [7.61715, 46.393328], [7.61716, 46.393384], [7.617127, 46.393427], [7.617152, 46.393449], [7.617108, 46.393484], [7.617148, 46.393486], [7.617077, 46.393483], [7.617102, 46.393414], [7.617055, 46.393427], [7.617047, 46.393469], [7.617002, 46.393472], [7.616994, 46.393499], [7.617021, 46.393545], [7.617047, 46.393544], [7.61698, 46.39348], [7.616909, 46.393513], [7.61691, 46.393575], [7.61695, 46.393594], [7.616887, 46.393548], [7.616855, 46.393596], [7.616804, 46.393582], [7.616783, 46.393603], [7.616791, 46.393579], [7.616803, 46.393633], [7.616785, 46.393616], [7.616719, 46.39365], [7.616722, 46.393687], [7.61666, 46.393708], [7.616714, 46.393706], [7.616688, 46.393745], [7.616752, 46.39376], [7.616753, 46.393743], [7.616728, 46.393795], [7.616632, 46.393819], [7.616615, 46.393852], [7.616533, 46.393823], [7.616478, 46.393843], [7.616437, 46.393912], [7.616394, 46.393915], [7.616493, 46.3939], [7.616469, 46.393933], [7.616478, 46.393915], [7.616568, 46.393963], [7.616521, 46.393988], [7.61671, 46.393973], [7.61688, 46.393831], [7.616877, 46.39377], [7.616973, 46.393759], [7.61706, 46.393824], [7.617024, 46.393803], [7.617107, 46.393787], [7.617437, 46.393802], [7.617453, 46.39385], [7.617551, 46.393823], [7.617531, 46.393838], [7.617579, 46.393847], [7.61767, 46.393834], [7.617636, 46.393891], [7.617678, 46.393837], [7.617717, 46.393835], [7.617782, 46.393868], [7.617954, 46.393896], [7.617679, 46.393952], [7.617603, 46.393993], [7.617021, 46.394086], [7.616951, 46.394112], [7.616976, 46.394172], [7.617028, 46.394163], [7.61697, 46.394192], [7.616924, 46.394179], [7.616937, 46.394152], [7.616679, 46.394244], [7.616681, 46.394203], [7.616772, 46.394114], [7.616707, 46.39419], [7.616708, 46.394174], [7.616576, 46.394206], [7.6165, 46.394262], [7.616471, 46.394224], [7.616505, 46.394221], [7.616572, 46.394245], [7.616584, 46.39428], [7.616606, 46.394273], [7.616637, 46.394172], [7.616627, 46.394153], [7.616601, 46.394169], [7.616625, 46.394127], [7.616594, 46.394165], [7.616606, 46.394084], [7.616564, 46.394155], [7.61659, 46.394119], [7.616529, 46.394116], [7.616532, 46.394097], [7.616468, 46.394092], [7.616429, 46.394059], [7.6163, 46.394098], [7.61624, 46.394073], [7.616298, 46.394111], [7.616322, 46.394064], [7.616458, 46.39405], [7.616492, 46.394077], [7.616525, 46.393944], [7.616495, 46.393894], [7.616391, 46.393841], [7.616272, 46.393877], [7.616353, 46.393892], [7.616374, 46.393925], [7.616402, 46.393904], [7.616394, 46.393936], [7.616425, 46.3938], [7.61639, 46.393768], [7.61642, 46.393774], [7.616396, 46.393723], [7.616535, 46.39379], [7.616505, 46.393743], [7.616458, 46.393696], [7.616394, 46.393683], [7.616318, 46.393747], [7.616357, 46.393806], [7.616399, 46.393789], [7.616404, 46.393756], [7.616417, 46.393772], [7.616235, 46.393898], [7.616175, 46.393902], [7.616162, 46.393887], [7.616185, 46.393888], [7.616143, 46.393879], [7.616262, 46.393884], [7.616395, 46.393817], [7.616454, 46.393817], [7.616442, 46.393855], [7.616409, 46.393851], [7.616432, 46.393873], [7.61658, 46.393745], [7.616676, 46.393785], [7.616719, 46.393841], [7.616684, 46.393792], [7.616582, 46.393812], [7.616498, 46.393774], [7.616553, 46.393734], [7.61655, 46.393666], [7.616332, 46.393616], [7.616292, 46.393587], [7.616374, 46.393574], [7.616406, 46.393515], [7.616572, 46.393439], [7.616544, 46.393461], [7.616535, 46.393437], [7.616542, 46.393353], [7.616399, 46.393343], [7.616357, 46.393296], [7.616288, 46.393289], [7.616254, 46.393232], [7.616187, 46.393265], [7.616167, 46.393252], [7.616195, 46.393231], [7.616196, 46.393248], [7.616183, 46.393221], [7.616164, 46.39324], [7.616242, 46.393199], [7.616209, 46.393217], [7.616224, 46.393184], [7.61617, 46.393192], [7.616205, 46.393198], [7.616198, 46.393249], [7.616179, 46.393238], [7.616247, 46.393301], [7.616205, 46.393356], [7.616241, 46.393434], [7.616195, 46.393484], [7.616186, 46.393442], [7.616136, 46.393449], [7.616228, 46.393448], [7.616218, 46.393426], [7.616187, 46.393391], [7.616127, 46.393393], [7.616062, 46.393315], [7.615978, 46.393303], [7.615849, 46.393359], [7.615948, 46.393327], [7.615828, 46.39324], [7.615808, 46.393195], [7.615738, 46.393188], [7.615704, 46.393245], [7.615619, 46.393269], [7.615625, 46.393294], [7.615578, 46.393318], [7.615633, 46.39337], [7.615728, 46.393348], [7.615743, 46.393384], [7.615759, 46.393364], [7.615809, 46.393396], [7.615793, 46.393407], [7.615849, 46.393419], [7.615845, 46.39345], [7.615639, 46.393483], [7.615701, 46.393493], [7.615704, 46.393539], [7.615672, 46.393554], [7.615713, 46.393573], [7.615684, 46.393548], [7.615769, 46.393515], [7.615702, 46.393589], [7.615627, 46.393589], [7.615633, 46.393606], [7.615678, 46.393594], [7.61576, 46.393656], [7.615727, 46.393642], [7.615761, 46.393624], [7.615678, 46.393646], [7.61567, 46.393684], [7.615635, 46.393696], [7.615712, 46.393667], [7.615689, 46.39368], [7.615708, 46.393719], [7.615692, 46.393672], [7.615708, 46.393714], [7.615667, 46.393708], [7.615685, 46.393744], [7.615611, 46.39377], [7.615598, 46.39383], [7.615512, 46.393814], [7.615436, 46.393853], [7.615384, 46.393844], [7.615453, 46.393935], [7.615389, 46.393978], [7.615408, 46.394004], [7.615361, 46.393992], [7.615373, 46.394008], [7.615302, 46.394036], [7.615287, 46.39409], [7.615178, 46.394103], [7.615152, 46.394049], [7.615191, 46.394041], [7.615162, 46.394048], [7.615151, 46.394016], [7.615108, 46.394009], [7.615167, 46.394033], [7.615235, 46.393987], [7.615232, 46.393944], [7.615264, 46.393952], [7.615238, 46.393914], [7.615199, 46.393909], [7.615188, 46.393931], [7.615143, 46.393833], [7.615157, 46.393903], [7.615245, 46.393911], [7.615134, 46.393877], [7.61501, 46.393885], [7.614955, 46.393922], [7.614942, 46.394026], [7.614885, 46.394071], [7.614897, 46.394104], [7.614801, 46.39415], [7.614831, 46.39415], [7.614841, 46.394187], [7.614689, 46.394281], [7.614642, 46.394353], [7.614529, 46.394409], [7.614368, 46.394447], [7.614428, 46.394464], [7.614339, 46.394545], [7.614409, 46.39455], [7.614332, 46.394583], [7.614394, 46.394569], [7.614377, 46.394619], [7.614396, 46.394647], [7.61442, 46.394637], [7.614307, 46.3947], [7.614216, 46.394707], [7.614165, 46.394698], [7.614128, 46.394655], [7.614192, 46.394682], [7.614159, 46.394711], [7.614191, 46.394711], [7.614195, 46.394778], [7.614125, 46.394784], [7.614066, 46.394736], [7.614133, 46.394782], [7.614112, 46.394781], [7.614123, 46.394819], [7.614148, 46.394812], [7.614129, 46.394823], [7.614094, 46.394829], [7.614066, 46.3948], [7.614085, 46.394791], [7.614003, 46.394808], [7.613945, 46.394792], [7.614058, 46.394852], [7.614006, 46.394897], [7.613962, 46.394883], [7.613914, 46.394914], [7.613981, 46.394943], [7.61399, 46.394993], [7.614015, 46.394991], [7.614012, 46.394928], [7.614042, 46.394894], [7.614072, 46.394908], [7.614087, 46.394864], [7.614134, 46.394886], [7.614141, 46.394918], [7.614116, 46.394923], [7.614247, 46.39496], [7.614242, 46.394907], [7.614271, 46.394921], [7.614288, 46.394996], [7.614287, 46.39494], [7.614264, 46.395003], [7.614168, 46.395058], [7.614057, 46.395043], [7.613939, 46.395107], [7.613874, 46.395085], [7.613825, 46.395099], [7.613816, 46.395163], [7.613781, 46.39516], [7.613783, 46.395187], [7.613735, 46.395178], [7.613737, 46.395219], [7.61366, 46.395279], [7.613491, 46.395351], [7.613362, 46.395344], [7.613335, 46.3952], [7.613388, 46.395129], [7.613504, 46.395083], [7.613387, 46.395014], [7.613392, 46.394973], [7.613337, 46.394895], [7.61343, 46.394807], [7.613442, 46.394671], [7.613411, 46.394658], [7.613261, 46.394686], [7.613231, 46.394647], [7.613091, 46.394659], [7.612793, 46.394894], [7.612733, 46.395049], [7.612665, 46.39508], [7.612666, 46.395123], [7.612586, 46.395173], [7.612505, 46.395309], [7.612408, 46.395395], [7.612414, 46.395477], [7.612336, 46.395582], [7.612391, 46.395591], [7.612335, 46.395618], [7.61236, 46.395642], [7.612324, 46.395655], [7.612311, 46.395639], [7.612285, 46.395665], [7.612332, 46.395726], [7.612306, 46.395728], [7.612228, 46.395887], [7.612193, 46.395896], [7.612215, 46.395929], [7.612172, 46.395933], [7.612323, 46.395983], [7.6123, 46.395963], [7.612215, 46.395987], [7.612056, 46.395959], [7.611977, 46.395979], [7.611987, 46.396048], [7.611934, 46.396093], [7.611942, 46.39612], [7.611917, 46.396102], [7.61192, 46.396117], [7.611955, 46.3961], [7.611948, 46.396126], [7.612041, 46.396155], [7.612061, 46.396177], [7.612031, 46.396179], [7.612118, 46.396191], [7.612218, 46.396173], [7.612256, 46.396201], [7.612254, 46.396177], [7.61228, 46.396182], [7.612325, 46.396242], [7.612409, 46.396249], [7.612485, 46.396297], [7.612307, 46.396265], [7.612021, 46.396267], [7.611751, 46.396238], [7.611434, 46.396291], [7.611472, 46.396324], [7.611435, 46.396328], [7.611409, 46.396301], [7.611448, 46.396354], [7.611386, 46.396336], [7.61134, 46.396543], [7.611408, 46.396571], [7.611571, 46.396575], [7.611591, 46.396617], [7.611541, 46.396681], [7.611585, 46.396719], [7.611894, 46.396606], [7.611975, 46.396555], [7.612085, 46.396551], [7.612161, 46.396583], [7.612187, 46.396882], [7.612401, 46.397116], [7.612572, 46.397234], [7.612943, 46.397346], [7.613079, 46.397453], [7.613182, 46.397497], [7.613244, 46.397579], [7.613362, 46.397632], [7.613535, 46.397648], [7.613676, 46.397631], [7.613692, 46.397607], [7.613831, 46.397659], [7.613949, 46.397666], [7.614081, 46.397632], [7.614403, 46.397778], [7.614485, 46.397765], [7.614597, 46.39765], [7.614715, 46.397698], [7.614854, 46.397694], [7.614974, 46.397649], [7.615004, 46.39768], [7.615035, 46.397623], [7.615032, 46.39772], [7.615083, 46.397723], [7.615135, 46.397764], [7.615213, 46.397751], [7.615186, 46.397791], [7.615329, 46.397806], [7.615473, 46.397765], [7.615613, 46.397845], [7.615638, 46.397834], [7.615672, 46.397892], [7.615744, 46.397901], [7.615892, 46.397979], [7.616083, 46.397994], [7.616141, 46.397974], [7.616156, 46.398015], [7.616227, 46.398016], [7.616169, 46.398074], [7.616201, 46.398168], [7.616103, 46.398074], [7.61591, 46.3982], [7.615991, 46.398073], [7.616026, 46.397958], [7.616004, 46.397942], [7.616119, 46.397816], [7.616074, 46.39767], [7.615888, 46.397742], [7.615904, 46.397625], [7.615808, 46.397782], [7.615841, 46.397784], [7.61582, 46.397813], [7.615866, 46.397773], [7.6159, 46.397801], [7.616005, 46.397765], [7.616032, 46.397767], [7.616002, 46.397786], [7.616021, 46.397811], [7.615973, 46.397817], [7.616015, 46.397808], [7.616011, 46.397737], [7.616077, 46.397758], [7.616126, 46.397737], [7.616029, 46.39779], [7.616091, 46.397842], [7.616065, 46.397808], [7.616123, 46.397803], [7.616129, 46.39778], [7.616085, 46.397776], [7.616143, 46.397788], [7.616113, 46.397784], [7.616137, 46.397771], [7.616177, 46.397777], [7.61607, 46.397808], [7.616058, 46.397779], [7.615904, 46.39783], [7.616004, 46.397791], [7.616023, 46.397744], [7.615936, 46.397775], [7.615928, 46.397809], [7.615956, 46.397803], [7.61593, 46.397826], [7.615925, 46.39779], [7.615963, 46.397768], [7.615982, 46.397805], [7.615898, 46.397805], [7.61591, 46.397784], [7.615908, 46.397813], [7.616021, 46.397801], [7.61598, 46.3978], [7.616028, 46.397798], [7.616036, 46.397772], [7.616074, 46.397776], [7.615994, 46.397784], [7.616017, 46.397761], [7.615854, 46.39781], [7.615986, 46.397798], [7.616028, 46.397755], [7.615986, 46.397778], [7.615951, 46.397767], [7.615988, 46.397746], [7.615974, 46.397726], [7.616001, 46.39774], [7.615966, 46.397748], [7.615995, 46.397719], [7.615892, 46.397766], [7.615944, 46.397723], [7.616001, 46.397713], [7.616015, 46.397746], [7.615958, 46.397761], [7.616006, 46.397743], [7.61605, 46.397816], [7.615945, 46.397886], [7.61593, 46.397858], [7.616129, 46.397793], [7.616159, 46.397825], [7.616046, 46.397776], [7.61608, 46.397769], [7.616022, 46.397716], [7.616049, 46.39771], [7.616055, 46.397733], [7.616119, 46.397706], [7.616082, 46.397726], [7.616119, 46.397677], [7.61615, 46.397702], [7.616136, 46.397754], [7.616161, 46.397738], [7.616054, 46.397767], [7.615925, 46.39776], [7.615833, 46.397789], [7.615864, 46.39777], [7.615917, 46.397811], [7.615893, 46.397833], [7.615918, 46.397829], [7.615982, 46.397788], [7.615742, 46.397779], [7.615674, 46.39782], [7.615697, 46.397833], [7.615506, 46.397875], [7.615477, 46.397954], [7.615495, 46.398083], [7.615571, 46.398119], [7.615789, 46.398042], [7.615739, 46.398022], [7.615869, 46.397895], [7.615709, 46.397926], [7.615618, 46.397922], [7.61563, 46.3979], [7.615286, 46.39796], [7.615319, 46.397939], [7.615236, 46.398074], [7.615362, 46.39803], [7.615261, 46.398009], [7.61534, 46.397963], [7.61542, 46.397967], [7.615484, 46.397916], [7.615384, 46.397953], [7.615343, 46.397935], [7.615802, 46.39776], [7.615927, 46.397764], [7.615944, 46.397679], [7.616007, 46.397678], [7.615939, 46.397735], [7.615961, 46.397748], [7.615956, 46.397726], [7.6159, 46.397767], [7.61592, 46.397781], [7.615963, 46.397745], [7.615898, 46.397807], [7.615882, 46.397865], [7.6159, 46.397849], [7.615866, 46.397812], [7.615945, 46.397785], [7.6159, 46.397803], [7.615962, 46.397754], [7.61599, 46.397775], [7.616017, 46.397754], [7.616, 46.397737], [7.615958, 46.397756], [7.615988, 46.397741], [7.615991, 46.397763], [7.616009, 46.397727], [7.61599, 46.397755], [7.615999, 46.397734], [7.61594, 46.39771], [7.615885, 46.39773], [7.615862, 46.397786], [7.615904, 46.397789], [7.615787, 46.397772], [7.615986, 46.397774], [7.61601, 46.3978], [7.61598, 46.397816], [7.615875, 46.397842], [7.615947, 46.397786], [7.61599, 46.397789], [7.615945, 46.397799], [7.615976, 46.397758], [7.615995, 46.397775], [7.615908, 46.397805], [7.61596, 46.397794], [7.615891, 46.397776], [7.615984, 46.397739], [7.616019, 46.39769], [7.61598, 46.397708], [7.615974, 46.397763], [7.615997, 46.397758], [7.615991, 46.397798], [7.616021, 46.397806], [7.615953, 46.397863], [7.616009, 46.397852], [7.61595, 46.397854], [7.615937, 46.397841], [7.615974, 46.397833], [7.615942, 46.397799], [7.615916, 46.397821], [7.615866, 46.397815], [7.615905, 46.397804], [7.615898, 46.397821], [7.615931, 46.397779], [7.615877, 46.397809], [7.615896, 46.397783], [7.615925, 46.39779], [7.615894, 46.397807], [7.615929, 46.397769], [7.615898, 46.397746], [7.61579, 46.397787], [7.615866, 46.397829], [7.615849, 46.397839], [7.615881, 46.397834], [7.61591, 46.397803], [7.615883, 46.39781], [7.615934, 46.397812], [7.615996, 46.397761], [7.616055, 46.397781], [7.615938, 46.397792], [7.61602, 46.397783], [7.616013, 46.3978], [7.616086, 46.397725], [7.616079, 46.397792], [7.616077, 46.397757], [7.616036, 46.397749], [7.616069, 46.397738], [7.616067, 46.397769], [7.616042, 46.397738], [7.616085, 46.397739], [7.616054, 46.397764], [7.616086, 46.39775], [7.616091, 46.397775], [7.616048, 46.397753], [7.616082, 46.397749], [7.616048, 46.397746], [7.616065, 46.397727], [7.616089, 46.397741], [7.616055, 46.397707], [7.615957, 46.397745], [7.615946, 46.397782], [7.615926, 46.397703], [7.615831, 46.397756], [7.615902, 46.397699], [7.615695, 46.397825], [7.615882, 46.397744], [7.615905, 46.39772], [7.615875, 46.397738], [7.615884, 46.397711], [7.615851, 46.397735], [7.615863, 46.397763], [7.615908, 46.397743], [7.615954, 46.397754], [7.615949, 46.397789], [7.615992, 46.397799], [7.615962, 46.397792], [7.61595, 46.397819], [7.615939, 46.397805], [7.615983, 46.3978], [7.615973, 46.397828], [7.616052, 46.397795], [7.616053, 46.397773], [7.615948, 46.397798], [7.615946, 46.397777], [7.615989, 46.397781], [7.615943, 46.397808], [7.615964, 46.397833], [7.616003, 46.397787], [7.615974, 46.397783], [7.615995, 46.397803], [7.61601, 46.397786], [7.615951, 46.397814], [7.616, 46.397773], [7.615953, 46.397778], [7.616001, 46.397783], [7.615976, 46.397793], [7.615987, 46.397824], [7.616015, 46.397817], [7.615979, 46.397793], [7.61596, 46.397831], [7.615962, 46.397814], [7.615938, 46.397822], [7.616009, 46.397799], [7.615989, 46.397788], [7.615924, 46.397818], [7.61596, 46.397818], [7.616, 46.397778], [7.616009, 46.397795], [7.615969, 46.397784], [7.616029, 46.397795], [7.615936, 46.397802], [7.616025, 46.397783], [7.615982, 46.397795], [7.615953, 46.397778], [7.615934, 46.397827], [7.616014, 46.39777], [7.615978, 46.397774], [7.615977, 46.397729], [7.615988, 46.397762], [7.615832, 46.397743], [7.615823, 46.397773], [7.615851, 46.397766], [7.615918, 46.397825], [7.615986, 46.397833], [7.616043, 46.397808], [7.61598, 46.397839], [7.616061, 46.39782], [7.615913, 46.397921], [7.615968, 46.397882], [7.615917, 46.397897], [7.61594, 46.397819], [7.615895, 46.39775], [7.615979, 46.397726], [7.615983, 46.397825], [7.616056, 46.397981], [7.615822, 46.397979], [7.615711, 46.397957], [7.61547, 46.397757], [7.6154, 46.397753], [7.615357, 46.397783], [7.615109, 46.397792], [7.61501, 46.397755], [7.614911, 46.397665], [7.614735, 46.397691], [7.614581, 46.397666], [7.614402, 46.397781], [7.614339, 46.397792], [7.614086, 46.397653], [7.61383, 46.397678], [7.613622, 46.397618], [7.613461, 46.397629], [7.613303, 46.397583], [7.612955, 46.397362], [7.61266, 46.397233], [7.612551, 46.397208], [7.61229, 46.397023], [7.612166, 46.396845], [7.612181, 46.396786], [7.612119, 46.396549], [7.611943, 46.396579], [7.611704, 46.396698], [7.611572, 46.396714], [7.611522, 46.396696], [7.611552, 46.396573], [7.611375, 46.39656], [7.611373, 46.396422], [7.611448, 46.396311], [7.611351, 46.396258], [7.611235, 46.396285], [7.611085, 46.396266], [7.611043, 46.396349], [7.610969, 46.396387], [7.610818, 46.39632], [7.610694, 46.396338], [7.610608, 46.396326], [7.610459, 46.396359], [7.610444, 46.396309], [7.610514, 46.396233], [7.61051, 46.396201], [7.610397, 46.396179], [7.61035, 46.396234], [7.610315, 46.396233], [7.610267, 46.396344], [7.610124, 46.396433], [7.610107, 46.39647], [7.60999, 46.396442], [7.609854, 46.396451], [7.609765, 46.396407], [7.609636, 46.396446], [7.609051, 46.396441], [7.608808, 46.396475], [7.608419, 46.396427], [7.608133, 46.396445], [7.607825, 46.396415], [7.607518, 46.396445], [7.60739, 46.396423], [7.607331, 46.396438], [7.60684, 46.396413], [7.60656, 46.396342], [7.606461, 46.396358], [7.606384, 46.396416], [7.60629, 46.396428], [7.606268, 46.39646], [7.606077, 46.396461], [7.606059, 46.396487], [7.606082, 46.396499], [7.606074, 46.396465], [7.605888, 46.396389], [7.605386, 46.396323], [7.605323, 46.396348], [7.605316, 46.396323], [7.605267, 46.396322], [7.604654, 46.396446], [7.604496, 46.396499], [7.604352, 46.396501], [7.60415, 46.396627], [7.604042, 46.396636], [7.603997, 46.396599], [7.60407, 46.39659], [7.603933, 46.396661], [7.603464, 46.396651], [7.603034, 46.396791], [7.602761, 46.396827], [7.602775, 46.396843], [7.602674, 46.396898], [7.60236, 46.396862], [7.601977, 46.396876], [7.601808, 46.396865], [7.601645, 46.396801], [7.601565, 46.396801], [7.601425, 46.396725], [7.601208, 46.396681], [7.601166, 46.396638], [7.601081, 46.396661], [7.600991, 46.39664], [7.600636, 46.396629], [7.600471, 46.396576], [7.600178, 46.396533], [7.600068, 46.396486], [7.599884, 46.396464], [7.599822, 46.396426], [7.599687, 46.396432], [7.599727, 46.396407], [7.599003, 46.396505], [7.598972, 46.396488], [7.59849, 46.396525], [7.598294, 46.396511], [7.597924, 46.396403], [7.597853, 46.396296], [7.597788, 46.396252], [7.597547, 46.39616], [7.597477, 46.396163], [7.596949, 46.395989], [7.596653, 46.395943], [7.596287, 46.395937], [7.595877, 46.395827], [7.595588, 46.395832], [7.595306, 46.39578], [7.595072, 46.395765], [7.594996, 46.395714], [7.594971, 46.39574], [7.59497, 46.395717], [7.594939, 46.395717], [7.594899, 46.395752], [7.594912, 46.395706], [7.594933, 46.395743], [7.594929, 46.395723], [7.594811, 46.395747], [7.594386, 46.395676], [7.59396, 46.395672], [7.593707, 46.395708], [7.593648, 46.395691], [7.593641, 46.395664], [7.593692, 46.395733], [7.593705, 46.395709], [7.593737, 46.395716], [7.593575, 46.395706], [7.593587, 46.395744], [7.593419, 46.395677], [7.593414, 46.395702], [7.593355, 46.395706], [7.593274, 46.395661], [7.59297, 46.395634], [7.592588, 46.395537], [7.592543, 46.395544], [7.592406, 46.395482], [7.592033, 46.395422], [7.591539, 46.395507], [7.591464, 46.395482], [7.591345, 46.395527], [7.591221, 46.395488], [7.591221, 46.39551], [7.59109, 46.395536], [7.59094, 46.395509], [7.590878, 46.395538], [7.590485, 46.395499], [7.59041, 46.395448], [7.590196, 46.395408], [7.589782, 46.395391], [7.589467, 46.395425], [7.589323, 46.395398], [7.589311, 46.395362], [7.589131, 46.395312], [7.588727, 46.395143], [7.588563, 46.395177], [7.588455, 46.395175], [7.588381, 46.395147], [7.588238, 46.395152], [7.588017, 46.395199], [7.587784, 46.395186], [7.58753, 46.395224], [7.587046, 46.3952], [7.586601, 46.395281], [7.586417, 46.395292], [7.586444, 46.395303], [7.586379, 46.395302], [7.586358, 46.395327], [7.586094, 46.395309], [7.585667, 46.395346], [7.585537, 46.395385], [7.585461, 46.395368], [7.58518, 46.395441], [7.584942, 46.395471], [7.584701, 46.395492], [7.584269, 46.395452], [7.584103, 46.395537], [7.583979, 46.395548], [7.583895, 46.39554], [7.583903, 46.395526], [7.583901, 46.395566], [7.583796, 46.395575], [7.583721, 46.395613], [7.583684, 46.395586], [7.583574, 46.395644], [7.583502, 46.395641], [7.583302, 46.395738], [7.583111, 46.39587], [7.582852, 46.395965], [7.582817, 46.395999], [7.582653, 46.395992], [7.582544, 46.396042], [7.582211, 46.396084], [7.58182, 46.396217], [7.581629, 46.396242], [7.5815, 46.396286], [7.581327, 46.396284], [7.581214, 46.39632], [7.580901, 46.396325], [7.580696, 46.396288], [7.580652, 46.396304], [7.58051, 46.39629], [7.58045, 46.396357], [7.580186, 46.39646], [7.580146, 46.396461], [7.580163, 46.396436], [7.580159, 46.39646], [7.580033, 46.396491], [7.580002, 46.396477], [7.580028, 46.396493], [7.579949, 46.396447], [7.57991, 46.396472], [7.57975, 46.396474], [7.579758, 46.396499], [7.579781, 46.396488], [7.579781, 46.396528], [7.579748, 46.396686], [7.579434, 46.396983], [7.579189, 46.397107], [7.578781, 46.397418], [7.578768, 46.397374], [7.578749, 46.397405], [7.578773, 46.397428], [7.578736, 46.397443], [7.578775, 46.397408], [7.578783, 46.39744], [7.57877, 46.397426], [7.578812, 46.397419], [7.578805, 46.397447], [7.578784, 46.39741], [7.578464, 46.397627], [7.578352, 46.397645], [7.578233, 46.397753], [7.577591, 46.397884], [7.577432, 46.397971], [7.577416, 46.398008], [7.577036, 46.398134], [7.576959, 46.398104], [7.576859, 46.398116], [7.576897, 46.398217], [7.577341, 46.398449], [7.577042, 46.398412], [7.576831, 46.398419], [7.576621, 46.398379], [7.5766, 46.398421], [7.576715, 46.398465], [7.576739, 46.398517], [7.57679, 46.398515], [7.576884, 46.398568], [7.576877, 46.398616], [7.576967, 46.398682], [7.577034, 46.398699], [7.577111, 46.398791], [7.577151, 46.398803], [7.577155, 46.398841], [7.577264, 46.39893], [7.577238, 46.398917], [7.577237, 46.39895], [7.577217, 46.398913], [7.577242, 46.398935], [7.577209, 46.399001], [7.577254, 46.399045], [7.577261, 46.399159], [7.577225, 46.399131], [7.577132, 46.399126], [7.577078, 46.39908], [7.576996, 46.399076], [7.576967, 46.399041], [7.576796, 46.398992], [7.576718, 46.398937], [7.576692, 46.39897], [7.576779, 46.399058], [7.576779, 46.399157], [7.576732, 46.39919], [7.576668, 46.399185], [7.576603, 46.399217], [7.57658, 46.399278], [7.576533, 46.399297], [7.57649, 46.399267], [7.57639, 46.399268], [7.576358, 46.399188], [7.576395, 46.399125], [7.576309, 46.399105], [7.576288, 46.399078], [7.576193, 46.399103], [7.57609, 46.399079], [7.57596, 46.399137], [7.575932, 46.399192], [7.576099, 46.399323], [7.575918, 46.399392], [7.57594, 46.399516], [7.576028, 46.399578], [7.576058, 46.399556], [7.576087, 46.399594], [7.576064, 46.399633], [7.576149, 46.399699], [7.576121, 46.399712], [7.576146, 46.399717], [7.576141, 46.399754], [7.576241, 46.399814], [7.576247, 46.399858], [7.576358, 46.399907], [7.576368, 46.400043], [7.576431, 46.40009], [7.576462, 46.400165], [7.576202, 46.400039], [7.576194, 46.400111], [7.576234, 46.400143], [7.576216, 46.400179], [7.576273, 46.40019], [7.576229, 46.400254], [7.576276, 46.400231], [7.576242, 46.400311], [7.576184, 46.400344], [7.576221, 46.400409], [7.576159, 46.400486], [7.576087, 46.400489], [7.576037, 46.40055], [7.576002, 46.400549], [7.575954, 46.400655], [7.575794, 46.400738], [7.575809, 46.400759], [7.575844, 46.40075], [7.575845, 46.400822], [7.575738, 46.400945], [7.575659, 46.400979], [7.575682, 46.401025], [7.575705, 46.401015], [7.575695, 46.401037], [7.575665, 46.401033], [7.575696, 46.401044], [7.575656, 46.401078], [7.575654, 46.401128], [7.575477, 46.40119], [7.57544, 46.401176], [7.575467, 46.4012], [7.575405, 46.401226], [7.575415, 46.401265], [7.575392, 46.401283], [7.575383, 46.401257], [7.575352, 46.40133], [7.575327, 46.401326], [7.575373, 46.401339], [7.575322, 46.401334], [7.575366, 46.401317], [7.575398, 46.401349], [7.575348, 46.401344], [7.575311, 46.40136], [7.575332, 46.401374], [7.575277, 46.401355], [7.575275, 46.401401], [7.575288, 46.401381], [7.5753, 46.401401], [7.575291, 46.401376], [7.575238, 46.401408], [7.575276, 46.40144], [7.575181, 46.401423], [7.575134, 46.401463], [7.575146, 46.401503], [7.575146, 46.401488], [7.57508, 46.401503], [7.5751, 46.401492], [7.575115, 46.401538], [7.575058, 46.401569], [7.575009, 46.401552], [7.575021, 46.401567], [7.574978, 46.401583], [7.574908, 46.401584], [7.574861, 46.401623], [7.574891, 46.40161], [7.574958, 46.401642], [7.574913, 46.401615], [7.574941, 46.401566], [7.574741, 46.401248], [7.57481, 46.401227], [7.574784, 46.401246], [7.574774, 46.401207]]}, "properties": {"name": "1786604951.Leukerbad_Gemmipass_lammerenhutte", "cmt": "2026-08-13", "tstamp": 1786579200, "desc": "UpHill", "src": "7.574047/46.379373/7.629478/46.401642", "bbox": "7.574047/46.379373/7.629478/46.401642"}}, {"type": "Feature", "bbox": [7.574047, 46.379373, 7.629478, 46.401642], "geometry": {"type": "LineString", "coordinates": [[7.574775, 46.401198], [7.574764, 46.401166], [7.574831, 46.401051], [7.574812, 46.401085], [7.574658, 46.400908], [7.574632, 46.400652], [7.57441, 46.400573], [7.57436, 46.400505], [7.574209, 46.40043], [7.574047, 46.400296], [7.574089, 46.400303], [7.574193, 46.400254], [7.574208, 46.400184], [7.574309, 46.400229], [7.574414, 46.400234], [7.574574, 46.400196], [7.574562, 46.400183], [7.574383, 46.400229], [7.574346, 46.400264], [7.574351, 46.400286], [7.574396, 46.400292], [7.574445, 46.400252], [7.574463, 46.400277], [7.574513, 46.400277], [7.57454, 46.400289], [7.574495, 46.400305], [7.574571, 46.400352], [7.574538, 46.400361], [7.574542, 46.400387], [7.574524, 46.400333]]}, "properties": {"name": "1786604951.Leukerbad_Gemmipass_lammerenhutte", "cmt": "2026-08-13", "tstamp": 1786579200, "desc": "DownHill", "src": "7.574047/46.379373/7.629478/46.401642", "bbox": "7.574047/46.379373/7.629478/46.401642"}}]}