{"type": "FeatureCollection", "name": "TrackSet", "crs": {"type": "name", "properties": {"name": "urn:ogc:def:crs:OGC:1.3:CRS84"}}, "bbox": [7.622631, 46.378849, 7.632537, 46.384278], "features": [{"type": "Feature", "bbox": [7.622631, 46.378849, 7.632537, 46.384278], "geometry": {"type": "LineString", "coordinates": [[7.628478, 46.379369], [7.628518, 46.379473], [7.628765, 46.379597], [7.628786, 46.379648], [7.628735, 46.379705], [7.628497, 46.379659], [7.628513, 46.37971], [7.628392, 46.379775], [7.628376, 46.379789], [7.628404, 46.379803], [7.628371, 46.379824], [7.628346, 46.379812], [7.628376, 46.379822], [7.6284, 46.379799], [7.628402, 46.379747], [7.628436, 46.379787], [7.62838, 46.379779], [7.628316, 46.379725], [7.628259, 46.379725], [7.627907, 46.379819], [7.627914, 46.379861], [7.627949, 46.379862], [7.627715, 46.379833], [7.627627, 46.379899], [7.627633, 46.379952], [7.627604, 46.379957], [7.627639, 46.380038], [7.627686, 46.380053], [7.62766, 46.380092], [7.627596, 46.380149], [7.627462, 46.380161], [7.627485, 46.38012], [7.627496, 46.380151], [7.627614, 46.380134], [7.627767, 46.380162], [7.62785, 46.380154], [7.62799, 46.380216], [7.628129, 46.380195], [7.628179, 46.380218], [7.628275, 46.380218], [7.628317, 46.380231], [7.628316, 46.380254], [7.628198, 46.380347], [7.627804, 46.380401], [7.627742, 46.380385], [7.627517, 46.380437], [7.627328, 46.380444], [7.627172, 46.380482], [7.62658, 46.380544], [7.62626, 46.380603], [7.62582, 46.380772], [7.625363, 46.38091], [7.625255, 46.380967], [7.625083, 46.381075], [7.624985, 46.381234], [7.625011, 46.381272], [7.624976, 46.381301], [7.624818, 46.38122], [7.624752, 46.38123], [7.624503, 46.381185], [7.624403, 46.381205], [7.624406, 46.381155], [7.624317, 46.381147], [7.624288, 46.381147], [7.624314, 46.381164], [7.624294, 46.381181], [7.624203, 46.381112], [7.624272, 46.381088], [7.624159, 46.381173], [7.624176, 46.381186], [7.624096, 46.381282], [7.624103, 46.38134], [7.62376, 46.381299], [7.623685, 46.381335], [7.623622, 46.381324], [7.623574, 46.381342], [7.623454, 46.381441], [7.6234, 46.381631], [7.623276, 46.381753], [7.622991, 46.381814], [7.62287, 46.381953], [7.622758, 46.381978], [7.622734, 46.382045], [7.622668, 46.382091], [7.622686, 46.382132], [7.622631, 46.382278], [7.622633, 46.382397], [7.622669, 46.382445], [7.622999, 46.382589], [7.623049, 46.382583], [7.623096, 46.382609], [7.623085, 46.38259], [7.623133, 46.382567], [7.623089, 46.382572], [7.623165, 46.382567], [7.623207, 46.382637], [7.623272, 46.382645], [7.623483, 46.382762], [7.623778, 46.382839], [7.623842, 46.382914], [7.623647, 46.382992], [7.623595, 46.383132], [7.623537, 46.383161], [7.62349, 46.383248], [7.623328, 46.383306], [7.623218, 46.383392], [7.622938, 46.383537], [7.622792, 46.383699], [7.622842, 46.383848], [7.623075, 46.383902], [7.623278, 46.383866], [7.623335, 46.383921], [7.623345, 46.383883], [7.623374, 46.383907], [7.623507, 46.383842], [7.62356, 46.383783], [7.623789, 46.383728], [7.623774, 46.383698], [7.623839, 46.383711], [7.624101, 46.383597], [7.624225, 46.383649], [7.624347, 46.383656], [7.62447, 46.383625], [7.624498, 46.38364], [7.624594, 46.383596], [7.624623, 46.383514], [7.624772, 46.383343], [7.624843, 46.383311], [7.624972, 46.383301], [7.625109, 46.38318], [7.625188, 46.383208], [7.625225, 46.383193], [7.625477, 46.38321], [7.625656, 46.383097], [7.625942, 46.382971], [7.62601, 46.382968], [7.626394, 46.382804], [7.626458, 46.382799], [7.626582, 46.382725], [7.626713, 46.382723], [7.627159, 46.382501], [7.627407, 46.382437], [7.627595, 46.38243], [7.627638, 46.382646], [7.62777, 46.382794], [7.627743, 46.382882], [7.627786, 46.382936], [7.627865, 46.38297], [7.62787, 46.383037], [7.627996, 46.383156], [7.628113, 46.383218], [7.628277, 46.383461], [7.628263, 46.383447], [7.628238, 46.383465], [7.628258, 46.383558], [7.628235, 46.383549], [7.628201, 46.383585], [7.628187, 46.383767], [7.628078, 46.383836], [7.628074, 46.383877], [7.62813, 46.383882], [7.628091, 46.383863], [7.628041, 46.38394], [7.62809, 46.384012], [7.628069, 46.384027], [7.628101, 46.384133], [7.628135, 46.384144], [7.628146, 46.384112], [7.628201, 46.384114], [7.628215, 46.384159], [7.628255, 46.384147], [7.628233, 46.384038], [7.628259, 46.384029], [7.628276, 46.384064], [7.628334, 46.384053], [7.628408, 46.384103], [7.628463, 46.384079], [7.62851, 46.384098], [7.628517, 46.384075], [7.628552, 46.38413], [7.628541, 46.384093], [7.628576, 46.384123], [7.628611, 46.384095], [7.628712, 46.384117], [7.628736, 46.3841], [7.628804, 46.384135], [7.628821, 46.384185], [7.62892, 46.384139], [7.629054, 46.384161], [7.6291, 46.384195], [7.62926, 46.384216], [7.629423, 46.384278], [7.629395, 46.384248], [7.629445, 46.384185], [7.629406, 46.384022], [7.629347, 46.383925], [7.629385, 46.383906], [7.629406, 46.383669], [7.629462, 46.38363], [7.629461, 46.383528], [7.629534, 46.383477], [7.629571, 46.383409], [7.629592, 46.383419], [7.629618, 46.383218], [7.629779, 46.383167], [7.630068, 46.38315], [7.630285, 46.383174], [7.630363, 46.383136], [7.630528, 46.383144], [7.630595, 46.383174], [7.630762, 46.383143], [7.6308, 46.383111], [7.630955, 46.383143], [7.631167, 46.38313], [7.631461, 46.383074], [7.631594, 46.383023], [7.631653, 46.383042], [7.631728, 46.383005], [7.631791, 46.383057], [7.631743, 46.383072], [7.631728, 46.383057], [7.63175, 46.38308], [7.631745, 46.383064], [7.631808, 46.383051], [7.631763, 46.383041], [7.631763, 46.383071], [7.631745, 46.38304], [7.631784, 46.38305], [7.631783, 46.383091], [7.631773, 46.383058], [7.631801, 46.383067], [7.63177, 46.38304], [7.63177, 46.383056], [7.631721, 46.383046], [7.631805, 46.383056], [7.631788, 46.383025], [7.631865, 46.382969], [7.631922, 46.382965], [7.632071, 46.382859], [7.632227, 46.38283], [7.632295, 46.382784], [7.632183, 46.382666], [7.632068, 46.382705], [7.632214, 46.38281], [7.632248, 46.382775], [7.632212, 46.382708], [7.632174, 46.382776], [7.632159, 46.382683], [7.632139, 46.382712], [7.632174, 46.382698], [7.632134, 46.382703], [7.632178, 46.382714], [7.632161, 46.382756], [7.632234, 46.382665], [7.632122, 46.382692], [7.632137, 46.38272], [7.632147, 46.382702], [7.632217, 46.382717], [7.632249, 46.382688], [7.632308, 46.382683], [7.632326, 46.382713], [7.632317, 46.382786], [7.632207, 46.382981], [7.632242, 46.383045], [7.632286, 46.383074], [7.632372, 46.383066], [7.632463, 46.383141], [7.632464, 46.383124], [7.632537, 46.383136], [7.632467, 46.383121], [7.632399, 46.383079], [7.632416, 46.38307], [7.632352, 46.383082], [7.632196, 46.383025], [7.632118, 46.38295], [7.632048, 46.382936], [7.631992, 46.382953], [7.632012, 46.382844], [7.632, 46.382857], [7.631975, 46.382818], [7.631969, 46.382738], [7.631993, 46.382685], [7.631928, 46.382633], [7.631928, 46.382555], [7.631831, 46.382414], [7.631617, 46.38237], [7.631588, 46.382339], [7.6316, 46.38237], [7.631556, 46.382354], [7.631535, 46.382368], [7.631454, 46.382308], [7.631375, 46.382423], [7.631398, 46.382367], [7.631323, 46.38233], [7.631108, 46.382335], [7.631127, 46.382353], [7.63108, 46.382362], [7.631092, 46.382389], [7.631049, 46.382256], [7.630895, 46.382143], [7.630876, 46.382184], [7.63081, 46.382126], [7.630781, 46.382162], [7.630796, 46.3823], [7.630743, 46.382306], [7.630825, 46.382291], [7.630818, 46.382229], [7.630853, 46.382201], [7.630809, 46.382188], [7.630814, 46.382155], [7.630754, 46.382127], [7.630618, 46.381979], [7.630555, 46.381969], [7.630462, 46.381888], [7.630343, 46.381861], [7.630245, 46.381801], [7.630171, 46.381682], [7.630198, 46.381557], [7.630295, 46.381472], [7.63028, 46.381415], [7.630322, 46.381396], [7.63025, 46.381418], [7.630294, 46.381445], [7.630258, 46.381416], [7.630307, 46.381357], [7.630288, 46.381142], [7.630327, 46.381071], [7.630292, 46.381098], [7.630217, 46.381084], [7.63016, 46.380998], [7.630181, 46.380942], [7.630129, 46.380955], [7.630161, 46.380908], [7.630153, 46.380928], [7.630104, 46.38092], [7.630085, 46.380959], [7.630115, 46.380949], [7.630085, 46.380826], [7.630019, 46.380757], [7.62992, 46.380718], [7.629991, 46.380679], [7.630028, 46.380703], [7.630049, 46.380661], [7.630137, 46.38064], [7.630026, 46.380605], [7.630046, 46.38054], [7.630062, 46.380552], [7.630049, 46.380462], [7.630076, 46.380467], [7.630037, 46.380355], [7.629891, 46.380253], [7.629816, 46.380248], [7.629799, 46.380274], [7.629758, 46.380261], [7.629785, 46.380229], [7.629728, 46.38024], [7.629751, 46.380254], [7.629866, 46.380113], [7.629828, 46.380097], [7.629859, 46.380102], [7.629889, 46.380059], [7.629882, 46.379962], [7.629935, 46.379839], [7.629877, 46.379779], [7.629902, 46.379749], [7.629874, 46.379686], [7.629917, 46.379655], [7.62987, 46.379646], [7.629965, 46.379569], [7.62998, 46.379497], [7.62994, 46.379402], [7.630137, 46.379264], [7.630089, 46.379157], [7.630054, 46.379142], [7.630122, 46.379129], [7.630115, 46.379105], [7.630092, 46.379118], [7.630083, 46.379035], [7.630104, 46.379048], [7.630048, 46.378992], [7.629892, 46.378965], [7.629733, 46.379045], [7.629641, 46.379064], [7.629702, 46.378936], [7.629638, 46.378849], [7.629669, 46.378928], [7.62958, 46.37897], [7.629558, 46.378928], [7.629424, 46.378996], [7.629425, 46.379048], [7.629382, 46.379108], [7.629319, 46.379135], [7.629331, 46.379187], [7.629316, 46.379215], [7.629294, 46.379204], [7.629329, 46.379288], [7.629419, 46.3793], [7.629428, 46.379346], [7.629439, 46.379317], [7.62948, 46.379461], [7.629426, 46.379439], [7.629401, 46.379488], [7.629321, 46.379512], [7.629315, 46.379555], [7.629288, 46.379548], [7.629179, 46.379627], [7.628985, 46.37969], [7.628903, 46.379749], [7.628854, 46.379833], [7.628864, 46.379878], [7.628797, 46.379905], [7.628816, 46.379999], [7.628778, 46.380017], [7.628743, 46.379985], [7.628966, 46.380062], [7.62906, 46.380126], [7.629133, 46.380195], [7.629105, 46.380215], [7.629137, 46.38028], [7.62921, 46.380292], [7.629249, 46.380264], [7.629216, 46.380301], [7.629313, 46.380312], [7.62917, 46.380423], [7.629056, 46.380612], [7.628964, 46.380679], [7.628524, 46.380721], [7.62854, 46.380674], [7.628495, 46.380605], [7.628384, 46.380521], [7.6283, 46.38039], [7.628388, 46.380358], [7.628472, 46.380253], [7.62847, 46.380184], [7.628337, 46.380083], [7.628059, 46.380087], [7.627943, 46.380062], [7.627802, 46.380095], [7.627702, 46.38005], [7.627659, 46.379904], [7.627718, 46.379836], [7.62781, 46.3798], [7.627961, 46.379838], [7.628095, 46.379823], [7.628172, 46.379843], [7.628219, 46.37977], [7.628172, 46.379756], [7.628187, 46.379793], [7.628157, 46.379807], [7.628181, 46.379821], [7.628124, 46.37981], [7.628195, 46.379836], [7.628127, 46.379802], [7.628249, 46.379819], [7.628205, 46.379832], [7.628166, 46.379817], [7.628248, 46.37984], [7.628242, 46.379814], [7.628219, 46.379801], [7.628194, 46.379824], [7.628182, 46.379792], [7.628153, 46.379793], [7.62821, 46.379802], [7.628163, 46.379803], [7.628193, 46.37981], [7.628154, 46.379856], [7.628155, 46.379841], [7.628193, 46.37985], [7.628196, 46.379824], [7.628156, 46.379832], [7.628169, 46.379873], [7.628218, 46.379846], [7.628193, 46.379748], [7.628202, 46.379802], [7.628171, 46.379798], [7.628178, 46.379771], [7.628221, 46.379792], [7.628232, 46.379837], [7.628183, 46.379807], [7.628172, 46.379823], [7.628206, 46.379825], [7.628122, 46.379882], [7.628153, 46.379895], [7.62818, 46.379871], [7.628264, 46.379866], [7.628194, 46.379847], [7.628216, 46.379855], [7.628192, 46.379844], [7.628222, 46.379843], [7.628222, 46.379809], [7.628241, 46.379842], [7.628202, 46.37987], [7.628169, 46.37986], [7.628141, 46.379804], [7.628171, 46.379844], [7.628187, 46.379824], [7.628149, 46.379792], [7.628206, 46.379822], [7.628179, 46.3798], [7.628228, 46.379798], [7.628201, 46.379779], [7.628199, 46.379806], [7.628171, 46.37979], [7.628186, 46.37982], [7.628181, 46.379774], [7.62816, 46.37984], [7.628194, 46.379855], [7.628188, 46.379831], [7.628245, 46.379828], [7.628192, 46.3798], [7.628192, 46.379815], [7.628162, 46.379806], [7.628164, 46.379839], [7.628153, 46.379812], [7.628201, 46.379807], [7.628202, 46.379764], [7.628169, 46.379827], [7.628163, 46.379784], [7.628128, 46.379795], [7.628133, 46.379823], [7.628155, 46.37978], [7.628147, 46.379804], [7.628122, 46.379789], [7.628168, 46.379816], [7.628152, 46.379868], [7.628173, 46.379855], [7.628188, 46.379875], [7.628219, 46.379808], [7.628191, 46.379846], [7.628142, 46.379847], [7.628128, 46.379755], [7.628251, 46.379754], [7.628249, 46.379806], [7.628207, 46.379837], [7.628227, 46.379825], [7.628145, 46.379782], [7.628192, 46.379798], [7.628222, 46.379851], [7.628146, 46.379817], [7.628139, 46.379797], [7.62818, 46.379801], [7.628136, 46.379763], [7.628172, 46.379758], [7.628148, 46.37979], [7.628155, 46.379767], [7.628194, 46.379818], [7.628192, 46.379782], [7.628151, 46.379767], [7.628165, 46.379806], [7.628169, 46.37978], [7.628165, 46.379806], [7.628098, 46.379747], [7.628142, 46.379798], [7.628136, 46.379782], [7.628197, 46.379786], [7.62818, 46.379771], [7.628209, 46.379752], [7.628157, 46.379795], [7.628194, 46.379802], [7.628157, 46.379805], [7.628125, 46.379844], [7.628166, 46.379834], [7.628169, 46.379793], [7.628121, 46.3798], [7.62812, 46.37985], [7.628159, 46.379873], [7.628182, 46.379869], [7.628136, 46.379848], [7.628114, 46.379771], [7.628139, 46.379815], [7.628139, 46.379769], [7.628102, 46.379731], [7.628108, 46.379789], [7.628161, 46.379772], [7.628123, 46.37978], [7.628132, 46.37974], [7.62817, 46.379801], [7.628194, 46.379781], [7.628168, 46.379767], [7.62815, 46.37979], [7.628139, 46.379744], [7.628118, 46.379755], [7.628158, 46.379792], [7.628164, 46.37975], [7.628181, 46.37982], [7.628195, 46.379807], [7.62815, 46.379794], [7.628209, 46.37978], [7.628207, 46.379714], [7.628177, 46.379752], [7.628145, 46.379746], [7.62817, 46.379777], [7.62814, 46.379826], [7.628155, 46.379867], [7.628165, 46.379817], [7.628268, 46.379701], [7.628202, 46.379742], [7.628197, 46.379703], [7.628146, 46.379763], [7.628169, 46.37974], [7.62819, 46.37984], [7.628213, 46.379814], [7.628249, 46.379835], [7.628214, 46.379884], [7.628235, 46.379863], [7.628213, 46.379842], [7.628266, 46.379848], [7.628255, 46.379812], [7.62823, 46.379872], [7.628268, 46.379872], [7.628252, 46.37985], [7.628314, 46.379866], [7.628321, 46.379832], [7.628249, 46.37987], [7.62819, 46.379841], [7.628183, 46.37982], [7.628227, 46.379811], [7.628166, 46.37982], [7.628187, 46.379856], [7.628179, 46.379753], [7.628122, 46.379852], [7.628143, 46.379755], [7.628153, 46.379792], [7.628201, 46.379788], [7.62819, 46.379845], [7.628276, 46.379818], [7.628265, 46.379779], [7.628198, 46.379817], [7.628182, 46.379781], [7.628157, 46.379834], [7.628143, 46.379818], [7.628189, 46.379824], [7.628193, 46.379772], [7.628168, 46.379803], [7.628143, 46.379785], [7.628183, 46.379722], [7.628157, 46.379774], [7.62812, 46.379754], [7.628093, 46.379802], [7.62811, 46.379842], [7.628118, 46.379816], [7.628189, 46.379826], [7.628219, 46.379798], [7.628178, 46.379769], [7.628165, 46.379658], [7.628132, 46.379706], [7.628172, 46.379738], [7.628123, 46.379686], [7.628156, 46.379703], [7.628123, 46.379779], [7.628122, 46.379737], [7.628216, 46.379846], [7.628176, 46.379812], [7.628186, 46.379833], [7.62814, 46.379824], [7.628213, 46.379822], [7.628177, 46.379825], [7.628151, 46.379765], [7.628137, 46.379786], [7.628182, 46.37983], [7.628182, 46.379798], [7.628168, 46.379815], [7.628119, 46.379756], [7.628117, 46.379779], [7.62815, 46.379842], [7.62818, 46.379818], [7.62816, 46.379785], [7.628205, 46.379817], [7.62822, 46.379844], [7.628192, 46.379827], [7.628149, 46.37985], [7.628188, 46.379844], [7.628225, 46.379893], [7.628151, 46.3798], [7.628145, 46.379766], [7.62817, 46.379828], [7.628191, 46.379823], [7.628167, 46.379802], [7.628185, 46.37975], [7.62816, 46.379778], [7.62819, 46.379783], [7.628198, 46.379763], [7.62817, 46.379719], [7.628186, 46.379804], [7.628176, 46.379741], [7.628169, 46.379771], [7.628219, 46.379781], [7.628167, 46.379791], [7.628178, 46.379714], [7.628152, 46.379825], [7.628134, 46.379748], [7.628113, 46.379725], [7.628118, 46.379777], [7.628115, 46.379747], [7.628088, 46.379748], [7.628144, 46.379808], [7.628137, 46.37976], [7.628147, 46.379812], [7.628148, 46.379727], [7.628175, 46.379779], [7.62817, 46.379747], [7.628146, 46.379796], [7.628151, 46.37972], [7.628144, 46.379827], [7.628172, 46.379735], [7.628229, 46.379785], [7.628214, 46.379664], [7.628185, 46.379682], [7.628172, 46.379821], [7.628195, 46.379847], [7.628208, 46.379834], [7.628196, 46.379848], [7.628192, 46.379823], [7.628122, 46.379811], [7.628185, 46.379852], [7.628158, 46.379695], [7.628191, 46.379815], [7.628155, 46.379825], [7.628137, 46.379789], [7.628142, 46.379731], [7.628186, 46.379792], [7.628187, 46.379732], [7.62821, 46.379813], [7.628188, 46.379837], [7.628108, 46.379731], [7.628172, 46.379742], [7.628182, 46.379767], [7.628143, 46.379797], [7.628146, 46.379761], [7.628163, 46.37978], [7.62814, 46.379761], [7.628142, 46.379791], [7.628124, 46.379766], [7.628137, 46.379782], [7.62815, 46.379749], [7.62821, 46.3798], [7.628144, 46.379749], [7.628124, 46.379762], [7.628167, 46.379786], [7.628137, 46.379776], [7.628129, 46.379809], [7.628165, 46.37977], [7.628143, 46.379731], [7.628165, 46.379777], [7.628151, 46.379765], [7.628129, 46.379799], [7.628122, 46.379777], [7.628149, 46.379795], [7.628175, 46.379775], [7.628217, 46.379805], [7.628152, 46.379808], [7.628138, 46.379709], [7.628167, 46.379763], [7.628127, 46.379828], [7.628149, 46.37983], [7.62815, 46.379792], [7.628179, 46.379839], [7.628153, 46.379764], [7.628155, 46.379787], [7.628122, 46.379767], [7.628168, 46.379855], [7.628139, 46.379823], [7.628128, 46.379841], [7.628153, 46.37982]]}, "properties": {"name": "1786552974.Leukerbad_in_search_of_Eclipse_no_chance", "cmt": "2026-08-12", "tstamp": 1786492800, "desc": "---", "src": "7.622631/46.378849/7.632537/46.384278", "bbox": "7.622631/46.378849/7.632537/46.384278"}}]}