{"type": "FeatureCollection", "name": "TrackSet", "crs": {"type": "name", "properties": {"name": "urn:ogc:def:crs:OGC:1.3:CRS84"}}, "bbox": [7.342689, 45.93919, 7.380776, 46.002999], "features": [{"type": "Feature", "bbox": [7.342689, 45.93919, 7.380776, 46.002999], "geometry": {"type": "LineString", "coordinates": [[7.380749, 45.93919], [7.380754, 45.939215], [7.380776, 45.939202], [7.380753, 45.939192], [7.380768, 45.939236], [7.380743, 45.939239], [7.380737, 45.939213], [7.380716, 45.93923], [7.380694, 45.9392], [7.38069, 45.939233], [7.380697, 45.93921], [7.38063, 45.93922], [7.380521, 45.939351], [7.380433, 45.939383], [7.380395, 45.939455], [7.380407, 45.939567], [7.380559, 45.939795], [7.380482, 45.939826], [7.380435, 45.939806], [7.380414, 45.939702], [7.380302, 45.939731], [7.380316, 45.939684], [7.380272, 45.9396], [7.380223, 45.9396], [7.379956, 45.939808], [7.379882, 45.939917], [7.37966, 45.940005], [7.379453, 45.940189], [7.379254, 45.940227], [7.379231, 45.94028], [7.379345, 45.940536], [7.379225, 45.940772], [7.379176, 45.940835], [7.378959, 45.94089], [7.378811, 45.941019], [7.378565, 45.941067], [7.378491, 45.941058], [7.37833, 45.940979], [7.378103, 45.940781], [7.377556, 45.940667], [7.37741, 45.940664], [7.377233, 45.940723], [7.377074, 45.940816], [7.376982, 45.940919], [7.376979, 45.94097], [7.377001, 45.94096], [7.377, 45.940932], [7.376975, 45.940939], [7.377007, 45.940923], [7.376975, 45.941018], [7.376992, 45.94118], [7.377024, 45.941208], [7.376986, 45.941182], [7.376901, 45.941331], [7.376895, 45.941467], [7.376856, 45.941504], [7.376908, 45.941567], [7.376858, 45.941582], [7.376858, 45.941636], [7.376801, 45.941639], [7.37672, 45.941721], [7.376389, 45.941887], [7.376299, 45.941965], [7.376337, 45.942115], [7.37634, 45.942393], [7.376294, 45.942614], [7.376335, 45.942653], [7.376305, 45.942775], [7.376257, 45.942835], [7.376272, 45.942892], [7.376122, 45.943009], [7.376016, 45.943038], [7.37601, 45.943125], [7.375898, 45.943202], [7.375787, 45.943331], [7.37573, 45.943262], [7.375614, 45.943279], [7.375523, 45.943443], [7.375592, 45.943647], [7.375473, 45.943747], [7.37553, 45.943841], [7.375359, 45.944033], [7.375323, 45.944183], [7.375213, 45.944326], [7.375246, 45.944332], [7.375226, 45.944142], [7.375276, 45.94408], [7.375208, 45.944073], [7.375131, 45.944169], [7.375059, 45.944208], [7.375039, 45.944242], [7.375069, 45.944272], [7.375039, 45.944307], [7.37493, 45.944354], [7.374851, 45.944467], [7.374813, 45.944416], [7.374815, 45.944287], [7.374854, 45.944266], [7.374814, 45.944169], [7.374769, 45.944156], [7.374809, 45.943996], [7.37487, 45.943943], [7.37481, 45.943896], [7.374778, 45.943942], [7.374675, 45.943927], [7.374636, 45.943951], [7.374465, 45.944118], [7.374466, 45.94416], [7.374382, 45.944193], [7.37437, 45.944221], [7.374312, 45.94421], [7.374283, 45.94429], [7.374224, 45.944295], [7.374132, 45.944366], [7.374038, 45.944368], [7.373994, 45.944392], [7.373988, 45.944341], [7.374066, 45.944268], [7.374033, 45.944147], [7.374081, 45.944062], [7.374051, 45.943941], [7.37401, 45.943897], [7.374029, 45.943856], [7.373988, 45.943802], [7.374, 45.943732], [7.373874, 45.943562], [7.373762, 45.943503], [7.373601, 45.943466], [7.373547, 45.943337], [7.373617, 45.943217], [7.373556, 45.943167], [7.373608, 45.9431], [7.373579, 45.943029], [7.37351, 45.942988], [7.373467, 45.9429], [7.373395, 45.942856], [7.373349, 45.942753], [7.37324, 45.942678], [7.373149, 45.942567], [7.373112, 45.942455], [7.373062, 45.942434], [7.372969, 45.942441], [7.372876, 45.942399], [7.372928, 45.942298], [7.372926, 45.942211], [7.372896, 45.942193], [7.372906, 45.942152], [7.372837, 45.942103], [7.37278, 45.942111], [7.372692, 45.94218], [7.372601, 45.942196], [7.372463, 45.9423], [7.37247, 45.942336], [7.372423, 45.942299], [7.372454, 45.942132], [7.372422, 45.942102], [7.372412, 45.942133], [7.372415, 45.942095], [7.372479, 45.941992], [7.372441, 45.941914], [7.372535, 45.941886], [7.372551, 45.941819], [7.372476, 45.94173], [7.372478, 45.94161], [7.372444, 45.941554], [7.372483, 45.941501], [7.37247, 45.941382], [7.37252, 45.941307], [7.372517, 45.941232], [7.372411, 45.94108], [7.372381, 45.940953], [7.37234, 45.94093], [7.37228, 45.940951], [7.3721, 45.940899], [7.371983, 45.940822], [7.37184, 45.940855], [7.371689, 45.940832], [7.371666, 45.940792], [7.371594, 45.940778], [7.371524, 45.940811], [7.371442, 45.940778], [7.37131, 45.940794], [7.371219, 45.940737], [7.37106, 45.940744], [7.370877, 45.940698], [7.370817, 45.940708], [7.370742, 45.940642], [7.370725, 45.940677], [7.370823, 45.940818], [7.370706, 45.940825], [7.370637, 45.9408], [7.370618, 45.94075], [7.370558, 45.940759], [7.37061, 45.940944], [7.370504, 45.940883], [7.370376, 45.940861], [7.370205, 45.940757], [7.370052, 45.940715], [7.370143, 45.940911], [7.370144, 45.941011], [7.370206, 45.94105], [7.370212, 45.94112], [7.370283, 45.941185], [7.370267, 45.941201], [7.370174, 45.941129], [7.369997, 45.941117], [7.369882, 45.941046], [7.369839, 45.941054], [7.369845, 45.941279], [7.369803, 45.941391], [7.369857, 45.941471], [7.369902, 45.941485], [7.369835, 45.941489], [7.369634, 45.941381], [7.369587, 45.941313], [7.369519, 45.941304], [7.369417, 45.941383], [7.369412, 45.941438], [7.369585, 45.941564], [7.369794, 45.941789], [7.369825, 45.941974], [7.369795, 45.94197], [7.369926, 45.942179], [7.36989, 45.942185], [7.369854, 45.942256], [7.369883, 45.942369], [7.369844, 45.942443], [7.36963, 45.94263], [7.369562, 45.942588], [7.369505, 45.942664], [7.369401, 45.942477], [7.369359, 45.942568], [7.369276, 45.942618], [7.369196, 45.942816], [7.369132, 45.942866], [7.369027, 45.94287], [7.369012, 45.942909], [7.368885, 45.942963], [7.368777, 45.942957], [7.368864, 45.942894], [7.368791, 45.942876], [7.368797, 45.942755], [7.368706, 45.942801], [7.368638, 45.9428], [7.36862, 45.942842], [7.368577, 45.942858], [7.36846, 45.942851], [7.36834, 45.942936], [7.368205, 45.942925], [7.368186, 45.942944], [7.367986, 45.942957], [7.367877, 45.943], [7.367872, 45.94306], [7.367924, 45.943079], [7.367913, 45.943031], [7.367893, 45.943015], [7.367872, 45.943031], [7.367941, 45.943039], [7.367888, 45.943038], [7.367902, 45.94305], [7.367813, 45.943079], [7.367755, 45.943151], [7.367764, 45.943234], [7.367707, 45.943306], [7.367495, 45.943425], [7.367518, 45.943581], [7.367429, 45.943748], [7.36742, 45.943842], [7.367503, 45.944046], [7.367499, 45.944103], [7.367451, 45.944099], [7.367366, 45.943996], [7.367267, 45.943745], [7.366998, 45.943422], [7.3669, 45.943414], [7.366484, 45.94353], [7.366532, 45.943574]]}, "properties": {"name": "1786422080.Chanrion_refuge_via_higher_rte_Mauvoisin", "cmt": "2026-08-11", "tstamp": 1786406400, "desc": "DownHill", "src": "7.342689/45.93919/7.380776/46.002999", "bbox": "7.342689/45.93919/7.380776/46.002999"}}, {"type": "Feature", "bbox": [7.342689, 45.93919, 7.380776, 46.002999], "geometry": {"type": "LineString", "coordinates": [[7.366522, 45.94358], [7.366414, 45.943511], [7.366414, 45.943471], [7.366331, 45.943391], [7.36633, 45.943358], [7.366429, 45.943282], [7.366439, 45.943238], [7.366402, 45.943221], [7.366367, 45.943243], [7.366264, 45.943212], [7.366292, 45.943188], [7.36636, 45.943188], [7.366394, 45.943116], [7.36633, 45.943109], [7.366304, 45.943128], [7.366245, 45.943055], [7.366324, 45.942964], [7.366305, 45.942899], [7.366345, 45.942862], [7.366331, 45.942793], [7.366371, 45.942694], [7.366283, 45.942573], [7.366289, 45.94249], [7.366246, 45.942488], [7.366239, 45.942438], [7.366155, 45.94236], [7.366145, 45.942299], [7.366038, 45.942273], [7.365787, 45.942335], [7.365495, 45.942318], [7.365367, 45.942291], [7.365358, 45.942236], [7.365322, 45.942214], [7.365185, 45.942215], [7.365184, 45.942181], [7.365073, 45.942103], [7.36502, 45.941923], [7.364928, 45.941866], [7.364894, 45.941738], [7.364777, 45.941614], [7.364785, 45.941552], [7.364716, 45.941525], [7.36468, 45.941452], [7.364695, 45.941412], [7.364648, 45.941383], [7.364372, 45.941473], [7.364269, 45.941428], [7.364145, 45.941433], [7.364007, 45.941504], [7.364001, 45.941551], [7.36394, 45.941614], [7.363595, 45.941662], [7.363524, 45.941723], [7.363266, 45.941767], [7.363018, 45.941894], [7.362971, 45.941863], [7.362849, 45.941973], [7.362835, 45.941959], [7.362663, 45.942053], [7.362585, 45.942061], [7.362579, 45.942105], [7.362503, 45.942096], [7.362364, 45.942157], [7.362345, 45.942192], [7.362175, 45.942228], [7.362124, 45.942295], [7.36214, 45.942346], [7.362006, 45.94241], [7.361947, 45.942486], [7.361965, 45.942505], [7.361944, 45.94248], [7.361947, 45.94252], [7.361861, 45.94261], [7.36187, 45.942665], [7.361805, 45.942686], [7.361767, 45.942893], [7.361705, 45.942967], [7.361629, 45.942944], [7.361591, 45.942871], [7.361492, 45.942877], [7.361541, 45.942857], [7.361533, 45.942826], [7.361483, 45.942808], [7.361463, 45.942833], [7.361451, 45.942771], [7.361394, 45.942781], [7.361393, 45.942816], [7.361336, 45.942818], [7.361333, 45.942841], [7.361342, 45.942824], [7.361388, 45.942848], [7.361364, 45.942813], [7.361311, 45.942819], [7.361396, 45.942669], [7.36131, 45.942608], [7.3613, 45.942629], [7.361162, 45.942609], [7.361148, 45.9427], [7.360939, 45.942733], [7.360895, 45.942716], [7.360928, 45.942706], [7.360902, 45.942681], [7.360748, 45.942673], [7.360611, 45.942618], [7.360591, 45.942574], [7.360677, 45.942573], [7.360708, 45.94255], [7.360582, 45.942492], [7.360608, 45.942473], [7.36055, 45.942505], [7.360694, 45.942453], [7.360717, 45.942422], [7.360599, 45.942381], [7.360574, 45.942321], [7.360524, 45.942333], [7.36045, 45.942255], [7.360324, 45.942201], [7.360403, 45.942186], [7.360459, 45.942124], [7.360538, 45.942126], [7.360539, 45.942098], [7.360487, 45.942079], [7.360536, 45.942047], [7.360634, 45.942068], [7.360674, 45.942024], [7.360581, 45.941997], [7.360464, 45.94186], [7.360487, 45.941762], [7.360375, 45.941585], [7.360411, 45.94151], [7.36039, 45.941434], [7.360527, 45.941259], [7.360521, 45.941228], [7.360456, 45.941186], [7.360402, 45.941019], [7.360418, 45.940979], [7.360369, 45.940943], [7.360327, 45.940944], [7.360302, 45.940868], [7.360225, 45.940794], [7.360192, 45.940653], [7.360235, 45.940617], [7.360229, 45.940586], [7.360165, 45.940577], [7.360122, 45.940527], [7.360132, 45.940466], [7.360216, 45.940495], [7.360281, 45.940489], [7.360391, 45.940439], [7.360404, 45.940394], [7.360369, 45.940373], [7.360324, 45.940389], [7.360263, 45.940373], [7.360257, 45.940263], [7.360193, 45.940248], [7.360108, 45.940173], [7.360193, 45.940179], [7.360157, 45.940076], [7.360196, 45.940042], [7.360164, 45.939909], [7.360063, 45.939856], [7.360056, 45.939748], [7.359936, 45.939706], [7.359712, 45.939856], [7.359462, 45.939884], [7.359377, 45.939976], [7.359268, 45.940013], [7.359244, 45.940098], [7.359234, 45.940065], [7.359158, 45.940042], [7.3591, 45.940117], [7.359146, 45.940121], [7.359094, 45.940211], [7.359021, 45.94025], [7.358888, 45.940479], [7.358846, 45.940504], [7.358677, 45.940528], [7.358555, 45.940518], [7.358481, 45.940571], [7.358488, 45.940553], [7.358424, 45.940553], [7.358291, 45.940614], [7.358207, 45.940608], [7.358159, 45.940641], [7.358099, 45.940547], [7.358124, 45.940456], [7.358056, 45.940448], [7.357968, 45.940608], [7.357966, 45.940718], [7.357866, 45.940837], [7.357878, 45.940905], [7.357856, 45.940925], [7.357846, 45.940903], [7.357874, 45.940931], [7.357717, 45.941018], [7.357674, 45.940976], [7.357529, 45.941058], [7.357481, 45.941049], [7.357503, 45.941086], [7.357464, 45.941071], [7.35747, 45.941091], [7.357509, 45.941101], [7.357465, 45.941066], [7.357435, 45.9411], [7.357325, 45.941131], [7.357276, 45.941207], [7.357178, 45.94125], [7.357159, 45.941283], [7.357002, 45.941318], [7.357033, 45.941319], [7.356915, 45.941431], [7.356709, 45.941563], [7.356631, 45.941649], [7.356476, 45.941729], [7.356371, 45.941879], [7.356234, 45.94197], [7.356123, 45.942117], [7.356092, 45.942108], [7.356111, 45.94213], [7.355965, 45.94216], [7.355951, 45.942262], [7.355775, 45.942404], [7.355738, 45.942649], [7.355457, 45.94277], [7.355461, 45.942805], [7.35528, 45.942928], [7.355295, 45.942951], [7.355293, 45.942929], [7.355225, 45.942966], [7.355248, 45.942975], [7.355211, 45.942966], [7.355161, 45.943001], [7.355107, 45.942994], [7.354982, 45.943051], [7.354815, 45.943072], [7.354617, 45.943189], [7.35443, 45.943184], [7.354334, 45.943217], [7.354226, 45.943335], [7.354197, 45.94341], [7.354197, 45.943374], [7.354161, 45.943375], [7.354074, 45.943433], [7.353964, 45.943434], [7.35381, 45.943543], [7.353646, 45.943576], [7.353497, 45.943696], [7.353266, 45.943756], [7.353225, 45.943819], [7.353117, 45.943899], [7.353068, 45.943907], [7.353046, 45.943943], [7.352879, 45.943976], [7.35286, 45.944011], [7.352809, 45.944008], [7.35281, 45.944095], [7.352696, 45.944191], [7.352596, 45.944211], [7.352448, 45.944373], [7.352371, 45.944532], [7.352266, 45.944576], [7.352257, 45.944618], [7.352123, 45.944739], [7.352096, 45.944815], [7.352021, 45.944863], [7.352018, 45.944895], [7.351934, 45.944904], [7.351967, 45.944875], [7.351929, 45.944741], [7.352032, 45.944564], [7.351874, 45.944606], [7.351861, 45.944655], [7.35174, 45.94472], [7.351722, 45.944789], [7.35156, 45.944904], [7.351537, 45.944898], [7.351461, 45.944998], [7.351397, 45.945006], [7.351334, 45.945048], [7.351288, 45.94512], [7.351109, 45.945255], [7.350989, 45.945319], [7.350891, 45.945325], [7.350812, 45.945396], [7.350733, 45.945384], [7.350685, 45.945475], [7.350646, 45.945471], [7.350518, 45.945535], [7.350386, 45.945642], [7.350325, 45.945662], [7.350136, 45.945839], [7.349992, 45.945893], [7.349895, 45.946012], [7.349619, 45.946114], [7.349518, 45.946217], [7.3495, 45.9463], [7.34944, 45.946331], [7.349378, 45.946461], [7.34928, 45.946519], [7.349244, 45.946576], [7.34924, 45.946553], [7.349265, 45.94656], [7.349254, 45.946584], [7.349283, 45.946544], [7.349245, 45.946545], [7.349151, 45.946649], [7.348932, 45.946776], [7.34891, 45.946756], [7.348937, 45.946768], [7.348908, 45.946766], [7.348882, 45.946831], [7.348825, 45.94686], [7.348821, 45.946967], [7.348771, 45.947061], [7.348697, 45.947061], [7.348603, 45.947118], [7.348507, 45.947216], [7.348515, 45.947261], [7.348476, 45.947319], [7.348406, 45.947323], [7.348321, 45.94737], [7.348269, 45.947421], [7.348279, 45.947448], [7.348137, 45.9475], [7.348054, 45.947562], [7.348057, 45.947625], [7.347986, 45.947745], [7.348027, 45.947952], [7.348121, 45.948173], [7.348103, 45.948216], [7.348121, 45.948296], [7.348138, 45.948252], [7.348113, 45.948248], [7.348127, 45.948267], [7.348108, 45.94825], [7.348147, 45.948431], [7.348286, 45.948726], [7.348237, 45.94884], [7.348266, 45.949033], [7.34811, 45.948996], [7.3481, 45.948968], [7.348009, 45.948943], [7.347953, 45.948952], [7.347896, 45.948915], [7.347633, 45.948894], [7.347371, 45.948902], [7.346972, 45.948806], [7.346718, 45.948785], [7.346353, 45.94883], [7.346081, 45.948938], [7.345905, 45.948893], [7.34575, 45.948963], [7.345717, 45.948931], [7.345636, 45.948934], [7.345526, 45.949], [7.345464, 45.94898], [7.345287, 45.949028], [7.345454, 45.949248], [7.345567, 45.949257], [7.345731, 45.949322], [7.345815, 45.949325], [7.345874, 45.949421], [7.346097, 45.94945], [7.346154, 45.949433], [7.346318, 45.949479], [7.346582, 45.949704], [7.346681, 45.949738], [7.346786, 45.949818], [7.346882, 45.949943], [7.347017, 45.950036], [7.34702, 45.950072], [7.346852, 45.950145], [7.346797, 45.95022], [7.346877, 45.950326], [7.346901, 45.950478], [7.346976, 45.950575], [7.347008, 45.950706], [7.34656, 45.950813], [7.346527, 45.950876], [7.346433, 45.950928], [7.346322, 45.950953], [7.346147, 45.951093], [7.346144, 45.951172], [7.346062, 45.951213], [7.346129, 45.951426], [7.346055, 45.951413], [7.346, 45.951437], [7.345831, 45.951407], [7.345731, 45.951432], [7.345466, 45.951408], [7.345377, 45.951425], [7.345402, 45.951437], [7.345339, 45.951486], [7.345357, 45.951512], [7.345249, 45.951529], [7.345202, 45.951595], [7.34532, 45.95203], [7.345401, 45.952098], [7.345484, 45.952115], [7.345607, 45.952185], [7.345651, 45.952233], [7.345943, 45.952321], [7.346081, 45.952445], [7.34615, 45.952473], [7.346472, 45.952816], [7.346581, 45.95285], [7.346616, 45.952894], [7.346618, 45.953012], [7.346585, 45.953048], [7.346369, 45.953131], [7.346315, 45.953201], [7.346266, 45.95322], [7.346188, 45.953328], [7.346227, 45.953382], [7.346218, 45.953425], [7.346136, 45.953499], [7.346065, 45.953625], [7.346036, 45.95376], [7.346053, 45.953838], [7.345969, 45.954133], [7.345872, 45.954289], [7.345892, 45.95444], [7.345847, 45.954563], [7.345908, 45.954722], [7.345853, 45.954867], [7.34589, 45.954969], [7.345845, 45.955197], [7.34572, 45.955374], [7.345485, 45.955531], [7.345379, 45.955638], [7.345229, 45.955682], [7.345201, 45.955726], [7.345103, 45.955734], [7.345093, 45.955764], [7.344961, 45.955782], [7.344889, 45.95584], [7.344928, 45.955928], [7.344892, 45.956006], [7.344727, 45.956178], [7.344613, 45.95622], [7.344527, 45.956377], [7.344536, 45.956468], [7.344599, 45.956523], [7.344566, 45.956582], [7.3446, 45.956711], [7.344465, 45.956993], [7.344496, 45.957047], [7.344465, 45.957123], [7.344493, 45.957138], [7.344402, 45.957223], [7.344355, 45.957346], [7.34402, 45.957701], [7.344032, 45.957774], [7.343801, 45.95808], [7.343842, 45.958171], [7.343793, 45.958229], [7.343802, 45.958288], [7.343694, 45.958253], [7.343585, 45.958269], [7.343476, 45.958415], [7.343375, 45.958463], [7.343353, 45.958533], [7.343297, 45.958535], [7.343222, 45.95859], [7.343206, 45.958571], [7.343207, 45.958632], [7.343265, 45.958696], [7.343255, 45.958774], [7.343176, 45.958906], [7.343104, 45.958959], [7.343126, 45.959048], [7.343096, 45.959083], [7.343136, 45.959249], [7.343137, 45.959335], [7.343099, 45.959374], [7.343108, 45.959468], [7.343207, 45.959751], [7.343182, 45.959759], [7.343186, 45.959874], [7.343256, 45.959963], [7.343221, 45.960126], [7.343281, 45.960205], [7.343241, 45.960266], [7.343257, 45.96033], [7.34321, 45.960352], [7.343226, 45.960397], [7.34327, 45.9604], [7.343368, 45.960468], [7.34338, 45.960553], [7.343433, 45.960619], [7.343375, 45.960654], [7.343372, 45.960691], [7.343432, 45.960728], [7.343453, 45.960762], [7.343432, 45.960798], [7.343476, 45.960848]]}, "properties": {"name": "1786422080.Chanrion_refuge_via_higher_rte_Mauvoisin", "cmt": "2026-08-11", "tstamp": 1786406400, "desc": "UpHill", "src": "7.342689/45.93919/7.380776/46.002999", "bbox": "7.342689/45.93919/7.380776/46.002999"}}, {"type": "Feature", "bbox": [7.342689, 45.93919, 7.380776, 46.002999], "geometry": {"type": "LineString", "coordinates": [[7.343469, 45.960848], [7.343311, 45.961074], [7.343324, 45.961203], [7.343512, 45.961254], [7.343584, 45.961388], [7.343649, 45.961406], [7.343609, 45.961432], [7.343574, 45.961412], [7.343635, 45.961443], [7.343718, 45.961444], [7.343715, 45.96149], [7.343758, 45.961489], [7.343745, 45.96152], [7.343794, 45.961532], [7.343785, 45.961574], [7.343853, 45.961592], [7.343899, 45.96158], [7.344016, 45.961643], [7.344009, 45.9618], [7.344259, 45.961895], [7.344311, 45.961957], [7.344301, 45.961992], [7.34433, 45.961993], [7.344296, 45.962135], [7.344314, 45.962192], [7.344272, 45.962245], [7.344335, 45.962319], [7.34444, 45.96236], [7.344461, 45.962641], [7.344437, 45.962679], [7.344507, 45.962729], [7.344534, 45.962807], [7.34449, 45.96287], [7.344519, 45.962915], [7.344501, 45.962948], [7.344613, 45.963054], [7.344584, 45.963131], [7.344598, 45.963224], [7.34476, 45.963477], [7.344718, 45.963562], [7.344779, 45.963697], [7.344739, 45.963846], [7.344762, 45.963874], [7.344713, 45.963946], [7.344664, 45.963965], [7.344667, 45.96402], [7.344764, 45.964121], [7.344764, 45.964318], [7.344812, 45.964414], [7.344898, 45.96446], [7.344893, 45.964606], [7.344953, 45.964745], [7.345009, 45.964794], [7.344981, 45.964994], [7.345065, 45.965102], [7.345062, 45.965226], [7.345125, 45.965272], [7.345194, 45.965402], [7.345184, 45.965477], [7.345215, 45.965543], [7.345174, 45.965632], [7.345238, 45.965769], [7.345183, 45.965852], [7.345192, 45.965964], [7.345239, 45.96603], [7.345245, 45.966104], [7.345336, 45.966201], [7.345401, 45.966332], [7.34538, 45.966575], [7.345453, 45.966705], [7.345426, 45.967018], [7.345355, 45.967125], [7.345295, 45.967152], [7.345304, 45.967232], [7.345272, 45.967287], [7.345345, 45.967541], [7.345308, 45.967627], [7.345335, 45.96766], [7.345279, 45.967708], [7.345288, 45.967786], [7.345238, 45.967841], [7.345286, 45.967927], [7.345264, 45.967978], [7.345305, 45.968018], [7.345312, 45.968128], [7.345361, 45.968175], [7.345342, 45.968256], [7.345372, 45.968379], [7.345334, 45.968616], [7.345303, 45.968648], [7.345296, 45.968898], [7.345251, 45.968937], [7.345267, 45.968987], [7.345298, 45.968936], [7.345297, 45.969023], [7.345208, 45.969126], [7.345194, 45.969194], [7.345084, 45.969295], [7.345108, 45.969316], [7.345086, 45.969402], [7.344981, 45.969532], [7.345008, 45.969619], [7.344983, 45.9697], [7.344886, 45.969817], [7.344936, 45.96989], [7.34488, 45.969948], [7.344897, 45.96999], [7.344815, 45.970079], [7.344817, 45.970153], [7.344856, 45.970178], [7.34484, 45.970397], [7.344948, 45.970469], [7.344897, 45.970572], [7.344975, 45.970742], [7.344977, 45.970882], [7.344918, 45.970941], [7.344794, 45.970943], [7.34471, 45.970993], [7.344791, 45.971103], [7.344798, 45.971184], [7.344757, 45.971233], [7.344861, 45.971339], [7.344884, 45.971618], [7.344929, 45.971699], [7.34492, 45.97188], [7.344832, 45.972056], [7.344876, 45.972096], [7.344868, 45.972142], [7.345006, 45.972273], [7.345026, 45.972406], [7.344904, 45.972534], [7.34481, 45.972718], [7.344671, 45.972839], [7.344574, 45.972999], [7.344546, 45.973157], [7.3445, 45.973173], [7.344445, 45.973284], [7.344147, 45.973418], [7.343966, 45.973627], [7.343913, 45.973796], [7.343917, 45.973896], [7.344025, 45.974037], [7.344117, 45.974099], [7.344126, 45.974189], [7.34433, 45.974419], [7.344246, 45.974681], [7.344176, 45.97474], [7.344089, 45.974889], [7.343968, 45.974947], [7.343941, 45.975065], [7.343793, 45.975152], [7.343731, 45.975289], [7.343733, 45.975358], [7.343697, 45.975391], [7.343699, 45.975446], [7.343741, 45.975487], [7.343736, 45.97561], [7.343711, 45.975629], [7.343737, 45.975741], [7.343951, 45.975685], [7.343946, 45.975744], [7.343997, 45.975755], [7.344161, 45.975641], [7.34414, 45.975871], [7.344195, 45.975911], [7.344183, 45.976027], [7.344262, 45.976077], [7.344429, 45.976263], [7.344421, 45.976353], [7.344499, 45.976428], [7.344499, 45.976485], [7.344628, 45.976766], [7.344589, 45.976863], [7.344461, 45.977008], [7.344425, 45.977204], [7.34457, 45.977227], [7.344655, 45.977297], [7.344669, 45.977383], [7.34472, 45.977382], [7.344672, 45.977424], [7.344715, 45.977466], [7.344698, 45.977594], [7.344747, 45.977611], [7.344803, 45.977568], [7.344828, 45.977577], [7.344766, 45.977781], [7.344802, 45.977813], [7.344786, 45.977919], [7.344825, 45.977956], [7.34477, 45.978022], [7.344825, 45.978135], [7.344791, 45.978198], [7.34471, 45.978239], [7.344711, 45.978414], [7.344668, 45.978454], [7.344871, 45.978695], [7.344895, 45.97879], [7.344853, 45.97885], [7.344903, 45.978881], [7.344836, 45.97897], [7.344752, 45.97902], [7.344767, 45.979061], [7.344712, 45.979111], [7.344696, 45.979187], [7.344605, 45.979271], [7.344484, 45.979466], [7.344446, 45.979561], [7.34446, 45.979605], [7.344391, 45.979635], [7.344375, 45.979742], [7.344443, 45.979757], [7.344366, 45.979759], [7.3444, 45.979795], [7.344259, 45.979896], [7.344148, 45.980124], [7.344076, 45.980181], [7.344105, 45.980325], [7.344082, 45.980403], [7.343907, 45.980635], [7.343858, 45.980768], [7.343771, 45.980866], [7.343639, 45.980909], [7.3435, 45.981106], [7.343385, 45.981173], [7.343378, 45.981224], [7.343197, 45.981294], [7.34316, 45.981372], [7.343124, 45.981537], [7.343144, 45.981746], [7.343116, 45.981804], [7.343151, 45.981905], [7.343144, 45.982119], [7.343006, 45.982427], [7.343062, 45.982448], [7.343082, 45.982425], [7.343061, 45.982373], [7.342987, 45.982383], [7.342877, 45.982542], [7.342819, 45.982551], [7.343051, 45.982743], [7.343049, 45.982847], [7.343009, 45.982925], [7.343044, 45.983014], [7.342991, 45.983053], [7.342999, 45.983137], [7.343184, 45.98351], [7.343394, 45.983625], [7.343443, 45.983724], [7.343495, 45.983745], [7.343574, 45.983851], [7.343563, 45.983878], [7.343657, 45.983931], [7.343724, 45.984024], [7.343853, 45.984055], [7.343848, 45.984114], [7.343893, 45.984135], [7.343879, 45.984178], [7.343942, 45.984198], [7.343921, 45.98428], [7.343957, 45.984328], [7.343775, 45.984413], [7.343659, 45.984501], [7.343507, 45.984521], [7.343306, 45.984641], [7.343246, 45.984719], [7.343131, 45.984765], [7.342968, 45.985054], [7.342994, 45.985081], [7.342987, 45.985163], [7.343202, 45.985349], [7.343215, 45.985391], [7.343336, 45.985458], [7.343332, 45.985549], [7.343492, 45.98568], [7.343587, 45.985734], [7.343808, 45.985786], [7.34388, 45.985839], [7.343922, 45.985922], [7.344435, 45.986141], [7.344584, 45.986233], [7.344876, 45.986298], [7.345084, 45.986316], [7.345139, 45.986257], [7.345016, 45.986052], [7.344997, 45.985877], [7.345048, 45.985804], [7.34503, 45.985736], [7.345128, 45.985622], [7.345392, 45.985562], [7.345496, 45.985583], [7.345664, 45.98556], [7.345711, 45.985594], [7.345714, 45.98578], [7.345681, 45.985854], [7.345741, 45.985959], [7.345754, 45.98591], [7.345729, 45.986071], [7.345777, 45.986115], [7.345805, 45.986319], [7.345861, 45.986432], [7.346014, 45.986565], [7.346102, 45.986739], [7.346059, 45.986878], [7.345886, 45.987027], [7.345873, 45.987099], [7.345944, 45.987257], [7.34585, 45.987392], [7.345844, 45.987453], [7.345894, 45.987538], [7.346127, 45.98765], [7.346163, 45.987845], [7.346051, 45.988189], [7.345952, 45.988293], [7.34585, 45.988778], [7.345761, 45.988967], [7.345752, 45.989214], [7.345598, 45.989438], [7.345619, 45.98958], [7.345815, 45.989887], [7.346285, 45.990377], [7.346342, 45.990494], [7.346555, 45.99055], [7.34656, 45.990584], [7.346588, 45.990552], [7.346656, 45.990569], [7.346712, 45.990554], [7.346761, 45.990579], [7.346986, 45.99057], [7.346999, 45.990588], [7.34706, 45.990541], [7.347224, 45.990564], [7.347218, 45.990547], [7.347213, 45.990877], [7.347334, 45.991114], [7.347268, 45.991226], [7.347286, 45.991281], [7.347231, 45.991381], [7.345401, 45.997239], [7.34548, 45.99718], [7.345394, 45.996979], [7.345402, 45.99696], [7.345631, 45.997124], [7.345632, 45.997079], [7.346017, 45.997228], [7.346701, 45.996949], [7.34661, 45.996921], [7.346556, 45.996871], [7.346449, 45.996855], [7.346354, 45.996919], [7.34607, 45.997006], [7.346232, 45.996977], [7.344987, 45.997771], [7.345141, 45.99795], [7.345227, 45.997996], [7.345212, 45.998042], [7.345069, 45.998296], [7.344982, 45.998396], [7.344811, 45.99852], [7.344794, 45.998638], [7.34463, 45.998824], [7.344565, 45.998985], [7.344479, 45.999014], [7.344413, 45.999121], [7.344265, 45.999213], [7.344193, 45.999311], [7.344007, 45.99935], [7.343872, 45.99933], [7.34386, 45.999441], [7.343758, 45.999452], [7.343694, 45.999427], [7.343628, 45.999483], [7.343659, 45.999562], [7.34374, 45.999548], [7.343778, 45.999575], [7.344095, 45.999525], [7.344204, 45.999449], [7.344336, 45.999451], [7.344529, 45.999346], [7.344757, 45.999284], [7.344866, 45.999178], [7.345083, 45.99907], [7.345167, 45.998944], [7.345238, 45.998941], [7.345327, 45.998999], [7.345318, 45.999067], [7.34521, 45.999155], [7.345061, 45.999191], [7.344904, 45.999278], [7.344905, 45.999327], [7.344726, 45.999485], [7.344592, 45.99969], [7.344259, 45.999786], [7.34418, 45.999857], [7.344089, 45.999879], [7.344038, 45.999954], [7.34397, 45.999995], [7.343814, 46.000028], [7.343575, 46.000169], [7.343294, 46.000767], [7.343313, 46.00086], [7.343292, 46.001011], [7.343238, 46.001102], [7.343253, 46.001239], [7.343184, 46.001298], [7.343176, 46.001402], [7.343121, 46.001445], [7.343104, 46.001593], [7.343192, 46.001758], [7.343184, 46.001818], [7.343167, 46.00176], [7.343145, 46.001783], [7.34318, 46.0018], [7.343174, 46.00193], [7.343107, 46.002031], [7.343128, 46.002052], [7.343076, 46.002012], [7.343025, 46.00205], [7.342968, 46.001969], [7.342906, 46.002001], [7.342942, 46.002136], [7.343058, 46.002221], [7.343021, 46.002296], [7.342915, 46.002341], [7.342918, 46.002416]]}, "properties": {"name": "1786422080.Chanrion_refuge_via_higher_rte_Mauvoisin", "cmt": "2026-08-11", "tstamp": 1786406400, "desc": "DownHill", "src": "7.342689/45.93919/7.380776/46.002999", "bbox": "7.342689/45.93919/7.380776/46.002999"}}, {"type": "Feature", "bbox": [7.342689, 45.93919, 7.380776, 46.002999], "geometry": {"type": "LineString", "coordinates": [[7.34294, 46.002407], [7.34296, 46.00239], [7.342963, 46.002431], [7.342908, 46.002627], [7.342689, 46.002894], [7.342727, 46.002936], [7.342864, 46.002958], [7.342912, 46.002999]]}, "properties": {"name": "1786422080.Chanrion_refuge_via_higher_rte_Mauvoisin", "cmt": "2026-08-11", "tstamp": 1786406400, "desc": "UpHill", "src": "7.342689/45.93919/7.380776/46.002999", "bbox": "7.342689/45.93919/7.380776/46.002999"}}]}