{"type": "FeatureCollection", "name": "TrackSet", "crs": {"type": "name", "properties": {"name": "urn:ogc:def:crs:OGC:1.3:CRS84"}}, "bbox": [6.182479, 46.33151, 6.197511, 46.346235], "features": [{"type": "Feature", "bbox": [6.182479, 46.33151, 6.197511, 46.346235], "geometry": {"type": "LineString", "coordinates": [[6.194398, 46.331656], [6.194434, 46.331707], [6.194414, 46.331748], [6.194231, 46.331713], [6.194212, 46.331699], [6.194258, 46.331696], [6.19422, 46.331655], [6.194178, 46.331758], [6.194043, 46.331825], [6.193932, 46.331811], [6.193863, 46.331773], [6.192974, 46.33194], [6.192961, 46.332124], [6.192845, 46.332198], [6.192675, 46.332219], [6.192632, 46.332286], [6.192564, 46.332512], [6.192635, 46.332758], [6.192597, 46.332804], [6.192731, 46.333002], [6.192762, 46.333237], [6.192964, 46.333473], [6.192988, 46.333537], [6.193101, 46.333594], [6.193335, 46.33381], [6.193902, 46.334048], [6.194024, 46.334174], [6.194206, 46.334293], [6.194196, 46.334317], [6.194302, 46.334357], [6.194463, 46.33453], [6.194538, 46.334555], [6.194563, 46.334542], [6.19472, 46.334819], [6.194984, 46.335032], [6.195221, 46.33528], [6.195211, 46.335432], [6.194906, 46.335821], [6.194807, 46.336116], [6.194937, 46.336616], [6.194929, 46.336789], [6.195098, 46.337104], [6.195102, 46.337179], [6.195261, 46.337503], [6.195251, 46.337683], [6.195218, 46.337747], [6.19522, 46.33798], [6.195269, 46.338205], [6.19548, 46.338656], [6.195516, 46.338661], [6.195722, 46.338926], [6.195811, 46.339109], [6.195879, 46.339172], [6.196141, 46.339586], [6.196458, 46.340304], [6.196823, 46.340897], [6.197129, 46.341214], [6.197317, 46.341376], [6.197423, 46.341427], [6.197511, 46.341514], [6.19751, 46.341554], [6.19736, 46.341642], [6.197314, 46.341637], [6.196924, 46.341814], [6.196686, 46.341959], [6.196477, 46.342009], [6.196259, 46.34215], [6.196118, 46.342191], [6.195839, 46.342338], [6.195795, 46.342338], [6.195621, 46.34245], [6.19545, 46.342508], [6.19495, 46.342781], [6.194852, 46.342815], [6.194794, 46.342783], [6.194791, 46.342816], [6.194674, 46.342833], [6.194446, 46.343003], [6.194174, 46.343117], [6.193938, 46.343254], [6.193712, 46.34333], [6.193383, 46.343508], [6.193292, 46.343583], [6.192519, 46.343894], [6.192421, 46.343967], [6.192324, 46.34399], [6.191975, 46.344167], [6.191877, 46.344191], [6.191749, 46.344281], [6.191577, 46.344344], [6.191436, 46.344433], [6.191059, 46.344581], [6.190911, 46.344605], [6.1909, 46.344662], [6.190592, 46.344797], [6.190448, 46.344896], [6.189958, 46.345071], [6.189709, 46.345218], [6.189606, 46.345247], [6.189559, 46.345298], [6.189079, 46.345466], [6.188932, 46.345583], [6.188544, 46.345757], [6.188413, 46.34585], [6.187991, 46.346012], [6.187593, 46.34622], [6.187478, 46.346235], [6.186646, 46.345712], [6.184759, 46.344634], [6.184562, 46.344469], [6.183594, 46.343957], [6.18316, 46.343658], [6.182538, 46.343341], [6.182484, 46.343296], [6.182479, 46.343241], [6.182617, 46.343184], [6.182711, 46.343068], [6.182988, 46.342868], [6.183219, 46.342464], [6.183421, 46.342265], [6.184322, 46.341843], [6.184983, 46.341618], [6.185121, 46.341522], [6.185706, 46.341212], [6.185858, 46.341093], [6.186541, 46.340721], [6.187104, 46.340346], [6.187481, 46.340159], [6.187838, 46.339933], [6.187799, 46.339792], [6.187272, 46.339297], [6.187053, 46.339047], [6.18687, 46.338905], [6.186489, 46.338511], [6.186423, 46.338473], [6.186375, 46.338394], [6.186277, 46.338354], [6.186198, 46.33826], [6.186204, 46.338194], [6.186312, 46.338092], [6.186592, 46.338039], [6.18682, 46.337945], [6.186998, 46.337917], [6.187646, 46.337692], [6.18807, 46.337581], [6.188551, 46.337396], [6.189188, 46.337205], [6.189446, 46.337092], [6.189715, 46.337023], [6.190134, 46.336831], [6.190605, 46.336708], [6.190714, 46.336658], [6.191104, 46.33655], [6.19159, 46.336564], [6.191683, 46.336509], [6.191648, 46.336351], [6.191562, 46.336283], [6.191511, 46.336099], [6.191372, 46.33589], [6.191261, 46.335608], [6.191011, 46.335236], [6.190914, 46.33498], [6.190842, 46.334909], [6.190798, 46.334789], [6.190437, 46.334186], [6.190328, 46.333919], [6.190229, 46.333755], [6.19015, 46.333691], [6.190116, 46.333585], [6.189956, 46.333344], [6.189948, 46.333257], [6.190034, 46.333206], [6.190603, 46.33314], [6.190709, 46.333132], [6.190754, 46.333152], [6.190929, 46.333132], [6.190977, 46.333094], [6.191093, 46.333092], [6.191359, 46.333029], [6.191876, 46.332986], [6.192002, 46.332997], [6.19213, 46.332935], [6.192244, 46.33294], [6.192525, 46.332857], [6.192648, 46.332855], [6.192707, 46.332751], [6.192666, 46.332537], [6.192576, 46.332428], [6.192635, 46.3324], [6.192714, 46.332244], [6.192979, 46.332044], [6.193012, 46.33197], [6.193762, 46.331818], [6.19402, 46.331851], [6.194263, 46.331823], [6.194311, 46.331796], [6.194322, 46.331719], [6.194341, 46.331738], [6.194331, 46.331691], [6.194337, 46.331812], [6.194294, 46.331743], [6.194253, 46.331794], [6.194277, 46.33179], [6.194288, 46.331722], [6.194411, 46.331737], [6.19449, 46.331667], [6.194472, 46.331641], [6.194439, 46.331644], [6.194428, 46.331561], [6.194381, 46.331559], [6.194304, 46.331598], [6.194245, 46.331562], [6.194249, 46.331535], [6.194226, 46.331552], [6.194279, 46.331597], [6.194297, 46.331696], [6.194353, 46.331721], [6.194373, 46.331769], [6.194377, 46.331675], [6.194439, 46.331565], [6.194363, 46.33151], [6.19429, 46.331561], [6.194386, 46.331576], [6.194401, 46.331654], [6.194481, 46.331707], [6.194401, 46.331779], [6.194369, 46.331765], [6.194341, 46.331791], [6.194289, 46.331736], [6.194301, 46.331802], [6.194238, 46.331793], [6.19417, 46.331843], [6.194139, 46.331822], [6.193989, 46.331822], [6.193881, 46.331775], [6.193687, 46.331785], [6.193392, 46.331883], [6.19299, 46.331936], [6.192908, 46.33206], [6.192846, 46.332072], [6.192729, 46.332186], [6.192619, 46.332235], [6.192514, 46.332383], [6.192596, 46.33256], [6.192612, 46.332673], [6.19275, 46.332813], [6.192878, 46.332834], [6.192988, 46.332564], [6.193056, 46.332506], [6.192939, 46.332593], [6.19258, 46.332719], [6.19265, 46.332749], [6.192544, 46.332725], [6.192636, 46.332725], [6.192746, 46.332686], [6.192805, 46.332704], [6.192812, 46.332688], [6.19281, 46.332644], [6.192685, 46.332651], [6.192619, 46.332723], [6.1926, 46.332709], [6.192641, 46.332569], [6.192584, 46.332496], [6.19267, 46.332481], [6.192686, 46.332465], [6.192652, 46.332457], [6.192681, 46.332435], [6.192716, 46.332455], [6.192699, 46.332274], [6.19276, 46.332243], [6.19281, 46.332164], [6.192995, 46.332049], [6.193094, 46.331926], [6.193257, 46.331933], [6.193404, 46.331888], [6.193617, 46.331868], [6.193723, 46.331806], [6.193825, 46.331798], [6.194038, 46.331865], [6.194257, 46.331878], [6.194302, 46.33179], [6.194379, 46.33179], [6.194388, 46.331731], [6.194428, 46.331755], [6.194417, 46.33164], [6.194474, 46.331646], [6.194461, 46.331687], [6.194423, 46.331681], [6.194408, 46.331648], [6.194428, 46.331626], [6.194403, 46.331605], [6.194457, 46.331553], [6.194341, 46.331559], [6.194314, 46.331569], [6.194388, 46.331837], [6.194326, 46.33168], [6.194359, 46.331569], [6.19441, 46.331598], [6.194421, 46.331669], [6.194473, 46.331717], [6.194405, 46.331722], [6.194345, 46.331789], [6.194384, 46.331713], [6.194458, 46.331695], [6.194512, 46.331718], [6.194477, 46.331663], [6.194359, 46.331649], [6.194368, 46.331623], [6.194477, 46.331578], [6.194429, 46.331612], [6.194404, 46.331571], [6.194207, 46.331583], [6.19427, 46.331592], [6.194341, 46.33165], [6.194284, 46.331573], [6.194289, 46.331613], [6.194249, 46.331639], [6.194239, 46.331625], [6.194212, 46.331681], [6.194411, 46.331636], [6.19434, 46.331701], [6.19435, 46.331745], [6.19434, 46.331707], [6.194425, 46.331621], [6.194375, 46.3316], [6.194431, 46.331596], [6.194407, 46.331558], [6.194324, 46.331598], [6.194299, 46.331584], [6.194262, 46.331613], [6.194277, 46.331628], [6.194222, 46.331576], [6.19422, 46.331608], [6.194225, 46.331526], [6.194142, 46.331559]]}, "properties": {"name": "1786109134.Founex_walk_and_Volg_ice_cream_stop", "cmt": "2026-08-07", "tstamp": 1786060800, "desc": "---", "src": "6.182479/46.33151/6.197511/46.346235", "bbox": "6.182479/46.33151/6.197511/46.346235"}}]}