{"type": "FeatureCollection", "name": "TrackSet", "crs": {"type": "name", "properties": {"name": "urn:ogc:def:crs:OGC:1.3:CRS84"}}, "bbox": [7.380442, 45.921697, 7.395398, 45.939236], "features": [{"type": "Feature", "bbox": [7.380442, 45.921697, 7.395398, 45.939236], "geometry": {"type": "LineString", "coordinates": [[7.380665, 45.939206], [7.380774, 45.939236], [7.38074, 45.93917], [7.380746, 45.939084], [7.380808, 45.939096], [7.380806, 45.93901], [7.380703, 45.939054], [7.380615, 45.939032], [7.380577, 45.939055], [7.380447, 45.93894], [7.380529, 45.938766], [7.380546, 45.938657], [7.380521, 45.938547], [7.380606, 45.938423], [7.380591, 45.938139], [7.380641, 45.937972], [7.380518, 45.937689], [7.380532, 45.937491], [7.380492, 45.937432], [7.380505, 45.937337], [7.380442, 45.93729], [7.380485, 45.937191], [7.380542, 45.937134], [7.38062, 45.937113], [7.380761, 45.937155], [7.380785, 45.937186], [7.380764, 45.93719], [7.380904, 45.937191], [7.380999, 45.937133], [7.381114, 45.936752], [7.381303, 45.936593], [7.38138, 45.936466], [7.381491, 45.936406], [7.381621, 45.936378], [7.381749, 45.93644], [7.381766, 45.936464], [7.381713, 45.93646], [7.381715, 45.93644], [7.381733, 45.936463], [7.381907, 45.936498], [7.382102, 45.936476], [7.382255, 45.936545], [7.382374, 45.936636], [7.382577, 45.936629], [7.382481, 45.936451], [7.382386, 45.936438], [7.382247, 45.936369], [7.38224, 45.936327], [7.382167, 45.936307], [7.382196, 45.936254], [7.382171, 45.93623], [7.382076, 45.936229], [7.38202, 45.936198], [7.382007, 45.936145], [7.38193, 45.936092], [7.38182, 45.935944], [7.381569, 45.935862], [7.381502, 45.935781], [7.381471, 45.935802], [7.381566, 45.935754], [7.381543, 45.93577], [7.381579, 45.935793], [7.381558, 45.935782], [7.381585, 45.935787], [7.381579, 45.93574], [7.381542, 45.935699], [7.381391, 45.93569], [7.381402, 45.935637], [7.381494, 45.93562], [7.381672, 45.935677], [7.381745, 45.93573], [7.381974, 45.935754], [7.382458, 45.935546], [7.382649, 45.935602], [7.382994, 45.935635], [7.38326, 45.935563], [7.383349, 45.935559], [7.383507, 45.935594], [7.383478, 45.935591], [7.383482, 45.935617], [7.383479, 45.935593], [7.383443, 45.935592], [7.383472, 45.935575], [7.38349, 45.935594], [7.383453, 45.935626], [7.38344, 45.935586], [7.383474, 45.935575], [7.383458, 45.935619], [7.383481, 45.935593], [7.383457, 45.935588], [7.383484, 45.935606], [7.383463, 45.935583], [7.383482, 45.93561], [7.383608, 45.935575], [7.383842, 45.935605], [7.384076, 45.935533], [7.384174, 45.935543], [7.384579, 45.935234], [7.384625, 45.935102], [7.384603, 45.935072], [7.384639, 45.935034], [7.384686, 45.934851], [7.384633, 45.934699], [7.384632, 45.934591], [7.384717, 45.934503], [7.384775, 45.934499], [7.384954, 45.934556], [7.385191, 45.934503], [7.385525, 45.934539], [7.385582, 45.934508], [7.385559, 45.934451], [7.385306, 45.934407], [7.38522, 45.934366], [7.384983, 45.93408], [7.385015, 45.933967], [7.38505, 45.933966], [7.384971, 45.933921], [7.384975, 45.93389], [7.384924, 45.933842], [7.384732, 45.933727], [7.384613, 45.933615], [7.384587, 45.933516], [7.384389, 45.933332], [7.384391, 45.93337], [7.384331, 45.933213], [7.384188, 45.933052], [7.38392, 45.932964], [7.383917, 45.932901], [7.383984, 45.932892], [7.384162, 45.932987], [7.384296, 45.932993], [7.384318, 45.933016], [7.384389, 45.93301], [7.384435, 45.933031], [7.384755, 45.933339], [7.385124, 45.933604], [7.385336, 45.933696], [7.385595, 45.933761], [7.385706, 45.933768], [7.385818, 45.933732], [7.386257, 45.933531], [7.386363, 45.933457], [7.386562, 45.933382], [7.386738, 45.933241], [7.387013, 45.932832], [7.387338, 45.932654], [7.387512, 45.932395], [7.387792, 45.932259], [7.3879, 45.932237], [7.387976, 45.932146], [7.38812, 45.932046], [7.388323, 45.931795], [7.388339, 45.931664], [7.388591, 45.931128], [7.388739, 45.931018], [7.389034, 45.930948], [7.389137, 45.930878], [7.389175, 45.93077], [7.389301, 45.930623], [7.38932, 45.93044], [7.389294, 45.930449], [7.389288, 45.930396], [7.389349, 45.930292], [7.389311, 45.930229], [7.389352, 45.93015], [7.389385, 45.929884]]}, "properties": {"name": "1786363407.Chanrion_refuge_Lac_de_crete_seche", "cmt": "2026-08-10", "tstamp": 1786320000, "desc": "DownHill", "src": "7.380442/45.921697/7.395398/45.939236", "bbox": "7.380442/45.921697/7.395398/45.939236"}}, {"type": "Feature", "bbox": [7.380442, 45.921697, 7.395398, 45.939236], "geometry": {"type": "LineString", "coordinates": [[7.389391, 45.929871], [7.389402, 45.929667], [7.389606, 45.929431], [7.389752, 45.929334], [7.389876, 45.929206], [7.390001, 45.929162], [7.39015, 45.928997], [7.390302, 45.928894], [7.390355, 45.928808], [7.39034, 45.928709], [7.390225, 45.928532], [7.39023, 45.92843], [7.390286, 45.928385], [7.390277, 45.928337], [7.390372, 45.92818], [7.390553, 45.928012], [7.390532, 45.927925], [7.390424, 45.927878], [7.390384, 45.927807], [7.390377, 45.927697], [7.390411, 45.927633], [7.390349, 45.92743], [7.390399, 45.927346], [7.390559, 45.927257], [7.390901, 45.927149], [7.391007, 45.927073], [7.391219, 45.927085], [7.391347, 45.92703], [7.3914, 45.926976], [7.391598, 45.926916], [7.391638, 45.926799], [7.391693, 45.926784], [7.391778, 45.926698], [7.391902, 45.926678], [7.392022, 45.926627], [7.392059, 45.92633], [7.39203, 45.926293], [7.392094, 45.926142], [7.392051, 45.926109], [7.392136, 45.926007], [7.392145, 45.925763], [7.392362, 45.92566], [7.392435, 45.925669], [7.392478, 45.925506], [7.392576, 45.925495], [7.392609, 45.925478], [7.392592, 45.92546], [7.392822, 45.925411], [7.39286, 45.925374], [7.393032, 45.925369], [7.393177, 45.925275], [7.393208, 45.925217], [7.393337, 45.925251], [7.393423, 45.925229], [7.393572, 45.925341], [7.393646, 45.925355], [7.393718, 45.925313], [7.393942, 45.925293], [7.394054, 45.925168], [7.394199, 45.925141], [7.394321, 45.925051], [7.394406, 45.925023], [7.394493, 45.924945], [7.394502, 45.924873], [7.394576, 45.924825], [7.394697, 45.924793], [7.394851, 45.924668], [7.394971, 45.924613], [7.3952, 45.924602], [7.395323, 45.924548], [7.395377, 45.924511], [7.395398, 45.92441], [7.395391, 45.92443], [7.395353, 45.9244], [7.395376, 45.924283], [7.395324, 45.924215], [7.395204, 45.924292], [7.39519, 45.924237], [7.395116, 45.924207], [7.395022, 45.924196], [7.39491, 45.924236], [7.39486, 45.924161], [7.39473, 45.924189], [7.394645, 45.924142], [7.394517, 45.924175], [7.394444, 45.924142], [7.3944, 45.924161], [7.3944, 45.924126], [7.394294, 45.924125], [7.394278, 45.924092], [7.394013, 45.924072], [7.393942, 45.92404], [7.393869, 45.924053], [7.393732, 45.924034], [7.393734, 45.924049], [7.393781, 45.923947], [7.393712, 45.923882], [7.393644, 45.923862], [7.393622, 45.923806], [7.393705, 45.923711], [7.393709, 45.923664], [7.393639, 45.923595], [7.393551, 45.923618], [7.393573, 45.923547], [7.393546, 45.923485], [7.39348, 45.923468], [7.393432, 45.923423], [7.393452, 45.923385], [7.393401, 45.923332], [7.39342, 45.923258], [7.393252, 45.923141], [7.393265, 45.923103], [7.393142, 45.9229], [7.393075, 45.922911], [7.393071, 45.922939], [7.392951, 45.922848], [7.392894, 45.922845], [7.3929, 45.922823], [7.39281, 45.922761], [7.392774, 45.922606], [7.392803, 45.922593], [7.392782, 45.922554], [7.392814, 45.922477], [7.392792, 45.922594], [7.39265, 45.922532], [7.392584, 45.922589], [7.392609, 45.922593], [7.392565, 45.922585], [7.392613, 45.92258], [7.392587, 45.922565], [7.392529, 45.922607], [7.392515, 45.922663], [7.392469, 45.922584], [7.392248, 45.922518], [7.392049, 45.92254], [7.391953, 45.922522], [7.391854, 45.922427], [7.391805, 45.922422], [7.391757, 45.922363], [7.391695, 45.922338], [7.391707, 45.922284], [7.391641, 45.922151], [7.391691, 45.922055], [7.39156, 45.921997], [7.391512, 45.921997], [7.391478, 45.922033], [7.391369, 45.922072], [7.391182, 45.922061], [7.391112, 45.922107], [7.391115, 45.92215], [7.391018, 45.922165], [7.390968, 45.922208], [7.390811, 45.922109], [7.390744, 45.922121], [7.39063, 45.922097], [7.390476, 45.921939], [7.390447, 45.921927], [7.390437, 45.921948], [7.390398, 45.921917], [7.390344, 45.921805], [7.390284, 45.921786], [7.390234, 45.921806], [7.390256, 45.921757], [7.39023, 45.921705], [7.390094, 45.921697], [7.389962, 45.921736], [7.38998, 45.921747], [7.389952, 45.921744], [7.389967, 45.921759], [7.389881, 45.921806], [7.389825, 45.921936], [7.389761, 45.921969], [7.389744, 45.922011], [7.389497, 45.922171], [7.389456, 45.922169], [7.389455, 45.922313], [7.389367, 45.92234]]}, "properties": {"name": "1786363407.Chanrion_refuge_Lac_de_crete_seche", "cmt": "2026-08-10", "tstamp": 1786320000, "desc": "UpHill", "src": "7.380442/45.921697/7.395398/45.939236", "bbox": "7.380442/45.921697/7.395398/45.939236"}}, {"type": "Feature", "bbox": [7.380442, 45.921697, 7.395398, 45.939236], "geometry": {"type": "LineString", "coordinates": [[7.389354, 45.922343], [7.389352, 45.922409], [7.389437, 45.922478], [7.389483, 45.922545], [7.389456, 45.922544], [7.389452, 45.922517], [7.389451, 45.922541], [7.389633, 45.922556], [7.389723, 45.922591], [7.389867, 45.922552], [7.389848, 45.92259], [7.389979, 45.922614], [7.390082, 45.922586], [7.390149, 45.922502], [7.390267, 45.92244], [7.390296, 45.922332], [7.390402, 45.922294], [7.390398, 45.922171], [7.39049, 45.922133], [7.390528, 45.922043], [7.39057, 45.922031], [7.390628, 45.922106], [7.390707, 45.92212], [7.390743, 45.922155], [7.390817, 45.922138], [7.39085, 45.922208], [7.390853, 45.922181], [7.39086, 45.922198], [7.390829, 45.922187], [7.390915, 45.922182], [7.390952, 45.922213], [7.391012, 45.922202], [7.391058, 45.922162], [7.391136, 45.922182], [7.391207, 45.922061], [7.391352, 45.922062], [7.3915, 45.921994], [7.39158, 45.921998], [7.391702, 45.922064], [7.39166, 45.922134], [7.391716, 45.922223], [7.39171, 45.922379], [7.391794, 45.922393], [7.391788, 45.922439], [7.391972, 45.922518], [7.392003, 45.922562], [7.392095, 45.922581], [7.392139, 45.922554], [7.392278, 45.922534], [7.392567, 45.922666], [7.392602, 45.922575], [7.392725, 45.922525], [7.392762, 45.922548], [7.39283, 45.922644], [7.392829, 45.922748], [7.392905, 45.922884], [7.393127, 45.922937], [7.393135, 45.922984], [7.393193, 45.923037], [7.393195, 45.923139], [7.393243, 45.923184], [7.393256, 45.923161], [7.393257, 45.923211], [7.393279, 45.923207], [7.393366, 45.923322], [7.393432, 45.923457], [7.393523, 45.92351], [7.393502, 45.923607], [7.393547, 45.923627], [7.393616, 45.923617], [7.393659, 45.923672], [7.393591, 45.923806], [7.393625, 45.923884], [7.393769, 45.923968], [7.393726, 45.924008], [7.393734, 45.924039], [7.393831, 45.924073], [7.393981, 45.924076], [7.394054, 45.924123], [7.394151, 45.924101], [7.394267, 45.924179], [7.394364, 45.924173], [7.394402, 45.92421], [7.394523, 45.924198], [7.394581, 45.924228], [7.39474, 45.924247], [7.394782, 45.924225], [7.394847, 45.924245], [7.394912, 45.924234], [7.394951, 45.924276], [7.395043, 45.924261], [7.39516, 45.924309], [7.395276, 45.924303], [7.39532, 45.92434], [7.395292, 45.924449], [7.395147, 45.924497], [7.395018, 45.924491], [7.394913, 45.92452], [7.394855, 45.924589], [7.394728, 45.924658], [7.394528, 45.924688], [7.394452, 45.924745], [7.394356, 45.924989], [7.394285, 45.925072], [7.394098, 45.925107], [7.394095, 45.925131], [7.39403, 45.925141], [7.393874, 45.925246], [7.393716, 45.925277], [7.393624, 45.925326], [7.393536, 45.925313], [7.393425, 45.925255], [7.393114, 45.92527], [7.393021, 45.925352], [7.392857, 45.925402], [7.392796, 45.925395], [7.392755, 45.925445], [7.392477, 45.925503], [7.392137, 45.925825], [7.392055, 45.926044], [7.391986, 45.926082], [7.391984, 45.926194], [7.391908, 45.92637], [7.391925, 45.926531], [7.391811, 45.92667], [7.391708, 45.926699], [7.391589, 45.926856], [7.39141, 45.926944], [7.391293, 45.927052], [7.391213, 45.927085], [7.391066, 45.927085], [7.390897, 45.92712], [7.390695, 45.927228], [7.390384, 45.927337], [7.390331, 45.927403], [7.390302, 45.927524], [7.390301, 45.92778], [7.390392, 45.927895], [7.390472, 45.927926], [7.390519, 45.927978], [7.390471, 45.92808], [7.390358, 45.928146], [7.39024, 45.928333], [7.390186, 45.928592], [7.390318, 45.928778], [7.390317, 45.928843], [7.390107, 45.928964], [7.389818, 45.929247], [7.389549, 45.929439], [7.389349, 45.929651]]}, "properties": {"name": "1786363407.Chanrion_refuge_Lac_de_crete_seche", "cmt": "2026-08-10", "tstamp": 1786320000, "desc": "DownHill", "src": "7.380442/45.921697/7.395398/45.939236", "bbox": "7.380442/45.921697/7.395398/45.939236"}}, {"type": "Feature", "bbox": [7.380442, 45.921697, 7.395398, 45.939236], "geometry": {"type": "LineString", "coordinates": [[7.389348, 45.92966], [7.389318, 45.929729], [7.389324, 45.930131], [7.389294, 45.930212], [7.389318, 45.930322], [7.389274, 45.93047], [7.389303, 45.930578], [7.389255, 45.930611], [7.389109, 45.930859], [7.388904, 45.930984], [7.388715, 45.931003], [7.388648, 45.931048], [7.388425, 45.931446], [7.388339, 45.931821], [7.38816, 45.932001], [7.388089, 45.932034], [7.387871, 45.932223], [7.387518, 45.932405], [7.387236, 45.932691], [7.38701, 45.932808], [7.386926, 45.932915], [7.386947, 45.932951], [7.386849, 45.933025], [7.386694, 45.933269], [7.386548, 45.933382], [7.386427, 45.933409], [7.386185, 45.933529], [7.386165, 45.933516], [7.385961, 45.933666], [7.385733, 45.933771], [7.385501, 45.933706], [7.385371, 45.933704], [7.385182, 45.933619], [7.384886, 45.93344], [7.384724, 45.933281], [7.384352, 45.933018], [7.384181, 45.932989], [7.384058, 45.932941], [7.383981, 45.932929], [7.383928, 45.932951], [7.383944, 45.932998], [7.384047, 45.93306], [7.384099, 45.933062], [7.384246, 45.933166], [7.384258, 45.933197], [7.384248, 45.933179], [7.384208, 45.933197], [7.38428, 45.933251], [7.384264, 45.933274], [7.384384, 45.933443], [7.38459, 45.933535], [7.384886, 45.933909], [7.384978, 45.933972], [7.38504, 45.934154], [7.385131, 45.934278], [7.385362, 45.934455], [7.385549, 45.934496], [7.38549, 45.934522], [7.385374, 45.934509], [7.385002, 45.934557], [7.384855, 45.934552], [7.384748, 45.934496], [7.384641, 45.934515], [7.384614, 45.934577], [7.384698, 45.934786], [7.384703, 45.934925], [7.384544, 45.935253], [7.384183, 45.935544], [7.383463, 45.935614], [7.383237, 45.935585], [7.382997, 45.935642], [7.382422, 45.935559], [7.382348, 45.935578], [7.382087, 45.935742], [7.382012, 45.935752], [7.381756, 45.935739], [7.381507, 45.935627], [7.381418, 45.935638], [7.381408, 45.935666], [7.381455, 45.935721], [7.381766, 45.935944], [7.381923, 45.936018], [7.382041, 45.936171], [7.38238, 45.936404], [7.382553, 45.936629], [7.382492, 45.936661], [7.382429, 45.936655], [7.382281, 45.936562], [7.382089, 45.936489], [7.381813, 45.936479], [7.381568, 45.936407], [7.381448, 45.936419], [7.381383, 45.936444], [7.381339, 45.936563], [7.381186, 45.936673], [7.381069, 45.936825], [7.381023, 45.937097], [7.380921, 45.937206], [7.380792, 45.937229], [7.380633, 45.937138], [7.380473, 45.937211], [7.380458, 45.937306], [7.380529, 45.93736], [7.380555, 45.937433], [7.380537, 45.937588], [7.380597, 45.937759], [7.380572, 45.937815], [7.380651, 45.937985], [7.380644, 45.938397], [7.380607, 45.938514], [7.380526, 45.938627], [7.380508, 45.938755], [7.380545, 45.938828], [7.38051, 45.938914], [7.380605, 45.939054], [7.38072, 45.939005], [7.380783, 45.939005], [7.380748, 45.939063], [7.380793, 45.939063], [7.380757, 45.93915], [7.38079, 45.939186]]}, "properties": {"name": "1786363407.Chanrion_refuge_Lac_de_crete_seche", "cmt": "2026-08-10", "tstamp": 1786320000, "desc": "UpHill", "src": "7.380442/45.921697/7.395398/45.939236", "bbox": "7.380442/45.921697/7.395398/45.939236"}}]}