{"type": "FeatureCollection", "name": "TrackSet", "crs": {"type": "name", "properties": {"name": "urn:ogc:def:crs:OGC:1.3:CRS84"}}, "bbox": [7.57451, 46.396015, 7.663314, 46.476879], "features": [{"type": "Feature", "bbox": [7.57451, 46.396015, 7.663314, 46.476879], "geometry": {"type": "LineString", "coordinates": [[7.57452, 46.400266], [7.574615, 46.400297], [7.574527, 46.400338], [7.57451, 46.400384], [7.574649, 46.400687], [7.574668, 46.400884], [7.574837, 46.401092], [7.5748, 46.401233], [7.574891, 46.401366], [7.574917, 46.401528], [7.574829, 46.401608], [7.574869, 46.401609], [7.57484, 46.401638], [7.574906, 46.401656], [7.57492, 46.401626], [7.574993, 46.401633], [7.575043, 46.401585], [7.575021, 46.401556], [7.575063, 46.401582], [7.575074, 46.40156], [7.57515, 46.401551], [7.575115, 46.401482], [7.575201, 46.401483], [7.575208, 46.401424], [7.575206, 46.40144], [7.57529, 46.401452], [7.575287, 46.40138], [7.575311, 46.401419], [7.575357, 46.401275], [7.575396, 46.401301], [7.575424, 46.401242], [7.575455, 46.401266], [7.575554, 46.401186], [7.575558, 46.40124], [7.575646, 46.401137], [7.575688, 46.400974], [7.575828, 46.400884], [7.575805, 46.400908], [7.575806, 46.400892], [7.575733, 46.4009], [7.575738, 46.400884], [7.575898, 46.400837], [7.575862, 46.400822], [7.575929, 46.400777], [7.575924, 46.400725], [7.575956, 46.400726], [7.576032, 46.400611], [7.576263, 46.40044], [7.576236, 46.4004], [7.576313, 46.400301], [7.57629, 46.400269], [7.576313, 46.400249], [7.576307, 46.400203], [7.576265, 46.400224], [7.576257, 46.400186], [7.576327, 46.400205], [7.5762, 46.400233], [7.576278, 46.400232], [7.576288, 46.400207], [7.576256, 46.400216], [7.576299, 46.400171], [7.576193, 46.400062], [7.576304, 46.400067], [7.576417, 46.400116], [7.576445, 46.40017], [7.576477, 46.400148], [7.57637, 46.400025], [7.576329, 46.39987], [7.57623, 46.399771], [7.57614, 46.399729], [7.576041, 46.399559], [7.575938, 46.399477], [7.575951, 46.399451], [7.5759, 46.399384], [7.575941, 46.399393], [7.576022, 46.399324], [7.576074, 46.399334], [7.576131, 46.399299], [7.576107, 46.399237], [7.57595, 46.399179], [7.575986, 46.399182], [7.575973, 46.399158], [7.576022, 46.399143], [7.576022, 46.399117], [7.576135, 46.39908], [7.576164, 46.399104], [7.576238, 46.3991], [7.576303, 46.399153], [7.576366, 46.399151], [7.576339, 46.399198], [7.576404, 46.399271], [7.57646, 46.399255], [7.576491, 46.399271], [7.576525, 46.399241], [7.576655, 46.399221], [7.576687, 46.399184], [7.576775, 46.399157], [7.576785, 46.399126], [7.576756, 46.399085], [7.576771, 46.399009], [7.576701, 46.398944], [7.576963, 46.39902], [7.577173, 46.399124], [7.577246, 46.399107], [7.57725, 46.399051], [7.577286, 46.399029], [7.577162, 46.398785], [7.576947, 46.398639], [7.57679, 46.398461], [7.576607, 46.398377], [7.576773, 46.398406], [7.576909, 46.398399], [7.576887, 46.398419], [7.576951, 46.39841], [7.576985, 46.398431], [7.577228, 46.398416], [7.577294, 46.398448], [7.577363, 46.398428], [7.577339, 46.39838], [7.577039, 46.398284], [7.576847, 46.398149], [7.576962, 46.398111], [7.577103, 46.398128], [7.577272, 46.398089], [7.577417, 46.398108], [7.577465, 46.398089], [7.577686, 46.398092], [7.577703, 46.398074], [7.577883, 46.398137], [7.578016, 46.398129], [7.578101, 46.398198], [7.578456, 46.398279], [7.57855, 46.398332], [7.578657, 46.398359], [7.57864, 46.398328], [7.578677, 46.398319], [7.578745, 46.398348], [7.57872, 46.398354], [7.578845, 46.398382], [7.578896, 46.398371], [7.579049, 46.398427], [7.579393, 46.398459], [7.579621, 46.398576], [7.579732, 46.398578], [7.579825, 46.398611], [7.579962, 46.398624], [7.580013, 46.398603], [7.58015, 46.398643], [7.580403, 46.398608], [7.580463, 46.398644], [7.580542, 46.398637], [7.580611, 46.398696], [7.580767, 46.398633], [7.580939, 46.398775], [7.581185, 46.398858], [7.581409, 46.3989], [7.581826, 46.398942], [7.581954, 46.398931], [7.582207, 46.398995], [7.582693, 46.399039], [7.582818, 46.399072], [7.582988, 46.399042], [7.58329, 46.399095], [7.583409, 46.399081], [7.584119, 46.399441], [7.584775, 46.399656], [7.584874, 46.399654], [7.584967, 46.399599], [7.585057, 46.399582], [7.58527, 46.399611], [7.58545, 46.399615], [7.585451, 46.399597], [7.585539, 46.399589], [7.585606, 46.399608], [7.5857, 46.399524], [7.585694, 46.399441], [7.585595, 46.39932], [7.58555, 46.399309], [7.585498, 46.399213], [7.585473, 46.399212], [7.585483, 46.399178], [7.585278, 46.39905], [7.585253, 46.398958], [7.585209, 46.398938], [7.58524, 46.399002], [7.585194, 46.398996], [7.585177, 46.399016], [7.585126, 46.398977], [7.585121, 46.398997], [7.585142, 46.398987], [7.585108, 46.398957], [7.5853, 46.398784], [7.585434, 46.398728], [7.585495, 46.398669], [7.5858, 46.398574], [7.585842, 46.398537], [7.585804, 46.398465], [7.585821, 46.398409], [7.585746, 46.398301], [7.585598, 46.398191], [7.585651, 46.39807], [7.585542, 46.397937], [7.585548, 46.397846], [7.585574, 46.397803], [7.585744, 46.39774], [7.585958, 46.397582], [7.586192, 46.397539], [7.586349, 46.397364], [7.586373, 46.397279], [7.586324, 46.397102], [7.586268, 46.397014], [7.58623, 46.397003], [7.586237, 46.396982], [7.586246, 46.396999], [7.586287, 46.39698], [7.586255, 46.39694], [7.586264, 46.396847], [7.58629, 46.396828], [7.586443, 46.396846], [7.587167, 46.397015], [7.587488, 46.396976], [7.587757, 46.396977], [7.587812, 46.397], [7.587903, 46.396978], [7.588137, 46.396993], [7.588357, 46.396946], [7.588453, 46.396901], [7.588526, 46.396692], [7.588445, 46.396568], [7.588445, 46.396447], [7.58832, 46.3962], [7.588376, 46.396078], [7.588434, 46.396039], [7.588582, 46.396057], [7.588701, 46.396015], [7.588798, 46.396049], [7.588946, 46.396061], [7.589018, 46.396095], [7.589059, 46.396098], [7.589042, 46.396081], [7.589033, 46.3961], [7.589063, 46.39607], [7.589232, 46.396037], [7.589446, 46.396051], [7.589818, 46.396119], [7.589934, 46.396109], [7.590135, 46.396173], [7.590532, 46.396238], [7.590799, 46.396328], [7.591284, 46.396548], [7.591902, 46.396664], [7.592221, 46.396821], [7.592553, 46.396868], [7.592791, 46.396852], [7.592953, 46.396878], [7.593074, 46.396868], [7.593165, 46.396918], [7.593374, 46.396938], [7.594188, 46.397175], [7.594469, 46.397205], [7.594755, 46.397264], [7.595021, 46.397355], [7.595118, 46.397347], [7.595386, 46.397414], [7.595422, 46.397441], [7.595469, 46.397433], [7.595739, 46.397561], [7.596088, 46.397646], [7.596178, 46.397689], [7.596246, 46.397687], [7.596257, 46.397656], [7.596457, 46.397729], [7.596574, 46.397727], [7.596804, 46.397783], [7.596882, 46.397835], [7.597337, 46.397886], [7.597616, 46.398006], [7.597741, 46.398009], [7.597779, 46.398032], [7.597837, 46.398024], [7.598016, 46.398063], [7.598058, 46.398107], [7.598151, 46.398139], [7.598214, 46.39814], [7.5982, 46.39811], [7.598164, 46.398129], [7.598159, 46.398102], [7.598165, 46.398124], [7.598199, 46.398102], [7.598213, 46.398161], [7.59866, 46.398081], [7.59895, 46.398074], [7.599379, 46.397906], [7.59949, 46.397905], [7.599552, 46.397872], [7.599742, 46.39785], [7.599897, 46.397869], [7.600064, 46.397926], [7.600132, 46.397896], [7.600431, 46.397899], [7.60078, 46.397982], [7.600896, 46.397954], [7.601183, 46.397955], [7.60138, 46.397988], [7.601521, 46.397947], [7.601671, 46.397944], [7.601976, 46.397966], [7.602122, 46.397951], [7.602233, 46.397974], [7.602362, 46.397931], [7.602499, 46.397942], [7.602494, 46.397905], [7.602729, 46.397905], [7.602817, 46.397829], [7.602888, 46.397807], [7.60308, 46.397803], [7.603132, 46.397765], [7.603296, 46.397783], [7.6033, 46.397749], [7.603428, 46.397753], [7.603731, 46.397647], [7.603892, 46.397674], [7.603985, 46.397655], [7.604248, 46.397658], [7.604517, 46.397727], [7.604579, 46.397789], [7.60456, 46.397901], [7.604591, 46.397911], [7.604562, 46.397959], [7.604654, 46.398012], [7.604795, 46.397998], [7.604913, 46.397948], [7.604966, 46.397968], [7.605134, 46.397963], [7.605282, 46.397912], [7.605347, 46.397965], [7.605487, 46.397949], [7.605554, 46.397976], [7.605652, 46.398118], [7.605629, 46.398146], [7.605624, 46.398126], [7.605585, 46.39814], [7.605554, 46.398279], [7.605515, 46.398274], [7.605534, 46.398308], [7.605609, 46.398333], [7.605783, 46.3985], [7.605938, 46.398574], [7.60595, 46.398614], [7.606146, 46.398716], [7.606254, 46.39898], [7.606403, 46.399053], [7.606402, 46.399122], [7.606489, 46.399212], [7.60649, 46.399316], [7.606556, 46.399358], [7.606589, 46.399564], [7.60673, 46.399648], [7.606899, 46.399812], [7.606891, 46.399872], [7.60698, 46.399973], [7.606953, 46.400104], [7.606983, 46.400121], [7.60697, 46.400172], [7.606945, 46.400172], [7.60696, 46.400154], [7.606997, 46.40017], [7.607029, 46.400331], [7.60708, 46.40028], [7.607132, 46.400271], [7.607146, 46.400292], [7.607171, 46.400264], [7.607157, 46.400283], [7.607122, 46.400263], [7.607094, 46.400276], [7.607057, 46.400344], [7.607069, 46.400328], [7.607112, 46.400359], [7.607095, 46.400391], [7.607163, 46.4005], [7.607372, 46.400661], [7.607403, 46.400801], [7.607346, 46.400846], [7.607371, 46.40084], [7.607391, 46.400909], [7.607363, 46.400946], [7.607427, 46.400971], [7.607367, 46.401094], [7.607468, 46.401188], [7.607509, 46.40141], [7.607622, 46.401558], [7.607723, 46.401794], [7.607902, 46.401931], [7.607928, 46.401993], [7.608091, 46.402067], [7.608101, 46.402118], [7.608183, 46.402169], [7.608179, 46.402257], [7.608331, 46.402281], [7.608405, 46.402344], [7.608595, 46.402409], [7.608695, 46.402403], [7.608858, 46.402461], [7.609174, 46.402649], [7.609237, 46.402659], [7.609314, 46.402803], [7.609398, 46.402877], [7.609426, 46.402868], [7.609413, 46.402887], [7.609473, 46.402951], [7.60943, 46.403015], [7.609456, 46.403073], [7.609626, 46.403129], [7.609731, 46.403131], [7.609759, 46.403175], [7.609858, 46.403185], [7.60984, 46.403232], [7.609975, 46.403282], [7.610072, 46.403391], [7.610222, 46.4035], [7.610342, 46.403757], [7.610441, 46.403879], [7.610639, 46.403971], [7.610719, 46.40408], [7.61077, 46.404077], [7.610882, 46.404136], [7.61086, 46.404107], [7.611062, 46.404303], [7.611121, 46.404315], [7.611183, 46.404401], [7.611225, 46.404402], [7.611403, 46.404557], [7.611506, 46.404598], [7.611829, 46.404864], [7.612092, 46.404961], [7.612205, 46.405027], [7.612421, 46.405214], [7.612557, 46.405387], [7.612593, 46.405471], [7.612578, 46.405512], [7.612667, 46.405596], [7.612836, 46.405891], [7.613029, 46.406025], [7.613104, 46.406245], [7.613189, 46.406334], [7.613223, 46.406466], [7.613198, 46.406567], [7.613214, 46.406595], [7.613235, 46.40657], [7.613253, 46.406582], [7.613245, 46.40667], [7.613316, 46.406751], [7.613324, 46.406914], [7.613373, 46.40699], [7.613346, 46.407073], [7.613386, 46.407148], [7.613496, 46.407229], [7.613514, 46.407288], [7.613552, 46.407551], [7.613524, 46.407602], [7.613728, 46.407817], [7.613706, 46.407893], [7.613729, 46.407924], [7.613688, 46.407986], [7.613841, 46.408091], [7.613845, 46.408154], [7.613909, 46.408205], [7.613955, 46.408324], [7.614086, 46.408411], [7.614187, 46.408646], [7.614572, 46.409052], [7.614595, 46.409156], [7.614677, 46.409211], [7.614707, 46.409309], [7.61483, 46.409446], [7.614901, 46.409682], [7.614954, 46.409757], [7.614905, 46.409944], [7.615071, 46.410315], [7.615296, 46.410588], [7.61538, 46.410652], [7.615479, 46.410668], [7.615577, 46.410798], [7.615698, 46.41085], [7.615885, 46.41107], [7.615963, 46.411107], [7.616082, 46.411287], [7.616173, 46.411378], [7.61627, 46.411426], [7.61637, 46.411607], [7.616633, 46.411871], [7.616782, 46.412122], [7.616808, 46.412106], [7.616764, 46.412088], [7.616744, 46.412126], [7.616785, 46.412113], [7.616772, 46.412092], [7.616773, 46.41213], [7.61682, 46.412138], [7.616873, 46.412191], [7.616907, 46.412323], [7.61707, 46.412479], [7.617188, 46.412543], [7.617196, 46.412577], [7.617209, 46.412554], [7.617199, 46.412839], [7.61743, 46.413261], [7.617475, 46.413566], [7.617506, 46.413601], [7.617464, 46.413833], [7.617465, 46.414107], [7.617409, 46.41418], [7.617395, 46.414278], [7.617477, 46.414413], [7.617511, 46.414601], [7.617437, 46.414975], [7.617509, 46.415237], [7.617478, 46.415328], [7.617373, 46.415465], [7.617398, 46.415512], [7.617345, 46.415667], [7.617305, 46.415705], [7.617196, 46.415729], [7.617203, 46.415765], [7.617044, 46.415975], [7.617045, 46.416044], [7.616972, 46.416144], [7.616984, 46.416258], [7.617035, 46.416316], [7.617029, 46.416411], [7.61694, 46.416509], [7.616723, 46.41664], [7.616631, 46.416658], [7.616537, 46.416636], [7.616224, 46.416684], [7.616139, 46.416732], [7.61618, 46.416743], [7.616103, 46.416723], [7.616137, 46.416758], [7.616085, 46.416842], [7.616107, 46.416975], [7.616074, 46.416969], [7.61622, 46.417171], [7.616317, 46.41721], [7.616288, 46.417289], [7.61631, 46.417334], [7.616438, 46.41742], [7.61655, 46.41746], [7.616614, 46.417456], [7.616673, 46.417508], [7.616762, 46.417537], [7.616919, 46.417553], [7.616954, 46.417538], [7.617143, 46.41757], [7.61719, 46.417602], [7.617244, 46.4176], [7.6173, 46.417648], [7.617309, 46.417776], [7.617363, 46.417755], [7.617396, 46.41778], [7.617407, 46.418064], [7.617455, 46.418124], [7.61745, 46.418216], [7.617508, 46.418274], [7.617472, 46.418324], [7.617502, 46.418416], [7.617462, 46.418426], [7.61764, 46.418447], [7.617644, 46.418425], [7.617661, 46.418449], [7.617689, 46.418426], [7.61768, 46.41845], [7.617673, 46.418429], [7.617724, 46.41842], [7.617656, 46.418449], [7.617678, 46.418458], [7.617693, 46.418437], [7.617656, 46.41842], [7.617685, 46.41844], [7.617701, 46.418421], [7.617774, 46.418459], [7.617788, 46.418431], [7.618054, 46.418304], [7.617653, 46.420178], [7.617622, 46.420139], [7.617687, 46.418964], [7.617659, 46.418491], [7.617682, 46.418419], [7.617679, 46.418439], [7.617688, 46.418423], [7.617721, 46.418445], [7.617674, 46.41842], [7.617721, 46.418431], [7.617679, 46.418448], [7.617699, 46.418421], [7.617733, 46.418423], [7.617683, 46.418435], [7.617678, 46.41846], [7.617686, 46.418419], [7.617731, 46.418443], [7.617692, 46.41846], [7.617693, 46.418431], [7.61773, 46.418437], [7.617688, 46.418458], [7.617697, 46.418403], [7.617728, 46.418427], [7.617682, 46.418425], [7.617704, 46.418442], [7.617681, 46.418424], [7.617683, 46.418466], [7.617715, 46.418397], [7.617677, 46.418459], [7.617703, 46.418411], [7.617674, 46.418421], [7.617679, 46.418402], [7.617667, 46.41843], [7.617664, 46.418409], [7.617652, 46.418427], [7.617636, 46.41841], [7.617659, 46.41843], [7.617621, 46.418421], [7.617636, 46.418401], [7.617659, 46.418426], [7.617676, 46.418399], [7.617578, 46.418435], [7.617597, 46.418469], [7.617523, 46.418564], [7.617566, 46.41867], [7.617528, 46.41872], [7.61759, 46.418796], [7.617586, 46.418852], [7.617669, 46.418896], [7.617815, 46.418876], [7.617862, 46.418889], [7.618363, 46.418629], [7.618417, 46.418544], [7.618494, 46.4185], [7.618556, 46.418389], [7.618686, 46.418283], [7.618767, 46.418341], [7.618848, 46.418351], [7.618806, 46.418379], [7.618816, 46.418361], [7.618836, 46.418393], [7.618871, 46.418368], [7.619028, 46.418476], [7.619292, 46.418572], [7.619318, 46.418614], [7.619385, 46.418617], [7.619465, 46.418669], [7.619643, 46.418666], [7.619726, 46.41869], [7.619756, 46.418731], [7.619851, 46.418742], [7.619898, 46.41881], [7.619983, 46.418811], [7.620019, 46.41888], [7.620083, 46.418924], [7.620183, 46.418933], [7.620198, 46.41896], [7.620342, 46.419015], [7.6205, 46.41903], [7.620582, 46.419084], [7.620713, 46.419055], [7.62102, 46.419123], [7.621078, 46.419087], [7.621235, 46.419065], [7.621315, 46.419097], [7.621331, 46.419131], [7.621333, 46.419099], [7.621382, 46.419083], [7.621546, 46.419103], [7.621602, 46.419077], [7.621756, 46.419111], [7.621917, 46.419022], [7.622141, 46.418967], [7.622245, 46.418965], [7.62227, 46.418951], [7.622253, 46.41893], [7.622219, 46.418997], [7.622262, 46.419016], [7.62239, 46.419], [7.622441, 46.419026], [7.622684, 46.419013], [7.622782, 46.419029], [7.622886, 46.418989], [7.623042, 46.419022], [7.623125, 46.419004], [7.623191, 46.419024], [7.623205, 46.418987], [7.623372, 46.418951], [7.623376, 46.418904], [7.623436, 46.418884], [7.623507, 46.418933], [7.623488, 46.41916], [7.623542, 46.419262], [7.623649, 46.419389], [7.623815, 46.419507], [7.623787, 46.419673], [7.623624, 46.419755], [7.623578, 46.419842], [7.623332, 46.419975], [7.623255, 46.420143], [7.623223, 46.420553], [7.623312, 46.420971], [7.623292, 46.421115], [7.623334, 46.421293], [7.623304, 46.421541], [7.623366, 46.421672], [7.623212, 46.421872], [7.623093, 46.422312], [7.622759, 46.422938], [7.622558, 46.42307], [7.622479, 46.423179], [7.622286, 46.42335], [7.622243, 46.423725], [7.622314, 46.423888], [7.622215, 46.424139], [7.622212, 46.424394], [7.622158, 46.424519], [7.622093, 46.424566], [7.621836, 46.424654], [7.621766, 46.424623], [7.62171, 46.424526], [7.62158, 46.424557], [7.621412, 46.424727], [7.621406, 46.424875], [7.621354, 46.424991], [7.621309, 46.425002], [7.621188, 46.42494], [7.621079, 46.424927], [7.620981, 46.425097], [7.620877, 46.425158], [7.620859, 46.425196], [7.620906, 46.42526], [7.620907, 46.425342], [7.620754, 46.425452], [7.620674, 46.425583], [7.620632, 46.425601], [7.620571, 46.425747], [7.62031, 46.42616], [7.620282, 46.426506], [7.620302, 46.426601], [7.620202, 46.426749], [7.620176, 46.426924], [7.620124, 46.427022], [7.620148, 46.427052], [7.620105, 46.427124], [7.620151, 46.42717], [7.620179, 46.427305], [7.620155, 46.427427], [7.620211, 46.427571], [7.620225, 46.427733], [7.620279, 46.42776], [7.620278, 46.427851], [7.620438, 46.427986], [7.620515, 46.428122], [7.620765, 46.428419], [7.620754, 46.428485], [7.620669, 46.428562], [7.620692, 46.428676], [7.620609, 46.428926], [7.620636, 46.429017], [7.620633, 46.429432], [7.620712, 46.429509], [7.620839, 46.429782], [7.620984, 46.429921], [7.621009, 46.430038], [7.621254, 46.4304], [7.621295, 46.430574], [7.621449, 46.430797], [7.621615, 46.430921], [7.621926, 46.43126], [7.62197, 46.431595], [7.6221, 46.431751], [7.622379, 46.43196], [7.6225, 46.4321], [7.622643, 46.432208], [7.622791, 46.432258], [7.623266, 46.432178], [7.623402, 46.432103], [7.624008, 46.431951], [7.624133, 46.431968], [7.624419, 46.431949], [7.624563, 46.431973], [7.624525, 46.431984], [7.624539, 46.431969], [7.624578, 46.431998], [7.62471, 46.431986], [7.624765, 46.432003], [7.624841, 46.43198], [7.624869, 46.432007], [7.624975, 46.431968], [7.625048, 46.432002], [7.625307, 46.431937], [7.625288, 46.431981], [7.625285, 46.43195], [7.625312, 46.431962], [7.625278, 46.431969], [7.625304, 46.431952], [7.625279, 46.431955], [7.625285, 46.431924], [7.625257, 46.431957], [7.62528, 46.431994], [7.625301, 46.431953], [7.625283, 46.431971], [7.625326, 46.431958], [7.625291, 46.431955], [7.625304, 46.431972], [7.625268, 46.431981], [7.625272, 46.431962], [7.625295, 46.43196], [7.625286, 46.431979], [7.625315, 46.431952], [7.625282, 46.431986], [7.625311, 46.431965], [7.62529, 46.431977], [7.62529, 46.431956], [7.625318, 46.431962], [7.625256, 46.431973], [7.625289, 46.431922], [7.625293, 46.431974], [7.625318, 46.431953], [7.625259, 46.431961], [7.625321, 46.43195], [7.625302, 46.431966], [7.62527, 46.431951], [7.625268, 46.431978], [7.625301, 46.431974], [7.625269, 46.432002], [7.625098, 46.432012], [7.624981, 46.432036], [7.625007, 46.432045], [7.625227, 46.432041], [7.625301, 46.431999], [7.625314, 46.431964], [7.625283, 46.431949], [7.625239, 46.431972], [7.625289, 46.432019], [7.62539, 46.432053], [7.625412, 46.432039], [7.625402, 46.432052], [7.625374, 46.43205], [7.625418, 46.432038], [7.625425, 46.431994], [7.625394, 46.432019], [7.625344, 46.431995], [7.625372, 46.432014], [7.625343, 46.432037], [7.625351, 46.432006], [7.625289, 46.431965], [7.625284, 46.431988], [7.625261, 46.431981], [7.625287, 46.431968], [7.625263, 46.431978], [7.625303, 46.432015], [7.625408, 46.432046], [7.625549, 46.432147], [7.62587, 46.432178], [7.626175, 46.432282], [7.626474, 46.432312], [7.626596, 46.432388], [7.626791, 46.432435], [7.627135, 46.432591], [7.627319, 46.432627], [7.627481, 46.432625], [7.627796, 46.432737], [7.628015, 46.432729], [7.628068, 46.432753], [7.628151, 46.432736], [7.628544, 46.432759], [7.629035, 46.4326], [7.629381, 46.432554], [7.629548, 46.432474], [7.629805, 46.432422], [7.630017, 46.432436], [7.630242, 46.432565], [7.63035, 46.432594], [7.630563, 46.432605], [7.630673, 46.43264], [7.631002, 46.432818], [7.631047, 46.432895], [7.631039, 46.433085], [7.631166, 46.433278], [7.63117, 46.433347], [7.631047, 46.433548], [7.631056, 46.433814], [7.630947, 46.433964], [7.630982, 46.434137], [7.630869, 46.434539], [7.630919, 46.434666], [7.630923, 46.434856], [7.631032, 46.434936], [7.63102, 46.435076], [7.631084, 46.43516], [7.631295, 46.43529], [7.631325, 46.435339], [7.631208, 46.435523], [7.631224, 46.435575], [7.631415, 46.435596], [7.631632, 46.435588], [7.631862, 46.435507], [7.632246, 46.435467], [7.632333, 46.435484], [7.632512, 46.435404], [7.632827, 46.435367], [7.632914, 46.435406], [7.633474, 46.435529], [7.633567, 46.435591], [7.633973, 46.435692], [7.634163, 46.435775], [7.634584, 46.4358], [7.634741, 46.435891], [7.634958, 46.436092], [7.635218, 46.436461], [7.635633, 46.436898], [7.635751, 46.436985], [7.635951, 46.437226], [7.636183, 46.437398], [7.63603, 46.437415], [7.635851, 46.437327], [7.63577, 46.437326], [7.635614, 46.437248], [7.635465, 46.437212], [7.635125, 46.437042], [7.634795, 46.436959], [7.634607, 46.436877], [7.634177, 46.436747], [7.633757, 46.436547], [7.633558, 46.436536], [7.633392, 46.436557], [7.633129, 46.436524], [7.632976, 46.436541], [7.632514, 46.436516], [7.632093, 46.436552], [7.631971, 46.436604], [7.631886, 46.436705], [7.63183, 46.436714], [7.631529, 46.436939], [7.631496, 46.437119], [7.631557, 46.437247], [7.631581, 46.437544], [7.631557, 46.437647], [7.631592, 46.437699], [7.63153, 46.4378], [7.631144, 46.438089], [7.630831, 46.438252], [7.630596, 46.43827], [7.630482, 46.438305], [7.630141, 46.438482], [7.629979, 46.438523], [7.629971, 46.438504], [7.629976, 46.438525], [7.629771, 46.438599], [7.629653, 46.438607], [7.629574, 46.438684], [7.629471, 46.438868], [7.629448, 46.43901], [7.629484, 46.439074], [7.629512, 46.439291], [7.629644, 46.439509], [7.629686, 46.439524], [7.629852, 46.439709], [7.629967, 46.439924], [7.629964, 46.440174], [7.630066, 46.440326], [7.630221, 46.440462], [7.630244, 46.440631], [7.630219, 46.440759], [7.630285, 46.440817], [7.630303, 46.441199], [7.630391, 46.441407], [7.630288, 46.44166], [7.630326, 46.441845], [7.63028, 46.441952], [7.630308, 46.442079], [7.630171, 46.442326], [7.630149, 46.44247], [7.630184, 46.442614], [7.630259, 46.442743], [7.630332, 46.442806], [7.630321, 46.442824], [7.630433, 46.442898], [7.630466, 46.442968], [7.630415, 46.443034], [7.630534, 46.443124], [7.630524, 46.443185], [7.630579, 46.443291], [7.630641, 46.443309], [7.630602, 46.443385], [7.630666, 46.443423], [7.630672, 46.443576], [7.630782, 46.443793], [7.630725, 46.444118], [7.63077, 46.444224], [7.630802, 46.444216], [7.630757, 46.444442], [7.630788, 46.444755], [7.631011, 46.445158], [7.631072, 46.445194], [7.631081, 46.445341], [7.631197, 46.445447], [7.631271, 46.445622], [7.631354, 46.445717], [7.631401, 46.446008], [7.631504, 46.446201], [7.631533, 46.446341], [7.631648, 46.446404], [7.631747, 46.446544], [7.631794, 46.4467], [7.631783, 46.446886], [7.631829, 46.446941], [7.631901, 46.447189], [7.63207, 46.447387], [7.632127, 46.447426], [7.632213, 46.447443], [7.632192, 46.447485], [7.632237, 46.447648], [7.632376, 46.447822], [7.6324, 46.447923], [7.632493, 46.447984], [7.632511, 46.448044], [7.632588, 46.448067], [7.632646, 46.448148], [7.632725, 46.448177], [7.632731, 46.448211], [7.63291, 46.448344], [7.633004, 46.44848], [7.633092, 46.44851], [7.633201, 46.448607], [7.633376, 46.448641], [7.633503, 46.448806], [7.633615, 46.448875], [7.633682, 46.448981], [7.633669, 46.449015], [7.633736, 46.449182], [7.633712, 46.449275], [7.633943, 46.449527], [7.634024, 46.449563], [7.634024, 46.449647], [7.634166, 46.449657], [7.634267, 46.449726], [7.63427, 46.449708], [7.634319, 46.449733], [7.634347, 46.449776], [7.634505, 46.449804], [7.634629, 46.449883], [7.634615, 46.449896], [7.634609, 46.449871], [7.634636, 46.449867], [7.634626, 46.449901], [7.634646, 46.449887], [7.634694, 46.449926], [7.634637, 46.449962], [7.634658, 46.449938], [7.634711, 46.449967], [7.634818, 46.450135], [7.634927, 46.450195], [7.635377, 46.450336], [7.635516, 46.450267], [7.635617, 46.450291], [7.635812, 46.450278], [7.635979, 46.450203], [7.63621, 46.450019], [7.636467, 46.449958], [7.636594, 46.450011], [7.636782, 46.450214], [7.637181, 46.450452], [7.637336, 46.45065], [7.637336, 46.450999], [7.637398, 46.451047], [7.637448, 46.451168], [7.637723, 46.451417], [7.637748, 46.451492], [7.637731, 46.451629], [7.637765, 46.451696], [7.637906, 46.451753], [7.638276, 46.451808], [7.638427, 46.451904], [7.63848, 46.451997], [7.638411, 46.452189], [7.638519, 46.452273], [7.638551, 46.452353], [7.63865, 46.452417], [7.638807, 46.452644], [7.638991, 46.452776], [7.639046, 46.452893], [7.639163, 46.453025], [7.639628, 46.45318], [7.63977, 46.453297], [7.639897, 46.453331], [7.640104, 46.453456], [7.640424, 46.453543], [7.640522, 46.453547], [7.640513, 46.45353], [7.640667, 46.453583], [7.640733, 46.453574], [7.640902, 46.453648], [7.640938, 46.453755], [7.640779, 46.45387], [7.640683, 46.454034], [7.640758, 46.454344], [7.641077, 46.454664], [7.6412, 46.454706], [7.641366, 46.454862], [7.641483, 46.454933], [7.641748, 46.45501], [7.641876, 46.455097], [7.641973, 46.45519], [7.642029, 46.455308], [7.642208, 46.455415], [7.642267, 46.455554], [7.642432, 46.455704], [7.642675, 46.455745], [7.642875, 46.455822], [7.642972, 46.455936], [7.64317, 46.455952], [7.643373, 46.456002], [7.643741, 46.455962], [7.643894, 46.455886], [7.644025, 46.455853], [7.644213, 46.455862], [7.644309, 46.455823], [7.644328, 46.455745], [7.644369, 46.455717], [7.644489, 46.455754], [7.644357, 46.455868], [7.64436, 46.455947], [7.644626, 46.456074], [7.644897, 46.456046], [7.644894, 46.456014], [7.645132, 46.456021], [7.645362, 46.455997], [7.645611, 46.456033], [7.645939, 46.456011], [7.64617, 46.456048], [7.646391, 46.456048], [7.646411, 46.456032], [7.646346, 46.455813], [7.646458, 46.455543], [7.64646, 46.455581], [7.64649, 46.45556], [7.646791, 46.455666], [7.646867, 46.455717], [7.647007, 46.455749], [7.6471, 46.455814], [7.647352, 46.455887], [7.647444, 46.455948], [7.647546, 46.455973], [7.647754, 46.456096], [7.647834, 46.456201], [7.648035, 46.456222], [7.64827, 46.456329], [7.648415, 46.456323], [7.648496, 46.456371], [7.648596, 46.456393], [7.648657, 46.456429], [7.648778, 46.456596], [7.649049, 46.456775], [7.649246, 46.457051], [7.649325, 46.457103], [7.649316, 46.457211], [7.649374, 46.45727], [7.649421, 46.457271], [7.649528, 46.457333], [7.64971, 46.457588], [7.649881, 46.457679], [7.649959, 46.457678], [7.649947, 46.457692], [7.650046, 46.457669], [7.650051, 46.457689], [7.650121, 46.457699], [7.650182, 46.457757], [7.650215, 46.457902], [7.650248, 46.457913], [7.650301, 46.458025], [7.650348, 46.458067], [7.650352, 46.458038], [7.650419, 46.458039], [7.650423, 46.458023], [7.65039, 46.458019], [7.650422, 46.45803], [7.650366, 46.458047], [7.650368, 46.458077], [7.650464, 46.458091], [7.650427, 46.458129], [7.650483, 46.458114], [7.650472, 46.458199], [7.650492, 46.458145], [7.663311, 46.476878]]}, "properties": {"name": "1786685994.Lammerenhutte_Sunnbuhl", "cmt": "2026-08-14", "tstamp": 1786665600, "desc": "DownHill", "src": "7.57451/46.396015/7.663314/46.476879", "bbox": "7.57451/46.396015/7.663314/46.476879"}}, {"type": "Feature", "bbox": [7.57451, 46.396015, 7.663314, 46.476879], "geometry": {"type": "LineString", "coordinates": [[7.663314, 46.476879], [7.663312, 46.476879]]}, "properties": {"name": "1786685994.Lammerenhutte_Sunnbuhl", "cmt": "2026-08-14", "tstamp": 1786665600, "desc": "UpHill", "src": "7.57451/46.396015/7.663314/46.476879", "bbox": "7.57451/46.396015/7.663314/46.476879"}}]}