{"type": "FeatureCollection", "name": "TrackSet", "crs": {"type": "name", "properties": {"name": "urn:ogc:def:crs:OGC:1.3:CRS84"}}, "bbox": [7.342746, 45.939242, 7.383163, 46.002569], "features": [{"type": "Feature", "bbox": [7.342746, 45.939242, 7.383163, 46.002569], "geometry": {"type": "LineString", "coordinates": [[7.342902, 46.002549], [7.342828, 46.002569], [7.342746, 46.002506], [7.34292, 46.00243], [7.342909, 46.002392], [7.342972, 46.002323], [7.342962, 46.002284], [7.342921, 46.002297], [7.342908, 46.002362], [7.342932, 46.002273], [7.343014, 46.002293], [7.342976, 46.002255], [7.342993, 46.002216], [7.34296, 46.002197], [7.342994, 46.002172], [7.343043, 46.002176], [7.343042, 46.002159], [7.343052, 46.00218], [7.342943, 46.002113], [7.343014, 46.002065], [7.342977, 46.001989], [7.343041, 46.001965], [7.343032, 46.002024], [7.342987, 46.001998], [7.343003, 46.002021], [7.343051, 46.00203], [7.343034, 46.001998], [7.34307, 46.002033], [7.343171, 46.002023], [7.343234, 46.001961], [7.343285, 46.001647], [7.343248, 46.001624], [7.343253, 46.001534], [7.343213, 46.001465], [7.343243, 46.0014], [7.343218, 46.001401], [7.3432, 46.001333], [7.343254, 46.001272], [7.343332, 46.001269], [7.343296, 46.00125], [7.343309, 46.001149], [7.343261, 46.001143], [7.343294, 46.001105], [7.343298, 46.000999], [7.343347, 46.000973], [7.343358, 46.000828], [7.343335, 46.000795], [7.3434, 46.000682], [7.343364, 46.000669], [7.343425, 46.000645], [7.343485, 46.000449], [7.343626, 46.000329], [7.343739, 46.000124], [7.343868, 46.000085], [7.343972, 45.999976], [7.344209, 45.999867], [7.344254, 45.999778], [7.344327, 45.999778], [7.345401, 45.998383], [7.345175, 45.997992], [7.345232, 45.997968], [7.34515, 45.997899], [7.34632, 45.998188], [7.345659, 45.997624], [7.345701, 45.997626], [7.345768, 45.997576], [7.346177, 45.997501], [7.346433, 45.997506], [7.346581, 45.997478], [7.346893, 45.997531], [7.347286, 45.997502], [7.347374, 45.99752], [7.347409, 45.997555], [7.347887, 45.9976], [7.348003, 45.997661], [7.348135, 45.997684], [7.348162, 45.99779], [7.348109, 45.997718], [7.34821, 45.997769], [7.348369, 45.997797], [7.348625, 45.997925], [7.348734, 45.99795], [7.349372, 45.998354], [7.349435, 45.998432], [7.349743, 45.998649], [7.349951, 45.998925], [7.350222, 45.999486], [7.350239, 45.999586], [7.350483, 45.999608], [7.350634, 45.999592], [7.35059, 45.999622], [7.350948, 45.998296], [7.350852, 45.998248], [7.350879, 45.998234], [7.350785, 45.998175], [7.351673, 45.997863], [7.351618, 45.997905], [7.351603, 45.997887], [7.351679, 45.997883], [7.351691, 45.997901], [7.351714, 45.997867], [7.351813, 45.99785], [7.351874, 45.997804], [7.351893, 45.997745], [7.352055, 45.997647], [7.352068, 45.997549], [7.352129, 45.997511], [7.352197, 45.997377], [7.352381, 45.997352], [7.352336, 45.997321], [7.352329, 45.997274], [7.352366, 45.99723], [7.352363, 45.997166], [7.352539, 45.997091], [7.353113, 45.996674], [7.35317, 45.996473], [7.353082, 45.996408], [7.353032, 45.996438], [7.353101, 45.996455], [7.353279, 45.996566], [7.353295, 45.996668], [7.353449, 45.996641], [7.353488, 45.996688], [7.353988, 45.995848], [7.353622, 45.995923], [7.354005, 45.995955], [7.3541, 45.995895], [7.354204, 45.995906], [7.354187, 45.995888], [7.354305, 45.995891], [7.354329, 45.995864], [7.354315, 45.995788], [7.354382, 45.995775], [7.354407, 45.995723], [7.354294, 45.995622], [7.354325, 45.995609], [7.354272, 45.995554], [7.354267, 45.995449], [7.354358, 45.995388], [7.354354, 45.995346], [7.354403, 45.995297], [7.35461, 45.995247], [7.354763, 45.995116], [7.354774, 45.995052], [7.354589, 45.994919], [7.354724, 45.994877], [7.354687, 45.994826], [7.354848, 45.994739], [7.355103, 45.994525], [7.355182, 45.994496], [7.355201, 45.994452], [7.355167, 45.994383], [7.355202, 45.994336], [7.355214, 45.994196], [7.355309, 45.994139], [7.355373, 45.994055], [7.3553, 45.993954], [7.355348, 45.993857], [7.355285, 45.9938], [7.355319, 45.99375], [7.355289, 45.993644], [7.355319, 45.993615], [7.355274, 45.993569], [7.355161, 45.993551], [7.355126, 45.993479], [7.355147, 45.993481], [7.355135, 45.993368], [7.355102, 45.993329], [7.355111, 45.993217], [7.355082, 45.993182], [7.355141, 45.993122], [7.354897, 45.993022], [7.354677, 45.992969], [7.354661, 45.992876], [7.354588, 45.992818], [7.354621, 45.992793], [7.354614, 45.992746], [7.354645, 45.992747], [7.35458, 45.992641], [7.354649, 45.99252], [7.354607, 45.992448], [7.354563, 45.992435], [7.3546, 45.99244], [7.354607, 45.992419], [7.35456, 45.992357], [7.354551, 45.992239], [7.354494, 45.992225], [7.354401, 45.992073], [7.354439, 45.991987], [7.354434, 45.991906], [7.354367, 45.991811], [7.354417, 45.991696], [7.354349, 45.991644], [7.354371, 45.991559], [7.354441, 45.991486], [7.354415, 45.991193], [7.354473, 45.991097], [7.354484, 45.991009], [7.354564, 45.990915], [7.354527, 45.990879], [7.354563, 45.990897], [7.354612, 45.990884], [7.354671, 45.990829], [7.354721, 45.990553], [7.35482, 45.990448], [7.354753, 45.990365], [7.354786, 45.990185], [7.354761, 45.990084], [7.354849, 45.989965], [7.354972, 45.989914], [7.354976, 45.989777], [7.355123, 45.989648], [7.355157, 45.989528], [7.355262, 45.989421], [7.355259, 45.989323], [7.355302, 45.989248], [7.355389, 45.989203], [7.355456, 45.989114], [7.355506, 45.9891], [7.355502, 45.989067], [7.355652, 45.988944], [7.355675, 45.98888], [7.355779, 45.988818], [7.355789, 45.988725], [7.355882, 45.98865], [7.355879, 45.988493], [7.355912, 45.988402], [7.356014, 45.988277], [7.356043, 45.98817], [7.356135, 45.988109], [7.356303, 45.987852], [7.356419, 45.987816], [7.356461, 45.98771], [7.356442, 45.987582], [7.356493, 45.987483], [7.356402, 45.987431], [7.356313, 45.987277], [7.356428, 45.986958], [7.356426, 45.98688], [7.35643, 45.98697], [7.356466, 45.987006], [7.356556, 45.986929], [7.356639, 45.986924], [7.356719, 45.986871], [7.356649, 45.986988], [7.356735, 45.987001], [7.356767, 45.986959], [7.3568, 45.98696], [7.356725, 45.987014], [7.356899, 45.986963], [7.356898, 45.98693], [7.357071, 45.986891], [7.357055, 45.986959], [7.357201, 45.986993], [7.357253, 45.986948], [7.357161, 45.986961], [7.357146, 45.986943], [7.357254, 45.986981], [7.357282, 45.986967], [7.357256, 45.986955], [7.357286, 45.986937], [7.357276, 45.986905], [7.357275, 45.986968], [7.357285, 45.986949], [7.357358, 45.986933], [7.357341, 45.98695], [7.357323, 45.986904], [7.357411, 45.986897], [7.35742, 45.986838], [7.357331, 45.986845], [7.357372, 45.986846], [7.357421, 45.9868], [7.357487, 45.986799], [7.357521, 45.986772], [7.357553, 45.986829], [7.357429, 45.986916], [7.35752, 45.986913], [7.357578, 45.986886], [7.357623, 45.986907], [7.357622, 45.986953], [7.357539, 45.986965], [7.357433, 45.987033], [7.357274, 45.98704], [7.357209, 45.987095], [7.357398, 45.987122], [7.357504, 45.987162], [7.357358, 45.987188], [7.357437, 45.987216], [7.357369, 45.987228], [7.357407, 45.987259], [7.357289, 45.987321], [7.357307, 45.987353], [7.357281, 45.987401], [7.357346, 45.987407], [7.357262, 45.987473], [7.357275, 45.987521], [7.357319, 45.987536], [7.357398, 45.987486], [7.3575, 45.987483], [7.357536, 45.987458], [7.357631, 45.987469], [7.357568, 45.987497], [7.357557, 45.987529], [7.35742, 45.987567], [7.357359, 45.987622], [7.357335, 45.987612], [7.357341, 45.987646], [7.357403, 45.98764], [7.357397, 45.987668], [7.357193, 45.987926], [7.357276, 45.987932], [7.357371, 45.987852], [7.357466, 45.987819], [7.357585, 45.987891], [7.357643, 45.987889], [7.35773, 45.987832], [7.35777, 45.987833], [7.357893, 45.987939], [7.357947, 45.988059], [7.358056, 45.988074], [7.358206, 45.988064], [7.358229, 45.988044], [7.358234, 45.988071], [7.358172, 45.988085], [7.3582, 45.988157], [7.358117, 45.988179], [7.358092, 45.988232], [7.358162, 45.988276], [7.358261, 45.988288], [7.358294, 45.98828], [7.358376, 45.98811], [7.358439, 45.988063], [7.358433, 45.98794], [7.358491, 45.987848], [7.358704, 45.987679], [7.358701, 45.987649], [7.358804, 45.987631], [7.358984, 45.987551], [7.359189, 45.987529], [7.35924, 45.98749], [7.359377, 45.987461], [7.359632, 45.987458], [7.359691, 45.98741], [7.3599, 45.98736], [7.360106, 45.987357], [7.360193, 45.987392], [7.360271, 45.987357], [7.360303, 45.987308], [7.360498, 45.987249], [7.360768, 45.987056], [7.36083, 45.98708], [7.360747, 45.987226], [7.360746, 45.987322], [7.360546, 45.98746], [7.360551, 45.9875], [7.360587, 45.987505], [7.360754, 45.98742], [7.360928, 45.987377], [7.360964, 45.987297], [7.361091, 45.987226], [7.361244, 45.98708], [7.361298, 45.986862], [7.361396, 45.986784], [7.361394, 45.986744], [7.36151, 45.986627], [7.361502, 45.986562], [7.361551, 45.986514], [7.361544, 45.986483], [7.361578, 45.986475], [7.361542, 45.986457], [7.361585, 45.986442], [7.361615, 45.986381], [7.36158, 45.986374], [7.361613, 45.986347], [7.361585, 45.986332], [7.36167, 45.986287], [7.361679, 45.98626], [7.361645, 45.986267], [7.3617, 45.986223], [7.361671, 45.986205], [7.361741, 45.986186], [7.361746, 45.986145], [7.361826, 45.986124], [7.361823, 45.986092], [7.361884, 45.986067], [7.361898, 45.98594], [7.361989, 45.985888], [7.361966, 45.985875], [7.362039, 45.985839], [7.362099, 45.985744], [7.362032, 45.985646], [7.36203, 45.98539], [7.361988, 45.985306], [7.36202, 45.985101], [7.361946, 45.985038], [7.361985, 45.984998], [7.362007, 45.984871], [7.361977, 45.984714], [7.362059, 45.984537], [7.362049, 45.984435], [7.362102, 45.984406], [7.362193, 45.984459], [7.362268, 45.984672], [7.362313, 45.984688], [7.362371, 45.984665], [7.362479, 45.984173], [7.362592, 45.98395], [7.362606, 45.983815], [7.362571, 45.983739], [7.362618, 45.983665], [7.362641, 45.983476], [7.362468, 45.983191], [7.362443, 45.983029], [7.362356, 45.982877], [7.362382, 45.982842], [7.362346, 45.982817], [7.362365, 45.982712], [7.362341, 45.98251], [7.362404, 45.982343], [7.362495, 45.982227], [7.362491, 45.982108], [7.362418, 45.982046], [7.362394, 45.981973], [7.362417, 45.981932], [7.362397, 45.981731], [7.362343, 45.981709], [7.362382, 45.981694], [7.362328, 45.981616], [7.36232, 45.981472], [7.362425, 45.981308], [7.362453, 45.981207], [7.362634, 45.980953], [7.362724, 45.98061], [7.36271, 45.980542], [7.362844, 45.980379], [7.362889, 45.980269], [7.362888, 45.980162], [7.362829, 45.98009], [7.362835, 45.980057], [7.363132, 45.979603], [7.363138, 45.979347], [7.363201, 45.979214], [7.363058, 45.979131], [7.363023, 45.979077], [7.363048, 45.978972], [7.362985, 45.978941], [7.362952, 45.978951], [7.362853, 45.978869], [7.362776, 45.978659], [7.362665, 45.978595], [7.362595, 45.978506], [7.362605, 45.978417], [7.362555, 45.978292], [7.362609, 45.978199], [7.362493, 45.97807], [7.36249, 45.977967], [7.362457, 45.977928], [7.362501, 45.977905], [7.362474, 45.97783], [7.362515, 45.977725], [7.362597, 45.97766], [7.362626, 45.977546], [7.362672, 45.977531], [7.362703, 45.977456], [7.362776, 45.977387], [7.362752, 45.977345], [7.362786, 45.977296], [7.36277, 45.977253], [7.362845, 45.977119], [7.362836, 45.977082], [7.362894, 45.977038], [7.362994, 45.976817], [7.363048, 45.976768], [7.363074, 45.976643], [7.363176, 45.976588], [7.363379, 45.976342], [7.363456, 45.976268], [7.363558, 45.976227], [7.363634, 45.976123], [7.363737, 45.976067], [7.363766, 45.976011], [7.363933, 45.975973], [7.364047, 45.975892], [7.36408, 45.975818], [7.364201, 45.975792], [7.364199, 45.975738], [7.364358, 45.975661], [7.364381, 45.975639], [7.364366, 45.975624], [7.364341, 45.975644], [7.364375, 45.975636], [7.364353, 45.975622], [7.364386, 45.975626], [7.364368, 45.975659], [7.364372, 45.975635], [7.364392, 45.975643], [7.364363, 45.975603], [7.364405, 45.975633], [7.364453, 45.975606], [7.364467, 45.975526], [7.36459, 45.975468], [7.364605, 45.975431], [7.364708, 45.975407], [7.364712, 45.975381], [7.364679, 45.975381], [7.364754, 45.975366], [7.364818, 45.975288], [7.365014, 45.975201], [7.365034, 45.975116], [7.3651, 45.975066], [7.365083, 45.975025], [7.36512, 45.975001], [7.365132, 45.974884], [7.365185, 45.974805], [7.365365, 45.97465], [7.365358, 45.974571], [7.365446, 45.974409], [7.365447, 45.974239], [7.365472, 45.974206], [7.36541, 45.974096], [7.365465, 45.973958], [7.365392, 45.973811], [7.365425, 45.973706], [7.365405, 45.973658], [7.36547, 45.973589], [7.365435, 45.973538], [7.365517, 45.973313], [7.365504, 45.973254], [7.365632, 45.973168], [7.365669, 45.973091], [7.365597, 45.972948], [7.365592, 45.972729], [7.365638, 45.97259], [7.365591, 45.972518], [7.365582, 45.972239], [7.365709, 45.971973], [7.365836, 45.971885], [7.36581, 45.971821], [7.365844, 45.971725], [7.365989, 45.971517], [7.365957, 45.971478], [7.366016, 45.971423], [7.365999, 45.971326], [7.365941, 45.971245], [7.365994, 45.971046], [7.365931, 45.970955], [7.365881, 45.970796], [7.3659, 45.970737], [7.365843, 45.970653], [7.365926, 45.970324], [7.365857, 45.97006], [7.36587, 45.96997], [7.365825, 45.969933], [7.365835, 45.96987], [7.365792, 45.969803], [7.365838, 45.969732], [7.36597, 45.969697], [7.366029, 45.969644], [7.366097, 45.969504], [7.365947, 45.969387], [7.365909, 45.969276], [7.365688, 45.969078], [7.36576, 45.968773], [7.365831, 45.968663], [7.365838, 45.968541], [7.365868, 45.968507], [7.365842, 45.968501], [7.365861, 45.968398], [7.365838, 45.968353], [7.365919, 45.968236], [7.365904, 45.968184], [7.36598, 45.968062], [7.365991, 45.967975], [7.366094, 45.967894], [7.366072, 45.967808], [7.366136, 45.967767], [7.366222, 45.96763], [7.36644, 45.9675], [7.366476, 45.96743], [7.366579, 45.96734], [7.366663, 45.967139], [7.366647, 45.967087], [7.366792, 45.966847], [7.366717, 45.966784], [7.366683, 45.966645], [7.366634, 45.966617], [7.366565, 45.966632], [7.366518, 45.966544], [7.366319, 45.966444], [7.366239, 45.96637], [7.366228, 45.966273], [7.36627, 45.966232], [7.366258, 45.966181], [7.366213, 45.966132], [7.366192, 45.965982], [7.366141, 45.965932], [7.366144, 45.965833], [7.366015, 45.965735], [7.366028, 45.965648], [7.365994, 45.965605], [7.366054, 45.965515], [7.366085, 45.965515], [7.366058, 45.965523], [7.366053, 45.965493], [7.366101, 45.965423], [7.366047, 45.965288], [7.366072, 45.965196], [7.366163, 45.965109], [7.366168, 45.965036], [7.366439, 45.964821], [7.366509, 45.964715], [7.366522, 45.964637], [7.3666, 45.964592], [7.366743, 45.964406], [7.366737, 45.964374], [7.366922, 45.96418], [7.366942, 45.964059], [7.36703, 45.963935], [7.367119, 45.96387], [7.367098, 45.963784], [7.367179, 45.963699], [7.367218, 45.963549], [7.367305, 45.963445], [7.367327, 45.963342], [7.367498, 45.963149], [7.367571, 45.963129], [7.367591, 45.963088], [7.367633, 45.963077], [7.367618, 45.963022], [7.367689, 45.962932], [7.367901, 45.962808], [7.36797, 45.96272], [7.368234, 45.962611], [7.368352, 45.962493], [7.368537, 45.962425], [7.368703, 45.962324], [7.368804, 45.962231], [7.368982, 45.962131], [7.369034, 45.962056], [7.369143, 45.962005], [7.369258, 45.961865], [7.369458, 45.96177], [7.369628, 45.961606], [7.369733, 45.961578], [7.369768, 45.961526], [7.369843, 45.961507], [7.369956, 45.961378], [7.370004, 45.961377], [7.370265, 45.961262], [7.370288, 45.961217], [7.370384, 45.961177], [7.370397, 45.961197], [7.370441, 45.961119], [7.370591, 45.96111], [7.370619, 45.961059], [7.370874, 45.960883], [7.370958, 45.960877], [7.371168, 45.960704], [7.371243, 45.960677], [7.371386, 45.960536], [7.37162, 45.960444], [7.371675, 45.960319], [7.371797, 45.96025], [7.371818, 45.960144], [7.371873, 45.960095], [7.371869, 45.960034], [7.37193, 45.960018], [7.372138, 45.959739], [7.37228, 45.959658], [7.372371, 45.959653], [7.372397, 45.959616], [7.372503, 45.959603], [7.372622, 45.959543], [7.3726, 45.95952], [7.372692, 45.959386], [7.372794, 45.959359], [7.372855, 45.959372], [7.372883, 45.95934], [7.372945, 45.95933], [7.372966, 45.959276], [7.373081, 45.959253], [7.373099, 45.959208], [7.373225, 45.959202], [7.37332, 45.959142], [7.37355, 45.959065], [7.373659, 45.958965], [7.373785, 45.958929], [7.374, 45.958799], [7.374048, 45.958724], [7.374145, 45.958686], [7.374248, 45.958682], [7.374389, 45.958558], [7.374398, 45.958503], [7.374479, 45.958502], [7.374475, 45.95852], [7.374508, 45.958491], [7.374605, 45.958503], [7.374667, 45.958484], [7.374756, 45.958327], [7.374894, 45.958307], [7.375011, 45.958211], [7.375095, 45.958181], [7.375125, 45.958125], [7.375319, 45.958081], [7.37536, 45.95805], [7.375457, 45.958056], [7.375569, 45.958002], [7.375622, 45.957944], [7.375726, 45.957931], [7.375756, 45.957753], [7.375843, 45.957664], [7.375835, 45.957593], [7.3759, 45.957523], [7.375949, 45.957521], [7.375937, 45.95747], [7.37602, 45.95741], [7.376083, 45.957408], [7.376149, 45.957382], [7.376161, 45.957353], [7.376229, 45.957338], [7.376352, 45.957075], [7.376517, 45.956899], [7.376482, 45.956764], [7.376601, 45.956591], [7.37659, 45.956518], [7.376719, 45.956375], [7.377061, 45.956227], [7.377178, 45.956203], [7.377431, 45.956054], [7.377502, 45.955967], [7.377663, 45.955869], [7.377688, 45.955805], [7.378042, 45.955599], [7.378185, 45.955471], [7.378388, 45.955407], [7.378445, 45.955362], [7.378538, 45.955228], [7.378526, 45.955075], [7.378475, 45.955028], [7.378349, 45.954995], [7.378312, 45.95496], [7.37828, 45.954853], [7.378186, 45.954733], [7.378238, 45.954646], [7.378404, 45.954496], [7.378427, 45.954346], [7.378477, 45.954321], [7.378412, 45.954273], [7.378489, 45.95417], [7.378588, 45.954082], [7.378619, 45.954069], [7.378617, 45.954088], [7.378865, 45.953926], [7.379008, 45.953797], [7.379032, 45.95363], [7.378951, 45.953504], [7.379169, 45.953329], [7.379196, 45.953234], [7.379236, 45.953213], [7.379242, 45.953122], [7.379279, 45.953109], [7.379153, 45.95303], [7.379069, 45.952926], [7.379068, 45.952751], [7.378988, 45.952637], [7.37897, 45.95257], [7.379003, 45.952485], [7.378961, 45.952422], [7.379012, 45.952291], [7.379136, 45.952253], [7.379087, 45.952217], [7.379063, 45.952102], [7.378954, 45.952033], [7.378955, 45.951973], [7.379047, 45.951892], [7.379247, 45.951803], [7.37942, 45.951854], [7.379497, 45.951853], [7.37963, 45.951804], [7.379733, 45.951825], [7.379758, 45.951803], [7.379896, 45.951797]]}, "properties": {"name": "1786347877.Mauvoisin_Chanrion_refuge", "cmt": "2026-08-10", "tstamp": 1786320000, "desc": "UpHill", "src": "7.342746/45.939242/7.383163/46.002569", "bbox": "7.342746/45.939242/7.383163/46.002569"}}, {"type": "Feature", "bbox": [7.342746, 45.939242, 7.383163, 46.002569], "geometry": {"type": "LineString", "coordinates": [[7.379901, 45.951797], [7.38013, 45.951664], [7.380064, 45.951586], [7.380075, 45.951547], [7.380122, 45.951539], [7.380052, 45.95153], [7.380052, 45.951511], [7.380198, 45.951512], [7.380259, 45.951485], [7.380122, 45.951436], [7.380173, 45.951417], [7.38023, 45.951437], [7.380261, 45.951381], [7.380324, 45.951384], [7.380288, 45.951326], [7.380335, 45.951323], [7.380311, 45.951302], [7.38035, 45.951263], [7.38047, 45.951217], [7.38043, 45.951175], [7.380456, 45.951142], [7.380567, 45.951148], [7.380598, 45.951109], [7.380501, 45.951079], [7.380536, 45.951057], [7.380631, 45.951046], [7.380872, 45.950927], [7.381088, 45.950892], [7.38108, 45.950835], [7.381225, 45.950811], [7.381286, 45.950829], [7.381274, 45.950813], [7.381315, 45.950798], [7.381405, 45.950824], [7.381387, 45.950841], [7.381444, 45.950806], [7.381543, 45.950815], [7.381703, 45.950783], [7.381835, 45.950794], [7.381839, 45.95076], [7.381877, 45.950772], [7.381905, 45.950732], [7.38208, 45.950697], [7.382162, 45.950637], [7.382267, 45.950637], [7.382354, 45.950548], [7.382499, 45.950523], [7.382668, 45.950437], [7.382712, 45.950436], [7.382951, 45.950137], [7.382978, 45.950113], [7.382977, 45.950152], [7.382974, 45.950119], [7.383089, 45.950077], [7.383101, 45.95002], [7.383054, 45.949993], [7.383085, 45.949877], [7.383044, 45.94984], [7.383016, 45.949848], [7.383063, 45.949823], [7.382994, 45.949759], [7.383021, 45.949631], [7.383056, 45.949606], [7.383034, 45.949479], [7.383013, 45.949501], [7.382982, 45.949493], [7.383029, 45.949521], [7.382985, 45.949476], [7.383024, 45.949471], [7.383022, 45.949496], [7.382996, 45.949503], [7.383003, 45.949464], [7.383063, 45.94945], [7.383087, 45.949415], [7.383101, 45.949341], [7.383058, 45.949317], [7.383092, 45.949296], [7.383116, 45.949172], [7.383163, 45.949146], [7.383077, 45.949012], [7.383116, 45.948864], [7.38307, 45.948851], [7.383044, 45.948761], [7.382923, 45.948643], [7.382854, 45.948486], [7.382717, 45.948454], [7.382794, 45.948382], [7.382738, 45.94835], [7.38267, 45.948369], [7.382656, 45.948332], [7.382693, 45.948305], [7.382657, 45.948233], [7.382531, 45.94813], [7.382382, 45.948132], [7.38224, 45.948102], [7.382301, 45.947945], [7.382255, 45.947924], [7.382327, 45.947862], [7.38228, 45.947805], [7.382171, 45.947744], [7.382144, 45.947757], [7.382147, 45.947715], [7.38204, 45.94762], [7.381932, 45.947612], [7.381919, 45.94755], [7.381824, 45.947496], [7.381813, 45.94745], [7.381736, 45.947421], [7.381688, 45.947431], [7.381668, 45.947395], [7.38149, 45.947287], [7.381391, 45.947266], [7.381318, 45.947176], [7.381183, 45.947077], [7.381113, 45.94706], [7.380952, 45.946858], [7.380879, 45.946808], [7.380908, 45.946657], [7.380833, 45.946487], [7.380673, 45.946359], [7.380675, 45.946276], [7.380564, 45.946245], [7.380446, 45.946126], [7.380296, 45.946034], [7.380256, 45.945961], [7.380352, 45.945894], [7.380385, 45.945765], [7.380561, 45.945539], [7.380541, 45.945497], [7.380569, 45.945399], [7.380667, 45.945343], [7.380682, 45.945255], [7.380661, 45.945259], [7.380738, 45.945201], [7.380719, 45.945143], [7.380778, 45.945095], [7.380658, 45.944943], [7.3807, 45.944912], [7.380645, 45.944839], [7.380452, 45.944368], [7.380528, 45.944302], [7.380498, 45.944269], [7.380562, 45.944104], [7.38069, 45.944018], [7.380672, 45.943858], [7.380695, 45.943792], [7.380742, 45.943784], [7.380722, 45.943586], [7.380762, 45.943559], [7.38069, 45.943475], [7.380597, 45.94347], [7.380551, 45.943442], [7.380459, 45.943343], [7.380553, 45.943322], [7.380602, 45.943258], [7.380751, 45.943214], [7.38074, 45.943193], [7.380822, 45.943114], [7.380833, 45.943064], [7.380945, 45.942975], [7.380928, 45.942902], [7.380954, 45.942866], [7.380938, 45.942733], [7.380881, 45.94269], [7.380884, 45.942631], [7.380838, 45.942567], [7.380748, 45.942538], [7.380707, 45.942572], [7.380735, 45.942557], [7.380737, 45.942578], [7.380799, 45.94253], [7.38068, 45.942318], [7.380674, 45.9422], [7.380763, 45.942107], [7.380687, 45.941989], [7.380665, 45.941692], [7.380608, 45.941506], [7.380651, 45.941465], [7.380618, 45.941233], [7.380679, 45.941187], [7.380663, 45.941112], [7.380741, 45.940952], [7.380699, 45.940882], [7.380722, 45.940845], [7.380687, 45.940736], [7.380711, 45.940619], [7.380778, 45.940583], [7.380746, 45.940538], [7.380842, 45.940505], [7.380886, 45.940423], [7.380893, 45.940273], [7.380838, 45.940085], [7.380843, 45.93997], [7.380952, 45.939868], [7.381084, 45.939605], [7.381055, 45.939591], [7.381084, 45.939492], [7.38102, 45.939415], [7.381022, 45.939344], [7.380974, 45.939273], [7.38095, 45.939247], [7.380795, 45.939242]]}, "properties": {"name": "1786347877.Mauvoisin_Chanrion_refuge", "cmt": "2026-08-10", "tstamp": 1786320000, "desc": "DownHill", "src": "7.342746/45.939242/7.383163/46.002569", "bbox": "7.342746/45.939242/7.383163/46.002569"}}]}