{"type": "FeatureCollection", "name": "TrackSet", "crs": {"type": "name", "properties": {"name": "urn:ogc:def:crs:OGC:1.3:CRS84"}}, "bbox": [7.62549, 46.378155, 7.629899, 46.382715], "features": [{"type": "Feature", "bbox": [7.62549, 46.378155, 7.629899, 46.382715], "geometry": {"type": "LineString", "coordinates": [[7.628608, 46.379378], [7.628378, 46.379583], [7.628354, 46.379644], [7.628158, 46.379744], [7.628155, 46.379793], [7.628118, 46.379811], [7.628108, 46.379785], [7.627943, 46.379799], [7.627941, 46.379826], [7.628297, 46.379949], [7.628501, 46.379965], [7.628729, 46.380043], [7.628921, 46.380041], [7.629065, 46.38012], [7.629162, 46.380182], [7.629205, 46.380291], [7.629169, 46.380343], [7.629184, 46.380446], [7.629107, 46.380544], [7.628998, 46.38062], [7.628927, 46.380713], [7.628822, 46.380676], [7.628715, 46.380706], [7.62858, 46.380707], [7.628219, 46.380834], [7.628184, 46.380871], [7.627932, 46.380891], [7.627844, 46.38094], [7.627669, 46.38093], [7.627599, 46.380903], [7.627535, 46.380924], [7.627552, 46.38094], [7.627524, 46.380897], [7.627479, 46.380891], [7.62736, 46.38095], [7.627391, 46.380908], [7.627283, 46.380995], [7.627149, 46.381038], [7.62705, 46.381035], [7.627017, 46.381073], [7.627044, 46.381108], [7.62694, 46.381179], [7.626872, 46.381167], [7.626819, 46.381185], [7.626744, 46.381139], [7.626595, 46.381353], [7.626468, 46.381423], [7.626581, 46.381402], [7.626521, 46.381403], [7.62649, 46.38155], [7.626449, 46.381581], [7.626419, 46.381674], [7.626296, 46.381738], [7.626318, 46.381829], [7.626267, 46.381905], [7.626132, 46.382023], [7.625923, 46.382298], [7.6255, 46.382676], [7.625521, 46.382715], [7.62549, 46.382704], [7.625525, 46.382712], [7.625642, 46.382583], [7.625828, 46.382462], [7.625831, 46.382417], [7.626117, 46.382179], [7.626177, 46.382013], [7.626325, 46.381879], [7.626338, 46.381789], [7.626417, 46.381723], [7.626464, 46.38161], [7.6265, 46.381589], [7.626514, 46.381528], [7.626458, 46.381479], [7.626555, 46.381454], [7.626638, 46.381316], [7.62673, 46.381232], [7.626951, 46.381141], [7.626949, 46.381093], [7.627167, 46.381082], [7.627238, 46.381056], [7.627265, 46.381017], [7.627386, 46.38101], [7.627463, 46.380966], [7.627673, 46.380917], [7.627859, 46.380929], [7.627959, 46.380965], [7.628014, 46.380932], [7.628136, 46.380942], [7.628211, 46.380892], [7.628348, 46.38086], [7.628389, 46.380824], [7.628592, 46.380756], [7.628559, 46.380708], [7.628569, 46.38064], [7.628349, 46.380389], [7.628359, 46.380215], [7.628174, 46.380155], [7.627912, 46.380144], [7.627866, 46.380091], [7.627807, 46.380093], [7.627754, 46.380066], [7.627837, 46.380053], [7.627839, 46.380086], [7.62785, 46.380034], [7.6278, 46.380107], [7.627757, 46.380098], [7.627731, 46.38006], [7.627691, 46.379962], [7.627751, 46.379914], [7.627758, 46.379831], [7.627881, 46.379799], [7.628004, 46.379834], [7.627873, 46.37978], [7.627655, 46.379752], [7.627127, 46.379563], [7.627029, 46.379482], [7.626971, 46.379488], [7.626931, 46.379452], [7.626983, 46.379403], [7.626965, 46.379393], [7.626814, 46.379445], [7.626628, 46.379596], [7.626807, 46.379589], [7.626836, 46.379564], [7.626821, 46.379631], [7.626917, 46.379463], [7.626951, 46.379455], [7.627089, 46.379506], [7.62716, 46.379581], [7.627487, 46.379712], [7.627482, 46.379752], [7.627521, 46.379774], [7.627812, 46.379809], [7.627905, 46.379782], [7.628014, 46.379819], [7.62813, 46.379798], [7.628175, 46.379764], [7.628144, 46.379796], [7.628262, 46.379838], [7.628274, 46.379868], [7.628243, 46.379866], [7.628267, 46.379825], [7.628385, 46.379918], [7.628311, 46.379884], [7.628216, 46.379787], [7.628156, 46.379787], [7.628295, 46.379659], [7.628466, 46.379564], [7.628474, 46.379504], [7.628408, 46.37937], [7.628425, 46.379387], [7.628463, 46.379266], [7.628439, 46.379408], [7.628397, 46.379333], [7.628356, 46.379381], [7.628355, 46.379418], [7.628388, 46.379393], [7.628412, 46.37942], [7.628555, 46.379396], [7.628788, 46.378973], [7.628713, 46.378919], [7.628672, 46.37894], [7.628754, 46.378831], [7.62875, 46.378781], [7.628847, 46.378632], [7.628841, 46.378592], [7.629007, 46.378466], [7.629023, 46.378388], [7.629114, 46.378292], [7.62932, 46.378177], [7.629442, 46.378155], [7.629535, 46.378171], [7.629632, 46.378353], [7.629606, 46.378371], [7.629647, 46.378482], [7.629575, 46.378522], [7.629656, 46.378547], [7.629603, 46.378535], [7.62959, 46.378557], [7.629752, 46.378625], [7.629758, 46.378653], [7.629838, 46.378674], [7.629814, 46.378659], [7.629852, 46.378665], [7.629845, 46.378634], [7.629899, 46.378679]]}, "properties": {"name": "1786539093.Leukerbad", "cmt": "2026-08-12", "tstamp": 1786492800, "desc": "---", "src": "7.62549/46.378155/7.629899/46.382715", "bbox": "7.62549/46.378155/7.629899/46.382715"}}]}