{"type": "FeatureCollection", "name": "TrackSet", "crs": {"type": "name", "properties": {"name": "urn:ogc:def:crs:OGC:1.3:CRS84"}}, "bbox": [6.187991, 46.314779, 6.196175, 46.322648], "features": [{"type": "Feature", "bbox": [6.187991, 46.314779, 6.196175, 46.322648], "geometry": {"type": "LineString", "coordinates": [[6.190217, 46.321], [6.190368, 46.320946], [6.190437, 46.320861], [6.190429, 46.320815], [6.190307, 46.320766], [6.190094, 46.320731], [6.189968, 46.320562], [6.189823, 46.320478], [6.189741, 46.320361], [6.189523, 46.320198], [6.189462, 46.320163], [6.189269, 46.320122], [6.189209, 46.320052], [6.189186, 46.319964], [6.189094, 46.319933], [6.189061, 46.319948], [6.188973, 46.319929], [6.188835, 46.319838], [6.188736, 46.319595], [6.188512, 46.319193], [6.188501, 46.319108], [6.188307, 46.31869], [6.188215, 46.318578], [6.187991, 46.317797], [6.188087, 46.31777], [6.188206, 46.317497], [6.188303, 46.317429], [6.188414, 46.317443], [6.188568, 46.317569], [6.189021, 46.317593], [6.189362, 46.317495], [6.189603, 46.31746], [6.189639, 46.317425], [6.190357, 46.31719], [6.190527, 46.317183], [6.190526, 46.317207], [6.190619, 46.317221], [6.190919, 46.317092], [6.19101, 46.31699], [6.191365, 46.316763], [6.191539, 46.316601], [6.19162, 46.316477], [6.191773, 46.31647], [6.191839, 46.316264], [6.191987, 46.316209], [6.191967, 46.316143], [6.192047, 46.316132], [6.192153, 46.315997], [6.192228, 46.315968], [6.192285, 46.31586], [6.192294, 46.315736], [6.192371, 46.315699], [6.192425, 46.315627], [6.192312, 46.315595], [6.192683, 46.315338], [6.192895, 46.315053], [6.193194, 46.314797], [6.193158, 46.314811], [6.193181, 46.314779], [6.193168, 46.314823], [6.192875, 46.315014], [6.192845, 46.315158], [6.192428, 46.315454], [6.192319, 46.315485], [6.192304, 46.315549], [6.192392, 46.315641], [6.192537, 46.315713], [6.192561, 46.315763], [6.192657, 46.315787], [6.192746, 46.315872], [6.192805, 46.315862], [6.192799, 46.315947], [6.192851, 46.315968], [6.19301, 46.316191], [6.193091, 46.31622], [6.193108, 46.316304], [6.193233, 46.316319], [6.193289, 46.316399], [6.1932, 46.31627], [6.193273, 46.316462], [6.193398, 46.316464], [6.193472, 46.316515], [6.193513, 46.31669], [6.193897, 46.316995], [6.194027, 46.317168], [6.19403, 46.317215], [6.194129, 46.317339], [6.194192, 46.317565], [6.194266, 46.317616], [6.194265, 46.317675], [6.194409, 46.317802], [6.194429, 46.317944], [6.194463, 46.317948], [6.194465, 46.318083], [6.194534, 46.318112], [6.19465, 46.318271], [6.19473, 46.318504], [6.194869, 46.318702], [6.194969, 46.318937], [6.195113, 46.319132], [6.195168, 46.319283], [6.196175, 46.321045], [6.195931, 46.321187], [6.195698, 46.321259], [6.195262, 46.321468], [6.195086, 46.321514], [6.194757, 46.321553], [6.194541, 46.321496], [6.194284, 46.321615], [6.194035, 46.321704], [6.193987, 46.321702], [6.193891, 46.321767], [6.193104, 46.322074], [6.192752, 46.32225], [6.192339, 46.322413], [6.192307, 46.322474], [6.192187, 46.322564], [6.192162, 46.322648], [6.192081, 46.322608], [6.191929, 46.322619], [6.191839, 46.322575], [6.191878, 46.322499], [6.191834, 46.322503], [6.191852, 46.322461], [6.191763, 46.322504], [6.191813, 46.322497], [6.191865, 46.322426], [6.191858, 46.322392], [6.191766, 46.322365], [6.191824, 46.322346], [6.191793, 46.322338], [6.191696, 46.322349], [6.191635, 46.322382], [6.191618, 46.322301], [6.191429, 46.322324], [6.191364, 46.32237], [6.191435, 46.322373], [6.191426, 46.322429], [6.191464, 46.322435], [6.191471, 46.322417], [6.191422, 46.322455], [6.191434, 46.322475], [6.191395, 46.322474], [6.191395, 46.322454], [6.191655, 46.322368], [6.191737, 46.322378], [6.191935, 46.322322], [6.192028, 46.32232], [6.192177, 46.322229], [6.192159, 46.322203], [6.191939, 46.322324], [6.191878, 46.322272], [6.191898, 46.32226], [6.191881, 46.322287], [6.191716, 46.322281], [6.19169, 46.32224], [6.191541, 46.322276], [6.191379, 46.322196], [6.191303, 46.322217], [6.191326, 46.322196], [6.1913, 46.322088], [6.19122, 46.322079], [6.19118, 46.322014], [6.190989, 46.321986], [6.191026, 46.321953], [6.190848, 46.321911], [6.191021, 46.321749], [6.190957, 46.321766], [6.191001, 46.321726], [6.190951, 46.321676], [6.190954, 46.321621], [6.190772, 46.321579], [6.190889, 46.321484], [6.190792, 46.321442], [6.190839, 46.321326], [6.19073, 46.321258], [6.190811, 46.321149], [6.190653, 46.321098], [6.190693, 46.321029], [6.190644, 46.320988], [6.190511, 46.320996], [6.190543, 46.321029], [6.190521, 46.321082], [6.190637, 46.321117], [6.1906, 46.321144], [6.190719, 46.321126], [6.190817, 46.321157], [6.190611, 46.321219], [6.190632, 46.321254], [6.190675, 46.321213], [6.190726, 46.32122], [6.190628, 46.321247]]}, "properties": {"name": "1787909714.Coppet", "cmt": "2026-08-28", "tstamp": 1787875200, "desc": "---", "src": "6.187991/46.314779/6.196175/46.322648", "bbox": "6.187991/46.314779/6.196175/46.322648"}}]}