{"type": "FeatureCollection", "name": "TrackSet", "crs": {"type": "name", "properties": {"name": "urn:ogc:def:crs:OGC:1.3:CRS84"}}, "bbox": [6.169061, 46.407344, 6.178096, 46.411211], "features": [{"type": "Feature", "bbox": [6.169061, 46.407344, 6.178096, 46.411211], "geometry": {"type": "LineString", "coordinates": [[6.176681, 46.410535], [6.176668, 46.410423], [6.17651, 46.410335], [6.17604, 46.410386], [6.175482, 46.410669], [6.175346, 46.410817], [6.175209, 46.410871], [6.17479, 46.411211], [6.174695, 46.41121], [6.174561, 46.411122], [6.174187, 46.411026], [6.173745, 46.410766], [6.173658, 46.410753], [6.17343, 46.410643], [6.173302, 46.41064], [6.173249, 46.410588], [6.172522, 46.410299], [6.172203, 46.410089], [6.171827, 46.409923], [6.1715, 46.409819], [6.171001, 46.409718], [6.170502, 46.409558], [6.170276, 46.409512], [6.17011, 46.409519], [6.169886, 46.409411], [6.169429, 46.409333], [6.169374, 46.409315], [6.169402, 46.409287], [6.169332, 46.409294], [6.169292, 46.409264], [6.169207, 46.409265], [6.169083, 46.409218], [6.169061, 46.409194], [6.169087, 46.409139], [6.169207, 46.409084], [6.169398, 46.408881], [6.16967, 46.40871], [6.169949, 46.408633], [6.170254, 46.40849], [6.170514, 46.408404], [6.171834, 46.408202], [6.172258, 46.407919], [6.172405, 46.407847], [6.172658, 46.407769], [6.172751, 46.407704], [6.172819, 46.407697], [6.17302, 46.407592], [6.1731, 46.407597], [6.173207, 46.407519], [6.173404, 46.407458], [6.173792, 46.407402], [6.174211, 46.407414], [6.174605, 46.407384], [6.174778, 46.407419], [6.174882, 46.407379], [6.175268, 46.407344], [6.176245, 46.407371], [6.176422, 46.4075], [6.176464, 46.407659], [6.17653, 46.407696], [6.176695, 46.407877], [6.176768, 46.408003], [6.176771, 46.408236], [6.176844, 46.408282], [6.177079, 46.408579], [6.177166, 46.40866], [6.177263, 46.4087], [6.177308, 46.408835], [6.177404, 46.408877], [6.177527, 46.409016], [6.177762, 46.40915], [6.177807, 46.409209], [6.178055, 46.409378], [6.178096, 46.409481], [6.178069, 46.4096], [6.177977, 46.409722], [6.17777, 46.409911], [6.177599, 46.410003], [6.177537, 46.410076], [6.177449, 46.410094], [6.177339, 46.41017], [6.17717, 46.410219], [6.176943, 46.410231], [6.176898, 46.410276], [6.176932, 46.410325], [6.17701, 46.410343], [6.177076, 46.410304], [6.17708, 46.410269], [6.177287, 46.41021], [6.177389, 46.41012], [6.177566, 46.4101], [6.177683, 46.410048], [6.177735, 46.410084], [6.177682, 46.410138], [6.177491, 46.410228], [6.177433, 46.410203], [6.177223, 46.410254], [6.176624, 46.410295], [6.176534, 46.41046], [6.176618, 46.410541], [6.176575, 46.410587], [6.176503, 46.410599], [6.176443, 46.410649], [6.176476, 46.410742]]}, "properties": {"name": "1787758702.Gingins", "cmt": "2026-08-26", "tstamp": 1787702400, "desc": "---", "src": "6.169061/46.407344/6.178096/46.411211", "bbox": "6.169061/46.407344/6.178096/46.411211"}}]}