{"type": "FeatureCollection", "name": "TrackSet", "crs": {"type": "name", "properties": {"name": "urn:ogc:def:crs:OGC:1.3:CRS84"}}, "bbox": [24.742273, 59.433458, 24.748678, 59.440797], "features": [{"type": "Feature", "bbox": [24.742273, 59.433458, 24.748678, 59.440797], "geometry": {"type": "LineString", "coordinates": [[24.743766, 59.434096], [24.743622, 59.434094], [24.743579, 59.434042], [24.743512, 59.433621], [24.743541, 59.433497], [24.743614, 59.433458], [24.743718, 59.433497], [24.744167, 59.433579], [24.744671, 59.433756], [24.744384, 59.433607], [24.74423, 59.433572], [24.7444, 59.433616], [24.744545, 59.433625], [24.744556, 59.433564], [24.744704, 59.433701], [24.744699, 59.433813], [24.74459, 59.433903], [24.74438, 59.433974], [24.744137, 59.434026], [24.743745, 59.434063], [24.743662, 59.43411], [24.743573, 59.434352], [24.743678, 59.434496], [24.743676, 59.434587], [24.743725, 59.434647], [24.743614, 59.434764], [24.743731, 59.435305], [24.743221, 59.435374], [24.743213, 59.435401], [24.74333, 59.435558], [24.743471, 59.435905], [24.743366, 59.435993], [24.743094, 59.436104], [24.742939, 59.436128], [24.742633, 59.436313], [24.742274, 59.436353], [24.742319, 59.436399], [24.742273, 59.436542], [24.742393, 59.436662], [24.742377, 59.436714], [24.742469, 59.43676], [24.742491, 59.436814], [24.742666, 59.436893], [24.742944, 59.437204], [24.743104, 59.437262], [24.743119, 59.437409], [24.743139, 59.437465], [24.743187, 59.437475], [24.743209, 59.437649], [24.743252, 59.437692], [24.743504, 59.437726], [24.743572, 59.437717], [24.743563, 59.437656], [24.743644, 59.437722], [24.743578, 59.437642], [24.743813, 59.437609], [24.74421, 59.437451], [24.744267, 59.437394], [24.744694, 59.437347], [24.744712, 59.437393], [24.744753, 59.437395], [24.744693, 59.437399], [24.744726, 59.437398], [24.744696, 59.43743], [24.744745, 59.437431], [24.744493, 59.437558], [24.744513, 59.43759], [24.744421, 59.437802], [24.744442, 59.437869], [24.744708, 59.43796], [24.744726, 59.437999], [24.745102, 59.438075], [24.745392, 59.43827], [24.745787, 59.438449], [24.746114, 59.4387], [24.746204, 59.438723], [24.74653, 59.438924], [24.74708, 59.439573], [24.747075, 59.439667], [24.747345, 59.439847], [24.747445, 59.439971], [24.747517, 59.439966], [24.747573, 59.439996], [24.747598, 59.440086], [24.747634, 59.440087], [24.747754, 59.440246], [24.747738, 59.440304], [24.747808, 59.440389], [24.747778, 59.440514], [24.747912, 59.440639], [24.748026, 59.440685], [24.748083, 59.440785], [24.748218, 59.440797], [24.7483, 59.440747], [24.748421, 59.44073], [24.748678, 59.440628], [24.748661, 59.440591], [24.748479, 59.440521], [24.748282, 59.440374], [24.747927, 59.440031], [24.747785, 59.439955], [24.747692, 59.439848], [24.747512, 59.439735], [24.747498, 59.439616], [24.747398, 59.439561], [24.747414, 59.439508], [24.747322, 59.439455], [24.747146, 59.43926], [24.747069, 59.439242], [24.746947, 59.439143], [24.746713, 59.439113], [24.746727, 59.439091], [24.746491, 59.438918], [24.746265, 59.438848], [24.745986, 59.438692], [24.745731, 59.438589], [24.745597, 59.4385], [24.745616, 59.438478], [24.745564, 59.438467], [24.745564, 59.43843], [24.745381, 59.438386], [24.745279, 59.438122], [24.744862, 59.43799], [24.744476, 59.438073], [24.745028, 59.438044], [24.744824, 59.43813], [24.744749, 59.438066], [24.744962, 59.437955], [24.744919, 59.43794], [24.744544, 59.437968], [24.744429, 59.438001], [24.744372, 59.437912], [24.743965, 59.437889], [24.744, 59.437873], [24.743959, 59.437886], [24.743967, 59.437862], [24.744031, 59.437863], [24.743891, 59.437727], [24.743875, 59.43766], [24.743877, 59.437741], [24.745354, 59.437273], [24.744552, 59.437627], [24.744254, 59.43755], [24.744156, 59.43757], [24.744089, 59.437559], [24.74401, 59.437488], [24.743947, 59.43758], [24.744017, 59.437558], [24.744063, 59.437637], [24.744095, 59.437621], [24.744183, 59.437644], [24.744235, 59.437443], [24.744122, 59.437666], [24.744262, 59.437537], [24.744053, 59.437677], [24.744032, 59.437647], [24.743932, 59.437806], [24.744038, 59.437877], [24.744009, 59.437943], [24.743887, 59.438028], [24.743892, 59.437961], [24.743961, 59.437947], [24.74395, 59.437908], [24.743892, 59.437891], [24.743845, 59.437791], [24.74382, 59.437829], [24.743915, 59.437865], [24.744014, 59.437848], [24.74431, 59.437912], [24.744455, 59.4379], [24.744652, 59.437974], [24.744841, 59.437978], [24.745022, 59.438017], [24.745324, 59.438248], [24.745382, 59.438248], [24.745391, 59.438283], [24.745092, 59.438066], [24.744592, 59.437919], [24.744381, 59.437871], [24.743976, 59.437858], [24.743532, 59.437763], [24.743286, 59.437773], [24.7432, 59.437739], [24.743167, 59.437761], [24.743212, 59.437724], [24.743349, 59.43775], [24.743497, 59.437734], [24.743749, 59.437663], [24.743906, 59.437656], [24.744065, 59.437483], [24.74412, 59.437483], [24.744056, 59.437493], [24.744092, 59.437493], [24.744085, 59.437522], [24.744433, 59.437497], [24.744026, 59.437555], [24.744261, 59.437523], [24.744081, 59.43754], [24.744163, 59.437493], [24.744033, 59.437466], [24.74392, 59.437573], [24.743554, 59.437706], [24.74357, 59.437741], [24.743747, 59.437792], [24.743784, 59.437757], [24.743832, 59.437783], [24.743942, 59.43776], [24.744072, 59.437787], [24.744014, 59.437783], [24.743999, 59.437737], [24.743969, 59.437774], [24.744093, 59.437757], [24.743838, 59.43782], [24.743929, 59.437599], [24.743823, 59.437887], [24.74373, 59.437949], [24.743942, 59.437858], [24.744071, 59.437878], [24.744181, 59.437863], [24.744228, 59.437889], [24.744099, 59.43786]]}, "properties": {"name": "1787549065.Tallin_last_old_town_walk", "cmt": "2026-08-24", "tstamp": 1787529600, "desc": "---", "src": "24.742273/59.433458/24.748678/59.440797", "bbox": "24.742273/59.433458/24.748678/59.440797"}}]}