{"type": "FeatureCollection", "name": "TrackSet", "crs": {"type": "name", "properties": {"name": "urn:ogc:def:crs:OGC:1.3:CRS84"}}, "bbox": [6.191331, 46.315212, 6.196271, 46.331795], "features": [{"type": "Feature", "bbox": [6.191331, 46.315212, 6.196271, 46.331795], "geometry": {"type": "LineString", "coordinates": [[6.192653, 46.315212], [6.19257, 46.315327], [6.192289, 46.315528], [6.192315, 46.315595], [6.192428, 46.315639], [6.192487, 46.315703], [6.192837, 46.315816], [6.192712, 46.315875], [6.192736, 46.315823], [6.192804, 46.315829], [6.192934, 46.315936], [6.193022, 46.31596], [6.19304, 46.316043], [6.193153, 46.316091], [6.193123, 46.316131], [6.193151, 46.31622], [6.19339, 46.31644], [6.193456, 46.31655], [6.193526, 46.316569], [6.19354, 46.316603], [6.19354, 46.316584], [6.193475, 46.316567], [6.193548, 46.316584], [6.193486, 46.31662], [6.1936, 46.316676], [6.193542, 46.316674], [6.193586, 46.316715], [6.193324, 46.316814], [6.193249, 46.31687], [6.193207, 46.316862], [6.193273, 46.316842], [6.193324, 46.316854], [6.193611, 46.31675], [6.193647, 46.316875], [6.193837, 46.316998], [6.193894, 46.317111], [6.193966, 46.317115], [6.194039, 46.317152], [6.194142, 46.317435], [6.194232, 46.317528], [6.194249, 46.317594], [6.194341, 46.317644], [6.194405, 46.31783], [6.194398, 46.317909], [6.194499, 46.318004], [6.194542, 46.318148], [6.19473, 46.318422], [6.194784, 46.318591], [6.195027, 46.31893], [6.195101, 46.31908], [6.195118, 46.319217], [6.195335, 46.319536], [6.195426, 46.319744], [6.195573, 46.319934], [6.195777, 46.320369], [6.196187, 46.321037], [6.195932, 46.321178], [6.195697, 46.321251], [6.195066, 46.321573], [6.194832, 46.321609], [6.19476, 46.321655], [6.194614, 46.321685], [6.194513, 46.321684], [6.194155, 46.321847], [6.193941, 46.321886], [6.193774, 46.321976], [6.193525, 46.322035], [6.193434, 46.322108], [6.193187, 46.322187], [6.193083, 46.322248], [6.192826, 46.322309], [6.192616, 46.322457], [6.192349, 46.322522], [6.192123, 46.322758], [6.192099, 46.322868], [6.191961, 46.323045], [6.191966, 46.323146], [6.192045, 46.323245], [6.191998, 46.323326], [6.191784, 46.323536], [6.19158, 46.323657], [6.191517, 46.323727], [6.191331, 46.323824], [6.191656, 46.324354], [6.192043, 46.324916], [6.192317, 46.325252], [6.192653, 46.325778], [6.192723, 46.32582], [6.192864, 46.325835], [6.193331, 46.325619], [6.193415, 46.325602], [6.193532, 46.32564], [6.193864, 46.326006], [6.193921, 46.326033], [6.193959, 46.326091], [6.19406, 46.326136], [6.194106, 46.326248], [6.194214, 46.326382], [6.194613, 46.326788], [6.194955, 46.327259], [6.195, 46.32738], [6.195169, 46.327609], [6.195234, 46.327748], [6.195451, 46.327964], [6.195466, 46.328031], [6.195542, 46.328064], [6.195665, 46.328234], [6.195863, 46.328419], [6.196093, 46.328567], [6.196135, 46.32863], [6.19615, 46.328764], [6.196271, 46.328933], [6.19624, 46.328981], [6.196086, 46.329004], [6.196064, 46.329096], [6.195982, 46.329134], [6.195375, 46.329288], [6.195146, 46.329297], [6.194794, 46.329366], [6.194573, 46.329385], [6.19451, 46.329449], [6.194374, 46.329482], [6.194183, 46.329496], [6.193392, 46.329668], [6.193214, 46.329768], [6.193176, 46.32988], [6.193211, 46.330012], [6.19319, 46.330143], [6.193304, 46.330184], [6.193658, 46.33016], [6.193769, 46.330196], [6.193917, 46.330141], [6.194002, 46.330238], [6.194001, 46.330331], [6.194348, 46.330884], [6.194518, 46.331214], [6.194248, 46.331795], [6.194237, 46.331724], [6.194265, 46.331724], [6.194272, 46.331775], [6.194319, 46.33176]]}, "properties": {"name": "1787664206.Back_home", "cmt": "2026-08-25", "tstamp": 1787616000, "desc": "---", "src": "6.191331/46.315212/6.196271/46.331795", "bbox": "6.191331/46.315212/6.196271/46.331795"}}]}