{"type": "FeatureCollection", "name": "TrackSet", "crs": {"type": "name", "properties": {"name": "urn:ogc:def:crs:OGC:1.3:CRS84"}}, "bbox": [24.741413, 59.369133, 24.752461, 59.376282], "features": [{"type": "Feature", "bbox": [24.741413, 59.369133, 24.752461, 59.376282], "geometry": {"type": "LineString", "coordinates": [[24.746602, 59.376282], [24.746549, 59.376261], [24.746842, 59.37615], [24.746857, 59.376037], [24.747037, 59.375912], [24.747142, 59.375739], [24.747305, 59.375667], [24.747797, 59.375219], [24.747974, 59.375174], [24.748192, 59.375186], [24.748241, 59.375164], [24.748572, 59.3749], [24.748658, 59.374752], [24.748872, 59.374611], [24.748933, 59.374503], [24.749257, 59.37428], [24.749455, 59.37408], [24.749526, 59.374082], [24.749578, 59.374045], [24.749599, 59.373978], [24.7498, 59.373768], [24.749836, 59.373651], [24.750106, 59.373532], [24.750278, 59.373302], [24.750404, 59.373234], [24.750503, 59.373117], [24.75058, 59.373087], [24.750567, 59.373034], [24.75156, 59.372092], [24.751909, 59.371657], [24.751912, 59.37151], [24.751987, 59.371412], [24.752461, 59.370946], [24.752408, 59.370772], [24.752319, 59.370694], [24.75125, 59.370642], [24.750815, 59.370646], [24.750413, 59.3706], [24.749431, 59.370556], [24.748771, 59.370546], [24.748433, 59.370526], [24.74834, 59.370492], [24.748265, 59.370352], [24.748328, 59.370095], [24.748146, 59.369678], [24.748225, 59.369625], [24.748242, 59.369551], [24.748314, 59.369511], [24.748309, 59.369335], [24.748333, 59.369322], [24.748363, 59.36935], [24.748366, 59.369284], [24.748371, 59.36931], [24.748396, 59.36929], [24.748462, 59.369294], [24.748449, 59.369253], [24.748419, 59.369266], [24.748516, 59.369226], [24.748482, 59.369223], [24.748675, 59.369203], [24.74865, 59.369175], [24.748706, 59.369164], [24.748632, 59.369169], [24.748671, 59.369149], [24.748683, 59.369166], [24.748618, 59.369172], [24.748651, 59.369189], [24.748596, 59.369162], [24.748679, 59.369192], [24.748658, 59.369175], [24.748598, 59.369193], [24.748695, 59.369174], [24.748693, 59.369192], [24.748631, 59.369161], [24.748607, 59.369174], [24.748654, 59.369162], [24.74869, 59.36919], [24.748607, 59.369155], [24.748634, 59.369179], [24.748611, 59.369156], [24.748626, 59.369177], [24.748539, 59.369169], [24.74861, 59.369186], [24.748577, 59.369163], [24.748642, 59.36917], [24.748664, 59.369182], [24.748617, 59.369193], [24.748668, 59.369177], [24.74869, 59.369199], [24.748681, 59.369154], [24.748621, 59.369175], [24.748669, 59.369184], [24.748632, 59.369188], [24.748625, 59.369163], [24.748657, 59.369165], [24.748624, 59.369183], [24.748657, 59.369161], [24.748659, 59.369177], [24.748593, 59.369192], [24.748576, 59.369176], [24.748566, 59.3692], [24.748613, 59.369197], [24.748604, 59.369161], [24.748647, 59.369147], [24.748598, 59.369188], [24.748679, 59.369194], [24.748634, 59.369156], [24.748572, 59.369165], [24.748672, 59.369186], [24.748632, 59.369178], [24.748636, 59.36915], [24.748647, 59.369167], [24.748682, 59.369147], [24.74861, 59.369167], [24.748616, 59.369202], [24.748577, 59.369181], [24.748636, 59.369201], [24.74858, 59.369159], [24.748632, 59.36917], [24.748624, 59.369192], [24.748667, 59.369174], [24.748628, 59.369174], [24.748654, 59.369195], [24.748599, 59.369191], [24.748688, 59.369223], [24.748612, 59.369187], [24.748683, 59.369219], [24.748689, 59.369202], [24.748645, 59.369206], [24.748716, 59.369189], [24.748705, 59.369221], [24.748669, 59.36918], [24.748711, 59.369207], [24.748701, 59.369184], [24.748607, 59.369215], [24.748675, 59.369203], [24.748666, 59.36923], [24.748676, 59.369204], [24.748638, 59.369232], [24.748662, 59.369212], [24.74861, 59.369192], [24.748681, 59.369189], [24.7486, 59.369182], [24.748638, 59.369179], [24.748638, 59.3692], [24.748687, 59.369185], [24.748653, 59.369208], [24.748612, 59.369197], [24.748633, 59.36918], [24.748594, 59.369182], [24.748624, 59.369188], [24.748624, 59.369163], [24.748681, 59.369204], [24.748647, 59.369184], [24.748647, 59.369203], [24.748617, 59.369195], [24.748736, 59.369187], [24.748711, 59.369171], [24.748657, 59.36917], [24.748718, 59.369185], [24.748713, 59.369222], [24.748641, 59.369221], [24.748691, 59.369199], [24.748668, 59.369182], [24.748694, 59.369207], [24.748713, 59.369188], [24.74865, 59.369198], [24.748665, 59.369214], [24.748636, 59.369198], [24.748675, 59.369171], [24.748651, 59.36919], [24.748599, 59.369167], [24.74865, 59.36917], [24.748688, 59.369208], [24.748685, 59.369176], [24.748708, 59.369195], [24.748685, 59.369178], [24.748634, 59.369185], [24.748658, 59.369194], [24.748624, 59.369167], [24.748617, 59.369191], [24.748712, 59.369179], [24.748663, 59.369203], [24.748626, 59.369192], [24.748686, 59.369222], [24.748655, 59.369205], [24.748706, 59.369206], [24.748652, 59.369194], [24.748724, 59.369186], [24.748634, 59.369185], [24.74872, 59.369228], [24.748697, 59.369164], [24.748686, 59.369197], [24.748717, 59.369193], [24.748658, 59.369195], [24.748683, 59.36915], [24.748694, 59.369195], [24.748714, 59.369172], [24.748688, 59.369193], [24.748646, 59.369181], [24.748715, 59.369207], [24.748632, 59.369194], [24.748691, 59.369215], [24.748601, 59.36918], [24.748613, 59.369155], [24.748552, 59.369187], [24.748648, 59.369228], [24.748676, 59.369217], [24.748638, 59.369194], [24.748691, 59.369186], [24.74863, 59.369141], [24.748687, 59.369194], [24.748546, 59.369178], [24.748653, 59.369163], [24.748721, 59.369255], [24.748669, 59.369226], [24.748685, 59.369188], [24.748632, 59.36918], [24.748674, 59.369183], [24.748631, 59.369178], [24.748658, 59.369201], [24.74857, 59.369187], [24.748645, 59.36919], [24.748631, 59.369225], [24.748664, 59.369165], [24.748684, 59.369199], [24.748645, 59.369162], [24.748626, 59.369209], [24.748682, 59.369194], [24.748605, 59.36918], [24.748638, 59.369206], [24.748661, 59.36918], [24.748661, 59.3692], [24.748601, 59.369201], [24.748643, 59.36923], [24.748606, 59.369228], [24.748666, 59.369231], [24.748658, 59.369199], [24.74867, 59.369218], [24.748619, 59.369213], [24.748675, 59.369216], [24.748651, 59.369229], [24.748641, 59.3692], [24.748684, 59.369217], [24.748706, 59.369198], [24.748607, 59.369179], [24.748606, 59.369214], [24.748698, 59.369187], [24.74866, 59.369225], [24.74874, 59.369252], [24.748736, 59.369186], [24.748677, 59.369171], [24.748695, 59.369196], [24.748734, 59.369185], [24.748771, 59.36925], [24.748787, 59.369235], [24.748854, 59.369261], [24.748798, 59.369267], [24.748762, 59.369208], [24.748696, 59.369205], [24.748713, 59.369224], [24.748747, 59.369198], [24.748682, 59.369212], [24.748624, 59.369174], [24.748581, 59.369188], [24.748572, 59.369165], [24.748647, 59.369213], [24.748815, 59.369201], [24.748695, 59.369238], [24.74863, 59.369231], [24.74838, 59.369133], [24.748392, 59.369248], [24.748277, 59.369337], [24.748297, 59.369377], [24.748211, 59.36938], [24.748237, 59.369362], [24.748204, 59.36935], [24.748246, 59.369346], [24.748242, 59.369381], [24.748264, 59.369365], [24.748313, 59.369403], [24.748234, 59.369368], [24.748234, 59.369387], [24.748291, 59.369377], [24.748239, 59.369391], [24.748249, 59.369371], [24.748288, 59.369404], [24.748205, 59.3694], [24.748235, 59.369381], [24.748224, 59.369411], [24.748233, 59.369392], [24.748168, 59.369394], [24.748217, 59.369358], [24.748229, 59.369379], [24.748232, 59.369363], [24.748274, 59.369375], [24.748248, 59.36939], [24.748226, 59.36936], [24.748245, 59.369392], [24.748268, 59.369383], [24.74821, 59.369403], [24.748218, 59.369382], [24.748292, 59.369377], [24.748229, 59.369377], [24.748281, 59.369377], [24.74825, 59.369364], [24.748219, 59.369385], [24.748226, 59.369366], [24.748199, 59.369395], [24.748216, 59.369368], [24.748278, 59.369374], [24.748188, 59.369347], [24.74815, 59.369378], [24.74823, 59.369394], [24.748253, 59.369365], [24.748189, 59.369351], [24.748221, 59.369354], [24.748192, 59.369401], [24.748186, 59.369368], [24.748281, 59.369359], [24.748175, 59.369385], [24.748173, 59.36942], [24.748225, 59.369373], [24.748165, 59.369334], [24.748152, 59.369371], [24.748217, 59.369363], [24.748201, 59.369385], [24.748243, 59.369369], [24.748209, 59.369357], [24.748196, 59.369388], [24.748212, 59.369331], [24.748199, 59.369375], [24.748242, 59.369345], [24.748199, 59.369387], [24.748117, 59.369413], [24.748186, 59.369367], [24.748197, 59.369386], [24.748208, 59.36934], [24.748189, 59.369378], [24.748212, 59.369357], [24.748191, 59.369377], [24.74823, 59.36937], [24.748238, 59.369393], [24.748246, 59.369371], [24.748204, 59.369397], [24.74817, 59.369363], [24.748185, 59.369406], [24.74819, 59.369375], [24.748239, 59.369379], [24.748207, 59.369356], [24.748237, 59.369397], [24.748271, 59.369376], [24.748203, 59.369381], [24.748258, 59.369385], [24.748206, 59.369399], [24.748254, 59.369394], [24.748186, 59.369355], [24.748348, 59.369377], [24.748344, 59.36935], [24.748288, 59.369331], [24.748166, 59.369339], [24.748142, 59.369291], [24.74817, 59.369317], [24.748226, 59.369287], [24.748202, 59.369309], [24.748179, 59.369291], [24.748137, 59.369309], [24.748173, 59.369289], [24.748127, 59.369302], [24.748185, 59.369273], [24.74811, 59.369301], [24.748189, 59.369284], [24.748127, 59.369299], [24.748176, 59.369298], [24.74817, 59.36928], [24.74813, 59.369291], [24.748141, 59.369262], [24.748072, 59.369276], [24.748153, 59.369255], [24.748134, 59.369283], [24.748166, 59.369278], [24.748156, 59.369264], [24.748123, 59.369287], [24.748069, 59.36924], [24.748132, 59.369262], [24.748105, 59.369284], [24.748106, 59.369216], [24.748083, 59.369254], [24.748098, 59.369225], [24.748037, 59.369209], [24.748082, 59.369241], [24.748027, 59.369208], [24.748092, 59.369227], [24.748074, 59.36927], [24.748055, 59.369217], [24.748091, 59.369236], [24.748097, 59.369217], [24.748078, 59.369248], [24.748133, 59.369264], [24.748129, 59.369244], [24.748098, 59.369261], [24.748119, 59.369236], [24.748049, 59.369228], [24.748095, 59.36923], [24.748093, 59.369262], [24.748139, 59.369261], [24.748098, 59.36925], [24.748113, 59.369273], [24.748134, 59.369249], [24.748092, 59.369266], [24.748159, 59.3693], [24.748146, 59.369327], [24.748238, 59.369317], [24.74824, 59.369356], [24.748322, 59.369358], [24.748342, 59.369378], [24.748283, 59.369315], [24.748391, 59.369309], [24.748478, 59.36927], [24.748256, 59.369438], [24.748203, 59.369575], [24.748063, 59.369657], [24.748021, 59.369721], [24.747927, 59.369758], [24.748005, 59.369723], [24.747992, 59.369765], [24.748027, 59.369742], [24.747982, 59.369714], [24.748017, 59.369711], [24.748026, 59.369734], [24.74796, 59.36973], [24.748, 59.369732], [24.747949, 59.369749], [24.748046, 59.369739], [24.748074, 59.36985], [24.748151, 59.369858], [24.748127, 59.37006], [24.748188, 59.37026], [24.74813, 59.370508], [24.748089, 59.370533], [24.747883, 59.370552], [24.747524, 59.370501], [24.747385, 59.37052], [24.747235, 59.370498], [24.747, 59.370509], [24.746358, 59.370459], [24.74487, 59.370429], [24.744685, 59.370398], [24.744425, 59.370416], [24.744265, 59.370402], [24.744216, 59.370421], [24.743983, 59.370387], [24.743909, 59.370415], [24.74397, 59.370399], [24.743923, 59.370258], [24.74393, 59.37003], [24.743916, 59.370055], [24.743879, 59.370052], [24.743898, 59.3701], [24.743791, 59.370252], [24.743881, 59.370354], [24.743886, 59.370417], [24.744007, 59.370416], [24.743934, 59.370437], [24.743941, 59.370463], [24.744464, 59.370439], [24.744643, 59.37048], [24.744595, 59.370503], [24.744226, 59.370491], [24.744282, 59.370511], [24.744242, 59.370533], [24.744275, 59.370532], [24.744246, 59.370552], [24.74428, 59.370562], [24.744202, 59.370542], [24.744173, 59.370565], [24.744244, 59.370549], [24.744219, 59.370538], [24.74425, 59.370557], [24.744252, 59.370533], [24.744225, 59.370546], [24.744258, 59.37056], [24.744197, 59.370553], [24.744237, 59.370511], [24.744287, 59.370507], [24.744264, 59.370533], [24.744208, 59.37049], [24.744101, 59.370492], [24.744087, 59.370474], [24.744083, 59.370498], [24.744075, 59.370468], [24.744053, 59.37052], [24.743972, 59.370495], [24.744006, 59.370499], [24.74396, 59.370522], [24.743848, 59.370477], [24.743832, 59.37049], [24.743904, 59.370517], [24.744039, 59.370508], [24.744127, 59.370531], [24.744047, 59.370502], [24.744066, 59.37045], [24.744097, 59.370474], [24.743789, 59.370461], [24.743614, 59.370417], [24.743727, 59.370413], [24.74365, 59.370372], [24.743597, 59.370385], [24.743466, 59.370364], [24.743402, 59.370402], [24.743401, 59.370384], [24.743348, 59.370406], [24.743313, 59.370391], [24.743394, 59.370422], [24.743335, 59.370444], [24.743351, 59.370418], [24.743378, 59.370465], [24.74343, 59.370464], [24.743376, 59.370462], [24.74338, 59.370438], [24.743418, 59.370449], [24.743377, 59.370453], [24.743387, 59.370418], [24.743344, 59.370458], [24.743363, 59.370432], [24.74336, 59.370448], [24.74343, 59.370442], [24.743369, 59.370457], [24.74334, 59.370439], [24.743387, 59.370436], [24.743366, 59.370414], [24.743384, 59.370451], [24.743416, 59.370443], [24.743389, 59.37043], [24.743449, 59.370385], [24.743433, 59.370407], [24.743576, 59.370395], [24.743716, 59.370429], [24.743687, 59.370458], [24.743745, 59.37052], [24.743885, 59.370515], [24.743949, 59.370537], [24.744152, 59.370524], [24.744442, 59.370544], [24.744553, 59.370519], [24.744619, 59.370528], [24.744713, 59.370483], [24.744668, 59.370498], [24.744719, 59.370458], [24.744247, 59.370504], [24.744125, 59.370473], [24.743415, 59.370451], [24.743269, 59.370506], [24.743112, 59.370644], [24.743111, 59.370876], [24.743002, 59.371373], [24.742836, 59.372658], [24.742643, 59.373235], [24.74264, 59.373874], [24.742431, 59.374344], [24.742348, 59.374389], [24.742273, 59.374383], [24.741937, 59.374564], [24.741823, 59.374588], [24.741677, 59.374662], [24.741574, 59.374763], [24.741578, 59.37486], [24.741516, 59.374958], [24.741542, 59.37503], [24.741675, 59.37503], [24.741486, 59.375088], [24.741469, 59.375111], [24.741509, 59.375115], [24.74151, 59.375097], [24.741433, 59.375103], [24.741466, 59.37508], [24.741422, 59.37509], [24.741468, 59.375108], [24.741413, 59.37512], [24.741462, 59.375119], [24.741446, 59.375069], [24.741479, 59.375092], [24.741432, 59.375075], [24.741478, 59.375104], [24.741442, 59.375104], [24.74147, 59.375083]]}, "properties": {"name": "1787464363.Tallin_ironman_getting_to_start", "cmt": "2026-08-23", "tstamp": 1787443200, "desc": "---", "src": "24.741413/59.369133/24.752461/59.376282", "bbox": "24.741413/59.369133/24.752461/59.376282"}}]}