{"type": "FeatureCollection", "name": "TrackSet", "crs": {"type": "name", "properties": {"name": "urn:ogc:def:crs:OGC:1.3:CRS84"}}, "bbox": [6.193191, 46.325905, 6.200383, 46.331768], "features": [{"type": "Feature", "bbox": [6.193191, 46.325905, 6.200383, 46.331768], "geometry": {"type": "LineString", "coordinates": [[6.194462, 46.331768], [6.194666, 46.331682], [6.194686, 46.331588], [6.194603, 46.331467], [6.194482, 46.331066], [6.194376, 46.330988], [6.194245, 46.33074], [6.194183, 46.330679], [6.194177, 46.330603], [6.194106, 46.330495], [6.194118, 46.330292], [6.193892, 46.330117], [6.193729, 46.330128], [6.193671, 46.330155], [6.193498, 46.330135], [6.193191, 46.33014], [6.193211, 46.329851], [6.19329, 46.329724], [6.193418, 46.329664], [6.194166, 46.32954], [6.194368, 46.329483], [6.194871, 46.329431], [6.194977, 46.329352], [6.195016, 46.3294], [6.195011, 46.329372], [6.195528, 46.32927], [6.195873, 46.329176], [6.196103, 46.329098], [6.196208, 46.32899], [6.196577, 46.328903], [6.197197, 46.328696], [6.197392, 46.328583], [6.198357, 46.328248], [6.199148, 46.327929], [6.19959, 46.327786], [6.199642, 46.327734], [6.199646, 46.327674], [6.199732, 46.327526], [6.19951, 46.327228], [6.199478, 46.32709], [6.199266, 46.32689], [6.199249, 46.326697], [6.199173, 46.326637], [6.199126, 46.326484], [6.199047, 46.326441], [6.199013, 46.326277], [6.199064, 46.326255], [6.19926, 46.326288], [6.199348, 46.326275], [6.199443, 46.326248], [6.199513, 46.326187], [6.199617, 46.326149], [6.199786, 46.326147], [6.199886, 46.326118], [6.200002, 46.326033], [6.200088, 46.326029], [6.200321, 46.325936], [6.200383, 46.325925], [6.20035, 46.325931], [6.200363, 46.32595], [6.20035, 46.32591], [6.200347, 46.325993], [6.200358, 46.325942], [6.200346, 46.325958], [6.200315, 46.325929], [6.200345, 46.325937], [6.200337, 46.325959], [6.200373, 46.32595], [6.200348, 46.325969], [6.200322, 46.325905], [6.200374, 46.325915], [6.20035, 46.325965], [6.200373, 46.325924], [6.20011, 46.325986], [6.200004, 46.325981], [6.199824, 46.326056], [6.199807, 46.326101], [6.199591, 46.326137], [6.199454, 46.326234], [6.199213, 46.326251], [6.199003, 46.326314], [6.199119, 46.32653], [6.199168, 46.326743], [6.199237, 46.326864], [6.199306, 46.326896], [6.199463, 46.3271], [6.199495, 46.327249], [6.199555, 46.327276], [6.199522, 46.327305], [6.199676, 46.327441], [6.199666, 46.327489], [6.19971, 46.327497], [6.19966, 46.327711], [6.199469, 46.327843], [6.199359, 46.327895], [6.199251, 46.327907], [6.198991, 46.328026], [6.198886, 46.328029], [6.19874, 46.328107], [6.198622, 46.328117], [6.198349, 46.328249], [6.198108, 46.328309], [6.197882, 46.328439], [6.197579, 46.328498], [6.197439, 46.328648], [6.197129, 46.328731], [6.196974, 46.32881], [6.196873, 46.328824], [6.196635, 46.328915], [6.196532, 46.328926], [6.196513, 46.328966], [6.196371, 46.32899], [6.195673, 46.329214], [6.195188, 46.329322], [6.194755, 46.329378], [6.194694, 46.329406], [6.194659, 46.329383], [6.194582, 46.32939], [6.194297, 46.329484], [6.194106, 46.329515], [6.194093, 46.329542], [6.194037, 46.329517], [6.193434, 46.329645], [6.193255, 46.329732], [6.193194, 46.329902], [6.193226, 46.330159], [6.193336, 46.330203], [6.193664, 46.330169], [6.193795, 46.330138], [6.193834, 46.330104], [6.19396, 46.33014], [6.194214, 46.3306], [6.194435, 46.330915], [6.194576, 46.331213], [6.194598, 46.33132], [6.194562, 46.331363], [6.19468, 46.33162], [6.194572, 46.331711], [6.194353, 46.331766], [6.194309, 46.331754], [6.194299, 46.331702], [6.194169, 46.331565]]}, "properties": {"name": "1787944765.St_Robert_night_walk", "cmt": "2026-08-28", "tstamp": 1787875200, "desc": "---", "src": "6.193191/46.325905/6.200383/46.331768", "bbox": "6.193191/46.325905/6.200383/46.331768"}}]}