{"type": "FeatureCollection", "name": "TrackSet", "crs": {"type": "name", "properties": {"name": "urn:ogc:def:crs:OGC:1.3:CRS84"}}, "bbox": [6.191926, 46.329067, 6.1991, 46.336033], "features": [{"type": "Feature", "bbox": [6.191926, 46.329067, 6.1991, 46.336033], "geometry": {"type": "LineString", "coordinates": [[6.194284, 46.331772], [6.194245, 46.331794], [6.194068, 46.33181], [6.193956, 46.33181], [6.19386, 46.33178], [6.193642, 46.331802], [6.193462, 46.331848], [6.19339, 46.331842], [6.1933, 46.331884], [6.193122, 46.331919], [6.193022, 46.331968], [6.192959, 46.331967], [6.192984, 46.332033], [6.192945, 46.332177], [6.192748, 46.332208], [6.19259, 46.332267], [6.192619, 46.332419], [6.192553, 46.332543], [6.19276, 46.332884], [6.192735, 46.333098], [6.192861, 46.333328], [6.192977, 46.33348], [6.19315, 46.333609], [6.193153, 46.333643], [6.193335, 46.333805], [6.193776, 46.333946], [6.194237, 46.334217], [6.194526, 46.334438], [6.194637, 46.334466], [6.194808, 46.334602], [6.19493, 46.334654], [6.195122, 46.334825], [6.195217, 46.334844], [6.195272, 46.33489], [6.195354, 46.334899], [6.19546, 46.334979], [6.195913, 46.335197], [6.19605, 46.335312], [6.196132, 46.335335], [6.196632, 46.335649], [6.196758, 46.335698], [6.196902, 46.335806], [6.197199, 46.335969], [6.197312, 46.336002], [6.197333, 46.336033], [6.197463, 46.335949], [6.197469, 46.335904], [6.197392, 46.33579], [6.197298, 46.335413], [6.197197, 46.335216], [6.197204, 46.335155], [6.197072, 46.334769], [6.197062, 46.334638], [6.196987, 46.334541], [6.196967, 46.334324], [6.197396, 46.334186], [6.197783, 46.334027], [6.197883, 46.333957], [6.198221, 46.333838], [6.198365, 46.333737], [6.198618, 46.333615], [6.198747, 46.333589], [6.198912, 46.333492], [6.198957, 46.333435], [6.198983, 46.333265], [6.198918, 46.333103], [6.1991, 46.332655], [6.199085, 46.332401], [6.198889, 46.332096], [6.198759, 46.331978], [6.198588, 46.331747], [6.198493, 46.331673], [6.198459, 46.331588], [6.198234, 46.331393], [6.197996, 46.331038], [6.197842, 46.330894], [6.197812, 46.330784], [6.197734, 46.330736], [6.197661, 46.330621], [6.19745, 46.330434], [6.19715, 46.330028], [6.196867, 46.329758], [6.196751, 46.329563], [6.196377, 46.329153], [6.196249, 46.329073], [6.196155, 46.329067], [6.195277, 46.3293], [6.19479, 46.329372], [6.19472, 46.329401], [6.194683, 46.329449], [6.194627, 46.329453], [6.194563, 46.329414], [6.194473, 46.329457], [6.193685, 46.329589], [6.193312, 46.329692], [6.193179, 46.32984], [6.193139, 46.330203], [6.192953, 46.330414], [6.192805, 46.330509], [6.192383, 46.330696], [6.191962, 46.330821], [6.191926, 46.330875], [6.191955, 46.331227], [6.192131, 46.331462], [6.192233, 46.331896], [6.192335, 46.332117], [6.192398, 46.33221], [6.192444, 46.332223]]}, "properties": {"name": "1787810095.Morning_Walk", "cmt": "2026-08-27", "tstamp": 1787788800, "desc": "---", "src": "6.191926/46.329067/6.1991/46.336033", "bbox": "6.191926/46.329067/6.1991/46.336033"}}]}