{"type": "FeatureCollection", "name": "TrackSet", "crs": {"type": "name", "properties": {"name": "urn:ogc:def:crs:OGC:1.3:CRS84"}}, "bbox": [6.1583, 46.415775, 6.186077, 46.448548], "features": [{"type": "Feature", "bbox": [6.1583, 46.415775, 6.186077, 46.448548], "geometry": {"type": "LineString", "coordinates": [[6.177542, 46.417331], [6.177564, 46.417365], [6.177624, 46.417314], [6.177571, 46.417326], [6.177489, 46.417386], [6.177389, 46.417411], [6.177378, 46.417465], [6.177096, 46.417686], [6.176858, 46.417796], [6.176577, 46.41788], [6.176337, 46.417995], [6.176146, 46.418052], [6.175945, 46.41814], [6.175855, 46.418209], [6.175708, 46.418261], [6.175223, 46.41883], [6.174458, 46.419447], [6.174332, 46.4195], [6.174047, 46.419687], [6.173978, 46.419702], [6.173808, 46.419802], [6.173414, 46.419841], [6.173292, 46.419915], [6.173275, 46.41999], [6.172725, 46.420181], [6.172042, 46.420503], [6.171339, 46.420791], [6.171151, 46.420818], [6.170846, 46.420932], [6.170327, 46.421081], [6.170066, 46.4211], [6.170041, 46.421137], [6.169943, 46.421164], [6.169838, 46.421318], [6.169867, 46.421354], [6.169823, 46.421424], [6.169853, 46.421481], [6.169778, 46.421573], [6.169818, 46.421618], [6.169557, 46.42187], [6.169247, 46.422104], [6.168537, 46.422563], [6.168423, 46.422625], [6.168222, 46.422682], [6.168177, 46.422728], [6.168012, 46.422805], [6.167983, 46.422953], [6.16804, 46.423098], [6.168024, 46.423191], [6.168081, 46.423278], [6.168141, 46.423274], [6.168193, 46.423315], [6.168261, 46.423442], [6.168322, 46.423597], [6.168325, 46.423727], [6.168373, 46.423774], [6.168369, 46.423919], [6.16846, 46.424032], [6.168556, 46.424073], [6.168735, 46.424249], [6.168777, 46.424421], [6.168861, 46.424583], [6.168871, 46.424683], [6.168728, 46.424796], [6.168603, 46.424996], [6.168156, 46.425327], [6.168134, 46.425353], [6.16817, 46.425368], [6.16811, 46.425386], [6.168084, 46.425373], [6.168098, 46.425396], [6.167901, 46.425559], [6.167846, 46.425655], [6.167764, 46.425705], [6.16754, 46.425972], [6.167493, 46.426077], [6.167387, 46.42618], [6.167414, 46.426181], [6.16741, 46.426214], [6.167289, 46.426301], [6.167285, 46.42638], [6.167234, 46.426401], [6.167116, 46.426532], [6.167113, 46.42658], [6.166986, 46.426613], [6.166821, 46.42675], [6.16681, 46.426766], [6.166871, 46.426805], [6.166773, 46.426912], [6.166545, 46.426978], [6.166471, 46.427019], [6.166431, 46.427083], [6.166303, 46.427155], [6.166416, 46.427197], [6.166258, 46.427271], [6.166152, 46.427278], [6.166134, 46.427312], [6.166079, 46.427322], [6.166002, 46.427386], [6.165845, 46.427401], [6.165816, 46.427384], [6.165834, 46.427412], [6.165742, 46.427458], [6.16558, 46.427487], [6.165536, 46.427476], [6.165526, 46.427518], [6.16547, 46.427556], [6.165334, 46.427554], [6.1652, 46.427586], [6.16516, 46.427582], [6.165163, 46.427565], [6.164688, 46.427573], [6.16456, 46.427521], [6.164397, 46.427511], [6.164302, 46.427455], [6.164239, 46.427481], [6.163899, 46.427411], [6.16386, 46.42743], [6.163783, 46.427404], [6.163542, 46.42741], [6.16348, 46.42736], [6.163505, 46.427428], [6.163594, 46.42748], [6.163672, 46.427603], [6.163741, 46.427632], [6.163928, 46.427833], [6.163998, 46.427865], [6.164057, 46.428106], [6.164015, 46.428239], [6.163925, 46.428291], [6.163895, 46.428365], [6.163778, 46.42849], [6.163808, 46.428502], [6.163775, 46.428647], [6.163821, 46.42879], [6.163688, 46.428928], [6.163497, 46.42903], [6.163338, 46.429066], [6.163225, 46.42918], [6.163242, 46.429417], [6.1633, 46.429492], [6.163299, 46.429548], [6.163138, 46.429693], [6.162952, 46.429778], [6.162965, 46.429955], [6.162868, 46.430097], [6.16286, 46.430298], [6.162836, 46.430351], [6.16278, 46.430384], [6.162828, 46.430438], [6.16284, 46.430418], [6.162788, 46.430495], [6.162861, 46.430595], [6.163052, 46.430679], [6.16326, 46.430607], [6.163358, 46.430608], [6.16345, 46.430644], [6.163484, 46.430626], [6.163898, 46.430652], [6.164059, 46.430628], [6.164216, 46.43064], [6.164282, 46.430617], [6.164431, 46.430648], [6.16445, 46.430605], [6.164497, 46.430588], [6.164464, 46.430598], [6.164572, 46.430625], [6.164646, 46.43057], [6.165005, 46.430492], [6.165102, 46.430497], [6.165492, 46.430416], [6.165901, 46.430364], [6.166046, 46.430317], [6.166319, 46.430323], [6.166327, 46.430282], [6.166459, 46.430219], [6.166501, 46.430206], [6.166588, 46.430225], [6.166695, 46.430191], [6.166699, 46.430155], [6.166757, 46.430125], [6.167366, 46.429947], [6.168579, 46.429377], [6.16884, 46.429283], [6.168942, 46.429281], [6.169005, 46.429225], [6.169041, 46.429246], [6.169155, 46.429221], [6.169296, 46.429628], [6.169359, 46.429544], [6.169365, 46.429571], [6.169288, 46.429598], [6.169333, 46.429519], [6.169428, 46.42952], [6.169401, 46.429534], [6.169374, 46.429517], [6.169427, 46.429542], [6.16932, 46.429615], [6.169333, 46.429593], [6.169383, 46.4297], [6.169384, 46.429766], [6.169346, 46.429806], [6.169399, 46.429821], [6.16942, 46.429886], [6.169461, 46.430084], [6.169421, 46.430216], [6.169472, 46.430263], [6.169447, 46.430292], [6.169452, 46.430447], [6.169414, 46.430482], [6.169381, 46.430605], [6.169323, 46.430975], [6.169344, 46.431042], [6.169273, 46.431203], [6.169303, 46.431396], [6.16941, 46.431473], [6.169434, 46.431593], [6.169517, 46.431741], [6.169505, 46.431835], [6.169442, 46.431919], [6.169367, 46.431955], [6.16933, 46.432037], [6.169113, 46.432171], [6.169098, 46.432296], [6.169137, 46.432336], [6.169103, 46.432393], [6.169145, 46.432471], [6.169151, 46.432686], [6.169196, 46.43281], [6.169175, 46.432863], [6.169253, 46.433007], [6.169235, 46.433158], [6.169185, 46.433202], [6.169178, 46.433268], [6.169071, 46.433365], [6.169037, 46.43345], [6.168833, 46.433617], [6.168785, 46.433733], [6.168808, 46.433764], [6.16877, 46.433854], [6.168798, 46.433921], [6.168756, 46.434059], [6.168782, 46.434087], [6.168672, 46.434343], [6.16865, 46.434593], [6.16857, 46.434826], [6.168554, 46.435182], [6.16828, 46.435465], [6.168066, 46.435567], [6.167889, 46.435598], [6.167798, 46.435677], [6.16768, 46.435704], [6.167678, 46.435757], [6.167548, 46.435841], [6.167448, 46.435979], [6.167329, 46.436011], [6.167282, 46.436052], [6.167243, 46.43617], [6.167137, 46.436212], [6.16708, 46.436337], [6.166994, 46.436434], [6.166937, 46.436447], [6.166914, 46.436494], [6.166738, 46.436578], [6.166089, 46.437014], [6.16584, 46.437152], [6.16547, 46.437284], [6.165467, 46.437388], [6.165353, 46.437583], [6.165405, 46.43764], [6.165374, 46.437747], [6.16541, 46.437847], [6.16546, 46.437899], [6.165519, 46.43789], [6.165713, 46.438057], [6.165792, 46.438057], [6.165833, 46.438112], [6.165821, 46.438171], [6.165933, 46.4383], [6.166069, 46.438534], [6.166252, 46.438692], [6.166226, 46.43879], [6.166298, 46.438856], [6.166278, 46.438916], [6.166361, 46.438925], [6.166413, 46.43896], [6.166556, 46.438947], [6.166612, 46.438984], [6.166673, 46.438979], [6.166808, 46.439024], [6.166927, 46.439004], [6.167097, 46.439098], [6.167308, 46.439159], [6.167499, 46.439282], [6.167543, 46.439344], [6.167815, 46.439553], [6.167813, 46.439681], [6.167901, 46.439761], [6.167863, 46.439864], [6.167874, 46.43994], [6.167794, 46.440046], [6.167708, 46.440106], [6.167554, 46.440132], [6.167539, 46.440176], [6.16737, 46.440251], [6.166516, 46.440531], [6.166408, 46.440576], [6.166304, 46.440668], [6.16616, 46.440738], [6.166172, 46.440754], [6.166153, 46.440738], [6.166371, 46.44088], [6.166357, 46.440927], [6.166384, 46.440985], [6.166406, 46.440979], [6.166349, 46.440963], [6.166357, 46.441023], [6.166403, 46.441019], [6.166491, 46.44109], [6.166696, 46.441192], [6.166726, 46.441279], [6.166792, 46.44133], [6.166803, 46.441531], [6.166946, 46.441512], [6.166943, 46.441626], [6.166992, 46.441709], [6.167018, 46.44171], [6.166977, 46.441718], [6.167007, 46.441713], [6.166973, 46.441824], [6.166977, 46.441908], [6.16701, 46.441942], [6.166965, 46.442023], [6.166768, 46.442172], [6.166724, 46.442324], [6.166594, 46.442403], [6.16662, 46.442476], [6.166388, 46.442547], [6.166412, 46.442581], [6.166395, 46.442567], [6.166366, 46.442596], [6.166401, 46.44262], [6.16636, 46.442631], [6.16634, 46.44267], [6.166349, 46.442755], [6.166246, 46.442787], [6.166191, 46.44275], [6.166142, 46.442751], [6.166157, 46.442785], [6.166155, 46.442762], [6.166153, 46.442777], [6.166096, 46.442747], [6.16606, 46.442819], [6.166105, 46.442841], [6.166063, 46.44289], [6.165943, 46.442917], [6.165892, 46.443019], [6.165912, 46.442996], [6.16586, 46.442966], [6.165837, 46.443024], [6.165809, 46.443015], [6.165797, 46.443042], [6.165801, 46.443105], [6.165701, 46.443078], [6.165593, 46.44314], [6.165547, 46.443211], [6.165539, 46.443194], [6.165488, 46.443222], [6.16549, 46.443286], [6.165415, 46.443373], [6.165374, 46.443405], [6.165326, 46.443379], [6.165305, 46.443437], [6.165303, 46.443421], [6.165336, 46.443433], [6.165234, 46.443537], [6.165136, 46.443528], [6.165044, 46.443554], [6.164931, 46.443523], [6.164882, 46.443573], [6.164751, 46.443606], [6.164679, 46.443692], [6.164661, 46.443777], [6.164567, 46.443779], [6.164532, 46.443814], [6.164534, 46.443857], [6.164439, 46.443948], [6.164461, 46.444006], [6.16426, 46.444112], [6.16408, 46.444088], [6.164065, 46.444043], [6.164092, 46.444057], [6.164044, 46.444052], [6.164037, 46.444083], [6.163976, 46.444102], [6.163938, 46.444062], [6.163829, 46.444086], [6.16376, 46.44407], [6.163684, 46.4441], [6.163559, 46.444081], [6.163557, 46.444057], [6.163418, 46.444116], [6.163281, 46.444097], [6.163072, 46.444121], [6.163042, 46.44409], [6.163014, 46.444115], [6.162952, 46.444114], [6.16292, 46.444185], [6.162889, 46.444176], [6.162812, 46.444208], [6.162819, 46.444176], [6.162767, 46.44417], [6.162705, 46.444216], [6.162577, 46.444213], [6.162259, 46.444315], [6.162161, 46.444297], [6.161806, 46.444317], [6.161795, 46.444286], [6.161779, 46.444314], [6.161385, 46.444312], [6.161344, 46.444333], [6.161324, 46.444313], [6.161259, 46.444341], [6.161218, 46.444318], [6.161043, 46.444343], [6.160999, 46.444316], [6.160896, 46.444381], [6.16088, 46.444365], [6.160798, 46.444509], [6.160805, 46.444486], [6.160846, 46.444546], [6.160947, 46.444574], [6.161091, 46.444578], [6.161122, 46.444622], [6.161568, 46.444683], [6.16169, 46.444741], [6.161761, 46.444729], [6.161853, 46.44479], [6.1619, 46.444904], [6.161953, 46.444922], [6.161942, 46.444898], [6.16218, 46.44499], [6.162724, 46.445101], [6.162924, 46.445193], [6.163164, 46.445373], [6.163239, 46.445374], [6.163273, 46.445405], [6.163239, 46.445481], [6.163287, 46.445523], [6.163331, 46.445646], [6.163434, 46.445758], [6.163504, 46.445922], [6.16347, 46.44613], [6.16343, 46.446193], [6.163459, 46.446241], [6.163425, 46.446357], [6.163266, 46.446637], [6.163102, 46.446748], [6.162973, 46.446693], [6.162867, 46.446677], [6.1628, 46.44672], [6.162766, 46.446699], [6.162728, 46.446717], [6.162718, 46.446734], [6.162774, 46.446751], [6.162753, 46.446723], [6.16271, 46.446731], [6.162697, 46.446703], [6.162528, 46.446669], [6.162508, 46.44664], [6.162338, 46.446634], [6.16226, 46.446649], [6.16226, 46.446667], [6.162185, 46.446622], [6.162171, 46.446663], [6.162064, 46.446647], [6.162043, 46.446609], [6.161975, 46.446691], [6.162012, 46.446669], [6.162023, 46.446608], [6.161981, 46.44652], [6.161923, 46.446492], [6.161918, 46.446382], [6.161863, 46.4463], [6.161835, 46.4463], [6.161829, 46.446228], [6.161791, 46.446257], [6.161738, 46.446221], [6.161706, 46.446248], [6.161698, 46.446232], [6.161649, 46.446243], [6.161648, 46.446212], [6.16153, 46.446193], [6.161536, 46.446155], [6.161431, 46.446159]]}, "properties": {"name": "1787996773.Jura_gentle_hike", "cmt": "2026-08-29", "tstamp": 1787961600, "desc": "UpHill", "src": "6.1583/46.415775/6.186077/46.448548", "bbox": "6.1583/46.415775/6.186077/46.448548"}}, {"type": "Feature", "bbox": [6.1583, 46.415775, 6.186077, 46.448548], "geometry": {"type": "LineString", "coordinates": [[6.161417, 46.446164], [6.161359, 46.446176], [6.161343, 46.446204], [6.161288, 46.446195], [6.161153, 46.446272], [6.160938, 46.446212], [6.1607, 46.446244], [6.16045, 46.446332], [6.160361, 46.446325], [6.160349, 46.446408], [6.160465, 46.44654], [6.160432, 46.446713], [6.160394, 46.446621], [6.160168, 46.446571], [6.160123, 46.446589], [6.160031, 46.446486], [6.159964, 46.446461], [6.159798, 46.4465], [6.159662, 46.446432], [6.159624, 46.446421], [6.159609, 46.446439], [6.159503, 46.446376], [6.159425, 46.446291], [6.159298, 46.44628], [6.159268, 46.446238], [6.159165, 46.446209], [6.158969, 46.446103], [6.158846, 46.446093], [6.158509, 46.446306], [6.158446, 46.446328], [6.1583, 46.446326], [6.158301, 46.446392], [6.158406, 46.446558], [6.158401, 46.446667], [6.158467, 46.446734], [6.158411, 46.446857], [6.158689, 46.447211], [6.158761, 46.447262], [6.158761, 46.447301], [6.158686, 46.447329], [6.158614, 46.447552], [6.158616, 46.44728], [6.15863, 46.447342], [6.158616, 46.447324], [6.158647, 46.447313], [6.158804, 46.447332], [6.158815, 46.447353], [6.158776, 46.447331], [6.1588, 46.447368], [6.158773, 46.447327], [6.158838, 46.447359], [6.158792, 46.44735], [6.158834, 46.447369], [6.158796, 46.447342], [6.158802, 46.447296], [6.15884, 46.447348], [6.158804, 46.447356], [6.15885, 46.447385], [6.158864, 46.447355], [6.15882, 46.44735], [6.158795, 46.447384], [6.158816, 46.447397], [6.158852, 46.447369], [6.158828, 46.447346], [6.158734, 46.447338], [6.158805, 46.447357], [6.158832, 46.447351], [6.158813, 46.447339], [6.158837, 46.447372], [6.158809, 46.447373], [6.158806, 46.447341], [6.158827, 46.447352], [6.158795, 46.44732], [6.158768, 46.44734], [6.158794, 46.447304], [6.158756, 46.447321], [6.158817, 46.447348], [6.158844, 46.447325], [6.158828, 46.447351], [6.158807, 46.447338], [6.158819, 46.447354], [6.158856, 46.447337], [6.158804, 46.447317], [6.158821, 46.447343], [6.158842, 46.447319], [6.158766, 46.447416], [6.158754, 46.44749], [6.158826, 46.447613], [6.15884, 46.447713], [6.15891, 46.447793], [6.158899, 46.447858], [6.158958, 46.448057], [6.159039, 46.448203], [6.159071, 46.448242], [6.159138, 46.448263], [6.159243, 46.448409], [6.159352, 46.448497], [6.159456, 46.448547], [6.159614, 46.448548], [6.159714, 46.44853], [6.159677, 46.448457], [6.159697, 46.448471], [6.159779, 46.448442], [6.159818, 46.448455], [6.160233, 46.448425], [6.160322, 46.448388], [6.160682, 46.448449], [6.161046, 46.448303], [6.16125, 46.448275], [6.161405, 46.448321], [6.161523, 46.448317], [6.161623, 46.448344], [6.162034, 46.448293], [6.162243, 46.448347], [6.162389, 46.448357], [6.162521, 46.448321], [6.162564, 46.448274], [6.162702, 46.448255], [6.162725, 46.448], [6.16281, 46.447945], [6.163128, 46.447891], [6.16346, 46.44797], [6.16362, 46.447976], [6.163789, 46.448046], [6.163949, 46.448024], [6.16402, 46.447958], [6.164103, 46.447954], [6.164125, 46.447984], [6.164159, 46.447972], [6.164208, 46.447998], [6.164243, 46.447964], [6.164298, 46.447966], [6.164567, 46.447858], [6.164647, 46.4478], [6.164865, 46.447764], [6.164838, 46.447705], [6.164886, 46.447541], [6.164911, 46.447602], [6.164883, 46.447587], [6.164907, 46.447589], [6.16484, 46.447736], [6.164839, 46.447717], [6.164894, 46.447767], [6.164895, 46.447751], [6.164947, 46.447757], [6.16503, 46.447801], [6.16506, 46.447794], [6.165308, 46.447516], [6.165348, 46.447541], [6.165716, 46.447486], [6.165753, 46.447502], [6.165822, 46.447463], [6.165873, 46.447481], [6.165885, 46.447449], [6.166064, 46.447415], [6.166227, 46.447293], [6.166319, 46.447295], [6.1664, 46.447178], [6.166504, 46.447118], [6.166648, 46.446938], [6.166858, 46.446808], [6.166945, 46.446598], [6.167036, 46.446527], [6.167153, 46.446483], [6.167189, 46.446431], [6.16751, 46.446279], [6.167626, 46.446116], [6.167759, 46.446058], [6.167811, 46.445908], [6.168057, 46.445873], [6.168162, 46.445796], [6.168342, 46.445729], [6.16843, 46.445653], [6.168679, 46.44563], [6.16884, 46.44555], [6.168925, 46.445471], [6.169085, 46.445441], [6.16918, 46.445398], [6.169379, 46.445396], [6.169621, 46.445486], [6.169807, 46.445458], [6.169943, 46.445407], [6.170719, 46.445414], [6.17099, 46.4454], [6.171104, 46.445363], [6.17117, 46.445403], [6.17121, 46.445343], [6.171213, 46.445361], [6.171253, 46.44534], [6.171347, 46.445354], [6.171506, 46.445315], [6.171794, 46.445356], [6.171908, 46.445345], [6.172123, 46.445279], [6.172232, 46.445311], [6.172606, 46.445337], [6.172777, 46.445307], [6.172898, 46.445324], [6.173336, 46.445256], [6.173457, 46.445206], [6.173576, 46.445227], [6.173788, 46.445157], [6.173919, 46.445147], [6.173996, 46.445099], [6.174309, 46.445098], [6.174686, 46.444941], [6.17472, 46.44495], [6.175016, 46.444857], [6.175171, 46.444851], [6.175428, 46.444762], [6.17558, 46.444748], [6.175703, 46.444677], [6.175793, 46.444675], [6.175888, 46.444626], [6.17593, 46.444623], [6.175881, 46.444648], [6.176078, 46.444666], [6.176315, 46.444729], [6.176524, 46.444742], [6.176684, 46.444816], [6.176793, 46.444821], [6.176876, 46.444793], [6.176965, 46.444803], [6.177058, 46.444736], [6.177218, 46.44473], [6.177261, 46.444697], [6.177367, 46.444735], [6.177524, 46.444697], [6.177608, 46.444716], [6.177746, 46.444606], [6.177797, 46.444637], [6.177899, 46.44455], [6.178019, 46.444575], [6.178111, 46.444625], [6.178211, 46.444617], [6.178239, 46.444638], [6.178312, 46.444606], [6.178562, 46.44466], [6.178668, 46.44463], [6.178665, 46.444597], [6.178904, 46.444601], [6.17896, 46.444563], [6.179077, 46.444557], [6.179131, 46.444527], [6.179169, 46.444458], [6.179331, 46.444418], [6.179462, 46.444459], [6.179558, 46.444436], [6.179859, 46.444575], [6.180054, 46.444608], [6.180219, 46.444668], [6.180536, 46.444816], [6.180561, 46.444877], [6.180724, 46.444985], [6.180738, 46.444966], [6.180865, 46.445011], [6.181092, 46.445047], [6.181185, 46.445126], [6.181384, 46.445174], [6.181465, 46.445157], [6.181593, 46.445188], [6.1817, 46.445187], [6.181789, 46.445236], [6.181883, 46.445242], [6.182029, 46.445291], [6.182087, 46.445351], [6.182128, 46.445344], [6.182179, 46.44527], [6.182159, 46.445139], [6.182059, 46.445092], [6.181993, 46.445096], [6.181987, 46.445031], [6.181893, 46.444954], [6.181891, 46.444839], [6.181856, 46.444789], [6.181751, 46.444729], [6.181662, 46.444494], [6.181562, 46.44445], [6.181506, 46.444327], [6.181298, 46.444196], [6.181068, 46.443946], [6.180781, 46.443713], [6.180781, 46.443603], [6.18073, 46.443556], [6.180701, 46.443467], [6.180712, 46.443372], [6.180656, 46.443354], [6.180636, 46.443293], [6.18057, 46.44324], [6.180598, 46.443164], [6.18057, 46.443034], [6.180493, 46.442973], [6.18051, 46.442911], [6.180463, 46.44284], [6.180422, 46.442844], [6.180323, 46.442771], [6.180301, 46.44272], [6.180163, 46.442652], [6.180028, 46.442512], [6.179581, 46.442469], [6.179406, 46.442346], [6.1794, 46.442277], [6.179354, 46.442223], [6.179443, 46.442013], [6.179628, 46.441926], [6.17971, 46.441793], [6.17975, 46.441764], [6.179809, 46.441763], [6.179801, 46.441739], [6.179981, 46.441602], [6.180091, 46.441467], [6.180219, 46.44142], [6.180375, 46.441201], [6.180405, 46.44106], [6.18036, 46.440977], [6.180386, 46.440872], [6.180242, 46.440623], [6.180114, 46.440539], [6.180049, 46.440534], [6.179975, 46.440444], [6.180003, 46.440421], [6.179988, 46.440379], [6.180086, 46.440312], [6.180112, 46.440247], [6.180244, 46.440226], [6.180351, 46.440256], [6.180377, 46.440236], [6.180527, 46.440304], [6.18081, 46.440342], [6.180921, 46.440317], [6.181019, 46.440324], [6.181071, 46.440254], [6.181156, 46.440202], [6.181386, 46.440154], [6.181453, 46.440092], [6.181561, 46.440067], [6.181703, 46.439879], [6.181826, 46.439809], [6.181947, 46.439621], [6.181958, 46.439552], [6.182032, 46.439488], [6.18207, 46.439379], [6.182049, 46.439307], [6.182103, 46.439249], [6.182049, 46.439156], [6.18205, 46.439035], [6.182007, 46.438992], [6.182036, 46.438907], [6.181913, 46.43881], [6.181941, 46.438702], [6.181842, 46.438555], [6.18183, 46.438384], [6.181772, 46.43834], [6.18171, 46.438341], [6.181559, 46.438434], [6.181454, 46.438586], [6.181465, 46.438813], [6.181498, 46.438818], [6.181477, 46.438809], [6.181471, 46.438836], [6.181303, 46.438767], [6.1812, 46.438763], [6.181106, 46.438654], [6.18106, 46.438644], [6.180988, 46.438543], [6.180948, 46.438526], [6.180857, 46.438561], [6.180783, 46.438499], [6.180768, 46.43841], [6.180716, 46.438435], [6.180674, 46.438412], [6.180625, 46.438318], [6.180569, 46.438354], [6.180224, 46.438165], [6.179899, 46.438058], [6.179828, 46.437988], [6.179573, 46.437882], [6.179526, 46.437803], [6.179429, 46.437751], [6.179321, 46.437768], [6.179247, 46.437809], [6.179188, 46.437765], [6.179166, 46.437705], [6.179093, 46.43768], [6.178993, 46.437687], [6.17893, 46.437652], [6.178845, 46.437678], [6.178744, 46.437659], [6.178577, 46.43771], [6.178551, 46.437773], [6.178637, 46.437794], [6.178621, 46.437775], [6.178591, 46.437814], [6.178577, 46.437794], [6.178629, 46.437784], [6.178671, 46.437692], [6.178659, 46.437742], [6.178622, 46.437741], [6.178586, 46.437774], [6.178499, 46.437771], [6.178502, 46.437748], [6.178461, 46.437745], [6.178178, 46.437895], [6.178061, 46.438008], [6.177945, 46.43807], [6.177759, 46.438064], [6.177641, 46.438029], [6.177585, 46.437885], [6.177756, 46.437742], [6.177885, 46.437722], [6.177922, 46.437692], [6.177902, 46.437637], [6.177935, 46.437615], [6.177952, 46.437535], [6.177923, 46.437585], [6.177834, 46.437619], [6.177821, 46.437666], [6.177738, 46.437663], [6.177635, 46.437846], [6.177547, 46.437833], [6.177467, 46.437849], [6.177498, 46.437844], [6.177487, 46.437858], [6.177396, 46.437877], [6.177373, 46.437916], [6.177257, 46.437896], [6.177203, 46.437939], [6.177087, 46.437934], [6.177054, 46.437995], [6.176955, 46.438002], [6.176869, 46.438077], [6.176795, 46.438098], [6.176763, 46.438064], [6.176607, 46.438042], [6.176633, 46.438077], [6.17648, 46.438159], [6.176481, 46.438212], [6.176386, 46.4382], [6.176416, 46.438258], [6.176386, 46.438264], [6.176279, 46.438183], [6.176223, 46.438186], [6.17622, 46.438222], [6.176228, 46.438139], [6.176162, 46.438075], [6.176211, 46.438022], [6.176221, 46.437935], [6.176307, 46.437889], [6.17632, 46.437832], [6.176393, 46.43777], [6.176405, 46.437737], [6.17637, 46.437688], [6.176394, 46.437599], [6.176656, 46.43722], [6.17678, 46.437146], [6.176782, 46.437082], [6.176826, 46.437044], [6.17694, 46.437036], [6.176909, 46.437085], [6.176976, 46.437105], [6.177048, 46.437064], [6.177119, 46.436981], [6.177174, 46.436765], [6.17729, 46.436635], [6.177221, 46.436406], [6.177224, 46.436252], [6.177244, 46.436197], [6.177311, 46.436156], [6.177288, 46.436103], [6.177337, 46.436052], [6.177442, 46.435757], [6.17753, 46.435242], [6.177671, 46.435008], [6.177804, 46.434919], [6.178317, 46.434855], [6.178382, 46.434904], [6.178419, 46.434903], [6.178634, 46.434808], [6.178632, 46.434723], [6.178703, 46.434619], [6.178689, 46.434458], [6.178728, 46.434261], [6.178683, 46.434226], [6.178707, 46.434062], [6.178656, 46.434039], [6.178707, 46.434069], [6.178777, 46.434042], [6.178947, 46.433812], [6.179044, 46.433736], [6.179471, 46.433551], [6.179684, 46.4335], [6.179798, 46.43344], [6.180107, 46.433351], [6.180568, 46.433056], [6.180878, 46.432928], [6.180886, 46.432799], [6.180756, 46.432651], [6.180728, 46.432572], [6.180487, 46.43255], [6.180046, 46.432418], [6.179969, 46.432356], [6.179829, 46.432312], [6.179771, 46.432141], [6.179821, 46.432059], [6.179753, 46.432164], [6.17978, 46.432046], [6.180025, 46.431969], [6.180125, 46.431872], [6.180227, 46.431857], [6.180255, 46.431722], [6.180364, 46.431629], [6.180423, 46.431634], [6.180458, 46.431528], [6.180612, 46.431428], [6.180699, 46.431292], [6.181064, 46.431186], [6.181187, 46.431178], [6.181584, 46.431075], [6.181904, 46.430875], [6.182058, 46.430637], [6.182051, 46.430557], [6.182102, 46.430491], [6.182066, 46.430449], [6.182084, 46.430375], [6.182281, 46.430107], [6.182292, 46.430046], [6.182377, 46.429969], [6.182724, 46.429474], [6.182966, 46.429283], [6.182994, 46.429153], [6.183134, 46.428964], [6.183103, 46.428917], [6.183121, 46.428896], [6.183198, 46.428879], [6.18333, 46.428749], [6.183642, 46.42867], [6.183831, 46.428721], [6.183896, 46.428692], [6.184008, 46.428719], [6.184323, 46.428729], [6.184376, 46.428538], [6.184323, 46.428442], [6.184325, 46.42837], [6.184393, 46.428298], [6.184482, 46.42805], [6.184917, 46.427759], [6.184941, 46.427552], [6.184917, 46.427462], [6.184874, 46.427448], [6.184872, 46.427401], [6.184709, 46.427191], [6.183699, 46.426719], [6.183646, 46.426674], [6.18361, 46.426602], [6.183641, 46.42652], [6.183619, 46.426448], [6.183693, 46.426189], [6.183653, 46.426141], [6.183648, 46.426064], [6.183792, 46.425681], [6.183788, 46.425484], [6.183856, 46.425224], [6.183956, 46.424973], [6.18403, 46.424909], [6.184398, 46.424844], [6.184615, 46.424717], [6.184967, 46.424712], [6.185266, 46.424615], [6.185443, 46.424648], [6.185522, 46.424604], [6.18564, 46.424587], [6.185746, 46.424617], [6.185809, 46.424571], [6.185993, 46.424574], [6.186021, 46.424495], [6.18605, 46.424525], [6.186055, 46.424487], [6.186021, 46.424468], [6.186055, 46.424497], [6.186077, 46.424477], [6.18605, 46.424496], [6.186077, 46.424503], [6.186051, 46.424511], [6.186072, 46.424435], [6.186011, 46.424246], [6.185959, 46.424241], [6.185996, 46.4243], [6.185958, 46.424246], [6.185961, 46.42422], [6.185992, 46.424217], [6.185928, 46.42421], [6.185979, 46.424145], [6.18595, 46.424107], [6.185952, 46.423963], [6.185883, 46.423922], [6.185701, 46.423499], [6.185721, 46.423474], [6.185597, 46.423359], [6.185483, 46.423327], [6.185569, 46.423197], [6.185528, 46.423143], [6.18558, 46.423071], [6.185516, 46.423017], [6.185423, 46.422673], [6.185295, 46.422501], [6.185284, 46.422277], [6.185422, 46.421933], [6.185376, 46.421869], [6.185369, 46.42165], [6.185338, 46.421589], [6.185245, 46.421564], [6.185251, 46.421498], [6.185287, 46.421559], [6.185337, 46.421549], [6.185372, 46.421453], [6.185438, 46.421468], [6.185501, 46.421388], [6.185591, 46.421416], [6.185668, 46.421343], [6.185718, 46.421279], [6.185696, 46.421238], [6.18568, 46.421288], [6.18576, 46.421202], [6.18575, 46.421179], [6.185783, 46.421195], [6.185809, 46.421175], [6.185888, 46.420988], [6.185925, 46.420966], [6.185957, 46.420846], [6.185782, 46.420704], [6.185765, 46.420723], [6.185696, 46.420686], [6.185666, 46.420609], [6.185466, 46.420429], [6.18544, 46.420353], [6.185399, 46.420364], [6.18544, 46.420361], [6.18541, 46.420337], [6.185415, 46.42028], [6.185309, 46.420206], [6.185255, 46.42021], [6.185236, 46.420153], [6.185145, 46.420112], [6.185192, 46.420019], [6.185113, 46.419924], [6.185056, 46.419925], [6.184889, 46.419824], [6.184813, 46.419814], [6.184801, 46.41983], [6.184463, 46.419676], [6.184265, 46.41962], [6.184118, 46.419536], [6.184078, 46.419416], [6.184116, 46.419351], [6.183984, 46.4192], [6.183748, 46.419181], [6.183482, 46.419063], [6.183425, 46.419056], [6.183388, 46.419076], [6.182775, 46.418842], [6.182533, 46.41868], [6.182424, 46.41865], [6.182363, 46.418587], [6.18212, 46.418495], [6.181989, 46.418409], [6.181858, 46.418269], [6.181845, 46.418146], [6.181877, 46.418082], [6.181852, 46.417933], [6.181721, 46.41774], [6.181722, 46.417642], [6.181386, 46.417206], [6.18112, 46.417051], [6.180585, 46.4168], [6.180427, 46.416663], [6.180078, 46.41651], [6.179758, 46.416298], [6.179608, 46.416155], [6.179434, 46.416073], [6.179285, 46.416042], [6.179065, 46.415882], [6.17888, 46.415792]]}, "properties": {"name": "1787996773.Jura_gentle_hike", "cmt": "2026-08-29", "tstamp": 1787961600, "desc": "DownHill", "src": "6.1583/46.415775/6.186077/46.448548", "bbox": "6.1583/46.415775/6.186077/46.448548"}}, {"type": "Feature", "bbox": [6.1583, 46.415775, 6.186077, 46.448548], "geometry": {"type": "LineString", "coordinates": [[6.178866, 46.415783], [6.178784, 46.415775], [6.178679, 46.415859], [6.178607, 46.416015], [6.178587, 46.416189], [6.178523, 46.416298], [6.178485, 46.416466], [6.178334, 46.416581], [6.178261, 46.416702], [6.178109, 46.416802], [6.177937, 46.417021], [6.177793, 46.417101], [6.177685, 46.417243], [6.17761, 46.417292]]}, "properties": {"name": "1787996773.Jura_gentle_hike", "cmt": "2026-08-29", "tstamp": 1787961600, "desc": "UpHill", "src": "6.1583/46.415775/6.186077/46.448548", "bbox": "6.1583/46.415775/6.186077/46.448548"}}]}