{"type": "FeatureCollection", "name": "TrackSet", "crs": {"type": "name", "properties": {"name": "urn:ogc:def:crs:OGC:1.3:CRS84"}}, "bbox": [24.668836, 59.429739, 24.74664, 59.464572], "features": [{"type": "Feature", "bbox": [24.668836, 59.429739, 24.74664, 59.464572], "geometry": {"type": "LineString", "coordinates": [[24.743998, 59.437792], [24.744007, 59.437828], [24.743985, 59.437806], [24.743967, 59.437837], [24.743976, 59.437799], [24.744097, 59.437732], [24.743978, 59.437857], [24.744025, 59.437834], [24.744093, 59.437765], [24.744008, 59.437809], [24.743976, 59.437795], [24.744016, 59.437784], [24.744012, 59.437835], [24.743905, 59.437841], [24.743785, 59.437917], [24.743781, 59.437897], [24.743829, 59.437899], [24.743785, 59.437922], [24.743797, 59.437859], [24.743844, 59.437839], [24.743813, 59.437816], [24.743974, 59.437804], [24.743963, 59.43788], [24.744021, 59.43783], [24.743945, 59.43783], [24.743921, 59.437764], [24.743876, 59.437752], [24.744002, 59.437695], [24.743936, 59.437683], [24.743786, 59.437717], [24.743689, 59.43769], [24.743663, 59.437605], [24.743662, 59.437638], [24.743654, 59.437607], [24.743588, 59.437655], [24.743617, 59.437604], [24.743467, 59.437661], [24.743335, 59.437634], [24.742729, 59.437711], [24.742623, 59.437789], [24.742619, 59.43784], [24.742701, 59.437852], [24.742771, 59.43803], [24.742897, 59.438116], [24.7429, 59.438166], [24.742824, 59.438182], [24.742769, 59.438229], [24.742743, 59.438206], [24.742854, 59.438317], [24.74293, 59.438345], [24.742962, 59.438425], [24.742833, 59.438602], [24.742702, 59.438657], [24.742583, 59.43867], [24.74242, 59.438775], [24.741914, 59.438768], [24.741627, 59.438797], [24.74156, 59.438836], [24.74145, 59.438834], [24.741344, 59.438884], [24.741181, 59.438903], [24.741082, 59.43889], [24.740554, 59.438966], [24.740408, 59.439056], [24.740367, 59.43905], [24.740401, 59.439041], [24.740392, 59.439121], [24.740174, 59.439201], [24.740098, 59.43931], [24.739943, 59.439338], [24.7399, 59.439321], [24.739812, 59.439277], [24.739793, 59.439213], [24.739632, 59.43913], [24.739581, 59.439059], [24.739445, 59.439024], [24.739038, 59.439015], [24.738736, 59.439083], [24.738612, 59.43908], [24.738497, 59.439109], [24.738416, 59.43909], [24.738242, 59.439126], [24.738186, 59.439161], [24.73797, 59.439167], [24.737625, 59.43913], [24.736952, 59.439163], [24.73698, 59.439252], [24.737167, 59.439404], [24.737322, 59.439479], [24.73728, 59.439518], [24.73716, 59.439542], [24.737061, 59.439595], [24.737058, 59.439638], [24.737227, 59.439751], [24.737695, 59.439938], [24.737784, 59.440019], [24.738058, 59.4401], [24.738194, 59.440187], [24.738052, 59.440294], [24.737959, 59.440464], [24.737749, 59.440596], [24.737863, 59.440701], [24.737827, 59.440732], [24.737883, 59.440854], [24.737816, 59.440942], [24.737815, 59.4411], [24.737653, 59.441189], [24.737549, 59.441213], [24.737328, 59.441184], [24.737049, 59.44123], [24.736934, 59.441272], [24.736719, 59.441258], [24.736641, 59.441281], [24.736621, 59.441326], [24.736385, 59.441355], [24.736213, 59.441413], [24.736186, 59.441461], [24.735922, 59.441534], [24.73588, 59.441575], [24.735616, 59.441624], [24.735554, 59.441689], [24.735245, 59.441793], [24.735102, 59.441729], [24.735204, 59.441801], [24.735097, 59.441783], [24.735142, 59.4418], [24.735106, 59.44183], [24.734915, 59.441858], [24.734889, 59.441899], [24.734874, 59.441858], [24.734745, 59.44188], [24.73446, 59.441802], [24.734276, 59.441814], [24.734104, 59.441779], [24.733929, 59.441811], [24.733549, 59.441779], [24.733454, 59.441791], [24.733376, 59.441769], [24.733058, 59.441798], [24.732938, 59.441769], [24.732798, 59.44179], [24.73224, 59.441792], [24.731959, 59.441718], [24.731639, 59.441686], [24.731393, 59.441594], [24.731172, 59.441553], [24.730909, 59.441438], [24.730984, 59.441339], [24.730848, 59.44134], [24.730817, 59.441348], [24.730861, 59.441355], [24.730854, 59.44139], [24.730742, 59.441447], [24.730865, 59.441492], [24.730898, 59.441589], [24.730819, 59.441652], [24.730638, 59.441658], [24.730679, 59.441698], [24.730658, 59.441734], [24.73051, 59.441702], [24.730469, 59.441706], [24.730512, 59.441741], [24.730598, 59.441746], [24.73056, 59.441706], [24.73038, 59.441683], [24.730342, 59.441656], [24.730445, 59.441588], [24.730519, 59.441611], [24.730408, 59.44162], [24.73031, 59.441702], [24.730019, 59.441761], [24.729878, 59.441874], [24.729512, 59.442], [24.729058, 59.442072], [24.729018, 59.442108], [24.728917, 59.44211], [24.728811, 59.442158], [24.728485, 59.442211], [24.728242, 59.442339], [24.728088, 59.442358], [24.72803, 59.442392], [24.727745, 59.442417], [24.727207, 59.442559], [24.726804, 59.442614], [24.726562, 59.442704], [24.726279, 59.442761], [24.726174, 59.442822], [24.726014, 59.442825], [24.725734, 59.442902], [24.725607, 59.44291], [24.725413, 59.442983], [24.725286, 59.442997], [24.724749, 59.443145], [24.724244, 59.443372], [24.723996, 59.443514], [24.723727, 59.443614], [24.723534, 59.443733], [24.7232, 59.443834], [24.72303, 59.443939], [24.722767, 59.444032], [24.722561, 59.444146], [24.722361, 59.444208], [24.722175, 59.444337], [24.721947, 59.44442], [24.721823, 59.444518], [24.721302, 59.444605], [24.721209, 59.444677], [24.721314, 59.4447], [24.721114, 59.444833], [24.720943, 59.444886], [24.720811, 59.44498], [24.719993, 59.445352], [24.719854, 59.445376], [24.719042, 59.445679], [24.718553, 59.445822], [24.718509, 59.445869], [24.718265, 59.445961], [24.71816, 59.445975], [24.717932, 59.446081], [24.717622, 59.446148], [24.717219, 59.446319], [24.716914, 59.446411], [24.71635, 59.446655], [24.716224, 59.446671], [24.715974, 59.44679], [24.715463, 59.446948], [24.71487, 59.447203], [24.714087, 59.447463], [24.713543, 59.4477], [24.713431, 59.447776], [24.713082, 59.447903], [24.712899, 59.448041], [24.71272, 59.44808], [24.71267, 59.448103], [24.712694, 59.448117], [24.712651, 59.448085], [24.71261, 59.448094], [24.712486, 59.44824], [24.712344, 59.448292], [24.712244, 59.448379], [24.711529, 59.448784], [24.711576, 59.448974], [24.711476, 59.449008], [24.711412, 59.44912], [24.71109, 59.449271], [24.711074, 59.449324], [24.71099, 59.449355], [24.711004, 59.449402], [24.710932, 59.4494], [24.710907, 59.449489], [24.710664, 59.44966], [24.710537, 59.44972], [24.710323, 59.449763], [24.710287, 59.449796], [24.710222, 59.449739], [24.710129, 59.449731], [24.709831, 59.449867], [24.709745, 59.449998], [24.709456, 59.450108], [24.709198, 59.450296], [24.709062, 59.450345], [24.70883, 59.450552], [24.708395, 59.450768], [24.708178, 59.450934], [24.707891, 59.451063], [24.707565, 59.451281], [24.707559, 59.451349], [24.707591, 59.451351], [24.707635, 59.451312], [24.707544, 59.451315], [24.707325, 59.451426], [24.707063, 59.451513], [24.706769, 59.451666], [24.706721, 59.451725], [24.706287, 59.451972], [24.70625, 59.45207], [24.705703, 59.452325], [24.705674, 59.452401], [24.705257, 59.452566], [24.705153, 59.45269], [24.704988, 59.452768], [24.70481, 59.452804], [24.704448, 59.453045], [24.704249, 59.453219], [24.704197, 59.4532], [24.704149, 59.453223], [24.704072, 59.453197], [24.703866, 59.453202], [24.703685, 59.453265], [24.70356, 59.453413], [24.703474, 59.453408], [24.703391, 59.453346], [24.703392, 59.453373], [24.703371, 59.453352], [24.703225, 59.453428], [24.702419, 59.453571], [24.700128, 59.453767], [24.699406, 59.453797], [24.699144, 59.453841], [24.698706, 59.453872], [24.698097, 59.45398], [24.696994, 59.454093], [24.696809, 59.454133], [24.696296, 59.454164], [24.695732, 59.454253], [24.695408, 59.45426], [24.695183, 59.454299], [24.694684, 59.454324], [24.694465, 59.454373], [24.694317, 59.454371], [24.694067, 59.454456], [24.69383, 59.454471], [24.693713, 59.454512], [24.693224, 59.454566], [24.692768, 59.454578], [24.692329, 59.454663], [24.691935, 59.45468], [24.691611, 59.454744], [24.691444, 59.454747], [24.691065, 59.454816], [24.690816, 59.454835], [24.690664, 59.454878], [24.690487, 59.454891], [24.690166, 59.454874], [24.690176, 59.45482], [24.690118, 59.454777], [24.689829, 59.454747], [24.689546, 59.454888], [24.689441, 59.454908], [24.689392, 59.454988], [24.689336, 59.45501], [24.68936, 59.455076], [24.689294, 59.455159], [24.688722, 59.455139], [24.68831, 59.455184], [24.688135, 59.455178], [24.688014, 59.455202], [24.687965, 59.455256], [24.687633, 59.455122], [24.687407, 59.455107], [24.687194, 59.455135], [24.687072, 59.455126], [24.687002, 59.455159], [24.686969, 59.455135], [24.686698, 59.455144], [24.686341, 59.455099], [24.686148, 59.455105], [24.686086, 59.455084], [24.68605, 59.454967], [24.685932, 59.45483], [24.685563, 59.45482], [24.685483, 59.454792], [24.685258, 59.454827], [24.684566, 59.454808], [24.684338, 59.45476], [24.684043, 59.454775], [24.683797, 59.454723], [24.683477, 59.454704], [24.683499, 59.454639], [24.683469, 59.454652], [24.683372, 59.454627], [24.683439, 59.454648], [24.683459, 59.45461], [24.683382, 59.454469], [24.683306, 59.454411], [24.68312, 59.454383], [24.682971, 59.454319], [24.682294, 59.454337], [24.681495, 59.454738], [24.681327, 59.454765], [24.681091, 59.454859], [24.680761, 59.454926], [24.680593, 59.455071], [24.680576, 59.455169], [24.680416, 59.455317], [24.679849, 59.455571], [24.679104, 59.455991], [24.679182, 59.456098], [24.679367, 59.456198], [24.679329, 59.45627], [24.679189, 59.456349], [24.678947, 59.456428], [24.678402, 59.456731], [24.678189, 59.456802], [24.677929, 59.456931], [24.677783, 59.45706], [24.677711, 59.457086], [24.677754, 59.457127], [24.677672, 59.457302], [24.677542, 59.457401], [24.67761, 59.457463], [24.677578, 59.457536], [24.677663, 59.457624], [24.677626, 59.457688], [24.677594, 59.457661], [24.677556, 59.457689], [24.677609, 59.457714], [24.677513, 59.457813], [24.677534, 59.457864], [24.677443, 59.458141], [24.677408, 59.458446], [24.677309, 59.458635], [24.677296, 59.45877], [24.677245, 59.458806], [24.677277, 59.458983], [24.677206, 59.459183], [24.677146, 59.459232], [24.677032, 59.459484], [24.676833, 59.45963], [24.676755, 59.459775], [24.676677, 59.459815], [24.676555, 59.459987], [24.676555, 59.460047], [24.676548, 59.460029], [24.67646, 59.460071], [24.676196, 59.460225], [24.676193, 59.460276], [24.676192, 59.460248], [24.676095, 59.460329], [24.676161, 59.460419], [24.67639, 59.460587], [24.676373, 59.460623], [24.67601, 59.460716], [24.675498, 59.460946], [24.675314, 59.460991], [24.675051, 59.461132], [24.674899, 59.461157], [24.674596, 59.461266], [24.674253, 59.461325], [24.674139, 59.46139], [24.674142, 59.461453], [24.673994, 59.461726], [24.674149, 59.461859], [24.674553, 59.461917], [24.674629, 59.461962], [24.674524, 59.462049], [24.674623, 59.462253], [24.674535, 59.462474], [24.674591, 59.462615], [24.674773, 59.462769], [24.675094, 59.462869], [24.675308, 59.4633], [24.675415, 59.463356], [24.675498, 59.463367], [24.675562, 59.463555], [24.675493, 59.463634], [24.675538, 59.463642], [24.675569, 59.463622], [24.675621, 59.463489], [24.675627, 59.463513], [24.675571, 59.463502], [24.675385, 59.463421], [24.675144, 59.463399], [24.674993, 59.463334], [24.674693, 59.463297], [24.674452, 59.463301], [24.674284, 59.463271], [24.674267, 59.463241], [24.674105, 59.463249], [24.673796, 59.463217], [24.67365, 59.463175], [24.673338, 59.463149], [24.67303, 59.463093], [24.672505, 59.463065], [24.672445, 59.463095], [24.672255, 59.46309], [24.671812, 59.463015], [24.67159, 59.463008], [24.671283, 59.462947], [24.671019, 59.462954], [24.670519, 59.462903], [24.670004, 59.462917], [24.669663, 59.462896], [24.66916, 59.462927], [24.668836, 59.462911], [24.6693, 59.462919], [24.669712, 59.462884], [24.670404, 59.462901], [24.672968, 59.46312], [24.673269, 59.463163], [24.673422, 59.463153], [24.673539, 59.463182], [24.67367, 59.46318], [24.673787, 59.463219], [24.674229, 59.463253], [24.674467, 59.463308], [24.674704, 59.463304], [24.675526, 59.463502], [24.675966, 59.46355], [24.677013, 59.463581], [24.677476, 59.46365], [24.67787, 59.463757], [24.678414, 59.463864], [24.678947, 59.463902], [24.679695, 59.463825], [24.679736, 59.463785], [24.679662, 59.463608], [24.679807, 59.463551], [24.679824, 59.463515], [24.679856, 59.463693], [24.679602, 59.463638], [24.679594, 59.463659], [24.679618, 59.463637], [24.679656, 59.46367], [24.679812, 59.463704], [24.679883, 59.463654], [24.679614, 59.463209], [24.679657, 59.462457], [24.680615, 59.464572], [24.680214, 59.46402], [24.680185, 59.464293], [24.680237, 59.464381], [24.680252, 59.464263], [24.680475, 59.464427], [24.680311, 59.464366], [24.680021, 59.463995], [24.680061, 59.464015], [24.680005, 59.463943], [24.680046, 59.463952], [24.680016, 59.46383], [24.679992, 59.463883], [24.680117, 59.463859], [24.68063, 59.464092], [24.680254, 59.464116], [24.680544, 59.464107], [24.680452, 59.464109], [24.680256, 59.464064], [24.680272, 59.464031], [24.680299, 59.464053], [24.680255, 59.464144], [24.679931, 59.46387], [24.680038, 59.463849], [24.680124, 59.463731], [24.680018, 59.463686], [24.680197, 59.463664], [24.680116, 59.463613], [24.680045, 59.463628], [24.679762, 59.463615], [24.679692, 59.46365], [24.679721, 59.463593], [24.679718, 59.463788], [24.67977, 59.463815], [24.6799, 59.463639], [24.680029, 59.463739], [24.680126, 59.463764], [24.680138, 59.463578], [24.680151, 59.463632], [24.680184, 59.463619], [24.680211, 59.463681], [24.680265, 59.463698], [24.68037, 59.463813], [24.680342, 59.463783], [24.680254, 59.463876], [24.680149, 59.463912], [24.680345, 59.463892], [24.680461, 59.463911], [24.680557, 59.463888], [24.680581, 59.463928], [24.680811, 59.463927], [24.681274, 59.464029], [24.681283, 59.464048], [24.681273, 59.464028], [24.681941, 59.464088], [24.682232, 59.464079], [24.682907, 59.464144], [24.683092, 59.464145], [24.683255, 59.464108], [24.683615, 59.464082], [24.683989, 59.464088], [24.684243, 59.46412], [24.684337, 59.463945], [24.684483, 59.463813], [24.684465, 59.463777], [24.684726, 59.463644], [24.68485, 59.463432], [24.68482, 59.463304], [24.685005, 59.462922], [24.684997, 59.462509], [24.684824, 59.462156], [24.684608, 59.461922], [24.684202, 59.461306], [24.683968, 59.461053], [24.683916, 59.460935], [24.683946, 59.460504], [24.684268, 59.460069], [24.68441, 59.45998], [24.684672, 59.459721], [24.684726, 59.459486], [24.684673, 59.459358], [24.684687, 59.459141], [24.684631, 59.459034], [24.68467, 59.458987], [24.684679, 59.458818], [24.68465, 59.458482], [24.684918, 59.458359], [24.685057, 59.458334], [24.685556, 59.458099], [24.685822, 59.45789], [24.686085, 59.457781], [24.686761, 59.457414], [24.687062, 59.457305], [24.687522, 59.456965], [24.688159, 59.456649], [24.688478, 59.456454], [24.688674, 59.456293], [24.688967, 59.456194], [24.689149, 59.455961], [24.689186, 59.455772], [24.689368, 59.455562], [24.689496, 59.455327], [24.689558, 59.455146], [24.689548, 59.454988], [24.689587, 59.454927], [24.689737, 59.454884], [24.689568, 59.454862], [24.689049, 59.454913], [24.688905, 59.454835], [24.688789, 59.454717], [24.688705, 59.454709], [24.688635, 59.45475], [24.688613, 59.454739], [24.688672, 59.45472], [24.688615, 59.454702], [24.688592, 59.454593], [24.688561, 59.454626], [24.68861, 59.454705], [24.688509, 59.45476], [24.688244, 59.45472], [24.68819, 59.454581], [24.687931, 59.454256], [24.687847, 59.454192], [24.687732, 59.454165], [24.68746, 59.453873], [24.687366, 59.453826], [24.687091, 59.453487], [24.687084, 59.453407], [24.687011, 59.453374], [24.686869, 59.453213], [24.686493, 59.452948], [24.686412, 59.452928], [24.686317, 59.452858], [24.686235, 59.452765], [24.686269, 59.452734], [24.686256, 59.45275], [24.686068, 59.452636], [24.68593, 59.452591], [24.685662, 59.452358], [24.685524, 59.452158], [24.685049, 59.451944], [24.685035, 59.451802], [24.68516, 59.451677], [24.685185, 59.451567], [24.685031, 59.451308], [24.684995, 59.451121], [24.684884, 59.450962], [24.68489, 59.450907], [24.684626, 59.450735], [24.684564, 59.450635], [24.684228, 59.45037], [24.684197, 59.450268], [24.684083, 59.450203], [24.684039, 59.45011], [24.683747, 59.449886], [24.683682, 59.449787], [24.683766, 59.4496], [24.683731, 59.449388], [24.684, 59.449033], [24.684411, 59.448612], [24.684481, 59.448425], [24.684688, 59.448182], [24.684674, 59.448132], [24.684742, 59.448025], [24.684713, 59.447951], [24.68475, 59.447679], [24.684216, 59.447646], [24.684247, 59.447642], [24.683957, 59.447482], [24.684012, 59.447216], [24.684273, 59.446581], [24.684342, 59.446515], [24.684352, 59.446239], [24.68447, 59.445911], [24.684469, 59.445494], [24.684367, 59.445451], [24.684411, 59.445454], [24.684446, 59.445412], [24.684496, 59.445219], [24.684433, 59.445101], [24.684493, 59.444587], [24.684472, 59.444356], [24.684382, 59.444223], [24.684429, 59.444054], [24.684335, 59.443785], [24.684364, 59.443617], [24.684121, 59.443415], [24.683947, 59.443118], [24.683921, 59.442867], [24.684038, 59.442804], [24.684174, 59.442805], [24.684571, 59.442731], [24.684556, 59.442757], [24.684504, 59.442751], [24.684369, 59.442633], [24.684406, 59.442528], [24.684403, 59.44221], [24.684215, 59.44211], [24.684125, 59.441982], [24.684126, 59.441916], [24.68405, 59.441851], [24.683941, 59.441511], [24.683949, 59.441321], [24.683852, 59.441155], [24.683757, 59.441064], [24.683638, 59.441053], [24.683661, 59.441022], [24.683518, 59.440779], [24.683425, 59.44072], [24.683275, 59.440294], [24.683227, 59.440214], [24.683187, 59.440219], [24.683112, 59.440044], [24.683105, 59.439925], [24.682778, 59.439357], [24.682808, 59.439318], [24.682541, 59.438872], [24.682522, 59.43877], [24.682463, 59.43874], [24.682353, 59.438781], [24.682445, 59.438754], [24.68249, 59.438679], [24.682777, 59.438431], [24.68293, 59.438211], [24.682937, 59.438138], [24.682834, 59.437656], [24.682684, 59.437341], [24.682558, 59.437216], [24.682376, 59.436777], [24.682124, 59.436373], [24.682012, 59.436109], [24.682351, 59.435979], [24.683093, 59.435774], [24.6832, 59.435719], [24.683219, 59.435663], [24.683298, 59.435739], [24.683373, 59.435758], [24.683748, 59.435729], [24.68387, 59.43568], [24.683992, 59.435671], [24.683725, 59.435608], [24.683709, 59.435502], [24.68379, 59.435452], [24.684023, 59.435419], [24.684303, 59.435275], [24.684689, 59.435149], [24.685021, 59.435106], [24.685217, 59.434988], [24.685823, 59.434762], [24.686258, 59.434666], [24.686727, 59.434496], [24.686873, 59.434488], [24.686982, 59.434454], [24.687432, 59.43421], [24.687559, 59.434202], [24.68786, 59.434078], [24.688302, 59.434007], [24.688632, 59.433908], [24.68945, 59.433595], [24.689504, 59.433537], [24.689712, 59.433455], [24.689723, 59.433428], [24.689719, 59.433447], [24.689993, 59.433355], [24.690331, 59.433301], [24.690484, 59.433201], [24.690853, 59.433162], [24.691056, 59.433107], [24.691169, 59.433027], [24.691599, 59.432899], [24.691425, 59.432907], [24.691079, 59.432984], [24.690672, 59.433137], [24.690639, 59.433174], [24.690733, 59.43333], [24.690701, 59.433246], [24.690943, 59.433309], [24.690879, 59.433242], [24.690639, 59.433138], [24.69055, 59.433071], [24.690543, 59.433009], [24.690495, 59.433095], [24.690348, 59.433199], [24.690187, 59.433243], [24.690141, 59.433189], [24.690174, 59.433199], [24.690103, 59.433277], [24.690415, 59.433219], [24.690585, 59.433211], [24.690593, 59.433177], [24.690904, 59.433156], [24.691074, 59.433111], [24.691302, 59.433183], [24.691446, 59.433149], [24.691644, 59.433165], [24.692126, 59.433144], [24.692456, 59.433195], [24.692801, 59.433144], [24.69334, 59.433114], [24.693726, 59.433065], [24.693886, 59.433075], [24.694301, 59.433034], [24.694798, 59.433038], [24.695117, 59.433011], [24.695161, 59.432927], [24.695258, 59.432965], [24.695392, 59.432959], [24.695553, 59.432892], [24.695957, 59.432884], [24.69624, 59.432837], [24.696615, 59.432876], [24.696819, 59.432939], [24.697067, 59.433058], [24.697227, 59.43308], [24.69755, 59.432991], [24.697685, 59.432915], [24.697886, 59.43287], [24.697894, 59.432831], [24.698012, 59.432777], [24.69801, 59.432728], [24.698193, 59.432684], [24.698394, 59.432517], [24.698674, 59.432393], [24.698725, 59.432301], [24.699012, 59.432141], [24.699311, 59.432058], [24.699432, 59.431958], [24.699684, 59.431856], [24.69977, 59.431785], [24.700222, 59.431573], [24.700319, 59.43145], [24.700574, 59.4313], [24.700916, 59.431208], [24.700989, 59.431135], [24.701223, 59.43104], [24.701233, 59.43099], [24.701451, 59.4309], [24.701565, 59.430907], [24.70161, 59.430856], [24.701713, 59.430838], [24.701869, 59.430677], [24.701993, 59.430636], [24.702089, 59.430547], [24.702195, 59.430513], [24.702192, 59.430465], [24.70217, 59.430487], [24.70234, 59.430542], [24.702407, 59.4306], [24.702566, 59.430599], [24.702588, 59.430632], [24.702702, 59.430659], [24.703104, 59.430643], [24.703211, 59.430715], [24.703499, 59.430791], [24.703604, 59.43081], [24.703807, 59.430793], [24.704103, 59.430865], [24.704316, 59.430799], [24.704486, 59.430583], [24.704679, 59.430498], [24.704711, 59.430454], [24.704904, 59.430428], [24.70504, 59.430391], [24.705114, 59.430341], [24.705379, 59.430278], [24.705865, 59.429922], [24.706007, 59.429801], [24.705988, 59.429779], [24.706266, 59.429739], [24.706587, 59.429859], [24.706871, 59.429896], [24.706955, 59.429875], [24.707069, 59.429882], [24.707481, 59.429992], [24.707821, 59.430043], [24.708002, 59.430109], [24.708064, 59.430175], [24.709039, 59.430455], [24.709381, 59.430601], [24.709766, 59.43068], [24.710076, 59.430803], [24.711038, 59.431068], [24.712164, 59.431464], [24.71225, 59.431524], [24.712176, 59.431612], [24.712158, 59.431709], [24.712457, 59.431809], [24.712533, 59.431882], [24.712507, 59.431864], [24.712646, 59.431865], [24.712882, 59.431988], [24.713356, 59.432129], [24.713584, 59.432233], [24.713969, 59.432317], [24.715228, 59.432728], [24.715784, 59.432777], [24.715896, 59.432768], [24.715928, 59.432741], [24.715897, 59.432771], [24.716032, 59.432672], [24.716288, 59.432578], [24.716361, 59.432484], [24.716623, 59.432675], [24.717769, 59.433028], [24.717962, 59.433048], [24.718592, 59.433179], [24.718809, 59.433251], [24.719394, 59.433328], [24.71997, 59.433463], [24.720231, 59.433553], [24.720828, 59.433635], [24.721319, 59.433766], [24.721673, 59.433786], [24.722232, 59.433888], [24.722514, 59.433964], [24.723182, 59.433973], [24.72328, 59.433842], [24.723473, 59.433848], [24.723497, 59.433895], [24.72361, 59.433912], [24.723648, 59.433944], [24.723673, 59.434038], [24.723708, 59.434026], [24.723677, 59.434043], [24.723896, 59.434035], [24.724047, 59.434277], [24.724467, 59.434389], [24.724767, 59.434432], [24.724869, 59.434417], [24.725084, 59.434469], [24.725077, 59.434492], [24.725181, 59.434468], [24.725158, 59.434531], [24.725237, 59.43457], [24.725508, 59.434653], [24.725598, 59.434636], [24.72571, 59.434736], [24.72584, 59.43478], [24.726296, 59.434681], [24.726381, 59.434707], [24.726607, 59.434681], [24.726796, 59.43471], [24.726944, 59.434692], [24.727103, 59.434715], [24.727231, 59.434696], [24.727462, 59.43472], [24.727821, 59.434802], [24.727957, 59.434778], [24.728187, 59.434818], [24.728483, 59.434774], [24.728677, 59.434844], [24.728715, 59.434881], [24.728899, 59.434882], [24.728993, 59.434944], [24.729247, 59.434941], [24.729525, 59.435012], [24.729984, 59.43497], [24.730191, 59.434973], [24.73083, 59.435051], [24.731228, 59.434989], [24.73163, 59.435058], [24.731777, 59.435046], [24.731989, 59.435094], [24.732014, 59.435069], [24.732314, 59.435095], [24.732435, 59.435085], [24.732627, 59.434973], [24.73268, 59.43498], [24.732783, 59.434915], [24.732888, 59.434908], [24.732846, 59.434836], [24.732916, 59.434727], [24.73314, 59.434795], [24.733165, 59.43478], [24.733253, 59.434803], [24.733525, 59.434813], [24.733876, 59.434802], [24.734099, 59.434843], [24.734238, 59.434854], [24.734404, 59.434834], [24.734523, 59.434862], [24.734686, 59.434862], [24.734743, 59.43481], [24.734987, 59.434795], [24.735397, 59.434824], [24.735607, 59.43479], [24.735594, 59.434775], [24.735677, 59.434806], [24.735699, 59.434787], [24.735749, 59.434844], [24.735745, 59.434827], [24.735754, 59.434843], [24.735866, 59.434832], [24.735829, 59.434852], [24.7358, 59.434841], [24.735749, 59.434909], [24.735963, 59.435115], [24.736083, 59.435147], [24.736338, 59.435042], [24.736586, 59.434852], [24.73666, 59.434827], [24.736917, 59.434843], [24.737003, 59.434876], [24.737311, 59.434861], [24.737527, 59.434894], [24.738218, 59.434881], [24.738333, 59.434861], [24.738764, 59.434887], [24.738844, 59.434915], [24.738874, 59.435033], [24.738902, 59.434998], [24.738881, 59.435022], [24.73898, 59.43501], [24.738995, 59.434978], [24.738953, 59.435165], [24.738822, 59.435318], [24.738706, 59.435321], [24.738714, 59.435293], [24.738648, 59.435302], [24.738707, 59.435318], [24.738516, 59.435315], [24.738473, 59.435334], [24.738511, 59.435356], [24.738471, 59.435342], [24.738397, 59.435366], [24.738454, 59.435406], [24.738398, 59.435429], [24.73837, 59.43541], [24.7384, 59.435455], [24.73859, 59.435285], [24.738568, 59.435209], [24.738374, 59.435199], [24.738286, 59.435133], [24.738191, 59.435109], [24.738158, 59.43512], [24.738202, 59.435151], [24.738181, 59.435173], [24.738104, 59.435171], [24.737989, 59.435211], [24.737902, 59.435182], [24.737962, 59.435212], [24.738019, 59.435199], [24.738212, 59.435239], [24.738448, 59.435246], [24.738349, 59.435397], [24.738427, 59.435521], [24.738503, 59.435539], [24.738526, 59.435623], [24.738629, 59.435609], [24.738801, 59.435679], [24.739012, 59.435692], [24.73904, 59.435711], [24.738937, 59.435669], [24.739045, 59.435602], [24.738921, 59.435654], [24.738983, 59.43563], [24.738903, 59.435601], [24.73885, 59.435694], [24.738814, 59.43562], [24.738754, 59.435613], [24.738835, 59.435619], [24.73871, 59.435631], [24.738823, 59.435658], [24.738755, 59.435631], [24.738823, 59.435643], [24.738823, 59.435628], [24.738833, 59.435651], [24.738791, 59.435667], [24.7388, 59.435731], [24.73873, 59.435819], [24.738774, 59.435833], [24.738755, 59.435866], [24.738611, 59.435926], [24.738574, 59.435976], [24.738609, 59.436011], [24.738541, 59.436026], [24.738554, 59.436161], [24.738488, 59.436226], [24.738571, 59.436288], [24.73847, 59.436499], [24.738374, 59.436541], [24.738407, 59.436685], [24.738588, 59.436716], [24.738706, 59.436755], [24.738717, 59.436781], [24.738732, 59.436753], [24.738765, 59.436774], [24.738732, 59.43674], [24.738717, 59.436755], [24.738806, 59.436791], [24.738732, 59.436773], [24.738753, 59.436796], [24.738668, 59.436766], [24.738666, 59.436748], [24.738731, 59.436747], [24.73881, 59.436772], [24.739148, 59.436763], [24.739255, 59.436799], [24.739319, 59.436782], [24.739508, 59.436808], [24.739659, 59.436712], [24.739649, 59.436687], [24.739794, 59.436583], [24.739871, 59.436466], [24.73985, 59.436425], [24.739899, 59.436385], [24.739846, 59.436307], [24.739897, 59.436202], [24.739848, 59.436172], [24.739869, 59.436092], [24.73981, 59.436066], [24.74014, 59.436072], [24.740528, 59.43616], [24.740656, 59.436136], [24.740856, 59.436249], [24.741028, 59.436283], [24.741129, 59.436406], [24.741099, 59.43649], [24.741278, 59.436543], [24.741335, 59.436644], [24.741532, 59.436687], [24.741594, 59.43673], [24.7418, 59.436789], [24.741818, 59.436947], [24.741875, 59.436958], [24.741913, 59.437094], [24.742054, 59.437193], [24.742063, 59.437271], [24.742157, 59.437319], [24.742275, 59.437326], [24.742346, 59.437401], [24.742636, 59.437511], [24.74259, 59.437576], [24.742636, 59.437622], [24.742762, 59.437647], [24.742842, 59.437702], [24.742993, 59.437726], [24.742917, 59.437688], [24.742993, 59.437695], [24.743004, 59.437806], [24.743182, 59.437785], [24.743231, 59.437737], [24.743171, 59.437724], [24.743107, 59.43777], [24.7432, 59.437808], [24.743243, 59.437671], [24.74338, 59.437627], [24.743325, 59.437671], [24.743367, 59.437653], [24.743392, 59.43768], [24.743562, 59.437588], [24.743687, 59.437691], [24.74404, 59.43777], [24.744124, 59.437814], [24.744256, 59.437829], [24.744616, 59.438038], [24.744719, 59.438071], [24.744847, 59.43806], [24.745078, 59.438124], [24.745118, 59.438103], [24.74524, 59.438122], [24.74535, 59.43824], [24.745488, 59.438303], [24.745502, 59.438358], [24.745638, 59.438414], [24.745532, 59.438546], [24.745556, 59.438508], [24.745655, 59.438478], [24.745805, 59.438479], [24.745638, 59.438447], [24.745686, 59.438519], [24.745671, 59.438603], [24.745814, 59.438577], [24.746031, 59.438736], [24.746169, 59.438758], [24.746316, 59.438824], [24.746429, 59.438826], [24.746562, 59.4389], [24.746603, 59.438829], [24.746599, 59.438862], [24.746476, 59.43879], [24.745558, 59.437493], [24.745639, 59.43757], [24.745606, 59.437591], [24.745818, 59.43779], [24.745794, 59.437801], [24.745856, 59.437816], [24.745535, 59.437867], [24.745499, 59.437849], [24.74561, 59.437861], [24.745567, 59.437905], [24.745455, 59.437906], [24.74542, 59.437926], [24.745346, 59.438136], [24.745368, 59.438177], [24.74542, 59.438181], [24.745365, 59.438167], [24.745381, 59.438242], [24.745493, 59.438315], [24.745703, 59.438365], [24.745854, 59.43867], [24.746008, 59.438664], [24.746166, 59.438783], [24.746319, 59.438821], [24.746372, 59.43887], [24.746469, 59.438895], [24.746455, 59.438913], [24.746561, 59.438937], [24.746502, 59.438943], [24.746484, 59.439022], [24.74664, 59.439022], [24.746632, 59.439064], [24.746513, 59.438813], [24.746234, 59.438775], [24.746156, 59.438675], [24.745742, 59.438529], [24.745494, 59.438373], [24.745369, 59.43837], [24.745282, 59.43816], [24.745098, 59.438016], [24.744821, 59.437944], [24.744661, 59.438006], [24.744206, 59.437869], [24.74396, 59.437878], [24.743778, 59.437784], [24.743623, 59.437806], [24.743483, 59.437793], [24.743547, 59.437758], [24.743572, 59.437661], [24.743636, 59.437643], [24.743889, 59.437657], [24.743929, 59.437727], [24.744013, 59.437681], [24.744208, 59.437651], [24.744212, 59.437631], [24.744133, 59.437636], [24.744055, 59.437515], [24.744116, 59.437536], [24.74414, 59.437511]]}, "properties": {"name": "1787210450.Tallin_explore_further_afield", "cmt": "2026-08-20", "tstamp": 1787184000, "desc": "---", "src": "24.668836/59.429739/24.74664/59.464572", "bbox": "24.668836/59.429739/24.74664/59.464572"}}]}