{"type": "FeatureCollection", "name": "TrackSet", "crs": {"type": "name", "properties": {"name": "urn:ogc:def:crs:OGC:1.3:CRS84"}}, "bbox": [6.185578, 46.331387, 6.202229, 46.35075], "features": [{"type": "Feature", "bbox": [6.185578, 46.331387, 6.202229, 46.35075], "geometry": {"type": "LineString", "coordinates": [[6.194369, 46.331798], [6.194345, 46.331814], [6.194259, 46.33173], [6.194276, 46.331697], [6.19422, 46.331681], [6.194198, 46.331638], [6.194198, 46.331749], [6.194046, 46.33179], [6.19404, 46.331812], [6.193831, 46.33178], [6.193777, 46.331806], [6.192978, 46.331936], [6.192937, 46.332121], [6.19284, 46.3322], [6.19262, 46.332243], [6.192576, 46.332319], [6.192558, 46.33254], [6.192599, 46.332665], [6.192721, 46.332863], [6.192734, 46.33319], [6.192815, 46.333314], [6.193134, 46.333633], [6.193189, 46.333653], [6.193397, 46.333837], [6.193561, 46.333869], [6.193761, 46.333968], [6.193911, 46.334082], [6.194099, 46.334135], [6.194139, 46.334217], [6.194295, 46.334374], [6.194401, 46.334409], [6.194598, 46.334573], [6.194844, 46.334916], [6.194914, 46.334957], [6.194931, 46.335046], [6.194978, 46.335071], [6.195002, 46.335156], [6.19514, 46.33522], [6.195249, 46.335312], [6.195239, 46.335381], [6.194891, 46.335778], [6.194867, 46.335858], [6.194818, 46.335903], [6.194802, 46.336122], [6.19482, 46.336263], [6.194861, 46.336315], [6.194839, 46.336409], [6.194899, 46.33648], [6.195067, 46.336946], [6.19525, 46.337339], [6.195194, 46.337399], [6.195243, 46.337634], [6.195222, 46.337937], [6.195305, 46.338305], [6.195552, 46.338747], [6.195669, 46.338869], [6.195722, 46.339033], [6.195752, 46.339062], [6.195858, 46.339088], [6.196164, 46.339635], [6.196607, 46.340581], [6.196732, 46.340777], [6.196934, 46.341018], [6.197254, 46.341328], [6.197434, 46.341452], [6.197499, 46.341551], [6.197414, 46.341632], [6.197254, 46.341651], [6.197021, 46.341754], [6.196886, 46.341877], [6.196579, 46.342007], [6.196505, 46.34208], [6.196384, 46.342117], [6.196198, 46.342243], [6.195882, 46.342326], [6.195449, 46.342549], [6.195276, 46.342596], [6.195188, 46.342712], [6.195084, 46.342789], [6.194833, 46.34285], [6.194798, 46.342835], [6.194532, 46.342942], [6.194217, 46.343029], [6.194062, 46.343122], [6.194002, 46.343191], [6.193657, 46.343339], [6.193268, 46.343579], [6.193113, 46.343621], [6.193036, 46.343676], [6.192733, 46.343801], [6.192676, 46.343851], [6.192568, 46.343882], [6.192508, 46.34395], [6.192258, 46.34402], [6.191898, 46.344213], [6.191769, 46.344236], [6.191719, 46.344276], [6.191616, 46.344305], [6.191383, 46.344448], [6.191169, 46.344532], [6.191085, 46.344602], [6.19085, 46.34468], [6.19019, 46.345026], [6.189935, 46.345103], [6.18985, 46.345174], [6.189775, 46.345189], [6.189683, 46.345275], [6.18953, 46.345306], [6.189354, 46.345406], [6.18928, 46.345411], [6.189095, 46.345516], [6.188777, 46.345642], [6.188459, 46.345834], [6.188305, 46.345877], [6.187484, 46.346287], [6.187339, 46.346328], [6.187047, 46.346499], [6.186601, 46.34667], [6.186468, 46.346761], [6.186444, 46.346821], [6.186612, 46.347038], [6.186946, 46.347365], [6.186952, 46.34749], [6.186737, 46.347668], [6.186474, 46.347758], [6.186264, 46.347901], [6.186152, 46.347913], [6.186141, 46.347941], [6.185845, 46.348116], [6.185701, 46.348161], [6.185578, 46.348249], [6.185655, 46.348371], [6.185771, 46.34845], [6.185863, 46.348569], [6.186018, 46.348698], [6.186646, 46.349121], [6.186749, 46.349145], [6.186927, 46.34926], [6.187184, 46.349363], [6.187327, 46.349368], [6.187789, 46.34957], [6.187882, 46.349567], [6.188133, 46.349688], [6.188352, 46.349735], [6.18864, 46.349763], [6.188884, 46.349727], [6.189054, 46.349659], [6.189341, 46.349437], [6.189451, 46.349388], [6.189577, 46.34938], [6.189626, 46.349332], [6.189768, 46.349324], [6.189864, 46.349264], [6.189934, 46.349274], [6.190005, 46.349189], [6.190066, 46.349183], [6.190178, 46.349107], [6.190195, 46.349064], [6.190607, 46.349013], [6.190642, 46.349043], [6.190886, 46.349049], [6.191039, 46.349102], [6.191118, 46.34917], [6.191203, 46.349183], [6.191356, 46.349257], [6.19141, 46.349307], [6.191398, 46.349332], [6.191483, 46.349495], [6.19166, 46.34973], [6.191777, 46.349783], [6.192013, 46.349749], [6.192662, 46.349557], [6.192749, 46.349556], [6.192872, 46.349612], [6.192947, 46.349885], [6.193051, 46.35003], [6.193234, 46.350147], [6.193309, 46.350253], [6.193505, 46.350422], [6.193489, 46.350441], [6.19354, 46.35049], [6.193638, 46.350549], [6.193774, 46.350586], [6.193843, 46.350564], [6.19389, 46.350513], [6.193964, 46.350547], [6.194076, 46.350501], [6.194318, 46.350681], [6.194321, 46.350747], [6.194426, 46.35075], [6.194619, 46.350638], [6.194652, 46.350644], [6.194694, 46.350589], [6.194762, 46.350586], [6.194776, 46.350566], [6.194853, 46.350577], [6.195061, 46.35052], [6.195127, 46.350525], [6.195212, 46.350486], [6.195254, 46.350499], [6.195614, 46.350374], [6.195704, 46.350371], [6.195787, 46.35032], [6.196109, 46.350276], [6.196234, 46.350222], [6.196413, 46.350186], [6.196434, 46.350158], [6.196581, 46.35014], [6.196675, 46.350085], [6.196851, 46.350045], [6.197312, 46.349861], [6.197503, 46.349813], [6.197819, 46.349592], [6.197935, 46.349575], [6.198012, 46.349535], [6.198273, 46.349289], [6.198379, 46.34925], [6.198546, 46.34909], [6.198633, 46.349074], [6.19898, 46.348869], [6.199153, 46.348808], [6.199328, 46.348779], [6.1994, 46.348664], [6.199603, 46.348574], [6.199802, 46.34843], [6.199963, 46.348357], [6.200009, 46.348321], [6.199991, 46.348142], [6.200416, 46.348016], [6.200317, 46.347809], [6.200358, 46.347784], [6.200347, 46.34775], [6.200088, 46.347261], [6.200106, 46.347195], [6.200071, 46.347063], [6.200097, 46.347012], [6.200002, 46.346749], [6.199973, 46.34674], [6.199908, 46.346443], [6.199764, 46.34528], [6.199872, 46.345105], [6.200159, 46.344901], [6.200183, 46.344843], [6.200319, 46.34471], [6.200716, 46.344433], [6.20076, 46.344335], [6.200672, 46.344136], [6.200613, 46.343872], [6.200449, 46.343574], [6.200205, 46.343321], [6.200158, 46.343145], [6.200089, 46.343025], [6.200049, 46.342802], [6.200379, 46.342695], [6.200465, 46.342645], [6.200936, 46.342196], [6.201198, 46.342092], [6.201659, 46.341969], [6.201742, 46.341919], [6.201871, 46.341898], [6.202003, 46.341829], [6.202164, 46.341807], [6.202226, 46.341764], [6.202229, 46.341695], [6.202024, 46.341339], [6.20195, 46.341138], [6.201857, 46.340872], [6.201872, 46.340737], [6.201776, 46.340571], [6.201705, 46.340277], [6.201332, 46.339763], [6.200442, 46.338812], [6.199995, 46.338396], [6.199221, 46.337761], [6.19902, 46.337545], [6.19887, 46.337447], [6.198798, 46.33736], [6.198751, 46.337358], [6.198571, 46.337051], [6.198238, 46.336704], [6.198255, 46.336638], [6.198202, 46.336566], [6.19776, 46.336303], [6.19768, 46.336216], [6.197544, 46.33613], [6.197477, 46.336034], [6.197294, 46.335998], [6.19713, 46.335903], [6.197077, 46.335902], [6.197026, 46.335842], [6.196769, 46.33569], [6.196672, 46.335604], [6.196118, 46.335323], [6.195883, 46.335151], [6.194936, 46.334688], [6.194854, 46.334613], [6.194746, 46.334581], [6.194644, 46.334508], [6.194611, 46.33445], [6.194394, 46.334349], [6.194383, 46.334297], [6.19411, 46.334099], [6.193924, 46.334106], [6.193799, 46.333965], [6.193714, 46.333929], [6.193622, 46.333927], [6.193266, 46.333733], [6.193251, 46.333693], [6.193072, 46.333566], [6.193005, 46.333462], [6.192935, 46.333421], [6.192906, 46.333325], [6.192812, 46.333203], [6.192756, 46.333059], [6.192759, 46.332942], [6.1926, 46.332561], [6.192595, 46.332488], [6.192667, 46.332461], [6.192619, 46.332283], [6.192713, 46.332209], [6.192909, 46.332175], [6.193022, 46.332128], [6.193013, 46.331941], [6.193731, 46.331824], [6.193836, 46.331825], [6.194011, 46.331867], [6.194235, 46.331834], [6.194313, 46.331797], [6.194284, 46.331675], [6.194245, 46.331665], [6.194315, 46.331711], [6.194488, 46.331726], [6.194491, 46.331637], [6.194399, 46.331567], [6.194298, 46.331579], [6.19422, 46.33162], [6.19418, 46.331387]]}, "properties": {"name": "1787927161.Founex_fresh_air", "cmt": "2026-08-28", "tstamp": 1787875200, "desc": "---", "src": "6.185578/46.331387/6.202229/46.35075", "bbox": "6.185578/46.331387/6.202229/46.35075"}}]}