{"type": "FeatureCollection", "name": "TrackSet", "crs": {"type": "name", "properties": {"name": "urn:ogc:def:crs:OGC:1.3:CRS84"}}, "bbox": [6.189182, 46.315903, 6.196294, 46.331699], "features": [{"type": "Feature", "bbox": [6.189182, 46.315903, 6.196294, 46.331699], "geometry": {"type": "LineString", "coordinates": [[6.194627, 46.331699], [6.194692, 46.331577], [6.194637, 46.331385], [6.19455, 46.33128], [6.194321, 46.330749], [6.193954, 46.330221], [6.193967, 46.330163], [6.193853, 46.330109], [6.193611, 46.330176], [6.193469, 46.330146], [6.193232, 46.330138], [6.193209, 46.330104], [6.19327, 46.329896], [6.19326, 46.329814], [6.193369, 46.329698], [6.194359, 46.329485], [6.194633, 46.329454], [6.194872, 46.329388], [6.19497, 46.329469], [6.194955, 46.329337], [6.195034, 46.329384], [6.195076, 46.329355], [6.195141, 46.329365], [6.195388, 46.329287], [6.195507, 46.329285], [6.195747, 46.329235], [6.195907, 46.32914], [6.196008, 46.329046], [6.196144, 46.328978], [6.196254, 46.328953], [6.196294, 46.328913], [6.195961, 46.328442], [6.195453, 46.327925], [6.19519, 46.32754], [6.195115, 46.327507], [6.195024, 46.327388], [6.194784, 46.326995], [6.194784, 46.326929], [6.194665, 46.326843], [6.193549, 46.325634], [6.19344, 46.325585], [6.193309, 46.32559], [6.193094, 46.325701], [6.192745, 46.325821], [6.192711, 46.325819], [6.192645, 46.325747], [6.192411, 46.32535], [6.192353, 46.325303], [6.191842, 46.324536], [6.191733, 46.324418], [6.191373, 46.323822], [6.191781, 46.323587], [6.191952, 46.323446], [6.192092, 46.323271], [6.192111, 46.323159], [6.191923, 46.322983], [6.191732, 46.322916], [6.191681, 46.322857], [6.191545, 46.322784], [6.191503, 46.32272], [6.191333, 46.322663], [6.191256, 46.322525], [6.191112, 46.322453], [6.191051, 46.322338], [6.19092, 46.32227], [6.19074, 46.32211], [6.190695, 46.322003], [6.190316, 46.321503], [6.190321, 46.321395], [6.190241, 46.321238], [6.190235, 46.321038], [6.190055, 46.320759], [6.190024, 46.320636], [6.189832, 46.320473], [6.189652, 46.320256], [6.189478, 46.320156], [6.189204, 46.320058], [6.189182, 46.319937], [6.189393, 46.319858], [6.189686, 46.31968], [6.190344, 46.319485], [6.190584, 46.319346], [6.190619, 46.319354], [6.190767, 46.319283], [6.190823, 46.319299], [6.190897, 46.319235], [6.191184, 46.319132], [6.191814, 46.318814], [6.191903, 46.318599], [6.192035, 46.318505], [6.192145, 46.318311], [6.19225, 46.317889], [6.192256, 46.317753], [6.192285, 46.3177], [6.192357, 46.317676], [6.192398, 46.317543], [6.192551, 46.317468], [6.19274, 46.31724], [6.192787, 46.317233], [6.192914, 46.317121], [6.192954, 46.317125], [6.193134, 46.316959], [6.193222, 46.316933], [6.193249, 46.316906], [6.193236, 46.316816], [6.193288, 46.316743], [6.193283, 46.316655], [6.193425, 46.316603], [6.193475, 46.316557], [6.193348, 46.316285], [6.193349, 46.31631], [6.193256, 46.316213], [6.193143, 46.316193], [6.192981, 46.316025], [6.19289, 46.315979], [6.192923, 46.315994], [6.192966, 46.31596], [6.192976, 46.315924], [6.192933, 46.315903]]}, "properties": {"name": "1787656713.Founex_walk", "cmt": "2026-08-25", "tstamp": 1787616000, "desc": "---", "src": "6.189182/46.315903/6.196294/46.331699", "bbox": "6.189182/46.315903/6.196294/46.331699"}}]}