{"type": "FeatureCollection", "name": "TrackSet", "crs": {"type": "name", "properties": {"name": "urn:ogc:def:crs:OGC:1.3:CRS84"}}, "bbox": [24.64604, 59.425119, 24.656262, 59.429319], "features": [{"type": "Feature", "bbox": [24.64604, 59.425119, 24.656262, 59.429319], "geometry": {"type": "LineString", "coordinates": [[24.653712, 59.426509], [24.653751, 59.426505], [24.654079, 59.426635], [24.654201, 59.42638], [24.654085, 59.426355], [24.654077, 59.426415], [24.654125, 59.426406], [24.654318, 59.42631], [24.654147, 59.426585], [24.654164, 59.426619], [24.65426, 59.426691], [24.654494, 59.426762], [24.654893, 59.426777], [24.654854, 59.426938], [24.655118, 59.426998], [24.655224, 59.427093], [24.655183, 59.427128], [24.655177, 59.427228], [24.655233, 59.427349], [24.655197, 59.427608], [24.655137, 59.427885], [24.655056, 59.427968], [24.655031, 59.42809], [24.655043, 59.428341], [24.655099, 59.42847], [24.654845, 59.428635], [24.654744, 59.42884], [24.655056, 59.429084], [24.655066, 59.429187], [24.65504, 59.429153], [24.655001, 59.42918], [24.655038, 59.429153], [24.65507, 59.429164], [24.654999, 59.429174], [24.654975, 59.42915], [24.65502, 59.429143], [24.654935, 59.429165], [24.655006, 59.429161], [24.654998, 59.429187], [24.654986, 59.429164], [24.655038, 59.429166], [24.654987, 59.429147], [24.655037, 59.42916], [24.654972, 59.429176], [24.655017, 59.42919], [24.65502, 59.429173], [24.654975, 59.429182], [24.655054, 59.429199], [24.654979, 59.429223], [24.655084, 59.429261], [24.655279, 59.429272], [24.655304, 59.429252], [24.655273, 59.429272], [24.655247, 59.429231], [24.655155, 59.429234], [24.655141, 59.429203], [24.655008, 59.429188], [24.65487, 59.429183], [24.65477, 59.429222], [24.654805, 59.429215], [24.654804, 59.429233], [24.654754, 59.429194], [24.654816, 59.42922], [24.65482, 59.429185], [24.654788, 59.429207], [24.65486, 59.429219], [24.654835, 59.429204], [24.654811, 59.429222], [24.654728, 59.429217], [24.654773, 59.429227], [24.654795, 59.4292], [24.654828, 59.429224], [24.654752, 59.429225], [24.654803, 59.429238], [24.655065, 59.429177], [24.655101, 59.429103], [24.655073, 59.42899], [24.654989, 59.428975], [24.654854, 59.42888], [24.654919, 59.428803], [24.65496, 59.428851], [24.65493, 59.428879], [24.654842, 59.428879], [24.654962, 59.429012], [24.654971, 59.429104], [24.655038, 59.429189], [24.654911, 59.429152], [24.654767, 59.429222], [24.654857, 59.429259], [24.65479, 59.429219], [24.654704, 59.42924], [24.654862, 59.429244], [24.655073, 59.429157], [24.655091, 59.429111], [24.655033, 59.429017], [24.654803, 59.428839], [24.65493, 59.428623], [24.654937, 59.428526], [24.6547, 59.428081], [24.654764, 59.427916], [24.65475, 59.427789], [24.654792, 59.42774], [24.654729, 59.427509], [24.654782, 59.427245], [24.654717, 59.42704], [24.654772, 59.426733], [24.654732, 59.426707], [24.654788, 59.426698], [24.654854, 59.426562], [24.65501, 59.426386], [24.655216, 59.426369], [24.65542, 59.4263], [24.655758, 59.426294], [24.655945, 59.426155], [24.656116, 59.426091], [24.656139, 59.426028], [24.656262, 59.425973], [24.656202, 59.425936], [24.656161, 59.425952], [24.656195, 59.425946], [24.656154, 59.425946], [24.656176, 59.425928], [24.6562, 59.425955], [24.656166, 59.425921], [24.65615, 59.425948], [24.656095, 59.42595], [24.656092, 59.425931], [24.656137, 59.42599], [24.656107, 59.426068], [24.655967, 59.426112], [24.655823, 59.426265], [24.655691, 59.426309], [24.655483, 59.426309], [24.655283, 59.426382], [24.655174, 59.426543], [24.654953, 59.426709], [24.65487, 59.426819], [24.654858, 59.426913], [24.654753, 59.42705], [24.654634, 59.427328], [24.654606, 59.427491], [24.654673, 59.427569], [24.654592, 59.427734], [24.654669, 59.427889], [24.654649, 59.428013], [24.654831, 59.428353], [24.654829, 59.428624], [24.654762, 59.428662], [24.654682, 59.428836], [24.655001, 59.429058], [24.655026, 59.429226], [24.655084, 59.429166], [24.65513, 59.429195], [24.655067, 59.429185], [24.655076, 59.429214], [24.655144, 59.429196], [24.655079, 59.429188], [24.655087, 59.429169], [24.655102, 59.429192], [24.65504, 59.429185], [24.655028, 59.429159], [24.655089, 59.429173], [24.655102, 59.429142], [24.655017, 59.42918], [24.655071, 59.42917], [24.655046, 59.429195], [24.654982, 59.429175], [24.654986, 59.429144], [24.65496, 59.42917], [24.655052, 59.42918], [24.654975, 59.429134], [24.654941, 59.429145], [24.655004, 59.429167], [24.654933, 59.429166], [24.65499, 59.429167], [24.654959, 59.429134], [24.654976, 59.429171], [24.65505, 59.429185], [24.655021, 59.429173], [24.655006, 59.42919], [24.655078, 59.429181], [24.655018, 59.429179], [24.655078, 59.42921], [24.655065, 59.429187], [24.654995, 59.429181], [24.655055, 59.429176], [24.654993, 59.429182], [24.655039, 59.429187], [24.655007, 59.429185], [24.65502, 59.42916], [24.655036, 59.429183], [24.655054, 59.429163], [24.655034, 59.429179], [24.655008, 59.429164], [24.655009, 59.429241], [24.655107, 59.429319], [24.655292, 59.429293], [24.65529, 59.429274], [24.655302, 59.429289], [24.655264, 59.429248], [24.65533, 59.429293], [24.655291, 59.429258], [24.655268, 59.42928], [24.65529, 59.429257], [24.65533, 59.429279], [24.655276, 59.42925], [24.655302, 59.429281], [24.655248, 59.429277], [24.655259, 59.429293], [24.655304, 59.42927], [24.655267, 59.429253], [24.655305, 59.429255], [24.65531, 59.429283], [24.655277, 59.429271], [24.655321, 59.429257], [24.655283, 59.429252], [24.655288, 59.429272], [24.655334, 59.429252], [24.655275, 59.429264], [24.655315, 59.429285], [24.655291, 59.429259], [24.655374, 59.429268], [24.655353, 59.42923], [24.655412, 59.429237], [24.655324, 59.429212], [24.65535, 59.429244], [24.655295, 59.429193], [24.655291, 59.429219], [24.655297, 59.429191], [24.655313, 59.429217], [24.655191, 59.429184], [24.655012, 59.428959], [24.654802, 59.428832], [24.654956, 59.428702], [24.654971, 59.428478], [24.654804, 59.428155], [24.654802, 59.427883], [24.654746, 59.427801], [24.654809, 59.427722], [24.654736, 59.427555], [24.654788, 59.427256], [24.654764, 59.427092], [24.654823, 59.426929], [24.654794, 59.426701], [24.654731, 59.426652], [24.65449, 59.426561], [24.653889, 59.426472], [24.653377, 59.426326], [24.653013, 59.426252], [24.652816, 59.426168], [24.652208, 59.425995], [24.651771, 59.425926], [24.651653, 59.425887], [24.651531, 59.425884], [24.651417, 59.425837], [24.651023, 59.425783], [24.650596, 59.425644], [24.649642, 59.425468], [24.649474, 59.425506], [24.649283, 59.425506], [24.649171, 59.425472], [24.649073, 59.425471], [24.649042, 59.425418], [24.648948, 59.425449], [24.64879, 59.425449], [24.648734, 59.42549], [24.648169, 59.425494], [24.647949, 59.425392], [24.647818, 59.425398], [24.647785, 59.425367], [24.64777, 59.425397], [24.647803, 59.425346], [24.64784, 59.425397], [24.647833, 59.425437], [24.64779, 59.425447], [24.647121, 59.425453], [24.646866, 59.425404], [24.647052, 59.425393], [24.647076, 59.42541], [24.646945, 59.425417], [24.64665, 59.425373], [24.646472, 59.425391], [24.646329, 59.425319], [24.646162, 59.425323], [24.646113, 59.425244], [24.646258, 59.425156], [24.646878, 59.425175], [24.647102, 59.425244], [24.647288, 59.425259], [24.64715, 59.42518], [24.646919, 59.425119], [24.64645, 59.425156], [24.646184, 59.425145], [24.646077, 59.425163], [24.64604, 59.425217], [24.646095, 59.425246], [24.646114, 59.425339], [24.64623, 59.425396], [24.646544, 59.425455], [24.64671, 59.425452], [24.647199, 59.425553], [24.647465, 59.42553], [24.647807, 59.425624], [24.647735, 59.425382], [24.647822, 59.425322], [24.647806, 59.425369], [24.647758, 59.425353], [24.647844, 59.425373], [24.647855, 59.425399], [24.647793, 59.425442], [24.647481, 59.425444], [24.64715, 59.425484], [24.646819, 59.425408], [24.646431, 59.425382], [24.646413, 59.42534], [24.646366, 59.425442], [24.646452, 59.425484], [24.646459, 59.425542], [24.646547, 59.425516], [24.646608, 59.425543], [24.646659, 59.425497], [24.64661, 59.425552], [24.646668, 59.425587], [24.646642, 59.425557], [24.646614, 59.425561], [24.646649, 59.425587], [24.646668, 59.425571], [24.646612, 59.425577], [24.646706, 59.425587], [24.646639, 59.425557], [24.646675, 59.425545], [24.646641, 59.425549], [24.646669, 59.425573], [24.646593, 59.425553], [24.646618, 59.425575], [24.646614, 59.425546], [24.646776, 59.425629]]}, "properties": {"name": "1787481630.Tallin_tri_spectating_running_inbetween_vantage_points", "cmt": "2026-08-23", "tstamp": 1787443200, "desc": "---", "src": "24.64604/59.425119/24.656262/59.429319", "bbox": "24.64604/59.425119/24.656262/59.429319"}}]}