{"type": "FeatureCollection", "name": "TrackSet", "crs": {"type": "name", "properties": {"name": "urn:ogc:def:crs:OGC:1.3:CRS84"}}, "bbox": [6.192549, 46.329066, 6.199118, 46.336022], "features": [{"type": "Feature", "bbox": [6.192549, 46.329066, 6.199118, 46.336022], "geometry": {"type": "LineString", "coordinates": [[6.194093, 46.331729], [6.194086, 46.331791], [6.193979, 46.331851], [6.193458, 46.331809], [6.193749, 46.331791], [6.193549, 46.331797], [6.19339, 46.331881], [6.192976, 46.331936], [6.19288, 46.332161], [6.192627, 46.332255], [6.192602, 46.332523], [6.192568, 46.332592], [6.192654, 46.332698], [6.192664, 46.332781], [6.192729, 46.332829], [6.192773, 46.332998], [6.192727, 46.333157], [6.192811, 46.333329], [6.192794, 46.333375], [6.192909, 46.333502], [6.193112, 46.333654], [6.193261, 46.333689], [6.193385, 46.333782], [6.193507, 46.333813], [6.193606, 46.333881], [6.193812, 46.333932], [6.193917, 46.334029], [6.194086, 46.334125], [6.194099, 46.334158], [6.194262, 46.334168], [6.1943, 46.334194], [6.194346, 46.33418], [6.194449, 46.334351], [6.194593, 46.334461], [6.194882, 46.334634], [6.194947, 46.334641], [6.195142, 46.334734], [6.195219, 46.334803], [6.195378, 46.334869], [6.19547, 46.334944], [6.19592, 46.335177], [6.19606, 46.335277], [6.196174, 46.335319], [6.196543, 46.335575], [6.196784, 46.335681], [6.197064, 46.335873], [6.197148, 46.336001], [6.197208, 46.336022], [6.197353, 46.335988], [6.197334, 46.33596], [6.197371, 46.335754], [6.1973, 46.33566], [6.197359, 46.335593], [6.197356, 46.335455], [6.197254, 46.335284], [6.197248, 46.335224], [6.197134, 46.33508], [6.197136, 46.33495], [6.197051, 46.334647], [6.196959, 46.334481], [6.196975, 46.33436], [6.196939, 46.334308], [6.197341, 46.33419], [6.197526, 46.334081], [6.197829, 46.333987], [6.198136, 46.333858], [6.198976, 46.333435], [6.198924, 46.333085], [6.198959, 46.333046], [6.198986, 46.332875], [6.199118, 46.332489], [6.199078, 46.33237], [6.198939, 46.332185], [6.198865, 46.332142], [6.198718, 46.331925], [6.19847, 46.3317], [6.19844, 46.331612], [6.19829, 46.331454], [6.198283, 46.331395], [6.19805, 46.331096], [6.197754, 46.330775], [6.196993, 46.329836], [6.196781, 46.329619], [6.196641, 46.329415], [6.196475, 46.329294], [6.196312, 46.329116], [6.196242, 46.32907], [6.196183, 46.329066], [6.195578, 46.32924], [6.195268, 46.329304], [6.194663, 46.329386], [6.194596, 46.329416], [6.194564, 46.329394], [6.194495, 46.329438], [6.193517, 46.32962], [6.193324, 46.32969], [6.19326, 46.329738], [6.193185, 46.329861], [6.193164, 46.330113], [6.193213, 46.330144], [6.193454, 46.330183], [6.193882, 46.330123], [6.193945, 46.33014], [6.194029, 46.33026], [6.194142, 46.330558], [6.194308, 46.330806], [6.194552, 46.33128], [6.194579, 46.331374], [6.194485, 46.331367], [6.194069, 46.331462], [6.193919, 46.331526], [6.193955, 46.33163], [6.194045, 46.331683], [6.194056, 46.331815], [6.194082, 46.331837], [6.194238, 46.33186], [6.194293, 46.331812], [6.194272, 46.331729], [6.194231, 46.331711], [6.194209, 46.331497], [6.194219, 46.331671], [6.194123, 46.331711], [6.194202, 46.331748], [6.194284, 46.33184], [6.194373, 46.331849], [6.194478, 46.331739], [6.194599, 46.331739], [6.194747, 46.331687], [6.195181, 46.332233], [6.195097, 46.33211], [6.195047, 46.331958], [6.194992, 46.331904], [6.19494, 46.331893], [6.19473, 46.331527], [6.194702, 46.331575], [6.194731, 46.331441], [6.194696, 46.331371], [6.194619, 46.331338], [6.194553, 46.33136], [6.194573, 46.331338], [6.194516, 46.33129], [6.194484, 46.331145], [6.194535, 46.331055], [6.194395, 46.330793], [6.194282, 46.330751], [6.194263, 46.330678], [6.194242, 46.330706], [6.194215, 46.330656], [6.194129, 46.330673], [6.194013, 46.330659], [6.194014, 46.330693], [6.19404, 46.330674], [6.194018, 46.330665], [6.194029, 46.330689], [6.193992, 46.330663], [6.194018, 46.330688], [6.194243, 46.330682], [6.194319, 46.330869], [6.19451, 46.331165], [6.194536, 46.331262], [6.194589, 46.331307], [6.194563, 46.331365], [6.194603, 46.331387], [6.194686, 46.331563], [6.194672, 46.331638], [6.19447, 46.33174], [6.194123, 46.331807], [6.194019, 46.331823], [6.193849, 46.33179], [6.193719, 46.331793], [6.192986, 46.331933], [6.192983, 46.332057], [6.192937, 46.332136], [6.192596, 46.332222], [6.192653, 46.332349], [6.192636, 46.33246], [6.192743, 46.332546], [6.19263, 46.332519], [6.192588, 46.332465], [6.192563, 46.332499], [6.192578, 46.332321], [6.192549, 46.332339], [6.192696, 46.332427], [6.192707, 46.332409], [6.192806, 46.332416], [6.192809, 46.332387], [6.192849, 46.33239], [6.192805, 46.33237]]}, "properties": {"name": "1787896294.Founex_walk_with_Tim", "cmt": "2026-08-28", "tstamp": 1787875200, "desc": "---", "src": "6.192549/46.329066/6.199118/46.336022", "bbox": "6.192549/46.329066/6.199118/46.336022"}}]}