{"type": "FeatureCollection", "name": "TrackSet", "crs": {"type": "name", "properties": {"name": "urn:ogc:def:crs:OGC:1.3:CRS84"}}, "bbox": [-3.057283, 55.941056, -3.047493, 55.948419], "features": [{"type": "Feature", "bbox": [-3.057283, 55.941056, -3.047493, 55.948419], "geometry": {"type": "LineString", "coordinates": [[-3.052085, 55.94318], [-3.052125, 55.943213], [-3.052008, 55.943249], [-3.051926, 55.943243], [-3.051737, 55.943349], [-3.051571, 55.943347], [-3.051505, 55.943261], [-3.051303, 55.94319], [-3.051132, 55.942941], [-3.051038, 55.942855], [-3.050976, 55.942843], [-3.050989, 55.942794], [-3.050921, 55.942688], [-3.050942, 55.942609], [-3.050437, 55.942708], [-3.050364, 55.942757], [-3.050173, 55.942747], [-3.049987, 55.942804], [-3.049781, 55.942777], [-3.049724, 55.942789], [-3.049583, 55.942954], [-3.049495, 55.94294], [-3.049472, 55.942898], [-3.049404, 55.942902], [-3.049384, 55.942945], [-3.049201, 55.942937], [-3.048919, 55.942992], [-3.04866, 55.943005], [-3.048549, 55.943072], [-3.048168, 55.943164], [-3.048049, 55.943088], [-3.047805, 55.943063], [-3.047719, 55.943022], [-3.047659, 55.943042], [-3.047665, 55.943077], [-3.047707, 55.943019], [-3.047658, 55.942981], [-3.047647, 55.943048], [-3.047584, 55.942996], [-3.04763, 55.942961], [-3.047689, 55.942989], [-3.047752, 55.942955], [-3.047741, 55.942985], [-3.047493, 55.942863], [-3.047619, 55.942919], [-3.048072, 55.942988], [-3.048112, 55.942962], [-3.048192, 55.942965], [-3.048385, 55.94291], [-3.048621, 55.942931], [-3.048825, 55.942837], [-3.048903, 55.942819], [-3.048996, 55.942842], [-3.049095, 55.942797], [-3.049183, 55.942805], [-3.049195, 55.942776], [-3.049302, 55.942751], [-3.049691, 55.942766], [-3.049761, 55.942759], [-3.049764, 55.942733], [-3.049743, 55.942755], [-3.049809, 55.942756], [-3.050019, 55.942659], [-3.050254, 55.942657], [-3.050374, 55.942683], [-3.050552, 55.942655], [-3.050734, 55.94253], [-3.050838, 55.942515], [-3.051117, 55.942347], [-3.051565, 55.942302], [-3.051686, 55.942248], [-3.051606, 55.942317], [-3.051689, 55.942317], [-3.05169, 55.942467], [-3.051685, 55.942385], [-3.051665, 55.94243], [-3.051702, 55.942441], [-3.051723, 55.942504], [-3.051693, 55.942639], [-3.051746, 55.942369], [-3.051845, 55.942367], [-3.051878, 55.942217], [-3.051929, 55.942267], [-3.052086, 55.942216], [-3.052359, 55.942245], [-3.052725, 55.942142], [-3.052891, 55.942065], [-3.053016, 55.942049], [-3.053178, 55.9421], [-3.053378, 55.942077], [-3.053722, 55.94198], [-3.054093, 55.94182], [-3.054359, 55.941909], [-3.054316, 55.941993], [-3.054435, 55.942049], [-3.054463, 55.942076], [-3.054436, 55.942089], [-3.054464, 55.942068], [-3.054454, 55.942101], [-3.054329, 55.942018], [-3.054371, 55.941917], [-3.0545, 55.941888], [-3.054541, 55.941836], [-3.054766, 55.941741], [-3.054879, 55.941653], [-3.055103, 55.941587], [-3.055147, 55.941539], [-3.055247, 55.941539], [-3.055349, 55.941508], [-3.055796, 55.941271], [-3.056248, 55.941074], [-3.056357, 55.941057], [-3.056516, 55.941056], [-3.056653, 55.94109], [-3.056732, 55.941171], [-3.05671, 55.941224], [-3.056809, 55.941245], [-3.057283, 55.941513], [-3.057233, 55.941606], [-3.056528, 55.941902], [-3.056359, 55.942045], [-3.055638, 55.942374], [-3.055019, 55.94251], [-3.054855, 55.942504], [-3.054791, 55.942569], [-3.054789, 55.942629], [-3.054526, 55.942887], [-3.054419, 55.942933], [-3.054336, 55.942933], [-3.054146, 55.942989], [-3.053547, 55.943313], [-3.053277, 55.943386], [-3.052812, 55.943647], [-3.05261, 55.943708], [-3.052343, 55.943847], [-3.052138, 55.944029], [-3.052044, 55.944172], [-3.05166, 55.944435], [-3.051228, 55.944849], [-3.050807, 55.945177], [-3.050829, 55.945505], [-3.050341, 55.945728], [-3.050169, 55.946072], [-3.050157, 55.946259], [-3.050056, 55.946493], [-3.050067, 55.946689], [-3.050017, 55.946826], [-3.050066, 55.947069], [-3.049953, 55.947591], [-3.049972, 55.947672], [-3.049905, 55.948062], [-3.049996, 55.948169], [-3.05021, 55.94824], [-3.05025, 55.948367], [-3.050743, 55.948377], [-3.050715, 55.948239], [-3.050755, 55.948218], [-3.050924, 55.948251], [-3.051781, 55.948316], [-3.052613, 55.948324], [-3.052643, 55.948346], [-3.052604, 55.948354], [-3.052653, 55.948339], [-3.052811, 55.948381], [-3.052854, 55.948411], [-3.052819, 55.948419], [-3.052971, 55.948394], [-3.053393, 55.948398], [-3.053596, 55.948315], [-3.054322, 55.948243], [-3.054507, 55.94828], [-3.054506, 55.94838], [-3.054628, 55.948414], [-3.054675, 55.948344], [-3.05463, 55.948226], [-3.054532, 55.948101], [-3.054436, 55.947835], [-3.054266, 55.947707], [-3.054274, 55.947615], [-3.054185, 55.947504], [-3.053997, 55.946881], [-3.053887, 55.946694], [-3.053831, 55.946458], [-3.053836, 55.946163], [-3.053945, 55.94589], [-3.05381, 55.945659], [-3.05373, 55.945422], [-3.05395, 55.94535], [-3.054697, 55.945383], [-3.055128, 55.945322], [-3.055725, 55.945366], [-3.056093, 55.945355], [-3.056216, 55.945379], [-3.056659, 55.945357], [-3.056816, 55.945385], [-3.056822, 55.945267], [-3.056741, 55.945189], [-3.056771, 55.945109], [-3.056659, 55.944948], [-3.056528, 55.944577], [-3.05656, 55.94426], [-3.056505, 55.944128], [-3.05619, 55.944108], [-3.055653, 55.944138], [-3.055277, 55.944087], [-3.055125, 55.94412], [-3.054709, 55.944081], [-3.054557, 55.944091], [-3.054114, 55.944015], [-3.054031, 55.943975], [-3.053778, 55.943961], [-3.053657, 55.943906], [-3.053469, 55.943892], [-3.053058, 55.943772], [-3.052838, 55.94375], [-3.052623, 55.943663], [-3.051658, 55.943458], [-3.051643, 55.943429], [-3.0517, 55.943399], [-3.051773, 55.943275], [-3.05209, 55.943148], [-3.052131, 55.943156]]}, "properties": {"name": "1788528644.Musselburgh_stroll_after_flight", "cmt": "2026-09-04", "tstamp": 1788480000, "desc": "---", "src": "-3.057283/55.941056/-3.047493/55.948419", "bbox": "-3.057283/55.941056/-3.047493/55.948419"}}]}