{"type": "FeatureCollection", "name": "TrackSet", "crs": {"type": "name", "properties": {"name": "urn:ogc:def:crs:OGC:1.3:CRS84"}}, "bbox": [7.205885, 46.079044, 7.234116, 46.099758], "features": [{"type": "Feature", "bbox": [7.205885, 46.079044, 7.234116, 46.099758], "geometry": {"type": "LineString", "coordinates": [[7.211892, 46.079554], [7.211956, 46.079667], [7.211907, 46.079634], [7.211872, 46.079533], [7.211737, 46.079523], [7.211682, 46.07945], [7.211481, 46.079407], [7.211463, 46.079382], [7.21118, 46.079383], [7.211088, 46.079356], [7.211041, 46.079379], [7.21094, 46.079374], [7.210807, 46.079308], [7.210732, 46.079302], [7.210715, 46.079265], [7.210639, 46.079231], [7.21054, 46.079217], [7.210462, 46.079137], [7.210342, 46.079082], [7.210371, 46.079095], [7.210373, 46.079044], [7.21035, 46.079082], [7.210312, 46.079066], [7.210333, 46.079093], [7.210358, 46.079086], [7.21033, 46.079095], [7.210345, 46.079114], [7.21029, 46.079098], [7.21032, 46.079093], [7.210342, 46.079103], [7.210296, 46.079115], [7.210249, 46.079094], [7.210321, 46.079107], [7.210303, 46.079119], [7.210312, 46.0791], [7.21031, 46.079135], [7.210303, 46.079092], [7.210268, 46.079091], [7.210081, 46.079218], [7.209969, 46.079245], [7.20978, 46.079335], [7.209751, 46.079374], [7.209777, 46.07941], [7.209728, 46.079398], [7.209784, 46.07939], [7.209876, 46.079314], [7.209888, 46.07933], [7.209882, 46.079314], [7.210028, 46.079244], [7.210097, 46.079232], [7.210212, 46.079124], [7.210316, 46.079088], [7.210395, 46.079147], [7.210507, 46.079181], [7.210659, 46.079293], [7.210808, 46.079325], [7.211012, 46.079426], [7.211094, 46.079445], [7.2112, 46.079407], [7.21137, 46.079412], [7.211547, 46.079518], [7.211652, 46.079515], [7.211681, 46.079563], [7.211811, 46.079643], [7.211844, 46.079719], [7.211981, 46.07975], [7.212066, 46.079889], [7.212197, 46.079931], [7.212235, 46.080028], [7.212382, 46.080066], [7.212546, 46.080273], [7.212445, 46.080446], [7.212459, 46.080615], [7.212498, 46.080617], [7.212426, 46.080647], [7.21248, 46.080635], [7.212551, 46.080774], [7.212692, 46.080876], [7.212718, 46.080972], [7.212801, 46.081036], [7.212844, 46.081132], [7.212776, 46.081369], [7.212692, 46.08141], [7.212598, 46.08142], [7.212444, 46.081506], [7.212475, 46.081607], [7.212668, 46.081788], [7.212588, 46.081833], [7.212633, 46.081961], [7.21257, 46.081993], [7.212646, 46.08203], [7.212681, 46.082123], [7.212732, 46.082143], [7.212727, 46.082225], [7.212557, 46.082447], [7.212584, 46.082555], [7.212529, 46.082615], [7.212476, 46.082647], [7.21244, 46.082641], [7.212434, 46.08267], [7.212272, 46.082752], [7.211996, 46.08283], [7.211915, 46.082924], [7.211786, 46.08299], [7.211566, 46.083048], [7.211344, 46.083156], [7.211213, 46.083164], [7.211192, 46.083147], [7.211206, 46.083168], [7.211174, 46.083131], [7.211139, 46.083195], [7.211085, 46.083197], [7.210977, 46.083307], [7.210952, 46.083299], [7.210905, 46.083351], [7.210846, 46.083367], [7.210847, 46.083391], [7.210775, 46.083409], [7.210789, 46.083436], [7.21074, 46.083468], [7.210737, 46.083539], [7.210582, 46.083736], [7.21059, 46.083808], [7.210622, 46.083831], [7.21057, 46.083866], [7.210605, 46.083908], [7.210593, 46.083948], [7.210431, 46.084062], [7.210456, 46.084311], [7.210577, 46.084579], [7.210513, 46.084598], [7.210581, 46.084668], [7.210541, 46.084699], [7.21052, 46.084956], [7.21043, 46.084999], [7.210424, 46.085061], [7.210478, 46.085108], [7.210472, 46.085173], [7.210415, 46.085247], [7.210429, 46.085297], [7.21049, 46.085347], [7.210517, 46.085413], [7.210498, 46.085452], [7.210577, 46.085523], [7.210645, 46.085658], [7.210781, 46.085749], [7.210893, 46.085884], [7.210978, 46.085906], [7.210973, 46.08594], [7.211025, 46.085986], [7.210928, 46.086037], [7.210843, 46.08622], [7.210799, 46.086247], [7.21079, 46.086333], [7.210721, 46.086461], [7.210792, 46.086589], [7.210746, 46.086717], [7.210772, 46.086719], [7.210783, 46.086835], [7.210855, 46.086958], [7.210735, 46.08705], [7.210765, 46.087119], [7.210706, 46.087268], [7.210761, 46.087375], [7.210724, 46.087436], [7.210744, 46.087457], [7.210721, 46.087509], [7.210579, 46.087593], [7.210409, 46.087608], [7.210484, 46.087737], [7.210409, 46.087886], [7.210422, 46.087962], [7.210196, 46.088227], [7.2101, 46.088226], [7.209971, 46.088281], [7.209909, 46.088344], [7.209845, 46.088497], [7.209641, 46.08854], [7.209469, 46.088511], [7.209147, 46.088634], [7.208669, 46.088752], [7.208335, 46.088727], [7.208293, 46.08877], [7.208285, 46.0888], [7.208387, 46.088899], [7.208553, 46.088932], [7.208738, 46.089029], [7.208746, 46.089175], [7.208793, 46.089189], [7.208833, 46.089324], [7.208876, 46.08935], [7.208855, 46.089407], [7.208882, 46.089479], [7.208956, 46.089501], [7.208949, 46.089549], [7.209031, 46.089694], [7.209022, 46.089743], [7.209062, 46.089768], [7.209084, 46.089758], [7.209139, 46.089833], [7.209098, 46.090106], [7.209129, 46.090096], [7.209159, 46.090187], [7.20925, 46.090254], [7.20928, 46.090322], [7.209167, 46.090509], [7.209116, 46.090537], [7.209072, 46.090633], [7.209083, 46.090686], [7.208956, 46.090865], [7.208908, 46.090992], [7.208921, 46.091181], [7.209002, 46.091235], [7.20903, 46.091297], [7.20914, 46.091305], [7.209172, 46.091395], [7.209263, 46.091416], [7.209322, 46.091486], [7.209559, 46.091606], [7.209474, 46.091662], [7.209434, 46.091656], [7.209428, 46.091692], [7.209489, 46.091717], [7.209447, 46.091703], [7.209428, 46.091761], [7.209298, 46.091787], [7.209265, 46.091831], [7.209326, 46.091905], [7.209386, 46.091889], [7.209395, 46.091909], [7.209355, 46.091918], [7.209426, 46.091947], [7.209427, 46.091976], [7.20936, 46.091976], [7.209154, 46.09212], [7.209111, 46.092212], [7.209106, 46.092195], [7.209072, 46.092202], [7.208961, 46.092246], [7.208979, 46.092271], [7.208932, 46.092286], [7.208958, 46.092289], [7.208925, 46.092296], [7.208893, 46.092392], [7.208842, 46.092429], [7.208895, 46.092471], [7.2089, 46.092515], [7.208928, 46.092478], [7.208935, 46.09253], [7.209028, 46.092553], [7.209101, 46.092537], [7.209156, 46.092538], [7.209147, 46.092553], [7.209178, 46.092518], [7.209324, 46.092498], [7.209286, 46.092469], [7.209247, 46.092506], [7.209271, 46.092438], [7.209239, 46.092454], [7.209301, 46.092456], [7.209321, 46.092437], [7.209329, 46.092504], [7.20926, 46.092535], [7.209255, 46.092575], [7.209155, 46.092619], [7.209157, 46.092645], [7.209078, 46.092673], [7.209027, 46.092665], [7.209005, 46.092703], [7.208946, 46.092722], [7.208967, 46.092732], [7.208946, 46.092776], [7.208757, 46.092917], [7.208701, 46.093079], [7.208659, 46.093075], [7.208569, 46.093223], [7.208488, 46.093214], [7.208502, 46.093241], [7.208455, 46.093263], [7.208398, 46.09324], [7.208418, 46.093249], [7.208326, 46.093269], [7.208327, 46.093289], [7.208229, 46.093218], [7.208193, 46.093244], [7.208138, 46.093234], [7.207931, 46.093098], [7.207833, 46.093108], [7.207699, 46.093192], [7.207759, 46.093293], [7.207943, 46.093412], [7.207928, 46.093499], [7.208002, 46.093564], [7.208047, 46.093565], [7.208101, 46.093671], [7.208087, 46.093747], [7.208155, 46.093834], [7.208314, 46.093885], [7.208353, 46.093865], [7.208322, 46.0939], [7.208352, 46.093865], [7.208509, 46.093843], [7.208582, 46.093796], [7.208607, 46.093823], [7.208578, 46.093769], [7.208626, 46.093797], [7.208633, 46.093778], [7.208623, 46.093814], [7.208562, 46.093797], [7.208498, 46.093857], [7.208519, 46.093946], [7.208459, 46.093997], [7.208481, 46.094025], [7.208186, 46.094173], [7.207914, 46.094198], [7.207815, 46.094252], [7.207493, 46.094237], [7.207158, 46.09433], [7.207244, 46.094426], [7.207405, 46.094499], [7.207464, 46.094493], [7.207542, 46.094526], [7.207571, 46.094502], [7.207552, 46.094544], [7.207613, 46.094541], [7.207664, 46.094596], [7.207717, 46.094606], [7.207754, 46.094678], [7.207858, 46.09469], [7.207803, 46.094755], [7.207696, 46.094705], [7.207429, 46.094715], [7.20743, 46.094796], [7.207502, 46.094881], [7.207506, 46.094952], [7.207561, 46.094956], [7.207627, 46.095022], [7.207686, 46.095021], [7.207735, 46.095056], [7.207857, 46.095025], [7.208026, 46.095158], [7.20807, 46.095142], [7.208167, 46.09516], [7.208183, 46.09512], [7.208431, 46.095188], [7.20848, 46.095131], [7.208601, 46.095079], [7.208639, 46.095036], [7.208876, 46.094968], [7.208864, 46.094888], [7.209079, 46.094948], [7.209144, 46.094933], [7.209151, 46.094911], [7.209302, 46.0949], [7.209365, 46.094803], [7.209343, 46.094777], [7.209386, 46.094775], [7.209346, 46.094788], [7.209349, 46.094814], [7.209261, 46.094892], [7.20927, 46.094939], [7.209232, 46.094982], [7.209041, 46.095077], [7.208931, 46.095098], [7.20881, 46.095215], [7.208644, 46.095278], [7.208472, 46.095396], [7.208329, 46.095629], [7.208282, 46.095659], [7.20829, 46.095683], [7.208163, 46.095792], [7.208079, 46.095813], [7.207973, 46.095781], [7.207765, 46.095794], [7.207584, 46.095837], [7.207419, 46.09581], [7.207404, 46.095828], [7.207232, 46.095773], [7.207079, 46.095812], [7.206906, 46.095766], [7.206859, 46.095784], [7.20683, 46.095864], [7.206902, 46.095915], [7.206872, 46.095968], [7.206911, 46.095997], [7.20701, 46.095993], [7.207035, 46.096049], [7.207063, 46.096044], [7.207093, 46.09609], [7.207145, 46.096107], [7.207148, 46.096147], [7.207113, 46.096142], [7.207019, 46.096188], [7.206949, 46.096187], [7.206884, 46.096261], [7.206798, 46.096298], [7.206509, 46.096309], [7.206487, 46.096288], [7.206438, 46.096304], [7.206332, 46.096288], [7.206299, 46.096309], [7.206333, 46.096332], [7.206214, 46.096373], [7.206189, 46.096408], [7.206151, 46.096399], [7.206179, 46.09643], [7.206106, 46.096408], [7.206117, 46.096427], [7.206083, 46.096437], [7.206066, 46.0964], [7.205988, 46.096417], [7.205954, 46.096388], [7.205984, 46.096376], [7.205981, 46.096399], [7.20593, 46.096486], [7.205885, 46.09651], [7.205962, 46.096485], [7.206038, 46.096503], [7.206063, 46.09656], [7.206042, 46.096585], [7.206087, 46.096583], [7.20617, 46.096627], [7.206169, 46.09666], [7.206191, 46.096648], [7.206198, 46.096668], [7.206344, 46.096712], [7.206398, 46.096762], [7.206374, 46.096796], [7.206424, 46.096846], [7.206439, 46.096936], [7.206496, 46.096989], [7.206583, 46.097006], [7.206582, 46.09708], [7.2067, 46.097219], [7.206694, 46.097289], [7.206574, 46.097392], [7.206458, 46.097393], [7.206422, 46.097375], [7.206422, 46.09734], [7.206353, 46.097342], [7.206301, 46.097361], [7.20629, 46.097439], [7.206252, 46.097472], [7.2063, 46.097485], [7.206275, 46.097488], [7.206273, 46.097466], [7.20622, 46.097526], [7.206141, 46.09748], [7.206152, 46.097585], [7.206191, 46.097599], [7.206198, 46.097672], [7.206293, 46.097777], [7.206267, 46.097803], [7.206246, 46.097788], [7.206204, 46.097806], [7.206188, 46.097837], [7.206058, 46.097856], [7.206032, 46.097943], [7.206131, 46.09808], [7.205993, 46.098135], [7.205975, 46.098237], [7.205942, 46.098257], [7.205989, 46.098333], [7.205972, 46.098376], [7.206017, 46.098426], [7.205961, 46.098514], [7.206132, 46.098656], [7.206211, 46.098674], [7.206223, 46.098723], [7.206368, 46.098776], [7.206387, 46.098699], [7.20644, 46.098785], [7.206495, 46.098759], [7.206579, 46.098804], [7.206576, 46.098778], [7.206674, 46.098766], [7.206669, 46.098837], [7.206698, 46.098853], [7.206766, 46.098834], [7.206788, 46.098899], [7.206786, 46.09886], [7.206864, 46.098822], [7.206912, 46.098818], [7.207023, 46.098878], [7.207083, 46.098842], [7.207156, 46.098836], [7.20727, 46.098703], [7.207331, 46.09871], [7.207421, 46.098665], [7.207407, 46.098684], [7.207441, 46.098701], [7.207653, 46.098711], [7.20783, 46.098656], [7.208223, 46.098615], [7.208329, 46.098645], [7.208484, 46.098638], [7.20855, 46.098663], [7.208725, 46.098633], [7.209062, 46.098778], [7.209244, 46.098746], [7.209383, 46.098689], [7.209489, 46.098709], [7.209522, 46.098672], [7.210091, 46.098706], [7.210239, 46.098767], [7.210322, 46.098777], [7.210334, 46.098749], [7.210424, 46.098774], [7.210594, 46.098882], [7.210748, 46.098909], [7.210861, 46.098972], [7.210979, 46.098994], [7.211531, 46.099329], [7.211603, 46.099348], [7.211671, 46.099415], [7.21188, 46.09949], [7.21198, 46.099542], [7.212006, 46.099582], [7.212085, 46.099598], [7.212327, 46.099726], [7.212556, 46.099753], [7.212774, 46.099738], [7.212915, 46.099758], [7.212989, 46.099688], [7.213127, 46.099694], [7.213522, 46.099638], [7.213701, 46.099651], [7.214152, 46.099589], [7.21437, 46.099514], [7.214525, 46.0993], [7.214647, 46.099242], [7.214834, 46.099231], [7.214964, 46.099153], [7.215154, 46.099148], [7.215319, 46.099107], [7.21548, 46.099019], [7.215669, 46.099022], [7.215902, 46.098993], [7.216028, 46.098887], [7.216423, 46.098739], [7.216903, 46.098272], [7.217057, 46.098166], [7.217211, 46.098133], [7.217314, 46.098143], [7.217491, 46.098061], [7.217768, 46.097975], [7.218065, 46.09792], [7.218244, 46.097848], [7.218296, 46.097775], [7.218376, 46.097765], [7.218491, 46.097702], [7.219005, 46.097683], [7.219904, 46.097744], [7.220136, 46.097716], [7.22033, 46.097728], [7.220608, 46.097676], [7.220925, 46.097743], [7.221016, 46.097753], [7.221074, 46.097735], [7.221156, 46.097797], [7.221215, 46.097809], [7.221306, 46.097733], [7.22142, 46.097705], [7.222, 46.0977], [7.222148, 46.097657], [7.2223, 46.097644], [7.222761, 46.097741], [7.222831, 46.097706], [7.222896, 46.097716], [7.223113, 46.097822], [7.223402, 46.097898], [7.223513, 46.097887], [7.223734, 46.097937], [7.223904, 46.097912], [7.224025, 46.097846], [7.224608, 46.09765], [7.224958, 46.097413], [7.225067, 46.097383], [7.225108, 46.097334], [7.225092, 46.097307], [7.225244, 46.09724], [7.225293, 46.097171], [7.225388, 46.097133], [7.225385, 46.097001], [7.225435, 46.096984], [7.225465, 46.096999], [7.225408, 46.09697], [7.225426, 46.097046], [7.225418, 46.09707], [7.225399, 46.097024], [7.225387, 46.09708], [7.225403, 46.097099], [7.225427, 46.097081], [7.225404, 46.097069], [7.225356, 46.097111], [7.225352, 46.097008], [7.225355, 46.097049], [7.225461, 46.097071], [7.225542, 46.097012], [7.225606, 46.097029], [7.225803, 46.096983], [7.225857, 46.097011], [7.225902, 46.097006], [7.225878, 46.096946], [7.225911, 46.096961], [7.225868, 46.096961], [7.225913, 46.096977], [7.225901, 46.096999], [7.22583, 46.096969], [7.225886, 46.096965], [7.225869, 46.09695], [7.225937, 46.097003], [7.226021, 46.097004], [7.226062, 46.096967], [7.226028, 46.096903], [7.226243, 46.09686], [7.226304, 46.096826], [7.226313, 46.096751], [7.22649, 46.096773], [7.226609, 46.09684], [7.226598, 46.096751], [7.226577, 46.096732], [7.226555, 46.096746], [7.226608, 46.096723], [7.226554, 46.096687], [7.226723, 46.09675], [7.227172, 46.096596], [7.227321, 46.096445], [7.227376, 46.096476], [7.227424, 46.096468], [7.227354, 46.096475], [7.227376, 46.0965], [7.227339, 46.096516], [7.227448, 46.096516], [7.227455, 46.096466], [7.227472, 46.096485], [7.227391, 46.09653], [7.227356, 46.096518], [7.227349, 46.096475], [7.227215, 46.096451], [7.227716, 46.095876], [7.227493, 46.096111], [7.227459, 46.096237], [7.227486, 46.096442], [7.227513, 46.096447], [7.227542, 46.096412], [7.227635, 46.096474], [7.227912, 46.096374], [7.228083, 46.096373], [7.228054, 46.096203], [7.228066, 46.096173], [7.22811, 46.096163], [7.228062, 46.096145], [7.228092, 46.096184], [7.228175, 46.096197], [7.228066, 46.096136], [7.22839, 46.096199], [7.22813, 46.096162], [7.227996, 46.09611], [7.228089, 46.096119], [7.228034, 46.096096], [7.22808, 46.096126], [7.228, 46.09611], [7.228086, 46.096118], [7.228055, 46.096122], [7.228097, 46.096137], [7.22804, 46.09613], [7.228016, 46.096118], [7.228036, 46.096097], [7.228097, 46.096115], [7.228071, 46.096116], [7.2281, 46.096125], [7.228081, 46.096138], [7.22805, 46.096103], [7.228059, 46.096143], [7.228185, 46.096169], [7.228073, 46.096113], [7.227978, 46.096103], [7.228038, 46.096114], [7.228045, 46.096065], [7.228132, 46.096112], [7.228005, 46.096103], [7.22812, 46.096134], [7.228131, 46.096118], [7.228136, 46.096138], [7.228099, 46.096114], [7.228025, 46.096125], [7.228161, 46.096127], [7.228037, 46.096109], [7.227953, 46.096044], [7.228101, 46.096116], [7.22803, 46.096103], [7.228089, 46.096121], [7.228068, 46.096142], [7.228024, 46.096138], [7.228069, 46.096163], [7.227944, 46.09618], [7.228002, 46.096215], [7.227972, 46.096192], [7.228251, 46.096231], [7.228138, 46.096185], [7.228239, 46.096202], [7.227994, 46.096102], [7.228119, 46.096078], [7.228285, 46.096084], [7.228362, 46.096057], [7.228406, 46.096074], [7.228617, 46.096002], [7.228736, 46.096004], [7.228827, 46.096032], [7.228878, 46.096003], [7.228834, 46.095962], [7.228869, 46.095994], [7.228843, 46.095985], [7.228848, 46.096017], [7.228885, 46.096026], [7.228885, 46.096004], [7.228914, 46.096008], [7.228896, 46.095962], [7.228913, 46.095979], [7.228838, 46.095915], [7.228822, 46.095933], [7.228736, 46.095927], [7.228778, 46.095902], [7.228789, 46.095922], [7.228851, 46.095921], [7.228837, 46.0959], [7.228901, 46.095995], [7.229, 46.09607], [7.229046, 46.096075], [7.229125, 46.096023], [7.229196, 46.09603], [7.22915, 46.095999], [7.229219, 46.096023], [7.229425, 46.095939], [7.2293, 46.095954], [7.229389, 46.095929], [7.229403, 46.095861], [7.229438, 46.095881], [7.229481, 46.095841], [7.22958, 46.095836], [7.229646, 46.095776], [7.229758, 46.095732], [7.23026, 46.095833], [7.230336, 46.09582], [7.230517, 46.095853], [7.230795, 46.095864], [7.231113, 46.095944], [7.231286, 46.096022], [7.231483, 46.095953], [7.231644, 46.095952], [7.231817, 46.095919], [7.232056, 46.095941], [7.232111, 46.09585], [7.232107, 46.095793], [7.23204, 46.095729], [7.231995, 46.095552], [7.232155, 46.095056], [7.232211, 46.09498], [7.232167, 46.094839], [7.231968, 46.094879], [7.231788, 46.094874], [7.232118, 46.094841], [7.232202, 46.094809], [7.232593, 46.094272], [7.232555, 46.094199], [7.232775, 46.094113], [7.232627, 46.09408], [7.232585, 46.094116], [7.232544, 46.094093], [7.232643, 46.094068], [7.232588, 46.094071], [7.232535, 46.094039], [7.232684, 46.094034], [7.232701, 46.09398], [7.232802, 46.093934], [7.232801, 46.093909], [7.232855, 46.093879], [7.232839, 46.093858], [7.232914, 46.093819], [7.232995, 46.093698], [7.233001, 46.093622], [7.233123, 46.093416], [7.233153, 46.093264], [7.233224, 46.093196], [7.233304, 46.092833], [7.233377, 46.092669], [7.23337, 46.092578], [7.233312, 46.092468], [7.233345, 46.092389], [7.233318, 46.092359], [7.233402, 46.092296], [7.233541, 46.092279], [7.23368, 46.092318], [7.233784, 46.092307], [7.233807, 46.092268], [7.233837, 46.092346], [7.233819, 46.092272], [7.233857, 46.092271], [7.233833, 46.092293], [7.233886, 46.092304], [7.233884, 46.092327], [7.233827, 46.092291], [7.233835, 46.092309], [7.233799, 46.092316], [7.233822, 46.092322], [7.233747, 46.092289], [7.233759, 46.092309], [7.233717, 46.092311], [7.233714, 46.092278], [7.233642, 46.092237], [7.233744, 46.092346], [7.233775, 46.092344], [7.233741, 46.092317], [7.233802, 46.092333], [7.233744, 46.092309], [7.233757, 46.092294], [7.233679, 46.092294], [7.233683, 46.092313], [7.233728, 46.092285], [7.233734, 46.092313], [7.233785, 46.092297], [7.233741, 46.092315], [7.233737, 46.092363], [7.233744, 46.092415], [7.233748, 46.092384], [7.233777, 46.092403], [7.233701, 46.092403], [7.233697, 46.092438], [7.233755, 46.092447], [7.233844, 46.092424], [7.233844, 46.09244], [7.233882, 46.092369], [7.233869, 46.092385], [7.233865, 46.092345], [7.233787, 46.092328], [7.233799, 46.092305], [7.233635, 46.092143], [7.23368, 46.09219], [7.233637, 46.092157], [7.233589, 46.092166], [7.234111, 46.092112]]}, "properties": {"name": "1788263741.Le_Chable_Verbier_and_wander_round", "cmt": "2026-09-01", "tstamp": 1788220800, "desc": "UpHill", "src": "7.205885/46.079044/7.234116/46.099758", "bbox": "7.205885/46.079044/7.234116/46.099758"}}, {"type": "Feature", "bbox": [7.205885, 46.079044, 7.234116, 46.099758], "geometry": {"type": "LineString", "coordinates": [[7.234116, 46.092112], [7.233867, 46.092178], [7.233757, 46.09228], [7.233675, 46.092302], [7.233587, 46.092269], [7.233464, 46.092312], [7.233305, 46.092456], [7.233375, 46.092557], [7.233323, 46.092648], [7.233237, 46.092676], [7.233283, 46.092713], [7.233185, 46.09289], [7.233218, 46.093013], [7.233164, 46.093066], [7.233193, 46.093132], [7.23318, 46.093303], [7.233232, 46.093418], [7.233249, 46.093593], [7.23329, 46.093647], [7.233418, 46.093723]]}, "properties": {"name": "1788263741.Le_Chable_Verbier_and_wander_round", "cmt": "2026-09-01", "tstamp": 1788220800, "desc": "DownHill", "src": "7.205885/46.079044/7.234116/46.099758", "bbox": "7.205885/46.079044/7.234116/46.099758"}}]}