{"type": "FeatureCollection", "name": "TrackSet", "crs": {"type": "name", "properties": {"name": "urn:ogc:def:crs:OGC:1.3:CRS84"}}, "bbox": [6.309926, 46.594164, 6.369044, 46.601247], "features": [{"type": "Feature", "bbox": [6.309926, 46.594164, 6.369044, 46.601247], "geometry": {"type": "LineString", "coordinates": [[6.368937, 46.600394], [6.369039, 46.600414], [6.368935, 46.600431], [6.368833, 46.600419], [6.368521, 46.600459], [6.36836, 46.600443], [6.368272, 46.600483], [6.368198, 46.600479], [6.368075, 46.600518], [6.368048, 46.600499], [6.3679, 46.600493], [6.36764, 46.600504], [6.367349, 46.600591], [6.367208, 46.60059], [6.367047, 46.60062], [6.366956, 46.600609], [6.366607, 46.600655], [6.366521, 46.600719], [6.366337, 46.600711], [6.366219, 46.60076], [6.366075, 46.600754], [6.365903, 46.600805], [6.36584, 46.60078], [6.36578, 46.600796], [6.365644, 46.600773], [6.365429, 46.600854], [6.365336, 46.600834], [6.365239, 46.60088], [6.365215, 46.600922], [6.364879, 46.600947], [6.364828, 46.600984], [6.364774, 46.600972], [6.364559, 46.601042], [6.364288, 46.601055], [6.364198, 46.601104], [6.364067, 46.60123], [6.36391, 46.601247], [6.363739, 46.601216], [6.363654, 46.601171], [6.363513, 46.601158], [6.363449, 46.601188], [6.363518, 46.601181], [6.363526, 46.601211], [6.363533, 46.600982], [6.363586, 46.60084], [6.363539, 46.600815], [6.363546, 46.600775], [6.363577, 46.60077], [6.363545, 46.600802], [6.363531, 46.600734], [6.363682, 46.600661], [6.363658, 46.600595], [6.363778, 46.600487], [6.363919, 46.600435], [6.363923, 46.600368], [6.363992, 46.600319], [6.364026, 46.600239], [6.363985, 46.600171], [6.364014, 46.600081], [6.363976, 46.599969], [6.363901, 46.599922], [6.36391, 46.599886], [6.363872, 46.599865], [6.363964, 46.599734], [6.363942, 46.5997], [6.363989, 46.599636], [6.363959, 46.599643], [6.363966, 46.599668], [6.364027, 46.599661], [6.364175, 46.599568], [6.364263, 46.599549], [6.364393, 46.599583], [6.364764, 46.599321], [6.364851, 46.599355], [6.364941, 46.599257], [6.365229, 46.599152], [6.365324, 46.598943], [6.36533, 46.598961], [6.365397, 46.59893], [6.365419, 46.598943], [6.365413, 46.59889], [6.365202, 46.598809], [6.365143, 46.598851], [6.365176, 46.598812], [6.36515, 46.598813], [6.365181, 46.598824], [6.365157, 46.59885], [6.365074, 46.598843], [6.365002, 46.5989], [6.364924, 46.598902], [6.364805, 46.598854], [6.364659, 46.598899], [6.364545, 46.59887], [6.364464, 46.598884], [6.364417, 46.598793], [6.364391, 46.598813], [6.364221, 46.598763], [6.364192, 46.59871], [6.363979, 46.598634], [6.363802, 46.598664], [6.363768, 46.598708], [6.363345, 46.59873], [6.363125, 46.598672], [6.363055, 46.598688], [6.362934, 46.598619], [6.362763, 46.598645], [6.362476, 46.598562], [6.362329, 46.598484], [6.362155, 46.598543], [6.361933, 46.598565], [6.361864, 46.598551], [6.361772, 46.598576], [6.361695, 46.598453], [6.361557, 46.598385], [6.361498, 46.598298], [6.36136, 46.598218], [6.361087, 46.598188], [6.361042, 46.598225], [6.360779, 46.598208], [6.360733, 46.598228], [6.360698, 46.598198], [6.360451, 46.598161], [6.360405, 46.598135], [6.360314, 46.598176], [6.360199, 46.598184], [6.360006, 46.59831], [6.359955, 46.5983], [6.359931, 46.598364], [6.359816, 46.598441], [6.35974, 46.598573], [6.359653, 46.598646], [6.359598, 46.598654], [6.35959, 46.598737], [6.359509, 46.598614], [6.359459, 46.598606], [6.359405, 46.598536], [6.359334, 46.598359], [6.35937, 46.598286], [6.359291, 46.59827], [6.359261, 46.598179], [6.359099, 46.598007], [6.359128, 46.597946], [6.359071, 46.597898], [6.359141, 46.597749], [6.359107, 46.597715], [6.359107, 46.597641], [6.359019, 46.597628], [6.358953, 46.597676], [6.358886, 46.59768], [6.358851, 46.597727], [6.358815, 46.597719], [6.358754, 46.597751], [6.358736, 46.597728], [6.358832, 46.59763], [6.358784, 46.597502], [6.358623, 46.597469], [6.358453, 46.597552], [6.358431, 46.597617], [6.358347, 46.597649], [6.358384, 46.597653], [6.35838, 46.597685], [6.358413, 46.597693], [6.35823, 46.597792], [6.358215, 46.597835], [6.358262, 46.597858], [6.358147, 46.598018], [6.35815, 46.598053], [6.357923, 46.598041], [6.35784, 46.597995], [6.357811, 46.598035], [6.357789, 46.598004], [6.357714, 46.597989], [6.357776, 46.597906], [6.357772, 46.597792], [6.357664, 46.597718], [6.3576, 46.597713], [6.35756, 46.597736], [6.357434, 46.597705], [6.357427, 46.597636], [6.357319, 46.597578], [6.357355, 46.597567], [6.357366, 46.597487], [6.35723, 46.597381], [6.35716, 46.597339], [6.357113, 46.597342], [6.357069, 46.597381], [6.357089, 46.597389], [6.357036, 46.597341], [6.357076, 46.597368], [6.357052, 46.59739], [6.357024, 46.597374], [6.357021, 46.597349], [6.357045, 46.597379], [6.357029, 46.597362], [6.357066, 46.597357], [6.357102, 46.597394], [6.356982, 46.597421], [6.356891, 46.597361], [6.356798, 46.597374], [6.356824, 46.597339], [6.356808, 46.597386], [6.356721, 46.597311], [6.356697, 46.59736], [6.356659, 46.597335], [6.356548, 46.597142], [6.356622, 46.597035], [6.356555, 46.596983], [6.356558, 46.596956], [6.356483, 46.596917], [6.356418, 46.596924], [6.356231, 46.596845], [6.356084, 46.596866], [6.356087, 46.59685], [6.35597, 46.59684], [6.355891, 46.596913], [6.355731, 46.596936], [6.355663, 46.596975], [6.355539, 46.596931], [6.35546, 46.596856], [6.355469, 46.596873], [6.355415, 46.596881], [6.355307, 46.596851], [6.355222, 46.596857], [6.355192, 46.596819], [6.355238, 46.596768], [6.355151, 46.596677], [6.355127, 46.596695], [6.355132, 46.596546], [6.355074, 46.596534], [6.355096, 46.596525], [6.35505, 46.596546], [6.355041, 46.596503], [6.35488, 46.596391], [6.354806, 46.596392], [6.354794, 46.596368], [6.354735, 46.596389], [6.354593, 46.596322], [6.354526, 46.596271], [6.35454, 46.59624], [6.354506, 46.596194], [6.354475, 46.596227], [6.354414, 46.59617], [6.354383, 46.596186], [6.354363, 46.596155], [6.354272, 46.596151], [6.35428, 46.59613], [6.354238, 46.596114], [6.354117, 46.596107], [6.354082, 46.596141], [6.353987, 46.596095], [6.353963, 46.596036], [6.353929, 46.59605], [6.35385, 46.596031], [6.35364, 46.595921], [6.353544, 46.595933], [6.353544, 46.595906], [6.353497, 46.595891], [6.353495, 46.595813], [6.353323, 46.595813], [6.353234, 46.595745], [6.353251, 46.595692], [6.353177, 46.595679], [6.353112, 46.595597], [6.353077, 46.59559], [6.353063, 46.595614], [6.35309, 46.59561], [6.353055, 46.595621], [6.352956, 46.59561], [6.352996, 46.595608], [6.352935, 46.595647], [6.35287, 46.595638], [6.352841, 46.595662], [6.352831, 46.59564], [6.352811, 46.595654], [6.352614, 46.595626], [6.352546, 46.595639], [6.352422, 46.595603], [6.35228, 46.595609], [6.352221, 46.595668], [6.352116, 46.595692], [6.352082, 46.595675], [6.35192, 46.595688], [6.351896, 46.595661], [6.351892, 46.595691], [6.351842, 46.595695], [6.351799, 46.595635], [6.351732, 46.595617], [6.351703, 46.595537], [6.351537, 46.595507], [6.351488, 46.595474], [6.351471, 46.595491], [6.351377, 46.595451], [6.351366, 46.595419], [6.351413, 46.595447], [6.351388, 46.595472], [6.35142, 46.595432], [6.351438, 46.595442], [6.351334, 46.595468], [6.351326, 46.595431], [6.351386, 46.595457], [6.351393, 46.595478], [6.351366, 46.59548], [6.351397, 46.595501], [6.351458, 46.5955], [6.351467, 46.595467], [6.35141, 46.595458], [6.35121, 46.595334], [6.351082, 46.595294], [6.350892, 46.595156], [6.350783, 46.59513], [6.35074, 46.59507], [6.350669, 46.595057], [6.350668, 46.595007], [6.350409, 46.594974], [6.350156, 46.594859], [6.350063, 46.594915], [6.350042, 46.594863], [6.349989, 46.594904], [6.349734, 46.594853], [6.349414, 46.594891], [6.348994, 46.594866], [6.348852, 46.594825], [6.348731, 46.594712], [6.348467, 46.594604], [6.348147, 46.594415], [6.347986, 46.594375], [6.347919, 46.594331], [6.34779, 46.594301], [6.347773, 46.594266], [6.347601, 46.594219], [6.347522, 46.594229], [6.347577, 46.594266], [6.347602, 46.594247], [6.347584, 46.594226], [6.347323, 46.59424], [6.3473, 46.59427], [6.347233, 46.594278], [6.346885, 46.594282], [6.346818, 46.59425], [6.346815, 46.594274], [6.346755, 46.59429], [6.346583, 46.594237], [6.346493, 46.594253], [6.346119, 46.594214], [6.345947, 46.594231], [6.345927, 46.594215], [6.345464, 46.594201], [6.34544, 46.594214], [6.345458, 46.594233], [6.345396, 46.594164], [6.345384, 46.594215], [6.345275, 46.594201], [6.345257, 46.594224], [6.345065, 46.594237], [6.345058, 46.594215], [6.345024, 46.594227], [6.345038, 46.594242], [6.344928, 46.594207], [6.344785, 46.594243], [6.344427, 46.594231], [6.343975, 46.594251], [6.343772, 46.594291], [6.343322, 46.594306], [6.343285, 46.594326], [6.342982, 46.594311], [6.342953, 46.594332], [6.342765, 46.594345], [6.342571, 46.594409], [6.342331, 46.594445], [6.342138, 46.594515], [6.34204, 46.594526], [6.341956, 46.59456], [6.341933, 46.594603], [6.341788, 46.594695], [6.341538, 46.594766], [6.341489, 46.594813], [6.341399, 46.594825], [6.341258, 46.5949], [6.341037, 46.594892], [6.340945, 46.594933], [6.340926, 46.594983], [6.340794, 46.595064], [6.340719, 46.595064], [6.340665, 46.5951], [6.340134, 46.595206], [6.339823, 46.595318], [6.339389, 46.595366], [6.339364, 46.595387], [6.339068, 46.595436], [6.339, 46.595473], [6.338669, 46.595501], [6.338538, 46.59548], [6.338479, 46.595516], [6.338259, 46.59547], [6.338157, 46.595402], [6.338126, 46.595444], [6.338116, 46.595416], [6.338008, 46.59542], [6.337954, 46.595458], [6.337892, 46.59545], [6.337874, 46.595424], [6.337673, 46.595414], [6.337665, 46.595375], [6.337585, 46.595296], [6.337526, 46.59529], [6.337518, 46.595245], [6.337437, 46.595174], [6.337287, 46.595109], [6.33717, 46.595132], [6.337046, 46.5951], [6.336999, 46.595139], [6.336844, 46.595156], [6.336793, 46.59513], [6.336621, 46.595144], [6.336312, 46.595016], [6.336258, 46.595044], [6.336214, 46.595013], [6.336142, 46.595012], [6.336056, 46.594926], [6.33586, 46.59487], [6.335823, 46.594911], [6.335764, 46.594819], [6.335721, 46.594801], [6.335642, 46.594787], [6.335541, 46.594815], [6.335521, 46.594798], [6.335431, 46.594807], [6.335349, 46.594771], [6.335294, 46.594779], [6.335156, 46.594712], [6.334975, 46.594695], [6.334761, 46.59456], [6.334238, 46.594603], [6.334102, 46.594586], [6.334033, 46.594552], [6.333704, 46.594549], [6.33361, 46.59456], [6.333496, 46.594634], [6.333168, 46.594659], [6.333099, 46.594698], [6.332951, 46.594691], [6.332799, 46.594747], [6.332793, 46.594794], [6.332696, 46.594821], [6.332401, 46.59481], [6.332255, 46.594917], [6.332134, 46.594945], [6.332162, 46.59496], [6.332107, 46.594931], [6.331952, 46.594923], [6.331848, 46.594963], [6.331735, 46.594964], [6.331696, 46.595006], [6.331644, 46.594988], [6.331435, 46.595027], [6.331329, 46.59508], [6.331221, 46.595092], [6.331132, 46.595206], [6.330945, 46.595275], [6.330859, 46.595264], [6.330795, 46.595281], [6.330778, 46.595311], [6.330726, 46.5953], [6.330681, 46.595329], [6.33059, 46.595335], [6.330547, 46.595318], [6.330458, 46.595348], [6.330415, 46.59532], [6.330365, 46.595442], [6.330353, 46.595421], [6.330322, 46.595463], [6.330289, 46.59544], [6.330311, 46.595481], [6.330251, 46.595494], [6.330275, 46.595504], [6.330196, 46.595551], [6.330141, 46.595642], [6.329992, 46.595706], [6.329787, 46.595715], [6.329798, 46.595805], [6.329758, 46.595842], [6.329689, 46.595866], [6.32956, 46.595849], [6.329488, 46.595911], [6.329377, 46.595897], [6.329364, 46.595859], [6.329247, 46.595896], [6.329289, 46.595882], [6.32926, 46.595876], [6.329259, 46.595908], [6.329317, 46.595883], [6.329351, 46.595917], [6.329368, 46.595903], [6.329367, 46.595981], [6.329419, 46.59596], [6.329321, 46.595944], [6.32936, 46.595938], [6.329374, 46.595989], [6.329291, 46.59605], [6.329342, 46.596022], [6.329327, 46.595996], [6.329311, 46.596045], [6.329348, 46.596024], [6.329347, 46.596066], [6.329344, 46.596002], [6.329333, 46.596056], [6.32931, 46.596049], [6.329367, 46.595969], [6.32941, 46.59597], [6.329421, 46.595995], [6.329413, 46.595933], [6.329447, 46.595906], [6.329407, 46.595963], [6.329417, 46.595937], [6.329375, 46.595958], [6.329346, 46.595944], [6.329373, 46.595907], [6.329395, 46.595914], [6.329354, 46.595986], [6.329355, 46.595949], [6.32936, 46.59598], [6.329328, 46.595947], [6.329328, 46.595992], [6.329349, 46.595963], [6.329372, 46.595979], [6.329358, 46.595941], [6.329394, 46.59595], [6.329366, 46.595973], [6.329389, 46.596011], [6.329314, 46.59599], [6.32929, 46.595958], [6.329373, 46.595985], [6.329349, 46.595994], [6.329345, 46.595963], [6.329312, 46.595982], [6.3293, 46.595942], [6.329374, 46.595972], [6.329371, 46.596044], [6.329371, 46.596017], [6.329336, 46.596037], [6.329372, 46.596028], [6.329357, 46.596016], [6.329316, 46.596061], [6.32937, 46.59603], [6.329432, 46.595933], [6.329394, 46.595924], [6.329358, 46.596011], [6.329368, 46.595949], [6.329344, 46.596014], [6.329389, 46.595956], [6.32938, 46.595994], [6.329299, 46.595999], [6.329313, 46.595973], [6.329361, 46.595945], [6.329378, 46.596007], [6.329375, 46.595972], [6.32935, 46.595994], [6.329408, 46.595941], [6.32935, 46.596042], [6.329387, 46.596004], [6.329342, 46.596027], [6.329368, 46.595983], [6.329359, 46.596011], [6.329398, 46.595984], [6.32936, 46.595999], [6.32936, 46.595954], [6.329368, 46.595982], [6.329421, 46.595943], [6.329391, 46.59598], [6.329406, 46.595936], [6.329337, 46.59594], [6.329355, 46.595919], [6.329145, 46.595902], [6.32886, 46.595922], [6.328716, 46.595846], [6.328556, 46.595826], [6.328498, 46.595792], [6.328311, 46.595508], [6.328209, 46.595431], [6.328081, 46.595392], [6.327862, 46.595364], [6.327479, 46.595416], [6.327323, 46.595354], [6.327175, 46.595326], [6.326718, 46.595327], [6.326559, 46.595394], [6.326341, 46.595556], [6.326165, 46.595639], [6.325896, 46.595585], [6.325786, 46.595496], [6.325664, 46.595291], [6.3256, 46.595256], [6.325482, 46.595317], [6.325316, 46.595327], [6.325196, 46.595388], [6.325011, 46.595416], [6.324712, 46.595559], [6.32458, 46.595577], [6.324445, 46.595775], [6.324363, 46.595802], [6.324293, 46.595889], [6.324232, 46.595891], [6.3242, 46.595958], [6.323821, 46.596091], [6.32381, 46.596124], [6.323724, 46.596148], [6.323613, 46.596236], [6.323467, 46.596248], [6.323423, 46.596318], [6.323336, 46.596371], [6.323252, 46.596371], [6.323232, 46.596411], [6.32297, 46.5965], [6.32272, 46.596486], [6.322361, 46.596658], [6.32228, 46.596665], [6.322229, 46.596716], [6.322171, 46.59672], [6.321995, 46.596825], [6.32193, 46.596845], [6.321936, 46.596819], [6.32183, 46.596901], [6.32169, 46.596943], [6.321723, 46.596979], [6.321578, 46.59703], [6.32148, 46.597192], [6.321331, 46.597332], [6.321309, 46.597417], [6.321288, 46.597403], [6.321228, 46.597423], [6.321223, 46.597452], [6.321255, 46.597441], [6.321212, 46.597512], [6.321031, 46.597719], [6.320916, 46.597807], [6.32086, 46.597914], [6.320719, 46.59807], [6.320658, 46.598093], [6.320504, 46.598249], [6.320312, 46.598512], [6.320262, 46.598542], [6.320221, 46.598534], [6.320216, 46.598566], [6.320195, 46.598555], [6.320214, 46.598544], [6.320202, 46.598572], [6.320251, 46.598595], [6.320129, 46.598676], [6.320105, 46.598728], [6.320052, 46.598719], [6.320031, 46.598738], [6.320115, 46.598983], [6.320023, 46.599062], [6.319991, 46.599061], [6.319982, 46.599097], [6.319909, 46.599076], [6.3198, 46.599082], [6.31974, 46.59911], [6.319747, 46.599159], [6.319558, 46.599261], [6.319428, 46.599262], [6.319254, 46.599212], [6.31904, 46.599218], [6.318981, 46.599184], [6.318923, 46.599186], [6.318837, 46.59925], [6.31856, 46.599294], [6.318464, 46.599358], [6.3184, 46.599457], [6.318341, 46.599474], [6.318278, 46.599455], [6.318141, 46.599334], [6.317996, 46.599181], [6.317937, 46.599069], [6.317767, 46.598984], [6.317644, 46.598971], [6.317412, 46.598859], [6.317143, 46.5988], [6.316874, 46.598675], [6.316605, 46.598629], [6.316489, 46.598642], [6.316307, 46.598563], [6.316079, 46.598419], [6.315983, 46.5984], [6.315427, 46.598393], [6.314782, 46.597987], [6.314438, 46.597972], [6.314274, 46.597935], [6.314089, 46.59794], [6.313978, 46.597889], [6.313816, 46.597788], [6.313755, 46.597707], [6.31334, 46.597438], [6.313143, 46.597256], [6.31302, 46.596957], [6.313019, 46.596846], [6.312979, 46.59676], [6.312882, 46.59665], [6.312513, 46.596412], [6.312379, 46.596164], [6.312085, 46.596075], [6.311819, 46.595913], [6.31115, 46.59535], [6.310997, 46.595256], [6.310924, 46.595241], [6.310612, 46.594994], [6.310242, 46.594968], [6.310101, 46.594853], [6.309981, 46.594809], [6.309939, 46.594827], [6.310019, 46.594714], [6.310039, 46.594746], [6.310006, 46.594724], [6.31003, 46.59471], [6.309998, 46.594745], [6.309985, 46.594721], [6.310056, 46.594768], [6.310069, 46.594756], [6.310072, 46.594734], [6.310005, 46.594727], [6.309999, 46.594682], [6.309972, 46.594685], [6.309969, 46.594739], [6.309993, 46.594724], [6.309932, 46.594836]]}, "properties": {"name": "1788428478.Mont_Tendre", "cmt": "2026-09-03", "tstamp": 1788393600, "desc": "UpHill", "src": "6.309926/46.594164/6.369044/46.601247", "bbox": "6.309926/46.594164/6.369044/46.601247"}}, {"type": "Feature", "bbox": [6.309926, 46.594164, 6.369044, 46.601247], "geometry": {"type": "LineString", "coordinates": [[6.309927, 46.59484], [6.309955, 46.594854], [6.309926, 46.594838], [6.309928, 46.594853], [6.309983, 46.594833], [6.310007, 46.594743], [6.310052, 46.594732], [6.310038, 46.594709], [6.310016, 46.594746], [6.31004, 46.594742], [6.310025, 46.59473], [6.309996, 46.594766], [6.31, 46.594743], [6.309985, 46.59479], [6.31007, 46.594855], [6.310203, 46.594891], [6.310346, 46.595019], [6.310538, 46.595055], [6.310587, 46.595085], [6.310744, 46.595087], [6.310904, 46.595219], [6.311106, 46.595307], [6.311338, 46.595493], [6.311351, 46.595534], [6.311432, 46.595553], [6.311581, 46.59567], [6.311608, 46.595753], [6.311983, 46.59596], [6.312139, 46.596118], [6.312352, 46.596184], [6.31255, 46.59645], [6.312682, 46.596519], [6.312763, 46.596604], [6.31299, 46.59675], [6.313037, 46.596971], [6.313242, 46.597357], [6.313451, 46.597537], [6.313682, 46.597665], [6.313758, 46.597754], [6.314004, 46.597904], [6.314231, 46.597958], [6.314596, 46.59797], [6.314684, 46.59794], [6.314785, 46.597964], [6.315032, 46.598127], [6.31516, 46.598245], [6.31533, 46.598322], [6.315378, 46.59838], [6.315446, 46.598407], [6.315833, 46.598405], [6.315971, 46.598429], [6.316383, 46.598592], [6.316446, 46.598646], [6.316715, 46.598638], [6.316939, 46.598725], [6.317064, 46.598814], [6.317504, 46.598888], [6.317639, 46.598977], [6.317853, 46.599033], [6.317971, 46.599103], [6.318017, 46.599221], [6.318109, 46.599288], [6.318291, 46.599263], [6.318362, 46.599154], [6.31833, 46.599086], [6.318277, 46.599074], [6.318263, 46.599102], [6.318335, 46.599079], [6.318309, 46.599093], [6.318331, 46.599079], [6.3183, 46.599078], [6.318267, 46.599126], [6.318336, 46.59907], [6.318327, 46.599096], [6.318345, 46.599055], [6.318301, 46.599065], [6.318303, 46.599096], [6.318258, 46.599123], [6.318284, 46.599124], [6.318331, 46.599069], [6.318391, 46.59905], [6.318382, 46.599029], [6.318323, 46.599099], [6.318298, 46.599092], [6.31829, 46.599118], [6.318288, 46.599087], [6.318359, 46.599044], [6.318284, 46.59912], [6.318284, 46.5991], [6.318232, 46.599114], [6.318337, 46.59909], [6.318291, 46.599103], [6.318329, 46.599072], [6.318291, 46.599042], [6.318291, 46.599104], [6.318257, 46.599058], [6.318253, 46.599098], [6.318265, 46.599058], [6.318285, 46.599088], [6.318237, 46.59913], [6.318288, 46.599066], [6.318253, 46.599055], [6.318284, 46.599044], [6.318243, 46.599062], [6.318286, 46.599045], [6.318291, 46.59906], [6.318256, 46.599049], [6.318292, 46.599071], [6.318265, 46.599051], [6.318285, 46.59906], [6.318287, 46.599043], [6.318283, 46.599066], [6.318277, 46.59904], [6.318259, 46.599058], [6.318288, 46.59905], [6.318286, 46.599081], [6.31813, 46.599166], [6.31817, 46.599139], [6.318299, 46.599123], [6.318337, 46.599082], [6.31832, 46.599043], [6.318276, 46.599039], [6.31831, 46.599033], [6.318325, 46.599103], [6.31842, 46.599187], [6.318538, 46.599191], [6.318722, 46.599267], [6.318718, 46.599242], [6.318747, 46.599273], [6.318896, 46.59925], [6.31897, 46.599209], [6.319502, 46.599283], [6.3196, 46.599279], [6.319663, 46.599203], [6.319758, 46.599181], [6.319802, 46.599129], [6.319911, 46.599112], [6.319964, 46.59907], [6.320089, 46.599067], [6.320122, 46.599043], [6.320146, 46.598949], [6.320072, 46.598743], [6.320148, 46.598736], [6.32015, 46.598683], [6.320195, 46.598673], [6.320252, 46.59859], [6.320353, 46.598606], [6.320403, 46.598503], [6.320396, 46.598411], [6.320496, 46.598268], [6.320777, 46.598023], [6.32086, 46.597866], [6.320906, 46.597821], [6.320936, 46.597831], [6.321126, 46.597604], [6.321145, 46.597634], [6.321164, 46.59762], [6.321166, 46.597533], [6.321231, 46.597489], [6.321225, 46.597457], [6.321281, 46.597481], [6.321261, 46.597464], [6.321347, 46.597333], [6.321594, 46.597063], [6.321672, 46.597054], [6.321687, 46.596979], [6.321756, 46.596934], [6.321833, 46.596955], [6.321819, 46.596899], [6.321857, 46.596907], [6.3219, 46.596875], [6.32188, 46.596849], [6.321994, 46.596835], [6.322108, 46.596788], [6.322126, 46.596756], [6.322196, 46.596785], [6.322201, 46.596753], [6.322287, 46.596705], [6.322338, 46.596728], [6.322352, 46.5967], [6.322543, 46.596663], [6.32266, 46.596611], [6.322687, 46.596575], [6.322941, 46.596508], [6.323097, 46.596402], [6.323233, 46.596361], [6.323245, 46.596322], [6.323482, 46.596287], [6.323631, 46.596182], [6.323761, 46.596206], [6.323856, 46.596129], [6.323944, 46.596129], [6.324241, 46.595992], [6.324247, 46.595962], [6.324335, 46.595918], [6.324335, 46.59587], [6.324501, 46.595823], [6.324881, 46.595479], [6.32549, 46.595323], [6.325609, 46.595326], [6.32585, 46.595591], [6.326071, 46.595673], [6.326294, 46.595653], [6.326431, 46.595581], [6.326625, 46.595409], [6.326779, 46.595367], [6.327143, 46.595373], [6.327365, 46.595407], [6.327536, 46.595475], [6.32777, 46.595418], [6.328033, 46.595442], [6.328159, 46.595472], [6.328289, 46.595635], [6.328328, 46.595734], [6.328571, 46.595895], [6.328873, 46.595992], [6.32925, 46.595934], [6.329333, 46.59596], [6.329577, 46.595901], [6.329829, 46.595873], [6.329862, 46.595823], [6.32993, 46.595799], [6.32995, 46.595743], [6.330083, 46.595748], [6.330166, 46.595697], [6.330156, 46.595682], [6.330191, 46.595686], [6.33015, 46.595622], [6.330162, 46.595596], [6.330197, 46.595601], [6.33015, 46.595556], [6.330229, 46.595569], [6.330273, 46.595539], [6.33031, 46.595546], [6.330316, 46.595518], [6.330362, 46.595525], [6.330323, 46.595515], [6.330315, 46.59548], [6.330351, 46.595501], [6.330434, 46.595462], [6.330472, 46.595474], [6.330496, 46.595414], [6.330586, 46.595381], [6.330633, 46.595381], [6.330663, 46.595413], [6.330699, 46.595356], [6.330737, 46.595349], [6.330765, 46.595383], [6.330784, 46.595349], [6.330982, 46.595343], [6.331076, 46.595307], [6.331089, 46.595276], [6.331143, 46.595301], [6.331159, 46.595253], [6.331259, 46.595234], [6.331222, 46.59522], [6.331226, 46.595195], [6.331277, 46.59518], [6.331252, 46.595168], [6.331345, 46.595076], [6.331345, 46.595096], [6.331375, 46.595072], [6.331492, 46.595076], [6.331607, 46.595113], [6.331753, 46.595097], [6.331847, 46.59498], [6.331884, 46.594972], [6.331987, 46.595017], [6.332078, 46.595002], [6.332132, 46.595028], [6.332212, 46.595023], [6.332339, 46.594953], [6.332297, 46.594947], [6.332278, 46.594911], [6.332371, 46.594917], [6.332428, 46.594882], [6.332557, 46.594875], [6.332737, 46.594814], [6.332828, 46.594813], [6.332947, 46.594732], [6.333106, 46.594718], [6.333145, 46.594739], [6.333245, 46.5947], [6.333414, 46.594728], [6.333522, 46.594713], [6.333636, 46.594648], [6.333676, 46.59464], [6.333751, 46.594681], [6.3338, 46.594627], [6.333927, 46.594615], [6.334114, 46.594735], [6.334163, 46.594742], [6.334202, 46.59473], [6.334202, 46.594694], [6.33426, 46.594712], [6.334265, 46.594693], [6.334315, 46.594696], [6.334329, 46.594674], [6.334563, 46.594616], [6.334656, 46.594668], [6.334744, 46.594646], [6.334914, 46.594769], [6.335016, 46.594785], [6.335066, 46.594818], [6.335154, 46.5948], [6.335315, 46.594847], [6.335361, 46.594809], [6.335439, 46.594868], [6.335543, 46.594857], [6.335562, 46.594883], [6.335632, 46.594886], [6.335712, 46.594856], [6.335756, 46.594896], [6.335936, 46.594891], [6.336087, 46.595046], [6.336272, 46.595096], [6.336363, 46.595077], [6.336507, 46.595203], [6.336942, 46.595181], [6.337003, 46.595219], [6.33703, 46.595194], [6.337015, 46.595162], [6.337021, 46.59518], [6.337086, 46.59515], [6.337259, 46.595182], [6.337355, 46.595167], [6.337433, 46.595293], [6.337607, 46.595408], [6.337721, 46.595403], [6.337843, 46.595449], [6.337898, 46.595455], [6.337899, 46.595435], [6.338143, 46.595494], [6.338216, 46.595489], [6.338234, 46.595457], [6.338345, 46.595461], [6.338384, 46.595528], [6.338455, 46.595567], [6.338498, 46.595519], [6.338617, 46.595572], [6.338705, 46.595534], [6.338835, 46.595551], [6.339352, 46.595388], [6.339624, 46.595335], [6.339702, 46.595348], [6.339894, 46.595321], [6.340071, 46.595238], [6.340497, 46.595146], [6.340708, 46.595123], [6.340823, 46.595021], [6.340893, 46.595008], [6.341038, 46.594923], [6.341284, 46.594889], [6.341425, 46.594821], [6.341428, 46.594861], [6.341501, 46.594809], [6.341507, 46.594824], [6.341469, 46.594829], [6.341443, 46.594868], [6.341436, 46.594845], [6.341409, 46.594855], [6.341523, 46.59483], [6.341519, 46.594805], [6.341549, 46.594831], [6.341657, 46.594739], [6.342099, 46.594511], [6.342089, 46.594528], [6.342139, 46.59452], [6.342253, 46.594467], [6.342414, 46.594451], [6.342929, 46.594324], [6.343121, 46.594313], [6.343471, 46.594361], [6.343601, 46.594342], [6.343785, 46.594273], [6.343799, 46.594294], [6.343857, 46.594297], [6.344004, 46.594256], [6.344574, 46.594238], [6.344983, 46.594256], [6.345359, 46.594203], [6.345428, 46.594223], [6.345492, 46.594205], [6.345869, 46.59423], [6.34592, 46.594211], [6.345878, 46.594198], [6.345863, 46.594215], [6.345852, 46.594177], [6.346051, 46.594276], [6.346091, 46.594231], [6.346442, 46.594245], [6.346481, 46.594226], [6.346514, 46.59428], [6.346558, 46.594266], [6.346813, 46.594295], [6.347556, 46.594267], [6.347718, 46.594306], [6.347828, 46.594387], [6.347992, 46.594369], [6.34808, 46.594442], [6.348259, 46.594474], [6.3487, 46.594823], [6.34878, 46.594788], [6.348867, 46.5948], [6.349044, 46.594906], [6.349148, 46.594902], [6.349253, 46.594868], [6.349343, 46.594945], [6.349478, 46.594963], [6.349505, 46.594934], [6.349641, 46.594909], [6.349885, 46.594925], [6.349975, 46.594911], [6.350037, 46.594946], [6.350117, 46.594902], [6.350217, 46.594923], [6.350319, 46.594995], [6.35053, 46.595021], [6.35066, 46.595071], [6.350683, 46.595117], [6.35078, 46.595155], [6.350805, 46.595194], [6.351007, 46.595314], [6.351062, 46.595307], [6.351118, 46.595388], [6.351362, 46.595467], [6.351445, 46.595564], [6.351546, 46.595574], [6.35164, 46.595624], [6.351689, 46.595599], [6.351757, 46.595645], [6.351782, 46.595737], [6.351887, 46.595705], [6.352037, 46.595736], [6.352405, 46.595618], [6.352459, 46.595645], [6.352543, 46.595614], [6.352591, 46.59565], [6.352616, 46.595624], [6.352732, 46.595652], [6.352772, 46.595632], [6.352853, 46.595643], [6.352929, 46.595609], [6.352905, 46.595663], [6.352913, 46.595639], [6.352961, 46.595655], [6.352967, 46.595613], [6.353051, 46.595619], [6.353018, 46.595605], [6.353103, 46.595695], [6.353142, 46.595691], [6.353185, 46.595729], [6.353172, 46.59575], [6.353266, 46.595781], [6.353243, 46.595778], [6.353262, 46.595799], [6.353347, 46.595838], [6.353312, 46.595846], [6.353404, 46.595876], [6.353386, 46.595904], [6.353431, 46.595887], [6.353597, 46.59599], [6.35364, 46.596049], [6.353756, 46.596064], [6.353784, 46.596037], [6.353835, 46.596037], [6.353903, 46.596056], [6.35395, 46.596104], [6.353936, 46.596158], [6.35402, 46.596178], [6.354064, 46.596156], [6.354159, 46.596156], [6.354168, 46.596087], [6.354188, 46.596114], [6.354248, 46.596124], [6.35426, 46.596196], [6.354389, 46.596226], [6.354475, 46.596313], [6.35459, 46.596303], [6.354711, 46.59635], [6.354795, 46.596425], [6.354811, 46.596403], [6.354864, 46.596422], [6.354862, 46.59645], [6.354934, 46.596498], [6.354905, 46.596512], [6.354925, 46.596449], [6.354903, 46.596459], [6.354939, 46.596447], [6.354927, 46.596514], [6.35488, 46.596528], [6.354923, 46.596589], [6.354995, 46.596617], [6.355065, 46.596733], [6.355183, 46.596803], [6.355193, 46.596865], [6.355292, 46.59686], [6.355316, 46.596909], [6.355511, 46.596964], [6.355504, 46.596979], [6.355689, 46.596963], [6.355711, 46.596997], [6.355691, 46.597114], [6.355782, 46.5972], [6.355842, 46.597221], [6.355897, 46.597403], [6.355942, 46.59743], [6.35594, 46.597411], [6.356, 46.597404], [6.356148, 46.597513], [6.35636, 46.597591], [6.356348, 46.59761], [6.356423, 46.597621], [6.35649, 46.597719], [6.356568, 46.597719], [6.356589, 46.597673], [6.356646, 46.597668], [6.356625, 46.597658], [6.356587, 46.597727], [6.356639, 46.597816], [6.356626, 46.597963], [6.356728, 46.598187], [6.35671, 46.598206], [6.356776, 46.598253], [6.356822, 46.598335], [6.356808, 46.598363], [6.35686, 46.598475], [6.356845, 46.598579], [6.356932, 46.598716], [6.357017, 46.598708], [6.356991, 46.598722], [6.356943, 46.598673], [6.356988, 46.598681], [6.356953, 46.598694], [6.356949, 46.598674], [6.357111, 46.598695], [6.357075, 46.598667], [6.357082, 46.598635], [6.357047, 46.598649], [6.357082, 46.598651], [6.3571, 46.598691], [6.357276, 46.59871], [6.357632, 46.598558], [6.357739, 46.598548], [6.357851, 46.598454], [6.357946, 46.598446], [6.358082, 46.598378], [6.358311, 46.598133], [6.358532, 46.597603], [6.358622, 46.597509], [6.358717, 46.597508], [6.358828, 46.597567], [6.358804, 46.597651], [6.358687, 46.597758], [6.358723, 46.597793], [6.358779, 46.597809], [6.358926, 46.597765], [6.359056, 46.597692], [6.359038, 46.597679], [6.35909, 46.597712], [6.359094, 46.597778], [6.359068, 46.597774], [6.359054, 46.597825], [6.358994, 46.597862], [6.359026, 46.598003], [6.359051, 46.598054], [6.359205, 46.598144], [6.359224, 46.598187], [6.359256, 46.59819], [6.359254, 46.598172], [6.359264, 46.598187], [6.35919, 46.598223], [6.359299, 46.598303], [6.3593, 46.59837], [6.359333, 46.598379], [6.359297, 46.598425], [6.359344, 46.598424], [6.359418, 46.59862], [6.359529, 46.598743], [6.359686, 46.598689], [6.35967, 46.598669], [6.359772, 46.598645], [6.3598, 46.598605], [6.359759, 46.59857], [6.359965, 46.598415], [6.359957, 46.59838], [6.360008, 46.598332], [6.360111, 46.598315], [6.360175, 46.598254], [6.360346, 46.598194], [6.360577, 46.598273], [6.360598, 46.598304], [6.360772, 46.598308], [6.36086, 46.598268], [6.360985, 46.598271], [6.361014, 46.598292], [6.36116, 46.59827], [6.361329, 46.598277], [6.361406, 46.598343], [6.361359, 46.598286], [6.361432, 46.59826], [6.361326, 46.598293], [6.361431, 46.598349], [6.361504, 46.598427], [6.361689, 46.598483], [6.361718, 46.598569], [6.361763, 46.598596], [6.361976, 46.59861], [6.362089, 46.598534], [6.362167, 46.59857], [6.362354, 46.598521], [6.362426, 46.598557], [6.362559, 46.598565], [6.362632, 46.598627], [6.362778, 46.598658], [6.362977, 46.598758], [6.36304, 46.598746], [6.363223, 46.598768], [6.363346, 46.598739], [6.363702, 46.59873], [6.363858, 46.598697], [6.364024, 46.598718], [6.364068, 46.598703], [6.364125, 46.598751], [6.364177, 46.598755], [6.364223, 46.598807], [6.364266, 46.598778], [6.364349, 46.598838], [6.36438, 46.598829], [6.364443, 46.598872], [6.364455, 46.598921], [6.364671, 46.598975], [6.364787, 46.59896], [6.364773, 46.598932], [6.364936, 46.59894], [6.365132, 46.598885], [6.365283, 46.598898], [6.365284, 46.598877], [6.365368, 46.598842], [6.36557, 46.598779], [6.366073, 46.598829], [6.366155, 46.598852], [6.366207, 46.598988], [6.36625, 46.599013], [6.366227, 46.599103], [6.366177, 46.59914], [6.366178, 46.599219], [6.366215, 46.599249], [6.366191, 46.599289], [6.366251, 46.599299], [6.36616, 46.599368], [6.36622, 46.59942], [6.366179, 46.599513], [6.366074, 46.599643], [6.366035, 46.599648], [6.365966, 46.599614], [6.365913, 46.599631], [6.36596, 46.599675], [6.365958, 46.599696], [6.365919, 46.599692], [6.365977, 46.599672], [6.365946, 46.599703], [6.365966, 46.599714], [6.365945, 46.59969], [6.365894, 46.599735], [6.365806, 46.59972], [6.365816, 46.599697], [6.365786, 46.599725], [6.3657, 46.599716], [6.365689, 46.599789], [6.365574, 46.599813], [6.365533, 46.599867], [6.365611, 46.599919], [6.365744, 46.599952], [6.365873, 46.600049], [6.365882, 46.600017], [6.365877, 46.600048], [6.365985, 46.60009], [6.366024, 46.600145], [6.366096, 46.600111], [6.366177, 46.600136], [6.366209, 46.600122], [6.366198, 46.600098], [6.366248, 46.600158], [6.366317, 46.600166], [6.366385, 46.600135], [6.366361, 46.600184], [6.366389, 46.600244], [6.366363, 46.600268], [6.366434, 46.600247], [6.366528, 46.600262], [6.366668, 46.600419], [6.366853, 46.60046], [6.366942, 46.600513], [6.367029, 46.600495], [6.367015, 46.600406], [6.367097, 46.600388], [6.367122, 46.600347], [6.367338, 46.600351], [6.367378, 46.60032], [6.367572, 46.600369], [6.367657, 46.600333], [6.367755, 46.600389], [6.367821, 46.600351], [6.367878, 46.60036], [6.36796, 46.600427], [6.367977, 46.600397], [6.368031, 46.600443], [6.368188, 46.60049], [6.368384, 46.60049], [6.368484, 46.600529], [6.368727, 46.600517], [6.368856, 46.600454], [6.368992, 46.600448], [6.369016, 46.600411], [6.369044, 46.600423]]}, "properties": {"name": "1788428478.Mont_Tendre", "cmt": "2026-09-03", "tstamp": 1788393600, "desc": "DownHill", "src": "6.309926/46.594164/6.369044/46.601247", "bbox": "6.309926/46.594164/6.369044/46.601247"}}, {"type": "Feature", "bbox": [6.309926, 46.594164, 6.369044, 46.601247], "geometry": {"type": "LineString", "coordinates": [[6.369042, 46.600424], [6.369033, 46.600424]]}, "properties": {"name": "1788428478.Mont_Tendre", "cmt": "2026-09-03", "tstamp": 1788393600, "desc": "UpHill", "src": "6.309926/46.594164/6.369044/46.601247", "bbox": "6.309926/46.594164/6.369044/46.601247"}}]}