{"type": "FeatureCollection", "name": "TrackSet", "crs": {"type": "name", "properties": {"name": "urn:ogc:def:crs:OGC:1.3:CRS84"}}, "bbox": [7.291256, 45.998662, 7.329275, 46.03285], "features": [{"type": "Feature", "bbox": [7.291256, 45.998662, 7.329275, 46.03285], "geometry": {"type": "LineString", "coordinates": [[7.299824, 45.998662], [7.299839, 45.998674], [7.299795, 45.998681], [7.299772, 45.998715], [7.299659, 45.998729], [7.299668, 45.998773], [7.299562, 45.998791], [7.299504, 45.998846], [7.29952, 45.998897], [7.299427, 45.998919], [7.299395, 45.998962], [7.299163, 45.999036], [7.299062, 45.999035], [7.298928, 45.999104], [7.29888, 45.999096], [7.29891, 45.999104], [7.298869, 45.999119], [7.298716, 45.99913], [7.298532, 45.999175], [7.298497, 45.999203], [7.298491, 45.999178], [7.298408, 45.999206], [7.298383, 45.999255], [7.298196, 45.999275], [7.298194, 45.999299], [7.298084, 45.999351], [7.297905, 45.999397], [7.297705, 45.999527], [7.297607, 45.99954], [7.297634, 45.999559], [7.297558, 45.999593], [7.297548, 45.999629], [7.29767, 45.999634], [7.297799, 45.999755], [7.297796, 45.999845], [7.297726, 45.999927], [7.297741, 45.999989], [7.297649, 46.000046], [7.297676, 46.000147], [7.297649, 46.0003], [7.297703, 46.000404], [7.297653, 46.000456], [7.297686, 46.000526], [7.297484, 46.000705], [7.297477, 46.000769], [7.297367, 46.000871], [7.297341, 46.000975], [7.297379, 46.001018], [7.29736, 46.001077], [7.297254, 46.001179], [7.297303, 46.001219], [7.297283, 46.001275], [7.297085, 46.00137], [7.296958, 46.00138], [7.296845, 46.001466], [7.296723, 46.001479], [7.296556, 46.001612], [7.296469, 46.001626], [7.296382, 46.001601], [7.296301, 46.001659], [7.296307, 46.001718], [7.296222, 46.001785], [7.296107, 46.001803], [7.29602, 46.001847], [7.295997, 46.001906], [7.296018, 46.002029], [7.29589, 46.002134], [7.295909, 46.002216], [7.295862, 46.002378], [7.295893, 46.002413], [7.295837, 46.002449], [7.295833, 46.002521], [7.295749, 46.002617], [7.295704, 46.002937], [7.295613, 46.00305], [7.295648, 46.003141], [7.295614, 46.003197], [7.295648, 46.003241], [7.295585, 46.003385], [7.295561, 46.003428], [7.295438, 46.003493], [7.295312, 46.003611], [7.295124, 46.003687], [7.295126, 46.003752], [7.295359, 46.003857], [7.295371, 46.003891], [7.294898, 46.004068], [7.294832, 46.004168], [7.294915, 46.004304], [7.294863, 46.004346], [7.294452, 46.004325], [7.29433, 46.004351], [7.294522, 46.004458], [7.294675, 46.004512], [7.294426, 46.004574], [7.294306, 46.004707], [7.294427, 46.004803], [7.294472, 46.004949], [7.294449, 46.005001], [7.29432, 46.005082], [7.294592, 46.005074], [7.294591, 46.005104], [7.294458, 46.005183], [7.294427, 46.005234], [7.294613, 46.005226], [7.29464, 46.005258], [7.294621, 46.005243], [7.294521, 46.005277], [7.294483, 46.005324], [7.294669, 46.005348], [7.294667, 46.005377], [7.294584, 46.005388], [7.294543, 46.005451], [7.294542, 46.005571], [7.294487, 46.005657], [7.294518, 46.005693], [7.294505, 46.0058], [7.294533, 46.005893], [7.294488, 46.005977], [7.294517, 46.006005], [7.29452, 46.006098], [7.294576, 46.006158], [7.294542, 46.006205], [7.2946, 46.00626], [7.294581, 46.00629], [7.294651, 46.006318], [7.294556, 46.006305], [7.29441, 46.006203], [7.294236, 46.006166], [7.294156, 46.006197], [7.294136, 46.006265], [7.294222, 46.006302], [7.294227, 46.006338], [7.294187, 46.006342], [7.294081, 46.006291], [7.293976, 46.006287], [7.293791, 46.0063], [7.293764, 46.006339], [7.29384, 46.006609], [7.293909, 46.006632], [7.293964, 46.006571], [7.294047, 46.006577], [7.294191, 46.006731], [7.294201, 46.006821], [7.294277, 46.006834], [7.294245, 46.006858], [7.294108, 46.006861], [7.29398, 46.006905], [7.294097, 46.006959], [7.294207, 46.00708], [7.294346, 46.00716], [7.294353, 46.007179], [7.294275, 46.007229], [7.294288, 46.007265], [7.294474, 46.007306], [7.294486, 46.007387], [7.294438, 46.007448], [7.294496, 46.007464], [7.294576, 46.007443], [7.294482, 46.007535], [7.294645, 46.007551], [7.294652, 46.00758], [7.29458, 46.007582], [7.294512, 46.00762], [7.294504, 46.007753], [7.294541, 46.007816], [7.294722, 46.007939], [7.294715, 46.008014], [7.294884, 46.008081], [7.295064, 46.008223], [7.295308, 46.008319], [7.295364, 46.008415], [7.295447, 46.008443], [7.295356, 46.008395], [7.295374, 46.008414], [7.295484, 46.008415], [7.295542, 46.008388], [7.295665, 46.008446], [7.295801, 46.008455], [7.295946, 46.008582], [7.29593, 46.008556], [7.295955, 46.008552], [7.296015, 46.008604], [7.296115, 46.008722], [7.296072, 46.008766], [7.296144, 46.008841], [7.296207, 46.008851], [7.296205, 46.008896], [7.296269, 46.008953], [7.296648, 46.009101], [7.296652, 46.009145], [7.296734, 46.00921], [7.296747, 46.009282], [7.296918, 46.009474], [7.296949, 46.009588], [7.297224, 46.009903], [7.297232, 46.009938], [7.297211, 46.009935], [7.297244, 46.009951], [7.297202, 46.009951], [7.297328, 46.010098], [7.297486, 46.010219], [7.297508, 46.010296], [7.297552, 46.010284], [7.29761, 46.010209], [7.297664, 46.010214], [7.297845, 46.01048], [7.298, 46.01065], [7.298162, 46.010778], [7.298286, 46.010824], [7.298209, 46.010898], [7.298263, 46.011068], [7.298405, 46.01118], [7.298444, 46.011241], [7.298436, 46.011298], [7.29853, 46.011391], [7.298608, 46.011542], [7.298788, 46.011722], [7.299014, 46.012052], [7.299107, 46.012084], [7.299153, 46.012059], [7.299244, 46.012056], [7.299288, 46.012095], [7.299417, 46.012099], [7.299689, 46.012264], [7.299671, 46.012311], [7.299795, 46.01246], [7.299737, 46.012478], [7.299713, 46.012713], [7.29961, 46.012829], [7.299633, 46.013038], [7.299554, 46.013249], [7.299613, 46.013355], [7.299551, 46.013516], [7.299578, 46.013659], [7.299528, 46.013808], [7.299585, 46.013871], [7.299932, 46.014072], [7.300046, 46.014181], [7.300098, 46.014194], [7.300354, 46.014474], [7.300418, 46.014639], [7.300458, 46.014875], [7.300396, 46.015043], [7.300391, 46.015226], [7.300326, 46.01529], [7.300369, 46.01537], [7.300316, 46.015367], [7.300204, 46.015484], [7.300149, 46.015453], [7.300123, 46.015585], [7.300076, 46.015628], [7.300047, 46.015622], [7.300042, 46.015664], [7.299989, 46.01563], [7.29996, 46.015688], [7.299902, 46.015723], [7.299851, 46.015805], [7.299891, 46.015835], [7.299872, 46.015871], [7.299919, 46.015942], [7.299826, 46.016057], [7.29965, 46.016192], [7.299682, 46.01619], [7.299574, 46.016191], [7.2995, 46.016218], [7.299576, 46.016263], [7.299635, 46.01647], [7.299607, 46.016548], [7.299479, 46.016695], [7.299454, 46.016818], [7.299497, 46.01695], [7.299486, 46.017045], [7.299225, 46.017376], [7.299106, 46.017661], [7.29897, 46.017814], [7.298958, 46.017886], [7.29875, 46.018106], [7.298767, 46.018128], [7.298718, 46.018202], [7.298671, 46.01822], [7.298649, 46.018281], [7.298625, 46.018242], [7.298607, 46.018258], [7.298643, 46.018277], [7.298546, 46.018267], [7.298521, 46.018283], [7.298465, 46.018404], [7.298377, 46.018488], [7.298234, 46.018482], [7.29817, 46.018547], [7.298036, 46.0186], [7.297962, 46.018661], [7.297566, 46.018708], [7.297486, 46.018729], [7.29743, 46.018774], [7.29742, 46.018738], [7.297428, 46.018763], [7.297393, 46.018758], [7.297325, 46.018834], [7.297116, 46.018937], [7.297073, 46.018985], [7.297062, 46.019088], [7.296906, 46.019144], [7.29688, 46.019223], [7.296775, 46.019307], [7.296794, 46.0194], [7.296583, 46.019327], [7.296407, 46.019429], [7.296377, 46.019496], [7.296413, 46.019625], [7.296158, 46.019743], [7.296088, 46.019855], [7.295908, 46.019972], [7.2957, 46.020026], [7.295601, 46.020022], [7.295545, 46.020126], [7.295267, 46.020257], [7.295054, 46.020555], [7.29468, 46.020698], [7.294619, 46.020851], [7.294488, 46.020959], [7.294483, 46.021146], [7.294405, 46.02124], [7.294323, 46.021284], [7.294315, 46.021399], [7.294248, 46.021416], [7.294248, 46.021498], [7.294174, 46.021529], [7.294175, 46.021584], [7.294055, 46.02161], [7.294018, 46.02174], [7.293936, 46.02182], [7.293878, 46.021845], [7.293696, 46.021783], [7.293517, 46.021858], [7.293539, 46.021886], [7.293517, 46.021801], [7.293537, 46.02182], [7.293507, 46.021877], [7.293561, 46.021923], [7.293561, 46.022012], [7.293612, 46.022045], [7.293652, 46.022138], [7.293572, 46.022237], [7.293591, 46.022304], [7.293755, 46.022515], [7.293722, 46.022551], [7.29376, 46.0226], [7.293516, 46.022855], [7.293511, 46.022906], [7.293398, 46.023054], [7.293191, 46.023111], [7.293108, 46.0232], [7.293059, 46.023205], [7.293004, 46.023352], [7.293025, 46.023401], [7.292948, 46.023416], [7.292905, 46.023464], [7.292871, 46.023532], [7.29291, 46.023593], [7.292839, 46.023925], [7.29286, 46.023997], [7.292817, 46.024099], [7.292825, 46.024198], [7.292718, 46.024384], [7.292498, 46.024477], [7.292474, 46.024507], [7.292485, 46.024835], [7.292422, 46.024897], [7.292347, 46.024919], [7.292338, 46.024948], [7.292178, 46.024869], [7.292027, 46.024857], [7.291813, 46.024921], [7.291793, 46.024954], [7.291898, 46.025008], [7.291852, 46.025075], [7.291872, 46.025197], [7.291905, 46.025227], [7.291851, 46.02529], [7.291882, 46.025358], [7.291859, 46.025385], [7.291889, 46.025469], [7.291846, 46.025553], [7.291872, 46.025606], [7.291808, 46.025622], [7.291821, 46.025663], [7.291763, 46.025674], [7.291789, 46.025723], [7.291566, 46.025736], [7.291673, 46.02584], [7.291626, 46.025917], [7.291705, 46.025998], [7.29169, 46.026115], [7.291747, 46.026193], [7.291684, 46.026246], [7.291569, 46.02628], [7.291554, 46.026329], [7.291513, 46.026348], [7.291498, 46.026376], [7.291558, 46.026427], [7.291564, 46.02648], [7.291419, 46.026483], [7.291335, 46.026518], [7.291473, 46.026621], [7.291477, 46.026797], [7.291574, 46.026842], [7.291623, 46.026929], [7.291718, 46.026942], [7.291754, 46.026987], [7.291886, 46.027054], [7.291805, 46.027072], [7.291704, 46.02704], [7.291603, 46.027055], [7.291424, 46.027026], [7.291364, 46.027051], [7.291261, 46.027065], [7.291256, 46.02705], [7.29127, 46.027071], [7.291292, 46.027061], [7.291386, 46.027192], [7.291499, 46.027241], [7.291625, 46.027248], [7.291642, 46.027229], [7.291717, 46.027228], [7.291741, 46.027253], [7.291703, 46.027283], [7.291749, 46.027317], [7.291898, 46.027253], [7.291893, 46.027332], [7.291954, 46.027325], [7.292005, 46.027276], [7.292074, 46.027334], [7.292037, 46.027377], [7.292069, 46.027348], [7.292236, 46.027352], [7.292351, 46.027313], [7.292455, 46.027343], [7.292455, 46.027377], [7.292423, 46.027382], [7.292407, 46.027424], [7.292375, 46.027409], [7.29235, 46.027425], [7.292346, 46.027406], [7.292393, 46.027425], [7.29247, 46.027387], [7.292536, 46.027403], [7.292643, 46.027353], [7.292765, 46.027371], [7.292781, 46.027383], [7.292761, 46.027373], [7.292741, 46.027409], [7.292629, 46.027452], [7.292619, 46.027497], [7.292526, 46.027545], [7.292583, 46.027573], [7.292723, 46.027559], [7.292882, 46.027477], [7.29299, 46.02746], [7.293268, 46.027472], [7.293933, 46.027233], [7.294007, 46.027226], [7.294053, 46.027185], [7.294147, 46.027173], [7.294168, 46.02714], [7.294298, 46.027102], [7.294378, 46.027108], [7.294393, 46.027048], [7.294459, 46.027053], [7.294484, 46.027033], [7.294937, 46.027085], [7.295104, 46.027067], [7.295243, 46.027006], [7.295425, 46.027016], [7.295479, 46.027048], [7.295661, 46.027006], [7.295775, 46.027017], [7.29598, 46.026944], [7.296066, 46.026977], [7.29626, 46.026934], [7.296378, 46.02695], [7.296514, 46.026912], [7.296685, 46.026912], [7.296839, 46.026928], [7.296936, 46.026966], [7.297128, 46.026967], [7.29724, 46.027002], [7.297431, 46.027009], [7.297471, 46.027032], [7.297509, 46.027018], [7.297617, 46.027051], [7.298057, 46.027021], [7.298219, 46.027047], [7.298228, 46.027077], [7.298206, 46.027063], [7.298265, 46.027114], [7.298343, 46.027141], [7.29837, 46.02712], [7.298469, 46.027188], [7.298573, 46.027194], [7.298639, 46.027254], [7.298648, 46.027431], [7.2987, 46.027478], [7.298703, 46.027574], [7.298653, 46.027607], [7.298559, 46.027614], [7.298418, 46.027839], [7.298302, 46.027862], [7.298231, 46.027902], [7.298134, 46.028003], [7.298152, 46.028048], [7.29831, 46.028089], [7.298441, 46.028068], [7.298608, 46.028137], [7.298721, 46.028145], [7.298836, 46.028108], [7.298947, 46.028145], [7.298955, 46.028179], [7.299151, 46.02825], [7.299109, 46.028292], [7.299068, 46.028273], [7.299037, 46.028294], [7.298952, 46.028281], [7.298951, 46.028315], [7.299042, 46.028355], [7.299138, 46.02845], [7.299242, 46.028486], [7.299411, 46.028469], [7.299365, 46.0285], [7.299409, 46.02853], [7.299562, 46.028508], [7.29953, 46.028549], [7.299583, 46.028577], [7.299691, 46.028582], [7.299847, 46.028533], [7.299973, 46.028571], [7.300088, 46.028561], [7.300137, 46.028501], [7.300218, 46.028505], [7.300254, 46.028425], [7.30033, 46.028413], [7.300367, 46.028344], [7.300442, 46.02829], [7.300432, 46.028232], [7.300473, 46.028223], [7.300467, 46.02825], [7.300504, 46.028246], [7.300561, 46.028322], [7.30059, 46.028332], [7.300582, 46.028297], [7.300549, 46.028304], [7.300588, 46.028335], [7.300599, 46.02832], [7.300575, 46.028344], [7.300615, 46.028314], [7.300647, 46.028349], [7.300622, 46.028316], [7.300672, 46.028297], [7.300622, 46.028319], [7.300713, 46.028322], [7.300749, 46.028357], [7.300765, 46.028338], [7.300731, 46.028355], [7.300775, 46.028391], [7.300768, 46.028372], [7.300885, 46.028338], [7.300899, 46.028408], [7.300985, 46.028418], [7.300938, 46.028423], [7.300933, 46.028457], [7.301027, 46.028532], [7.301178, 46.02856], [7.301229, 46.028546], [7.301302, 46.028581], [7.301523, 46.02862], [7.301762, 46.028761], [7.301813, 46.028761], [7.301832, 46.028813], [7.301974, 46.028816], [7.302073, 46.028858], [7.302058, 46.028915], [7.301953, 46.028944], [7.301952, 46.029032], [7.301913, 46.029043], [7.301935, 46.029059], [7.301847, 46.029112], [7.301946, 46.029162], [7.301954, 46.029221], [7.301989, 46.029217], [7.301836, 46.029294], [7.301777, 46.029361], [7.301924, 46.029388], [7.302009, 46.029438], [7.301898, 46.029494], [7.301996, 46.029552], [7.301888, 46.029601], [7.30188, 46.029635], [7.301639, 46.029673], [7.301653, 46.029754], [7.301621, 46.029788], [7.301509, 46.029806], [7.301499, 46.029842], [7.301471, 46.029832], [7.301392, 46.029868], [7.301393, 46.029906], [7.301266, 46.029909], [7.301175, 46.029968], [7.301273, 46.029988], [7.301339, 46.030046], [7.301369, 46.030094], [7.30133, 46.03011], [7.301418, 46.030127], [7.301494, 46.03018], [7.30165, 46.030206], [7.301686, 46.030261], [7.301652, 46.030253], [7.301654, 46.030287], [7.301603, 46.030269], [7.301562, 46.030283], [7.301571, 46.030325], [7.301494, 46.030349], [7.301474, 46.03038], [7.301509, 46.030391], [7.301508, 46.030421], [7.301472, 46.030444], [7.301522, 46.03047], [7.301469, 46.030463], [7.301472, 46.030481], [7.301361, 46.030526], [7.301449, 46.030546], [7.301274, 46.030619], [7.301188, 46.030613], [7.301202, 46.030654], [7.301117, 46.030684], [7.301298, 46.030777], [7.301414, 46.030909], [7.301511, 46.030938], [7.301556, 46.03098], [7.301545, 46.031029], [7.301759, 46.031113], [7.30176, 46.03115], [7.30183, 46.031158], [7.301832, 46.031173], [7.301786, 46.031167], [7.30185, 46.031238], [7.302092, 46.031288], [7.302153, 46.031264], [7.30232, 46.031374], [7.30238, 46.031384], [7.302434, 46.03144], [7.302585, 46.031433], [7.302649, 46.031475], [7.30271, 46.031473], [7.302733, 46.031425], [7.302772, 46.031426], [7.302976, 46.031549], [7.303359, 46.031593], [7.303557, 46.03167], [7.303726, 46.031698], [7.303955, 46.031793], [7.304078, 46.031814], [7.304195, 46.03188], [7.304507, 46.031914], [7.304681, 46.031976], [7.304812, 46.032054], [7.304921, 46.032087], [7.30506, 46.032092], [7.305205, 46.032214], [7.305247, 46.032301], [7.305453, 46.032432], [7.305528, 46.032445], [7.305664, 46.032405], [7.30571, 46.032417], [7.305974, 46.032609], [7.305997, 46.032806], [7.306036, 46.032832], [7.306133, 46.03285], [7.306263, 46.032837], [7.30622, 46.032836], [7.306251, 46.032822], [7.306467, 46.032832], [7.306463, 46.032807], [7.306493, 46.032825], [7.306582, 46.032819], [7.306758, 46.032787], [7.307039, 46.032674], [7.307109, 46.032574], [7.307184, 46.032531], [7.307324, 46.032498], [7.307312, 46.032443], [7.307344, 46.032451], [7.307408, 46.032407], [7.307439, 46.032421], [7.307412, 46.032373], [7.307431, 46.032393], [7.307222, 46.032528], [7.307218, 46.032568], [7.307237, 46.032432], [7.307101, 46.032229], [7.30709, 46.032279], [7.307045, 46.032232], [7.30739, 46.032453], [7.307146, 46.032387], [7.307345, 46.032498], [7.307462, 46.032526], [7.307501, 46.032641], [7.307672, 46.032837]]}, "properties": {"name": "1788240618.Panossiere_to_Bonatichiesse", "cmt": "2026-09-01", "tstamp": 1788220800, "desc": "DownHill", "src": "7.291256/45.998662/7.329275/46.03285", "bbox": "7.291256/45.998662/7.329275/46.03285"}}, {"type": "Feature", "bbox": [7.291256, 45.998662, 7.329275, 46.03285], "geometry": {"type": "LineString", "coordinates": [[7.30769, 46.032843], [7.307755, 46.032837], [7.307883, 46.032714], [7.307954, 46.03268], [7.308073, 46.032522], [7.308159, 46.032473], [7.30831, 46.032442], [7.308453, 46.032299], [7.308641, 46.032186], [7.308769, 46.032062], [7.308838, 46.032063], [7.309014, 46.031949], [7.309057, 46.031978], [7.309113, 46.031967], [7.309132, 46.031903], [7.309171, 46.0319], [7.309298, 46.031795], [7.309399, 46.031791], [7.309637, 46.03173], [7.309825, 46.031624], [7.310006, 46.031597], [7.31013, 46.031513], [7.310369, 46.031493], [7.310518, 46.031445], [7.31051, 46.031281], [7.310654, 46.03115], [7.310711, 46.031036], [7.310759, 46.031006], [7.31074, 46.030945], [7.310855, 46.03087], [7.310835, 46.030836], [7.310889, 46.030845], [7.310802, 46.03074], [7.310782, 46.030785], [7.310689, 46.030764], [7.310643, 46.030782], [7.310601, 46.030879], [7.310554, 46.030864], [7.310531, 46.030633], [7.310411, 46.030577], [7.310395, 46.030501], [7.310332, 46.03046], [7.31022, 46.030441], [7.310216, 46.030471], [7.310268, 46.030431], [7.310348, 46.030418], [7.310354, 46.03038], [7.310433, 46.030359], [7.310454, 46.030329], [7.310414, 46.030358], [7.31036, 46.030321], [7.31034, 46.030344], [7.310293, 46.030292], [7.31032, 46.030302], [7.310283, 46.030341], [7.310313, 46.030381], [7.310244, 46.030372], [7.310105, 46.030404], [7.310031, 46.03033], [7.310063, 46.030299], [7.310033, 46.030348], [7.31, 46.030315], [7.309938, 46.030316], [7.309949, 46.030339], [7.309931, 46.030325], [7.309943, 46.030311], [7.310002, 46.030328], [7.310001, 46.030348], [7.310061, 46.030302], [7.310029, 46.030296], [7.309985, 46.030221], [7.309985, 46.030206], [7.310021, 46.030221], [7.309962, 46.030202], [7.309998, 46.030226], [7.309953, 46.030209], [7.30982, 46.030261], [7.309718, 46.030262], [7.309647, 46.030314], [7.309576, 46.030324], [7.309642, 46.030365], [7.30962, 46.030384], [7.30968, 46.030361], [7.309636, 46.030328], [7.309652, 46.030306], [7.309602, 46.030284], [7.309674, 46.030285], [7.309593, 46.030219], [7.309626, 46.030267], [7.309631, 46.030213], [7.309652, 46.03023], [7.309656, 46.030211], [7.309749, 46.030211], [7.309783, 46.030157], [7.309846, 46.030162], [7.309915, 46.030124], [7.309834, 46.03005], [7.30987, 46.030034], [7.309857, 46.02999], [7.309965, 46.030051], [7.310023, 46.030047], [7.310014, 46.029976], [7.310075, 46.029916], [7.31015, 46.029909], [7.310126, 46.029875], [7.310197, 46.029836], [7.310183, 46.0298], [7.310266, 46.029733], [7.310365, 46.029764], [7.310409, 46.029735], [7.31045, 46.029754], [7.310488, 46.029643], [7.310612, 46.029671], [7.310674, 46.029621], [7.310749, 46.029622], [7.310811, 46.029577], [7.310865, 46.029572], [7.310882, 46.029499], [7.310955, 46.029506], [7.311184, 46.029463], [7.311277, 46.029485], [7.311345, 46.029453], [7.3115, 46.029483], [7.311555, 46.029389], [7.311622, 46.029368], [7.311683, 46.029295], [7.311782, 46.02924], [7.311829, 46.029244], [7.311886, 46.029124], [7.311919, 46.029102], [7.311951, 46.029111], [7.312048, 46.029043], [7.312073, 46.028977], [7.312139, 46.028934], [7.312112, 46.028847], [7.31222, 46.028803], [7.312296, 46.02865], [7.312364, 46.02866], [7.312374, 46.028595], [7.312444, 46.028595], [7.312377, 46.028529], [7.312456, 46.028533], [7.31246, 46.028506], [7.312545, 46.02847], [7.312885, 46.028537], [7.313047, 46.028343], [7.313202, 46.028299], [7.313203, 46.028195], [7.313325, 46.028169], [7.313366, 46.028064], [7.313406, 46.028039], [7.313389, 46.027989], [7.313466, 46.02797], [7.313443, 46.027912], [7.313469, 46.027927], [7.313526, 46.027889], [7.313482, 46.027832], [7.313633, 46.027831], [7.313643, 46.027801], [7.31371, 46.027808], [7.313735, 46.027767], [7.313791, 46.027773], [7.313865, 46.027659], [7.313908, 46.027642], [7.313871, 46.027596], [7.313889, 46.02755], [7.313978, 46.027494], [7.314048, 46.027482], [7.314117, 46.027426], [7.314145, 46.027335], [7.314204, 46.027357], [7.31423, 46.027324], [7.314283, 46.027317], [7.314291, 46.027287], [7.314377, 46.027324], [7.314436, 46.027315], [7.314509, 46.027341], [7.314568, 46.027326], [7.314708, 46.027195], [7.31488, 46.027127], [7.315006, 46.027109], [7.315022, 46.027074], [7.315118, 46.027034], [7.315107, 46.027008], [7.315213, 46.026978], [7.315219, 46.026942], [7.315424, 46.026814], [7.315445, 46.026824], [7.315463, 46.026784], [7.315714, 46.026674], [7.315797, 46.026669], [7.315854, 46.026617], [7.315977, 46.026571], [7.316062, 46.026485], [7.316142, 46.026474], [7.316207, 46.026435], [7.31633, 46.026448], [7.316396, 46.026363], [7.316471, 46.026357], [7.316684, 46.026197], [7.316779, 46.026192], [7.316813, 46.02616], [7.316898, 46.02614], [7.316959, 46.026075], [7.31713, 46.026068], [7.317293, 46.026002], [7.317355, 46.025947], [7.317497, 46.025941], [7.317825, 46.025851], [7.318229, 46.025826], [7.318384, 46.02585], [7.318361, 46.025802], [7.318437, 46.025812], [7.318675, 46.025711], [7.31867, 46.025672], [7.318718, 46.025685], [7.318728, 46.025605], [7.318832, 46.025588], [7.318915, 46.025512], [7.319257, 46.025441], [7.319381, 46.025297], [7.319507, 46.025263], [7.319839, 46.02523], [7.320222, 46.025091], [7.320338, 46.025075], [7.320654, 46.024921], [7.320744, 46.024833], [7.320812, 46.024814], [7.320955, 46.024711], [7.321486, 46.024461], [7.321758, 46.024413], [7.321941, 46.02434], [7.322031, 46.02434], [7.32223, 46.024279], [7.322436, 46.024261], [7.322599, 46.024181], [7.322706, 46.024106], [7.322836, 46.023902], [7.323063, 46.023706], [7.323173, 46.023663], [7.323212, 46.023615], [7.323289, 46.023621], [7.323504, 46.023501], [7.323661, 46.023482], [7.323826, 46.023367], [7.323915, 46.023334], [7.324008, 46.023257], [7.32413, 46.023053], [7.324233, 46.022966], [7.324353, 46.022962], [7.324395, 46.022925], [7.324433, 46.022867], [7.324431, 46.022786], [7.324633, 46.022589], [7.324808, 46.02252], [7.325009, 46.022357], [7.32524, 46.022219], [7.325538, 46.021952], [7.325727, 46.021883], [7.325786, 46.021832], [7.326172, 46.021321], [7.326376, 46.020839], [7.326359, 46.020666], [7.326453, 46.020512], [7.326488, 46.020375], [7.326626, 46.020195], [7.326749, 46.020184], [7.326927, 46.020314], [7.32707, 46.020379], [7.32709, 46.020426], [7.327185, 46.020463], [7.327633, 46.020846], [7.327794, 46.020913], [7.327914, 46.021029], [7.328107, 46.021123], [7.328257, 46.021351], [7.32839, 46.02136], [7.328558, 46.021213], [7.328733, 46.021169], [7.32882, 46.021113], [7.329163, 46.021048], [7.329238, 46.020997], [7.329255, 46.020977], [7.329226, 46.020976], [7.329243, 46.021011], [7.329209, 46.021027], [7.329229, 46.020997], [7.32921, 46.02101], [7.329259, 46.021024], [7.329245, 46.020978], [7.329261, 46.021009], [7.329275, 46.020986]]}, "properties": {"name": "1788240618.Panossiere_to_Bonatichiesse", "cmt": "2026-09-01", "tstamp": 1788220800, "desc": "UpHill", "src": "7.291256/45.998662/7.329275/46.03285", "bbox": "7.291256/45.998662/7.329275/46.03285"}}]}