{"type": "FeatureCollection", "name": "TrackSet", "crs": {"type": "name", "properties": {"name": "urn:ogc:def:crs:OGC:1.3:CRS84"}}, "bbox": [6.235156, 46.380234, 6.243648, 46.384872], "features": [{"type": "Feature", "bbox": [6.235156, 46.380234, 6.243648, 46.384872], "geometry": {"type": "LineString", "coordinates": [[6.238506, 46.384214], [6.238533, 46.384122], [6.238512, 46.384054], [6.238431, 46.38395], [6.238357, 46.383904], [6.238232, 46.383921], [6.238138, 46.38397], [6.23792, 46.38395], [6.237911, 46.38389], [6.237853, 46.383829], [6.23786, 46.38377], [6.237789, 46.383722], [6.23782, 46.383632], [6.237777, 46.383503], [6.237812, 46.38348], [6.237776, 46.383455], [6.237765, 46.38336], [6.23777, 46.383307], [6.237806, 46.383288], [6.237786, 46.383268], [6.237865, 46.383185], [6.237853, 46.383136], [6.237799, 46.383148], [6.237828, 46.383098], [6.23779, 46.383283], [6.237742, 46.383273], [6.237859, 46.383253], [6.23788, 46.383278], [6.237798, 46.383259], [6.237746, 46.383294], [6.237806, 46.383298], [6.237539, 46.383017], [6.23745, 46.383074], [6.237459, 46.383143], [6.237432, 46.383129], [6.237316, 46.383161], [6.237861, 46.383419], [6.238034, 46.383467], [6.237988, 46.383553], [6.238033, 46.383596], [6.237785, 46.383363], [6.237874, 46.383136], [6.237809, 46.383164], [6.237786, 46.38313], [6.23786, 46.383028], [6.237882, 46.382903], [6.237766, 46.382784], [6.237662, 46.382724], [6.237379, 46.382761], [6.237143, 46.382875], [6.237102, 46.382855], [6.237002, 46.382903], [6.236947, 46.382999], [6.236834, 46.383055], [6.236634, 46.383096], [6.236382, 46.383234], [6.236282, 46.383211], [6.236207, 46.383256], [6.235946, 46.383184], [6.235794, 46.383074], [6.235781, 46.382984], [6.235767, 46.382995], [6.235882, 46.38307], [6.236081, 46.383169], [6.235156, 46.382766], [6.235158, 46.382701], [6.235184, 46.382855], [6.23522, 46.382888], [6.235344, 46.382915], [6.235399, 46.382971], [6.235443, 46.382951], [6.235515, 46.382965], [6.235672, 46.382927], [6.235637, 46.382775], [6.235594, 46.382806], [6.235541, 46.3828], [6.235504, 46.382723], [6.23559, 46.382945], [6.235595, 46.383078], [6.235597, 46.383048], [6.23569, 46.383067], [6.237342, 46.381337], [6.235549, 46.382866], [6.2357, 46.382987], [6.235885, 46.383039], [6.236156, 46.38322], [6.236229, 46.383201], [6.236398, 46.383223], [6.236586, 46.38317], [6.236648, 46.383126], [6.236806, 46.38309], [6.236886, 46.383034], [6.236993, 46.38302], [6.23721, 46.382847], [6.237441, 46.382775], [6.237521, 46.382712], [6.2376, 46.3827], [6.23769, 46.382651], [6.237728, 46.382711], [6.237618, 46.382662], [6.237588, 46.382697], [6.237536, 46.382703], [6.237764, 46.382657], [6.237727, 46.38266], [6.237746, 46.382695], [6.237639, 46.382682], [6.237563, 46.382665], [6.237544, 46.382622], [6.237694, 46.382688], [6.237728, 46.382745], [6.237789, 46.382743], [6.237746, 46.382722], [6.237789, 46.382695], [6.237749, 46.38271], [6.23775, 46.38275], [6.237532, 46.382682], [6.237484, 46.382624], [6.237509, 46.382606], [6.237454, 46.382561], [6.237462, 46.382541], [6.237491, 46.382546], [6.23723, 46.382465], [6.23745, 46.382523], [6.237467, 46.382503], [6.237427, 46.382529], [6.237461, 46.382515], [6.237402, 46.382511], [6.237555, 46.382489], [6.237746, 46.382632], [6.238002, 46.382699], [6.23786, 46.38264], [6.237822, 46.382636], [6.237789, 46.382664], [6.237817, 46.382618], [6.237874, 46.382643], [6.237901, 46.382628], [6.23782, 46.38264], [6.23781, 46.382612], [6.237846, 46.382606], [6.237832, 46.382673], [6.237874, 46.382691], [6.237711, 46.382671], [6.237777, 46.382481], [6.237785, 46.382553], [6.237861, 46.382559], [6.237885, 46.382585], [6.237845, 46.382625], [6.237798, 46.382614], [6.237758, 46.382525], [6.237847, 46.382528], [6.237826, 46.382602], [6.237891, 46.382577], [6.237862, 46.382556], [6.237839, 46.382582], [6.237793, 46.382569], [6.23774, 46.382586], [6.237717, 46.382539], [6.237751, 46.382497], [6.237739, 46.382365], [6.237778, 46.382361], [6.237807, 46.382408], [6.237956, 46.382356], [6.237926, 46.382357], [6.237992, 46.382383], [6.237973, 46.382474], [6.237886, 46.382586], [6.237938, 46.382554], [6.238058, 46.382639], [6.238037, 46.382673], [6.237925, 46.382657], [6.237888, 46.382645], [6.237917, 46.382613], [6.237887, 46.382663], [6.237759, 46.382607], [6.23778, 46.382581], [6.23776, 46.382676], [6.238006, 46.382524], [6.23831, 46.382488], [6.238248, 46.382521], [6.237944, 46.382534], [6.237946, 46.382488], [6.237998, 46.382509], [6.238054, 46.382484], [6.23804, 46.382443], [6.237958, 46.382403], [6.237915, 46.382413], [6.237839, 46.382389], [6.238206, 46.382535], [6.238264, 46.38263], [6.238201, 46.382716], [6.238144, 46.382672], [6.238132, 46.382691], [6.238086, 46.38267], [6.237991, 46.382707], [6.237951, 46.382631], [6.237861, 46.382576], [6.237883, 46.382531], [6.238089, 46.382432], [6.238457, 46.382359], [6.238549, 46.382289], [6.23874, 46.382238], [6.2387, 46.382236], [6.238703, 46.382216], [6.238699, 46.382239], [6.238688, 46.382218], [6.238674, 46.382292], [6.238697, 46.382252], [6.238876, 46.382334], [6.238687, 46.382269], [6.238791, 46.382213], [6.238926, 46.38225], [6.238898, 46.382223], [6.238984, 46.382207], [6.238958, 46.382189], [6.238978, 46.382172], [6.238904, 46.382175], [6.238899, 46.382158], [6.238929, 46.382187], [6.238976, 46.382135], [6.239055, 46.382319], [6.239133, 46.382338], [6.239363, 46.382318], [6.23958, 46.382207], [6.239791, 46.382161], [6.239851, 46.382091], [6.239991, 46.382023], [6.240175, 46.381981], [6.240212, 46.381999], [6.240196, 46.382011], [6.240255, 46.382004], [6.240307, 46.381968], [6.240614, 46.3819], [6.240685, 46.381845], [6.24086, 46.381835], [6.240836, 46.381788], [6.240929, 46.381789], [6.24103, 46.381755], [6.241136, 46.381604], [6.241222, 46.38157], [6.241242, 46.381528], [6.241309, 46.381491], [6.241375, 46.381484], [6.241517, 46.38131], [6.241621, 46.381243], [6.241586, 46.381179], [6.241627, 46.381125], [6.241628, 46.381152], [6.241644, 46.381134], [6.241656, 46.381151], [6.241624, 46.381144], [6.241646, 46.381121], [6.241609, 46.381136], [6.241621, 46.381151], [6.241705, 46.381109], [6.241642, 46.381212], [6.241717, 46.38131], [6.241711, 46.381446], [6.241792, 46.381532], [6.241787, 46.381597], [6.241944, 46.381738], [6.242015, 46.381863], [6.242224, 46.382104], [6.242179, 46.382172], [6.242165, 46.382125], [6.242101, 46.382129], [6.242128, 46.382162], [6.242181, 46.382121], [6.242147, 46.382139], [6.242176, 46.382147], [6.242139, 46.382147], [6.242156, 46.382164], [6.242142, 46.382133], [6.242114, 46.382137], [6.242156, 46.382127], [6.242137, 46.382159], [6.242159, 46.382133], [6.242132, 46.382149], [6.242092, 46.382108], [6.242055, 46.382107], [6.24207, 46.382072], [6.242117, 46.382081], [6.242128, 46.382124], [6.24218, 46.382136], [6.242149, 46.382134], [6.242133, 46.38211], [6.242188, 46.382133], [6.242212, 46.382101], [6.242227, 46.382133], [6.242181, 46.382132], [6.242207, 46.382106], [6.24223, 46.38212], [6.242166, 46.382095], [6.242235, 46.382119], [6.242207, 46.38213], [6.242213, 46.382008], [6.242295, 46.382096], [6.242267, 46.382117], [6.242583, 46.382158], [6.242636, 46.382131], [6.242636, 46.382074], [6.242601, 46.382073], [6.242571, 46.382097], [6.242641, 46.382094], [6.242699, 46.382073], [6.242703, 46.382048], [6.242753, 46.382064], [6.242784, 46.382042], [6.24287, 46.38207], [6.242896, 46.382028], [6.242978, 46.382019], [6.242934, 46.382038], [6.242879, 46.381985], [6.242761, 46.381982], [6.242695, 46.38204], [6.242548, 46.382084], [6.242548, 46.382105], [6.242527, 46.382076], [6.242391, 46.382053], [6.242296, 46.382102], [6.242151, 46.382113], [6.242171, 46.382094], [6.242251, 46.382106], [6.242223, 46.382106], [6.242216, 46.382137], [6.243648, 46.382917], [6.243513, 46.382941], [6.243293, 46.38308], [6.243102, 46.383125], [6.243213, 46.383221], [6.243151, 46.383229], [6.243166, 46.383286], [6.243106, 46.383296], [6.243076, 46.383364], [6.242808, 46.38342], [6.242559, 46.383587], [6.242485, 46.383587], [6.242407, 46.383636], [6.242352, 46.383626], [6.242258, 46.383666], [6.242073, 46.383639], [6.241816, 46.383344], [6.241676, 46.383299], [6.241641, 46.383267], [6.241649, 46.383228], [6.241515, 46.383154], [6.241396, 46.383124], [6.241053, 46.38312], [6.240937, 46.383182], [6.240629, 46.383162], [6.240461, 46.383189], [6.240365, 46.383173], [6.240293, 46.383185], [6.240266, 46.383213], [6.24019, 46.383181], [6.240369, 46.383271], [6.240226, 46.383369], [6.24051, 46.383188], [6.240558, 46.383121], [6.240321, 46.383236], [6.240316, 46.38328], [6.240371, 46.383228], [6.240345, 46.383211], [6.240361, 46.383149], [6.24032, 46.383176], [6.240303, 46.383202], [6.240409, 46.383196], [6.240274, 46.383167], [6.24022, 46.383182], [6.24038, 46.383241], [6.240275, 46.383217], [6.240275, 46.383277], [6.240437, 46.383322], [6.240501, 46.383318], [6.240518, 46.383349], [6.240233, 46.383245], [6.24026, 46.383229], [6.240209, 46.383153], [6.240234, 46.383173], [6.240251, 46.383109], [6.240174, 46.383078], [6.240158, 46.383041], [6.240303, 46.38311], [6.240807, 46.383492], [6.240837, 46.383443], [6.240764, 46.383318], [6.240782, 46.383276], [6.240673, 46.383175], [6.240509, 46.383094], [6.240442, 46.383098], [6.240434, 46.383135], [6.240496, 46.383136], [6.240571, 46.383181], [6.240515, 46.383194], [6.240564, 46.383201], [6.240394, 46.383166], [6.24027, 46.383082], [6.240297, 46.383069], [6.240189, 46.383015], [6.240178, 46.38305], [6.240302, 46.383081], [6.240186, 46.383133], [6.240319, 46.383179], [6.240263, 46.383193], [6.24028, 46.383217], [6.240337, 46.383208], [6.240307, 46.383247], [6.240375, 46.383233], [6.24032, 46.383235], [6.240242, 46.383199], [6.240249, 46.383225], [6.240248, 46.383204], [6.240306, 46.383229], [6.240251, 46.383243], [6.240326, 46.383279], [6.240304, 46.383339], [6.240414, 46.383398], [6.240403, 46.383369], [6.240463, 46.383365], [6.240375, 46.383325], [6.240358, 46.383291], [6.240369, 46.383327], [6.240425, 46.383307], [6.240304, 46.383398], [6.2404, 46.383416], [6.240415, 46.383375], [6.240282, 46.383276], [6.240237, 46.383278], [6.240282, 46.383166], [6.240266, 46.383101], [6.24021, 46.383095], [6.240166, 46.383026], [6.240235, 46.38321], [6.240116, 46.383301], [6.239987, 46.383286], [6.239949, 46.383352], [6.239919, 46.383323], [6.239882, 46.38335], [6.239751, 46.383343], [6.239729, 46.383385], [6.239685, 46.383345], [6.239659, 46.383387], [6.239552, 46.383394], [6.239368, 46.383315], [6.239253, 46.383304], [6.239194, 46.383399], [6.239202, 46.383483], [6.239123, 46.383568], [6.23917, 46.383726], [6.23935, 46.383921], [6.239343, 46.383975], [6.239269, 46.384052], [6.239307, 46.384117], [6.239206, 46.384178], [6.23896, 46.384262], [6.238995, 46.384278], [6.239027, 46.384252], [6.238944, 46.384259], [6.239018, 46.384274], [6.238778, 46.384393], [6.238718, 46.384452], [6.238845, 46.38461], [6.238851, 46.384674], [6.238979, 46.384852], [6.239093, 46.384872], [6.239659, 46.384793], [6.240236, 46.384622], [6.240583, 46.384459], [6.240629, 46.384406], [6.240632, 46.384301], [6.240432, 46.384029], [6.239868, 46.38357], [6.239565, 46.383378], [6.239363, 46.383142], [6.239186, 46.382726], [6.239187, 46.382561], [6.239142, 46.382461], [6.238888, 46.38219], [6.238734, 46.381811], [6.238644, 46.381405], [6.23849, 46.381242], [6.238339, 46.380939], [6.23834, 46.380532], [6.238202, 46.380293], [6.238211, 46.380234]]}, "properties": {"name": "1788345832.Lunch_Walk", "cmt": "2026-09-02", "tstamp": 1788307200, "desc": "---", "src": "6.235156/46.380234/6.243648/46.384872", "bbox": "6.235156/46.380234/6.243648/46.384872"}}]}