{"type": "FeatureCollection", "name": "TrackSet", "crs": {"type": "name", "properties": {"name": "urn:ogc:def:crs:OGC:1.3:CRS84"}}, "bbox": [-2.746122, 55.986452, -2.724281, 55.990847], "features": [{"type": "Feature", "bbox": [-2.746122, 55.986452, -2.724281, 55.990847], "geometry": {"type": "LineString", "coordinates": [[-2.724281, 55.990831], [-2.724475, 55.990847], [-2.724489, 55.990771], [-2.724578, 55.990662], [-2.724554, 55.990614], [-2.72461, 55.990651], [-2.724592, 55.990624], [-2.72461, 55.990643], [-2.724912, 55.990374], [-2.72505, 55.990341], [-2.725166, 55.990346], [-2.725619, 55.990283], [-2.725738, 55.99026], [-2.725839, 55.990203], [-2.725936, 55.990192], [-2.72601, 55.99011], [-2.726158, 55.989368], [-2.726251, 55.989318], [-2.726792, 55.989286], [-2.727012, 55.989314], [-2.727435, 55.98928], [-2.727648, 55.989302], [-2.728071, 55.989301], [-2.728681, 55.989241], [-2.73002, 55.989233], [-2.731821, 55.989169], [-2.733611, 55.989178], [-2.735949, 55.989144], [-2.736105, 55.989117], [-2.736219, 55.989027], [-2.736328, 55.988591], [-2.736371, 55.988558], [-2.736534, 55.987662], [-2.736557, 55.987596], [-2.736672, 55.987531], [-2.737307, 55.987448], [-2.738663, 55.987328], [-2.741954, 55.986969], [-2.742269, 55.986942], [-2.742766, 55.98694], [-2.74314, 55.986871], [-2.743608, 55.986826], [-2.744258, 55.986842], [-2.744439, 55.986828], [-2.744998, 55.986867], [-2.745532, 55.986855], [-2.745594, 55.986836], [-2.745664, 55.986682], [-2.74604, 55.986625], [-2.746045, 55.986567], [-2.745982, 55.986498], [-2.746097, 55.986502], [-2.746008, 55.986478], [-2.746037, 55.986471], [-2.746031, 55.986505], [-2.746007, 55.986468], [-2.746039, 55.986467], [-2.745988, 55.986468], [-2.746015, 55.986452], [-2.746043, 55.986477], [-2.746044, 55.986453], [-2.746032, 55.986473], [-2.74599, 55.986461], [-2.746113, 55.986507], [-2.746049, 55.986489], [-2.74603, 55.986547], [-2.74607, 55.986512], [-2.746047, 55.986496], [-2.746122, 55.986501], [-2.746055, 55.986506], [-2.746096, 55.986523]]}, "properties": {"name": "1788644887.Event_to_tiny_home_fabulous_full_day", "cmt": "2026-09-05", "tstamp": 1788566400, "desc": "---", "src": "-2.746122/55.986452/-2.724281/55.990847", "bbox": "-2.746122/55.986452/-2.724281/55.990847"}}]}