{"type": "FeatureCollection", "name": "TrackSet", "crs": {"type": "name", "properties": {"name": "urn:ogc:def:crs:OGC:1.3:CRS84"}}, "bbox": [-4.530109, 56.332939, -4.515572, 56.365568], "features": [{"type": "Feature", "bbox": [-4.530109, 56.332939, -4.515572, 56.365568], "geometry": {"type": "LineString", "coordinates": [[-4.530109, 56.365568], [-4.530009, 56.365519], [-4.529907, 56.365327], [-4.529734, 56.365275], [-4.529687, 56.365235], [-4.529647, 56.365045], [-4.529435, 56.364849], [-4.529518, 56.364665], [-4.529519, 56.364423], [-4.529618, 56.364264], [-4.529627, 56.364162], [-4.529948, 56.363869], [-4.530061, 56.363411], [-4.530025, 56.363244], [-4.530089, 56.363182], [-4.530109, 56.362703], [-4.530002, 56.362467], [-4.530027, 56.362333], [-4.529999, 56.362259], [-4.530036, 56.362267], [-4.529984, 56.36216], [-4.530039, 56.362029], [-4.530035, 56.361983], [-4.529985, 56.361961], [-4.530021, 56.361909], [-4.529867, 56.361616], [-4.529925, 56.361557], [-4.529832, 56.361503], [-4.529834, 56.361429], [-4.529627, 56.361167], [-4.529414, 56.36076], [-4.529267, 56.360599], [-4.529198, 56.360397], [-4.528988, 56.360177], [-4.528925, 56.360028], [-4.528797, 56.359897], [-4.528712, 56.359704], [-4.528683, 56.35952], [-4.528558, 56.359322], [-4.528438, 56.359215], [-4.528422, 56.359143], [-4.52816, 56.35898], [-4.528019, 56.358802], [-4.528025, 56.358759], [-4.528064, 56.358754], [-4.528001, 56.358728], [-4.528058, 56.358537], [-4.528007, 56.358416], [-4.528085, 56.358289], [-4.527805, 56.358006], [-4.527488, 56.357841], [-4.527455, 56.357778], [-4.527299, 56.357716], [-4.527197, 56.357511], [-4.52705, 56.357354], [-4.526923, 56.357335], [-4.526888, 56.357275], [-4.526701, 56.357207], [-4.526339, 56.356942], [-4.526211, 56.356892], [-4.526074, 56.356788], [-4.525829, 56.356358], [-4.525465, 56.356073], [-4.525282, 56.355882], [-4.525169, 56.355672], [-4.524867, 56.35551], [-4.524624, 56.355234], [-4.524579, 56.355106], [-4.524323, 56.354866], [-4.524327, 56.354807], [-4.524259, 56.354757], [-4.524224, 56.354662], [-4.524072, 56.354521], [-4.523956, 56.354281], [-4.52365, 56.353968], [-4.523496, 56.353638], [-4.523301, 56.353463], [-4.523294, 56.353407], [-4.523167, 56.353274], [-4.523016, 56.353187], [-4.522557, 56.352824], [-4.522292, 56.352689], [-4.521583, 56.352234], [-4.520735, 56.351797], [-4.520442, 56.351713], [-4.520361, 56.351663], [-4.52034, 56.351539], [-4.520291, 56.351461], [-4.520193, 56.351423], [-4.520134, 56.351268], [-4.519995, 56.351219], [-4.519992, 56.351185], [-4.51982, 56.351129], [-4.519855, 56.351065], [-4.519838, 56.351012], [-4.519793, 56.35102], [-4.519803, 56.350991], [-4.51997, 56.350929], [-4.519849, 56.350898], [-4.519871, 56.350738], [-4.519976, 56.350715], [-4.519863, 56.350617], [-4.519882, 56.35059], [-4.519807, 56.350549], [-4.519854, 56.350506], [-4.519831, 56.350382], [-4.519869, 56.350364], [-4.519832, 56.350326], [-4.519958, 56.350214], [-4.519917, 56.350171], [-4.519981, 56.350124], [-4.519957, 56.350098], [-4.520135, 56.350016], [-4.520074, 56.349841], [-4.520136, 56.349758], [-4.520111, 56.349637], [-4.520171, 56.349567], [-4.520132, 56.349461], [-4.520047, 56.349436], [-4.520079, 56.349408], [-4.519997, 56.349315], [-4.520014, 56.349248], [-4.51988, 56.349146], [-4.519856, 56.349033], [-4.519912, 56.348878], [-4.519821, 56.348819], [-4.519798, 56.348722], [-4.519886, 56.348587], [-4.519806, 56.348477], [-4.519743, 56.348445], [-4.519843, 56.348292], [-4.519826, 56.348254], [-4.519704, 56.348185], [-4.519677, 56.348088], [-4.519577, 56.348048], [-4.519549, 56.347953], [-4.519462, 56.347892], [-4.519423, 56.347798], [-4.519289, 56.347772], [-4.519301, 56.347739], [-4.519151, 56.34773], [-4.51906, 56.347698], [-4.519225, 56.347703], [-4.519328, 56.347673], [-4.519389, 56.347679], [-4.519594, 56.347608], [-4.519431, 56.347367], [-4.519441, 56.347304], [-4.519313, 56.347211], [-4.519286, 56.347142], [-4.519394, 56.346981], [-4.519364, 56.346938], [-4.519429, 56.34693], [-4.51958, 56.346752], [-4.51968, 56.346704], [-4.519405, 56.346478], [-4.519352, 56.346257], [-4.519285, 56.346177], [-4.51931, 56.346121], [-4.51924, 56.346089], [-4.519178, 56.345904], [-4.519265, 56.345734], [-4.519213, 56.345669], [-4.519269, 56.345618], [-4.519249, 56.345532], [-4.519316, 56.345417], [-4.519288, 56.345341], [-4.519311, 56.345212], [-4.519256, 56.345141], [-4.519263, 56.345084], [-4.519212, 56.345051], [-4.519235, 56.344991], [-4.519184, 56.344869], [-4.519289, 56.344706], [-4.519159, 56.344665], [-4.519172, 56.344601], [-4.519081, 56.344545], [-4.519193, 56.344384], [-4.519203, 56.34428], [-4.51916, 56.344197], [-4.519198, 56.344147], [-4.518956, 56.34406], [-4.518929, 56.344016], [-4.518954, 56.343898], [-4.518918, 56.34383], [-4.519003, 56.343749], [-4.518966, 56.343677], [-4.518882, 56.343637], [-4.518894, 56.343583], [-4.518709, 56.343549], [-4.518728, 56.34341], [-4.518548, 56.343363], [-4.518546, 56.343322], [-4.518472, 56.343291], [-4.518435, 56.343239], [-4.518283, 56.343174], [-4.518266, 56.343071], [-4.518188, 56.34304], [-4.518196, 56.343011], [-4.518295, 56.342973], [-4.518362, 56.342984], [-4.518376, 56.342957], [-4.518458, 56.342977], [-4.518638, 56.34277], [-4.518927, 56.342665], [-4.519224, 56.342488], [-4.519236, 56.342435], [-4.519345, 56.3424], [-4.519364, 56.34237], [-4.519494, 56.34235], [-4.519522, 56.342295], [-4.519789, 56.34222], [-4.52, 56.342195], [-4.520017, 56.342118], [-4.519949, 56.342115], [-4.519946, 56.342097], [-4.519881, 56.342106], [-4.519843, 56.342048], [-4.51987, 56.342021], [-4.519952, 56.342024], [-4.519995, 56.341979], [-4.519908, 56.341887], [-4.520178, 56.341766], [-4.520231, 56.341658], [-4.520272, 56.341627], [-4.520331, 56.341625], [-4.52037, 56.341486], [-4.520438, 56.341459], [-4.520612, 56.34147], [-4.520704, 56.341417], [-4.52066, 56.341359], [-4.520469, 56.341316], [-4.520429, 56.341228], [-4.520386, 56.341216], [-4.520404, 56.341199], [-4.520339, 56.341196], [-4.520363, 56.341175], [-4.520361, 56.341196], [-4.520339, 56.341186], [-4.520311, 56.341131], [-4.520349, 56.341122], [-4.5203, 56.341121], [-4.520323, 56.341083], [-4.520265, 56.341028], [-4.520268, 56.340978], [-4.52015, 56.340974], [-4.520055, 56.340931], [-4.519657, 56.340928], [-4.519576, 56.340854], [-4.519353, 56.340866], [-4.519271, 56.340814], [-4.519148, 56.340847], [-4.5191, 56.340834], [-4.519042, 56.340748], [-4.519053, 56.340662], [-4.519015, 56.3406], [-4.518821, 56.34057], [-4.518811, 56.340545], [-4.518715, 56.340522], [-4.51872, 56.340485], [-4.51877, 56.340471], [-4.518708, 56.340426], [-4.518754, 56.340395], [-4.51876, 56.34032], [-4.518713, 56.340258], [-4.518796, 56.340247], [-4.518712, 56.340212], [-4.518712, 56.340097], [-4.518632, 56.340072], [-4.518662, 56.340059], [-4.51865, 56.340009], [-4.51872, 56.339973], [-4.518657, 56.339956], [-4.518704, 56.339934], [-4.518639, 56.33989], [-4.518678, 56.339889], [-4.518645, 56.339859], [-4.518752, 56.339824], [-4.518648, 56.339813], [-4.518668, 56.339777], [-4.518615, 56.339741], [-4.518559, 56.33974], [-4.518607, 56.339688], [-4.518577, 56.339662], [-4.518619, 56.339637], [-4.518576, 56.339612], [-4.518599, 56.33957], [-4.518534, 56.339544], [-4.518552, 56.339517], [-4.518456, 56.339514], [-4.518414, 56.339458], [-4.518328, 56.339425], [-4.518341, 56.339394], [-4.518218, 56.339354], [-4.518221, 56.33929], [-4.518112, 56.339285], [-4.518122, 56.339264], [-4.518036, 56.339242], [-4.518095, 56.339151], [-4.517971, 56.339111], [-4.517941, 56.339006], [-4.518064, 56.338911], [-4.51815, 56.338903], [-4.518072, 56.338913], [-4.518012, 56.338865], [-4.518189, 56.338782], [-4.518076, 56.338718], [-4.518145, 56.338663], [-4.51817, 56.338583], [-4.51808, 56.338515], [-4.518099, 56.338465], [-4.517987, 56.338458], [-4.517949, 56.338353], [-4.517983, 56.338337], [-4.517861, 56.338331], [-4.517827, 56.338306], [-4.517933, 56.338173], [-4.51786, 56.338128], [-4.517814, 56.338027], [-4.517905, 56.338021], [-4.517945, 56.337995], [-4.517954, 56.337901], [-4.517878, 56.33785], [-4.517969, 56.337785], [-4.517938, 56.337709], [-4.517801, 56.337632], [-4.517853, 56.337583], [-4.517742, 56.337452], [-4.517842, 56.3374], [-4.517689, 56.337317], [-4.517697, 56.337268], [-4.517752, 56.337236], [-4.517687, 56.337186], [-4.51769, 56.337107], [-4.517593, 56.337081], [-4.5176, 56.337029], [-4.517535, 56.336954], [-4.517564, 56.336841], [-4.517504, 56.336822], [-4.517177, 56.336433], [-4.51717, 56.336475], [-4.517213, 56.336392], [-4.517409, 56.336319], [-4.517458, 56.336263], [-4.517396, 56.336166], [-4.51745, 56.336123], [-4.51733, 56.336074], [-4.517421, 56.336019], [-4.51749, 56.33601], [-4.517486, 56.335931], [-4.517371, 56.335898], [-4.517316, 56.335866], [-4.517314, 56.335815], [-4.517224, 56.335785], [-4.51722, 56.33572], [-4.517311, 56.335649], [-4.517306, 56.335591], [-4.517075, 56.335406], [-4.516934, 56.335369], [-4.516891, 56.335318], [-4.51666, 56.335222], [-4.516665, 56.335157], [-4.516767, 56.335101], [-4.516711, 56.335082], [-4.516742, 56.335044], [-4.516634, 56.334972], [-4.516706, 56.33471], [-4.516613, 56.334588], [-4.516645, 56.334517], [-4.516547, 56.334414], [-4.516401, 56.334395], [-4.516373, 56.334274], [-4.516241, 56.334166], [-4.516241, 56.334039], [-4.516339, 56.333935], [-4.516314, 56.333886], [-4.51621, 56.33384], [-4.516103, 56.333746], [-4.51606, 56.333647], [-4.515738, 56.333436], [-4.515799, 56.333339], [-4.515704, 56.333153], [-4.515735, 56.333131], [-4.515831, 56.333142], [-4.515856, 56.333123], [-4.515831, 56.333095], [-4.51585, 56.333112], [-4.515655, 56.333076], [-4.515572, 56.332941], [-4.515638, 56.332939], [-4.515603, 56.332958]]}, "properties": {"name": "1788776245.Down", "cmt": "2026-09-07", "tstamp": 1788739200, "desc": "DownHill", "src": "-4.530109/56.332939/-4.515572/56.365568", "bbox": "-4.530109/56.332939/-4.515572/56.365568"}}, {"type": "Feature", "bbox": [-4.530109, 56.332939, -4.515572, 56.365568], "geometry": {"type": "LineString", "coordinates": [[-4.515604, 56.332956], [-4.515603, 56.332956]]}, "properties": {"name": "1788776245.Down", "cmt": "2026-09-07", "tstamp": 1788739200, "desc": "UpHill", "src": "-4.530109/56.332939/-4.515572/56.365568", "bbox": "-4.530109/56.332939/-4.515572/56.365568"}}]}