{"type": "FeatureCollection", "name": "TrackSet", "crs": {"type": "name", "properties": {"name": "urn:ogc:def:crs:OGC:1.3:CRS84"}}, "bbox": [-2.722182, 56.046769, -2.710122, 56.060538], "features": [{"type": "Feature", "bbox": [-2.722182, 56.046769, -2.710122, 56.060538], "geometry": {"type": "LineString", "coordinates": [[-2.71912, 56.049145], [-2.719018, 56.049047], [-2.719108, 56.04898], [-2.718983, 56.048865], [-2.718998, 56.048839], [-2.718959, 56.048816], [-2.718927, 56.048829], [-2.718905, 56.048683], [-2.718859, 56.048628], [-2.718925, 56.048539], [-2.718896, 56.048459], [-2.719046, 56.048252], [-2.719146, 56.047935], [-2.719124, 56.047869], [-2.719176, 56.047815], [-2.719215, 56.04767], [-2.719159, 56.047621], [-2.719134, 56.047484], [-2.719029, 56.047342], [-2.719018, 56.047269], [-2.718782, 56.047128], [-2.718753, 56.047082], [-2.718815, 56.047118], [-2.718843, 56.047163], [-2.718815, 56.047119], [-2.71865, 56.047031], [-2.718656, 56.046991], [-2.718485, 56.046914], [-2.71847, 56.046877], [-2.718199, 56.046824], [-2.718229, 56.04681], [-2.718194, 56.046851], [-2.718139, 56.046839], [-2.718149, 56.04687], [-2.717942, 56.046835], [-2.717772, 56.046844], [-2.717711, 56.046876], [-2.717587, 56.046871], [-2.717234, 56.046934], [-2.717, 56.046951], [-2.71655, 56.047044], [-2.716369, 56.047041], [-2.716281, 56.047016], [-2.716272, 56.047039], [-2.71634, 56.047066], [-2.71628, 56.047093], [-2.71631, 56.047133], [-2.716245, 56.047177], [-2.716186, 56.047183], [-2.71622, 56.047194], [-2.716074, 56.047312], [-2.716201, 56.047455], [-2.716203, 56.047548], [-2.71614, 56.047577], [-2.716126, 56.047624], [-2.715963, 56.047763], [-2.715899, 56.04791], [-2.715932, 56.04809], [-2.715998, 56.048175], [-2.715838, 56.048244], [-2.715679, 56.04823], [-2.715664, 56.048302], [-2.71556, 56.048351], [-2.715514, 56.048342], [-2.715467, 56.048384], [-2.71542, 56.048382], [-2.715454, 56.048529], [-2.715343, 56.04861], [-2.715288, 56.048703], [-2.715181, 56.048745], [-2.715002, 56.048876], [-2.714921, 56.04891], [-2.714732, 56.048936], [-2.714626, 56.048914], [-2.714645, 56.048895], [-2.714605, 56.048865], [-2.714436, 56.048795], [-2.714358, 56.048788], [-2.714315, 56.048857], [-2.714138, 56.048906], [-2.714125, 56.048842], [-2.713847, 56.048815], [-2.713773, 56.048859], [-2.713763, 56.048908], [-2.713747, 56.048882], [-2.71383, 56.04884], [-2.713764, 56.048788], [-2.713788, 56.048764], [-2.713823, 56.048775], [-2.71379, 56.048799], [-2.713792, 56.048767], [-2.713718, 56.048814], [-2.713747, 56.048819], [-2.713714, 56.048795], [-2.713687, 56.048834], [-2.713816, 56.048821], [-2.713832, 56.048903], [-2.713753, 56.048896], [-2.713627, 56.048938], [-2.713584, 56.048932], [-2.713576, 56.048901], [-2.713482, 56.048885], [-2.713295, 56.048949], [-2.713361, 56.048951], [-2.713298, 56.048957]]}, "properties": {"name": "1788598342.Berwick_Law_hike_after_sea_swim", "cmt": "2026-09-05", "tstamp": 1788566400, "desc": "UpHill", "src": "-2.722182/56.046769/-2.710122/56.060538", "bbox": "-2.722182/56.046769/-2.710122/56.060538"}}, {"type": "Feature", "bbox": [-2.722182, 56.046769, -2.710122, 56.060538], "geometry": {"type": "LineString", "coordinates": [[-2.713272, 56.048957], [-2.713183, 56.048974], [-2.713224, 56.048971], [-2.713214, 56.04894], [-2.713207, 56.048959], [-2.713235, 56.048948], [-2.713289, 56.04898], [-2.713249, 56.048951], [-2.713191, 56.048954], [-2.71312, 56.048994], [-2.713018, 56.049009], [-2.712878, 56.048988], [-2.712826, 56.049008], [-2.712828, 56.049069], [-2.712765, 56.049086], [-2.71276, 56.049054], [-2.712712, 56.049091], [-2.712733, 56.049129], [-2.712669, 56.049074], [-2.712555, 56.049049], [-2.712542, 56.049004], [-2.712484, 56.049152], [-2.712237, 56.049136], [-2.71224, 56.049077], [-2.712213, 56.049116], [-2.712209, 56.049072], [-2.712173, 56.049066], [-2.712045, 56.049115], [-2.711994, 56.049105], [-2.711842, 56.04915], [-2.711631, 56.049132], [-2.711528, 56.049163], [-2.711479, 56.049207], [-2.711037, 56.04928], [-2.710984, 56.049258], [-2.710591, 56.049264], [-2.710369, 56.049348], [-2.710214, 56.049326], [-2.710122, 56.049271], [-2.710175, 56.049195], [-2.710195, 56.049208], [-2.710215, 56.049164], [-2.710234, 56.049187], [-2.710226, 56.049163], [-2.710284, 56.049147], [-2.710402, 56.049039], [-2.710421, 56.048985], [-2.710564, 56.0489], [-2.710546, 56.048876], [-2.710658, 56.048798], [-2.710784, 56.048763], [-2.71078, 56.048702], [-2.710857, 56.04867], [-2.710948, 56.048539], [-2.711225, 56.048377], [-2.711283, 56.048319], [-2.711257, 56.048311], [-2.711393, 56.048259], [-2.711395, 56.048182], [-2.711562, 56.048137], [-2.711866, 56.047973], [-2.712688, 56.047613], [-2.712796, 56.047538], [-2.713136, 56.047498], [-2.713375, 56.047428], [-2.713755, 56.047364], [-2.714143, 56.047317], [-2.71429, 56.047271], [-2.714254, 56.047208], [-2.714337, 56.047136], [-2.715033, 56.046989], [-2.715258, 56.046929], [-2.715357, 56.046873], [-2.715495, 56.046856], [-2.715796, 56.046769], [-2.716476, 56.046831], [-2.717109, 56.046938], [-2.717476, 56.046911], [-2.71762, 56.046873], [-2.717753, 56.046884], [-2.717966, 56.046829], [-2.718168, 56.046841], [-2.718169, 56.046804], [-2.718225, 56.046848], [-2.718332, 56.046826], [-2.71845, 56.046857], [-2.719074, 56.047288], [-2.719202, 56.047615], [-2.719247, 56.047937], [-2.718895, 56.048543], [-2.718871, 56.048678], [-2.718899, 56.048782], [-2.718961, 56.048849], [-2.719012, 56.048859], [-2.718993, 56.048927], [-2.719132, 56.049026], [-2.719118, 56.049073], [-2.719085, 56.049043], [-2.719242, 56.049159], [-2.719412, 56.049374], [-2.719366, 56.049544], [-2.719413, 56.049641], [-2.719398, 56.049845], [-2.719474, 56.050791], [-2.71946, 56.050834], [-2.719385, 56.05086], [-2.719407, 56.050847], [-2.719408, 56.050876], [-2.719354, 56.051], [-2.719298, 56.050986], [-2.719379, 56.051009], [-2.719362, 56.051207], [-2.719161, 56.051569], [-2.719181, 56.051886], [-2.719254, 56.052027], [-2.719253, 56.052181], [-2.719305, 56.052301], [-2.719259, 56.052408], [-2.719309, 56.052788], [-2.719223, 56.052996], [-2.7191, 56.053125], [-2.719122, 56.053252], [-2.719247, 56.053364], [-2.719253, 56.053477], [-2.719077, 56.053825], [-2.719027, 56.054176], [-2.719055, 56.05437], [-2.719157, 56.05451], [-2.719166, 56.05458], [-2.719242, 56.054651], [-2.719286, 56.055004], [-2.71936, 56.055092], [-2.719309, 56.055289], [-2.719581, 56.05545], [-2.719664, 56.055777], [-2.719628, 56.055885], [-2.71967, 56.055938], [-2.719616, 56.055937], [-2.719579, 56.056015], [-2.719381, 56.056047], [-2.719227, 56.056145], [-2.719162, 56.056404], [-2.719086, 56.056507], [-2.718895, 56.056648], [-2.718898, 56.056742], [-2.718674, 56.05695], [-2.718438, 56.057079], [-2.718197, 56.057149], [-2.718111, 56.057201], [-2.717543, 56.057287], [-2.717562, 56.057327], [-2.717297, 56.057398], [-2.717238, 56.057503], [-2.717121, 56.057515], [-2.717103, 56.057566], [-2.71684, 56.057604], [-2.716521, 56.057786], [-2.716716, 56.057958], [-2.71704, 56.05811], [-2.717129, 56.058386], [-2.717234, 56.058527], [-2.71712, 56.058557], [-2.717117, 56.058597], [-2.717191, 56.058637], [-2.717505, 56.058637], [-2.717715, 56.058587], [-2.718082, 56.058599], [-2.718444, 56.058541], [-2.718521, 56.05851], [-2.718658, 56.058511], [-2.718664, 56.058476], [-2.718667, 56.058519], [-2.718555, 56.058408], [-2.718543, 56.05835], [-2.718178, 56.058256], [-2.71887, 56.058167], [-2.71867, 56.058287], [-2.718566, 56.058275], [-2.718545, 56.058228], [-2.718622, 56.058262], [-2.718736, 56.058446], [-2.718811, 56.058474], [-2.718955, 56.058454], [-2.719077, 56.058486], [-2.719135, 56.058456], [-2.71917, 56.058479], [-2.719232, 56.05846], [-2.719213, 56.058482], [-2.719158, 56.05848], [-2.719204, 56.058402], [-2.719273, 56.058616], [-2.719554, 56.058724], [-2.719287, 56.05838], [-2.719317, 56.058345], [-2.719415, 56.058461], [-2.719569, 56.058373], [-2.719668, 56.058391], [-2.719746, 56.058441], [-2.719805, 56.058391], [-2.719849, 56.05842], [-2.719854, 56.058401], [-2.719985, 56.0584], [-2.719969, 56.058383], [-2.720063, 56.058412], [-2.720125, 56.058393], [-2.720364, 56.058454], [-2.719936, 56.058548], [-2.720138, 56.058635], [-2.720324, 56.058545], [-2.720352, 56.058557], [-2.720236, 56.05869], [-2.720353, 56.058708], [-2.720389, 56.058689], [-2.720386, 56.05862], [-2.720327, 56.058686], [-2.7204, 56.058662], [-2.720438, 56.058681], [-2.720399, 56.058658], [-2.720456, 56.058613], [-2.72043, 56.058579], [-2.720525, 56.058624], [-2.720527, 56.058692], [-2.720585, 56.058683], [-2.720527, 56.058642], [-2.7206, 56.058621], [-2.720561, 56.058596], [-2.720585, 56.058551], [-2.720364, 56.058535], [-2.720371, 56.058505], [-2.720403, 56.058507], [-2.720414, 56.058553], [-2.720409, 56.058501], [-2.720314, 56.058538], [-2.720283, 56.058513], [-2.720237, 56.058561], [-2.720545, 56.058709], [-2.720421, 56.058553], [-2.720318, 56.058552], [-2.720267, 56.058517], [-2.720258, 56.058581], [-2.720192, 56.058475], [-2.720257, 56.058534], [-2.720237, 56.058498], [-2.720261, 56.058574], [-2.720181, 56.058573], [-2.720167, 56.058539], [-2.72023, 56.05856], [-2.720229, 56.058535], [-2.720254, 56.058582], [-2.720181, 56.058518], [-2.720188, 56.058477], [-2.720191, 56.058541], [-2.720158, 56.058491], [-2.720186, 56.058508], [-2.720229, 56.058446], [-2.720185, 56.058473], [-2.720006, 56.058446], [-2.720098, 56.05841], [-2.719922, 56.057993], [-2.720051, 56.058174], [-2.720403, 56.058384], [-2.72049, 56.058321], [-2.720939, 56.058279], [-2.721036, 56.058252], [-2.721121, 56.05826], [-2.721342, 56.058191], [-2.721577, 56.058201], [-2.721881, 56.058163], [-2.72206, 56.058345], [-2.722076, 56.058557], [-2.722158, 56.058698], [-2.722182, 56.059062], [-2.722167, 56.059041], [-2.721905, 56.059127], [-2.721569, 56.059162], [-2.721454, 56.059196], [-2.721024, 56.05923], [-2.720632, 56.059317], [-2.720476, 56.059393], [-2.720045, 56.059478], [-2.71968, 56.059604]]}, "properties": {"name": "1788598342.Berwick_Law_hike_after_sea_swim", "cmt": "2026-09-05", "tstamp": 1788566400, "desc": "DownHill", "src": "-2.722182/56.046769/-2.710122/56.060538", "bbox": "-2.722182/56.046769/-2.710122/56.060538"}}, {"type": "Feature", "bbox": [-2.722182, 56.046769, -2.710122, 56.060538], "geometry": {"type": "LineString", "coordinates": [[-2.719656, 56.059609], [-2.719421, 56.059666], [-2.719154, 56.059782], [-2.718505, 56.060172], [-2.718235, 56.060271], [-2.718105, 56.06035], [-2.718012, 56.060455], [-2.718092, 56.060509], [-2.718073, 56.060474], [-2.718004, 56.06048], [-2.71799, 56.060526], [-2.717907, 56.060481], [-2.717896, 56.060445], [-2.717778, 56.060433], [-2.717803, 56.060394], [-2.717422, 56.060474], [-2.717373, 56.060515], [-2.717417, 56.060538], [-2.717378, 56.060532], [-2.717315, 56.060484], [-2.717312, 56.060435], [-2.716616, 56.060139], [-2.716009, 56.059828], [-2.71585, 56.059777], [-2.715958, 56.059712], [-2.715939, 56.059689], [-2.71601, 56.05957], [-2.715982, 56.059311], [-2.716114, 56.058591], [-2.716186, 56.058405], [-2.716152, 56.058366], [-2.716205, 56.05825], [-2.716258, 56.058206], [-2.716354, 56.058182], [-2.716973, 56.058132], [-2.717042, 56.058094], [-2.716955, 56.058085], [-2.716707, 56.057916], [-2.716585, 56.057893], [-2.716501, 56.057813], [-2.716556, 56.057714], [-2.716668, 56.057652], [-2.716831, 56.057616], [-2.716934, 56.057544], [-2.716759, 56.057476], [-2.716579, 56.057468], [-2.716471, 56.057415], [-2.716551, 56.057403], [-2.716567, 56.057421], [-2.71649, 56.057311], [-2.716384, 56.056996], [-2.716159, 56.056852], [-2.716044, 56.056728], [-2.715873, 56.056609], [-2.71571, 56.05643], [-2.715318, 56.056124], [-2.715168, 56.055953], [-2.715101, 56.055796], [-2.715063, 56.055235], [-2.714994, 56.055124], [-2.715028, 56.054832], [-2.715118, 56.054744], [-2.715162, 56.054604], [-2.71516, 56.054308], [-2.715115, 56.054176], [-2.7153, 56.05388], [-2.715294, 56.053765], [-2.715355, 56.053693], [-2.715284, 56.053585], [-2.715304, 56.053428], [-2.715413, 56.053332], [-2.715562, 56.053397], [-2.715498, 56.053374], [-2.715524, 56.053367], [-2.715315, 56.053378], [-2.715277, 56.053346], [-2.7152, 56.053348], [-2.715204, 56.053304], [-2.715314, 56.053299], [-2.715372, 56.053275], [-2.715355, 56.053246], [-2.715434, 56.053248], [-2.715395, 56.053233], [-2.715432, 56.053228], [-2.715433, 56.053183], [-2.715454, 56.053196], [-2.715519, 56.053173], [-2.71556, 56.053105], [-2.715495, 56.053071], [-2.715652, 56.053036], [-2.715735, 56.052917], [-2.71574, 56.052848], [-2.715622, 56.052761], [-2.715627, 56.052652], [-2.715539, 56.052425], [-2.71556, 56.052346], [-2.715487, 56.052297], [-2.715465, 56.052193], [-2.715354, 56.052064], [-2.715283, 56.051745], [-2.715209, 56.051668], [-2.715055, 56.051671], [-2.714923, 56.051539], [-2.714927, 56.051493], [-2.715061, 56.051465], [-2.715313, 56.051494], [-2.715382, 56.051484], [-2.715366, 56.051458], [-2.715455, 56.051477], [-2.715744, 56.051431], [-2.716323, 56.051301], [-2.716469, 56.051293], [-2.716651, 56.051231], [-2.716849, 56.051208], [-2.717245, 56.051106], [-2.71765, 56.051062], [-2.718316, 56.050949], [-2.718542, 56.050956], [-2.718527, 56.050943], [-2.71874, 56.050917], [-2.719467, 56.050871], [-2.719488, 56.050768], [-2.719413, 56.050505], [-2.71943, 56.050258], [-2.719369, 56.049345], [-2.719166, 56.049194], [-2.718952, 56.049095], [-2.718983, 56.049079], [-2.718885, 56.049061], [-2.718989, 56.04904], [-2.719042, 56.049], [-2.719038, 56.048948], [-2.718928, 56.048874], [-2.718963, 56.048825], [-2.718915, 56.048834], [-2.718937, 56.048852], [-2.718901, 56.048835], [-2.718899, 56.048865], [-2.718768, 56.04888], [-2.718648, 56.049018], [-2.718557, 56.049071], [-2.718773, 56.048864], [-2.718968, 56.048811], [-2.719101, 56.04902], [-2.719048, 56.049104]]}, "properties": {"name": "1788598342.Berwick_Law_hike_after_sea_swim", "cmt": "2026-09-05", "tstamp": 1788566400, "desc": "UpHill", "src": "-2.722182/56.046769/-2.710122/56.060538", "bbox": "-2.722182/56.046769/-2.710122/56.060538"}}]}