{"type": "FeatureCollection", "name": "TrackSet", "crs": {"type": "name", "properties": {"name": "urn:ogc:def:crs:OGC:1.3:CRS84"}}, "bbox": [-5.036909, 56.769115, -4.981556, 56.779522], "features": [{"type": "Feature", "bbox": [-5.036909, 56.769115, -4.981556, 56.779522], "geometry": {"type": "LineString", "coordinates": [[-5.036705, 56.76949], [-5.036652, 56.769481], [-5.036638, 56.769527], [-5.036707, 56.769527], [-5.03676, 56.769557], [-5.036749, 56.769581], [-5.036777, 56.76957], [-5.036777, 56.769648], [-5.036643, 56.769776], [-5.036625, 56.76991], [-5.036736, 56.770097], [-5.036825, 56.770381], [-5.036909, 56.770469], [-5.036875, 56.770539], [-5.036578, 56.770685], [-5.036518, 56.770665], [-5.036191, 56.770761], [-5.035804, 56.770821], [-5.034915, 56.770788], [-5.034692, 56.770739], [-5.033654, 56.770768], [-5.033384, 56.770754], [-5.033165, 56.770777], [-5.03276, 56.770763], [-5.032559, 56.770722], [-5.032309, 56.770736], [-5.032086, 56.770799], [-5.031857, 56.770824], [-5.031531, 56.770784], [-5.031, 56.770835], [-5.030644, 56.770818], [-5.030527, 56.770836], [-5.030287, 56.770808], [-5.029919, 56.770816], [-5.029619, 56.770767], [-5.029161, 56.770772], [-5.028772, 56.770807], [-5.028278, 56.770779], [-5.028119, 56.770818], [-5.027445, 56.770878], [-5.026738, 56.771027], [-5.026575, 56.77103], [-5.026249, 56.771095], [-5.026112, 56.771094], [-5.025721, 56.7712], [-5.025515, 56.771208], [-5.025249, 56.771291], [-5.024766, 56.771344], [-5.024494, 56.77134], [-5.024218, 56.771367], [-5.024158, 56.771352], [-5.023637, 56.771444], [-5.023373, 56.771462], [-5.023075, 56.771559], [-5.02277, 56.771603], [-5.022576, 56.771574], [-5.022375, 56.77148], [-5.021952, 56.771464], [-5.021888, 56.771428], [-5.021675, 56.7714], [-5.021564, 56.771344], [-5.0214, 56.771156], [-5.021221, 56.771023], [-5.020992, 56.770634], [-5.020892, 56.77056], [-5.02069, 56.770529], [-5.020296, 56.77056], [-5.019672, 56.770704], [-5.019105, 56.770759], [-5.018888, 56.770752], [-5.018277, 56.770849], [-5.017792, 56.770977], [-5.017496, 56.771019], [-5.017208, 56.771034], [-5.01666, 56.771017], [-5.016387, 56.770969], [-5.015868, 56.770942], [-5.015316, 56.771085], [-5.015226, 56.771152], [-5.014837, 56.771247], [-5.014332, 56.771449], [-5.014092, 56.771594], [-5.013728, 56.771763], [-5.013595, 56.771922], [-5.013462, 56.771997], [-5.012883, 56.77217], [-5.012582, 56.772386], [-5.012425, 56.772581], [-5.012255, 56.7727], [-5.012133, 56.772734], [-5.012079, 56.772693], [-5.011864, 56.772714], [-5.011786, 56.77268], [-5.01175, 56.772694], [-5.011731, 56.772724], [-5.011834, 56.772694], [-5.011931, 56.772723], [-5.01198, 56.772685], [-5.012077, 56.77268], [-5.01212, 56.772719], [-5.012016, 56.772857], [-5.011877, 56.772905], [-5.011479, 56.773146], [-5.010908, 56.773584], [-5.010287, 56.773884], [-5.010102, 56.773942], [-5.010026, 56.774071], [-5.010045, 56.774115], [-5.009923, 56.774144], [-5.009651, 56.774284], [-5.009569, 56.774397], [-5.009326, 56.774545], [-5.00909, 56.774804], [-5.008869, 56.774932], [-5.008637, 56.775145], [-5.008534, 56.775191], [-5.008415, 56.775348], [-5.008002, 56.775588], [-5.007566, 56.775689], [-5.007207, 56.775948], [-5.007044, 56.776013], [-5.00689, 56.776181], [-5.006698, 56.776296], [-5.00652, 56.776352], [-5.006361, 56.776366], [-5.005865, 56.776662], [-5.005454, 56.776759], [-5.005085, 56.776909], [-5.004875, 56.776937], [-5.004714, 56.777005], [-5.003828, 56.777166], [-5.003621, 56.777268], [-5.003491, 56.777279], [-5.003086, 56.777251], [-5.002821, 56.777291], [-5.002523, 56.777297], [-5.002363, 56.777358], [-5.00215, 56.777344], [-5.001776, 56.777362], [-5.001512, 56.777322], [-5.001194, 56.777337], [-5.000929, 56.777392], [-5.000807, 56.77747], [-5.00069, 56.7775], [-5.000669, 56.777543], [-5.000694, 56.777523], [-5.000739, 56.777541], [-5.000705, 56.777556], [-5.00029, 56.777636], [-5.000117, 56.777655], [-5.000088, 56.777637], [-5.000035, 56.77766], [-4.999973, 56.777641], [-4.999656, 56.777643], [-4.999455, 56.77768], [-4.999183, 56.777677], [-4.99889, 56.777594], [-4.998752, 56.777615], [-4.998737, 56.777638], [-4.998653, 56.77762], [-4.99855, 56.777644], [-4.998224, 56.777765], [-4.998006, 56.777891], [-4.997783, 56.777949], [-4.997424, 56.77798], [-4.997219, 56.777912], [-4.997044, 56.777916], [-4.996958, 56.777975], [-4.99682, 56.777997], [-4.9965, 56.777955], [-4.996334, 56.778089], [-4.995863, 56.778225], [-4.99581, 56.778263], [-4.995537, 56.778314], [-4.995328, 56.778445], [-4.994964, 56.778569], [-4.99486, 56.778675], [-4.994765, 56.778701], [-4.994659, 56.778789], [-4.994652, 56.778737], [-4.994622, 56.778735], [-4.9946, 56.778788], [-4.994553, 56.778785], [-4.994449, 56.778869], [-4.994291, 56.778769], [-4.994228, 56.778768], [-4.994129, 56.778854], [-4.993972, 56.778903], [-4.993769, 56.779058], [-4.993528, 56.779117], [-4.993463, 56.779094], [-4.993366, 56.779198], [-4.993256, 56.779254], [-4.993067, 56.779272], [-4.992898, 56.779377], [-4.992751, 56.779365], [-4.992716, 56.779342], [-4.99264, 56.779355], [-4.992504, 56.779312], [-4.992309, 56.779377], [-4.992234, 56.77938], [-4.992104, 56.77945], [-4.99191, 56.779462], [-4.991759, 56.779522], [-4.991635, 56.77948], [-4.991588, 56.779426], [-4.991554, 56.779333], [-4.991611, 56.779203], [-4.991527, 56.779173], [-4.991431, 56.779183], [-4.991442, 56.779099], [-4.991403, 56.779118], [-4.991424, 56.779098], [-4.991374, 56.779079], [-4.991337, 56.778949], [-4.991286, 56.778923], [-4.991329, 56.778728], [-4.991178, 56.7787], [-4.991178, 56.778644], [-4.991096, 56.778589], [-4.991091, 56.778543], [-4.991027, 56.778517], [-4.990946, 56.778525], [-4.990884, 56.778328], [-4.990631, 56.778267], [-4.990634, 56.778223], [-4.990706, 56.778186], [-4.99068, 56.778197], [-4.990685, 56.778135], [-4.9906, 56.778045], [-4.99059, 56.777983], [-4.990508, 56.777914], [-4.990437, 56.777905], [-4.99043, 56.777864], [-4.990345, 56.777865], [-4.990373, 56.777811], [-4.990297, 56.777764], [-4.990162, 56.777747], [-4.99021, 56.777623], [-4.990153, 56.777614], [-4.9903, 56.777557], [-4.990208, 56.777507], [-4.990194, 56.777393], [-4.990151, 56.777379], [-4.990199, 56.777241], [-4.990159, 56.777215], [-4.99026, 56.777152], [-4.990113, 56.777161], [-4.99002, 56.777106], [-4.990061, 56.77708], [-4.989958, 56.777086], [-4.989956, 56.777005], [-4.989861, 56.777008], [-4.989843, 56.776942], [-4.989943, 56.776886], [-4.989811, 56.776818], [-4.989842, 56.776738], [-4.989649, 56.776659], [-4.989645, 56.776625], [-4.989537, 56.776609], [-4.989517, 56.776557], [-4.989414, 56.776556], [-4.989423, 56.776439], [-4.98935, 56.776416], [-4.989348, 56.776347], [-4.989291, 56.776341], [-4.989325, 56.776313], [-4.989297, 56.776313], [-4.989306, 56.776284], [-4.989362, 56.776278], [-4.989192, 56.776206], [-4.98908, 56.776224], [-4.989106, 56.776192], [-4.989046, 56.776177], [-4.989002, 56.77611], [-4.989065, 56.776042], [-4.988895, 56.775911], [-4.988827, 56.775755], [-4.988634, 56.77567], [-4.988583, 56.7756], [-4.98855, 56.775611], [-4.988445, 56.775569], [-4.988394, 56.775479], [-4.988225, 56.775446], [-4.988216, 56.775421], [-4.987926, 56.77541], [-4.987804, 56.775326], [-4.987717, 56.775336], [-4.98742, 56.775254], [-4.987271, 56.775161], [-4.987159, 56.775137], [-4.987074, 56.775067], [-4.987057, 56.774902], [-4.987001, 56.774881], [-4.98692, 56.774765], [-4.986895, 56.774592], [-4.986621, 56.774447], [-4.986608, 56.774414], [-4.986419, 56.774335], [-4.986389, 56.77427], [-4.986336, 56.774282], [-4.986335, 56.774207], [-4.986186, 56.774102], [-4.985833, 56.773976], [-4.985799, 56.773929], [-4.985515, 56.773882], [-4.98539, 56.773814], [-4.985318, 56.773725], [-4.985149, 56.77369], [-4.985072, 56.773612], [-4.984901, 56.773577], [-4.984237, 56.773284], [-4.98413, 56.773286], [-4.984107, 56.773238], [-4.983743, 56.773268], [-4.983617, 56.77324], [-4.983481, 56.773117], [-4.983496, 56.773068], [-4.983241, 56.772848], [-4.983186, 56.772733], [-4.983096, 56.772739], [-4.98295, 56.772688]]}, "properties": {"name": "1788875004.Steall_falls", "cmt": "2026-09-08", "tstamp": 1788825600, "desc": "UpHill", "src": "-5.036909/56.769115/-4.981556/56.779522", "bbox": "-5.036909/56.769115/-4.981556/56.779522"}}, {"type": "Feature", "bbox": [-5.036909, 56.769115, -4.981556, 56.779522], "geometry": {"type": "LineString", "coordinates": [[-4.982946, 56.772687], [-4.982811, 56.772626], [-4.982679, 56.772617], [-4.982475, 56.772536], [-4.982357, 56.772569], [-4.982382, 56.772545], [-4.982353, 56.772557], [-4.982302, 56.77253], [-4.982265, 56.77255], [-4.982159, 56.772541], [-4.982082, 56.772584], [-4.981689, 56.772677], [-4.981621, 56.772776], [-4.981582, 56.772807], [-4.981556, 56.772796], [-4.981602, 56.772749], [-4.981657, 56.772745], [-4.981769, 56.772622], [-4.981814, 56.772649], [-4.982239, 56.772518], [-4.982236, 56.772474], [-4.982432, 56.772374], [-4.982547, 56.772253], [-4.982992, 56.772036], [-4.983129, 56.772011], [-4.983224, 56.772032], [-4.983227, 56.77206], [-4.983298, 56.77198], [-4.983379, 56.771961], [-4.983438, 56.772056], [-4.983454, 56.77204], [-4.983485, 56.772059], [-4.983457, 56.772074], [-4.983383, 56.772068], [-4.983409, 56.772027], [-4.983361, 56.772103], [-4.983361, 56.772076], [-4.983388, 56.77209], [-4.983429, 56.772055], [-4.983388, 56.772074], [-4.983385, 56.772037], [-4.983451, 56.772013], [-4.983407, 56.772058], [-4.983452, 56.772035], [-4.983348, 56.771993], [-4.983303, 56.772019], [-4.98336, 56.771977], [-4.983332, 56.771949], [-4.98333, 56.771973], [-4.983369, 56.771962], [-4.983304, 56.771966], [-4.983441, 56.771931], [-4.983413, 56.772008], [-4.983457, 56.771981], [-4.983359, 56.771991], [-4.983384, 56.771949], [-4.983344, 56.771986], [-4.983384, 56.771997], [-4.983538, 56.771868], [-4.983382, 56.771942], [-4.983426, 56.771928], [-4.983414, 56.771949], [-4.98345, 56.771948], [-4.983367, 56.771964], [-4.983379, 56.77194], [-4.983307, 56.771974], [-4.983327, 56.771987], [-4.98329, 56.771981], [-4.983355, 56.771975], [-4.983397, 56.77193], [-4.983343, 56.771979], [-4.983303, 56.771973], [-4.983393, 56.77199], [-4.983493, 56.771978], [-4.98346, 56.772026], [-4.983483, 56.77206], [-4.983437, 56.772067], [-4.983396, 56.772034], [-4.983429, 56.772018], [-4.983365, 56.771994], [-4.983369, 56.772036], [-4.983253, 56.772146], [-4.983218, 56.772418], [-4.983142, 56.772581], [-4.983272, 56.772911], [-4.983453, 56.773049], [-4.983549, 56.773071], [-4.983526, 56.773135], [-4.983664, 56.773231], [-4.983851, 56.773255], [-4.984095, 56.773239], [-4.984278, 56.773278], [-4.984694, 56.773484], [-4.985008, 56.773568], [-4.985267, 56.773703], [-4.985404, 56.773725], [-4.98546, 56.773865], [-4.985671, 56.773936], [-4.985855, 56.773944], [-4.985954, 56.774023], [-4.986179, 56.774106], [-4.986368, 56.774229], [-4.986356, 56.774278], [-4.986437, 56.77432], [-4.986565, 56.774332], [-4.986609, 56.774383], [-4.986581, 56.774366], [-4.986585, 56.774419], [-4.986633, 56.774431], [-4.986635, 56.774415], [-4.986775, 56.774486], [-4.986946, 56.774641], [-4.986953, 56.774711], [-4.986997, 56.774733], [-4.987099, 56.774933], [-4.987179, 56.774983], [-4.987188, 56.775082], [-4.987259, 56.775112], [-4.987226, 56.775142], [-4.987288, 56.775148], [-4.987371, 56.775203], [-4.987606, 56.775245], [-4.987745, 56.775324], [-4.987892, 56.775363], [-4.988015, 56.775366], [-4.988414, 56.775546], [-4.988549, 56.775569], [-4.988601, 56.775652], [-4.988791, 56.775783], [-4.988817, 56.775873], [-4.989083, 56.775994], [-4.989207, 56.775986], [-4.989178, 56.776154], [-4.989091, 56.776229], [-4.989168, 56.776244], [-4.989141, 56.776257], [-4.989243, 56.776239], [-4.989204, 56.776331], [-4.989276, 56.776307], [-4.989281, 56.77634], [-4.989452, 56.776402], [-4.989517, 56.776511], [-4.989487, 56.776548], [-4.989687, 56.776642], [-4.989778, 56.77665], [-4.989889, 56.776755], [-4.989882, 56.776783], [-4.989967, 56.776837], [-4.989992, 56.77695], [-4.990061, 56.777019], [-4.990033, 56.777028], [-4.990056, 56.777087], [-4.990123, 56.777176], [-4.990167, 56.777188], [-4.99011, 56.777225], [-4.990122, 56.777255], [-4.990159, 56.777253], [-4.990285, 56.777389], [-4.990244, 56.777447], [-4.990267, 56.777554], [-4.990203, 56.777604], [-4.990254, 56.777715], [-4.990383, 56.777765], [-4.990438, 56.777818], [-4.990494, 56.777952], [-4.99057, 56.777974], [-4.990554, 56.778033], [-4.990643, 56.778094], [-4.990621, 56.778122], [-4.990685, 56.77816], [-4.990705, 56.778237], [-4.990772, 56.778236], [-4.990935, 56.778336], [-4.991046, 56.778492], [-4.991145, 56.778559], [-4.991134, 56.778634], [-4.991202, 56.778694], [-4.991223, 56.778768], [-4.991289, 56.778793], [-4.991263, 56.778936], [-4.991402, 56.778959], [-4.99147, 56.779082], [-4.991565, 56.779125], [-4.991744, 56.779313], [-4.991781, 56.779305], [-4.991968, 56.779369], [-4.992184, 56.77935], [-4.992244, 56.779371], [-4.992385, 56.779314], [-4.992577, 56.77929], [-4.993013, 56.779327], [-4.993076, 56.779246], [-4.993267, 56.779159], [-4.993279, 56.779093], [-4.99358, 56.779059], [-4.993668, 56.779016], [-4.993698, 56.778942], [-4.993815, 56.778921], [-4.993972, 56.778832], [-4.994001, 56.778842], [-4.994088, 56.778769], [-4.994279, 56.778755], [-4.994405, 56.778835], [-4.994505, 56.778818], [-4.994553, 56.778723], [-4.994684, 56.778642], [-4.994761, 56.778642], [-4.994894, 56.778564], [-4.99498, 56.778545], [-4.995005, 56.778502], [-4.995086, 56.778495], [-4.995094, 56.778472], [-4.995162, 56.778468], [-4.995242, 56.778413], [-4.995286, 56.778412], [-4.995522, 56.778257], [-4.995895, 56.77819], [-4.996003, 56.778142], [-4.996207, 56.778101], [-4.996274, 56.778059], [-4.996327, 56.777967], [-4.996397, 56.777941], [-4.996593, 56.77791], [-4.996819, 56.77795], [-4.99713, 56.77786], [-4.997447, 56.777946], [-4.997686, 56.777938], [-4.997988, 56.777833], [-4.998068, 56.777761], [-4.998192, 56.777757], [-4.998299, 56.777723], [-4.998453, 56.777619], [-4.998654, 56.777573], [-4.998835, 56.777559], [-4.999358, 56.777657], [-4.999635, 56.777619], [-4.999726, 56.777641], [-4.999958, 56.777625], [-5.000293, 56.777573], [-5.000626, 56.777428], [-5.000794, 56.777402], [-5.000829, 56.777374], [-5.00097, 56.777372], [-5.001327, 56.777307], [-5.001616, 56.777304], [-5.001883, 56.777354], [-5.002239, 56.777319], [-5.002438, 56.777262], [-5.002494, 56.777216], [-5.002644, 56.777199], [-5.003171, 56.777251], [-5.003446, 56.777248], [-5.003769, 56.777106], [-5.004462, 56.776997], [-5.004601, 56.776924], [-5.004798, 56.776919], [-5.004985, 56.776884], [-5.005099, 56.776828], [-5.005346, 56.776789], [-5.005671, 56.776688], [-5.005961, 56.776485], [-5.006272, 56.776361], [-5.006928, 56.775968], [-5.007123, 56.775905], [-5.007238, 56.77579], [-5.007591, 56.775575], [-5.00773, 56.775518], [-5.008055, 56.77545], [-5.008257, 56.775362], [-5.008393, 56.775179], [-5.009322, 56.774566], [-5.009388, 56.77448], [-5.009628, 56.774312], [-5.009666, 56.774248], [-5.009892, 56.774122], [-5.010071, 56.773874], [-5.010215, 56.773812], [-5.010334, 56.773798], [-5.010766, 56.773623], [-5.011054, 56.773444], [-5.011134, 56.773431], [-5.01132, 56.773231], [-5.011527, 56.773125], [-5.01171, 56.77297], [-5.011949, 56.77285], [-5.012125, 56.772684], [-5.012228, 56.772635], [-5.012754, 56.772143], [-5.012976, 56.772066], [-5.013332, 56.771985], [-5.013685, 56.77178], [-5.013701, 56.771721], [-5.013992, 56.771593], [-5.014072, 56.771482], [-5.014284, 56.771407], [-5.014424, 56.771321], [-5.014976, 56.771118], [-5.015125, 56.771104], [-5.015501, 56.770977], [-5.015554, 56.770921], [-5.01556, 56.770813], [-5.015518, 56.770784], [-5.015274, 56.770835], [-5.015157, 56.770751], [-5.015016, 56.770739], [-5.015013, 56.770709], [-5.015055, 56.770764], [-5.015021, 56.770751], [-5.015054, 56.770737], [-5.015021, 56.770733], [-5.015028, 56.770706], [-5.014935, 56.77071], [-5.014982, 56.770636], [-5.01498, 56.770671], [-5.014961, 56.770641], [-5.014924, 56.770664], [-5.014922, 56.77064], [-5.014906, 56.770672], [-5.014898, 56.770652], [-5.014879, 56.770691], [-5.014921, 56.770669], [-5.014952, 56.770688], [-5.015047, 56.770677], [-5.015025, 56.770665], [-5.015018, 56.770684], [-5.015005, 56.770661], [-5.015241, 56.770353], [-5.015331, 56.770315], [-5.015654, 56.769974], [-5.015784, 56.769919], [-5.01595, 56.769887], [-5.016241, 56.769739], [-5.016759, 56.769625], [-5.016832, 56.769572], [-5.016823, 56.769516], [-5.016886, 56.76946], [-5.017141, 56.769419], [-5.017281, 56.769333], [-5.017343, 56.769355], [-5.017449, 56.769314], [-5.017629, 56.769334], [-5.017959, 56.769309], [-5.018431, 56.76923], [-5.018506, 56.769237], [-5.018742, 56.769168], [-5.018921, 56.769189], [-5.019068, 56.769165], [-5.019507, 56.769178], [-5.02004, 56.769115], [-5.020821, 56.769296], [-5.021046, 56.769309], [-5.021118, 56.769336], [-5.021394, 56.769345], [-5.021586, 56.769396], [-5.021649, 56.769402], [-5.02167, 56.769382], [-5.021815, 56.769423], [-5.022087, 56.76942], [-5.022298, 56.769465], [-5.02259, 56.769467], [-5.022698, 56.769506], [-5.022838, 56.769637], [-5.023075, 56.769716], [-5.023418, 56.769897], [-5.023736, 56.76999], [-5.024145, 56.770182], [-5.02421, 56.770343], [-5.024309, 56.770358], [-5.024599, 56.770497], [-5.024896, 56.770568], [-5.025106, 56.77058], [-5.025316, 56.770657], [-5.025436, 56.770661], [-5.025461, 56.77064], [-5.025638, 56.770677], [-5.025734, 56.770723], [-5.026117, 56.770746], [-5.026213, 56.770727], [-5.026352, 56.770744], [-5.026886, 56.770688], [-5.02697, 56.770648], [-5.027143, 56.770648], [-5.027526, 56.770575], [-5.027674, 56.77051], [-5.02801, 56.77043], [-5.028052, 56.770391], [-5.028272, 56.770359], [-5.028324, 56.770296], [-5.028637, 56.77018], [-5.028686, 56.770134], [-5.028799, 56.770126], [-5.028909, 56.770058], [-5.029195, 56.769968], [-5.029555, 56.769901], [-5.029847, 56.76991], [-5.030104, 56.769876], [-5.030358, 56.769888], [-5.030574, 56.769869], [-5.030872, 56.7699], [-5.031073, 56.76989], [-5.031136, 56.769911], [-5.031531, 56.769881], [-5.031873, 56.76991], [-5.031989, 56.769896], [-5.032153, 56.769941], [-5.032568, 56.769998], [-5.032728, 56.770048], [-5.033014, 56.770069], [-5.033309, 56.770153], [-5.033357, 56.770144], [-5.033784, 56.770211], [-5.033976, 56.770269], [-5.034269, 56.770293], [-5.034407, 56.770347], [-5.034994, 56.770421], [-5.035481, 56.770441], [-5.035734, 56.770418], [-5.036555, 56.770266], [-5.036508, 56.770268], [-5.036542, 56.770226], [-5.036662, 56.770237], [-5.036683, 56.770208]]}, "properties": {"name": "1788875004.Steall_falls", "cmt": "2026-09-08", "tstamp": 1788825600, "desc": "DownHill", "src": "-5.036909/56.769115/-4.981556/56.779522", "bbox": "-5.036909/56.769115/-4.981556/56.779522"}}, {"type": "Feature", "bbox": [-5.036909, 56.769115, -4.981556, 56.779522], "geometry": {"type": "LineString", "coordinates": [[-5.036668, 56.770199], [-5.036607, 56.770151], [-5.036512, 56.769906], [-5.036531, 56.769772], [-5.03665, 56.769704], [-5.036695, 56.769638], [-5.036632, 56.769541], [-5.036679, 56.769539]]}, "properties": {"name": "1788875004.Steall_falls", "cmt": "2026-09-08", "tstamp": 1788825600, "desc": "UpHill", "src": "-5.036909/56.769115/-4.981556/56.779522", "bbox": "-5.036909/56.769115/-4.981556/56.779522"}}]}