{"type": "FeatureCollection", "name": "TrackSet", "crs": {"type": "name", "properties": {"name": "urn:ogc:def:crs:OGC:1.3:CRS84"}}, "bbox": [-5.077445, 56.787538, -5.056221, 56.807411], "features": [{"type": "Feature", "bbox": [-5.077445, 56.787538, -5.056221, 56.807411], "geometry": {"type": "LineString", "coordinates": [[-5.073685, 56.805247], [-5.073652, 56.80536], [-5.073498, 56.805446], [-5.073539, 56.805461], [-5.07354, 56.805561], [-5.073661, 56.805609], [-5.074008, 56.805624], [-5.074422, 56.805748], [-5.074801, 56.80588], [-5.075624, 56.806268], [-5.07575, 56.806298], [-5.075858, 56.8064], [-5.076197, 56.80659], [-5.076653, 56.807071], [-5.076899, 56.807263], [-5.076959, 56.807372], [-5.076969, 56.807339], [-5.076964, 56.807368], [-5.077069, 56.807411], [-5.077445, 56.807259], [-5.07743, 56.807317], [-5.077357, 56.807342], [-5.077033, 56.807409], [-5.076984, 56.807394], [-5.076586, 56.807025], [-5.076233, 56.806809], [-5.076108, 56.806634], [-5.076049, 56.806611], [-5.07585, 56.806378], [-5.075668, 56.806289], [-5.075666, 56.806254], [-5.075544, 56.806284], [-5.075531, 56.806318], [-5.075414, 56.806203], [-5.075124, 56.806124], [-5.074581, 56.805855], [-5.07429, 56.805753], [-5.073954, 56.805671], [-5.073573, 56.80563], [-5.073511, 56.805572], [-5.073482, 56.805469], [-5.073613, 56.805197], [-5.073596, 56.805045], [-5.073584, 56.805098], [-5.073606, 56.805063], [-5.073624, 56.805089], [-5.073652, 56.805076], [-5.073598, 56.805104], [-5.073405, 56.805574], [-5.073361, 56.805605], [-5.07308, 56.805615], [-5.072891, 56.80559], [-5.07259, 56.805509], [-5.072277, 56.805477], [-5.071962, 56.805375], [-5.071733, 56.805235], [-5.071648, 56.805101], [-5.071107, 56.804558], [-5.070649, 56.80402], [-5.070581, 56.803803], [-5.070257, 56.803238], [-5.069625, 56.802424], [-5.068856, 56.801706], [-5.068529, 56.80134], [-5.067186, 56.80017], [-5.067031, 56.800066], [-5.067021, 56.799816], [-5.066872, 56.799623], [-5.066959, 56.799197], [-5.066875, 56.798961], [-5.066687, 56.798756], [-5.066497, 56.798347], [-5.066417, 56.798273], [-5.066329, 56.798107], [-5.066138, 56.797935], [-5.06607, 56.797752], [-5.065925, 56.797543], [-5.065315, 56.796968], [-5.064794, 56.796297], [-5.064702, 56.796224], [-5.064334, 56.795578], [-5.064, 56.795305], [-5.063695, 56.795176], [-5.063239, 56.794861], [-5.06297, 56.794586], [-5.062567, 56.794349], [-5.062199, 56.794029], [-5.061802, 56.79375], [-5.061439, 56.793543], [-5.060867, 56.792731], [-5.060299, 56.792111], [-5.060256, 56.792026], [-5.06024, 56.791727], [-5.060177, 56.79164], [-5.060033, 56.791484], [-5.059892, 56.791435], [-5.059833, 56.791385], [-5.059733, 56.791213], [-5.059555, 56.791059], [-5.059485, 56.790871], [-5.059576, 56.790614], [-5.059588, 56.790417], [-5.059512, 56.790222], [-5.059345, 56.790081], [-5.059099, 56.78995], [-5.059003, 56.789816], [-5.058804, 56.789134], [-5.05863, 56.788956], [-5.058129, 56.788562], [-5.057824, 56.788396], [-5.057579, 56.788327], [-5.057569, 56.788301], [-5.057558, 56.788349], [-5.057779, 56.788481], [-5.057812, 56.788471], [-5.057741, 56.788584], [-5.057392, 56.788629], [-5.056544, 56.788546], [-5.056628, 56.788544], [-5.056641, 56.788563], [-5.056716, 56.788541], [-5.056914, 56.788572], [-5.05705, 56.788559], [-5.057389, 56.788629], [-5.057583, 56.788583], [-5.057761, 56.788583], [-5.057733, 56.788584], [-5.057762, 56.788538], [-5.057906, 56.788498], [-5.05785, 56.7885], [-5.057801, 56.788391], [-5.057586, 56.788209], [-5.057131, 56.787961], [-5.056923, 56.787896], [-5.056291, 56.787617], [-5.056221, 56.787538]]}, "properties": {"name": "1788873316.No.1_Glen_Nevis_old_house_when_ski_patroller", "cmt": "2026-09-08", "tstamp": 1788825600, "desc": "---", "src": "-5.077445/56.787538/-5.056221/56.807411", "bbox": "-5.077445/56.787538/-5.056221/56.807411"}}]}