{"type": "FeatureCollection", "name": "TrackSet", "crs": {"type": "name", "properties": {"name": "urn:ogc:def:crs:OGC:1.3:CRS84"}}, "bbox": [-5.11881, 56.814098, -5.105327, 56.82065], "features": [{"type": "Feature", "bbox": [-5.11881, 56.814098, -5.105327, 56.82065], "geometry": {"type": "LineString", "coordinates": [[-5.117911, 56.814718], [-5.118103, 56.814793], [-5.11817, 56.814913], [-5.117741, 56.81468], [-5.117634, 56.814569], [-5.117434, 56.814778], [-5.117444, 56.814825], [-5.11732, 56.815034], [-5.117306, 56.815108], [-5.117412, 56.815297], [-5.117312, 56.815363], [-5.116957, 56.815338], [-5.116517, 56.815604], [-5.116278, 56.815562], [-5.115846, 56.815384], [-5.115447, 56.81564], [-5.115389, 56.815718], [-5.115155, 56.815853], [-5.114966, 56.815911], [-5.114984, 56.815923], [-5.114917, 56.815913], [-5.114874, 56.81598], [-5.114772, 56.81602], [-5.114738, 56.816098], [-5.114301, 56.816275], [-5.114253, 56.816332], [-5.114045, 56.81642], [-5.114008, 56.81646], [-5.113921, 56.81648], [-5.113891, 56.816463], [-5.11388, 56.816527], [-5.113828, 56.81654], [-5.113859, 56.816618], [-5.113654, 56.816482], [-5.1138, 56.816512], [-5.113638, 56.816461], [-5.113709, 56.816472], [-5.113714, 56.816512], [-5.113679, 56.816549], [-5.113603, 56.816567], [-5.113588, 56.816638], [-5.113604, 56.816623], [-5.113582, 56.816633], [-5.113531, 56.816595], [-5.11403, 56.816678], [-5.113679, 56.816642], [-5.113484, 56.816686], [-5.113225, 56.816784], [-5.113203, 56.816826], [-5.112927, 56.81696], [-5.112692, 56.81713], [-5.112635, 56.817137], [-5.112489, 56.817285], [-5.112422, 56.817289], [-5.112065, 56.817465], [-5.111953, 56.817558], [-5.111892, 56.817565], [-5.111861, 56.817613], [-5.111271, 56.81789], [-5.111123, 56.818012], [-5.110975, 56.818059], [-5.110919, 56.818114], [-5.110789, 56.818165], [-5.110766, 56.818207], [-5.110054, 56.818554], [-5.109923, 56.81873], [-5.109817, 56.81881], [-5.109538, 56.818722], [-5.109596, 56.818834], [-5.109561, 56.818945], [-5.109497, 56.818994], [-5.109411, 56.818955], [-5.109422, 56.818997], [-5.109371, 56.818997], [-5.109381, 56.819019], [-5.109045, 56.819233], [-5.109367, 56.819132], [-5.109228, 56.81914], [-5.109035, 56.81927], [-5.109178, 56.819177], [-5.109246, 56.819193], [-5.109282, 56.819172], [-5.109135, 56.819103], [-5.109043, 56.819165], [-5.109079, 56.819124], [-5.109154, 56.819119], [-5.108956, 56.819275], [-5.108871, 56.819282], [-5.108899, 56.819385], [-5.108868, 56.819433], [-5.108743, 56.819423], [-5.108797, 56.819501], [-5.108553, 56.81945], [-5.10848, 56.819471], [-5.108531, 56.819547], [-5.108392, 56.819592], [-5.108595, 56.819669], [-5.108568, 56.81962], [-5.108548, 56.819636], [-5.108277, 56.819575], [-5.10851, 56.819651], [-5.108569, 56.819701], [-5.108521, 56.819707], [-5.10831, 56.819628], [-5.108356, 56.81968], [-5.10825, 56.819675], [-5.108082, 56.819809], [-5.107944, 56.819837], [-5.107929, 56.819871], [-5.107728, 56.819896], [-5.107544, 56.819903], [-5.107545, 56.819886], [-5.107504, 56.81993], [-5.1075, 56.819909], [-5.107437, 56.819918], [-5.107499, 56.819921], [-5.107341, 56.819966], [-5.107322, 56.819987], [-5.107397, 56.819962], [-5.106161, 56.820423], [-5.106034, 56.820464], [-5.105738, 56.820513], [-5.105739, 56.820493], [-5.105327, 56.82065], [-5.105978, 56.820441], [-5.106556, 56.820171], [-5.106586, 56.820167], [-5.106594, 56.820193], [-5.106558, 56.820237], [-5.106621, 56.820228], [-5.107108, 56.819997], [-5.107354, 56.819915], [-5.107506, 56.819837], [-5.107486, 56.819822], [-5.10744, 56.819855], [-5.107595, 56.819783], [-5.107672, 56.819776], [-5.107695, 56.81972], [-5.107502, 56.81992], [-5.107353, 56.819968], [-5.107215, 56.820052], [-5.106813, 56.820346], [-5.106769, 56.820309], [-5.106859, 56.820171], [-5.106973, 56.820136], [-5.10714, 56.819993], [-5.107224, 56.819959], [-5.107513, 56.819937], [-5.10764, 56.819837], [-5.107595, 56.819868], [-5.107632, 56.819855], [-5.107705, 56.819878], [-5.107621, 56.81984], [-5.107571, 56.819848], [-5.107878, 56.819833], [-5.108054, 56.819799], [-5.108034, 56.819732], [-5.108168, 56.819634], [-5.108305, 56.819598], [-5.108305, 56.819471], [-5.108407, 56.819453], [-5.108521, 56.819391], [-5.108624, 56.819378], [-5.108647, 56.819307], [-5.108739, 56.819287], [-5.108974, 56.819291], [-5.109029, 56.819228], [-5.109171, 56.819188], [-5.109324, 56.819107], [-5.109413, 56.819012], [-5.109494, 56.818979], [-5.109489, 56.818937], [-5.109585, 56.818936], [-5.109703, 56.818889], [-5.1097, 56.81886], [-5.109825, 56.818808], [-5.10982, 56.818787], [-5.109981, 56.81875], [-5.110014, 56.81867], [-5.110244, 56.81848], [-5.110261, 56.818403], [-5.11032, 56.818362], [-5.110538, 56.818253], [-5.110597, 56.818258], [-5.110572, 56.81825], [-5.110859, 56.818109], [-5.111046, 56.818065], [-5.111093, 56.818082], [-5.111222, 56.817944], [-5.111271, 56.817946], [-5.111231, 56.817929], [-5.111261, 56.817962], [-5.111235, 56.817941], [-5.111555, 56.817782], [-5.111734, 56.817631], [-5.111787, 56.817611], [-5.111936, 56.817627], [-5.112076, 56.817561], [-5.112092, 56.817497], [-5.112152, 56.817503], [-5.112154, 56.817404], [-5.11278, 56.817067], [-5.112978, 56.816926], [-5.112907, 56.816879], [-5.112929, 56.816892], [-5.112937, 56.816868], [-5.112988, 56.816872], [-5.113158, 56.816791], [-5.113293, 56.816672], [-5.1135, 56.816646], [-5.113668, 56.816563], [-5.113824, 56.816429], [-5.113857, 56.816338], [-5.113966, 56.816296], [-5.1142, 56.816269], [-5.114301, 56.816233], [-5.114804, 56.815931], [-5.114908, 56.815909], [-5.114977, 56.815859], [-5.115186, 56.815816], [-5.115346, 56.815684], [-5.115532, 56.815583], [-5.115559, 56.815519], [-5.115773, 56.81539], [-5.115943, 56.815353], [-5.116168, 56.815501], [-5.116238, 56.815522], [-5.116359, 56.8155], [-5.116556, 56.815586], [-5.11694, 56.815311], [-5.117193, 56.815325], [-5.117361, 56.81529], [-5.117394, 56.815267], [-5.117365, 56.815005], [-5.117417, 56.814769], [-5.11766, 56.814536], [-5.117599, 56.814492], [-5.117656, 56.814573], [-5.117589, 56.814561], [-5.117615, 56.814512], [-5.117497, 56.814478], [-5.117542, 56.814526], [-5.117588, 56.814509], [-5.117555, 56.814503], [-5.117559, 56.814531], [-5.117617, 56.814524], [-5.117577, 56.814477], [-5.117681, 56.814564], [-5.11768, 56.814531], [-5.117835, 56.814481], [-5.118246, 56.814163], [-5.118482, 56.814098], [-5.118644, 56.814109], [-5.11881, 56.814238], [-5.118764, 56.814325], [-5.11848, 56.814554], [-5.117928, 56.814917]]}, "properties": {"name": "1788865086.Fort_William_stroll_in_the_rain", "cmt": "2026-09-08", "tstamp": 1788825600, "desc": "---", "src": "-5.11881/56.814098/-5.105327/56.82065", "bbox": "-5.11881/56.814098/-5.105327/56.82065"}}]}