{"type": "FeatureCollection", "name": "TrackSet", "crs": {"type": "name", "properties": {"name": "urn:ogc:def:crs:OGC:1.3:CRS84"}}, "bbox": [6.193194, 46.328979, 6.202823, 46.33423], "features": [{"type": "Feature", "bbox": [6.193194, 46.328979, 6.202823, 46.33423], "geometry": {"type": "LineString", "coordinates": [[6.194491, 46.331379], [6.194563, 46.33138], [6.19458, 46.331219], [6.194485, 46.331071], [6.194448, 46.3309], [6.194362, 46.33082], [6.194218, 46.330525], [6.194176, 46.330507], [6.193962, 46.330149], [6.193848, 46.330103], [6.193212, 46.33013], [6.193194, 46.329997], [6.193287, 46.329744], [6.193438, 46.32965], [6.193754, 46.329615], [6.194394, 46.329477], [6.194484, 46.32944], [6.194646, 46.329432], [6.194743, 46.329395], [6.194914, 46.329379], [6.194942, 46.329349], [6.19499, 46.32938], [6.195258, 46.329329], [6.195664, 46.329216], [6.195921, 46.329174], [6.196042, 46.329114], [6.196341, 46.329045], [6.196375, 46.328979], [6.196328, 46.329035], [6.196347, 46.329097], [6.19642, 46.329134], [6.196504, 46.329277], [6.197445, 46.330383], [6.198033, 46.331146], [6.198451, 46.331025], [6.198679, 46.330891], [6.198881, 46.330816], [6.199005, 46.330811], [6.199143, 46.330736], [6.199284, 46.330703], [6.199444, 46.330614], [6.19952, 46.330613], [6.199625, 46.330562], [6.200404, 46.330373], [6.200627, 46.330281], [6.201101, 46.330184], [6.201219, 46.330114], [6.20152, 46.330088], [6.201576, 46.330121], [6.201613, 46.330308], [6.201763, 46.330639], [6.201778, 46.330756], [6.201906, 46.330955], [6.202287, 46.332217], [6.202272, 46.332421], [6.202306, 46.332472], [6.202279, 46.332531], [6.20232, 46.332587], [6.202325, 46.332735], [6.202293, 46.332812], [6.202372, 46.33309], [6.202306, 46.333219], [6.202307, 46.333561], [6.202443, 46.333679], [6.202452, 46.333784], [6.202546, 46.33391], [6.20256, 46.334048], [6.2026, 46.33408], [6.202595, 46.334206], [6.202625, 46.33423], [6.202752, 46.334189], [6.20274, 46.334095], [6.202823, 46.333902], [6.202769, 46.333806], [6.202769, 46.333725], [6.202689, 46.333612], [6.202693, 46.333541], [6.202634, 46.33354], [6.20264, 46.333565]]}, "properties": {"name": "1788083704.Walk_to_SUP", "cmt": "2026-08-30", "tstamp": 1788048000, "desc": "---", "src": "6.193194/46.328979/6.202823/46.33423", "bbox": "6.193194/46.328979/6.202823/46.33423"}}]}