{"type": "FeatureCollection", "name": "TrackSet", "crs": {"type": "name", "properties": {"name": "urn:ogc:def:crs:OGC:1.3:CRS84"}}, "bbox": [-5.045187, 56.79441, -4.98661, 56.842148], "features": [{"type": "Feature", "bbox": [-5.045187, 56.79441, -4.98661, 56.842148], "geometry": {"type": "LineString", "coordinates": [[-5.042945, 56.841801], [-5.04294, 56.841779], [-5.042942, 56.841814], [-5.042873, 56.841825], [-5.042906, 56.841805], [-5.042957, 56.841828], [-5.042923, 56.841777], [-5.042846, 56.841735], [-5.042718, 56.841714], [-5.04268, 56.841657], [-5.0428, 56.841634], [-5.042712, 56.841643], [-5.042549, 56.84149], [-5.042389, 56.841438], [-5.042295, 56.841298], [-5.042051, 56.841181], [-5.041871, 56.841022], [-5.041701, 56.840953], [-5.041473, 56.840762], [-5.041238, 56.840703], [-5.041089, 56.840716], [-5.040927, 56.840623], [-5.040938, 56.840554], [-5.041044, 56.84045], [-5.041031, 56.840318], [-5.041148, 56.840245], [-5.041186, 56.840169], [-5.04125, 56.840147], [-5.041312, 56.84], [-5.041444, 56.8399], [-5.041513, 56.839614], [-5.041487, 56.839545], [-5.041558, 56.839446], [-5.041495, 56.839359], [-5.041573, 56.839181], [-5.041534, 56.839092], [-5.041559, 56.838995], [-5.041434, 56.838919], [-5.041454, 56.838888], [-5.041417, 56.838904], [-5.041226, 56.838884], [-5.040987, 56.838898], [-5.040915, 56.838853], [-5.040694, 56.838888], [-5.040464, 56.838858], [-5.040174, 56.838892], [-5.039975, 56.838845], [-5.039855, 56.838857], [-5.03987, 56.838841], [-5.039804, 56.838865], [-5.039758, 56.838843], [-5.039661, 56.838847], [-5.039577, 56.8388], [-5.039514, 56.83871], [-5.039538, 56.838621], [-5.039539, 56.838637], [-5.039601, 56.838614], [-5.039583, 56.838573], [-5.039636, 56.838507], [-5.039512, 56.838419], [-5.039547, 56.838357], [-5.039499, 56.83834], [-5.03952, 56.838358], [-5.039557, 56.838344], [-5.039548, 56.838281], [-5.039388, 56.838217], [-5.039262, 56.838211], [-5.039234, 56.838187], [-5.039272, 56.838145], [-5.039208, 56.838139], [-5.039294, 56.838085], [-5.039212, 56.838043], [-5.039251, 56.837944], [-5.0392, 56.837852], [-5.039276, 56.837742], [-5.039265, 56.837676], [-5.039223, 56.837658], [-5.039327, 56.837586], [-5.039317, 56.837477], [-5.039423, 56.837348], [-5.039684, 56.837358], [-5.03973, 56.837124], [-5.039666, 56.836988], [-5.039714, 56.836957], [-5.039691, 56.836922], [-5.039785, 56.836884], [-5.0398, 56.83682], [-5.03992, 56.836745], [-5.039973, 56.836721], [-5.039982, 56.836749], [-5.039914, 56.836692], [-5.039884, 56.836707], [-5.039933, 56.836639], [-5.039894, 56.836607], [-5.039954, 56.836577], [-5.039984, 56.836598], [-5.039899, 56.836443], [-5.03992, 56.836402], [-5.039959, 56.836388], [-5.039996, 56.836424], [-5.039994, 56.836398], [-5.040071, 56.836361], [-5.040103, 56.836319], [-5.040065, 56.836288], [-5.040119, 56.836252], [-5.039987, 56.836217], [-5.040007, 56.836239], [-5.039999, 56.836168], [-5.040065, 56.836144], [-5.039998, 56.836146], [-5.039998, 56.836038], [-5.039969, 56.836013], [-5.039943, 56.836023], [-5.040017, 56.835919], [-5.039991, 56.83589], [-5.0401, 56.835813], [-5.040317, 56.835805], [-5.040403, 56.83583], [-5.040388, 56.835765], [-5.04047, 56.835735], [-5.040485, 56.835771], [-5.04047, 56.835719], [-5.040511, 56.835738], [-5.040504, 56.835666], [-5.040665, 56.835522], [-5.04068, 56.835448], [-5.04102, 56.835394], [-5.041151, 56.835284], [-5.041449, 56.835224], [-5.041604, 56.835108], [-5.041766, 56.835109], [-5.04181, 56.835044], [-5.04176, 56.834998], [-5.041837, 56.834997], [-5.04187, 56.834958], [-5.041824, 56.834819], [-5.041889, 56.834783], [-5.041949, 56.834689], [-5.042055, 56.834669], [-5.042142, 56.834546], [-5.042087, 56.834496], [-5.042124, 56.834475], [-5.042014, 56.8344], [-5.042097, 56.834203], [-5.042006, 56.833937], [-5.042022, 56.833723], [-5.041982, 56.833645], [-5.042025, 56.833578], [-5.04197, 56.833525], [-5.041745, 56.833458], [-5.041693, 56.833394], [-5.041538, 56.833336], [-5.041344, 56.833338], [-5.041087, 56.833385], [-5.040853, 56.833365], [-5.040614, 56.833405], [-5.040293, 56.833422], [-5.040155, 56.833459], [-5.039898, 56.833407], [-5.039784, 56.833277], [-5.039698, 56.833255], [-5.039538, 56.833297], [-5.03943, 56.833281], [-5.03921, 56.833354], [-5.039136, 56.833327], [-5.03907, 56.833362], [-5.038883, 56.833374], [-5.038732, 56.833351], [-5.038622, 56.833306], [-5.03842, 56.833135], [-5.038241, 56.833055], [-5.038206, 56.832963], [-5.038387, 56.832688], [-5.038368, 56.832583], [-5.038417, 56.832291], [-5.038516, 56.832107], [-5.038513, 56.831883], [-5.038545, 56.831903], [-5.038553, 56.831887], [-5.038544, 56.831676], [-5.03859, 56.83152], [-5.038489, 56.831261], [-5.038191, 56.830968], [-5.038092, 56.830737], [-5.03797, 56.830582], [-5.037916, 56.83038], [-5.037835, 56.830279], [-5.037781, 56.830249], [-5.037346, 56.830206], [-5.037079, 56.830143], [-5.037066, 56.830077], [-5.037295, 56.829875], [-5.037326, 56.829727], [-5.03727, 56.829648], [-5.0373, 56.829616], [-5.037114, 56.829574], [-5.036932, 56.829499], [-5.036832, 56.829264], [-5.036668, 56.829152], [-5.03644, 56.829062], [-5.036285, 56.829032], [-5.036167, 56.829042], [-5.036123, 56.828973], [-5.036068, 56.828963], [-5.036005, 56.828899], [-5.035833, 56.82861], [-5.035739, 56.828527], [-5.035479, 56.828387], [-5.035452, 56.828344], [-5.035305, 56.828303], [-5.034865, 56.828106], [-5.03483, 56.82805], [-5.034859, 56.827985], [-5.034714, 56.827798], [-5.034313, 56.827611], [-5.034286, 56.8275], [-5.034368, 56.827391], [-5.034265, 56.827294], [-5.03431, 56.827225], [-5.034301, 56.827103], [-5.034089, 56.826787], [-5.03377, 56.826663], [-5.033723, 56.826571], [-5.03365, 56.826525], [-5.03348, 56.826482], [-5.03331, 56.82638], [-5.033162, 56.826338], [-5.033037, 56.826243], [-5.032692, 56.826162], [-5.032504, 56.826057], [-5.032449, 56.825972], [-5.03234, 56.825937], [-5.032289, 56.825887], [-5.032282, 56.825766], [-5.032195, 56.825689], [-5.032159, 56.825583], [-5.031963, 56.825385], [-5.031821, 56.825357], [-5.031658, 56.825284], [-5.031574, 56.82522], [-5.031532, 56.825127], [-5.031359, 56.825015], [-5.031042, 56.824883], [-5.030946, 56.824876], [-5.030914, 56.824822], [-5.030267, 56.824576], [-5.030172, 56.824501], [-5.030016, 56.824474], [-5.029722, 56.82435], [-5.029584, 56.82435], [-5.029481, 56.82438], [-5.029472, 56.82434], [-5.029309, 56.824337], [-5.029283, 56.82431], [-5.029228, 56.824322], [-5.029215, 56.824302], [-5.028998, 56.824283], [-5.028909, 56.824212], [-5.028686, 56.824127], [-5.028545, 56.82413], [-5.028286, 56.82408], [-5.028149, 56.824082], [-5.028184, 56.824112], [-5.028168, 56.824158], [-5.028066, 56.824177], [-5.028031, 56.824155], [-5.027973, 56.824161], [-5.027898, 56.824134], [-5.0278, 56.823993], [-5.027708, 56.823988], [-5.027691, 56.823963], [-5.027441, 56.823956], [-5.027232, 56.823887], [-5.027008, 56.823865], [-5.026724, 56.823772], [-5.02635, 56.823755], [-5.026234, 56.823706], [-5.026053, 56.823747], [-5.025891, 56.823608], [-5.02579, 56.823619], [-5.025766, 56.823642], [-5.025619, 56.823589], [-5.025434, 56.823597], [-5.025382, 56.82362], [-5.025099, 56.823585], [-5.02505, 56.823599], [-5.024877, 56.823544], [-5.024718, 56.823579], [-5.024367, 56.823485], [-5.024213, 56.823492], [-5.023863, 56.823274], [-5.023715, 56.823253], [-5.023617, 56.823277], [-5.023506, 56.82327], [-5.023199, 56.823204], [-5.023229, 56.823179], [-5.023069, 56.823174], [-5.022967, 56.823196], [-5.022748, 56.823159], [-5.022654, 56.823068], [-5.022516, 56.823058], [-5.022396, 56.822968], [-5.022049, 56.822931], [-5.02204, 56.822899], [-5.021979, 56.8229], [-5.021876, 56.822846], [-5.021704, 56.82284], [-5.021602, 56.82279], [-5.021382, 56.822767], [-5.021325, 56.822713], [-5.021256, 56.822711], [-5.021081, 56.822648], [-5.021022, 56.822671], [-5.020936, 56.822665], [-5.020851, 56.822617], [-5.020594, 56.822578], [-5.020515, 56.822599], [-5.020398, 56.82258], [-5.02025, 56.822593], [-5.020102, 56.822561], [-5.02006, 56.82251], [-5.019886, 56.822464], [-5.019752, 56.822472], [-5.019681, 56.82245], [-5.019642, 56.822403], [-5.019569, 56.822396], [-5.019495, 56.822351], [-5.019369, 56.822352], [-5.019316, 56.822299], [-5.018881, 56.822239], [-5.018692, 56.822158], [-5.018584, 56.822172], [-5.018456, 56.822156], [-5.018378, 56.822124], [-5.018358, 56.822078], [-5.018221, 56.822041], [-5.018197, 56.821975], [-5.018145, 56.821972], [-5.018161, 56.821918], [-5.018086, 56.821874], [-5.018066, 56.821742], [-5.017919, 56.821655], [-5.017838, 56.821639], [-5.017818, 56.821611], [-5.017858, 56.821594], [-5.017862, 56.821547], [-5.017794, 56.821474], [-5.017491, 56.821426], [-5.017456, 56.821367], [-5.017215, 56.821308], [-5.017108, 56.821241], [-5.016985, 56.821236], [-5.016822, 56.821188], [-5.016768, 56.821143], [-5.016798, 56.821137], [-5.016721, 56.821122], [-5.016765, 56.82113], [-5.016729, 56.821123], [-5.016738, 56.821145], [-5.016747, 56.821116], [-5.016731, 56.821134], [-5.016697, 56.821108], [-5.016667, 56.821118], [-5.0166, 56.821066], [-5.016538, 56.821066], [-5.016454, 56.821021], [-5.016198, 56.821018], [-5.016009, 56.820912], [-5.015912, 56.820927], [-5.01585, 56.820868], [-5.015713, 56.820861], [-5.015704, 56.820831], [-5.015457, 56.820768], [-5.015352, 56.820704], [-5.015268, 56.820695], [-5.0152, 56.820638], [-5.014986, 56.82062], [-5.014885, 56.820581], [-5.014686, 56.82032], [-5.014504, 56.820208], [-5.014383, 56.820051], [-5.014315, 56.820011], [-5.014085, 56.819973], [-5.014023, 56.819934], [-5.013989, 56.819945], [-5.013791, 56.819858], [-5.013575, 56.819674], [-5.013572, 56.819629], [-5.013504, 56.819598], [-5.013477, 56.819546], [-5.01327, 56.819561], [-5.013225, 56.819486], [-5.013159, 56.819462], [-5.013023, 56.819488], [-5.012921, 56.819475], [-5.012932, 56.819435], [-5.012802, 56.819285], [-5.01275, 56.819234], [-5.012647, 56.819202], [-5.012597, 56.819137], [-5.012511, 56.819134], [-5.012399, 56.819082], [-5.012184, 56.819156], [-5.011862, 56.819088], [-5.011874, 56.819052], [-5.011827, 56.819009], [-5.011882, 56.818971], [-5.011869, 56.818925], [-5.011672, 56.818821], [-5.011675, 56.818791], [-5.011571, 56.818777], [-5.011522, 56.818725], [-5.011411, 56.818688], [-5.011402, 56.818509], [-5.011328, 56.818497], [-5.011124, 56.818301], [-5.011009, 56.818279], [-5.010871, 56.818009], [-5.010767, 56.81794], [-5.010714, 56.817822], [-5.010652, 56.817801], [-5.010557, 56.817682], [-5.010398, 56.817653], [-5.010251, 56.817551], [-5.010007, 56.817528], [-5.009827, 56.817412], [-5.009572, 56.817323], [-5.009484, 56.817252], [-5.009385, 56.817299], [-5.009229, 56.817211], [-5.008803, 56.817081], [-5.008515, 56.81708], [-5.008355, 56.817043], [-5.008076, 56.817076], [-5.007961, 56.817049], [-5.007798, 56.81706], [-5.007691, 56.817023], [-5.007666, 56.816984], [-5.007159, 56.816876], [-5.007002, 56.816761], [-5.006746, 56.816739], [-5.006668, 56.816763], [-5.006653, 56.816682], [-5.006538, 56.816693], [-5.006513, 56.816648], [-5.006373, 56.81662], [-5.006318, 56.816575], [-5.006157, 56.81656], [-5.006053, 56.816495], [-5.006027, 56.816524], [-5.005626, 56.816534], [-5.005392, 56.816605], [-5.005272, 56.816589], [-5.005237, 56.816505], [-5.005069, 56.81643], [-5.005094, 56.81639], [-5.004996, 56.8164], [-5.004793, 56.816369], [-5.004763, 56.816398], [-5.004658, 56.816379], [-5.004513, 56.816421], [-5.004425, 56.816405], [-5.004173, 56.816279], [-5.004103, 56.816291], [-5.003978, 56.816242], [-5.003774, 56.816209], [-5.003675, 56.816147], [-5.003574, 56.816152], [-5.003377, 56.816093], [-5.003352, 56.816054], [-5.003216, 56.815995], [-5.003109, 56.815997], [-5.003035, 56.81596], [-5.002793, 56.815974], [-5.002614, 56.815919], [-5.0025, 56.815851], [-5.002433, 56.815851], [-5.002004, 56.81566], [-5.001818, 56.815619], [-5.001742, 56.815649], [-5.001662, 56.815633], [-5.001494, 56.815526], [-5.001474, 56.815456], [-5.00143, 56.815473], [-5.001379, 56.815441], [-5.001433, 56.815434], [-5.001324, 56.815394], [-5.001334, 56.815363], [-5.001238, 56.815273], [-5.001102, 56.815242], [-5.000876, 56.815079], [-5.000762, 56.815067], [-5.00055, 56.814991], [-5.000469, 56.814911], [-5.000363, 56.814896], [-5.000312, 56.814911], [-5.000123, 56.814841], [-5.000187, 56.814584], [-5.000247, 56.814545], [-5.000127, 56.814424], [-4.999751, 56.814172], [-4.999664, 56.814044], [-4.999207, 56.813729], [-4.999095, 56.813588], [-4.998958, 56.813533], [-4.998629, 56.813306], [-4.998282, 56.812979], [-4.998092, 56.812941], [-4.997857, 56.812846], [-4.99741, 56.812597], [-4.997332, 56.812627], [-4.997272, 56.812608], [-4.997008, 56.812393], [-4.99681, 56.812351], [-4.996774, 56.81229], [-4.996722, 56.812273], [-4.996528, 56.811971], [-4.996448, 56.811926], [-4.996454, 56.811889], [-4.996278, 56.811774], [-4.996238, 56.811676], [-4.996037, 56.811627], [-4.996001, 56.81168], [-4.995947, 56.811659], [-4.995911, 56.81167], [-4.995875, 56.811632], [-4.995812, 56.81169], [-4.995713, 56.811689], [-4.995704, 56.811661], [-4.995657, 56.811676], [-4.995622, 56.811653], [-4.99565, 56.811633], [-4.995603, 56.811592], [-4.99551, 56.811578], [-4.995436, 56.811535], [-4.995386, 56.811613], [-4.99535, 56.811585], [-4.995284, 56.811642], [-4.995147, 56.81169], [-4.995058, 56.81161], [-4.995089, 56.811527], [-4.995004, 56.811415], [-4.994613, 56.811174], [-4.994583, 56.81116], [-4.994577, 56.811195], [-4.994528, 56.811205], [-4.994454, 56.811137], [-4.994357, 56.81111], [-4.994271, 56.811025], [-4.994164, 56.811], [-4.994118, 56.811023], [-4.994094, 56.810989], [-4.993944, 56.810982], [-4.993855, 56.810918], [-4.993804, 56.810921], [-4.993749, 56.810876], [-4.993635, 56.810854], [-4.993551, 56.810783], [-4.99317, 56.810685], [-4.993056, 56.810676], [-4.993011, 56.810624], [-4.992921, 56.810603], [-4.992706, 56.810455], [-4.99224, 56.810336], [-4.992131, 56.810387], [-4.992017, 56.810369], [-4.991979, 56.810408], [-4.991784, 56.810477], [-4.991635, 56.810448], [-4.991443, 56.810515], [-4.991276, 56.810429], [-4.991182, 56.810344], [-4.990872, 56.810182], [-4.99072, 56.810133], [-4.990618, 56.810037], [-4.990433, 56.809948], [-4.990358, 56.809944], [-4.990171, 56.809858], [-4.989948, 56.80982], [-4.989755, 56.80974], [-4.989675, 56.80976], [-4.989512, 56.809709], [-4.989475, 56.809707], [-4.989433, 56.809745], [-4.989319, 56.809731], [-4.989305, 56.809708], [-4.989279, 56.809722], [-4.989376, 56.809626], [-4.989392, 56.809554], [-4.989515, 56.80952], [-4.989474, 56.809289], [-4.989537, 56.809245], [-4.98957, 56.809147], [-4.989634, 56.809127], [-4.989562, 56.80898], [-4.989614, 56.808936], [-4.989608, 56.808878], [-4.989664, 56.808845], [-4.989634, 56.808758], [-4.989718, 56.80856], [-4.989568, 56.808229], [-4.989584, 56.808189], [-4.989415, 56.808051], [-4.989386, 56.80798], [-4.989206, 56.807844], [-4.988928, 56.807361], [-4.98883, 56.807281], [-4.988731, 56.807274], [-4.988572, 56.807131], [-4.988578, 56.807085], [-4.988498, 56.806976], [-4.988405, 56.806932], [-4.988281, 56.806919], [-4.988248, 56.806844], [-4.988094, 56.806803], [-4.988028, 56.806584], [-4.987868, 56.806488], [-4.987869, 56.806452], [-4.987616, 56.80634], [-4.987511, 56.80627], [-4.987501, 56.806227], [-4.987321, 56.806141], [-4.98732, 56.806093], [-4.987244, 56.806061], [-4.987184, 56.805944], [-4.987112, 56.805905], [-4.987071, 56.80576], [-4.986848, 56.8056], [-4.986822, 56.805515], [-4.986649, 56.805381], [-4.98666, 56.805269], [-4.98661, 56.805248]]}, "properties": {"name": "1788936670.Ben_Nevis_via_the_CMD_arete_and_back_down_via_the_CIC_famous_hut", "cmt": "2026-09-09", "tstamp": 1788912000, "desc": "UpHill", "src": "-5.045187/56.79441/-4.98661/56.842148", "bbox": "-5.045187/56.79441/-4.98661/56.842148"}}, {"type": "Feature", "bbox": [-5.045187, 56.79441, -4.98661, 56.842148], "geometry": {"type": "LineString", "coordinates": [[-4.986613, 56.805248], [-4.986656, 56.805247], [-4.986703, 56.805179], [-4.986774, 56.805182], [-4.986779, 56.805155], [-4.986877, 56.805128], [-4.986874, 56.805069], [-4.986929, 56.805019], [-4.987099, 56.805067], [-4.987118, 56.804973], [-4.987187, 56.804954], [-4.987196, 56.804927], [-4.987114, 56.804864], [-4.987174, 56.804806], [-4.987125, 56.804748], [-4.987191, 56.804674], [-4.987171, 56.804573], [-4.987328, 56.804372], [-4.98726, 56.804312], [-4.987307, 56.80427], [-4.987279, 56.804217], [-4.987318, 56.804203], [-4.987309, 56.804059], [-4.987421, 56.803948], [-4.987417, 56.803838], [-4.987503, 56.803735], [-4.987469, 56.803686], [-4.987503, 56.803639], [-4.987527, 56.803688], [-4.98757, 56.803628], [-4.987498, 56.803504], [-4.987552, 56.803506], [-4.987486, 56.803468], [-4.987539, 56.803464], [-4.98755, 56.803419], [-4.987515, 56.803394], [-4.987552, 56.803353], [-4.987529, 56.803274], [-4.987485, 56.803239], [-4.987521, 56.803188], [-4.987449, 56.803122], [-4.987525, 56.803066], [-4.987456, 56.803037], [-4.987462, 56.802901], [-4.98736, 56.802788], [-4.987395, 56.802608], [-4.987335, 56.802584], [-4.987327, 56.802512], [-4.987372, 56.802434], [-4.987311, 56.802428], [-4.987282, 56.802352], [-4.987314, 56.802346], [-4.987254, 56.802321], [-4.987253, 56.802289], [-4.987318, 56.802283], [-4.987269, 56.802259], [-4.987283, 56.802228], [-4.987325, 56.802229], [-4.987308, 56.80218], [-4.987351, 56.802183], [-4.987282, 56.802072], [-4.987327, 56.802002], [-4.987293, 56.801978], [-4.987307, 56.801902], [-4.987266, 56.801902], [-4.987303, 56.801748], [-4.987238, 56.801731], [-4.987198, 56.801691], [-4.987218, 56.801653], [-4.987178, 56.801641], [-4.987197, 56.801522], [-4.987146, 56.801401], [-4.987191, 56.80135], [-4.987154, 56.80121], [-4.987092, 56.801139], [-4.987133, 56.801106], [-4.987079, 56.801051], [-4.987139, 56.801025], [-4.987017, 56.800863], [-4.987037, 56.800773], [-4.987002, 56.800781], [-4.987027, 56.80076], [-4.98699, 56.800739], [-4.987026, 56.800673], [-4.986988, 56.800655], [-4.987031, 56.800588], [-4.987008, 56.80053], [-4.986933, 56.800485], [-4.98695, 56.80039], [-4.98685, 56.800312], [-4.986926, 56.800289], [-4.986955, 56.800246], [-4.98688, 56.800212], [-4.986928, 56.8002], [-4.986953, 56.800133], [-4.987016, 56.800107], [-4.986985, 56.800113], [-4.986984, 56.800094], [-4.987099, 56.799881], [-4.987122, 56.799693], [-4.987271, 56.799523], [-4.987256, 56.799483], [-4.98739, 56.799355], [-4.987371, 56.799316], [-4.987425, 56.799245], [-4.987342, 56.799232], [-4.98737, 56.799165], [-4.987491, 56.799112], [-4.987499, 56.798994], [-4.987573, 56.798967], [-4.987651, 56.798889], [-4.987695, 56.798792], [-4.98785, 56.798705], [-4.987821, 56.798669], [-4.987885, 56.798552], [-4.988116, 56.798447], [-4.988165, 56.798393], [-4.988144, 56.798366], [-4.988352, 56.798286], [-4.988336, 56.798257], [-4.988436, 56.798181], [-4.988505, 56.798154], [-4.988539, 56.798176], [-4.988569, 56.798161], [-4.988585, 56.798119], [-4.988904, 56.797936], [-4.988931, 56.797878], [-4.989003, 56.797869], [-4.989008, 56.797845], [-4.989135, 56.797799]]}, "properties": {"name": "1788936670.Ben_Nevis_via_the_CMD_arete_and_back_down_via_the_CIC_famous_hut", "cmt": "2026-09-09", "tstamp": 1788912000, "desc": "DownHill", "src": "-5.045187/56.79441/-4.98661/56.842148", "bbox": "-5.045187/56.79441/-4.98661/56.842148"}}, {"type": "Feature", "bbox": [-5.045187, 56.79441, -4.98661, 56.842148], "geometry": {"type": "LineString", "coordinates": [[-4.989144, 56.797792], [-4.989405, 56.797688], [-4.989526, 56.797547], [-4.989714, 56.797477], [-4.989843, 56.797395], [-4.989986, 56.797357], [-4.990008, 56.797318], [-4.990279, 56.797182], [-4.990317, 56.797122], [-4.990381, 56.797111], [-4.990605, 56.796963], [-4.990759, 56.796931], [-4.990824, 56.79688], [-4.990881, 56.796875], [-4.990881, 56.79685], [-4.990994, 56.79682], [-4.991074, 56.796672], [-4.991178, 56.796647], [-4.99116, 56.796625], [-4.991265, 56.796558], [-4.99134, 56.796556], [-4.991364, 56.796577], [-4.991362, 56.796561], [-4.991445, 56.796558], [-4.991619, 56.796392], [-4.991771, 56.796314], [-4.991871, 56.796195], [-4.992, 56.796146], [-4.992056, 56.796076], [-4.992298, 56.795928], [-4.992388, 56.795809], [-4.992633, 56.795746], [-4.992759, 56.795683], [-4.992844, 56.795679], [-4.992978, 56.79556], [-4.993072, 56.795543], [-4.993085, 56.795496], [-4.993162, 56.795487], [-4.993225, 56.795444], [-4.993296, 56.795426], [-4.993349, 56.795465], [-4.993411, 56.795437], [-4.993436, 56.795454], [-4.993407, 56.795446], [-4.993448, 56.795432], [-4.993604, 56.795428], [-4.993626, 56.795397], [-4.993835, 56.795314], [-4.993935, 56.795166], [-4.993933, 56.795011], [-4.994037, 56.794916], [-4.994103, 56.794897], [-4.994199, 56.794747], [-4.994288, 56.794745], [-4.994343, 56.794624], [-4.994426, 56.794595], [-4.994483, 56.79452], [-4.994543, 56.794508], [-4.994619, 56.794435], [-4.994703, 56.794424], [-4.99478, 56.79444], [-4.994805, 56.794422], [-4.9951, 56.79441], [-4.995288, 56.794457], [-4.99548, 56.794451], [-4.995676, 56.794532], [-4.9959, 56.79454], [-4.996009, 56.794586], [-4.996081, 56.794599], [-4.996184, 56.794581], [-4.996259, 56.794608], [-4.996452, 56.794582], [-4.996501, 56.794556], [-4.996553, 56.794573], [-4.996796, 56.794568], [-4.996804, 56.794587], [-4.99683, 56.794562], [-4.996982, 56.794553], [-4.997168, 56.794479], [-4.997394, 56.79445], [-4.997618, 56.794502], [-4.997692, 56.794615], [-4.997922, 56.794587], [-4.997886, 56.794581], [-4.997998, 56.794663], [-4.998114, 56.794705], [-4.998112, 56.794678], [-4.998176, 56.794661], [-4.998316, 56.794657], [-4.998451, 56.794615], [-4.998515, 56.794653], [-4.998636, 56.794602], [-4.998625, 56.794687], [-4.998841, 56.794722], [-4.998827, 56.794757], [-4.998901, 56.794802], [-4.99889, 56.794823], [-4.999085, 56.794813], [-4.999071, 56.794911], [-4.99912, 56.794938], [-4.999302, 56.794962], [-4.99934, 56.79501], [-4.999435, 56.795009], [-4.999502, 56.795044], [-4.999552, 56.795019], [-4.999616, 56.795024], [-4.999731, 56.795064], [-4.999713, 56.795077], [-4.999767, 56.795105], [-5.000012, 56.795136], [-5.00002, 56.795171], [-5.000136, 56.795217], [-5.000151, 56.79525], [-5.000252, 56.795285], [-5.000315, 56.795282], [-5.000309, 56.795365], [-5.000452, 56.795399], [-5.000484, 56.795486], [-5.000547, 56.795505], [-5.000543, 56.795549], [-5.000589, 56.795528], [-5.000604, 56.795585], [-5.000703, 56.795618], [-5.000712, 56.795699], [-5.000791, 56.795735], [-5.000877, 56.795711], [-5.000838, 56.795822], [-5.000979, 56.795822], [-5.001024, 56.795848], [-5.00102, 56.795895], [-5.001146, 56.795944], [-5.00133, 56.795902], [-5.001342, 56.796], [-5.001415, 56.796016], [-5.001377, 56.796082], [-5.001488, 56.796149], [-5.001471, 56.796186], [-5.001616, 56.796159], [-5.001662, 56.796186], [-5.001725, 56.796183], [-5.001763, 56.796215], [-5.001861, 56.796198], [-5.001992, 56.796248], [-5.002013, 56.796359], [-5.002219, 56.796462], [-5.002233, 56.796493], [-5.002423, 56.796592], [-5.002505, 56.796608], [-5.002586, 56.79667], [-5.002669, 56.796678], [-5.002843, 56.796793], [-5.003219, 56.796933], [-5.003393, 56.796892], [-5.003583, 56.796901], [-5.00365, 56.796914], [-5.003628, 56.796949], [-5.003713, 56.796982], [-5.003491, 56.796879], [-5.003545, 56.796852], [-5.003531, 56.796895], [-5.003658, 56.79693]]}, "properties": {"name": "1788936670.Ben_Nevis_via_the_CMD_arete_and_back_down_via_the_CIC_famous_hut", "cmt": "2026-09-09", "tstamp": 1788912000, "desc": "UpHill", "src": "-5.045187/56.79441/-4.98661/56.842148", "bbox": "-5.045187/56.79441/-4.98661/56.842148"}}, {"type": "Feature", "bbox": [-5.045187, 56.79441, -4.98661, 56.842148], "geometry": {"type": "LineString", "coordinates": [[-5.003672, 56.796937], [-5.003705, 56.797018], [-5.003643, 56.796978], [-5.003669, 56.796941], [-5.0037, 56.796934], [-5.003724, 56.796971], [-5.003668, 56.796962], [-5.00372, 56.796971], [-5.00369, 56.796968], [-5.003807, 56.796885], [-5.003829, 56.796835], [-5.004039, 56.796766], [-5.004112, 56.796699], [-5.004223, 56.796467], [-5.004448, 56.796371], [-5.004628, 56.796207], [-5.004892, 56.79608], [-5.005234, 56.796044], [-5.005326, 56.796048], [-5.005447, 56.796115], [-5.005563, 56.796111], [-5.006008, 56.79629], [-5.006263, 56.796315], [-5.006437, 56.796455], [-5.006477, 56.796535], [-5.006488, 56.796602], [-5.00637, 56.796617], [-5.006378, 56.796639], [-5.006359, 56.796617], [-5.006398, 56.796586], [-5.006487, 56.796611], [-5.006458, 56.796616], [-5.006479, 56.796597], [-5.006411, 56.796599], [-5.006455, 56.796596], [-5.006421, 56.796593], [-5.006453, 56.796625], [-5.006422, 56.796603], [-5.006444, 56.796614], [-5.006462, 56.796593], [-5.006486, 56.796622], [-5.006419, 56.796585], [-5.006504, 56.796488], [-5.007159, 56.796362], [-5.007556, 56.796447], [-5.007608, 56.796483], [-5.007918, 56.796525], [-5.008313, 56.796546], [-5.00841, 56.796529], [-5.008458, 56.796543], [-5.008569, 56.796512], [-5.008614, 56.796537], [-5.008806, 56.796538], [-5.009125, 56.796428], [-5.009558, 56.796376], [-5.009756, 56.796311], [-5.010056, 56.796292], [-5.010414, 56.796404], [-5.01055, 56.7964], [-5.010703, 56.796498], [-5.010691, 56.796467], [-5.010727, 56.796465], [-5.010732, 56.796494], [-5.010899, 56.796498], [-5.011049, 56.796447], [-5.011167, 56.796537], [-5.011138, 56.796597], [-5.011234, 56.796623], [-5.011315, 56.796623], [-5.011509, 56.796553], [-5.011631, 56.79662], [-5.0118, 56.796574], [-5.011844, 56.796629], [-5.011912, 56.796621], [-5.012141, 56.796665], [-5.012467, 56.796658], [-5.012798, 56.796689], [-5.013036, 56.796684], [-5.013179, 56.796651], [-5.013318, 56.7967], [-5.0135, 56.796698], [-5.01381, 56.79676], [-5.013964, 56.796703], [-5.01405, 56.796727], [-5.014149, 56.796805], [-5.014266, 56.796816], [-5.014446, 56.796761], [-5.01457, 56.796807], [-5.014573, 56.796789], [-5.014756, 56.796842], [-5.014822, 56.79684], [-5.014892, 56.796878], [-5.014974, 56.796854], [-5.015237, 56.796842], [-5.015387, 56.796871], [-5.0155, 56.796836], [-5.01555, 56.79686], [-5.015834, 56.796856], [-5.015892, 56.796866], [-5.015913, 56.796901], [-5.015967, 56.796882], [-5.015999, 56.796899], [-5.01606, 56.796996], [-5.016209, 56.796992], [-5.016347, 56.797047], [-5.016472, 56.797036], [-5.016729, 56.797103], [-5.017142, 56.797048], [-5.017353, 56.797091], [-5.0174, 56.797133], [-5.017616, 56.797156], [-5.017699, 56.797188], [-5.017852, 56.797162], [-5.018092, 56.797206], [-5.01827, 56.797189], [-5.018364, 56.797224], [-5.018749, 56.79719], [-5.01924, 56.797346], [-5.019369, 56.797459], [-5.019272, 56.797561], [-5.019317, 56.79766], [-5.019306, 56.797831], [-5.019409, 56.797889], [-5.019419, 56.797961], [-5.019576, 56.797988], [-5.019756, 56.797969], [-5.019801, 56.798], [-5.019994, 56.798031], [-5.020263, 56.797998], [-5.020265, 56.798069], [-5.020385, 56.798107], [-5.020486, 56.798082], [-5.020577, 56.798153], [-5.020737, 56.7982], [-5.020742, 56.798225], [-5.020985, 56.798267], [-5.021077, 56.79832], [-5.021502, 56.798429], [-5.021519, 56.798461], [-5.02159, 56.798452], [-5.021811, 56.798521], [-5.021935, 56.798506], [-5.022051, 56.798533], [-5.022125, 56.798506], [-5.02237, 56.798524], [-5.022374, 56.798576], [-5.022489, 56.798587], [-5.02255, 56.79868], [-5.022561, 56.798876], [-5.022593, 56.798894], [-5.022554, 56.798909], [-5.022884, 56.798839], [-5.022956, 56.798797], [-5.022984, 56.798814], [-5.023041, 56.798787], [-5.023219, 56.798777], [-5.023437, 56.798676], [-5.023626, 56.79865], [-5.024015, 56.798499], [-5.02421, 56.798367], [-5.024386, 56.79832], [-5.02462, 56.79815], [-5.024657, 56.798069], [-5.024769, 56.797971], [-5.024999, 56.797887], [-5.025204, 56.797678], [-5.025482, 56.797494], [-5.025488, 56.797426], [-5.025563, 56.797402], [-5.025721, 56.797234], [-5.025812, 56.797027], [-5.025902, 56.797041], [-5.025995, 56.797018], [-5.026091, 56.797107], [-5.026173, 56.797291], [-5.026284, 56.797376], [-5.026281, 56.797412], [-5.026352, 56.797431], [-5.026327, 56.797481], [-5.02644, 56.797563], [-5.026484, 56.79778], [-5.026577, 56.797835], [-5.026689, 56.798058], [-5.026795, 56.798101], [-5.026797, 56.798177], [-5.026856, 56.798218], [-5.02683, 56.798321], [-5.026862, 56.798343], [-5.026845, 56.798504], [-5.026878, 56.79854], [-5.026821, 56.798707], [-5.026857, 56.798835], [-5.026832, 56.798968], [-5.026875, 56.798998], [-5.027132, 56.798906], [-5.027243, 56.79882], [-5.027389, 56.79877], [-5.027478, 56.798669], [-5.027542, 56.798656], [-5.027556, 56.798598], [-5.027673, 56.798559], [-5.027854, 56.798406], [-5.027873, 56.798334], [-5.027966, 56.798269], [-5.027974, 56.798226], [-5.028069, 56.798161], [-5.028217, 56.797939], [-5.02831, 56.797915], [-5.028371, 56.797801], [-5.02847, 56.797744], [-5.028582, 56.797341], [-5.028709, 56.797126], [-5.028707, 56.797001], [-5.028822, 56.796849], [-5.028746, 56.796702], [-5.028764, 56.796626], [-5.028716, 56.796589], [-5.028751, 56.796519], [-5.029199, 56.796662], [-5.0293, 56.79666], [-5.029532, 56.796769], [-5.029715, 56.796767], [-5.02976, 56.796827], [-5.029887, 56.796838], [-5.029932, 56.796877], [-5.030138, 56.796932], [-5.030161, 56.796977], [-5.030277, 56.796998], [-5.030413, 56.797069], [-5.030461, 56.797169], [-5.030564, 56.797196], [-5.030621, 56.797256], [-5.030835, 56.797313], [-5.030838, 56.797349], [-5.031009, 56.797401], [-5.031046, 56.79745], [-5.031247, 56.797563], [-5.031171, 56.797635], [-5.031232, 56.797739], [-5.031525, 56.797902], [-5.031633, 56.798058], [-5.03161, 56.798139], [-5.03168, 56.798185], [-5.031684, 56.798231], [-5.031739, 56.798247], [-5.031726, 56.798294], [-5.031798, 56.798392], [-5.031764, 56.798418], [-5.031873, 56.798502], [-5.031877, 56.79857], [-5.032069, 56.798699], [-5.031935, 56.798883], [-5.032067, 56.799224], [-5.032091, 56.799363], [-5.032047, 56.79937], [-5.032056, 56.799493], [-5.032198, 56.799656], [-5.032183, 56.799734], [-5.032241, 56.799847], [-5.032164, 56.79998], [-5.032215, 56.800007], [-5.032346, 56.8], [-5.032683, 56.799908], [-5.03313, 56.799586], [-5.033354, 56.79949], [-5.033477, 56.799391], [-5.033644, 56.799318], [-5.033716, 56.799246], [-5.034208, 56.799036], [-5.034301, 56.798942], [-5.034429, 56.7989], [-5.034611, 56.798771], [-5.034731, 56.798745], [-5.034841, 56.798675], [-5.034946, 56.798667], [-5.035296, 56.798549], [-5.035555, 56.798382], [-5.035733, 56.798343], [-5.035885, 56.798222], [-5.036047, 56.798181], [-5.036133, 56.79819], [-5.03632, 56.798512], [-5.036313, 56.798688], [-5.03641, 56.798877], [-5.03636, 56.798961], [-5.036376, 56.79918], [-5.036506, 56.799402], [-5.036519, 56.799547], [-5.036348, 56.799862], [-5.036374, 56.800015], [-5.036324, 56.800176], [-5.036344, 56.800395], [-5.036321, 56.800504], [-5.036278, 56.800537], [-5.036302, 56.800664], [-5.036258, 56.800798], [-5.036297, 56.800863], [-5.036286, 56.801003], [-5.036201, 56.801118], [-5.036035, 56.801248], [-5.035939, 56.801286], [-5.03559, 56.801304], [-5.035517, 56.801336], [-5.035414, 56.801342], [-5.035329, 56.801433], [-5.035602, 56.801577], [-5.035664, 56.801728], [-5.035723, 56.801764], [-5.035692, 56.801909], [-5.035521, 56.802119], [-5.035559, 56.802172], [-5.035555, 56.802404], [-5.035466, 56.802644], [-5.0355, 56.80261], [-5.035557, 56.802619], [-5.035516, 56.802644], [-5.03551, 56.802605], [-5.035543, 56.802623], [-5.035502, 56.802616], [-5.035501, 56.802644], [-5.035562, 56.802735], [-5.035456, 56.802842], [-5.035572, 56.803109], [-5.035539, 56.803411], [-5.035644, 56.803743], [-5.035733, 56.803885], [-5.035732, 56.804127], [-5.036033, 56.804664], [-5.0361, 56.80497], [-5.036041, 56.805103], [-5.036126, 56.805201], [-5.036109, 56.805244], [-5.036216, 56.805461], [-5.036216, 56.805595], [-5.036304, 56.80582], [-5.036283, 56.806004], [-5.036302, 56.805983], [-5.036324, 56.806059], [-5.036278, 56.806175], [-5.036313, 56.806337], [-5.036218, 56.806662], [-5.036335, 56.806934], [-5.036203, 56.807038], [-5.036211, 56.807146], [-5.036276, 56.807217], [-5.036237, 56.807291], [-5.036309, 56.807398], [-5.036245, 56.807539], [-5.036271, 56.807686], [-5.036207, 56.807733], [-5.036176, 56.807843], [-5.036286, 56.808106], [-5.03624, 56.808199], [-5.036013, 56.808412], [-5.035959, 56.808508], [-5.035998, 56.808647], [-5.036082, 56.808733], [-5.03606, 56.808878], [-5.036184, 56.809053], [-5.036176, 56.809172], [-5.03634, 56.80935], [-5.036277, 56.809527], [-5.036096, 56.809676], [-5.036011, 56.809825], [-5.035857, 56.809972], [-5.035884, 56.810048], [-5.0357, 56.810334], [-5.035647, 56.810365], [-5.035554, 56.810362], [-5.035527, 56.810421], [-5.035176, 56.810634], [-5.035165, 56.810782], [-5.034914, 56.810914], [-5.034791, 56.811157], [-5.034624, 56.811254], [-5.034385, 56.811273], [-5.034239, 56.811383], [-5.03394, 56.811533], [-5.033888, 56.81157], [-5.033877, 56.811649], [-5.033783, 56.811748], [-5.033704, 56.811757], [-5.033713, 56.811792], [-5.033519, 56.811977], [-5.033259, 56.812138], [-5.033005, 56.812212], [-5.032742, 56.812476], [-5.032565, 56.812571], [-5.032429, 56.812718], [-5.032264, 56.812809], [-5.032213, 56.812803], [-5.032098, 56.812843], [-5.031916, 56.812942], [-5.031763, 56.812967], [-5.031148, 56.81334], [-5.030917, 56.813356], [-5.030806, 56.813434], [-5.030609, 56.813447], [-5.030463, 56.813416], [-5.03034, 56.813434], [-5.030286, 56.813411], [-5.030147, 56.813427], [-5.030061, 56.813486], [-5.029966, 56.813506], [-5.029709, 56.813498], [-5.02963, 56.813476], [-5.029505, 56.81352], [-5.029374, 56.813522], [-5.029152, 56.81358], [-5.029012, 56.813569], [-5.028665, 56.813493], [-5.028448, 56.813476], [-5.028369, 56.813437], [-5.028311, 56.81332], [-5.028255, 56.813315], [-5.028155, 56.813253], [-5.028069, 56.81325], [-5.028051, 56.813221], [-5.027949, 56.813204], [-5.027584, 56.812955], [-5.027315, 56.812865], [-5.027166, 56.812862], [-5.027001, 56.812788], [-5.026647, 56.812725], [-5.026567, 56.812623], [-5.026523, 56.812626], [-5.026445, 56.812549], [-5.02636, 56.812533], [-5.026294, 56.81255], [-5.026131, 56.812494], [-5.025995, 56.812401], [-5.025908, 56.812376], [-5.025817, 56.812282], [-5.025712, 56.812256], [-5.025577, 56.812145], [-5.025123, 56.812047], [-5.024995, 56.812059], [-5.024783, 56.812038], [-5.024441, 56.811972], [-5.024249, 56.811871], [-5.024138, 56.811754], [-5.023953, 56.81173], [-5.023668, 56.811606], [-5.023487, 56.81157], [-5.023422, 56.81152], [-5.023072, 56.811432], [-5.022664, 56.811433], [-5.022483, 56.811407], [-5.022286, 56.811342], [-5.022134, 56.811371], [-5.022112, 56.811397], [-5.021767, 56.811362], [-5.021524, 56.811396], [-5.021302, 56.811362], [-5.021203, 56.811401], [-5.021125, 56.811398], [-5.020986, 56.811457], [-5.020635, 56.811439], [-5.020571, 56.811454], [-5.020441, 56.811421], [-5.020295, 56.811429], [-5.020011, 56.811368], [-5.019874, 56.811369], [-5.019489, 56.811272], [-5.019139, 56.811275], [-5.019029, 56.81124], [-5.01859, 56.811258], [-5.018424, 56.811218], [-5.018323, 56.811222], [-5.0183, 56.811202], [-5.018222, 56.811217], [-5.018155, 56.811194], [-5.018122, 56.811211], [-5.018066, 56.811181], [-5.01788, 56.811168], [-5.017796, 56.811184], [-5.017575, 56.811144], [-5.017458, 56.811166], [-5.017382, 56.811149], [-5.017285, 56.811161], [-5.017188, 56.811124], [-5.016894, 56.811092], [-5.01655, 56.811003]]}, "properties": {"name": "1788936670.Ben_Nevis_via_the_CMD_arete_and_back_down_via_the_CIC_famous_hut", "cmt": "2026-09-09", "tstamp": 1788912000, "desc": "DownHill", "src": "-5.045187/56.79441/-4.98661/56.842148", "bbox": "-5.045187/56.79441/-4.98661/56.842148"}}, {"type": "Feature", "bbox": [-5.045187, 56.79441, -4.98661, 56.842148], "geometry": {"type": "LineString", "coordinates": [[-5.016525, 56.810998], [-5.01643, 56.810951], [-5.01631, 56.810935], [-5.01607, 56.81081], [-5.015752, 56.810751], [-5.015618, 56.810658], [-5.015517, 56.810672], [-5.015214, 56.810631], [-5.015042, 56.810568], [-5.014611, 56.810524], [-5.014413, 56.810465], [-5.014178, 56.810436], [-5.01412, 56.810451], [-5.013896, 56.810372], [-5.013699, 56.810367], [-5.013563, 56.81033], [-5.013561, 56.810292], [-5.0135, 56.810267], [-5.013448, 56.810276], [-5.013303, 56.810216], [-5.013188, 56.81012], [-5.013078, 56.810106], [-5.012874, 56.810019], [-5.012824, 56.809912], [-5.012354, 56.809729], [-5.012293, 56.809649], [-5.012197, 56.809635], [-5.012055, 56.809559], [-5.011819, 56.80951], [-5.01168, 56.80951], [-5.011575, 56.809541], [-5.011259, 56.809535], [-5.010817, 56.809444], [-5.010774, 56.809406], [-5.010619, 56.809368], [-5.010462, 56.809277], [-5.01033, 56.809239], [-5.010246, 56.809168], [-5.010109, 56.809135], [-5.01005, 56.809088], [-5.010046, 56.809021], [-5.009986, 56.808989], [-5.009709, 56.80888], [-5.009447, 56.808828], [-5.00908, 56.808651], [-5.009052, 56.808565], [-5.008925, 56.808478], [-5.008888, 56.808386], [-5.008798, 56.808354], [-5.008798, 56.808314], [-5.008648, 56.808312], [-5.008618, 56.808283], [-5.008424, 56.808234], [-5.008376, 56.808175], [-5.0083, 56.808149], [-5.008219, 56.80807], [-5.00823, 56.808032], [-5.008135, 56.807979], [-5.008099, 56.807892], [-5.007977, 56.807775], [-5.007955, 56.807687], [-5.007917, 56.80766], [-5.007814, 56.807663], [-5.007758, 56.80757], [-5.007559, 56.80754], [-5.007435, 56.807467], [-5.007422, 56.807425], [-5.007343, 56.807399], [-5.007133, 56.807389], [-5.006792, 56.807225], [-5.006617, 56.807199], [-5.006399, 56.807208], [-5.006286, 56.807184], [-5.006227, 56.807128], [-5.006086, 56.807171], [-5.005813, 56.80708], [-5.005711, 56.807011], [-5.005586, 56.807015], [-5.005601, 56.806981], [-5.005535, 56.806969], [-5.005433, 56.806819], [-5.005339, 56.806825], [-5.005174, 56.806782], [-5.004948, 56.806657], [-5.004925, 56.806616], [-5.004762, 56.806579], [-5.004684, 56.806518], [-5.00468, 56.806473], [-5.004537, 56.806411], [-5.004527, 56.806338], [-5.00446, 56.806313], [-5.004474, 56.806285], [-5.004507, 56.806294], [-5.00446, 56.806242], [-5.004437, 56.80611], [-5.004227, 56.806024], [-5.004092, 56.806036], [-5.003957, 56.805936], [-5.003887, 56.805964], [-5.00374, 56.805891], [-5.003744, 56.805839], [-5.003665, 56.805787], [-5.003667, 56.805717], [-5.003528, 56.805639], [-5.003507, 56.805595], [-5.003406, 56.805585], [-5.003411, 56.805511], [-5.003332, 56.805351], [-5.003248, 56.80529], [-5.003136, 56.805353], [-5.003084, 56.805431], [-5.00305, 56.805443], [-5.003038, 56.805425], [-5.003143, 56.80549], [-5.003161, 56.805445], [-5.003068, 56.805448], [-5.003169, 56.805433], [-5.003224, 56.805391], [-5.00325, 56.805419], [-5.003198, 56.805413], [-5.003231, 56.805412], [-5.003199, 56.805477], [-5.003177, 56.805463], [-5.00321, 56.805452], [-5.003203, 56.805484], [-5.003009, 56.80547], [-5.002977, 56.805424], [-5.002993, 56.805447], [-5.003017, 56.805428], [-5.003164, 56.805464], [-5.003154, 56.805489], [-5.003125, 56.805484], [-5.003004, 56.805441], [-5.002994, 56.805412], [-5.002979, 56.805437], [-5.003056, 56.805438], [-5.003008, 56.805427], [-5.002976, 56.805448], [-5.003018, 56.805448], [-5.003004, 56.805424], [-5.002998, 56.805451], [-5.003019, 56.805434], [-5.002918, 56.805457], [-5.002804, 56.805435]]}, "properties": {"name": "1788936670.Ben_Nevis_via_the_CMD_arete_and_back_down_via_the_CIC_famous_hut", "cmt": "2026-09-09", "tstamp": 1788912000, "desc": "UpHill", "src": "-5.045187/56.79441/-4.98661/56.842148", "bbox": "-5.045187/56.79441/-4.98661/56.842148"}}, {"type": "Feature", "bbox": [-5.045187, 56.79441, -4.98661, 56.842148], "geometry": {"type": "LineString", "coordinates": [[-5.002804, 56.805435], [-5.002677, 56.805609], [-5.002705, 56.805773], [-5.002692, 56.805807], [-5.002654, 56.805784], [-5.002668, 56.805859], [-5.002632, 56.805852], [-5.002691, 56.805918], [-5.002826, 56.805955], [-5.002918, 56.806026], [-5.003016, 56.80603], [-5.003157, 56.806107], [-5.003258, 56.806057], [-5.003442, 56.806039], [-5.003479, 56.806061], [-5.003542, 56.806032], [-5.003598, 56.80607], [-5.003566, 56.80611], [-5.003676, 56.806215], [-5.00371, 56.806458], [-5.003771, 56.806463], [-5.003915, 56.806556], [-5.003997, 56.806562], [-5.004158, 56.80669], [-5.004323, 56.806707], [-5.004445, 56.806761], [-5.004574, 56.806714], [-5.004666, 56.806767], [-5.004709, 56.806847], [-5.004745, 56.806826], [-5.004794, 56.806851], [-5.004843, 56.806972], [-5.005024, 56.807086], [-5.005051, 56.807224], [-5.005175, 56.807421], [-5.005217, 56.807436], [-5.005261, 56.807599], [-5.005376, 56.807651], [-5.005415, 56.807737], [-5.005512, 56.807775], [-5.00553, 56.807835], [-5.005651, 56.8079], [-5.005833, 56.808107], [-5.005989, 56.808213], [-5.00596, 56.808216], [-5.006013, 56.808198], [-5.005981, 56.808187], [-5.006003, 56.808218], [-5.006058, 56.808211], [-5.006075, 56.808269], [-5.006263, 56.808385], [-5.00632, 56.808452], [-5.006389, 56.808469], [-5.006509, 56.808592], [-5.006713, 56.80862], [-5.00673, 56.808693], [-5.006807, 56.808766], [-5.006801, 56.808843], [-5.006622, 56.808898], [-5.006608, 56.809039], [-5.006713, 56.809112], [-5.006738, 56.809198], [-5.007017, 56.809216], [-5.007057, 56.809257], [-5.007143, 56.809257], [-5.007368, 56.809371], [-5.007399, 56.809653], [-5.007457, 56.809777], [-5.007519, 56.809773], [-5.007684, 56.809857], [-5.007763, 56.809858], [-5.007924, 56.809967], [-5.008098, 56.80999], [-5.008144, 56.810076], [-5.008282, 56.810038], [-5.008391, 56.81008], [-5.008535, 56.810074], [-5.008833, 56.810113], [-5.00897, 56.810268], [-5.009241, 56.810327], [-5.009331, 56.810405], [-5.009454, 56.810406], [-5.009567, 56.810447], [-5.009628, 56.810617], [-5.009698, 56.810679], [-5.009967, 56.810709], [-5.01008, 56.810768], [-5.010176, 56.810877], [-5.010357, 56.810892], [-5.010487, 56.810969], [-5.010633, 56.810988], [-5.010714, 56.811075], [-5.010823, 56.811121], [-5.010852, 56.811186], [-5.010959, 56.81124], [-5.011062, 56.811228], [-5.011265, 56.81127], [-5.011325, 56.811317], [-5.011445, 56.811312], [-5.011586, 56.811397], [-5.011702, 56.811408], [-5.011843, 56.811541], [-5.012021, 56.811594], [-5.012289, 56.811724], [-5.012311, 56.811785], [-5.012273, 56.811823], [-5.012313, 56.811858], [-5.012455, 56.811888], [-5.012588, 56.811867], [-5.012828, 56.811963], [-5.013, 56.81198], [-5.013122, 56.812019], [-5.013145, 56.812086], [-5.013313, 56.812137], [-5.013593, 56.812324], [-5.013744, 56.812343], [-5.014009, 56.81249], [-5.014207, 56.81251], [-5.014342, 56.812574], [-5.014464, 56.812576], [-5.014586, 56.81254], [-5.014767, 56.81259], [-5.014958, 56.812799], [-5.015529, 56.812972], [-5.015735, 56.813059], [-5.016114, 56.813348], [-5.016189, 56.813463], [-5.016187, 56.813573], [-5.016264, 56.813633], [-5.016226, 56.813676], [-5.016405, 56.813783], [-5.016488, 56.813901], [-5.016471, 56.813947], [-5.016518, 56.81403], [-5.016668, 56.814193], [-5.016692, 56.814286], [-5.016776, 56.814341], [-5.016775, 56.814412], [-5.016969, 56.814554], [-5.017226, 56.814593], [-5.017224, 56.814619], [-5.017301, 56.814625], [-5.017383, 56.814684], [-5.017552, 56.814724], [-5.017576, 56.814759], [-5.017705, 56.814811], [-5.018124, 56.814848], [-5.018287, 56.814925], [-5.018403, 56.814933], [-5.01854, 56.815013], [-5.018559, 56.815162], [-5.018646, 56.815217], [-5.01909, 56.81526], [-5.019136, 56.815323], [-5.019294, 56.815424], [-5.019578, 56.815468], [-5.019735, 56.815645], [-5.019934, 56.815661], [-5.020142, 56.815758], [-5.020504, 56.815823], [-5.020801, 56.815961], [-5.020967, 56.816], [-5.021211, 56.816153], [-5.021346, 56.816571], [-5.021504, 56.816682], [-5.021646, 56.816985], [-5.021834, 56.817184], [-5.021854, 56.817353], [-5.021923, 56.817425], [-5.022322, 56.817661], [-5.022597, 56.817753], [-5.022661, 56.817799], [-5.022727, 56.817793], [-5.022933, 56.817903], [-5.023052, 56.818125], [-5.023516, 56.818427], [-5.023582, 56.818514], [-5.023728, 56.81859], [-5.023888, 56.818848], [-5.024179, 56.818971], [-5.024464, 56.819035], [-5.024529, 56.819103], [-5.024697, 56.819077], [-5.024757, 56.819088], [-5.024798, 56.819151], [-5.024874, 56.819149], [-5.024883, 56.819255], [-5.024984, 56.819302], [-5.025126, 56.819522], [-5.025121, 56.819672], [-5.025223, 56.819864], [-5.025763, 56.820133], [-5.025827, 56.820279], [-5.026031, 56.820381], [-5.026081, 56.820447], [-5.026153, 56.820427], [-5.026326, 56.820449], [-5.026413, 56.820601], [-5.026488, 56.820657], [-5.026485, 56.820698], [-5.026444, 56.820713], [-5.026509, 56.820821], [-5.026429, 56.821041], [-5.026371, 56.821085], [-5.026472, 56.821132], [-5.026443, 56.821215], [-5.026585, 56.821347], [-5.026717, 56.821385], [-5.026946, 56.821516], [-5.027306, 56.821819], [-5.027321, 56.821971], [-5.027256, 56.822085], [-5.027709, 56.8222], [-5.02799, 56.822342], [-5.027957, 56.822436], [-5.027986, 56.822503], [-5.028091, 56.822607], [-5.02826, 56.822648], [-5.028314, 56.822684], [-5.028391, 56.822786], [-5.028409, 56.822895], [-5.028598, 56.823051], [-5.028655, 56.823172], [-5.028621, 56.823267], [-5.028693, 56.823423], [-5.028881, 56.823446], [-5.029083, 56.823637], [-5.029261, 56.823655], [-5.029492, 56.823736], [-5.02956, 56.823786], [-5.029669, 56.823932], [-5.029661, 56.82407], [-5.02971, 56.824105], [-5.029761, 56.824263], [-5.02995, 56.824336], [-5.02993, 56.824424], [-5.029973, 56.824472], [-5.030264, 56.824565], [-5.03029, 56.824619], [-5.030462, 56.824652], [-5.030533, 56.824641], [-5.030649, 56.824685], [-5.030735, 56.824744], [-5.030959, 56.824829], [-5.031011, 56.824878], [-5.031121, 56.8249], [-5.031283, 56.82498], [-5.031679, 56.825301], [-5.031966, 56.825404], [-5.032151, 56.825583], [-5.032175, 56.825686], [-5.032209, 56.825744], [-5.032281, 56.825778], [-5.032344, 56.825931], [-5.032401, 56.825977], [-5.032473, 56.825981], [-5.032557, 56.82608], [-5.032733, 56.826173], [-5.032969, 56.826216], [-5.033224, 56.826351], [-5.033361, 56.826389], [-5.033496, 56.826483], [-5.033717, 56.826542], [-5.033836, 56.826697], [-5.034008, 56.826781], [-5.034108, 56.826799], [-5.034343, 56.827138], [-5.034297, 56.827322], [-5.034369, 56.827418], [-5.034274, 56.827595], [-5.034757, 56.827831], [-5.034792, 56.827914], [-5.0349, 56.828011], [-5.034868, 56.828099], [-5.034917, 56.828159], [-5.035216, 56.828243], [-5.035478, 56.828358], [-5.035578, 56.828444], [-5.035801, 56.828562], [-5.035938, 56.8287], [-5.035971, 56.828874], [-5.036097, 56.828995], [-5.036169, 56.829011], [-5.03619, 56.829046], [-5.036247, 56.829018], [-5.036469, 56.829038], [-5.036625, 56.829103], [-5.036829, 56.829217], [-5.03687, 56.829369], [-5.036934, 56.829449], [-5.037018, 56.829508], [-5.037329, 56.829633], [-5.03738, 56.829696], [-5.037389, 56.829797], [-5.037159, 56.830105], [-5.03719, 56.830139], [-5.037458, 56.83014], [-5.03781, 56.830211], [-5.037984, 56.83032], [-5.038296, 56.831026], [-5.038446, 56.831204], [-5.038557, 56.831269], [-5.038631, 56.831473], [-5.038551, 56.831874], [-5.038573, 56.832181], [-5.038551, 56.832258], [-5.038462, 56.832312], [-5.038432, 56.832741], [-5.03828, 56.832947], [-5.038267, 56.833051], [-5.038436, 56.833122], [-5.038503, 56.833126], [-5.038684, 56.833288], [-5.038916, 56.833346], [-5.039398, 56.833276], [-5.039682, 56.833178], [-5.039779, 56.833192], [-5.039886, 56.833256], [-5.039948, 56.833354], [-5.04005, 56.833373], [-5.040184, 56.833353], [-5.040737, 56.833352], [-5.040938, 56.833322], [-5.041073, 56.833342], [-5.041432, 56.833294], [-5.041603, 56.833296], [-5.041754, 56.833355], [-5.042132, 56.83358], [-5.042209, 56.833735], [-5.042175, 56.834012], [-5.042131, 56.834047], [-5.042205, 56.834455], [-5.042105, 56.834589], [-5.042007, 56.83485], [-5.041927, 56.834894], [-5.041848, 56.835028], [-5.041892, 56.835087], [-5.041789, 56.835188], [-5.04183, 56.835248], [-5.042055, 56.835239], [-5.042129, 56.835254], [-5.042158, 56.835293], [-5.042059, 56.835403], [-5.041774, 56.835553], [-5.041709, 56.835661], [-5.041583, 56.835724], [-5.041541, 56.835833], [-5.041455, 56.835894], [-5.041477, 56.835953], [-5.041421, 56.836013], [-5.041588, 56.835852], [-5.041868, 56.83584], [-5.042139, 56.835777], [-5.042337, 56.835721], [-5.04245, 56.835618], [-5.042498, 56.835648], [-5.042597, 56.835609], [-5.042776, 56.835394], [-5.042897, 56.835312], [-5.042917, 56.835232], [-5.043035, 56.83522], [-5.043248, 56.835022], [-5.043342, 56.834986], [-5.043474, 56.835006], [-5.043541, 56.834976], [-5.043627, 56.834978], [-5.043898, 56.834857], [-5.044038, 56.834829], [-5.044163, 56.834849], [-5.04424, 56.834824], [-5.044371, 56.834709], [-5.044458, 56.834707], [-5.044556, 56.834596], [-5.044727, 56.834647], [-5.044729, 56.83469], [-5.044767, 56.834699], [-5.044888, 56.834862], [-5.045184, 56.834983], [-5.045141, 56.835117], [-5.045187, 56.835317], [-5.04508, 56.835435], [-5.045015, 56.835611], [-5.044831, 56.835708], [-5.044864, 56.835613], [-5.044824, 56.835605], [-5.044804, 56.835627], [-5.044888, 56.835638], [-5.044883, 56.83568], [-5.044601, 56.835852], [-5.044684, 56.83591], [-5.044696, 56.836053], [-5.044782, 56.836088], [-5.044608, 56.836372], [-5.044485, 56.836471], [-5.044186, 56.836587], [-5.04381, 56.83662], [-5.043613, 56.836724], [-5.043447, 56.836955], [-5.043433, 56.837247], [-5.043346, 56.837354], [-5.043077, 56.837519], [-5.04297, 56.837557], [-5.042738, 56.837573], [-5.04259, 56.83765], [-5.042515, 56.837729], [-5.042418, 56.837752], [-5.042417, 56.838018], [-5.042304, 56.838115], [-5.04229, 56.838182], [-5.042265, 56.838196], [-5.042196, 56.83818], [-5.042154, 56.838206], [-5.042141, 56.838188], [-5.042197, 56.838193], [-5.042237, 56.83824], [-5.042182, 56.838376], [-5.042084, 56.838531], [-5.041853, 56.83873], [-5.041807, 56.838849], [-5.041705, 56.838956], [-5.041696, 56.839099], [-5.041607, 56.839205], [-5.041635, 56.839363], [-5.04152, 56.839633], [-5.041542, 56.83991], [-5.041433, 56.840011], [-5.04145, 56.84007], [-5.041402, 56.840092], [-5.04139, 56.840184], [-5.04122, 56.840465], [-5.041227, 56.840574], [-5.041288, 56.840616], [-5.041252, 56.840676], [-5.041386, 56.840695], [-5.041505, 56.840747], [-5.04165, 56.8409], [-5.041949, 56.841002], [-5.042032, 56.841105], [-5.042511, 56.841415]]}, "properties": {"name": "1788936670.Ben_Nevis_via_the_CMD_arete_and_back_down_via_the_CIC_famous_hut", "cmt": "2026-09-09", "tstamp": 1788912000, "desc": "DownHill", "src": "-5.045187/56.79441/-4.98661/56.842148", "bbox": "-5.045187/56.79441/-4.98661/56.842148"}}, {"type": "Feature", "bbox": [-5.045187, 56.79441, -4.98661, 56.842148], "geometry": {"type": "LineString", "coordinates": [[-5.042527, 56.841429], [-5.042577, 56.841468], [-5.042676, 56.841487], [-5.042756, 56.84162], [-5.042843, 56.841664], [-5.04293, 56.841787], [-5.043027, 56.841821], [-5.043027, 56.841842], [-5.042952, 56.841829], [-5.042954, 56.841804], [-5.04298, 56.841823], [-5.042932, 56.841821], [-5.042845, 56.841988], [-5.042935, 56.842018], [-5.043013, 56.842013], [-5.043045, 56.84204], [-5.043029, 56.842148]]}, "properties": {"name": "1788936670.Ben_Nevis_via_the_CMD_arete_and_back_down_via_the_CIC_famous_hut", "cmt": "2026-09-09", "tstamp": 1788912000, "desc": "UpHill", "src": "-5.045187/56.79441/-4.98661/56.842148", "bbox": "-5.045187/56.79441/-4.98661/56.842148"}}]}