{"type": "FeatureCollection", "name": "TrackSet", "crs": {"type": "name", "properties": {"name": "urn:ogc:def:crs:OGC:1.3:CRS84"}}, "bbox": [7.29981, 45.994525, 7.33023, 46.021391], "features": [{"type": "Feature", "bbox": [7.29981, 45.994525, 7.33023, 46.021391], "geometry": {"type": "LineString", "coordinates": [[7.32924, 46.021046], [7.329148, 46.021035], [7.328829, 46.021132], [7.32876, 46.021124], [7.328716, 46.021181], [7.328496, 46.021331], [7.328308, 46.021391], [7.328207, 46.021327], [7.328162, 46.021205], [7.328044, 46.021088], [7.327693, 46.020883], [7.327592, 46.020764], [7.327507, 46.020721], [7.327378, 46.020599], [7.327309, 46.020575], [7.326687, 46.020153], [7.326671, 46.020116], [7.326744, 46.02], [7.326853, 46.019659], [7.327072, 46.019419], [7.327244, 46.019322], [7.32723, 46.019212], [7.327146, 46.019091], [7.327129, 46.019075], [7.327118, 46.01909], [7.327121, 46.019057], [7.327081, 46.019044], [7.327055, 46.019074], [7.327075, 46.019104], [7.327066, 46.019048], [7.327139, 46.019057], [7.327239, 46.018995], [7.32721, 46.018954], [7.327253, 46.018931], [7.327223, 46.018904], [7.327131, 46.018901], [7.327089, 46.018827], [7.327091, 46.018847], [7.327106, 46.018824], [7.327194, 46.018831], [7.32726, 46.018806], [7.327321, 46.018847], [7.327332, 46.018781], [7.3273, 46.018761], [7.327368, 46.01878], [7.327376, 46.018756], [7.327405, 46.018765], [7.327417, 46.018729], [7.327504, 46.018705], [7.327515, 46.018652], [7.327572, 46.018676], [7.327623, 46.018663], [7.327655, 46.018587], [7.32772, 46.018552], [7.327677, 46.018502], [7.32769, 46.018473], [7.327751, 46.018407], [7.327827, 46.018389], [7.327831, 46.018325], [7.327906, 46.018282], [7.327734, 46.018216], [7.327735, 46.018188], [7.327799, 46.018164], [7.327711, 46.018142], [7.327764, 46.01808], [7.327735, 46.018088], [7.327765, 46.01804], [7.327743, 46.018006], [7.327633, 46.018017], [7.327604, 46.017986], [7.327619, 46.01794], [7.327553, 46.017944], [7.327488, 46.017893], [7.327335, 46.017867], [7.327183, 46.017806], [7.327226, 46.017772], [7.327198, 46.017737], [7.327221, 46.017724], [7.327166, 46.017703], [7.327114, 46.017632], [7.327026, 46.017614], [7.326945, 46.017565], [7.326858, 46.017562], [7.326779, 46.017592], [7.326787, 46.017621], [7.326726, 46.017622], [7.32676, 46.017594], [7.326741, 46.017608], [7.326789, 46.017635], [7.326809, 46.017594], [7.326738, 46.017578], [7.326816, 46.017484], [7.326855, 46.017478], [7.326825, 46.017454], [7.326855, 46.017456], [7.326879, 46.017418], [7.326827, 46.017347], [7.326728, 46.01734], [7.326713, 46.017321], [7.326796, 46.017263], [7.326783, 46.01723], [7.326811, 46.017207], [7.326784, 46.017171], [7.326829, 46.017154], [7.326809, 46.017107], [7.326689, 46.017079], [7.326681, 46.017117], [7.326633, 46.017092], [7.326603, 46.017107], [7.326568, 46.01708], [7.326585, 46.017066], [7.326555, 46.017075], [7.326503, 46.017048], [7.326586, 46.017003], [7.326615, 46.016948], [7.326586, 46.016919], [7.326641, 46.016939], [7.326605, 46.016909], [7.326627, 46.016907], [7.326597, 46.016925], [7.326583, 46.016908], [7.32663, 46.01693], [7.326603, 46.016921], [7.326643, 46.016898], [7.326596, 46.016917], [7.326609, 46.016939], [7.326612, 46.016917], [7.326575, 46.016906], [7.326622, 46.016932], [7.326647, 46.016863], [7.326569, 46.016894], [7.326566, 46.016916], [7.326632, 46.016889], [7.326607, 46.016899], [7.326637, 46.016936], [7.326626, 46.016902], [7.326639, 46.016931], [7.326511, 46.01694], [7.326411, 46.016988], [7.326248, 46.01695], [7.326288, 46.016961], [7.326303, 46.016923], [7.326409, 46.016874], [7.326331, 46.016743], [7.32637, 46.016721], [7.326372, 46.016665], [7.326436, 46.01662], [7.326428, 46.016541], [7.326457, 46.016533], [7.326433, 46.016456], [7.326388, 46.016419], [7.326407, 46.016291], [7.326365, 46.01618], [7.3264, 46.016129], [7.326452, 46.016131], [7.326486, 46.01609], [7.326554, 46.016078], [7.326593, 46.016112], [7.326644, 46.016091], [7.326693, 46.016011], [7.326488, 46.015908], [7.326546, 46.015916], [7.326531, 46.015881], [7.326739, 46.01582], [7.326828, 46.015757], [7.326802, 46.015717], [7.326744, 46.015711], [7.326754, 46.015693], [7.326834, 46.015716], [7.327006, 46.01563], [7.327047, 46.015575], [7.327047, 46.015506], [7.327202, 46.015289], [7.327453, 46.014778], [7.327508, 46.014746], [7.327581, 46.014417], [7.327773, 46.014194], [7.327744, 46.014168], [7.327832, 46.014035], [7.327774, 46.01397], [7.327819, 46.013952], [7.327911, 46.013821], [7.327935, 46.013631], [7.327986, 46.01353], [7.328047, 46.013439], [7.328138, 46.01341], [7.32811, 46.013366], [7.328206, 46.01329], [7.328032, 46.013294], [7.327988, 46.013329], [7.327984, 46.013313], [7.328151, 46.013086], [7.328242, 46.013092], [7.3283, 46.013055], [7.328573, 46.013001], [7.329249, 46.012327], [7.329286, 46.012236], [7.329361, 46.01222], [7.329391, 46.012167], [7.329365, 46.012127], [7.329418, 46.012075], [7.329374, 46.012044], [7.329324, 46.012047], [7.329354, 46.012042], [7.329361, 46.011991], [7.329402, 46.01196], [7.32936, 46.011948], [7.329305, 46.011979], [7.329271, 46.011934], [7.329317, 46.011896], [7.329361, 46.011896], [7.329371, 46.011845], [7.329351, 46.011876], [7.329429, 46.011834], [7.329372, 46.011761], [7.329467, 46.011711], [7.329477, 46.011649], [7.329572, 46.011603], [7.329634, 46.011454], [7.329742, 46.011366], [7.329777, 46.01112], [7.329847, 46.011092], [7.329938, 46.011009], [7.329942, 46.010967], [7.329837, 46.010855], [7.329871, 46.010829], [7.329895, 46.010763], [7.329869, 46.010715], [7.329916, 46.01065], [7.329883, 46.010646], [7.329837, 46.010571], [7.329939, 46.010501], [7.33003, 46.010474], [7.330074, 46.010424], [7.330132, 46.010411], [7.330117, 46.01014], [7.330084, 46.010115], [7.33016, 46.010007], [7.330138, 46.009916], [7.330163, 46.009896], [7.33012, 46.009869], [7.330169, 46.009829], [7.330207, 46.009695], [7.330176, 46.009651], [7.33023, 46.009549], [7.330217, 46.009487], [7.330195, 46.00949], [7.330217, 46.009387], [7.330157, 46.009235], [7.33012, 46.009273], [7.33005, 46.009271], [7.330059, 46.009331], [7.329997, 46.009358], [7.329963, 46.009416], [7.329838, 46.009452], [7.329829, 46.00948], [7.329857, 46.009484], [7.329771, 46.009532], [7.329642, 46.00954], [7.329573, 46.009643], [7.329392, 46.009771], [7.329339, 46.00979], [7.329315, 46.009764], [7.329247, 46.009776], [7.329095, 46.009922], [7.328999, 46.009894], [7.328916, 46.009908], [7.328913, 46.00989], [7.328982, 46.009869], [7.328952, 46.009885], [7.328991, 46.009889], [7.328977, 46.009905], [7.328987, 46.009862], [7.328951, 46.009845], [7.328971, 46.009864], [7.328997, 46.009831], [7.328991, 46.009882], [7.328976, 46.009853], [7.328989, 46.009832], [7.329009, 46.009872], [7.328952, 46.009864], [7.328989, 46.00987], [7.328983, 46.009906], [7.328988, 46.009839], [7.328976, 46.00987], [7.328949, 46.009851], [7.329005, 46.009888], [7.328959, 46.009872], [7.329002, 46.009867], [7.329031, 46.009823], [7.328962, 46.009793], [7.328915, 46.009619], [7.328879, 46.009618], [7.328909, 46.009576], [7.328899, 46.009509], [7.328934, 46.009498], [7.329004, 46.009237], [7.329113, 46.009164], [7.329105, 46.009134], [7.329064, 46.009148], [7.329, 46.009111], [7.329048, 46.009063], [7.329019, 46.009039], [7.329105, 46.008952], [7.329102, 46.008839], [7.329071, 46.008808], [7.329104, 46.008785], [7.329044, 46.00878], [7.328987, 46.008708], [7.32901, 46.008655], [7.328946, 46.008607], [7.328982, 46.008571], [7.32896, 46.00849], [7.32901, 46.008378], [7.328947, 46.008375], [7.328817, 46.008446], [7.328726, 46.008461], [7.328716, 46.0085], [7.328645, 46.00852], [7.32865, 46.008545], [7.328684, 46.008548], [7.328651, 46.008575], [7.328655, 46.008542], [7.328681, 46.008543], [7.328626, 46.008559], [7.328656, 46.008552], [7.328679, 46.008577], [7.328673, 46.008545], [7.328621, 46.008584], [7.328645, 46.008539], [7.328611, 46.008561], [7.328658, 46.008582], [7.328579, 46.008548], [7.328596, 46.008525], [7.328621, 46.008553], [7.328641, 46.008543], [7.328642, 46.008423], [7.328677, 46.008359], [7.328646, 46.008198], [7.328679, 46.008177], [7.328592, 46.008148], [7.32856, 46.008172], [7.328509, 46.008141], [7.328443, 46.008152], [7.328465, 46.008235], [7.328396, 46.008258], [7.328371, 46.008329], [7.328312, 46.008337], [7.328192, 46.008447], [7.328147, 46.008452], [7.328158, 46.008466], [7.328047, 46.008485], [7.327976, 46.008575], [7.327923, 46.008583], [7.32788, 46.008666], [7.327849, 46.008663], [7.327821, 46.008745], [7.327707, 46.008784], [7.3276, 46.008895], [7.327549, 46.008896], [7.327545, 46.008787], [7.3276, 46.008633], [7.327303, 46.008473], [7.32721, 46.008457], [7.327198, 46.008419], [7.327156, 46.00843], [7.327086, 46.008386], [7.327136, 46.008295], [7.327033, 46.008233], [7.327036, 46.008186], [7.32697, 46.008079], [7.326995, 46.008058], [7.326917, 46.008009], [7.326929, 46.007985], [7.326874, 46.007978], [7.32692, 46.007994], [7.326949, 46.007966], [7.326902, 46.007975], [7.326849, 46.007891], [7.326831, 46.007739], [7.326737, 46.007666], [7.326772, 46.007588], [7.326871, 46.00755], [7.326908, 46.007491], [7.326981, 46.007447], [7.327096, 46.007197], [7.327102, 46.007057], [7.327062, 46.007034], [7.327008, 46.007039], [7.326985, 46.007004], [7.32704, 46.006872], [7.327145, 46.006756], [7.327153, 46.006628], [7.327131, 46.006561], [7.327102, 46.006573], [7.327132, 46.006455], [7.327099, 46.006326], [7.327046, 46.006311], [7.327038, 46.006243], [7.326859, 46.006151], [7.326781, 46.005978], [7.326844, 46.005888], [7.326762, 46.005687], [7.326748, 46.00566], [7.326717, 46.005661], [7.326736, 46.005653], [7.326611, 46.005345], [7.326489, 46.005283], [7.326549, 46.005182], [7.326606, 46.005166], [7.3267, 46.005074], [7.326682, 46.004966], [7.326718, 46.004786], [7.326686, 46.004764], [7.32676, 46.004685], [7.326795, 46.004518], [7.326816, 46.004498], [7.326955, 46.004482], [7.326991, 46.004422], [7.327056, 46.004411], [7.327169, 46.004299], [7.327178, 46.004239], [7.32714, 46.004203], [7.32713, 46.004119], [7.327166, 46.003961], [7.327109, 46.003928], [7.327158, 46.003761], [7.327123, 46.003638], [7.327127, 46.003492], [7.327087, 46.003456], [7.327123, 46.003328], [7.327096, 46.003322], [7.327081, 46.003223], [7.327105, 46.003029], [7.327094, 46.003005], [7.327037, 46.002987], [7.326992, 46.003002], [7.326979, 46.002973], [7.326919, 46.002967], [7.326881, 46.002906], [7.326849, 46.002909], [7.326644, 46.002741], [7.326625, 46.002631], [7.326597, 46.002627], [7.326507, 46.002499], [7.326548, 46.002466], [7.326541, 46.0024], [7.326604, 46.002283], [7.326026, 46.002522], [7.326005, 46.002494], [7.325963, 46.002502], [7.325878, 46.00247], [7.325757, 46.002533], [7.325637, 46.002546], [7.32547, 46.002658], [7.325407, 46.002671], [7.325382, 46.002743], [7.325449, 46.002762], [7.325413, 46.002767], [7.325414, 46.002792], [7.325509, 46.002839], [7.325452, 46.002861], [7.32544, 46.002972], [7.325392, 46.002946], [7.325344, 46.00302], [7.325359, 46.003056], [7.325321, 46.003071], [7.325348, 46.003156], [7.32528, 46.003203], [7.325227, 46.003296], [7.3253, 46.003344], [7.32532, 46.003393], [7.325329, 46.003577], [7.325293, 46.003602], [7.325321, 46.003584], [7.325261, 46.003527], [7.325177, 46.003597], [7.325208, 46.003599], [7.325193, 46.003663], [7.325065, 46.003839], [7.324989, 46.003842], [7.324872, 46.003903], [7.324898, 46.004003], [7.324856, 46.004078], [7.324817, 46.004111], [7.324742, 46.004115], [7.32478, 46.004166], [7.324777, 46.00423], [7.324788, 46.004205], [7.32473, 46.004208], [7.324613, 46.004275], [7.324651, 46.004237], [7.32461, 46.004245], [7.324563, 46.004206], [7.324564, 46.004267], [7.32452, 46.004318], [7.324533, 46.004375], [7.324423, 46.004478], [7.32436, 46.004484], [7.324291, 46.00453], [7.324088, 46.004766], [7.32398, 46.004826], [7.32393, 46.004829], [7.323905, 46.004875], [7.323572, 46.005077], [7.323453, 46.005101], [7.323379, 46.005146], [7.32333, 46.005141], [7.323201, 46.005222], [7.323157, 46.005322], [7.323169, 46.005371], [7.323315, 46.005474], [7.323157, 46.005615], [7.323168, 46.005565], [7.32313, 46.005509], [7.32305, 46.005505], [7.322926, 46.005595], [7.322909, 46.005646], [7.322765, 46.005722], [7.322715, 46.00571], [7.322747, 46.005685], [7.322729, 46.005643], [7.322755, 46.00558], [7.322691, 46.005563], [7.322667, 46.005507], [7.322627, 46.005555], [7.322635, 46.005527], [7.322581, 46.005519], [7.322449, 46.005718], [7.32212, 46.005751], [7.322003, 46.005837], [7.321887, 46.005825], [7.321806, 46.005913], [7.321703, 46.005925], [7.321627, 46.006002], [7.321518, 46.006015], [7.321473, 46.00606], [7.321494, 46.006049], [7.321479, 46.006121], [7.321504, 46.006101], [7.321462, 46.006078], [7.321369, 46.006092], [7.321359, 46.006135], [7.321403, 46.006155], [7.32136, 46.006213], [7.321353, 46.006153], [7.321245, 46.00617], [7.321209, 46.006202], [7.321183, 46.006154], [7.32113, 46.006205], [7.320896, 46.006271], [7.320736, 46.006367], [7.320803, 46.006441], [7.320712, 46.006524], [7.320554, 46.006587], [7.320406, 46.006577], [7.320346, 46.006656], [7.320257, 46.006653], [7.320224, 46.006691], [7.320173, 46.006694], [7.320166, 46.006749], [7.32002, 46.006727], [7.320012, 46.006668], [7.319841, 46.006726], [7.319743, 46.006734], [7.319739, 46.006752], [7.319694, 46.006745], [7.319667, 46.006792], [7.319521, 46.006813], [7.319391, 46.006795], [7.319389, 46.006762], [7.319347, 46.006762], [7.31931, 46.006723], [7.319256, 46.006749], [7.319036, 46.006719], [7.318973, 46.006767], [7.31898, 46.006794], [7.318993, 46.006763], [7.318984, 46.00679], [7.319011, 46.006782], [7.319002, 46.00682], [7.318974, 46.006813], [7.319003, 46.006814], [7.319013, 46.006845], [7.318957, 46.006839], [7.318841, 46.006929], [7.318711, 46.006985], [7.318639, 46.00695], [7.318539, 46.006991], [7.318518, 46.006977], [7.318517, 46.007036], [7.318397, 46.006956], [7.318322, 46.006978], [7.318239, 46.006959], [7.318217, 46.006982], [7.318273, 46.007048], [7.318265, 46.007087], [7.318187, 46.007121], [7.31818, 46.007158], [7.318037, 46.007214], [7.317853, 46.007247], [7.317831, 46.007315], [7.317791, 46.007288], [7.317664, 46.00732], [7.317778, 46.007363], [7.317713, 46.007463], [7.317743, 46.007529], [7.317637, 46.007508], [7.317603, 46.007524], [7.317513, 46.007477], [7.31743, 46.007544], [7.317449, 46.007535], [7.317456, 46.007561], [7.317443, 46.007503], [7.317322, 46.007461], [7.317287, 46.007473], [7.317339, 46.007491], [7.31733, 46.007531], [7.317366, 46.007514], [7.317346, 46.007573], [7.317234, 46.007632], [7.317127, 46.007635], [7.317112, 46.00767], [7.317072, 46.007663], [7.316954, 46.007586], [7.316065, 46.00726], [7.316047, 46.007219], [7.315896, 46.007215], [7.315891, 46.007246], [7.315879, 46.007149], [7.315822, 46.00713], [7.315803, 46.007185], [7.315768, 46.007185], [7.315705, 46.00709], [7.315643, 46.007061], [7.315649, 46.007026], [7.315467, 46.006938], [7.315472, 46.006877], [7.315441, 46.006903], [7.315355, 46.00689], [7.315335, 46.006911], [7.315302, 46.006887], [7.31531, 46.006851], [7.315163, 46.006751], [7.315168, 46.006717], [7.315135, 46.006702], [7.315195, 46.006687], [7.315231, 46.006599], [7.315252, 46.006623], [7.315245, 46.006582], [7.315171, 46.006586], [7.315159, 46.006605], [7.315186, 46.006543], [7.315149, 46.006524], [7.315153, 46.006483], [7.315128, 46.00649], [7.315147, 46.006434], [7.315221, 46.006434], [7.315194, 46.006428], [7.315215, 46.006449], [7.315191, 46.006462], [7.315146, 46.006447], [7.315213, 46.006456], [7.315215, 46.006434], [7.315167, 46.006473], [7.315205, 46.006445], [7.315166, 46.006452], [7.31521, 46.006443], [7.315156, 46.006439], [7.315179, 46.006453], [7.315129, 46.006463], [7.315092, 46.006431], [7.315152, 46.006378], [7.315127, 46.006272], [7.315163, 46.006288], [7.315104, 46.006272], [7.315143, 46.006196], [7.315098, 46.006196], [7.315141, 46.006169], [7.315078, 46.006119], [7.3151, 46.00605], [7.315045, 46.005987], [7.315126, 46.00595], [7.315114, 46.005901], [7.315188, 46.005845], [7.315146, 46.005797], [7.315148, 46.005748], [7.315202, 46.005668], [7.315149, 46.005631], [7.315186, 46.005532], [7.315158, 46.005492], [7.315176, 46.005382], [7.315145, 46.005349], [7.315177, 46.005291], [7.315123, 46.005226], [7.315162, 46.005171], [7.31511, 46.005089], [7.315063, 46.005068], [7.315008, 46.004956], [7.314972, 46.004959], [7.314933, 46.004924], [7.314961, 46.004877], [7.315004, 46.004869], [7.314991, 46.004814], [7.31482, 46.004671], [7.314796, 46.004682], [7.31474, 46.004584], [7.314663, 46.004554], [7.314631, 46.004436], [7.314548, 46.004391], [7.314479, 46.004398], [7.314258, 46.004287], [7.314179, 46.00431], [7.314121, 46.004284], [7.314054, 46.00423], [7.314069, 46.004206], [7.313852, 46.004126], [7.313842, 46.004074], [7.313785, 46.004065], [7.313702, 46.003992], [7.313579, 46.003972], [7.313543, 46.003983], [7.313548, 46.004019], [7.313511, 46.003936], [7.313427, 46.003901], [7.313429, 46.003857], [7.31334, 46.003838], [7.313263, 46.003779], [7.313283, 46.003761], [7.31318, 46.003634], [7.313111, 46.003687], [7.313133, 46.003673], [7.313106, 46.003676], [7.313111, 46.003646], [7.313028, 46.003619], [7.313031, 46.003593], [7.312961, 46.003546], [7.312944, 46.003484], [7.312866, 46.003466], [7.312858, 46.003432], [7.312725, 46.003346], [7.312626, 46.00334], [7.312639, 46.00329], [7.312575, 46.003279], [7.312577, 46.003294], [7.31259, 46.003261], [7.312522, 46.003245], [7.312579, 46.0032], [7.312547, 46.003198], [7.312518, 46.003251], [7.312584, 46.00318], [7.312579, 46.003146], [7.312396, 46.00287], [7.312413, 46.002771], [7.312294, 46.002309], [7.31224, 46.0023], [7.312195, 46.002249], [7.312221, 46.002147], [7.312162, 46.00208], [7.312226, 46.002053], [7.312208, 46.002023], [7.31224, 46.002003], [7.312219, 46.001991], [7.312252, 46.001987], [7.312235, 46.001919], [7.312267, 46.001884], [7.312205, 46.001821], [7.312183, 46.001831], [7.312185, 46.001632], [7.312119, 46.001595], [7.311981, 46.001587], [7.312002, 46.00153], [7.311949, 46.001442], [7.311875, 46.001417], [7.311863, 46.001338], [7.311765, 46.001185], [7.311621, 46.0011], [7.311605, 46.001047], [7.311436, 46.001005], [7.311426, 46.000922], [7.311249, 46.000827], [7.311242, 46.000779], [7.311161, 46.000767], [7.311078, 46.000665], [7.31109, 46.000518], [7.310904, 46.000397], [7.310893, 46.000318], [7.310844, 46.000275], [7.310827, 46.000017], [7.310725, 45.99989], [7.310736, 45.999821], [7.310843, 45.999768], [7.310861, 45.999707], [7.311004, 45.999639], [7.311075, 45.999526], [7.31107, 45.999434], [7.310925, 45.99935], [7.310874, 45.999274], [7.310692, 45.999196], [7.310645, 45.999126], [7.310528, 45.999048], [7.31051, 45.998945], [7.310438, 45.99886], [7.3105, 45.998692], [7.310491, 45.998466], [7.31038, 45.99835], [7.310336, 45.998218], [7.310249, 45.99814], [7.310252, 45.997995], [7.310153, 45.997903], [7.310193, 45.997839], [7.310171, 45.997812], [7.310165, 45.997829], [7.310179, 45.997757], [7.310084, 45.997668], [7.310088, 45.997629], [7.310035, 45.997612], [7.310009, 45.99756], [7.309955, 45.997547], [7.309955, 45.997513], [7.30987, 45.997443]]}, "properties": {"name": "1788163932.Bonatchiesse_panossiere", "cmt": "2026-08-31", "tstamp": 1788134400, "desc": "UpHill", "src": "7.29981/45.994525/7.33023/46.021391", "bbox": "7.29981/45.994525/7.33023/46.021391"}}, {"type": "Feature", "bbox": [7.29981, 45.994525, 7.33023, 46.021391], "geometry": {"type": "LineString", "coordinates": [[7.309859, 45.997442], [7.309865, 45.997395], [7.309714, 45.997279], [7.309602, 45.997161], [7.309625, 45.997114], [7.309545, 45.99707], [7.309545, 45.996954], [7.309567, 45.996952], [7.309551, 45.996987], [7.309567, 45.996966], [7.309546, 45.99695], [7.309628, 45.996912], [7.309615, 45.996845], [7.309478, 45.996704], [7.309377, 45.996684], [7.30933, 45.996605], [7.308939, 45.996389], [7.308657, 45.996361], [7.308522, 45.996321], [7.308349, 45.996248], [7.308343, 45.996211], [7.308198, 45.996147], [7.308143, 45.996153], [7.30808, 45.996125], [7.308119, 45.996125], [7.308088, 45.996101], [7.308106, 45.99608], [7.308035, 45.996106], [7.307984, 45.996083], [7.307933, 45.996031], [7.307967, 45.996014], [7.307946, 45.996006], [7.307932, 45.996024], [7.307959, 45.996031], [7.308015, 45.996], [7.307997, 45.995968], [7.308042, 45.995976], [7.308004, 45.995974], [7.308037, 45.995994], [7.308053, 45.99597], [7.308068, 45.995985], [7.308029, 45.995998], [7.308054, 45.996015], [7.308096, 45.995971], [7.308065, 45.99599], [7.308094, 45.996002], [7.308016, 45.996018], [7.308068, 45.99601], [7.308042, 45.996005], [7.30806, 45.995994], [7.308027, 45.996019], [7.308086, 45.996007], [7.308058, 45.99601], [7.308052, 45.995984], [7.30803, 45.996011], [7.308067, 45.995996], [7.308043, 45.99602], [7.308085, 45.996015], [7.308052, 45.995984], [7.308042, 45.996004], [7.308055, 45.995976], [7.30803, 45.996016], [7.308055, 45.995997], [7.308039, 45.99601], [7.308082, 45.996018], [7.308046, 45.996011], [7.308094, 45.996001], [7.308068, 45.996004], [7.308074, 45.995987], [7.308051, 45.996005], [7.308079, 45.995972], [7.308092, 45.996013], [7.308071, 45.995997], [7.308049, 45.996019], [7.308085, 45.995988], [7.308078, 45.996019], [7.30805, 45.996007], [7.308034, 45.996029], [7.308069, 45.996015], [7.308061, 45.995987], [7.308039, 45.996037], [7.308064, 45.996007], [7.308042, 45.996033], [7.308063, 45.996035], [7.308087, 45.996], [7.308049, 45.996], [7.308087, 45.996009], [7.308075, 45.995984], [7.308056, 45.996019], [7.308007, 45.996002], [7.308039, 45.996069], [7.308034, 45.996026], [7.308069, 45.996009], [7.30804, 45.995985], [7.308072, 45.995993], [7.308027, 45.996036], [7.308055, 45.996008], [7.308062, 45.996037], [7.308037, 45.99601], [7.308075, 45.996021], [7.308092, 45.995993], [7.308034, 45.996048], [7.308097, 45.995992], [7.308067, 45.996011], [7.308061, 45.995976], [7.308108, 45.995971], [7.308065, 45.996003], [7.308087, 45.996011], [7.308082, 45.995972], [7.308026, 45.995982], [7.308022, 45.996004], [7.308049, 45.995998], [7.308007, 45.995991], [7.308056, 45.99603], [7.308044, 45.99601], [7.308071, 45.996016], [7.308042, 45.996023], [7.308027, 45.995991], [7.30803, 45.996058], [7.308031, 45.996032], [7.30806, 45.996032], [7.308036, 45.996015], [7.307978, 45.996041], [7.307933, 45.996031], [7.307936, 45.996046], [7.307949, 45.996], [7.307969, 45.996013], [7.307943, 45.996046], [7.307988, 45.996056], [7.308033, 45.995999], [7.308074, 45.996012], [7.308061, 45.996028], [7.308011, 45.996013], [7.308045, 45.996002], [7.308023, 45.995999], [7.307958, 45.996081], [7.307885, 45.996034], [7.307908, 45.996004], [7.307882, 45.995992], [7.30782, 45.996111], [7.307772, 45.996111], [7.307757, 45.996052], [7.307685, 45.996033], [7.307687, 45.996053], [7.307665, 45.996033], [7.30757, 45.996062], [7.307518, 45.996054], [7.307417, 45.996098], [7.307384, 45.996073], [7.307301, 45.996086], [7.307293, 45.996049], [7.307209, 45.996081], [7.307191, 45.996006], [7.307099, 45.996028], [7.307078, 45.996061], [7.307057, 45.996044], [7.307002, 45.996055], [7.307008, 45.996021], [7.306832, 45.996027], [7.306826, 45.99605], [7.306845, 45.995932], [7.306795, 45.995937], [7.306753, 45.99589], [7.306483, 45.996066], [7.306319, 45.996127], [7.306287, 45.996128], [7.306349, 45.996071], [7.306319, 45.996051], [7.306337, 45.996023], [7.306306, 45.996012], [7.306286, 45.996035], [7.306306, 45.995981], [7.306125, 45.99604], [7.306093, 45.996004], [7.306095, 45.995936], [7.305973, 45.995973], [7.305931, 45.996015], [7.305862, 45.996018], [7.305855, 45.996051], [7.305788, 45.996079], [7.305745, 45.99607], [7.30566, 45.996103], [7.305702, 45.99604], [7.305647, 45.995976], [7.30569, 45.995916], [7.305667, 45.995881], [7.305707, 45.995784], [7.305685, 45.995732], [7.305726, 45.995556], [7.305724, 45.995453], [7.305679, 45.995376], [7.305705, 45.995348], [7.305681, 45.995297], [7.3057, 45.995136], [7.305673, 45.995136], [7.305739, 45.995072], [7.305724, 45.995056], [7.305727, 45.995075], [7.30575, 45.995056], [7.305714, 45.995047], [7.305716, 45.995068], [7.305739, 45.99506], [7.305693, 45.99504], [7.305756, 45.995069], [7.305783, 45.995058], [7.305778, 45.994983], [7.305681, 45.994967], [7.305597, 45.994999], [7.305571, 45.994901], [7.305532, 45.9949], [7.305504, 45.994757], [7.305574, 45.994704], [7.305545, 45.994628], [7.305477, 45.994631], [7.305486, 45.994648], [7.305497, 45.994592], [7.305577, 45.994526], [7.305445, 45.994525], [7.305409, 45.994554], [7.305312, 45.994555], [7.305137, 45.994605], [7.305065, 45.994558], [7.3049, 45.994579], [7.304814, 45.994566], [7.304684, 45.994633], [7.304587, 45.994643], [7.304437, 45.99474], [7.304399, 45.994797], [7.304175, 45.994878], [7.30406, 45.994984], [7.303834, 45.995085], [7.30377, 45.995208], [7.303425, 45.995523], [7.303294, 45.995622], [7.303174, 45.995666], [7.303066, 45.995833], [7.302929, 45.995931], [7.302907, 45.996], [7.302552, 45.996339], [7.3023, 45.99668], [7.302125, 45.996749], [7.301901, 45.996944], [7.3019, 45.996963], [7.301948, 45.996954], [7.301857, 45.997021], [7.301719, 45.997043], [7.301688, 45.997094], [7.301618, 45.997108], [7.301479, 45.997217], [7.301352, 45.997402], [7.301213, 45.997508], [7.301182, 45.997582], [7.301039, 45.997664], [7.300923, 45.997799], [7.300837, 45.997961], [7.300029, 45.998587]]}, "properties": {"name": "1788163932.Bonatchiesse_panossiere", "cmt": "2026-08-31", "tstamp": 1788134400, "desc": "DownHill", "src": "7.29981/45.994525/7.33023/46.021391", "bbox": "7.29981/45.994525/7.33023/46.021391"}}, {"type": "Feature", "bbox": [7.29981, 45.994525, 7.33023, 46.021391], "geometry": {"type": "LineString", "coordinates": [[7.300018, 45.998595], [7.29994, 45.99864], [7.29981, 45.998667]]}, "properties": {"name": "1788163932.Bonatchiesse_panossiere", "cmt": "2026-08-31", "tstamp": 1788134400, "desc": "UpHill", "src": "7.29981/45.994525/7.33023/46.021391", "bbox": "7.29981/45.994525/7.33023/46.021391"}}]}