{"type": "FeatureCollection", "name": "TrackSet", "crs": {"type": "name", "properties": {"name": "urn:ogc:def:crs:OGC:1.3:CRS84"}}, "bbox": [6.140468, 46.416536, 6.178536, 46.443136], "features": [{"type": "Feature", "bbox": [6.140468, 46.416536, 6.178536, 46.443136], "geometry": {"type": "LineString", "coordinates": [[6.177538, 46.417365], [6.177499, 46.417385], [6.177562, 46.417348], [6.1775, 46.417335], [6.177479, 46.417381], [6.177414, 46.417404], [6.177237, 46.41759], [6.177026, 46.417679], [6.176973, 46.417744], [6.176379, 46.417952], [6.175564, 46.41833], [6.175437, 46.418561], [6.175217, 46.418838], [6.174835, 46.419108], [6.174478, 46.419414], [6.174348, 46.419475], [6.174127, 46.419636], [6.173838, 46.419746], [6.173572, 46.419791], [6.173465, 46.41984], [6.173271, 46.419869], [6.173166, 46.419925], [6.173104, 46.419921], [6.173001, 46.419971], [6.172901, 46.419988], [6.172746, 46.420189], [6.171626, 46.420667], [6.17083, 46.420939], [6.170262, 46.421094], [6.17002, 46.421062], [6.169848, 46.421202], [6.169798, 46.421281], [6.16984, 46.421345], [6.169822, 46.421426], [6.169857, 46.421556], [6.16968, 46.421635], [6.169707, 46.42171], [6.169604, 46.421828], [6.169295, 46.422072], [6.169063, 46.422204], [6.168712, 46.422454], [6.168414, 46.422627], [6.168218, 46.422654], [6.168057, 46.422769], [6.167991, 46.422851], [6.167965, 46.423112], [6.168119, 46.423355], [6.168165, 46.423407], [6.16826, 46.423449], [6.168295, 46.423802], [6.168428, 46.42402], [6.168636, 46.424174], [6.168748, 46.424328], [6.168732, 46.42439], [6.168853, 46.424539], [6.168848, 46.424646], [6.168794, 46.424694], [6.168736, 46.4247], [6.168629, 46.424822], [6.168597, 46.424894], [6.168621, 46.424918], [6.168549, 46.425019], [6.168271, 46.425254], [6.168086, 46.42537], [6.168091, 46.425394], [6.168022, 46.425438], [6.168046, 46.425463], [6.167887, 46.425582], [6.167862, 46.425631], [6.167814, 46.425647], [6.167462, 46.426054], [6.167423, 46.426147], [6.167373, 46.426177], [6.167372, 46.426225], [6.167125, 46.426403], [6.167085, 46.426516], [6.166988, 46.426561], [6.166896, 46.426635], [6.166868, 46.426697], [6.166743, 46.42675], [6.166638, 46.426855], [6.166411, 46.426965], [6.166356, 46.42701], [6.166359, 46.427082], [6.166204, 46.427191], [6.166189, 46.427229], [6.166097, 46.427262], [6.166106, 46.427311], [6.166051, 46.427355], [6.165938, 46.427399], [6.165906, 46.427389], [6.165543, 46.427458], [6.165503, 46.427546], [6.16517, 46.427585], [6.164694, 46.42757], [6.16459, 46.42753], [6.164346, 46.427501], [6.164275, 46.427455], [6.164221, 46.427484], [6.163975, 46.427394], [6.163753, 46.427389], [6.163704, 46.427359], [6.163421, 46.427355], [6.163358, 46.427321], [6.163091, 46.427355], [6.163007, 46.427442], [6.162945, 46.427435], [6.162857, 46.427464], [6.162832, 46.427517], [6.162739, 46.427581], [6.162637, 46.427626], [6.162491, 46.427641], [6.162374, 46.427721], [6.162232, 46.427768], [6.162186, 46.427832], [6.162069, 46.427887], [6.161978, 46.428026], [6.161851, 46.428061], [6.16175, 46.428149], [6.161634, 46.428163], [6.161417, 46.428236], [6.161352, 46.428223], [6.161206, 46.428261], [6.16097, 46.428266], [6.160919, 46.428277], [6.160851, 46.428345], [6.160577, 46.428382], [6.160538, 46.428442], [6.16047, 46.428457], [6.160315, 46.428555], [6.160188, 46.428668], [6.160077, 46.428694], [6.159977, 46.428751], [6.159996, 46.428775], [6.159909, 46.428793], [6.159887, 46.428856], [6.159813, 46.428872], [6.159585, 46.429102], [6.159518, 46.429111], [6.159518, 46.429143], [6.159396, 46.429152], [6.159245, 46.429251], [6.159145, 46.429263], [6.159057, 46.429239], [6.158955, 46.429301], [6.158784, 46.429316], [6.15875, 46.429362], [6.158638, 46.429381], [6.158566, 46.429369], [6.158426, 46.429402], [6.158292, 46.429494], [6.15814, 46.429523], [6.157938, 46.429734], [6.157745, 46.429727], [6.15741, 46.429826], [6.157368, 46.429865], [6.157324, 46.429844], [6.157298, 46.429866], [6.157223, 46.429859], [6.156891, 46.430016], [6.156743, 46.430043], [6.156721, 46.430114], [6.156632, 46.430119], [6.156538, 46.430181], [6.156539, 46.430212], [6.156466, 46.430246], [6.156429, 46.43034], [6.156281, 46.430383], [6.156021, 46.43053], [6.156002, 46.430577], [6.156046, 46.430656], [6.155972, 46.430851], [6.156038, 46.430992], [6.156017, 46.431089], [6.156097, 46.431111], [6.156097, 46.431222], [6.156032, 46.431225], [6.156041, 46.431247], [6.155987, 46.431277], [6.155933, 46.431267], [6.155889, 46.431297], [6.155927, 46.431322], [6.155861, 46.43134], [6.155879, 46.431387], [6.155805, 46.431422], [6.155827, 46.43149], [6.155787, 46.431513], [6.15575, 46.431608], [6.15582, 46.431637], [6.155823, 46.431744], [6.1557, 46.431813], [6.155622, 46.431902], [6.155345, 46.431973], [6.155294, 46.432009], [6.155291, 46.432064], [6.155167, 46.432037], [6.155082, 46.43207], [6.155059, 46.432125], [6.154984, 46.432116], [6.154952, 46.432158], [6.154232, 46.432238], [6.153792, 46.432241], [6.153728, 46.432182], [6.153654, 46.432224], [6.153525, 46.432226], [6.153473, 46.432266], [6.153465, 46.432323], [6.1532, 46.43243], [6.152958, 46.432476], [6.152906, 46.432508], [6.152631, 46.432578], [6.152498, 46.432578], [6.152438, 46.432603], [6.152334, 46.432592], [6.152293, 46.432619], [6.152177, 46.432633], [6.152114, 46.43261], [6.15209, 46.432639], [6.151876, 46.432624], [6.151854, 46.432654], [6.151292, 46.432638], [6.150704, 46.432661], [6.150558, 46.432686], [6.150486, 46.43267], [6.150324, 46.432736], [6.150094, 46.432685], [6.14993, 46.432711], [6.149873, 46.432766], [6.14974, 46.432797], [6.149594, 46.432868], [6.149519, 46.432862], [6.149321, 46.43292], [6.149218, 46.432926], [6.149267, 46.43296], [6.149276, 46.432937], [6.14928, 46.432958], [6.149235, 46.43294], [6.14902, 46.432949], [6.148956, 46.432986], [6.148104, 46.433097], [6.147987, 46.433076], [6.147844, 46.433084], [6.147509, 46.433233], [6.147443, 46.433328], [6.147207, 46.433387], [6.147126, 46.433452], [6.147001, 46.433481], [6.146781, 46.433755], [6.146784, 46.433809], [6.146596, 46.433922], [6.146579, 46.433957], [6.146525, 46.433949], [6.146475, 46.433986], [6.146274, 46.434039], [6.146217, 46.434108], [6.146136, 46.434131], [6.146017, 46.434231], [6.145751, 46.434291], [6.145695, 46.434338], [6.145624, 46.434346], [6.145623, 46.434372], [6.145467, 46.434438], [6.145403, 46.434435], [6.145325, 46.434482], [6.145243, 46.434473], [6.145153, 46.434506], [6.14512, 46.434478], [6.144956, 46.434492], [6.144917, 46.434477], [6.144813, 46.434529], [6.144748, 46.43451], [6.144691, 46.434554], [6.144545, 46.434598], [6.144495, 46.434648], [6.144353, 46.434674], [6.144357, 46.434711], [6.144265, 46.434723], [6.144215, 46.434787], [6.144106, 46.434772], [6.144013, 46.434825], [6.143954, 46.43481], [6.143647, 46.434942], [6.143482, 46.434952], [6.143441, 46.434913], [6.143394, 46.434955], [6.143237, 46.434951], [6.143252, 46.434974], [6.143115, 46.43498], [6.142946, 46.435023], [6.142884, 46.435059], [6.142891, 46.435115], [6.142755, 46.435171], [6.142786, 46.435214], [6.142704, 46.435232], [6.142704, 46.43527], [6.142609, 46.435275], [6.142597, 46.435303], [6.142538, 46.43529], [6.142519, 46.435333], [6.142432, 46.435345], [6.142402, 46.435327], [6.142404, 46.435375], [6.142317, 46.435405], [6.142344, 46.435434], [6.142189, 46.435448], [6.14213, 46.435479], [6.142106, 46.435535], [6.141957, 46.435585], [6.141909, 46.435578], [6.141855, 46.435635], [6.141695, 46.435612], [6.141563, 46.435658], [6.141504, 46.435764], [6.141345, 46.435838], [6.141336, 46.435896], [6.141311, 46.435891], [6.141316, 46.435855], [6.141285, 46.435852], [6.141322, 46.435995], [6.141285, 46.43598], [6.14132, 46.435949], [6.141278, 46.435937], [6.141354, 46.435956], [6.141372, 46.435942], [6.141342, 46.435967], [6.14127, 46.435963], [6.141314, 46.435979], [6.141248, 46.436016], [6.141129, 46.436025]]}, "properties": {"name": "1789816382.Jura_with_Tim", "cmt": "2026-09-19", "tstamp": 1789776000, "desc": "UpHill", "src": "6.140468/46.416536/6.178536/46.443136", "bbox": "6.140468/46.416536/6.178536/46.443136"}}, {"type": "Feature", "bbox": [6.140468, 46.416536, 6.178536, 46.443136], "geometry": {"type": "LineString", "coordinates": [[6.141119, 46.436022], [6.141076, 46.436076], [6.140983, 46.436098], [6.140932, 46.436182], [6.140655, 46.436331], [6.140585, 46.436528], [6.140468, 46.436598], [6.14052, 46.43657], [6.140566, 46.436581], [6.140639, 46.436658], [6.14091, 46.436747], [6.141011, 46.436731], [6.141142, 46.436773], [6.141349, 46.436791], [6.141652, 46.436911], [6.141801, 46.436902], [6.14186, 46.436855], [6.141905, 46.436883], [6.141952, 46.436844], [6.141993, 46.436844], [6.142068, 46.43693], [6.142229, 46.436951], [6.142448, 46.437021], [6.142669, 46.436993], [6.14276, 46.43703], [6.142794, 46.437011], [6.142826, 46.437044], [6.142906, 46.43703], [6.142979, 46.437049], [6.143053, 46.437001], [6.143205, 46.437008], [6.143391, 46.437037], [6.143534, 46.437107], [6.143696, 46.437078], [6.143793, 46.437131], [6.143964, 46.437136], [6.144199, 46.437194], [6.144282, 46.437157], [6.144383, 46.437164], [6.1445, 46.437113], [6.144681, 46.437093], [6.145016, 46.437169], [6.145056, 46.43714], [6.145117, 46.437138], [6.145252, 46.437221], [6.145363, 46.437246], [6.145419, 46.437299], [6.145568, 46.437266], [6.145585, 46.437297], [6.145527, 46.437319], [6.145571, 46.437394], [6.145546, 46.437394], [6.145639, 46.437468], [6.145615, 46.437547], [6.145534, 46.437606], [6.145561, 46.437683], [6.145542, 46.437732], [6.145572, 46.437808], [6.145666, 46.437908], [6.145652, 46.437955], [6.145785, 46.438033], [6.14575, 46.438044], [6.145721, 46.438138], [6.145748, 46.438229], [6.145718, 46.43832], [6.145754, 46.438363], [6.145729, 46.438425], [6.145765, 46.438526], [6.145855, 46.438572], [6.145949, 46.438569], [6.146021, 46.438603], [6.146157, 46.438586], [6.146335, 46.438653], [6.146416, 46.43866], [6.146627, 46.438631], [6.147188, 46.438657], [6.147547, 46.438783], [6.147695, 46.438795], [6.147899, 46.438857], [6.148159, 46.438899], [6.149112, 46.438915], [6.14922, 46.438954], [6.149334, 46.439051], [6.149398, 46.439064], [6.149443, 46.439103], [6.149704, 46.439104], [6.149941, 46.439151], [6.150051, 46.439144], [6.150877, 46.439232], [6.151098, 46.439227], [6.151525, 46.439266], [6.151719, 46.439309], [6.15189, 46.439383], [6.151978, 46.439384], [6.152106, 46.439348], [6.152194, 46.439295], [6.152397, 46.439314], [6.152934, 46.439261], [6.153404, 46.439276], [6.153628, 46.439498], [6.153823, 46.439543], [6.154008, 46.439647], [6.154016, 46.439746], [6.15394, 46.439891], [6.153938, 46.440101], [6.154058, 46.440148], [6.154105, 46.440229], [6.154175, 46.440251], [6.154231, 46.440341], [6.154438, 46.4404], [6.15463, 46.440509], [6.154714, 46.440595], [6.1548, 46.440608], [6.154835, 46.440642], [6.154868, 46.440746], [6.154833, 46.440767], [6.154891, 46.440865], [6.154887, 46.440991], [6.155029, 46.441258], [6.154991, 46.441389], [6.154885, 46.441473], [6.154816, 46.441599], [6.154659, 46.441761], [6.154521, 46.441834], [6.154452, 46.44198], [6.154381, 46.442023], [6.154322, 46.442124], [6.154226, 46.442203], [6.154183, 46.442319], [6.153928, 46.442435], [6.153915, 46.442484], [6.153955, 46.442522], [6.154243, 46.442649], [6.154449, 46.442644], [6.154482, 46.442603], [6.154562, 46.442592], [6.154787, 46.442597], [6.154857, 46.442622], [6.154944, 46.442603], [6.1551, 46.442645], [6.155148, 46.442629], [6.155346, 46.442654], [6.155901, 46.442806], [6.156191, 46.442849], [6.156334, 46.44294], [6.157004, 46.442896], [6.157654, 46.442808], [6.158069, 46.44282], [6.158198, 46.442882], [6.158195, 46.442978], [6.158245, 46.443077], [6.158274, 46.443064], [6.158249, 46.443052], [6.158277, 46.443077], [6.158272, 46.443035], [6.158303, 46.443027], [6.158316, 46.443047], [6.158329, 46.443028], [6.158352, 46.443036], [6.15829, 46.443077], [6.15832, 46.443069], [6.158374, 46.443099], [6.15851, 46.443077], [6.158554, 46.443091], [6.158545, 46.443046], [6.158566, 46.443053], [6.158504, 46.443059], [6.158316, 46.443006], [6.158358, 46.442974], [6.158476, 46.442985], [6.15846, 46.443011], [6.158436, 46.442984], [6.158404, 46.443001], [6.158407, 46.442945], [6.158413, 46.442978], [6.158369, 46.442986], [6.158437, 46.442944], [6.158354, 46.442863], [6.158393, 46.442916], [6.158441, 46.442926], [6.158423, 46.442867], [6.158365, 46.442829], [6.158414, 46.442816], [6.158529, 46.442876], [6.15851, 46.442835], [6.158538, 46.442687], [6.158593, 46.442666], [6.158623, 46.442593], [6.158841, 46.442531], [6.158853, 46.442479], [6.159054, 46.442473], [6.159152, 46.442413], [6.159229, 46.442424], [6.159234, 46.442383], [6.159351, 46.442283], [6.159473, 46.442255], [6.159637, 46.442288], [6.159704, 46.442249], [6.159768, 46.442296], [6.159977, 46.44223], [6.160018, 46.442241], [6.160044, 46.442302], [6.160084, 46.442201], [6.160185, 46.442202], [6.160293, 46.44215], [6.160424, 46.442141], [6.160595, 46.442089], [6.160792, 46.442167], [6.160892, 46.442146], [6.160947, 46.442173], [6.161076, 46.442152], [6.161141, 46.442167], [6.161152, 46.44221], [6.161138, 46.44219], [6.161247, 46.442181], [6.161421, 46.442201], [6.161474, 46.442262], [6.16163, 46.442226], [6.161725, 46.442229], [6.161773, 46.442306], [6.161887, 46.442356], [6.161844, 46.442519], [6.161872, 46.442578], [6.161822, 46.442616], [6.16181, 46.442758], [6.161771, 46.442805], [6.161614, 46.442889], [6.161566, 46.442959], [6.161656, 46.443088], [6.161776, 46.443136], [6.161843, 46.443131], [6.161928, 46.443025], [6.162273, 46.443006], [6.162325, 46.442942], [6.162528, 46.442919], [6.162567, 46.442933], [6.162776, 46.442845], [6.162908, 46.442818], [6.16303, 46.442849], [6.163121, 46.442748], [6.163166, 46.442743], [6.163203, 46.442672], [6.163285, 46.442642], [6.163381, 46.442543], [6.163475, 46.442517], [6.163527, 46.442427], [6.163521, 46.442363], [6.163722, 46.442371], [6.163768, 46.442397], [6.163907, 46.442388], [6.163946, 46.442455], [6.163942, 46.442581], [6.163911, 46.442615], [6.163966, 46.442609], [6.163971, 46.44263], [6.163996, 46.442607], [6.164081, 46.442685], [6.164153, 46.442695], [6.164266, 46.442643], [6.16431, 46.442592], [6.164425, 46.44254], [6.164463, 46.442451], [6.164488, 46.442501], [6.164469, 46.44253], [6.164507, 46.442501], [6.16446, 46.442505], [6.164505, 46.442399], [6.164598, 46.4423], [6.164619, 46.442207], [6.164589, 46.442159], [6.164465, 46.44202], [6.164382, 46.442008], [6.164327, 46.441962], [6.164194, 46.441913], [6.163522, 46.441838], [6.163356, 46.441733], [6.163197, 46.441734], [6.163131, 46.441584], [6.163133, 46.441482], [6.163195, 46.441465], [6.163183, 46.441433], [6.163218, 46.441424], [6.163146, 46.441312], [6.163239, 46.441142], [6.163381, 46.441102], [6.163538, 46.441009], [6.163794, 46.441061], [6.163852, 46.441122], [6.164352, 46.441167], [6.16466, 46.441161], [6.164778, 46.441197], [6.164886, 46.441193], [6.165001, 46.44122], [6.165045, 46.441197], [6.165054, 46.441129], [6.165119, 46.441047], [6.165204, 46.441085], [6.165431, 46.441014], [6.165901, 46.44083], [6.16656, 46.440513], [6.166896, 46.440393], [6.167126, 46.440342], [6.167481, 46.440201], [6.167697, 46.440083], [6.167712, 46.440034], [6.167881, 46.439909], [6.167883, 46.439843], [6.167715, 46.439562], [6.167749, 46.439521], [6.167574, 46.439353], [6.167334, 46.439179], [6.167104, 46.439076], [6.166978, 46.439045], [6.166931, 46.439002], [6.166835, 46.438984], [6.166547, 46.438969], [6.166294, 46.439003], [6.166251, 46.438895], [6.166131, 46.438819], [6.166065, 46.438687], [6.165954, 46.438584], [6.165937, 46.43851], [6.166004, 46.438475], [6.165989, 46.43843], [6.165763, 46.438087], [6.165661, 46.438016], [6.16553, 46.437985], [6.165373, 46.437863], [6.165387, 46.437778], [6.165333, 46.437671], [6.165321, 46.437486], [6.165329, 46.43739], [6.165422, 46.437348], [6.165443, 46.437297], [6.165522, 46.437256], [6.165562, 46.437261], [6.165609, 46.437141], [6.165681, 46.437149], [6.165748, 46.437195], [6.166215, 46.43695], [6.16701, 46.436427], [6.16716, 46.436362], [6.167329, 46.436098], [6.167446, 46.43604], [6.167559, 46.435872], [6.167718, 46.435751], [6.167889, 46.435697], [6.1681, 46.435565], [6.168206, 46.435538], [6.168337, 46.43541], [6.168468, 46.435373], [6.16854, 46.43532], [6.168619, 46.435179], [6.168644, 46.434993], [6.168614, 46.434797], [6.168661, 46.434744], [6.16864, 46.434684], [6.168682, 46.434423], [6.168864, 46.433947], [6.168827, 46.433893], [6.168865, 46.433684], [6.169093, 46.433409], [6.169246, 46.433136], [6.169283, 46.432966], [6.169147, 46.432563], [6.169145, 46.432252], [6.169183, 46.432154], [6.169398, 46.432001], [6.169558, 46.431802], [6.169463, 46.431466], [6.169419, 46.431447], [6.169391, 46.431359], [6.169321, 46.431307], [6.16931, 46.43111], [6.169353, 46.43097], [6.169383, 46.430629], [6.169417, 46.430602], [6.169485, 46.430397], [6.16948, 46.430299], [6.169516, 46.430261], [6.169428, 46.429812], [6.169382, 46.429698], [6.169357, 46.429706], [6.169394, 46.429722], [6.169418, 46.429699], [6.16943, 46.429354], [6.169402, 46.429282], [6.16936, 46.42926], [6.169169, 46.429261], [6.16911, 46.429227], [6.168953, 46.429213], [6.168487, 46.429332], [6.168514, 46.429356], [6.168484, 46.429316], [6.168371, 46.429295], [6.168318, 46.429319], [6.168133, 46.429234], [6.16806, 46.429264], [6.168073, 46.429297], [6.167979, 46.429268], [6.167945, 46.429225], [6.167837, 46.429243], [6.167837, 46.429181], [6.167807, 46.429217], [6.167782, 46.42918], [6.167839, 46.429117], [6.167822, 46.429063], [6.167732, 46.428982], [6.167698, 46.428974], [6.167708, 46.42899], [6.167703, 46.428934], [6.167746, 46.428938], [6.167728, 46.428923], [6.167846, 46.428872], [6.167846, 46.428851], [6.168031, 46.428796], [6.168206, 46.428703], [6.168235, 46.428591], [6.168297, 46.428514], [6.168409, 46.428442], [6.168626, 46.428183], [6.168733, 46.428173], [6.168891, 46.428099], [6.169006, 46.428083], [6.169105, 46.428005], [6.169342, 46.427994], [6.169678, 46.427867], [6.169755, 46.4278], [6.169836, 46.427788], [6.170081, 46.427659], [6.170161, 46.427655], [6.170243, 46.427556], [6.170439, 46.427463], [6.170594, 46.427324], [6.170745, 46.427262], [6.170784, 46.427207], [6.1708, 46.427085], [6.171032, 46.426931], [6.171048, 46.426875], [6.171112, 46.426831], [6.171128, 46.42676], [6.171244, 46.426642], [6.171302, 46.426505], [6.171671, 46.426223], [6.171743, 46.426055], [6.171976, 46.425966], [6.171975, 46.425888], [6.172098, 46.425837], [6.172119, 46.425789], [6.172183, 46.425749], [6.172251, 46.425618], [6.172322, 46.42562], [6.172515, 46.425543], [6.172634, 46.425432], [6.172684, 46.425425], [6.172871, 46.425313], [6.172949, 46.425304], [6.17301, 46.425241], [6.173653, 46.425097], [6.1738, 46.425099], [6.173915, 46.425043], [6.173869, 46.424961], [6.173738, 46.424872], [6.173727, 46.424797], [6.173464, 46.424492], [6.173386, 46.424334], [6.173048, 46.423962], [6.17297, 46.42391], [6.172817, 46.423619], [6.172826, 46.423486], [6.172841, 46.42345], [6.172894, 46.423428], [6.172877, 46.423373], [6.172987, 46.423239], [6.172968, 46.423199], [6.17309, 46.423069], [6.173175, 46.422898], [6.17324, 46.422852], [6.173305, 46.422689], [6.173273, 46.422561], [6.173294, 46.422471], [6.173251, 46.422447], [6.173212, 46.42235], [6.173132, 46.421948], [6.173076, 46.421869], [6.173041, 46.421889], [6.173075, 46.421826], [6.172965, 46.421539], [6.172966, 46.421257], [6.173104, 46.421139], [6.173084, 46.421087], [6.173132, 46.421013], [6.173237, 46.420907], [6.173581, 46.420421], [6.173661, 46.420289], [6.173648, 46.420238], [6.173793, 46.419837], [6.17388, 46.419759], [6.174242, 46.419632], [6.174722, 46.419211], [6.175025, 46.418999], [6.175237, 46.418819], [6.175694, 46.418284], [6.175976, 46.418125], [6.176729, 46.417841], [6.176884, 46.417846], [6.177001, 46.417824], [6.177119, 46.417668], [6.177571, 46.417339], [6.177614, 46.417286], [6.177613, 46.417233], [6.177545, 46.417207], [6.177628, 46.41725], [6.177775, 46.417208], [6.178016, 46.41695], [6.178161, 46.416855], [6.178196, 46.416786], [6.178315, 46.416714], [6.178493, 46.416544], [6.178536, 46.416536]]}, "properties": {"name": "1789816382.Jura_with_Tim", "cmt": "2026-09-19", "tstamp": 1789776000, "desc": "DownHill", "src": "6.140468/46.416536/6.178536/46.443136", "bbox": "6.140468/46.416536/6.178536/46.443136"}}]}