{"type": "FeatureCollection", "name": "TrackSet", "crs": {"type": "name", "properties": {"name": "urn:ogc:def:crs:OGC:1.3:CRS84"}}, "bbox": [-3.590491, 56.558099, -3.575772, 56.565645], "features": [{"type": "Feature", "bbox": [-3.590491, 56.558099, -3.575772, 56.565645], "geometry": {"type": "LineString", "coordinates": [[-3.588783, 56.565142], [-3.588872, 56.56499], [-3.588858, 56.564912], [-3.588985, 56.564872], [-3.588934, 56.564864], [-3.588966, 56.564887], [-3.588906, 56.5649], [-3.588862, 56.564849], [-3.588905, 56.564789], [-3.588885, 56.564597], [-3.588944, 56.564482], [-3.588897, 56.564368], [-3.588971, 56.564445], [-3.589072, 56.564467], [-3.589423, 56.56443], [-3.589449, 56.564444], [-3.589794, 56.564373], [-3.589829, 56.564325], [-3.589861, 56.564326], [-3.590011, 56.564414], [-3.590323, 56.564524], [-3.590461, 56.564619], [-3.590491, 56.564671], [-3.590411, 56.56472], [-3.590381, 56.564824], [-3.59025, 56.564904], [-3.590174, 56.564887], [-3.590111, 56.564938], [-3.590038, 56.564936], [-3.589951, 56.564982], [-3.589808, 56.564974], [-3.589803, 56.565047], [-3.589854, 56.565128], [-3.589828, 56.565146], [-3.589562, 56.56506], [-3.589693, 56.56491], [-3.589563, 56.564777], [-3.58984, 56.565006], [-3.589793, 56.564988], [-3.58979, 56.564949], [-3.589552, 56.564961], [-3.589566, 56.564998], [-3.589536, 56.565004], [-3.589284, 56.564985], [-3.589192, 56.565028], [-3.589175, 56.565109], [-3.589116, 56.56513], [-3.588854, 56.565122], [-3.588512, 56.565198], [-3.588182, 56.565218], [-3.587862, 56.565307], [-3.587846, 56.565336], [-3.587865, 56.565299], [-3.587631, 56.565353], [-3.587598, 56.565328], [-3.587555, 56.56536], [-3.587366, 56.565343], [-3.587236, 56.565394], [-3.587294, 56.56537], [-3.587234, 56.565329], [-3.587267, 56.565313], [-3.58728, 56.565386], [-3.5872, 56.565329], [-3.587238, 56.565396], [-3.58702, 56.565464], [-3.587221, 56.565453], [-3.587431, 56.565381], [-3.587342, 56.565284], [-3.587294, 56.565162], [-3.587088, 56.565262], [-3.58714, 56.565275], [-3.587196, 56.565352], [-3.58703, 56.565431], [-3.586634, 56.56549], [-3.58604, 56.565485], [-3.585871, 56.565373], [-3.586126, 56.565547], [-3.585577, 56.565622], [-3.585484, 56.565467], [-3.585473, 56.565498], [-3.585437, 56.565481], [-3.585434, 56.565215], [-3.585253, 56.565102], [-3.585294, 56.565072], [-3.585312, 56.565085], [-3.585225, 56.565065], [-3.585166, 56.56495], [-3.585265, 56.564654], [-3.585222, 56.564477], [-3.585219, 56.564525], [-3.585278, 56.564434], [-3.585239, 56.564405], [-3.585269, 56.564289], [-3.585204, 56.564146], [-3.585237, 56.56414], [-3.585253, 56.56408], [-3.585186, 56.563733], [-3.585221, 56.563469], [-3.585057, 56.562861], [-3.585093, 56.562745], [-3.585016, 56.562127], [-3.585059, 56.561891], [-3.584991, 56.561664], [-3.584615, 56.561507], [-3.584528, 56.561417], [-3.584467, 56.561421], [-3.584496, 56.561351], [-3.584215, 56.561207], [-3.584202, 56.561158], [-3.58412, 56.561097], [-3.583997, 56.561073], [-3.583735, 56.561079], [-3.583571, 56.561055], [-3.583415, 56.560974], [-3.583084, 56.56098], [-3.582549, 56.560867], [-3.582416, 56.560878], [-3.581987, 56.560797], [-3.581761, 56.560788], [-3.581458, 56.560721], [-3.581137, 56.560699], [-3.580874, 56.560618], [-3.58071, 56.560614], [-3.580543, 56.560531], [-3.580008, 56.560355], [-3.579498, 56.56008], [-3.579116, 56.559735], [-3.578838, 56.559542], [-3.578596, 56.559438], [-3.578115, 56.559315], [-3.578049, 56.559273], [-3.578071, 56.55922], [-3.577956, 56.55911], [-3.577727, 56.559028], [-3.577657, 56.559042], [-3.577527, 56.558956], [-3.577534, 56.558892], [-3.577652, 56.558818], [-3.577846, 56.558926], [-3.577812, 56.558951], [-3.577822, 56.558926], [-3.577947, 56.558947], [-3.57797, 56.55893], [-3.577951, 56.558975], [-3.578022, 56.558912], [-3.577972, 56.558863], [-3.578105, 56.558905], [-3.578135, 56.558945], [-3.578147, 56.558865], [-3.578197, 56.558828], [-3.578172, 56.558857], [-3.578146, 56.558805], [-3.578174, 56.558786], [-3.578129, 56.558745], [-3.578056, 56.558782], [-3.57801, 56.558766], [-3.577993, 56.558788], [-3.577966, 56.558743], [-3.577876, 56.558732], [-3.577837, 56.558641], [-3.577739, 56.558651], [-3.577631, 56.558573], [-3.577645, 56.558481], [-3.577519, 56.558435], [-3.577493, 56.558374], [-3.5776, 56.55846], [-3.577535, 56.558473], [-3.577683, 56.558565], [-3.577775, 56.558574], [-3.577718, 56.558661], [-3.577621, 56.558694], [-3.577518, 56.558674], [-3.577271, 56.558719], [-3.577158, 56.558716], [-3.577038, 56.558648], [-3.577001, 56.558745], [-3.577027, 56.558795], [-3.576983, 56.558834], [-3.576925, 56.558777], [-3.577009, 56.558734], [-3.576929, 56.558624], [-3.576752, 56.558571], [-3.576713, 56.558497], [-3.576591, 56.558438], [-3.576482, 56.558333], [-3.576403, 56.558313], [-3.576179, 56.558126], [-3.576124, 56.558099], [-3.576047, 56.558136], [-3.576069, 56.558119], [-3.576051, 56.558135], [-3.5761, 56.55815], [-3.576079, 56.558208], [-3.576152, 56.558244], [-3.576153, 56.558272], [-3.576207, 56.558225], [-3.576209, 56.558251], [-3.576173, 56.558227], [-3.576114, 56.558258], [-3.576004, 56.558153], [-3.575913, 56.558134], [-3.575971, 56.558134], [-3.575995, 56.558181], [-3.576023, 56.558177], [-3.576041, 56.558318], [-3.575828, 56.558352], [-3.575772, 56.558295], [-3.575815, 56.558296], [-3.575779, 56.55831], [-3.57579, 56.558358], [-3.575867, 56.558363], [-3.57583, 56.558424], [-3.575916, 56.558401], [-3.575988, 56.558326], [-3.575899, 56.558366], [-3.575881, 56.55834], [-3.576074, 56.558213], [-3.575843, 56.558256], [-3.575906, 56.558253], [-3.57589, 56.558201], [-3.575954, 56.558128], [-3.576967, 56.558707], [-3.577019, 56.55878], [-3.576982, 56.55888], [-3.577005, 56.558867], [-3.577008, 56.558885], [-3.576828, 56.558819], [-3.57669, 56.558829], [-3.576942, 56.558702], [-3.576969, 56.558782], [-3.577033, 56.558764], [-3.577035, 56.558728], [-3.576928, 56.558983], [-3.576576, 56.558825], [-3.575985, 56.558735], [-3.576121, 56.558712], [-3.57698, 56.55881], [-3.577125, 56.558762], [-3.57717, 56.558825], [-3.577122, 56.558908], [-3.577222, 56.558918], [-3.578212, 56.559326], [-3.578707, 56.559456], [-3.578831, 56.559512], [-3.579345, 56.559811], [-3.579345, 56.55989], [-3.579455, 56.559942], [-3.579532, 56.560079], [-3.579852, 56.560194], [-3.579958, 56.560307], [-3.580174, 56.560375], [-3.580313, 56.560449], [-3.580709, 56.560544], [-3.581043, 56.560669], [-3.581294, 56.560675], [-3.581058, 56.561025], [-3.581118, 56.561061], [-3.581486, 56.561106], [-3.581548, 56.561151], [-3.581458, 56.561687], [-3.581512, 56.561775], [-3.581632, 56.561846], [-3.582128, 56.561886], [-3.582297, 56.561877], [-3.583133, 56.561954], [-3.583793, 56.562106], [-3.584083, 56.562147], [-3.584185, 56.562136], [-3.584622, 56.562169], [-3.585008, 56.562157], [-3.585094, 56.562181], [-3.585154, 56.563031], [-3.585266, 56.563161], [-3.58532, 56.563363], [-3.585353, 56.563347], [-3.585261, 56.563324], [-3.585303, 56.563398], [-3.585275, 56.563545], [-3.585364, 56.564365], [-3.585329, 56.56472], [-3.585373, 56.564731], [-3.585434, 56.56481], [-3.585361, 56.564807], [-3.585282, 56.564879], [-3.585258, 56.565005], [-3.58517, 56.565019], [-3.585111, 56.564985], [-3.58512, 56.564644], [-3.585163, 56.56462], [-3.585257, 56.564623], [-3.585285, 56.564584], [-3.585357, 56.564572], [-3.585417, 56.564615], [-3.585557, 56.564618], [-3.585492, 56.564587], [-3.586119, 56.564654], [-3.586125, 56.564789], [-3.586229, 56.565062], [-3.586319, 56.565128], [-3.586407, 56.565442], [-3.58649, 56.565458], [-3.586519, 56.565548], [-3.586487, 56.565625], [-3.586376, 56.565645]]}, "properties": {"name": "1789125851.Dunkeld", "cmt": "2026-09-11", "tstamp": 1789084800, "desc": "---", "src": "-3.590491/56.558099/-3.575772/56.565645", "bbox": "-3.590491/56.558099/-3.575772/56.565645"}}]}