{"type": "FeatureCollection", "name": "TrackSet", "crs": {"type": "name", "properties": {"name": "urn:ogc:def:crs:OGC:1.3:CRS84"}}, "bbox": [6.180084, 46.335332, 6.19049, 46.350014], "features": [{"type": "Feature", "bbox": [6.180084, 46.335332, 6.19049, 46.350014], "geometry": {"type": "LineString", "coordinates": [[6.181396, 46.335728], [6.181474, 46.335731], [6.181522, 46.335686], [6.181816, 46.335618], [6.182093, 46.335502], [6.182195, 46.3355], [6.18258, 46.335341], [6.182567, 46.335358], [6.182783, 46.335332], [6.182556, 46.335359], [6.18206, 46.335502], [6.181614, 46.33567], [6.180752, 46.336062], [6.18066, 46.336146], [6.18052, 46.336187], [6.180368, 46.336299], [6.180098, 46.33659], [6.180084, 46.336615], [6.180128, 46.336675], [6.180375, 46.336868], [6.180683, 46.33722], [6.180768, 46.337268], [6.180851, 46.337391], [6.180909, 46.337413], [6.181079, 46.337603], [6.181205, 46.337672], [6.181282, 46.337809], [6.181367, 46.337865], [6.181444, 46.33797], [6.181557, 46.338033], [6.181585, 46.338102], [6.181671, 46.338154], [6.18179, 46.338305], [6.182196, 46.338668], [6.182379, 46.338904], [6.182601, 46.339101], [6.182639, 46.33917], [6.183453, 46.33993], [6.183466, 46.339988], [6.18396, 46.340435], [6.184194, 46.340707], [6.184261, 46.340744], [6.184353, 46.340882], [6.185004, 46.341492], [6.185095, 46.341522], [6.185306, 46.341442], [6.186142, 46.340955], [6.186259, 46.340909], [6.186319, 46.340918], [6.186554, 46.341154], [6.186631, 46.341181], [6.186746, 46.341331], [6.18693, 46.341469], [6.187064, 46.341639], [6.18724, 46.341754], [6.187278, 46.341818], [6.187751, 46.342227], [6.18779, 46.342299], [6.187884, 46.342338], [6.187927, 46.342405], [6.188092, 46.342523], [6.188222, 46.342649], [6.188249, 46.342727], [6.188457, 46.342888], [6.188585, 46.343025], [6.188678, 46.343072], [6.1888, 46.343238], [6.188849, 46.343254], [6.188887, 46.343316], [6.189023, 46.343403], [6.189157, 46.343541], [6.189258, 46.343691], [6.189404, 46.343796], [6.18944, 46.343853], [6.18953, 46.343887], [6.18962, 46.344003], [6.189803, 46.344136], [6.190081, 46.344452], [6.190192, 46.344523], [6.190191, 46.34455], [6.19049, 46.344837], [6.190416, 46.344903], [6.190186, 46.344992], [6.190096, 46.345069], [6.189796, 46.345176], [6.189726, 46.345177], [6.189656, 46.345278], [6.189573, 46.345277], [6.189365, 46.345347], [6.18911, 46.345515], [6.188924, 46.34557], [6.188826, 46.345618], [6.188743, 46.345697], [6.188562, 46.34575], [6.188441, 46.345851], [6.188316, 46.345878], [6.188255, 46.345935], [6.187902, 46.346059], [6.187705, 46.34617], [6.187338, 46.34629], [6.186872, 46.346588], [6.186688, 46.346638], [6.186468, 46.346763], [6.186294, 46.346646], [6.186161, 46.346647], [6.185778, 46.346876], [6.185664, 46.346906], [6.185573, 46.346897], [6.185481, 46.346753], [6.185301, 46.346611], [6.185308, 46.346582], [6.18508, 46.346389], [6.184992, 46.346264], [6.184595, 46.345946], [6.184505, 46.34583], [6.184458, 46.345814], [6.184393, 46.345814], [6.184275, 46.34586], [6.184037, 46.345995], [6.183538, 46.346196], [6.183496, 46.346279], [6.183308, 46.346395], [6.18329, 46.346451], [6.183117, 46.346563], [6.182958, 46.346611], [6.182872, 46.346747], [6.182669, 46.346825], [6.182577, 46.346914], [6.182409, 46.346994], [6.182282, 46.347106], [6.18218, 46.347134], [6.182043, 46.347224], [6.181638, 46.347626], [6.181397, 46.347772], [6.181356, 46.347767], [6.181214, 46.347819], [6.181115, 46.347911], [6.180842, 46.347993], [6.180718, 46.348062], [6.180744, 46.348185], [6.180868, 46.348257], [6.180949, 46.348407], [6.181006, 46.348443], [6.180997, 46.34848], [6.18109, 46.348561], [6.181066, 46.348648], [6.181115, 46.348734], [6.181171, 46.348726], [6.181229, 46.348758], [6.18124, 46.348798], [6.18134, 46.348878], [6.181356, 46.348942], [6.181476, 46.349029], [6.181564, 46.349168], [6.181576, 46.349261], [6.181614, 46.349267], [6.181669, 46.349346], [6.181794, 46.349399], [6.181861, 46.349536], [6.181941, 46.349616], [6.182019, 46.349795], [6.182195, 46.349937], [6.182215, 46.34999], [6.182286, 46.350014], [6.182414, 46.349998], [6.182585, 46.349942], [6.182688, 46.349798], [6.182856, 46.349732], [6.182931, 46.349741], [6.182965, 46.349693], [6.183038, 46.349666], [6.183072, 46.349601], [6.183181, 46.349588], [6.18324, 46.349517], [6.183429, 46.349486], [6.183492, 46.34935], [6.183584, 46.349293], [6.1836, 46.349242], [6.18368, 46.349237], [6.183826, 46.349181], [6.183875, 46.349138], [6.184138, 46.349085], [6.184313, 46.348935], [6.184561, 46.348902], [6.184978, 46.348603], [6.185114, 46.348588], [6.185298, 46.348415], [6.185431, 46.348363], [6.185535, 46.348245], [6.18561, 46.348233], [6.185778, 46.348133], [6.18585, 46.348128], [6.186051, 46.348022], [6.186109, 46.348015], [6.186209, 46.347931], [6.186496, 46.347831], [6.186601, 46.347721], [6.18668, 46.347709], [6.186864, 46.347601], [6.186946, 46.347583], [6.186997, 46.347519], [6.186959, 46.347421], [6.186989, 46.347376], [6.186872, 46.347248], [6.186723, 46.347139], [6.186663, 46.347047], [6.186573, 46.347024], [6.186575, 46.346967], [6.186497, 46.346851], [6.186499, 46.346783], [6.186668, 46.346633], [6.186757, 46.34662], [6.186843, 46.34656], [6.187196, 46.346459], [6.187401, 46.346359], [6.187469, 46.346307], [6.187472, 46.346272], [6.187379, 46.346154], [6.187021, 46.345977], [6.186332, 46.345546], [6.186204, 46.345499], [6.186176, 46.345454], [6.186079, 46.34542], [6.185637, 46.345141], [6.18528, 46.344952], [6.185245, 46.344906], [6.184486, 46.344482], [6.184094, 46.344223], [6.183739, 46.344052], [6.183665, 46.343985], [6.183677, 46.343931], [6.183465, 46.343868], [6.183365, 46.343787], [6.183207, 46.343723], [6.182995, 46.343577], [6.182595, 46.343364], [6.182453, 46.343254], [6.182466, 46.343186], [6.182804, 46.343042], [6.183004, 46.342856], [6.183131, 46.342561], [6.183196, 46.342504], [6.183264, 46.342374], [6.183424, 46.342246], [6.184171, 46.341907], [6.185065, 46.341566], [6.185066, 46.341518], [6.184272, 46.340787], [6.184241, 46.340719], [6.18375, 46.340241], [6.183745, 46.340207], [6.183669, 46.340168], [6.183344, 46.33981], [6.183158, 46.339661], [6.183117, 46.339573], [6.182776, 46.339285], [6.182759, 46.339238], [6.182456, 46.338967], [6.182353, 46.338856], [6.182345, 46.3388], [6.182264, 46.338752], [6.18214, 46.338597], [6.181914, 46.338421], [6.181768, 46.338271], [6.181762, 46.338228], [6.181688, 46.338176], [6.181695, 46.338151], [6.18155, 46.33806], [6.181526, 46.338007], [6.181476, 46.337984], [6.181189, 46.337672], [6.181124, 46.337646], [6.181047, 46.337532], [6.181007, 46.337568], [6.181031, 46.337532], [6.181074, 46.337534], [6.181041, 46.337539], [6.180968, 46.337438], [6.180812, 46.337326], [6.180708, 46.337176], [6.180597, 46.337109], [6.180581, 46.33704], [6.180418, 46.336913], [6.180261, 46.336715], [6.180133, 46.336621], [6.180262, 46.336425], [6.180583, 46.336188], [6.180709, 46.336146], [6.180804, 46.336046], [6.181097, 46.335889], [6.181216, 46.335868], [6.181223, 46.335792], [6.181151, 46.335752], [6.181157, 46.335769], [6.181212, 46.335737], [6.181374, 46.335714]]}, "properties": {"name": "1789543431.Founex_walk_with_K", "cmt": "2026-09-16", "tstamp": 1789516800, "desc": "---", "src": "6.180084/46.335332/6.19049/46.350014", "bbox": "6.180084/46.335332/6.19049/46.350014"}}]}