{"type": "FeatureCollection", "name": "TrackSet", "crs": {"type": "name", "properties": {"name": "urn:ogc:def:crs:OGC:1.3:CRS84"}}, "bbox": [6.235115, 46.369768, 6.327438, 46.384181], "features": [{"type": "Feature", "bbox": [6.235115, 46.369768, 6.327438, 46.384181], "geometry": {"type": "LineString", "coordinates": [[6.235639, 46.376975], [6.235711, 46.377074], [6.235687, 46.377124], [6.235768, 46.377201], [6.23582, 46.37719], [6.235769, 46.377114], [6.235807, 46.377115], [6.235783, 46.377082], [6.235834, 46.377052], [6.235735, 46.377017], [6.235767, 46.377005], [6.235759, 46.376973], [6.23576, 46.376998], [6.235467, 46.376759], [6.235406, 46.37665], [6.235463, 46.376616], [6.235601, 46.376708], [6.23571, 46.376691], [6.235722, 46.376664], [6.235712, 46.3767], [6.235806, 46.376751], [6.235823, 46.376723], [6.235854, 46.376788], [6.23593, 46.376796], [6.235951, 46.376837], [6.23603, 46.376866], [6.236089, 46.376961], [6.236186, 46.376997], [6.236924, 46.37716], [6.237083, 46.377175], [6.237252, 46.377242], [6.237302, 46.377243], [6.237409, 46.377191], [6.237542, 46.377202], [6.237557, 46.377171], [6.237556, 46.377205], [6.237681, 46.377331], [6.238116, 46.377649], [6.238193, 46.377738], [6.238224, 46.377831], [6.238421, 46.377852], [6.23834, 46.377953], [6.238394, 46.378064], [6.2385, 46.378123], [6.238501, 46.378225], [6.238608, 46.378289], [6.238702, 46.378446], [6.238799, 46.3785], [6.238902, 46.378465], [6.23899, 46.378523], [6.238871, 46.378603], [6.23891, 46.378639], [6.240204, 46.379607], [6.240314, 46.379646], [6.240397, 46.379707], [6.240498, 46.379828], [6.240753, 46.380021], [6.240899, 46.380054], [6.241014, 46.380114], [6.241014, 46.380172], [6.241001, 46.380132], [6.240977, 46.380133], [6.240997, 46.380111], [6.240702, 46.379979], [6.240538, 46.379822], [6.240469, 46.379799], [6.240264, 46.37964], [6.240177, 46.379613], [6.239905, 46.379365], [6.239799, 46.379321], [6.239721, 46.379239], [6.239609, 46.379174], [6.23952, 46.379034], [6.23928, 46.378916], [6.239101, 46.378755], [6.239087, 46.37869], [6.238902, 46.378567], [6.238916, 46.378538], [6.23898, 46.378524], [6.238982, 46.378432], [6.23892, 46.378414], [6.23874, 46.378462], [6.238717, 46.378356], [6.238616, 46.378302], [6.238536, 46.378205], [6.238537, 46.378147], [6.238385, 46.378011], [6.238423, 46.377934], [6.238392, 46.377901], [6.238437, 46.377858], [6.238387, 46.377832], [6.238258, 46.377846], [6.238045, 46.377586], [6.237764, 46.377338], [6.237448, 46.377177], [6.237386, 46.377181], [6.237299, 46.377235], [6.237178, 46.377207], [6.237113, 46.377151], [6.237028, 46.377148], [6.236782, 46.377067], [6.236547, 46.377063], [6.236388, 46.377026], [6.236408, 46.377009], [6.236163, 46.376975], [6.236129, 46.376928], [6.236078, 46.376923], [6.236044, 46.376834], [6.235895, 46.376831], [6.235847, 46.376793], [6.235758, 46.376792], [6.235644, 46.376706], [6.235582, 46.37671], [6.235453, 46.376604], [6.235392, 46.376591], [6.235306, 46.376516], [6.235115, 46.376239], [6.235125, 46.376177], [6.235182, 46.376134], [6.235218, 46.376159], [6.235413, 46.376145], [6.235364, 46.376158], [6.235331, 46.376214], [6.235447, 46.376405], [6.235719, 46.376701], [6.235889, 46.376749], [6.236103, 46.376972], [6.236326, 46.37699], [6.236439, 46.377058], [6.236556, 46.377092], [6.236658, 46.377082], [6.236782, 46.377131], [6.236999, 46.377122], [6.237081, 46.377175], [6.237319, 46.377225], [6.23734, 46.377187], [6.237419, 46.377189], [6.237417, 46.377168], [6.237441, 46.377194], [6.237496, 46.377199], [6.237546, 46.377172], [6.237494, 46.377156], [6.237512, 46.377169], [6.23748, 46.377173], [6.237515, 46.377175], [6.237492, 46.377185], [6.237438, 46.377154], [6.237431, 46.377169], [6.237584, 46.377217], [6.237733, 46.377373], [6.237988, 46.377546], [6.238147, 46.377723], [6.238232, 46.377761], [6.238224, 46.377798], [6.238256, 46.377824], [6.238295, 46.377819], [6.23832, 46.377849], [6.238363, 46.377824], [6.238413, 46.377847], [6.238375, 46.378], [6.238421, 46.378101], [6.238527, 46.378163], [6.238581, 46.378316], [6.238631, 46.378376], [6.238704, 46.378404], [6.238712, 46.378453], [6.238769, 46.378501], [6.238816, 46.378431], [6.238946, 46.378486], [6.238898, 46.378564], [6.238937, 46.378652], [6.239041, 46.378701], [6.239074, 46.378765], [6.23951, 46.379073], [6.23956, 46.379138], [6.239716, 46.379222], [6.240056, 46.379527], [6.240169, 46.379559], [6.240269, 46.379642], [6.240314, 46.379643], [6.240392, 46.379574], [6.240512, 46.379593], [6.240602, 46.37969], [6.240722, 46.379765], [6.24073, 46.379889], [6.240784, 46.379939], [6.240933, 46.379994], [6.241017, 46.379994], [6.241148, 46.380052], [6.24124, 46.380058], [6.241371, 46.380161], [6.241501, 46.380135], [6.241541, 46.38007], [6.241716, 46.379982], [6.241498, 46.379771], [6.241453, 46.379637], [6.241463, 46.379508], [6.241424, 46.379353], [6.241363, 46.379312], [6.241285, 46.379156], [6.241372, 46.378879], [6.241343, 46.378895], [6.241365, 46.378943], [6.241271, 46.379141], [6.241313, 46.379224], [6.241378, 46.379239], [6.241419, 46.379282], [6.241468, 46.379401], [6.241513, 46.379696], [6.241571, 46.379825], [6.241666, 46.379887], [6.24182, 46.380068], [6.241794, 46.380211], [6.241873, 46.380315], [6.241791, 46.380415], [6.241798, 46.380471], [6.242027, 46.380711], [6.242285, 46.381065], [6.242479, 46.381264], [6.242618, 46.381339], [6.242704, 46.381464], [6.242903, 46.381628], [6.243229, 46.382041], [6.243346, 46.382113], [6.243422, 46.382235], [6.243419, 46.382311], [6.243506, 46.382338], [6.243425, 46.382314], [6.243486, 46.382297], [6.24346, 46.382335], [6.243441, 46.382307], [6.243474, 46.382292], [6.243469, 46.382414], [6.243496, 46.382377], [6.243479, 46.38239], [6.243644, 46.382477], [6.24366, 46.382522], [6.243827, 46.382644], [6.243855, 46.38273], [6.244044, 46.382896], [6.244088, 46.382968], [6.244493, 46.383266], [6.244608, 46.383292], [6.24484, 46.383424], [6.24513, 46.383481], [6.245171, 46.383528], [6.245431, 46.383527], [6.245779, 46.383624], [6.24596, 46.383644], [6.246161, 46.383466], [6.246434, 46.383121], [6.24653, 46.383125], [6.246592, 46.383426], [6.246554, 46.383554], [6.246344, 46.383548], [6.246189, 46.383588], [6.246142, 46.383574], [6.246054, 46.383594], [6.246048, 46.383576], [6.246062, 46.383596], [6.245872, 46.383617], [6.245247, 46.383503], [6.245118, 46.383435], [6.245058, 46.383452], [6.244965, 46.383436], [6.244901, 46.383348], [6.244743, 46.383294], [6.244489, 46.383158], [6.244115, 46.382922], [6.24393, 46.382756], [6.243854, 46.382624], [6.243788, 46.382587], [6.243636, 46.382409], [6.243525, 46.382363], [6.243544, 46.382306], [6.243614, 46.382297], [6.24367, 46.382205], [6.24375, 46.382161], [6.243754, 46.382182], [6.243778, 46.382135], [6.243761, 46.382172], [6.243748, 46.382144], [6.243772, 46.382162], [6.243807, 46.382116], [6.243774, 46.38215], [6.243812, 46.382133], [6.243792, 46.382142], [6.243794, 46.382125], [6.243793, 46.382145], [6.243819, 46.38214], [6.243892, 46.382052], [6.243903, 46.382073], [6.244027, 46.382011], [6.244035, 46.38203], [6.244066, 46.382014], [6.24412, 46.382027], [6.244237, 46.382099], [6.244197, 46.382121], [6.244217, 46.382079], [6.244214, 46.382111], [6.24423, 46.382091], [6.244566, 46.382219], [6.245056, 46.382332], [6.245873, 46.3824], [6.246571, 46.382352], [6.246711, 46.382364], [6.247711, 46.382161], [6.249247, 46.381754], [6.250404, 46.381526], [6.251926, 46.381315], [6.252094, 46.381273], [6.252965, 46.381172], [6.253111, 46.381132], [6.253242, 46.381142], [6.253619, 46.3811], [6.254426, 46.380938], [6.257792, 46.380524], [6.257942, 46.380489], [6.258991, 46.380394], [6.259157, 46.380359], [6.259482, 46.380335], [6.262546, 46.379954], [6.263266, 46.379933], [6.264192, 46.379822], [6.264779, 46.379724], [6.267332, 46.379441], [6.26813, 46.379372], [6.269979, 46.379118], [6.271027, 46.379012], [6.271491, 46.378943], [6.272703, 46.378851], [6.274469, 46.378636], [6.275745, 46.378506], [6.277589, 46.378263], [6.278868, 46.378137], [6.279109, 46.378094], [6.282562, 46.377755], [6.286304, 46.377278], [6.288231, 46.377087], [6.289611, 46.376991], [6.292347, 46.37675], [6.294033, 46.376731], [6.296548, 46.376639], [6.298048, 46.376655], [6.299896, 46.376738], [6.300909, 46.376676], [6.301588, 46.376582], [6.302475, 46.376403], [6.303496, 46.376158], [6.305962, 46.37553], [6.306745, 46.375286], [6.308069, 46.374938], [6.310147, 46.374486], [6.312447, 46.373925], [6.314129, 46.373496], [6.315065, 46.373226], [6.317236, 46.372649], [6.318926, 46.372277], [6.319434, 46.372138], [6.320813, 46.371819], [6.321348, 46.371726], [6.322399, 46.371663], [6.322804, 46.371661], [6.323297, 46.371716], [6.32354, 46.371733], [6.32356, 46.371717], [6.32358, 46.371736], [6.32358, 46.371701], [6.3235, 46.371659], [6.323391, 46.371662], [6.323364, 46.371643], [6.323385, 46.371631], [6.323372, 46.371668], [6.32341, 46.371648], [6.323367, 46.371654], [6.323383, 46.371618], [6.323417, 46.371655], [6.323393, 46.371658], [6.32343, 46.371655], [6.323446, 46.371637], [6.323424, 46.371635], [6.323435, 46.371658], [6.323404, 46.371675], [6.323357, 46.371654], [6.323424, 46.371647], [6.323395, 46.371642], [6.323429, 46.371687], [6.323464, 46.371696], [6.323466, 46.37168], [6.323451, 46.371709], [6.323473, 46.371677], [6.323453, 46.371619], [6.323482, 46.371669], [6.323457, 46.371677], [6.323505, 46.371653], [6.323502, 46.371672], [6.323484, 46.371645], [6.323601, 46.371676], [6.323616, 46.371631], [6.323668, 46.371617], [6.323719, 46.371555], [6.324236, 46.371225], [6.324393, 46.371162], [6.324535, 46.371013], [6.324696, 46.370928], [6.324805, 46.370801], [6.324912, 46.370785], [6.32505, 46.370815], [6.325131, 46.370774], [6.325258, 46.370567], [6.325314, 46.370543], [6.325315, 46.37049], [6.325429, 46.370356], [6.325489, 46.370331], [6.325518, 46.370239], [6.325579, 46.370271], [6.325786, 46.37016], [6.325904, 46.370155], [6.326006, 46.370102], [6.326253, 46.37009], [6.326295, 46.370107], [6.326378, 46.370022], [6.326417, 46.370039], [6.326453, 46.370007], [6.326565, 46.369982], [6.32664, 46.369997], [6.326647, 46.36998], [6.32668, 46.370029], [6.326697, 46.369967], [6.326711, 46.369989], [6.326736, 46.369966], [6.326777, 46.369979], [6.32682, 46.37002], [6.326813, 46.370181], [6.32685, 46.370171], [6.326841, 46.370187], [6.326819, 46.370165], [6.326846, 46.370158], [6.326931, 46.370207], [6.326894, 46.370276], [6.326859, 46.37025], [6.326932, 46.370266], [6.326926, 46.370303], [6.326957, 46.37031], [6.32693, 46.370415], [6.326967, 46.370486], [6.327114, 46.370527], [6.327088, 46.370548], [6.326942, 46.370506], [6.326969, 46.370539], [6.32716, 46.370527], [6.327236, 46.37049], [6.327294, 46.370492], [6.327357, 46.370458], [6.327379, 46.370365], [6.327438, 46.370301], [6.327351, 46.370119], [6.327328, 46.370147], [6.327342, 46.370122], [6.327309, 46.370136], [6.327377, 46.370105], [6.327377, 46.370125], [6.327373, 46.370094], [6.327309, 46.370103], [6.327351, 46.370036], [6.327341, 46.369991], [6.327196, 46.369895], [6.327214, 46.369881], [6.327194, 46.369893], [6.327248, 46.369889], [6.327192, 46.369893], [6.327251, 46.369898], [6.327254, 46.369876], [6.327179, 46.369897], [6.327233, 46.369904], [6.327249, 46.369887], [6.32721, 46.369878], [6.327266, 46.369883], [6.327222, 46.369903], [6.327145, 46.369858], [6.327095, 46.369856], [6.327066, 46.36992], [6.327205, 46.369904], [6.327195, 46.369891], [6.32724, 46.369908], [6.327203, 46.369902], [6.327242, 46.369899], [6.327225, 46.369888], [6.32723, 46.369913], [6.327249, 46.36988], [6.327244, 46.369931], [6.327182, 46.369881], [6.32719, 46.369823], [6.327167, 46.369856], [6.327181, 46.369869], [6.327211, 46.369842], [6.327224, 46.369857], [6.327144, 46.369898], [6.327203, 46.369882], [6.327206, 46.36986], [6.327162, 46.369868], [6.327219, 46.369883], [6.327213, 46.369899], [6.327304, 46.369885], [6.327275, 46.369925], [6.327175, 46.369883], [6.327166, 46.369903], [6.327137, 46.369896], [6.327148, 46.369911], [6.327188, 46.3699], [6.327134, 46.369899], [6.327219, 46.369888], [6.327161, 46.369918], [6.327233, 46.369917], [6.327177, 46.369916], [6.327231, 46.369907], [6.32719, 46.369904], [6.327225, 46.36989], [6.32724, 46.369902], [6.327182, 46.369905], [6.327237, 46.3699], [6.327197, 46.369921], [6.327243, 46.369902], [6.327182, 46.369916], [6.327207, 46.369923], [6.327251, 46.369907], [6.327223, 46.369881], [6.327243, 46.369869], [6.327212, 46.369869], [6.327222, 46.369825], [6.327235, 46.369863], [6.327338, 46.369842], [6.327307, 46.369816], [6.327189, 46.369811], [6.327167, 46.369896], [6.327201, 46.3699], [6.327195, 46.369927], [6.327225, 46.369906], [6.327189, 46.369913], [6.327203, 46.369901], [6.327234, 46.369905], [6.327164, 46.3699], [6.327182, 46.369883], [6.327202, 46.369925], [6.327254, 46.369919], [6.32723, 46.369921], [6.327247, 46.369902], [6.327154, 46.36992], [6.327219, 46.369911], [6.327231, 46.369942], [6.327204, 46.36994], [6.327247, 46.369885], [6.327174, 46.369905], [6.327233, 46.369917], [6.327249, 46.369893], [6.327212, 46.369897], [6.327266, 46.369893], [6.327197, 46.369886], [6.327201, 46.369908], [6.327155, 46.369885], [6.327185, 46.369905], [6.327176, 46.369885], [6.327228, 46.369887], [6.327196, 46.369911], [6.327212, 46.369929], [6.327178, 46.369916], [6.327136, 46.369941], [6.327128, 46.36992], [6.32718, 46.36992], [6.327137, 46.369901], [6.327185, 46.369887], [6.327159, 46.369873], [6.327185, 46.369917], [6.327201, 46.369867], [6.32718, 46.36987], [6.327236, 46.369885], [6.32718, 46.369897], [6.327181, 46.369915], [6.32723, 46.369895], [6.327211, 46.369915], [6.327243, 46.369898], [6.327166, 46.369877], [6.327174, 46.369897], [6.327126, 46.369893], [6.32718, 46.369888], [6.327133, 46.369901], [6.327214, 46.369904], [6.327191, 46.369923], [6.327208, 46.369897], [6.327186, 46.369899], [6.327236, 46.3699], [6.32717, 46.369896], [6.327176, 46.369914], [6.327219, 46.369887], [6.327255, 46.369893], [6.327188, 46.369872], [6.327153, 46.369887], [6.327212, 46.369905], [6.327159, 46.369887], [6.327154, 46.369914], [6.327231, 46.369904], [6.327184, 46.369909], [6.327215, 46.369907], [6.327201, 46.369873], [6.327172, 46.369897], [6.327144, 46.369887], [6.327178, 46.36987], [6.327259, 46.36988], [6.327179, 46.369875], [6.327184, 46.369895], [6.327267, 46.3699], [6.327138, 46.369898], [6.327199, 46.369896], [6.327135, 46.36989], [6.327176, 46.369901], [6.327157, 46.369874], [6.327181, 46.369865], [6.32721, 46.369885], [6.327199, 46.369855], [6.327205, 46.369889], [6.327231, 46.369881], [6.327247, 46.369902], [6.327261, 46.369877], [6.327208, 46.369894], [6.32723, 46.369874], [6.327218, 46.369898], [6.327282, 46.36989], [6.3272, 46.369911], [6.327238, 46.369895], [6.327137, 46.369894], [6.327146, 46.369877], [6.327213, 46.369891], [6.32721, 46.36992], [6.327207, 46.369896], [6.32717, 46.369905], [6.327178, 46.369882], [6.32714, 46.369872], [6.327166, 46.36991], [6.32716, 46.369891], [6.327186, 46.369914], [6.327177, 46.369891], [6.327216, 46.369896], [6.327177, 46.369895], [6.327217, 46.369923], [6.327236, 46.369904], [6.327166, 46.36988], [6.327164, 46.369903], [6.327203, 46.369904], [6.327161, 46.369903], [6.327157, 46.36987], [6.327176, 46.369879], [6.327141, 46.369873], [6.327175, 46.369891], [6.327219, 46.369864], [6.327177, 46.369868], [6.32718, 46.369853], [6.327212, 46.369888], [6.327254, 46.369888], [6.327233, 46.369906], [6.327222, 46.369887], [6.32727, 46.369879], [6.327284, 46.369899], [6.327322, 46.369848], [6.327291, 46.369876], [6.327313, 46.369898], [6.327242, 46.369858], [6.327294, 46.369926], [6.327296, 46.369889], [6.327324, 46.369889], [6.327246, 46.369927], [6.327312, 46.369916], [6.327289, 46.369872], [6.327243, 46.369905], [6.327202, 46.369887], [6.327188, 46.36991], [6.327233, 46.369881], [6.327251, 46.369904], [6.327245, 46.369888], [6.327211, 46.369912], [6.32728, 46.369887], [6.327343, 46.369922], [6.327394, 46.369909], [6.327395, 46.369887], [6.327251, 46.369854], [6.32724, 46.369875], [6.32718, 46.369848], [6.327229, 46.369876], [6.327282, 46.369871], [6.32719, 46.36986], [6.327227, 46.369899], [6.327165, 46.369886], [6.327257, 46.369894], [6.327255, 46.369927], [6.327177, 46.369861], [6.327211, 46.369868], [6.327222, 46.369906], [6.327177, 46.369933], [6.32727, 46.369893], [6.3272, 46.369932], [6.327247, 46.369921], [6.327215, 46.369972], [6.327214, 46.369941], [6.327168, 46.369951], [6.327168, 46.369928], [6.327199, 46.369942], [6.327222, 46.369912], [6.327208, 46.369877], [6.327196, 46.369915], [6.327258, 46.369935], [6.327252, 46.369886], [6.32724, 46.369906], [6.327214, 46.369896], [6.327246, 46.369921], [6.327209, 46.36989], [6.327236, 46.36992], [6.327309, 46.369884], [6.327253, 46.369889], [6.327263, 46.369867], [6.327224, 46.369865], [6.327236, 46.369878], [6.327212, 46.369858], [6.327283, 46.36988], [6.327319, 46.369846], [6.327283, 46.369869], [6.327233, 46.369857], [6.327264, 46.369898], [6.327234, 46.369899], [6.327221, 46.369872], [6.327238, 46.369885], [6.327208, 46.369904], [6.327229, 46.369888], [6.327207, 46.369884], [6.327245, 46.36996], [6.32719, 46.36993], [6.327217, 46.369906], [6.327238, 46.36992], [6.327241, 46.369884], [6.327189, 46.369889], [6.327196, 46.369915], [6.327182, 46.369891], [6.327223, 46.369911], [6.327148, 46.36993], [6.327213, 46.369932], [6.327225, 46.369902], [6.327216, 46.369932], [6.327248, 46.369901], [6.327196, 46.36991], [6.327259, 46.369905], [6.32726, 46.369886], [6.327279, 46.369904], [6.327263, 46.369884], [6.32722, 46.369909], [6.327209, 46.369879], [6.327212, 46.369919], [6.327216, 46.369897], [6.327195, 46.369905], [6.327243, 46.369899], [6.327243, 46.369914], [6.327242, 46.369885], [6.327282, 46.369882], [6.32726, 46.369868], [6.327268, 46.369913], [6.327244, 46.369912], [6.32731, 46.369905], [6.327236, 46.369899], [6.327235, 46.369919], [6.327234, 46.369876], [6.32717, 46.36987], [6.327204, 46.369832], [6.327232, 46.369893], [6.327212, 46.369933], [6.327173, 46.369932], [6.327156, 46.369878], [6.327186, 46.369841], [6.327157, 46.36984], [6.327182, 46.369817], [6.327158, 46.369768], [6.327158, 46.3698], [6.32721, 46.369836], [6.327133, 46.369922], [6.32715, 46.369905], [6.327189, 46.369915], [6.327174, 46.36989], [6.327186, 46.369904], [6.327213, 46.369884], [6.327213, 46.36985], [6.327238, 46.369859], [6.327183, 46.369855], [6.327175, 46.369891], [6.327191, 46.369854], [6.32723, 46.369879], [6.327252, 46.369861], [6.327136, 46.369782], [6.327083, 46.36978], [6.327034, 46.369824], [6.327026, 46.369795], [6.326891, 46.369927], [6.326841, 46.369922], [6.326831, 46.369887], [6.326793, 46.370071], [6.32676, 46.370002], [6.326703, 46.369969], [6.326682, 46.370064], [6.326629, 46.370094], [6.326528, 46.370023], [6.326443, 46.370056], [6.326368, 46.370016], [6.326316, 46.370144], [6.326214, 46.370095], [6.3262, 46.370153], [6.326086, 46.370095], [6.326069, 46.370127], [6.326024, 46.370121], [6.325966, 46.370162], [6.325863, 46.370141], [6.325835, 46.370184], [6.325739, 46.370211], [6.325731, 46.370232], [6.325683, 46.370217], [6.32565, 46.370256], [6.325541, 46.37025], [6.325494, 46.37032], [6.325455, 46.370332], [6.325527, 46.370352], [6.325656, 46.370533], [6.325753, 46.370577], [6.325732, 46.370588], [6.325756, 46.370545], [6.325768, 46.370558], [6.325809, 46.370619], [6.325806, 46.370702], [6.325773, 46.370729], [6.325886, 46.370749], [6.325934, 46.370823], [6.325959, 46.370773], [6.325929, 46.370715], [6.325917, 46.370756], [6.325852, 46.37072], [6.325892, 46.370673], [6.325898, 46.370749], [6.325862, 46.37082], [6.325805, 46.370823], [6.325763, 46.370771], [6.325775, 46.370746], [6.325845, 46.370731], [6.325781, 46.370617], [6.325804, 46.370536], [6.325773, 46.370471], [6.3258, 46.370533], [6.325842, 46.370516], [6.325928, 46.370561], [6.325908, 46.370568], [6.325966, 46.370549], [6.325984, 46.370565], [6.325999, 46.37055], [6.325961, 46.370546], [6.325924, 46.370499], [6.32598, 46.370536], [6.326079, 46.370499], [6.326069, 46.370463], [6.326026, 46.37049], [6.326, 46.370444], [6.325983, 46.370458], [6.326054, 46.370391], [6.326029, 46.370464], [6.326079, 46.370443], [6.326089, 46.370488], [6.326143, 46.370516], [6.326139, 46.370597], [6.326172, 46.37059], [6.326119, 46.370581], [6.326128, 46.370559], [6.326101, 46.370574], [6.326077, 46.370559], [6.326109, 46.370564], [6.326088, 46.370586], [6.326086, 46.370566], [6.326033, 46.370562], [6.326034, 46.370642], [6.326024, 46.370592], [6.326015, 46.370632], [6.32598, 46.37064], [6.325996, 46.37066], [6.325969, 46.370644], [6.325987, 46.370632], [6.32595, 46.370615], [6.325932, 46.370629], [6.325965, 46.370623], [6.325977, 46.370673], [6.32594, 46.370569], [6.32586, 46.370622], [6.325873, 46.370644], [6.3259, 46.370619], [6.325871, 46.370612], [6.325913, 46.370618], [6.325884, 46.37067], [6.325941, 46.370689], [6.325963, 46.370676], [6.325925, 46.370678], [6.325966, 46.370667], [6.325981, 46.370699], [6.325957, 46.370706], [6.325984, 46.370674], [6.326011, 46.370699], [6.326003, 46.370683], [6.326104, 46.370673], [6.326159, 46.370637], [6.326171, 46.370671], [6.326154, 46.370656], [6.326125, 46.370682], [6.326126, 46.370663], [6.326152, 46.370675], [6.326118, 46.370689], [6.326143, 46.370683], [6.326136, 46.370704], [6.326076, 46.370674], [6.326043, 46.370701], [6.326076, 46.370716], [6.326026, 46.3707], [6.326052, 46.370707], [6.326046, 46.370738], [6.326052, 46.370715], [6.32612, 46.370754], [6.326154, 46.370711], [6.326132, 46.370729], [6.326225, 46.370734], [6.32623, 46.370662], [6.326167, 46.370655], [6.326167, 46.37063], [6.326174, 46.370669], [6.326152, 46.370643], [6.326117, 46.370695], [6.326136, 46.370766], [6.326336, 46.370675], [6.326326, 46.370697], [6.326291, 46.370667], [6.32632, 46.370675], [6.326359, 46.370636], [6.326397, 46.370648], [6.3264, 46.370623], [6.326366, 46.370657], [6.326336, 46.370642], [6.326325, 46.370679], [6.326306, 46.370649], [6.326334, 46.370651], [6.326305, 46.370647], [6.326298, 46.370674], [6.326299, 46.370631], [6.326263, 46.370618], [6.326315, 46.370638], [6.326348, 46.370612], [6.326381, 46.370623], [6.32635, 46.370618], [6.326364, 46.3706], [6.326405, 46.370613], [6.3264, 46.370592], [6.326435, 46.370589], [6.326397, 46.370587], [6.326404, 46.370606], [6.326382, 46.370568], [6.326452, 46.370565], [6.326463, 46.370516], [6.326396, 46.370533], [6.326324, 46.370605], [6.326403, 46.370578], [6.326382, 46.370593], [6.326325, 46.370549], [6.326317, 46.370595], [6.326346, 46.370594], [6.326315, 46.370552], [6.326319, 46.370568], [6.326291, 46.370562], [6.326311, 46.370512], [6.326278, 46.370491], [6.326278, 46.370517], [6.326275, 46.3705], [6.326302, 46.370507], [6.326259, 46.370492], [6.326278, 46.370517], [6.326276, 46.370494], [6.326321, 46.370495], [6.326305, 46.370471], [6.326413, 46.37049], [6.326414, 46.370456], [6.326365, 46.3705], [6.326453, 46.370516], [6.326477, 46.370498], [6.326473, 46.370444], [6.326333, 46.370478], [6.32629, 46.370467], [6.326348, 46.370439], [6.3264, 46.370444], [6.326421, 46.370405], [6.326396, 46.37041], [6.326378, 46.37038], [6.326409, 46.370361], [6.326375, 46.370382], [6.326401, 46.370399], [6.326435, 46.370386], [6.326422, 46.37032], [6.326346, 46.370315], [6.326331, 46.370338], [6.326353, 46.370352], [6.326366, 46.370335], [6.326321, 46.370341], [6.326328, 46.370376], [6.32623, 46.370362], [6.326249, 46.370379], [6.326186, 46.370269], [6.326198, 46.370344], [6.326173, 46.370334], [6.326207, 46.370318], [6.326206, 46.370357], [6.326208, 46.370321], [6.326183, 46.370325], [6.326224, 46.370304], [6.326193, 46.370318], [6.326175, 46.370266], [6.326207, 46.370274], [6.326127, 46.370249], [6.326159, 46.37025], [6.326164, 46.370275], [6.326191, 46.370246], [6.326142, 46.370208], [6.326109, 46.37025], [6.326086, 46.370194], [6.326089, 46.370252], [6.32607, 46.370203], [6.326048, 46.370313], [6.326086, 46.370364], [6.325952, 46.370409], [6.32598, 46.370465], [6.326017, 46.370472], [6.325993, 46.370475], [6.326004, 46.370512], [6.325937, 46.370491], [6.326072, 46.37043], [6.326041, 46.369924], [6.326047, 46.369982], [6.326091, 46.36997], [6.325944, 46.37037], [6.325788, 46.370508], [6.325699, 46.370466], [6.325578, 46.370483], [6.325576, 46.370525], [6.325559, 46.370503], [6.325592, 46.370444], [6.325933, 46.370554], [6.325976, 46.370544], [6.325894, 46.370492], [6.32602, 46.370476], [6.326031, 46.370457], [6.326037, 46.370483], [6.325904, 46.370576], [6.325798, 46.370565], [6.325558, 46.370399], [6.325517, 46.370341], [6.325538, 46.370334], [6.325686, 46.370484], [6.325841, 46.370546], [6.325868, 46.370542], [6.325911, 46.370428], [6.32585, 46.370633], [6.325876, 46.370592], [6.326085, 46.370555], [6.326111, 46.370543], [6.326105, 46.370474], [6.326055, 46.370474], [6.326039, 46.370429], [6.326097, 46.37048], [6.326043, 46.370423], [6.326068, 46.370356], [6.326089, 46.370381], [6.326083, 46.370485], [6.326044, 46.370433], [6.326072, 46.370464], [6.3261, 46.370443], [6.326079, 46.370323], [6.3261, 46.370292], [6.326106, 46.370435], [6.326063, 46.370519], [6.325955, 46.37055], [6.325897, 46.370507], [6.325945, 46.370608], [6.326008, 46.370535], [6.325944, 46.370442], [6.325931, 46.370306], [6.325856, 46.370398], [6.325851, 46.370485], [6.325812, 46.370531], [6.325821, 46.370514], [6.326041, 46.370651], [6.326079, 46.370661], [6.326187, 46.370629], [6.326192, 46.370645], [6.326122, 46.37057], [6.326, 46.370532], [6.325764, 46.37055], [6.325735, 46.370635], [6.325883, 46.37078], [6.325951, 46.370812], [6.326042, 46.370944], [6.326142, 46.370972], [6.326191, 46.371024], [6.326242, 46.37102], [6.32626, 46.371073], [6.326298, 46.371068], [6.326293, 46.371099], [6.326364, 46.371136], [6.326358, 46.371174], [6.326467, 46.371168], [6.326466, 46.371215], [6.326538, 46.371226], [6.326477, 46.37127], [6.326512, 46.371318], [6.326591, 46.371353], [6.32658, 46.371389], [6.326671, 46.371386], [6.326645, 46.371437], [6.326698, 46.37144], [6.326622, 46.371479], [6.326629, 46.371496], [6.326609, 46.371478], [6.326662, 46.371497], [6.326653, 46.371475], [6.326685, 46.371493], [6.326701, 46.371467], [6.326667, 46.371402], [6.32671, 46.371384], [6.326716, 46.371339], [6.326631, 46.371282], [6.326585, 46.371287], [6.326627, 46.371213], [6.326523, 46.371193], [6.326501, 46.371128], [6.326346, 46.371073], [6.326338, 46.371031], [6.326157, 46.370943], [6.326065, 46.370839], [6.325834, 46.370692], [6.325745, 46.370575], [6.325654, 46.370523], [6.325552, 46.370335], [6.325407, 46.370346], [6.325421, 46.37036], [6.325331, 46.37044], [6.325254, 46.370473], [6.32519, 46.370627], [6.325136, 46.370652], [6.325092, 46.370798], [6.32498, 46.370813], [6.324932, 46.370772], [6.324822, 46.370774], [6.324716, 46.370897], [6.324467, 46.371037], [6.324341, 46.371167], [6.324258, 46.371178], [6.324277, 46.371207], [6.324255, 46.371198], [6.324247, 46.371219], [6.324239, 46.3712], [6.324232, 46.37122], [6.324254, 46.371208], [6.324225, 46.371203], [6.324247, 46.371225], [6.324221, 46.371203], [6.324261, 46.371231], [6.324215, 46.371211], [6.324214, 46.371244], [6.324234, 46.371235], [6.324194, 46.371261], [6.324155, 46.371258], [6.32408, 46.371192], [6.323985, 46.371185], [6.323984, 46.371151], [6.323878, 46.371189], [6.323837, 46.371242], [6.323783, 46.371242], [6.323798, 46.371218], [6.323827, 46.371234], [6.323947, 46.371221], [6.323899, 46.371298], [6.32395, 46.371267], [6.323953, 46.37123], [6.323929, 46.371265], [6.324094, 46.371224], [6.323916, 46.371284], [6.323949, 46.371235], [6.323859, 46.371239], [6.323849, 46.371275], [6.323853, 46.371259], [6.323826, 46.371265], [6.323902, 46.371218], [6.323732, 46.371281], [6.323684, 46.371335], [6.323737, 46.371351], [6.323662, 46.371337], [6.323679, 46.371352], [6.323583, 46.371455], [6.323704, 46.371411], [6.323677, 46.371449], [6.323723, 46.371385], [6.323845, 46.371334], [6.323863, 46.371308], [6.323812, 46.371312], [6.323824, 46.371287], [6.246721, 46.382396], [6.246925, 46.382465], [6.246183, 46.382432], [6.245203, 46.38227], [6.244161, 46.382043], [6.243927, 46.381959], [6.243915, 46.381972], [6.243959, 46.381988], [6.243996, 46.381982], [6.243991, 46.38203], [6.243983, 46.382], [6.243958, 46.382031], [6.243969, 46.381951], [6.243986, 46.382072], [6.243936, 46.38207], [6.243963, 46.382048], [6.243899, 46.382072], [6.243749, 46.382205], [6.24354, 46.382317], [6.243313, 46.382362], [6.243271, 46.382401], [6.243302, 46.382497], [6.243127, 46.382503], [6.243032, 46.3824], [6.242958, 46.382397], [6.242954, 46.38233], [6.242804, 46.382278], [6.242781, 46.382207], [6.242813, 46.382188], [6.242713, 46.3821], [6.242659, 46.382101], [6.242469, 46.382224], [6.242372, 46.382214], [6.242325, 46.382234], [6.242358, 46.38218], [6.242638, 46.382044], [6.242931, 46.382011], [6.243011, 46.381899], [6.242915, 46.381672], [6.242804, 46.381524], [6.242742, 46.381509], [6.242718, 46.381537], [6.242732, 46.381495], [6.242737, 46.381535], [6.242701, 46.381495], [6.242699, 46.381529], [6.242671, 46.381479], [6.24267, 46.381514], [6.242745, 46.381518], [6.24271, 46.381538], [6.242743, 46.381514], [6.242723, 46.381549], [6.242722, 46.381505], [6.242734, 46.381522], [6.242761, 46.381511], [6.242692, 46.381495], [6.242756, 46.38154], [6.242741, 46.381514], [6.242719, 46.381527], [6.242754, 46.38152], [6.242768, 46.381479], [6.242728, 46.381495], [6.24271, 46.381569], [6.242725, 46.381513], [6.242683, 46.381512], [6.242717, 46.381533], [6.242702, 46.381514], [6.24273, 46.381506], [6.242692, 46.381508], [6.24273, 46.381536], [6.242743, 46.381511], [6.242719, 46.381543], [6.2427, 46.381522], [6.242713, 46.381556], [6.2427, 46.381513], [6.242713, 46.381569], [6.242696, 46.38152], [6.242716, 46.38157], [6.24271, 46.381528], [6.24268, 46.381548], [6.242693, 46.381511], [6.242727, 46.381533], [6.242694, 46.381513], [6.242695, 46.381543], [6.242713, 46.381532], [6.242718, 46.381557], [6.242718, 46.381526], [6.242685, 46.381497], [6.242691, 46.381532], [6.242733, 46.381549], [6.242721, 46.381522], [6.242742, 46.381562], [6.242714, 46.381521], [6.242745, 46.381514], [6.242723, 46.381536], [6.242766, 46.381616], [6.242786, 46.38154], [6.242774, 46.381647], [6.242843, 46.381657], [6.242951, 46.381773], [6.242956, 46.381854], [6.242885, 46.381925], [6.242694, 46.382035], [6.242644, 46.382042], [6.242561, 46.382105], [6.242543, 46.38209], [6.242509, 46.382104], [6.242461, 46.382177], [6.242304, 46.382161], [6.242133, 46.382063], [6.242037, 46.382081], [6.241959, 46.38215], [6.241915, 46.382139], [6.241909, 46.382182], [6.241831, 46.382129], [6.241714, 46.382107], [6.241666, 46.382062], [6.24166, 46.381991], [6.241627, 46.381976], [6.241261, 46.382108], [6.241198, 46.382093], [6.241216, 46.382127], [6.241163, 46.382166], [6.240803, 46.382333], [6.240787, 46.382367], [6.240608, 46.382354], [6.240515, 46.382425], [6.240419, 46.382439], [6.240401, 46.38242], [6.240377, 46.382451], [6.240285, 46.382467], [6.240049, 46.382469], [6.23991, 46.382517], [6.239849, 46.382503], [6.239733, 46.38257], [6.23968, 46.382554], [6.239653, 46.382578], [6.239554, 46.382574], [6.239363, 46.382694], [6.239286, 46.382661], [6.239179, 46.382656], [6.239126, 46.382752], [6.238917, 46.382735], [6.23873, 46.382762], [6.238656, 46.382743], [6.238609, 46.382819], [6.238537, 46.382798], [6.238515, 46.38282], [6.238386, 46.382804], [6.238268, 46.382828], [6.238016, 46.382785], [6.238005, 46.382756], [6.237891, 46.382738], [6.237793, 46.38265], [6.237497, 46.382678], [6.237416, 46.382751], [6.237357, 46.382755], [6.237307, 46.382788], [6.237228, 46.382768], [6.237169, 46.382814], [6.2371, 46.382828], [6.236952, 46.382986], [6.236712, 46.383149], [6.236553, 46.383216], [6.236533, 46.383257], [6.23647, 46.383232], [6.236411, 46.383256], [6.236339, 46.383241], [6.236296, 46.383273], [6.236245, 46.383267], [6.236174, 46.383299], [6.236029, 46.383406], [6.235958, 46.383426], [6.235918, 46.383485], [6.235824, 46.383541], [6.235707, 46.383693], [6.235609, 46.383693], [6.235641, 46.383778], [6.23563, 46.383846], [6.235577, 46.383851], [6.23556, 46.383876], [6.235583, 46.383956], [6.235701, 46.383989], [6.235894, 46.384181]]}, "properties": {"name": "1789721123.Nyon_Yvoire_Nyon", "cmt": "2026-09-18", "tstamp": 1789689600, "desc": "---", "src": "6.235115/46.369768/6.327438/46.384181", "bbox": "6.235115/46.369768/6.327438/46.384181"}}]}