{"type": "FeatureCollection", "name": "TrackSet", "crs": {"type": "name", "properties": {"name": "urn:ogc:def:crs:OGC:1.3:CRS84"}}, "bbox": [6.157638, 46.428092, 6.204458, 46.458417], "features": [{"type": "Feature", "bbox": [6.157638, 46.428092, 6.204458, 46.458417], "geometry": {"type": "LineString", "coordinates": [[6.204286, 46.428327], [6.204318, 46.428476], [6.204368, 46.428466], [6.204389, 46.428431], [6.204399, 46.428464], [6.204455, 46.428452], [6.204458, 46.428364], [6.204157, 46.428157], [6.20405, 46.428143], [6.203981, 46.428092], [6.203936, 46.428101], [6.203702, 46.428206], [6.203466, 46.428349], [6.203313, 46.428478], [6.203053, 46.428608], [6.203035, 46.428645], [6.202629, 46.428895], [6.202608, 46.428942], [6.2025, 46.429011], [6.202382, 46.429039], [6.20234, 46.429026], [6.202288, 46.429058], [6.202083, 46.429005], [6.20201, 46.428958], [6.201656, 46.428901], [6.20144, 46.428726], [6.201433, 46.428699], [6.201457, 46.428704], [6.201365, 46.428737], [6.20128, 46.428736], [6.201328, 46.42875], [6.201341, 46.428729], [6.201292, 46.428625], [6.201407, 46.428679], [6.201468, 46.42865], [6.201371, 46.428629], [6.201415, 46.428626], [6.201372, 46.428602], [6.201413, 46.428583], [6.201434, 46.428527], [6.20141, 46.42862], [6.201369, 46.42865], [6.201401, 46.428703], [6.201348, 46.428692], [6.201315, 46.428632], [6.201346, 46.428712], [6.201432, 46.428788], [6.20138, 46.428734], [6.201501, 46.428738], [6.201532, 46.428661], [6.201612, 46.428679], [6.201707, 46.428659], [6.201775, 46.428638], [6.201764, 46.428612], [6.201785, 46.428638], [6.201702, 46.428653], [6.201493, 46.428575], [6.201454, 46.428626], [6.201585, 46.428749], [6.201648, 46.428773], [6.201603, 46.428746], [6.201579, 46.428753], [6.201603, 46.428777], [6.201515, 46.42879], [6.201362, 46.428621], [6.201414, 46.428592], [6.201498, 46.428608], [6.201478, 46.428594], [6.201445, 46.428585], [6.201423, 46.428619], [6.201395, 46.428609], [6.201293, 46.428644], [6.201315, 46.428689], [6.201373, 46.428669], [6.201378, 46.428605], [6.201501, 46.428743], [6.201494, 46.428669], [6.201438, 46.428676], [6.201446, 46.428697], [6.201578, 46.42882], [6.201518, 46.428736], [6.201552, 46.428708], [6.201627, 46.4288], [6.201654, 46.428787], [6.201594, 46.428759], [6.201583, 46.42879], [6.2016, 46.428766], [6.201703, 46.428835], [6.201537, 46.428721], [6.201471, 46.428715], [6.201444, 46.428735], [6.201501, 46.428876], [6.201605, 46.428948], [6.201657, 46.429031], [6.201599, 46.429178], [6.2015, 46.429269], [6.20145, 46.42936], [6.201413, 46.429371], [6.201371, 46.429459], [6.200974, 46.42978], [6.200937, 46.429871], [6.200832, 46.429923], [6.200723, 46.430143], [6.20072, 46.430216], [6.200632, 46.430275], [6.200565, 46.430428], [6.200485, 46.430445], [6.200457, 46.430594], [6.200294, 46.430742], [6.200106, 46.430837], [6.199473, 46.431321], [6.199276, 46.431443], [6.199174, 46.431467], [6.199083, 46.43156], [6.197447, 46.432066], [6.197321, 46.432029], [6.197237, 46.432044], [6.197242, 46.432069], [6.19727, 46.432037], [6.197259, 46.432078], [6.197232, 46.432044], [6.197272, 46.432111], [6.19724, 46.432162], [6.196804, 46.4325], [6.196557, 46.432763], [6.196383, 46.432974], [6.19628, 46.433184], [6.196046, 46.433472], [6.195744, 46.433699], [6.195573, 46.433776], [6.195546, 46.43386], [6.195704, 46.433974], [6.195938, 46.43405], [6.196346, 46.434247], [6.196421, 46.434311], [6.196436, 46.434287], [6.196492, 46.434368], [6.196518, 46.43446], [6.196352, 46.434752], [6.196317, 46.435131], [6.196401, 46.435379], [6.196564, 46.435627], [6.196658, 46.435845], [6.197019, 46.436408], [6.197095, 46.436469], [6.197139, 46.436599], [6.1972, 46.436648], [6.197223, 46.436821], [6.197202, 46.436938], [6.197287, 46.437422], [6.197467, 46.437854], [6.197442, 46.437883], [6.197497, 46.437855], [6.197445, 46.437881], [6.197472, 46.437913], [6.197417, 46.437925], [6.19744, 46.438072], [6.197422, 46.438148], [6.197326, 46.438275], [6.197322, 46.438361], [6.197375, 46.43845], [6.197756, 46.438542], [6.197795, 46.43853], [6.197852, 46.438793], [6.198015, 46.438991], [6.198028, 46.439081], [6.198173, 46.439365], [6.198245, 46.439841], [6.198315, 46.43997], [6.198326, 46.440115], [6.19838, 46.440171], [6.198575, 46.440266], [6.198799, 46.440345], [6.198847, 46.440333], [6.198863, 46.440361], [6.199362, 46.44056], [6.20029, 46.440904], [6.200441, 46.441025], [6.200544, 46.441034], [6.200631, 46.441074], [6.200734, 46.441137], [6.200806, 46.441235], [6.200773, 46.441306], [6.200854, 46.441415], [6.200893, 46.441582], [6.201011, 46.441655], [6.200925, 46.441844], [6.200983, 46.441967], [6.200911, 46.442043], [6.200923, 46.442127], [6.201012, 46.442317], [6.201055, 46.442296], [6.201083, 46.442327], [6.201055, 46.442421], [6.201076, 46.442658], [6.201135, 46.442731], [6.201227, 46.44275], [6.201113, 46.442907], [6.20116, 46.443057], [6.20108, 46.443198], [6.201164, 46.443308], [6.201376, 46.443493], [6.201387, 46.443536], [6.201636, 46.443664], [6.201665, 46.443759], [6.201779, 46.443821], [6.201888, 46.443944], [6.201945, 46.443969], [6.201999, 46.444104], [6.202194, 46.444284], [6.202108, 46.444432], [6.201912, 46.444623], [6.202026, 46.444795], [6.202257, 46.444953], [6.202285, 46.445099], [6.202231, 46.445204], [6.202241, 46.445244], [6.202096, 46.445458], [6.202076, 46.445577], [6.202004, 46.445659], [6.201926, 46.445931], [6.201975, 46.446012], [6.201961, 46.446098], [6.202059, 46.446239], [6.202127, 46.446281], [6.202044, 46.446432], [6.20187, 46.446566], [6.201836, 46.446682], [6.202015, 46.446913], [6.202152, 46.446959], [6.202205, 46.447034], [6.202269, 46.447277], [6.202382, 46.447511], [6.20247, 46.447559], [6.202483, 46.447628], [6.202575, 46.447715], [6.202773, 46.447843], [6.202852, 46.448084], [6.203014, 46.44818], [6.203128, 46.448323], [6.203234, 46.448359], [6.203345, 46.44845], [6.203431, 46.448482], [6.203379, 46.448607], [6.203269, 46.448663], [6.202982, 46.448564], [6.202939, 46.448583], [6.202828, 46.448749], [6.202771, 46.448787], [6.202753, 46.448896], [6.20279, 46.448953], [6.202785, 46.449108], [6.202823, 46.449211], [6.202891, 46.449269], [6.202903, 46.449337], [6.202851, 46.44945], [6.20288, 46.449454], [6.202875, 46.449521], [6.202789, 46.449569], [6.202696, 46.44968], [6.202591, 46.449722], [6.202151, 46.449732], [6.20178, 46.4498], [6.201663, 46.449775], [6.201555, 46.449801], [6.201375, 46.449782], [6.201234, 46.449805], [6.201039, 46.449787], [6.200989, 46.449763], [6.200696, 46.449805], [6.200454, 46.449797], [6.200351, 46.449835], [6.200223, 46.449806], [6.200121, 46.449849], [6.199937, 46.449869], [6.199874, 46.449909], [6.19971, 46.449884], [6.199587, 46.449938], [6.199366, 46.449951], [6.199355, 46.449919], [6.199225, 46.449872], [6.19906, 46.449877], [6.199071, 46.44984], [6.199007, 46.449816], [6.199006, 46.44977], [6.198808, 46.449791], [6.198759, 46.449744], [6.198558, 46.449718], [6.198469, 46.449665], [6.19822, 46.44964], [6.198045, 46.449665], [6.197937, 46.449767], [6.197878, 46.449738], [6.197862, 46.449762], [6.197842, 46.449736], [6.197841, 46.449768], [6.19776, 46.449807], [6.197755, 46.449766], [6.197724, 46.449773], [6.197778, 46.449742], [6.197575, 46.449727], [6.197505, 46.449761], [6.197424, 46.449747], [6.197425, 46.44977], [6.197371, 46.449788], [6.197204, 46.4498], [6.197172, 46.449776], [6.19708, 46.449807], [6.197052, 46.449795], [6.197077, 46.449762], [6.197028, 46.449746], [6.196873, 46.449779], [6.196835, 46.44981], [6.196852, 46.449741], [6.196812, 46.449757], [6.196773, 46.44972], [6.196553, 46.44978], [6.196475, 46.449762], [6.196418, 46.449778], [6.196343, 46.449749], [6.196248, 46.449754], [6.196191, 46.449702], [6.196065, 46.449688], [6.195987, 46.449726], [6.196013, 46.449747], [6.195873, 46.449759], [6.195861, 46.449726], [6.195755, 46.449734], [6.195699, 46.449788], [6.195628, 46.449694], [6.195436, 46.449713], [6.195342, 46.449675], [6.195271, 46.449697], [6.195142, 46.449691], [6.195044, 46.449638], [6.194906, 46.449643], [6.194828, 46.449682], [6.19479, 46.449649], [6.194636, 46.449654], [6.194691, 46.449659], [6.19464, 46.449691], [6.194624, 46.449665], [6.19471, 46.449658], [6.194685, 46.449693], [6.194531, 46.449715], [6.194483, 46.449746], [6.194415, 46.449732], [6.194336, 46.44975], [6.194302, 46.449725], [6.194156, 46.449787], [6.194057, 46.44979], [6.194044, 46.44983], [6.193855, 46.449903], [6.193723, 46.450035], [6.193655, 46.450036], [6.193576, 46.45009], [6.193581, 46.450141], [6.193513, 46.450161], [6.193541, 46.450193], [6.193499, 46.450248], [6.193443, 46.450267], [6.19342, 46.450306], [6.193445, 46.450318], [6.193468, 46.450288], [6.193402, 46.450232], [6.193281, 46.450231], [6.193291, 46.450202], [6.193251, 46.450195], [6.193107, 46.450266], [6.192948, 46.450299], [6.192918, 46.450338], [6.192909, 46.45032], [6.192866, 46.450349], [6.192875, 46.450308], [6.192835, 46.4503], [6.192747, 46.450396], [6.192718, 46.450397], [6.192738, 46.450425], [6.192622, 46.450453], [6.192565, 46.450501], [6.192575, 46.45053], [6.192543, 46.450502], [6.192416, 46.450532], [6.192385, 46.450479], [6.192321, 46.450489], [6.192236, 46.450561], [6.19218, 46.450565], [6.192161, 46.450602], [6.19217, 46.450656], [6.192205, 46.45067], [6.192186, 46.450683], [6.192069, 46.450602], [6.191977, 46.450611], [6.191947, 46.45064], [6.191937, 46.450678], [6.191993, 46.450704], [6.191809, 46.450638], [6.19157, 46.45081], [6.191507, 46.45083], [6.191519, 46.450844], [6.191444, 46.450874], [6.191382, 46.450858], [6.191336, 46.450906], [6.191296, 46.450897], [6.191343, 46.450863], [6.191411, 46.450876], [6.191357, 46.450857], [6.191347, 46.450824], [6.191222, 46.450791], [6.191241, 46.450763], [6.191192, 46.450754], [6.191209, 46.450741], [6.191155, 46.450772], [6.191182, 46.450763], [6.191181, 46.45071], [6.191095, 46.450599], [6.190877, 46.450508], [6.190858, 46.450447], [6.190667, 46.450319], [6.190446, 46.450237], [6.190398, 46.450167], [6.190172, 46.449987], [6.190067, 46.449945], [6.190013, 46.44997], [6.189972, 46.449961], [6.189801, 46.449845], [6.189563, 46.449779], [6.188543, 46.449603], [6.188036, 46.449545], [6.187773, 46.449477], [6.187324, 46.449459], [6.187149, 46.449549], [6.186345, 46.449714], [6.186256, 46.449801], [6.186277, 46.449814], [6.186327, 46.449788], [6.186353, 46.449844], [6.186483, 46.449882], [6.186723, 46.449918], [6.186823, 46.44989], [6.18702, 46.449933], [6.187312, 46.450074], [6.187431, 46.450188], [6.187502, 46.450192], [6.187598, 46.450332], [6.187747, 46.45041], [6.187761, 46.450602], [6.18782, 46.450613], [6.187851, 46.450751], [6.18781, 46.450989], [6.187745, 46.451132], [6.187802, 46.451309], [6.187991, 46.451543], [6.188084, 46.451614], [6.188176, 46.451618], [6.188281, 46.451696], [6.188424, 46.451892], [6.188447, 46.452052], [6.188548, 46.452192], [6.188525, 46.45231], [6.188542, 46.452586], [6.188443, 46.452857], [6.188281, 46.453018], [6.188295, 46.4531], [6.188102, 46.453265], [6.188112, 46.453307], [6.188034, 46.453426], [6.187088, 46.454224], [6.186767, 46.454429], [6.186637, 46.454466], [6.186589, 46.454515], [6.186438, 46.45454], [6.186349, 46.454605], [6.185712, 46.454789], [6.18545, 46.4549], [6.185253, 46.454957], [6.185121, 46.454964], [6.185027, 46.455008], [6.184955, 46.455005], [6.184734, 46.454918], [6.18455, 46.454933], [6.183656, 46.454475], [6.18314, 46.454243], [6.182567, 46.453891], [6.182289, 46.453751], [6.18209, 46.453601], [6.181959, 46.453576], [6.181833, 46.453661], [6.181616, 46.453938], [6.18141, 46.454127], [6.181343, 46.454272], [6.180861, 46.454681], [6.180086, 46.455056], [6.179944, 46.455102], [6.179731, 46.455242], [6.179497, 46.455331], [6.179179, 46.455401], [6.178776, 46.455565], [6.178259, 46.455912], [6.178063, 46.456124], [6.177454, 46.456562], [6.176549, 46.456714], [6.175516, 46.456845], [6.174533, 46.457094], [6.174549, 46.457081], [6.174518, 46.457071], [6.174487, 46.457103], [6.174271, 46.457184], [6.17375, 46.457312], [6.173443, 46.457358], [6.172993, 46.457378], [6.172583, 46.457449], [6.17107, 46.457985], [6.17022, 46.458158], [6.169544, 46.458226], [6.168119, 46.458283], [6.167608, 46.45835], [6.167327, 46.45836], [6.167149, 46.458417], [6.16704, 46.458402], [6.167017, 46.458369]]}, "properties": {"name": "1789293489.Jura_new_tracks", "cmt": "2026-09-13", "tstamp": 1789257600, "desc": "UpHill", "src": "6.157638/46.428092/6.204458/46.458417", "bbox": "6.157638/46.428092/6.204458/46.458417"}}, {"type": "Feature", "bbox": [6.157638, 46.428092, 6.204458, 46.458417], "geometry": {"type": "LineString", "coordinates": [[6.167006, 46.458346], [6.16688, 46.458275], [6.166807, 46.45829], [6.166493, 46.458205], [6.165579, 46.457787], [6.164914, 46.457529], [6.163518, 46.457183], [6.16336, 46.457092], [6.163124, 46.457028], [6.163168, 46.45707], [6.163197, 46.457032], [6.16317, 46.45705], [6.163124, 46.457012], [6.163106, 46.457023], [6.163144, 46.457002], [6.162955, 46.456883], [6.162862, 46.456897], [6.162776, 46.456863], [6.162747, 46.456816], [6.162713, 46.456825], [6.162727, 46.456809], [6.162673, 46.456748], [6.162612, 46.456749], [6.162533, 46.456708], [6.162262, 46.456522], [6.162219, 46.456485], [6.162227, 46.456459], [6.162347, 46.456448], [6.162563, 46.456368], [6.162787, 46.456318], [6.162805, 46.456293], [6.163294, 46.456117], [6.163386, 46.456127], [6.163504, 46.455954], [6.163664, 46.455823], [6.163893, 46.455712], [6.163962, 46.455708], [6.163911, 46.455616], [6.163795, 46.455565], [6.163656, 46.455379], [6.163673, 46.455287], [6.163649, 46.455238], [6.163684, 46.455159], [6.163623, 46.45497], [6.163371, 46.454841], [6.163234, 46.454738], [6.163122, 46.454572], [6.162876, 46.454412], [6.162608, 46.45415], [6.162374, 46.454029], [6.16203, 46.453958], [6.161786, 46.453841], [6.161559, 46.453525], [6.16153, 46.453427], [6.161575, 46.45335], [6.161521, 46.453216], [6.161451, 46.453148], [6.16123, 46.453089], [6.161098, 46.452968], [6.160851, 46.452888], [6.160808, 46.452849], [6.160445, 46.452809], [6.160294, 46.452761], [6.160239, 46.45261], [6.16011, 46.452591], [6.160004, 46.452478], [6.159924, 46.45245], [6.159793, 46.452348], [6.15944, 46.452267], [6.159344, 46.452271], [6.159253, 46.452232], [6.159173, 46.452234], [6.159039, 46.452165], [6.158766, 46.452141], [6.158584, 46.452066], [6.158462, 46.452044], [6.15837, 46.45197], [6.158345, 46.451737], [6.158294, 46.451694], [6.158282, 46.451627], [6.158124, 46.451482], [6.158096, 46.45142], [6.158016, 46.451372], [6.157932, 46.451211], [6.157883, 46.451164], [6.157805, 46.451149], [6.157774, 46.451092], [6.15769, 46.451052], [6.157677, 46.45098], [6.157638, 46.45095], [6.157693, 46.450904], [6.157872, 46.450853], [6.158, 46.450747], [6.158048, 46.450753], [6.158268, 46.450617], [6.158354, 46.450587], [6.158488, 46.450583], [6.158695, 46.450507], [6.158806, 46.450394], [6.158872, 46.450393], [6.158959, 46.450326], [6.158979, 46.450274], [6.159075, 46.450255], [6.159125, 46.450058], [6.159104, 46.449894], [6.159153, 46.44983], [6.15916, 46.449674], [6.159219, 46.449625], [6.159238, 46.449475], [6.159399, 46.449391], [6.159468, 46.449267], [6.159336, 46.448966], [6.159323, 46.44874], [6.159463, 46.448588], [6.15964, 46.44859], [6.159679, 46.448564], [6.159704, 46.448535], [6.159677, 46.448452], [6.159666, 46.448467], [6.159695, 46.448452], [6.159711, 46.448481], [6.159701, 46.448561], [6.159763, 46.448549], [6.159818, 46.448573], [6.159845, 46.448641], [6.159798, 46.448667], [6.159733, 46.448535], [6.159765, 46.448666], [6.159827, 46.448583], [6.159761, 46.448519], [6.159751, 46.448762], [6.15966, 46.448414], [6.159568, 46.448471], [6.159502, 46.448465], [6.159439, 46.44849], [6.15927, 46.44838], [6.159153, 46.448198], [6.159103, 46.448174], [6.159004, 46.447896], [6.158911, 46.447745], [6.158795, 46.44763], [6.158731, 46.447461], [6.159099, 46.447518], [6.158756, 46.447359], [6.158618, 46.447243], [6.158725, 46.447455], [6.158746, 46.447385], [6.158713, 46.447314], [6.158811, 46.447408], [6.158774, 46.447403], [6.158756, 46.447457], [6.158709, 46.447435], [6.158675, 46.447502], [6.158784, 46.447644], [6.158803, 46.447768], [6.158917, 46.447853], [6.158963, 46.448025], [6.159132, 46.44833], [6.159379, 46.448575], [6.15948, 46.448596], [6.159503, 46.448554], [6.15955, 46.448566]]}, "properties": {"name": "1789293489.Jura_new_tracks", "cmt": "2026-09-13", "tstamp": 1789257600, "desc": "DownHill", "src": "6.157638/46.428092/6.204458/46.458417", "bbox": "6.157638/46.428092/6.204458/46.458417"}}]}