{"type": "FeatureCollection", "name": "TrackSet", "crs": {"type": "name", "properties": {"name": "urn:ogc:def:crs:OGC:1.3:CRS84"}}, "bbox": [6.235456, 46.378828, 6.245657, 46.384875], "features": [{"type": "Feature", "bbox": [6.235456, 46.378828, 6.245657, 46.384875], "geometry": {"type": "LineString", "coordinates": [[6.240541, 46.37976], [6.240576, 46.379722], [6.240562, 46.379678], [6.240152, 46.379595], [6.240016, 46.379543], [6.240034, 46.37951], [6.239962, 46.379453], [6.240006, 46.379451], [6.240015, 46.379541], [6.240162, 46.379586], [6.240592, 46.379923], [6.240548, 46.379953], [6.240509, 46.3799], [6.240432, 46.379868], [6.240423, 46.379812], [6.240449, 46.379812], [6.240404, 46.37984], [6.240439, 46.379889], [6.24048, 46.379877], [6.240453, 46.379879], [6.240471, 46.380003], [6.240544, 46.380098], [6.240425, 46.380149], [6.240339, 46.380264], [6.24024, 46.38026], [6.240164, 46.380292], [6.240135, 46.380343], [6.240182, 46.380495], [6.239964, 46.380546], [6.23983, 46.380499], [6.239769, 46.380508], [6.239217, 46.380117], [6.239088, 46.38007], [6.239116, 46.38007], [6.239081, 46.380038], [6.238853, 46.379892], [6.238761, 46.379803], [6.238668, 46.379794], [6.238335, 46.379848], [6.238253, 46.380057], [6.238244, 46.380168], [6.238279, 46.380325], [6.238352, 46.380345], [6.23853, 46.380299], [6.238703, 46.380294], [6.238785, 46.380256], [6.238789, 46.380196], [6.238568, 46.380022], [6.238852, 46.380088], [6.238873, 46.380168], [6.238931, 46.380166], [6.239069, 46.380304], [6.23921, 46.380409], [6.239277, 46.380428], [6.239383, 46.380534], [6.239631, 46.380667], [6.239766, 46.38078], [6.240024, 46.380884], [6.240267, 46.381093], [6.240501, 46.381218], [6.24071, 46.381474], [6.240792, 46.381779], [6.240772, 46.381846], [6.240636, 46.38183], [6.240496, 46.381899], [6.240111, 46.381948], [6.23969, 46.382104], [6.239611, 46.382106], [6.239469, 46.382191], [6.239299, 46.382223], [6.239136, 46.38237], [6.238998, 46.382325], [6.238875, 46.382138], [6.238903, 46.382119], [6.238909, 46.382159], [6.238697, 46.382241], [6.238544, 46.382246], [6.238506, 46.382297], [6.238335, 46.382389], [6.238242, 46.382371], [6.238194, 46.382389], [6.238037, 46.382379], [6.237963, 46.382411], [6.237923, 46.382502], [6.237859, 46.382522], [6.237729, 46.382517], [6.237481, 46.382684], [6.237342, 46.382739], [6.237137, 46.382928], [6.236973, 46.383005], [6.236918, 46.383001], [6.236818, 46.383103], [6.236475, 46.383276], [6.236319, 46.38324], [6.236142, 46.383146], [6.235951, 46.383132], [6.235873, 46.383094], [6.235817, 46.383043], [6.235716, 46.382831], [6.235684, 46.3828], [6.235609, 46.382792], [6.235563, 46.382749], [6.235557, 46.382722], [6.235624, 46.382734], [6.235582, 46.382728], [6.235609, 46.382727], [6.235624, 46.38266], [6.235597, 46.382759], [6.235668, 46.382693], [6.235635, 46.382852], [6.235695, 46.38286], [6.235744, 46.38292], [6.235867, 46.382907], [6.235532, 46.383001], [6.235485, 46.382857], [6.235456, 46.382887], [6.23559, 46.38291], [6.235636, 46.382971], [6.23574, 46.383009], [6.235748, 46.383074], [6.23589, 46.383105], [6.235933, 46.38315], [6.235917, 46.383169], [6.236002, 46.383118], [6.235963, 46.383167], [6.236019, 46.383204], [6.23612, 46.383225], [6.236122, 46.383255], [6.23634, 46.383251], [6.236399, 46.383281], [6.236587, 46.383222], [6.236769, 46.383133], [6.236813, 46.383085], [6.236871, 46.383077], [6.237038, 46.382983], [6.237186, 46.382951], [6.237384, 46.382818], [6.237601, 46.382746], [6.237665, 46.382668], [6.237925, 46.382523], [6.238437, 46.38233], [6.238592, 46.38232], [6.238737, 46.382238], [6.238931, 46.38221], [6.23898, 46.382171], [6.238976, 46.382108], [6.238987, 46.382152], [6.239031, 46.382145], [6.238961, 46.382167], [6.238973, 46.382128], [6.239007, 46.382142], [6.238975, 46.382159], [6.238992, 46.382118], [6.238994, 46.382168], [6.238931, 46.382212], [6.238979, 46.382157], [6.238958, 46.382203], [6.23899, 46.382224], [6.239013, 46.382325], [6.239074, 46.382351], [6.239148, 46.38257], [6.239217, 46.382611], [6.23917, 46.382698], [6.239184, 46.382772], [6.239378, 46.382953], [6.239432, 46.383059], [6.239405, 46.383165], [6.239242, 46.383196], [6.239127, 46.38331], [6.238949, 46.383311], [6.238766, 46.383352], [6.238277, 46.383596], [6.238134, 46.38372], [6.238092, 46.383865], [6.238109, 46.383961], [6.238058, 46.384047], [6.238028, 46.38404], [6.238069, 46.384131], [6.238148, 46.384178], [6.238314, 46.384353], [6.238338, 46.384488], [6.238393, 46.384539], [6.238383, 46.38458], [6.238507, 46.384679], [6.238535, 46.384756], [6.238604, 46.384785], [6.238669, 46.384761], [6.238737, 46.384799], [6.238942, 46.384813], [6.238995, 46.384849], [6.239122, 46.384875], [6.239485, 46.38487], [6.239771, 46.38481], [6.240179, 46.384652], [6.24042, 46.384519], [6.240452, 46.384458], [6.2404, 46.384365], [6.240413, 46.384277], [6.240309, 46.384193], [6.240304, 46.384142], [6.240232, 46.384138], [6.240258, 46.384141], [6.240255, 46.384054], [6.240173, 46.383954], [6.240156, 46.383965], [6.240076, 46.383928], [6.239873, 46.383775], [6.239809, 46.383779], [6.239773, 46.383676], [6.239618, 46.383621], [6.239482, 46.383487], [6.239443, 46.383486], [6.239362, 46.383407], [6.239246, 46.383357], [6.239366, 46.383199], [6.239334, 46.383082], [6.239365, 46.383016], [6.239319, 46.38302], [6.239272, 46.383123], [6.239285, 46.383173], [6.239397, 46.383303], [6.239455, 46.383332], [6.239732, 46.383391], [6.239836, 46.383391], [6.239981, 46.383324], [6.240135, 46.383334], [6.240294, 46.38326], [6.24043, 46.383129], [6.24057, 46.383086], [6.240663, 46.382986], [6.24093, 46.382915], [6.241192, 46.382691], [6.241223, 46.382705], [6.241215, 46.382742], [6.241217, 46.382701], [6.241279, 46.382675], [6.241299, 46.382599], [6.241372, 46.382591], [6.241493, 46.38249], [6.241705, 46.382455], [6.241777, 46.382372], [6.241944, 46.382328], [6.241961, 46.382237], [6.241995, 46.382212], [6.24206, 46.382248], [6.242054, 46.382227], [6.242168, 46.382208], [6.242171, 46.382141], [6.242265, 46.382146], [6.24239, 46.382077], [6.242494, 46.382066], [6.242706, 46.382164], [6.242806, 46.382258], [6.242808, 46.382307], [6.242898, 46.382344], [6.242935, 46.382407], [6.243456, 46.382782], [6.24343, 46.382799], [6.24345, 46.382787], [6.243469, 46.382812], [6.243528, 46.382992], [6.243627, 46.382994], [6.243698, 46.383047], [6.24371, 46.383092], [6.243819, 46.383149], [6.243972, 46.383127], [6.244066, 46.383088], [6.244082, 46.383048], [6.24422, 46.383017], [6.244315, 46.383129], [6.244341, 46.3831], [6.244394, 46.383168], [6.244422, 46.383133], [6.244483, 46.383117], [6.244497, 46.383233], [6.244757, 46.383315], [6.244908, 46.38343], [6.245479, 46.383566], [6.245642, 46.383569], [6.245657, 46.383549], [6.245624, 46.383577], [6.245598, 46.383551], [6.245625, 46.383542], [6.245611, 46.383559], [6.245653, 46.383571], [6.245614, 46.38354], [6.245624, 46.383575], [6.245623, 46.383534], [6.245637, 46.383561], [6.245633, 46.383544], [6.245574, 46.383565], [6.245478, 46.383553], [6.245105, 46.383439], [6.24507, 46.383455], [6.244941, 46.383436], [6.244889, 46.383378], [6.244415, 46.38314], [6.244359, 46.383073], [6.244112, 46.382935], [6.244038, 46.382843], [6.243952, 46.382803], [6.243764, 46.38257], [6.243565, 46.382403], [6.243435, 46.382357], [6.243414, 46.382312], [6.243421, 46.382337], [6.24332, 46.382374], [6.243301, 46.382488], [6.24324, 46.382512], [6.243044, 46.382507], [6.242912, 46.382404], [6.242857, 46.382278], [6.242815, 46.38224], [6.24275, 46.382235], [6.242702, 46.382188], [6.242669, 46.382115], [6.242723, 46.382091], [6.24264, 46.382136], [6.242683, 46.382115], [6.242672, 46.382142], [6.242632, 46.382146], [6.242735, 46.382058], [6.242655, 46.38207], [6.242667, 46.382038], [6.242631, 46.382064], [6.242431, 46.382054], [6.24235, 46.382114], [6.242216, 46.382102], [6.242152, 46.382036], [6.242121, 46.382038], [6.241914, 46.382165], [6.241809, 46.382126], [6.241775, 46.382066], [6.241606, 46.381989], [6.241487, 46.382036], [6.241279, 46.382025], [6.24101, 46.382248], [6.240675, 46.382386], [6.240508, 46.382396], [6.24034, 46.382465], [6.240078, 46.382468], [6.239962, 46.382505], [6.239803, 46.38252], [6.239609, 46.382594], [6.239557, 46.382585], [6.239419, 46.382627], [6.239399, 46.382608], [6.239346, 46.382664], [6.239299, 46.382618], [6.239272, 46.382503], [6.239078, 46.38238], [6.239016, 46.382274], [6.23889, 46.382187], [6.238878, 46.382137], [6.238953, 46.382133], [6.238947, 46.382069], [6.239005, 46.382092], [6.239012, 46.382132], [6.238982, 46.382129], [6.239015, 46.382149], [6.239007, 46.382203], [6.239034, 46.382177], [6.23897, 46.382255], [6.238993, 46.382321], [6.239055, 46.382372], [6.239134, 46.382378], [6.239289, 46.382341], [6.239336, 46.382349], [6.239431, 46.382308], [6.239541, 46.382217], [6.239556, 46.382139], [6.239631, 46.382098], [6.239695, 46.382105], [6.239756, 46.382074], [6.239762, 46.382001], [6.239732, 46.381973], [6.239757, 46.38188], [6.23965, 46.381749], [6.239624, 46.381598], [6.239558, 46.381492], [6.239426, 46.381463], [6.239375, 46.381413], [6.239427, 46.381438], [6.239786, 46.38145], [6.239877, 46.381348], [6.240036, 46.381309], [6.240135, 46.381331], [6.240191, 46.381534], [6.240243, 46.381566], [6.240209, 46.381611], [6.240292, 46.381636], [6.240268, 46.381726], [6.240294, 46.381824], [6.240268, 46.381824], [6.240256, 46.381871], [6.240418, 46.38195], [6.240519, 46.381924], [6.240538, 46.381898], [6.240642, 46.381893], [6.24065, 46.381871], [6.240825, 46.381857], [6.240844, 46.381841], [6.240803, 46.381791], [6.240882, 46.381755], [6.240908, 46.381775], [6.241039, 46.381743], [6.241051, 46.381763], [6.241134, 46.381763], [6.241225, 46.381722], [6.241261, 46.381666], [6.241331, 46.381671], [6.241343, 46.38162], [6.241383, 46.381596], [6.24145, 46.381601], [6.241467, 46.381517], [6.241659, 46.38151], [6.241825, 46.381548], [6.241854, 46.381671], [6.241922, 46.381707], [6.241936, 46.381777], [6.241969, 46.381794], [6.2419, 46.381811], [6.241988, 46.381795], [6.242017, 46.381747], [6.242003, 46.381798], [6.241988, 46.381776], [6.241965, 46.381789], [6.241994, 46.381801], [6.241962, 46.381792], [6.242023, 46.381919], [6.242109, 46.382033], [6.242238, 46.382096], [6.242419, 46.382104], [6.242493, 46.38214], [6.242595, 46.382102], [6.242686, 46.382123], [6.242816, 46.382099], [6.242939, 46.382022], [6.242934, 46.381947], [6.243018, 46.381833], [6.242884, 46.381611], [6.242405, 46.38111], [6.242022, 46.380657], [6.241815, 46.380474], [6.241822, 46.380405], [6.241888, 46.38034], [6.241892, 46.380295], [6.241787, 46.380064], [6.241523, 46.379763], [6.241469, 46.379413], [6.241304, 46.379124], [6.241373, 46.378828], [6.241335, 46.378986], [6.241295, 46.379021], [6.241281, 46.379145], [6.241374, 46.379361], [6.241381, 46.379324], [6.241428, 46.379419], [6.241481, 46.379689], [6.241704, 46.379997], [6.241533, 46.380093], [6.241393, 46.380246], [6.241084, 46.380096], [6.240776, 46.379988], [6.240623, 46.379958], [6.240509, 46.379878], [6.240477, 46.379869], [6.240471, 46.379895], [6.240497, 46.379884], [6.240471, 46.379911], [6.240641, 46.38001]]}, "properties": {"name": "1789368780.Nyon_morning_stroll", "cmt": "2026-09-14", "tstamp": 1789344000, "desc": "---", "src": "6.235456/46.378828/6.245657/46.384875", "bbox": "6.235456/46.378828/6.245657/46.384875"}}]}