{"type": "FeatureCollection", "name": "TrackSet", "crs": {"type": "name", "properties": {"name": "urn:ogc:def:crs:OGC:1.3:CRS84"}}, "bbox": [6.073008, 46.427755, 6.20447, 46.481761], "features": [{"type": "Feature", "bbox": [6.073008, 46.427755, 6.20447, 46.481761], "geometry": {"type": "LineString", "coordinates": [[6.20447, 46.42849], [6.204455, 46.428393], [6.204349, 46.428307], [6.203957, 46.428022], [6.203545, 46.42777], [6.203465, 46.427755], [6.203079, 46.427987], [6.202924, 46.428133], [6.202645, 46.428292], [6.202448, 46.428525], [6.202206, 46.428698], [6.202156, 46.428784], [6.201823, 46.428956], [6.201733, 46.42897], [6.201638, 46.428952], [6.201529, 46.428896], [6.201484, 46.428785], [6.201408, 46.428728], [6.201416, 46.428681], [6.201336, 46.428636], [6.201349, 46.428674], [6.20154, 46.428687], [6.201592, 46.428593], [6.201679, 46.42864], [6.201669, 46.42868], [6.201598, 46.428626], [6.20156, 46.428698], [6.20165, 46.428743], [6.201716, 46.428697], [6.201865, 46.428739], [6.201613, 46.42871], [6.201645, 46.428747], [6.201491, 46.428752], [6.201737, 46.428828], [6.201915, 46.428988], [6.201948, 46.428907], [6.201677, 46.428755], [6.201482, 46.428738], [6.201735, 46.428756], [6.201891, 46.428732], [6.201849, 46.428713], [6.201645, 46.428722], [6.201612, 46.428734], [6.20165, 46.428806], [6.20154, 46.428684], [6.201569, 46.428686], [6.20146, 46.428647], [6.201458, 46.428629], [6.201502, 46.428628], [6.201443, 46.428628], [6.201487, 46.428646], [6.201459, 46.428659], [6.201481, 46.428648], [6.20142, 46.428643], [6.20145, 46.428657], [6.201441, 46.42863], [6.201482, 46.428635], [6.201425, 46.428642], [6.20139, 46.428734], [6.201502, 46.428792], [6.201621, 46.428915], [6.201757, 46.428969], [6.201735, 46.429], [6.201764, 46.429035], [6.201698, 46.429148], [6.201445, 46.429343], [6.201426, 46.429426], [6.201101, 46.429687], [6.201034, 46.429798], [6.200841, 46.429973], [6.200602, 46.430295], [6.20057, 46.430429], [6.200458, 46.430563], [6.200431, 46.430651], [6.199938, 46.430951], [6.19961, 46.43124], [6.199372, 46.431404], [6.198978, 46.431589], [6.198493, 46.431717], [6.198423, 46.43176], [6.198217, 46.431806], [6.198019, 46.431884], [6.197624, 46.431966], [6.197311, 46.431996], [6.197218, 46.432043], [6.197303, 46.432028], [6.197252, 46.43207], [6.197231, 46.432042], [6.197264, 46.432032], [6.197241, 46.432047], [6.197266, 46.432059], [6.197306, 46.432032], [6.197293, 46.432058], [6.197273, 46.432037], [6.197243, 46.432063], [6.197248, 46.432022], [6.197272, 46.43207], [6.197299, 46.432059], [6.197257, 46.43205], [6.197255, 46.432028], [6.197163, 46.432014], [6.196315, 46.432063], [6.196125, 46.43205], [6.195598, 46.432088], [6.195504, 46.432076], [6.194991, 46.432134], [6.194515, 46.432233], [6.194266, 46.432372], [6.193984, 46.432589], [6.19395, 46.432648], [6.193856, 46.432662], [6.193695, 46.432772], [6.192843, 46.433182], [6.192651, 46.433244], [6.192468, 46.433353], [6.192082, 46.433511], [6.191801, 46.433676], [6.191567, 46.433746], [6.191443, 46.433867], [6.191069, 46.434041], [6.190719, 46.434255], [6.190548, 46.434314], [6.19031, 46.434446], [6.190292, 46.434435], [6.190266, 46.434527], [6.190184, 46.4346], [6.190094, 46.43465], [6.190032, 46.434644], [6.189718, 46.434815], [6.189096, 46.435233], [6.188846, 46.435356], [6.188779, 46.435429], [6.188639, 46.435843], [6.1886, 46.435887], [6.188682, 46.436066], [6.188866, 46.436208], [6.188976, 46.436236], [6.189051, 46.436314], [6.189202, 46.436352], [6.189257, 46.436342], [6.189611, 46.436487], [6.189879, 46.436653], [6.189923, 46.436704], [6.189947, 46.436811], [6.190126, 46.436947], [6.190116, 46.436975], [6.190155, 46.436964], [6.19013, 46.43696], [6.190103, 46.437088], [6.189998, 46.437173], [6.189929, 46.437185], [6.189931, 46.437309], [6.189856, 46.437394], [6.189878, 46.437499], [6.189827, 46.437762], [6.189788, 46.437836], [6.189732, 46.437864], [6.189528, 46.43838], [6.189324, 46.438592], [6.18928, 46.438605], [6.189248, 46.438708], [6.189011, 46.438893], [6.188974, 46.438953], [6.188921, 46.43899], [6.188872, 46.438985], [6.18886, 46.439022], [6.18865, 46.439137], [6.188599, 46.439159], [6.188481, 46.439154], [6.188348, 46.439204], [6.188147, 46.439184], [6.188087, 46.439138], [6.187965, 46.439163], [6.187941, 46.439128], [6.187834, 46.439102], [6.187827, 46.438993], [6.187671, 46.438953], [6.187584, 46.438729], [6.187482, 46.438676], [6.187464, 46.438622], [6.187393, 46.438622], [6.187228, 46.438525], [6.187001, 46.438362], [6.186948, 46.438286], [6.186868, 46.438276], [6.18668, 46.438176], [6.186488, 46.438144], [6.186298, 46.438129], [6.185991, 46.438161], [6.185644, 46.438297], [6.185459, 46.438419], [6.185203, 46.438487], [6.18498, 46.438505], [6.184923, 46.438476], [6.184661, 46.438454], [6.184513, 46.438474], [6.184227, 46.438469], [6.183932, 46.438655], [6.183732, 46.43866], [6.183637, 46.438639], [6.183648, 46.438717], [6.18366, 46.438682], [6.183508, 46.438615], [6.183393, 46.438505], [6.183364, 46.438398], [6.183227, 46.438288], [6.182999, 46.43826], [6.182668, 46.438284], [6.182424, 46.438265], [6.182252, 46.438304], [6.182224, 46.43828], [6.182012, 46.438265], [6.181915, 46.438302], [6.181798, 46.438301], [6.181765, 46.438426], [6.181802, 46.438621], [6.181937, 46.438846], [6.18199, 46.438886], [6.181936, 46.438967], [6.182048, 46.439258], [6.182022, 46.439426], [6.182002, 46.439454], [6.181945, 46.43946], [6.18188, 46.439585], [6.181829, 46.43961], [6.18183, 46.439685], [6.181758, 46.439813], [6.181615, 46.439944], [6.181612, 46.439985], [6.181553, 46.439991], [6.181451, 46.440088], [6.181257, 46.440116], [6.18117, 46.440179], [6.180982, 46.440215], [6.180807, 46.440196], [6.180643, 46.440269], [6.180565, 46.440261], [6.180559, 46.440231], [6.180493, 46.440227], [6.180411, 46.440172], [6.180323, 46.440185], [6.180236, 46.440234], [6.180227, 46.440217], [6.180159, 46.440218], [6.18011, 46.440262], [6.179985, 46.440292], [6.179933, 46.440361], [6.180037, 46.440597], [6.180073, 46.440621], [6.180107, 46.440603], [6.180259, 46.440735], [6.18023, 46.440761], [6.180277, 46.44082], [6.180266, 46.440913], [6.180332, 46.440963], [6.18025, 46.441163], [6.180275, 46.441331], [6.180175, 46.441428], [6.180127, 46.441437], [6.179995, 46.441611], [6.179907, 46.441607], [6.179826, 46.441635], [6.179732, 46.441774], [6.179692, 46.441917], [6.179426, 46.441967], [6.179337, 46.442008], [6.179293, 46.44222], [6.179342, 46.442359], [6.179531, 46.442485], [6.17988, 46.442573], [6.179888, 46.442556], [6.17998, 46.44255], [6.180063, 46.442578], [6.180217, 46.442844], [6.180327, 46.442969], [6.180406, 46.442989], [6.180442, 46.44308], [6.18048, 46.44309], [6.180465, 46.44321], [6.180486, 46.443251], [6.180544, 46.443273], [6.180575, 46.443381], [6.180654, 46.443448], [6.180642, 46.443567], [6.180752, 46.443675], [6.180759, 46.443722], [6.180845, 46.44377], [6.180859, 46.443819], [6.180914, 46.443851], [6.180937, 46.443963], [6.181088, 46.444046], [6.181105, 46.444099], [6.181198, 46.444186], [6.181201, 46.44424], [6.181324, 46.444288], [6.181339, 46.444325], [6.181481, 46.444415], [6.181492, 46.444452], [6.181555, 46.444475], [6.181601, 46.444591], [6.181586, 46.444622], [6.181678, 46.444758], [6.1817, 46.444749], [6.181706, 46.44478], [6.181822, 46.444858], [6.181843, 46.444986], [6.181997, 46.445022], [6.182003, 46.44519], [6.182059, 46.44524], [6.182113, 46.445242], [6.182203, 46.44547], [6.182275, 46.445532], [6.182303, 46.445525], [6.182287, 46.445601], [6.182327, 46.44561], [6.182355, 46.445662], [6.182335, 46.445769], [6.182364, 46.445785], [6.182242, 46.44581], [6.182224, 46.445789], [6.181928, 46.445776], [6.181851, 46.445733], [6.181685, 46.4457], [6.181604, 46.445715], [6.18091, 46.445455], [6.180479, 46.44536], [6.180152, 46.445136], [6.180088, 46.445131], [6.180038, 46.445162], [6.179908, 46.445174], [6.179815, 46.445123], [6.179683, 46.445114], [6.179554, 46.445139], [6.179456, 46.445097], [6.179265, 46.44515], [6.179167, 46.445147], [6.179054, 46.445108], [6.178875, 46.44513], [6.178755, 46.445056], [6.178633, 46.445071], [6.178577, 46.445042], [6.178432, 46.445025], [6.17817, 46.445022], [6.178034, 46.444977], [6.177841, 46.445], [6.177624, 46.44498], [6.177332, 46.444927], [6.176945, 46.444772], [6.17685, 46.444771], [6.176752, 46.444711], [6.176569, 46.444712], [6.176311, 46.44466], [6.176127, 46.444667], [6.175839, 46.444599], [6.175778, 46.444645], [6.175393, 46.444756], [6.175211, 46.444788], [6.175095, 46.444779], [6.17466, 46.444863], [6.174239, 46.445052], [6.173981, 46.44505], [6.1739, 46.445096], [6.173491, 46.445188], [6.172923, 46.445271], [6.17195, 46.44526], [6.171525, 46.445298], [6.171314, 46.445267], [6.171204, 46.445278], [6.171118, 46.445326], [6.170848, 46.445366], [6.170752, 46.445344], [6.170639, 46.445363], [6.170185, 46.445296], [6.169776, 46.445345], [6.169489, 46.445426], [6.169239, 46.445386], [6.168931, 46.445463], [6.168805, 46.445459], [6.16871, 46.445514], [6.168584, 46.445529], [6.168493, 46.445581], [6.168349, 46.44562], [6.168239, 46.445719], [6.168195, 46.445725], [6.168145, 46.445809], [6.167785, 46.445958], [6.167748, 46.446046], [6.16716, 46.446326], [6.167128, 46.446437], [6.16691, 46.446518], [6.166831, 46.446581], [6.166832, 46.446658], [6.16657, 46.446937], [6.166508, 46.44707], [6.166426, 46.44708], [6.16622, 46.447296], [6.165992, 46.447381], [6.165961, 46.447345], [6.165895, 46.447338], [6.165841, 46.447364], [6.16583, 46.447422], [6.165768, 46.447476], [6.16575, 46.447452], [6.165651, 46.447448], [6.165396, 46.447497], [6.165304, 46.44747], [6.165227, 46.447591], [6.16514, 46.447618], [6.165083, 46.447695], [6.164974, 46.44776], [6.164849, 46.447782], [6.164556, 46.447918], [6.16443, 46.447909], [6.164311, 46.447966], [6.16425, 46.447967], [6.164195, 46.448018], [6.164148, 46.448021], [6.164109, 46.447981], [6.164015, 46.447989], [6.16395, 46.448029], [6.163811, 46.448038], [6.16365, 46.447925], [6.163532, 46.447926], [6.163113, 46.447851], [6.16293, 46.447853], [6.162721, 46.447903], [6.162644, 46.448013], [6.16265, 46.448186], [6.162542, 46.448255], [6.162271, 46.448347], [6.162127, 46.448292], [6.162045, 46.448289], [6.161989, 46.448247], [6.161779, 46.448296], [6.161462, 46.448314], [6.161086, 46.448258], [6.160568, 46.448413], [6.160393, 46.448384], [6.160079, 46.448431], [6.159986, 46.448426], [6.159715, 46.448507], [6.159501, 46.448543], [6.159437, 46.448546], [6.159445, 46.448495], [6.159407, 46.448507], [6.15942, 46.448532], [6.159377, 46.448585], [6.159391, 46.448452], [6.159163, 46.448298], [6.159035, 46.447881], [6.158893, 46.447708], [6.158886, 46.447613], [6.158751, 46.447523], [6.158769, 46.447456], [6.158698, 46.44741], [6.158702, 46.447317], [6.158733, 46.447316], [6.158694, 46.447366], [6.158604, 46.44741], [6.158819, 46.447496], [6.158576, 46.447366], [6.158586, 46.44741], [6.158611, 46.44736], [6.158668, 46.447406], [6.158749, 46.447577], [6.158823, 46.447602], [6.158837, 46.447738], [6.158939, 46.447867], [6.158992, 46.448054], [6.15912, 46.448277], [6.159226, 46.448377], [6.15925, 46.448501], [6.159336, 46.448603], [6.159244, 46.448695], [6.159222, 46.448796], [6.159305, 46.448937], [6.159329, 46.449088], [6.159381, 46.449188], [6.159364, 46.449247], [6.159391, 46.449306], [6.159338, 46.449455], [6.159366, 46.449519], [6.159301, 46.449656], [6.159021, 46.44994], [6.159007, 46.450154], [6.158933, 46.450224], [6.158923, 46.450272], [6.158867, 46.450265], [6.158767, 46.450311], [6.158683, 46.45044], [6.158504, 46.450473], [6.158434, 46.450513], [6.158398, 46.450505], [6.158358, 46.450567], [6.158315, 46.450568], [6.158226, 46.45066], [6.158055, 46.450715], [6.158041, 46.450773], [6.157963, 46.450817], [6.157695, 46.450815], [6.157458, 46.450871], [6.157285, 46.450852], [6.157148, 46.450863], [6.157, 46.450785], [6.156912, 46.450802], [6.156856, 46.450776], [6.156716, 46.450806], [6.156578, 46.45078], [6.156528, 46.450801], [6.156289, 46.450759], [6.156201, 46.450706], [6.155989, 46.450658], [6.155889, 46.450526], [6.155468, 46.450303], [6.155304, 46.450247], [6.15497, 46.450239], [6.154679, 46.450159], [6.154605, 46.45018], [6.154571, 46.450164], [6.153933, 46.45018], [6.153885, 46.450256], [6.153818, 46.45029], [6.15374, 46.450461], [6.153729, 46.450648], [6.153467, 46.450963], [6.153396, 46.451008], [6.153281, 46.451025], [6.153011, 46.451198], [6.152903, 46.451233], [6.152885, 46.45125], [6.152907, 46.45124], [6.152921, 46.451272], [6.15288, 46.451297], [6.153007, 46.451326], [6.153026, 46.451294], [6.152956, 46.451298], [6.152831, 46.451353], [6.152796, 46.451408], [6.152841, 46.451422], [6.152826, 46.451471], [6.152789, 46.451466], [6.152657, 46.451554], [6.152723, 46.451617], [6.152619, 46.451599], [6.15266, 46.451608], [6.152615, 46.45161], [6.152587, 46.451676], [6.152557, 46.451675], [6.152608, 46.451713], [6.152544, 46.451684], [6.152581, 46.451684], [6.152571, 46.451642], [6.152671, 46.451581], [6.152665, 46.451551], [6.152923, 46.451531], [6.152997, 46.45154], [6.153113, 46.451602], [6.15311, 46.45167], [6.153173, 46.451732], [6.15326, 46.451784], [6.153282, 46.451767], [6.153318, 46.45195], [6.153258, 46.451988], [6.153337, 46.452133], [6.15333, 46.452223], [6.153158, 46.452332], [6.153163, 46.452369], [6.153203, 46.45239], [6.153036, 46.452432], [6.152836, 46.452739], [6.152778, 46.452779], [6.152774, 46.452834], [6.152659, 46.452865], [6.152601, 46.45292], [6.152517, 46.452909], [6.152492, 46.452931], [6.152282, 46.452956], [6.152258, 46.452992], [6.152113, 46.453036], [6.152002, 46.453155], [6.151871, 46.453157], [6.151636, 46.453253], [6.151369, 46.453281], [6.151303, 46.45337], [6.151272, 46.4535], [6.151191, 46.453506], [6.151161, 46.45353], [6.151194, 46.453627], [6.151129, 46.453674], [6.151152, 46.453755], [6.151093, 46.453779], [6.151103, 46.453748], [6.151183, 46.453851], [6.151204, 46.453836], [6.151147, 46.45387], [6.15115, 46.453909], [6.151214, 46.453944], [6.151222, 46.454014], [6.151332, 46.454083], [6.151298, 46.454105], [6.151327, 46.454159], [6.151541, 46.454256], [6.151573, 46.454296], [6.151543, 46.454341], [6.151603, 46.454328], [6.151658, 46.454459], [6.151734, 46.454468], [6.151909, 46.454639], [6.151923, 46.454686], [6.151928, 46.454729], [6.15188, 46.454749], [6.15194, 46.45478], [6.151909, 46.454839], [6.151882, 46.45486], [6.15186, 46.454843], [6.151783, 46.455042], [6.151831, 46.455176], [6.151929, 46.455237], [6.151885, 46.455236], [6.151909, 46.455227], [6.151908, 46.455251], [6.151881, 46.455303], [6.151952, 46.455326], [6.151906, 46.45537], [6.151983, 46.455482], [6.151973, 46.45557], [6.152021, 46.455627], [6.15199, 46.455783], [6.152016, 46.455761], [6.151999, 46.455775], [6.152036, 46.455795], [6.15205, 46.455867], [6.152003, 46.455904], [6.151924, 46.456118], [6.151857, 46.456144], [6.151874, 46.456239], [6.151835, 46.456226], [6.151833, 46.456272], [6.151867, 46.456262], [6.151935, 46.456299], [6.151871, 46.456336], [6.151878, 46.456386], [6.151977, 46.456437], [6.152042, 46.45652], [6.152144, 46.456526], [6.152204, 46.456568], [6.152273, 46.456562], [6.152266, 46.456585], [6.152322, 46.456522], [6.152419, 46.456556], [6.152467, 46.456641], [6.15265, 46.45658], [6.152688, 46.45662], [6.152647, 46.456662], [6.152657, 46.45672], [6.152532, 46.45682], [6.152565, 46.456841], [6.152547, 46.456865], [6.152586, 46.456873], [6.152352, 46.457016], [6.152327, 46.456998], [6.152364, 46.456978], [6.152274, 46.456986], [6.152276, 46.457044], [6.152239, 46.457065], [6.152208, 46.457045], [6.152205, 46.457071], [6.152146, 46.457074], [6.15214, 46.457093], [6.152102, 46.457067], [6.152054, 46.457213], [6.152006, 46.457192], [6.151965, 46.457208], [6.152043, 46.457186], [6.152012, 46.457177], [6.151978, 46.457222], [6.151991, 46.457343], [6.152023, 46.457377], [6.151882, 46.457564], [6.151886, 46.457643], [6.151762, 46.457738], [6.151827, 46.457911], [6.151818, 46.457973], [6.151873, 46.458026], [6.151886, 46.458309], [6.151833, 46.458428], [6.151751, 46.458492], [6.151677, 46.45851], [6.151584, 46.458596], [6.151557, 46.4587], [6.151487, 46.458779], [6.151423, 46.459025], [6.151417, 46.459374], [6.151276, 46.459611], [6.151233, 46.459817], [6.151026, 46.460151], [6.150649, 46.460413], [6.150574, 46.460616], [6.1506, 46.460781], [6.150552, 46.460905], [6.150421, 46.461039], [6.150257, 46.461104], [6.150176, 46.461074], [6.150189, 46.461101], [6.150184, 46.461086], [6.150114, 46.461116], [6.149832, 46.46128], [6.149581, 46.461502], [6.149495, 46.461664], [6.149018, 46.462062], [6.148755, 46.462115], [6.148706, 46.462118], [6.148732, 46.462093], [6.148758, 46.462107], [6.148662, 46.462141], [6.14835, 46.462178], [6.147962, 46.462183], [6.14678, 46.461812], [6.1467, 46.461806], [6.146584, 46.46175], [6.146212, 46.461695], [6.146133, 46.461663], [6.145946, 46.461667], [6.145637, 46.461591], [6.145576, 46.461602], [6.145482, 46.46157], [6.145238, 46.461543], [6.144757, 46.461428], [6.144647, 46.461435], [6.144398, 46.461515], [6.144036, 46.461493], [6.143938, 46.46152], [6.143691, 46.46151], [6.143643, 46.461527], [6.143565, 46.461605], [6.143597, 46.461664], [6.143951, 46.461793], [6.144444, 46.46192], [6.144657, 46.462098], [6.144736, 46.462224], [6.145002, 46.462354], [6.145194, 46.462489], [6.145201, 46.462622], [6.145283, 46.462752], [6.145329, 46.462946], [6.145405, 46.46304], [6.145426, 46.463165], [6.145388, 46.463411], [6.145349, 46.463472], [6.145341, 46.463634], [6.145288, 46.46369], [6.145296, 46.463967], [6.145343, 46.46408], [6.145262, 46.464248], [6.145269, 46.464392], [6.145392, 46.46449], [6.14528, 46.46458], [6.145142, 46.464826], [6.145102, 46.464988], [6.145153, 46.465153], [6.145129, 46.465122], [6.145002, 46.465343], [6.144846, 46.465486], [6.144723, 46.465438], [6.144671, 46.465475], [6.144307, 46.465542], [6.144289, 46.465515], [6.144261, 46.465528], [6.144279, 46.465509], [6.144267, 46.465576], [6.14426, 46.465549], [6.14397, 46.465601], [6.143689, 46.465698], [6.143668, 46.465688], [6.143593, 46.465757], [6.14354, 46.46573], [6.143363, 46.465764], [6.143278, 46.465756], [6.143014, 46.46583], [6.142912, 46.465809], [6.142897, 46.465832], [6.142692, 46.465865], [6.142484, 46.465849], [6.142346, 46.465922], [6.142383, 46.465908], [6.142352, 46.465895], [6.142246, 46.465911], [6.142188, 46.465954], [6.141978, 46.466026], [6.141629, 46.466004], [6.141483, 46.465942], [6.14123, 46.466005], [6.141072, 46.466209], [6.141097, 46.466358], [6.141162, 46.466383], [6.141116, 46.466504], [6.141152, 46.466547], [6.141114, 46.46656], [6.141122, 46.46663], [6.141075, 46.46669], [6.141107, 46.466816], [6.14105, 46.466985], [6.141084, 46.467073], [6.141015, 46.46717], [6.141109, 46.467327], [6.141021, 46.467403], [6.141023, 46.467456], [6.141055, 46.467471], [6.141038, 46.46746], [6.140973, 46.467505], [6.140908, 46.467603], [6.140818, 46.467649], [6.140565, 46.467714], [6.140112, 46.46766], [6.139522, 46.467752], [6.138859, 46.467761], [6.138675, 46.467731], [6.13862, 46.467691], [6.138636, 46.467712], [6.138576, 46.467695], [6.138129, 46.467759], [6.137607, 46.467755], [6.137366, 46.467733], [6.136893, 46.467604], [6.136086, 46.467487], [6.135789, 46.467487], [6.134905, 46.467411], [6.134682, 46.467426], [6.134476, 46.4674], [6.134445, 46.46738], [6.134452, 46.467341], [6.134406, 46.46737], [6.134315, 46.46738], [6.13417, 46.467354], [6.133655, 46.467184], [6.133321, 46.467126], [6.133239, 46.46707], [6.133074, 46.46701], [6.132735, 46.466945], [6.132502, 46.466847], [6.132107, 46.466823], [6.131874, 46.466762], [6.131708, 46.466756], [6.131575, 46.466695], [6.131521, 46.466718], [6.131327, 46.46665], [6.131075, 46.466644], [6.131011, 46.466617], [6.130222, 46.466487], [6.129917, 46.466396], [6.129727, 46.466308], [6.129383, 46.466254], [6.128837, 46.466124], [6.128392, 46.465941], [6.127967, 46.46591], [6.127687, 46.465929], [6.12716, 46.465871], [6.126457, 46.465944], [6.126364, 46.465916], [6.126249, 46.465935], [6.126094, 46.465886], [6.12582, 46.465867], [6.125576, 46.465923], [6.125515, 46.465903], [6.125215, 46.465958], [6.125053, 46.465957], [6.124923, 46.46592], [6.124756, 46.465966], [6.124682, 46.465934], [6.124658, 46.465874], [6.124577, 46.465904], [6.124562, 46.465884], [6.124564, 46.465796], [6.124626, 46.465767], [6.124572, 46.465724], [6.124585, 46.465704], [6.124508, 46.465667], [6.124514, 46.465571], [6.124481, 46.465585], [6.124502, 46.465553], [6.124594, 46.46555], [6.124563, 46.465605], [6.124512, 46.465611], [6.1243, 46.465576], [6.124156, 46.465601], [6.124272, 46.465555], [6.124285, 46.465574], [6.124377, 46.465561], [6.12426, 46.465596], [6.124207, 46.465589], [6.12418, 46.465643], [6.12414, 46.465646], [6.124247, 46.465607], [6.124299, 46.465616], [6.124324, 46.465655], [6.124313, 46.465752], [6.124246, 46.4658], [6.124284, 46.465823], [6.124279, 46.46575], [6.124138, 46.465823], [6.124076, 46.465819], [6.124006, 46.465851], [6.123958, 46.465831], [6.12389, 46.465845], [6.123818, 46.46581], [6.123817, 46.465756], [6.123753, 46.465717], [6.123672, 46.465572], [6.123379, 46.465335], [6.12339, 46.46529], [6.123328, 46.465195], [6.123278, 46.465182], [6.123261, 46.465129], [6.123139, 46.465108], [6.122977, 46.465037], [6.122793, 46.465026], [6.122677, 46.464965], [6.122415, 46.464881], [6.122344, 46.464869], [6.122226, 46.464895], [6.121929, 46.464738], [6.12169, 46.464681], [6.12147, 46.464698], [6.121356, 46.464671], [6.121151, 46.464683], [6.12065, 46.464865], [6.120613, 46.464855], [6.120631, 46.464829], [6.120523, 46.464827], [6.120451, 46.464858], [6.120389, 46.464844], [6.120366, 46.464866], [6.12033, 46.46484], [6.120287, 46.465016], [6.120234, 46.465044], [6.12019, 46.46499], [6.12023, 46.465002], [6.120274, 46.464943], [6.120313, 46.464977], [6.120334, 46.464957], [6.120366, 46.464966], [6.120445, 46.464889], [6.120481, 46.464882], [6.120535, 46.464927], [6.120655, 46.464915], [6.120833, 46.465073], [6.12088, 46.465083], [6.120887, 46.465126], [6.120933, 46.465105], [6.12119, 46.465279], [6.121371, 46.465498], [6.121508, 46.465611], [6.121669, 46.465826], [6.122057, 46.466145], [6.122354, 46.46654], [6.122468, 46.466764], [6.122484, 46.466908], [6.122421, 46.467108], [6.122444, 46.467177], [6.122346, 46.467364], [6.122284, 46.467417], [6.122259, 46.467468], [6.122288, 46.46752], [6.122232, 46.467574], [6.122116, 46.467604], [6.122077, 46.467585], [6.122004, 46.4676], [6.121829, 46.467709], [6.121709, 46.467729], [6.121639, 46.467771], [6.121423, 46.467776], [6.121203, 46.467841], [6.121125, 46.46784], [6.120848, 46.467992], [6.120679, 46.468158], [6.120559, 46.468183], [6.120476, 46.468267], [6.12029, 46.468315], [6.120146, 46.468463], [6.119981, 46.468492], [6.119835, 46.468575], [6.119681, 46.468738], [6.119608, 46.468752], [6.119379, 46.468899], [6.11935, 46.468891], [6.119228, 46.469111], [6.119261, 46.469257], [6.119178, 46.469709], [6.119202, 46.469789], [6.119154, 46.469852], [6.119104, 46.469851], [6.119159, 46.469869], [6.119188, 46.470024], [6.119344, 46.470116], [6.119509, 46.470368], [6.119625, 46.470397], [6.119728, 46.470542], [6.119734, 46.470736], [6.119705, 46.470838], [6.119591, 46.470973], [6.11957, 46.47114], [6.119488, 46.471218], [6.119429, 46.47139], [6.119487, 46.471494], [6.119739, 46.47166], [6.119866, 46.471827], [6.119858, 46.471891], [6.119739, 46.471932], [6.11972, 46.471966], [6.119833, 46.47217], [6.120049, 46.472364], [6.120166, 46.472536], [6.120218, 46.472833], [6.120422, 46.473078], [6.120412, 46.473181], [6.120462, 46.473231], [6.120526, 46.473438], [6.120571, 46.473498], [6.120627, 46.47351], [6.120592, 46.473622], [6.120545, 46.473648], [6.120498, 46.473753], [6.120475, 46.473882], [6.120533, 46.474034], [6.120465, 46.474246], [6.120532, 46.474317], [6.120729, 46.474412], [6.120852, 46.474523], [6.120928, 46.474537], [6.120978, 46.474592], [6.120985, 46.47473], [6.120895, 46.474946], [6.120922, 46.475018], [6.120769, 46.475115], [6.120773, 46.475223], [6.120661, 46.475312], [6.120644, 46.47549], [6.120695, 46.475531], [6.120738, 46.47564], [6.120697, 46.475701], [6.120704, 46.475811], [6.120859, 46.476038], [6.121111, 46.47614], [6.121223, 46.476266], [6.121477, 46.476316], [6.121523, 46.476362], [6.121737, 46.476465], [6.121723, 46.476508], [6.121791, 46.476556], [6.121757, 46.476596], [6.121661, 46.476615], [6.12169, 46.476645], [6.121632, 46.476694], [6.121647, 46.47679], [6.121733, 46.476861], [6.121737, 46.47693], [6.121704, 46.476937], [6.121741, 46.476964], [6.121825, 46.476952], [6.121942, 46.477084], [6.122097, 46.477191], [6.122075, 46.477242], [6.122201, 46.477326], [6.122204, 46.477426], [6.122257, 46.477447], [6.12224, 46.477404], [6.122389, 46.477477], [6.122355, 46.477511], [6.122486, 46.477555], [6.12252, 46.477533], [6.122546, 46.477546], [6.122514, 46.477567], [6.122544, 46.477579], [6.122559, 46.477678], [6.122609, 46.477703], [6.122626, 46.477752], [6.122624, 46.47772], [6.122636, 46.477742], [6.122665, 46.477727], [6.122624, 46.477701], [6.122541, 46.477728], [6.122577, 46.477716], [6.123134, 46.477907], [6.12311, 46.477853], [6.122741, 46.477816], [6.122701, 46.477795], [6.122701, 46.477757], [6.122652, 46.477751], [6.122695, 46.477745], [6.122721, 46.477711], [6.122625, 46.477754], [6.122717, 46.477775], [6.12279, 46.477763], [6.122681, 46.477766], [6.122762, 46.477778], [6.122852, 46.477766], [6.12278, 46.47774], [6.122721, 46.477773], [6.122648, 46.477769], [6.122718, 46.477776], [6.122696, 46.477802], [6.122721, 46.477804], [6.122707, 46.477763], [6.122752, 46.477765], [6.122668, 46.477764], [6.122723, 46.477749], [6.122703, 46.477766], [6.122754, 46.47777], [6.122729, 46.477744], [6.122784, 46.477754], [6.122666, 46.477774], [6.122625, 46.477758], [6.122652, 46.477753], [6.122678, 46.477782], [6.122696, 46.477767], [6.122656, 46.477769], [6.12276, 46.477756], [6.122655, 46.47776], [6.122741, 46.477774], [6.122767, 46.47775], [6.122626, 46.477754], [6.122691, 46.477781], [6.122667, 46.477773], [6.122733, 46.477768], [6.122737, 46.477742], [6.122536, 46.47775], [6.122863, 46.477772], [6.122866, 46.477732], [6.12274, 46.477743], [6.122734, 46.477708], [6.122643, 46.477731], [6.122672, 46.477737], [6.122616, 46.477786], [6.122592, 46.477751], [6.122633, 46.477738], [6.122576, 46.477721], [6.122613, 46.477686], [6.12226, 46.477895], [6.122315, 46.477836], [6.122267, 46.477823], [6.122346, 46.477951], [6.12264, 46.477782], [6.122614, 46.477823], [6.122528, 46.477866], [6.12251, 46.477827], [6.122517, 46.477784], [6.1226, 46.477733], [6.122621, 46.477766], [6.122689, 46.477772], [6.122635, 46.477756], [6.122636, 46.477771], [6.122613, 46.477757], [6.122681, 46.477756], [6.122644, 46.477776], [6.122719, 46.477776], [6.12258, 46.477756], [6.122659, 46.477773], [6.122633, 46.477792], [6.122738, 46.47777], [6.122691, 46.477765], [6.122759, 46.477766], [6.122666, 46.477778], [6.122699, 46.47778], [6.122672, 46.477748], [6.122721, 46.47776], [6.122671, 46.477734], [6.122621, 46.477757], [6.122707, 46.477683], [6.122623, 46.477738], [6.122635, 46.477705], [6.122584, 46.477755], [6.122544, 46.477756], [6.122606, 46.47772], [6.122707, 46.477767]]}, "properties": {"name": "1789461487.Jura_solo_wanderlust_new_paths", "cmt": "2026-09-15", "tstamp": 1789430400, "desc": "UpHill", "src": "6.073008/46.427755/6.20447/46.481761", "bbox": "6.073008/46.427755/6.20447/46.481761"}}, {"type": "Feature", "bbox": [6.073008, 46.427755, 6.20447, 46.481761], "geometry": {"type": "LineString", "coordinates": [[6.122709, 46.477766], [6.122679, 46.477791], [6.122703, 46.47776], [6.122629, 46.477778], [6.122658, 46.477744], [6.12264, 46.477759], [6.122685, 46.477792], [6.122504, 46.477871], [6.122385, 46.478], [6.122213, 46.478043], [6.122208, 46.478266], [6.122125, 46.478415], [6.122109, 46.478532], [6.12217, 46.478655], [6.122395, 46.478893], [6.122516, 46.478987], [6.122728, 46.479085], [6.122898, 46.479244], [6.123014, 46.479313], [6.123084, 46.479413], [6.123082, 46.479455], [6.123035, 46.479508], [6.122773, 46.479541], [6.122633, 46.479586], [6.122468, 46.479688], [6.122388, 46.479816], [6.122391, 46.479944], [6.122489, 46.480089], [6.122555, 46.480098], [6.122629, 46.480145], [6.122842, 46.480173], [6.122944, 46.480215], [6.122952, 46.480364], [6.122852, 46.480595], [6.122938, 46.480754], [6.122969, 46.480751], [6.122935, 46.480754], [6.123023, 46.480787], [6.1231, 46.480917], [6.123946, 46.481312], [6.123932, 46.481333], [6.124103, 46.481438], [6.124231, 46.481557], [6.124299, 46.481575], [6.124302, 46.4816], [6.124362, 46.481578], [6.124383, 46.481615], [6.124206, 46.481588], [6.124134, 46.481614], [6.123993, 46.481593], [6.123885, 46.481516], [6.123675, 46.481483], [6.1233, 46.481505], [6.122971, 46.48145], [6.122825, 46.481402], [6.122501, 46.481397], [6.121944, 46.481188], [6.121835, 46.481181], [6.121601, 46.481273], [6.121656, 46.481307], [6.121598, 46.481344], [6.121522, 46.481466], [6.121452, 46.481479], [6.121336, 46.481577], [6.121292, 46.481652], [6.121319, 46.481688], [6.121228, 46.481761], [6.121235, 46.481704], [6.121197, 46.48171], [6.121178, 46.481632], [6.121106, 46.48156], [6.120992, 46.48149], [6.120754, 46.481408], [6.120651, 46.481397], [6.12068, 46.481418], [6.120604, 46.481441], [6.120368, 46.481474], [6.119849, 46.481459], [6.119803, 46.481435], [6.119753, 46.481445], [6.119318, 46.481372], [6.118996, 46.481248], [6.11881, 46.481226], [6.118551, 46.481254], [6.11844, 46.481235], [6.118388, 46.481264], [6.118284, 46.481272], [6.118075, 46.481175], [6.117588, 46.481125], [6.117394, 46.481039], [6.117263, 46.480907], [6.117034, 46.480865], [6.116843, 46.480772], [6.116694, 46.480618], [6.116584, 46.480434], [6.116311, 46.480117], [6.116279, 46.480104], [6.116236, 46.480145], [6.116248, 46.480165], [6.116189, 46.480163], [6.116206, 46.480138], [6.116284, 46.480121], [6.116266, 46.480028], [6.115993, 46.479798], [6.115806, 46.479572], [6.11561, 46.479449], [6.115364, 46.479024], [6.114808, 46.478526], [6.114704, 46.478489], [6.11457, 46.478385], [6.114469, 46.47825], [6.114297, 46.478123], [6.114138, 46.477942], [6.113769, 46.477815], [6.113667, 46.477829], [6.113498, 46.477742], [6.113381, 46.477598], [6.113379, 46.477498], [6.113323, 46.477377], [6.113212, 46.477291], [6.113086, 46.47728], [6.113048, 46.477245], [6.112852, 46.477246], [6.112629, 46.477173], [6.112291, 46.477102], [6.112075, 46.476924], [6.111822, 46.47685], [6.111848, 46.476854], [6.111823, 46.476812], [6.111787, 46.476821], [6.111672, 46.476746], [6.111686, 46.47673], [6.111581, 46.47665], [6.111061, 46.476073], [6.110934, 46.475993], [6.11041, 46.475435], [6.110302, 46.475387], [6.109197, 46.474573], [6.108526, 46.47415], [6.108429, 46.474057], [6.108252, 46.473964], [6.10819, 46.473845], [6.107948, 46.473701], [6.107933, 46.473648], [6.107902, 46.473634], [6.107882, 46.473653], [6.107783, 46.473595], [6.107716, 46.473586], [6.107646, 46.473527], [6.107411, 46.47345], [6.107309, 46.473389], [6.107212, 46.473371], [6.106921, 46.473244], [6.10688, 46.473201], [6.106714, 46.473267], [6.106658, 46.473323], [6.106514, 46.473394], [6.106108, 46.473405], [6.105997, 46.473378], [6.105791, 46.473431], [6.105571, 46.473424], [6.10542, 46.473452], [6.105312, 46.473432], [6.104985, 46.473324], [6.10446, 46.473203], [6.103863, 46.472898], [6.103549, 46.472799], [6.103185, 46.472719], [6.102128, 46.472586], [6.101801, 46.472583], [6.101658, 46.472528], [6.101327, 46.472469], [6.100748, 46.472219], [6.099666, 46.471908], [6.099203, 46.47172], [6.098654, 46.471667], [6.098335, 46.471592], [6.098231, 46.471537], [6.098179, 46.471539], [6.098178, 46.471585], [6.098136, 46.471521], [6.098116, 46.471542], [6.098106, 46.471524], [6.098144, 46.471532], [6.098126, 46.471549], [6.098065, 46.471541], [6.097916, 46.47146], [6.097705, 46.471448], [6.097689, 46.471423], [6.097194, 46.471327], [6.096844, 46.471197], [6.096671, 46.471176], [6.095979, 46.47096], [6.095512, 46.470892], [6.095137, 46.47079], [6.094885, 46.470771], [6.094787, 46.470712], [6.094643, 46.470709], [6.094433, 46.470665], [6.093977, 46.4705], [6.093489, 46.470361], [6.093268, 46.470227], [6.093241, 46.470185], [6.092937, 46.470092], [6.092824, 46.470027], [6.092635, 46.469964], [6.092134, 46.469711], [6.091505, 46.469514], [6.091377, 46.469509], [6.091068, 46.469421], [6.090425, 46.46915], [6.090017, 46.469032], [6.089934, 46.469035], [6.089441, 46.468808], [6.089117, 46.468713], [6.088744, 46.468538], [6.087415, 46.468069], [6.087158, 46.468014], [6.086982, 46.467941], [6.086592, 46.467885], [6.086481, 46.467825], [6.086443, 46.467776], [6.086391, 46.467792], [6.086045, 46.467694], [6.085435, 46.46742], [6.085236, 46.467356], [6.085136, 46.467292], [6.084917, 46.467221], [6.084709, 46.467106], [6.084696, 46.467077], [6.084507, 46.466997], [6.084284, 46.466841], [6.083764, 46.466585], [6.08362, 46.46647], [6.083286, 46.466285], [6.083274, 46.466227], [6.08313, 46.466183], [6.08301, 46.466071], [6.082754, 46.466025], [6.082722, 46.465985], [6.08259, 46.466049], [6.082392, 46.466066], [6.082096, 46.466018], [6.081982, 46.465967], [6.081787, 46.46593], [6.081574, 46.465927], [6.08125, 46.465971], [6.080904, 46.466069], [6.080565, 46.466122], [6.080439, 46.46612], [6.080273, 46.46604], [6.080195, 46.465952], [6.080016, 46.465884], [6.079955, 46.465831], [6.079665, 46.465724], [6.079656, 46.465742], [6.079539, 46.465705], [6.079343, 46.465497], [6.07932, 46.465439], [6.079175, 46.465381], [6.079088, 46.465302], [6.078906, 46.465296], [6.078901, 46.465244], [6.078825, 46.46523], [6.078578, 46.465093], [6.078375, 46.465071], [6.078299, 46.465037], [6.078115, 46.465036], [6.077953, 46.464979], [6.077875, 46.464979], [6.077674, 46.464888], [6.077539, 46.464956], [6.077415, 46.465091], [6.077346, 46.465121], [6.077379, 46.465107], [6.077578, 46.465224], [6.077657, 46.465299], [6.077831, 46.465352], [6.077833, 46.4654], [6.077816, 46.465412], [6.077802, 46.465393], [6.077769, 46.46542], [6.077797, 46.465447], [6.07772, 46.465459], [6.077586, 46.465528], [6.077553, 46.46568], [6.077663, 46.465747], [6.078053, 46.465791], [6.077541, 46.465686], [6.07713, 46.465482], [6.076981, 46.46536], [6.076971, 46.465303], [6.076596, 46.465079], [6.076349, 46.464814], [6.076141, 46.464657], [6.075537, 46.464494], [6.075144, 46.464417], [6.07497, 46.464351], [6.074783, 46.464066], [6.074767, 46.463829], [6.074714, 46.463685], [6.074636, 46.463608], [6.074481, 46.463565], [6.074271, 46.463526], [6.074163, 46.463542], [6.073998, 46.463845], [6.073761, 46.463981], [6.07348, 46.464082], [6.073367, 46.464173], [6.073251, 46.464349], [6.073194, 46.464379], [6.073198, 46.464357], [6.073271, 46.464338], [6.073371, 46.464398], [6.073454, 46.464402], [6.073469, 46.464432], [6.073449, 46.464644], [6.073389, 46.464772], [6.073415, 46.464899], [6.073318, 46.465093], [6.073296, 46.465266], [6.07328, 46.465238], [6.073385, 46.465224], [6.073433, 46.465169], [6.073401, 46.465123], [6.073253, 46.46506], [6.073162, 46.465048], [6.073008, 46.464967], [6.073022, 46.464996], [6.073174, 46.465054], [6.073368, 46.465068], [6.073406, 46.465143], [6.07349, 46.465176], [6.073459, 46.465209], [6.073494, 46.465207], [6.073479, 46.465254], [6.073472, 46.46523], [6.073521, 46.465233], [6.073489, 46.465265], [6.073438, 46.465245], [6.073317, 46.465272], [6.073331, 46.465204], [6.073267, 46.465221], [6.073223, 46.465289], [6.073287, 46.465157], [6.073091, 46.465375]]}, "properties": {"name": "1789461487.Jura_solo_wanderlust_new_paths", "cmt": "2026-09-15", "tstamp": 1789430400, "desc": "DownHill", "src": "6.073008/46.427755/6.20447/46.481761", "bbox": "6.073008/46.427755/6.20447/46.481761"}}, {"type": "Feature", "bbox": [6.073008, 46.427755, 6.20447, 46.481761], "geometry": {"type": "LineString", "coordinates": [[6.073172, 46.465255], [6.073083, 46.465377], [6.073033, 46.465563], [6.073065, 46.465608], [6.073238, 46.465529], [6.073299, 46.465553], [6.073493, 46.465178], [6.073523, 46.4652], [6.073555, 46.465126], [6.073594, 46.465106], [6.073576, 46.465097], [6.073627, 46.465084], [6.073639, 46.4651], [6.073644, 46.46508]]}, "properties": {"name": "1789461487.Jura_solo_wanderlust_new_paths", "cmt": "2026-09-15", "tstamp": 1789430400, "desc": "UpHill", "src": "6.073008/46.427755/6.20447/46.481761", "bbox": "6.073008/46.427755/6.20447/46.481761"}}]}