{"type": "FeatureCollection", "name": "TrackSet", "crs": {"type": "name", "properties": {"name": "urn:ogc:def:crs:OGC:1.3:CRS84"}}, "bbox": [6.185632, 46.331661, 6.202238, 46.350806], "features": [{"type": "Feature", "bbox": [6.185632, 46.331661, 6.202238, 46.350806], "geometry": {"type": "LineString", "coordinates": [[6.194096, 46.331812], [6.194045, 46.331833], [6.193788, 46.331803], [6.193618, 46.331813], [6.193001, 46.331925], [6.192915, 46.332007], [6.192874, 46.332107], [6.192583, 46.332293], [6.192602, 46.332423], [6.192586, 46.332464], [6.192513, 46.3325], [6.192466, 46.332626], [6.192496, 46.332684], [6.192755, 46.332911], [6.192701, 46.333214], [6.192921, 46.333459], [6.19312, 46.333619], [6.193251, 46.333672], [6.193278, 46.33371], [6.193454, 46.333806], [6.193508, 46.33387], [6.193622, 46.333937], [6.193863, 46.334018], [6.193987, 46.334139], [6.19428, 46.334255], [6.194424, 46.334354], [6.194467, 46.334475], [6.194612, 46.334602], [6.194668, 46.334735], [6.194816, 46.334831], [6.194858, 46.334962], [6.194923, 46.335028], [6.195044, 46.335086], [6.195116, 46.335216], [6.195218, 46.3353], [6.195226, 46.33538], [6.195125, 46.335555], [6.19498, 46.335654], [6.194795, 46.335879], [6.194759, 46.336047], [6.194835, 46.336203], [6.194813, 46.336371], [6.194909, 46.336527], [6.1949, 46.33657], [6.194967, 46.3367], [6.194929, 46.336778], [6.195233, 46.337496], [6.195223, 46.337607], [6.195265, 46.337735], [6.195236, 46.337975], [6.195347, 46.338397], [6.195526, 46.338616], [6.195498, 46.338647], [6.195596, 46.338811], [6.195705, 46.338902], [6.19607, 46.339475], [6.196368, 46.340059], [6.196426, 46.340248], [6.196654, 46.340669], [6.196976, 46.341095], [6.197455, 46.341478], [6.197474, 46.341538], [6.1971, 46.341696], [6.196864, 46.341852], [6.196731, 46.341896], [6.196464, 46.342056], [6.196031, 46.342232], [6.195597, 46.342455], [6.195285, 46.342572], [6.195018, 46.342745], [6.194564, 46.342915], [6.19408, 46.343171], [6.193677, 46.343331], [6.193522, 46.343444], [6.193328, 46.3435], [6.192985, 46.343691], [6.192652, 46.343814], [6.192594, 46.34387], [6.192164, 46.344061], [6.192047, 46.344156], [6.191824, 46.344209], [6.191732, 46.3443], [6.191583, 46.344333], [6.190891, 46.344682], [6.190634, 46.344768], [6.190415, 46.344894], [6.190132, 46.344993], [6.189606, 46.345266], [6.189345, 46.345355], [6.189163, 46.345461], [6.18903, 46.345495], [6.188693, 46.345697], [6.188219, 46.345901], [6.188049, 46.346004], [6.186873, 46.346539], [6.186729, 46.346585], [6.186696, 46.346643], [6.186564, 46.346686], [6.186487, 46.346754], [6.186467, 46.346884], [6.186903, 46.347368], [6.186938, 46.347498], [6.186862, 46.347585], [6.186612, 46.347689], [6.186519, 46.347769], [6.186211, 46.347899], [6.186093, 46.347919], [6.186056, 46.347994], [6.185821, 46.348101], [6.185653, 46.348217], [6.185632, 46.348302], [6.185767, 46.34852], [6.185823, 46.348534], [6.185915, 46.348655], [6.186114, 46.348767], [6.186177, 46.348835], [6.18629, 46.348885], [6.186623, 46.349126], [6.186915, 46.34925], [6.187719, 46.349507], [6.187812, 46.349563], [6.188208, 46.349701], [6.188634, 46.349762], [6.188747, 46.349756], [6.188996, 46.34966], [6.189139, 46.349588], [6.189451, 46.349368], [6.189571, 46.349351], [6.189665, 46.349257], [6.189828, 46.349195], [6.190044, 46.349055], [6.190163, 46.349021], [6.190341, 46.349054], [6.190534, 46.348981], [6.190593, 46.349008], [6.190623, 46.348974], [6.190753, 46.348968], [6.190974, 46.349065], [6.19107, 46.349142], [6.191222, 46.349177], [6.191352, 46.34925], [6.191662, 46.349695], [6.19177, 46.349765], [6.191949, 46.349779], [6.192279, 46.349645], [6.19263, 46.349568], [6.192743, 46.349567], [6.192835, 46.349594], [6.193008, 46.349968], [6.193326, 46.350339], [6.193598, 46.350509], [6.193862, 46.350524], [6.194051, 46.350583], [6.194281, 46.350806], [6.194431, 46.350793], [6.19464, 46.350684], [6.194701, 46.350629], [6.194607, 46.3506], [6.194604, 46.350654], [6.194576, 46.350656], [6.194611, 46.350672], [6.194544, 46.350691], [6.194534, 46.350732], [6.194711, 46.350593], [6.195196, 46.35052], [6.19527, 46.350516], [6.195294, 46.350535], [6.195389, 46.350436], [6.195611, 46.350304], [6.196043, 46.350282], [6.196107, 46.350243], [6.19634, 46.350199], [6.1964, 46.350159], [6.196649, 46.350086], [6.196712, 46.350031], [6.197051, 46.349935], [6.197219, 46.349862], [6.197449, 46.349815], [6.197634, 46.349686], [6.197697, 46.349688], [6.197791, 46.34959], [6.198057, 46.34948], [6.198357, 46.349202], [6.198825, 46.348961], [6.198994, 46.348848], [6.199318, 46.348743], [6.199483, 46.348608], [6.199647, 46.348548], [6.199789, 46.348443], [6.19994, 46.348387], [6.200009, 46.348285], [6.20001, 46.348151], [6.200121, 46.348121], [6.200392, 46.34798], [6.20051, 46.348023], [6.200463, 46.347937], [6.200412, 46.34793], [6.200324, 46.347863], [6.200304, 46.347801], [6.200357, 46.347753], [6.200071, 46.347276], [6.199958, 46.346948], [6.199942, 46.346875], [6.199975, 46.346728], [6.199851, 46.346283], [6.199856, 46.346133], [6.199745, 46.34532], [6.199839, 46.345117], [6.200448, 46.344653], [6.200712, 46.344387], [6.200765, 46.344266], [6.200606, 46.343791], [6.200348, 46.34349], [6.200063, 46.342983], [6.200137, 46.342969], [6.200115, 46.342982], [6.200048, 46.342799], [6.200245, 46.342691], [6.200351, 46.34268], [6.200378, 46.342657], [6.200439, 46.342668], [6.200523, 46.342612], [6.20054, 46.34256], [6.200616, 46.3425], [6.200612, 46.342423], [6.200656, 46.34237], [6.200976, 46.342179], [6.201163, 46.342171], [6.20133, 46.342059], [6.201485, 46.342054], [6.201613, 46.341951], [6.201811, 46.341914], [6.201894, 46.34193], [6.20197, 46.341894], [6.202051, 46.341891], [6.202238, 46.341742], [6.202138, 46.34156], [6.202078, 46.341528], [6.201979, 46.341136], [6.201987, 46.340978], [6.201887, 46.340821], [6.201908, 46.340702], [6.201797, 46.340603], [6.201826, 46.340556], [6.201807, 46.340576], [6.201783, 46.340565], [6.201846, 46.340474], [6.201709, 46.340295], [6.201654, 46.340108], [6.201395, 46.339814], [6.201329, 46.339667], [6.201192, 46.339574], [6.200765, 46.339169], [6.200714, 46.339076], [6.200622, 46.339004], [6.200535, 46.338866], [6.200374, 46.338699], [6.200167, 46.338558], [6.199754, 46.338172], [6.199602, 46.338083], [6.199425, 46.337863], [6.199255, 46.337782], [6.19906, 46.337574], [6.198869, 46.33745], [6.198729, 46.337316], [6.198498, 46.336959], [6.19825, 46.336707], [6.198241, 46.336614], [6.1982, 46.336557], [6.197903, 46.336365], [6.197581, 46.336204], [6.197508, 46.336089], [6.197319, 46.336021], [6.197125, 46.335904], [6.197007, 46.335884], [6.196993, 46.335774], [6.196614, 46.33561], [6.196442, 46.335491], [6.196312, 46.335447], [6.19624, 46.335373], [6.196031, 46.335277], [6.19592, 46.335158], [6.195712, 46.335095], [6.195053, 46.3347], [6.194748, 46.33456], [6.194715, 46.334504], [6.194565, 46.334458], [6.194429, 46.334318], [6.194281, 46.334242], [6.194039, 46.334034], [6.193862, 46.333993], [6.193414, 46.333797], [6.193242, 46.333659], [6.193027, 46.333552], [6.192973, 46.333445], [6.192902, 46.333389], [6.192823, 46.333182], [6.192771, 46.333137], [6.192752, 46.332847], [6.192585, 46.332474], [6.192635, 46.332419], [6.19263, 46.33228], [6.192661, 46.332241], [6.192791, 46.332181], [6.193007, 46.332142], [6.193025, 46.331932], [6.193487, 46.331877], [6.193752, 46.331811], [6.19401, 46.331861], [6.194197, 46.331861], [6.194317, 46.331804], [6.194301, 46.331736], [6.194312, 46.331769], [6.194346, 46.331739], [6.194279, 46.331787], [6.19425, 46.331707], [6.194306, 46.331684], [6.19434, 46.331694], [6.194258, 46.331661], [6.19419, 46.331675], [6.194206, 46.331661], [6.194219, 46.331732], [6.194128, 46.331709], [6.194154, 46.331746], [6.194102, 46.331726]]}, "properties": {"name": "1789394830.Founex_local_walk", "cmt": "2026-09-14", "tstamp": 1789344000, "desc": "---", "src": "6.185632/46.331661/6.202238/46.350806", "bbox": "6.185632/46.331661/6.202238/46.350806"}}]}