{"type": "FeatureCollection", "name": "TrackSet", "crs": {"type": "name", "properties": {"name": "urn:ogc:def:crs:OGC:1.3:CRS84"}}, "bbox": [7.212074, 46.073606, 7.233833, 46.096358], "features": [{"type": "Feature", "bbox": [7.212074, 46.073606, 7.233833, 46.096358], "geometry": {"type": "LineString", "coordinates": [[7.212074, 46.079849], [7.212096, 46.079901], [7.212166, 46.079929], [7.212198, 46.079999], [7.212309, 46.080045], [7.212363, 46.080027], [7.212364, 46.080103], [7.21242, 46.080128], [7.212411, 46.080145], [7.212434, 46.08014], [7.212528, 46.080243], [7.212629, 46.080219], [7.212745, 46.080086], [7.212897, 46.080048], [7.212997, 46.07994], [7.213118, 46.079892], [7.213143, 46.079795], [7.213259, 46.079683], [7.213294, 46.07958], [7.213344, 46.079284], [7.213321, 46.079238], [7.213361, 46.079138], [7.213344, 46.078934], [7.213388, 46.078807], [7.213446, 46.078706], [7.213527, 46.078691], [7.213554, 46.078565], [7.213651, 46.078455], [7.213657, 46.0784], [7.213773, 46.078454], [7.214118, 46.078549], [7.214217, 46.078397], [7.214304, 46.078401], [7.214458, 46.078355], [7.214552, 46.078294], [7.214605, 46.078215], [7.214735, 46.078163], [7.215005, 46.077942], [7.215154, 46.077904], [7.215693, 46.077669], [7.215946, 46.077599], [7.216099, 46.077619], [7.216299, 46.077582], [7.216447, 46.077584], [7.216666, 46.07751], [7.216947, 46.07751], [7.217013, 46.077466], [7.21703, 46.07749], [7.217059, 46.077427], [7.217181, 46.077398], [7.217348, 46.077395], [7.217542, 46.077335], [7.217745, 46.077355], [7.217884, 46.077279], [7.218558, 46.07722], [7.21868, 46.077171], [7.218766, 46.077169], [7.218966, 46.077077], [7.219055, 46.077072], [7.219216, 46.076981], [7.219325, 46.07699], [7.219523, 46.076817], [7.219642, 46.076796], [7.219717, 46.076753], [7.21995, 46.076406], [7.22016, 46.076252], [7.220412, 46.076173], [7.220456, 46.076084], [7.220713, 46.076064], [7.220828, 46.076011], [7.220852, 46.075974], [7.220999, 46.075934], [7.221033, 46.075904], [7.22117, 46.075898], [7.221272, 46.07583], [7.221296, 46.075778], [7.221384, 46.075761], [7.221459, 46.075712], [7.221462, 46.075681], [7.221672, 46.075614], [7.221728, 46.075609], [7.22204, 46.075708], [7.222586, 46.075957], [7.222791, 46.075893], [7.2229, 46.07584], [7.223093, 46.075613], [7.223341, 46.075237], [7.22353, 46.075145], [7.223556, 46.075077], [7.223615, 46.07508], [7.223762, 46.074994], [7.223827, 46.074987], [7.224039, 46.074837], [7.224056, 46.074666], [7.224181, 46.074369], [7.224068, 46.074553], [7.224023, 46.074745], [7.224005, 46.074679], [7.224067, 46.074604], [7.224055, 46.074521], [7.22416, 46.074268], [7.224219, 46.07422], [7.224394, 46.074225], [7.2247, 46.07429], [7.225206, 46.074298], [7.22523, 46.074274], [7.225279, 46.074288], [7.225352, 46.074259], [7.225765, 46.074269], [7.226055, 46.074315], [7.226404, 46.074292], [7.226642, 46.074341], [7.226733, 46.074337], [7.226849, 46.074376], [7.226854, 46.074357], [7.22693, 46.074343], [7.227274, 46.074342], [7.227336, 46.074302], [7.227331, 46.074222], [7.227423, 46.074057], [7.227495, 46.073993], [7.227659, 46.073922], [7.227732, 46.073794], [7.227751, 46.073673], [7.22781, 46.073621], [7.227845, 46.073632], [7.227828, 46.073611], [7.227852, 46.073606], [7.227666, 46.073956], [7.227569, 46.073993], [7.227401, 46.074253], [7.227426, 46.074364], [7.227355, 46.074581], [7.227217, 46.074651], [7.226969, 46.074859], [7.226684, 46.075], [7.226518, 46.075138], [7.226436, 46.075154], [7.226334, 46.075223], [7.226, 46.075658], [7.225961, 46.075764], [7.225788, 46.075925], [7.225746, 46.076034], [7.225776, 46.076064], [7.226099, 46.075948], [7.226182, 46.075846], [7.226305, 46.075802], [7.226361, 46.075747], [7.226641, 46.075656], [7.226701, 46.075587], [7.226797, 46.075551], [7.226888, 46.075459], [7.227003, 46.075395], [7.227064, 46.075373], [7.227137, 46.075387], [7.227234, 46.075295], [7.22728, 46.075165], [7.227497, 46.075032], [7.227602, 46.074938], [7.227649, 46.074845], [7.227808, 46.074773], [7.227822, 46.074729], [7.22787, 46.074715], [7.227877, 46.074654], [7.227961, 46.074662], [7.22802, 46.07463], [7.228098, 46.074628], [7.22822, 46.074536], [7.228349, 46.074527], [7.228416, 46.074476], [7.228492, 46.07449], [7.228549, 46.074465], [7.228665, 46.074474], [7.228824, 46.07442], [7.228878, 46.074442], [7.229055, 46.074443], [7.229151, 46.074389], [7.229219, 46.074452], [7.229276, 46.074436], [7.229332, 46.074463], [7.229383, 46.074444], [7.229527, 46.074477], [7.229581, 46.074534], [7.22964, 46.074533], [7.229705, 46.074568], [7.229718, 46.07462], [7.229835, 46.074659], [7.229845, 46.074695], [7.230047, 46.074762], [7.230115, 46.074819], [7.230172, 46.074807], [7.23057, 46.074928], [7.230571, 46.07497], [7.230544, 46.074956], [7.230563, 46.074969], [7.23048, 46.074989], [7.230444, 46.074966], [7.230338, 46.075069], [7.230175, 46.075125], [7.229975, 46.07529], [7.229875, 46.075324], [7.229778, 46.075419], [7.229756, 46.075506], [7.229589, 46.075659], [7.229555, 46.07578], [7.229427, 46.075919], [7.22944, 46.076012], [7.229311, 46.076101], [7.229286, 46.076146], [7.229307, 46.076184], [7.229181, 46.076246], [7.229186, 46.076291], [7.229106, 46.076352], [7.229121, 46.0764], [7.229075, 46.076478], [7.22904, 46.076487], [7.229035, 46.076561], [7.228961, 46.076578], [7.228998, 46.076646], [7.228971, 46.076702], [7.228895, 46.076712], [7.2289, 46.076761], [7.228803, 46.076833], [7.228761, 46.076832], [7.228741, 46.07689], [7.228711, 46.076887], [7.228719, 46.076948], [7.228611, 46.077008], [7.228581, 46.077077], [7.228601, 46.077124], [7.228544, 46.077221], [7.228521, 46.077213], [7.228536, 46.077233], [7.228332, 46.077371], [7.22832, 46.077416], [7.228238, 46.077482], [7.228232, 46.077545], [7.22817, 46.077575], [7.228186, 46.077596], [7.22811, 46.077645], [7.228082, 46.077718], [7.227984, 46.07775], [7.227965, 46.07778], [7.227989, 46.077815], [7.227909, 46.077871], [7.22788, 46.077941], [7.227627, 46.078091], [7.227571, 46.078171], [7.227499, 46.078174], [7.227406, 46.078262], [7.227327, 46.078286], [7.227304, 46.078352], [7.227155, 46.078405], [7.22713, 46.078474], [7.227024, 46.078494], [7.226987, 46.078542], [7.226815, 46.078621], [7.22673, 46.078685], [7.226566, 46.078889], [7.226286, 46.079114], [7.22613, 46.079186], [7.225991, 46.07929], [7.225994, 46.079357], [7.225901, 46.079448], [7.225901, 46.079544], [7.225757, 46.079635], [7.225678, 46.079751], [7.225602, 46.079806], [7.225344, 46.080235], [7.225264, 46.080318], [7.225152, 46.080375], [7.225036, 46.080517], [7.224982, 46.080668], [7.224927, 46.080691], [7.224922, 46.080823], [7.224772, 46.081021], [7.224785, 46.081129], [7.224735, 46.08121], [7.224684, 46.081223], [7.224652, 46.081272], [7.224683, 46.081317], [7.224642, 46.081411], [7.224659, 46.081446], [7.224753, 46.081423], [7.2248, 46.08136], [7.224845, 46.081332], [7.22487, 46.081341], [7.224878, 46.081303], [7.224925, 46.081299], [7.224958, 46.081193], [7.225078, 46.081147], [7.225172, 46.081067], [7.225132, 46.08105], [7.225173, 46.081045], [7.225184, 46.081014], [7.225416, 46.080884], [7.225455, 46.080821], [7.225502, 46.080812], [7.225543, 46.080859], [7.22557, 46.080853], [7.225546, 46.080843], [7.225508, 46.080917], [7.225393, 46.080951], [7.225263, 46.081055], [7.225286, 46.081091], [7.22524, 46.08126], [7.225056, 46.08157], [7.225019, 46.081801], [7.224959, 46.081897], [7.224943, 46.082035], [7.224972, 46.082245], [7.224882, 46.082326], [7.224861, 46.082551], [7.224807, 46.082602], [7.224605, 46.082703], [7.224351, 46.082901], [7.224189, 46.083034], [7.224049, 46.083202], [7.223772, 46.083329], [7.22376, 46.083352], [7.223812, 46.083341], [7.223839, 46.083369], [7.223818, 46.083358], [7.223804, 46.08339], [7.223832, 46.083394], [7.223791, 46.083436], [7.223733, 46.083434], [7.223628, 46.083487], [7.223493, 46.083431], [7.223385, 46.083436], [7.223313, 46.083404], [7.223202, 46.083417], [7.223192, 46.083431], [7.223296, 46.083485], [7.223296, 46.083548], [7.223437, 46.083646], [7.223433, 46.083626], [7.22332, 46.083637], [7.223234, 46.083594], [7.223205, 46.083604], [7.22319, 46.083642], [7.223257, 46.083699], [7.223159, 46.083702], [7.223142, 46.08378], [7.223208, 46.083781], [7.223219, 46.083762], [7.223408, 46.083928], [7.223535, 46.083954], [7.223525, 46.084002], [7.223662, 46.083996], [7.223774, 46.084039], [7.223836, 46.084038], [7.22389, 46.084075], [7.223865, 46.084084], [7.223809, 46.084049], [7.223795, 46.084102], [7.223713, 46.084067], [7.223509, 46.0841], [7.22336, 46.084076], [7.223195, 46.084088], [7.223109, 46.084147], [7.223209, 46.084206], [7.223196, 46.084191], [7.223185, 46.084249], [7.223085, 46.084367], [7.223143, 46.084396], [7.223279, 46.084405], [7.223482, 46.084374], [7.223491, 46.084335], [7.223528, 46.084352], [7.223367, 46.084414], [7.223313, 46.084471], [7.223302, 46.084556], [7.223274, 46.08456], [7.223296, 46.084649], [7.223379, 46.084598], [7.223437, 46.084591], [7.223505, 46.084524], [7.223599, 46.084512], [7.223643, 46.084532], [7.223805, 46.084519], [7.223926, 46.084598], [7.224103, 46.084531], [7.224196, 46.08454], [7.224209, 46.084504], [7.224273, 46.084593], [7.224255, 46.084641], [7.224142, 46.084642], [7.223981, 46.084708], [7.223957, 46.08474], [7.224041, 46.084794], [7.224015, 46.084811], [7.224053, 46.084834], [7.224041, 46.084863], [7.224161, 46.085], [7.224095, 46.085169], [7.224108, 46.085223], [7.224444, 46.08543], [7.22445, 46.085462], [7.224344, 46.085527], [7.22435, 46.085587], [7.224504, 46.08591], [7.224376, 46.0862], [7.224161, 46.086493], [7.224215, 46.086713], [7.224152, 46.087002], [7.224197, 46.087121], [7.22458, 46.087425], [7.22467, 46.087766], [7.224695, 46.08807], [7.224817, 46.088378], [7.224866, 46.088413], [7.224894, 46.088489], [7.224911, 46.088606], [7.224885, 46.08866], [7.225104, 46.088667], [7.225095, 46.08869], [7.225065, 46.088681], [7.225087, 46.0887], [7.225176, 46.088659], [7.225158, 46.088731], [7.22522, 46.088791], [7.225189, 46.088878], [7.225298, 46.089024], [7.225365, 46.088996], [7.225388, 46.089036], [7.225459, 46.089054], [7.225499, 46.089275], [7.225601, 46.089409], [7.225635, 46.089564], [7.225641, 46.089691], [7.225589, 46.089799], [7.225191, 46.090109], [7.225183, 46.090187], [7.22514, 46.090218], [7.225149, 46.090273], [7.225106, 46.090314], [7.225146, 46.090392], [7.225285, 46.09049], [7.225404, 46.090506], [7.225628, 46.090595], [7.225687, 46.090586], [7.225716, 46.090442], [7.225653, 46.090211], [7.225818, 46.090127], [7.225852, 46.090179], [7.225854, 46.090296], [7.225912, 46.090395], [7.226012, 46.090498], [7.226054, 46.090497], [7.225964, 46.090326], [7.225981, 46.090175], [7.226073, 46.090095], [7.22621, 46.090066], [7.226257, 46.089982], [7.226361, 46.089889], [7.226367, 46.089847], [7.226411, 46.089835], [7.226482, 46.08976], [7.226513, 46.089757], [7.226486, 46.089781], [7.226501, 46.089747], [7.226593, 46.089775], [7.226545, 46.089784], [7.226637, 46.089666], [7.226713, 46.089683], [7.226888, 46.089814], [7.227049, 46.089837], [7.22711, 46.089873], [7.227343, 46.089931], [7.227405, 46.090021], [7.227651, 46.090171], [7.227706, 46.090303], [7.2278, 46.090369], [7.227832, 46.090444], [7.22789, 46.090485], [7.227904, 46.09056], [7.22805, 46.090648], [7.228063, 46.090859], [7.228142, 46.090947], [7.228147, 46.091001], [7.22841, 46.091165], [7.228638, 46.091419], [7.228779, 46.091519], [7.228797, 46.091645], [7.228898, 46.091811], [7.228912, 46.091992], [7.228943, 46.092039], [7.229086, 46.092122], [7.229208, 46.092146], [7.229274, 46.092126], [7.229307, 46.092065], [7.229385, 46.092032], [7.229448, 46.092035], [7.229439, 46.091983], [7.229503, 46.092046], [7.229414, 46.092085], [7.229436, 46.092138], [7.229385, 46.092198], [7.229321, 46.092206], [7.2294, 46.092398], [7.229332, 46.092471], [7.229321, 46.092717], [7.229354, 46.092836], [7.2293, 46.092912], [7.229308, 46.092993], [7.229268, 46.093036], [7.229268, 46.093102], [7.229099, 46.093333], [7.229088, 46.093442], [7.229015, 46.093547], [7.22897, 46.093558], [7.228822, 46.093697], [7.228827, 46.093875], [7.228811, 46.09393], [7.228797, 46.093918], [7.228803, 46.093938], [7.228765, 46.093947], [7.228736, 46.094074], [7.228821, 46.094114], [7.228845, 46.094208], [7.228951, 46.094221], [7.228998, 46.094288], [7.229196, 46.094347], [7.229341, 46.094364], [7.229461, 46.094415], [7.229607, 46.094372], [7.229701, 46.094374], [7.229909, 46.09427], [7.230117, 46.094271], [7.230208, 46.09424], [7.230454, 46.09426], [7.230551, 46.094363], [7.230645, 46.094345], [7.230985, 46.094724], [7.231041, 46.094851], [7.231113, 46.0949], [7.231096, 46.094928], [7.23113, 46.094962], [7.231081, 46.094947], [7.230963, 46.09504], [7.230991, 46.095084], [7.230762, 46.095187], [7.230656, 46.095277], [7.230632, 46.095262], [7.230553, 46.095283], [7.230438, 46.095381], [7.230031, 46.095565], [7.22964, 46.095785], [7.22964, 46.095806], [7.229476, 46.095789], [7.229412, 46.095807], [7.229264, 46.095871], [7.229194, 46.095953], [7.229155, 46.095944], [7.229038, 46.095982], [7.228683, 46.095995], [7.228526, 46.095954], [7.228443, 46.096088], [7.228443, 46.096114], [7.228474, 46.096105], [7.22845, 46.096131], [7.228401, 46.096078], [7.22803, 46.096108], [7.228017, 46.096139], [7.2281, 46.096191], [7.22811, 46.096285], [7.228071, 46.09628], [7.228071, 46.096329], [7.228128, 46.096342], [7.228244, 46.096324], [7.228359, 46.096358], [7.22856, 46.096237], [7.22869, 46.096237], [7.22886, 46.096198], [7.229049, 46.096219], [7.229203, 46.096157], [7.229304, 46.096068], [7.229346, 46.095938], [7.229401, 46.095901], [7.229469, 46.095899], [7.22962, 46.095832], [7.229744, 46.09581], [7.229922, 46.095635], [7.230073, 46.095545], [7.230311, 46.095488], [7.230483, 46.095361], [7.230631, 46.095297], [7.23073, 46.095303], [7.230818, 46.095197], [7.231012, 46.095109], [7.231105, 46.094962], [7.231257, 46.094877], [7.231364, 46.094718], [7.231458, 46.094631], [7.231581, 46.094593], [7.231594, 46.094553], [7.231789, 46.094386], [7.23195, 46.094308], [7.232047, 46.094289], [7.232668, 46.093974], [7.232681, 46.093925], [7.232768, 46.093868], [7.232826, 46.093786], [7.232963, 46.093705], [7.233068, 46.093573], [7.233071, 46.093496], [7.233145, 46.093386], [7.233169, 46.093111], [7.23327, 46.092972], [7.233248, 46.092891], [7.23327, 46.092803], [7.233351, 46.092716], [7.233394, 46.092588], [7.233333, 46.092518], [7.233318, 46.09239], [7.233344, 46.092345], [7.233459, 46.092363], [7.233531, 46.092308], [7.233598, 46.09233], [7.233651, 46.09232], [7.233695, 46.092356], [7.233705, 46.092333], [7.233733, 46.092343], [7.233775, 46.092318], [7.233748, 46.092335], [7.233773, 46.092353], [7.233747, 46.092276], [7.233782, 46.092354], [7.233821, 46.092322], [7.233793, 46.092361], [7.233739, 46.092339], [7.233764, 46.092355], [7.233795, 46.092322], [7.233807, 46.092336], [7.233815, 46.09227]]}, "properties": {"name": "1789987400.Le_Chable_Verbier_via_the_Church", "cmt": "2026-09-21", "tstamp": 1789948800, "desc": "UpHill", "src": "7.212074/46.073606/7.233833/46.096358", "bbox": "7.212074/46.073606/7.233833/46.096358"}}, {"type": "Feature", "bbox": [7.212074, 46.073606, 7.233833, 46.096358], "geometry": {"type": "LineString", "coordinates": [[7.233819, 46.092288], [7.233805, 46.092308], [7.233774, 46.092285], [7.233757, 46.092354], [7.233785, 46.092353], [7.233721, 46.092299], [7.233679, 46.092298], [7.233703, 46.092295], [7.233719, 46.092344], [7.233738, 46.092322], [7.233662, 46.092294], [7.233773, 46.09239], [7.233755, 46.092347], [7.23367, 46.092346], [7.233713, 46.092317], [7.23372, 46.092335], [7.233684, 46.092333], [7.2337, 46.09236], [7.233757, 46.092383], [7.233701, 46.09235], [7.23373, 46.092349], [7.233693, 46.092331], [7.233727, 46.092324], [7.233682, 46.09229], [7.233707, 46.092289], [7.23373, 46.092356], [7.233687, 46.092349], [7.233602, 46.09239], [7.233833, 46.092328], [7.233735, 46.092342], [7.233596, 46.092215], [7.233655, 46.092277], [7.233626, 46.092332], [7.233647, 46.092381], [7.233716, 46.092387], [7.233683, 46.092406], [7.233697, 46.092429], [7.233636, 46.092439], [7.233625, 46.09241], [7.233696, 46.092467], [7.233675, 46.092411], [7.233696, 46.092455], [7.233579, 46.092473], [7.233556, 46.092539], [7.23348, 46.09256]]}, "properties": {"name": "1789987400.Le_Chable_Verbier_via_the_Church", "cmt": "2026-09-21", "tstamp": 1789948800, "desc": "DownHill", "src": "7.212074/46.073606/7.233833/46.096358", "bbox": "7.212074/46.073606/7.233833/46.096358"}}]}