{"type": "FeatureCollection", "name": "TrackSet", "crs": {"type": "name", "properties": {"name": "urn:ogc:def:crs:OGC:1.3:CRS84"}}, "bbox": [6.185628, 46.329077, 6.202242, 46.350814], "features": [{"type": "Feature", "bbox": [6.185628, 46.329077, 6.202242, 46.350814], "geometry": {"type": "LineString", "coordinates": [[6.192622, 46.332589], [6.192599, 46.332651], [6.192754, 46.332807], [6.192756, 46.332859], [6.192704, 46.332869], [6.192746, 46.33291], [6.192714, 46.333027], [6.192771, 46.333156], [6.192672, 46.333177], [6.192697, 46.333186], [6.192686, 46.33316], [6.1927, 46.333192], [6.192712, 46.333169], [6.192659, 46.333192], [6.192692, 46.333171], [6.192719, 46.3333], [6.192848, 46.333313], [6.192983, 46.333504], [6.19318, 46.333641], [6.193282, 46.333765], [6.19389, 46.334039], [6.194287, 46.33435], [6.194384, 46.334357], [6.194443, 46.334494], [6.194568, 46.334581], [6.194612, 46.334687], [6.194847, 46.334876], [6.195022, 46.335118], [6.195015, 46.335153], [6.195281, 46.335325], [6.194881, 46.335818], [6.194787, 46.336109], [6.194794, 46.336315], [6.194914, 46.336677], [6.194902, 46.336722], [6.195154, 46.337277], [6.195244, 46.337548], [6.19524, 46.337814], [6.195211, 46.337886], [6.195277, 46.338235], [6.195568, 46.338808], [6.195734, 46.33891], [6.195744, 46.338984], [6.195855, 46.339133], [6.195845, 46.339174], [6.195879, 46.339168], [6.195917, 46.33921], [6.196093, 46.33955], [6.196133, 46.339562], [6.196177, 46.339666], [6.196343, 46.339849], [6.196303, 46.339833], [6.196298, 46.339922], [6.196582, 46.340491], [6.196875, 46.340911], [6.196882, 46.340966], [6.19723, 46.34131], [6.197432, 46.34145], [6.197494, 46.341549], [6.197434, 46.341597], [6.197373, 46.341596], [6.196826, 46.341876], [6.196642, 46.341942], [6.196437, 46.342073], [6.196049, 46.342238], [6.195925, 46.342366], [6.195663, 46.342446], [6.195574, 46.342506], [6.195518, 46.34251], [6.19518, 46.342665], [6.195026, 46.342696], [6.194902, 46.342795], [6.194748, 46.34284], [6.194653, 46.342903], [6.194585, 46.342907], [6.194431, 46.343], [6.194067, 46.343145], [6.193934, 46.343231], [6.193555, 46.343396], [6.192931, 46.343724], [6.192448, 46.343919], [6.192386, 46.343973], [6.192032, 46.344153], [6.191741, 46.344258], [6.19153, 46.34438], [6.191225, 46.344504], [6.191131, 46.344575], [6.190785, 46.344702], [6.190674, 46.344778], [6.19058, 46.344804], [6.190232, 46.344984], [6.189926, 46.345096], [6.189824, 46.345172], [6.189332, 46.34537], [6.189031, 46.34554], [6.188884, 46.345584], [6.188507, 46.345785], [6.188147, 46.345934], [6.187653, 46.346208], [6.187341, 46.346315], [6.187036, 46.346518], [6.186811, 46.34658], [6.186569, 46.346689], [6.186455, 46.346773], [6.18646, 46.346866], [6.186908, 46.347306], [6.186947, 46.347418], [6.186926, 46.347511], [6.186855, 46.347584], [6.186546, 46.347724], [6.186214, 46.347934], [6.185904, 46.348082], [6.185643, 46.348247], [6.185628, 46.348284], [6.185751, 46.348402], [6.185869, 46.348585], [6.186344, 46.348939], [6.186561, 46.349063], [6.187132, 46.34933], [6.187559, 46.349463], [6.187648, 46.349461], [6.18803, 46.349636], [6.188207, 46.349673], [6.188349, 46.349735], [6.188678, 46.349752], [6.188887, 46.34972], [6.189125, 46.349573], [6.189277, 46.349513], [6.189778, 46.349203], [6.19012, 46.349034], [6.190211, 46.349007], [6.190337, 46.349033], [6.190546, 46.349027], [6.190608, 46.348979], [6.190735, 46.349027], [6.19077, 46.349004], [6.190859, 46.349061], [6.190942, 46.349044], [6.190888, 46.349077], [6.190889, 46.34904], [6.190967, 46.349115], [6.191194, 46.349173], [6.191372, 46.349262], [6.191664, 46.349689], [6.191755, 46.349755], [6.191992, 46.349737], [6.192125, 46.34968], [6.192459, 46.349607], [6.192795, 46.349575], [6.192877, 46.349651], [6.192957, 46.349912], [6.193201, 46.3502], [6.193472, 46.350461], [6.193783, 46.350556], [6.194046, 46.350571], [6.194241, 46.350792], [6.194366, 46.350814], [6.194501, 46.350789], [6.194792, 46.350572], [6.195089, 46.350549], [6.195221, 46.350484], [6.195365, 46.350482], [6.195683, 46.350336], [6.195753, 46.350337], [6.196007, 46.350269], [6.19621, 46.350252], [6.196474, 46.350169], [6.196546, 46.350107], [6.196635, 46.350093], [6.196728, 46.350033], [6.197659, 46.349731], [6.197724, 46.349692], [6.197771, 46.349608], [6.19803, 46.34952], [6.198257, 46.349288], [6.198559, 46.349107], [6.198627, 46.349038], [6.19891, 46.348893], [6.19933, 46.348743], [6.199498, 46.348605], [6.199929, 46.348386], [6.19998, 46.348319], [6.199983, 46.34817], [6.200388, 46.347972], [6.200303, 46.347824], [6.200358, 46.347746], [6.200052, 46.347208], [6.199976, 46.347012], [6.199933, 46.346799], [6.199955, 46.346683], [6.199839, 46.346167], [6.199824, 46.345738], [6.199737, 46.345612], [6.199697, 46.345313], [6.199713, 46.345207], [6.199815, 46.345083], [6.200644, 46.344473], [6.200735, 46.344392], [6.200756, 46.344333], [6.200551, 46.343748], [6.200201, 46.343342], [6.200164, 46.343171], [6.200069, 46.342974], [6.200067, 46.342819], [6.200112, 46.342754], [6.200411, 46.342664], [6.200562, 46.342573], [6.200732, 46.342382], [6.200955, 46.34219], [6.201712, 46.341962], [6.20192, 46.341851], [6.202018, 46.341857], [6.202207, 46.341788], [6.202242, 46.341722], [6.202145, 46.3416], [6.201959, 46.341086], [6.201908, 46.341018], [6.201837, 46.340619], [6.201715, 46.340432], [6.201689, 46.340241], [6.201374, 46.339823], [6.201332, 46.339718], [6.201279, 46.33969], [6.201094, 46.339455], [6.200859, 46.339264], [6.200573, 46.338905], [6.200253, 46.338608], [6.199799, 46.338252], [6.199603, 46.338038], [6.199237, 46.337766], [6.199112, 46.337608], [6.198963, 46.337521], [6.198782, 46.337353], [6.198553, 46.336928], [6.198265, 46.336726], [6.198253, 46.336561], [6.197779, 46.336306], [6.197467, 46.336073], [6.197495, 46.33592], [6.197438, 46.335863], [6.197377, 46.335631], [6.197342, 46.33562], [6.197374, 46.335594], [6.197223, 46.335586], [6.197288, 46.335557], [6.197243, 46.335456], [6.197248, 46.335307], [6.197016, 46.334621], [6.196984, 46.334485], [6.197004, 46.334331], [6.197402, 46.334174], [6.197681, 46.334099], [6.197958, 46.333946], [6.197975, 46.333912], [6.198185, 46.333839], [6.19892, 46.333489], [6.19898, 46.333286], [6.198913, 46.333143], [6.198965, 46.332996], [6.198951, 46.332925], [6.199039, 46.332787], [6.1991, 46.332535], [6.199135, 46.332516], [6.199098, 46.332472], [6.199123, 46.332448], [6.199094, 46.332326], [6.198973, 46.332184], [6.19891, 46.332163], [6.198864, 46.33207], [6.198599, 46.331816], [6.19851, 46.331661], [6.198291, 46.331443], [6.198227, 46.331303], [6.197815, 46.330873], [6.197124, 46.329959], [6.196971, 46.329814], [6.196781, 46.329571], [6.196615, 46.329481], [6.196362, 46.32915], [6.19626, 46.329095], [6.196169, 46.329077], [6.195235, 46.329313], [6.195205, 46.329292], [6.195151, 46.329318], [6.194873, 46.329357], [6.194866, 46.329329], [6.194799, 46.329351], [6.194713, 46.329333], [6.194664, 46.329357], [6.194609, 46.329338], [6.194626, 46.329439], [6.194483, 46.329433], [6.193651, 46.329605], [6.193399, 46.32966], [6.193299, 46.329723], [6.193228, 46.329806], [6.193186, 46.330093], [6.193207, 46.330134], [6.193413, 46.330183], [6.19383, 46.330126], [6.193955, 46.330158], [6.194102, 46.330395], [6.194185, 46.33061], [6.194341, 46.330826], [6.194479, 46.331104], [6.194498, 46.331074], [6.19456, 46.331378], [6.194583, 46.331382], [6.194557, 46.331287], [6.194489, 46.331198], [6.194512, 46.33122], [6.194527, 46.331188], [6.19448, 46.331046], [6.194498, 46.330973], [6.194333, 46.33078], [6.194315, 46.33079], [6.194334, 46.330777], [6.19425, 46.330641], [6.194206, 46.330625]]}, "properties": {"name": "1789712625.Founex_morning_walk", "cmt": "2026-09-18", "tstamp": 1789689600, "desc": "---", "src": "6.185628/46.329077/6.202242/46.350814", "bbox": "6.185628/46.329077/6.202242/46.350814"}}]}