{"type": "FeatureCollection", "name": "TrackSet", "crs": {"type": "name", "properties": {"name": "urn:ogc:def:crs:OGC:1.3:CRS84"}}, "bbox": [6.141479, 46.19504, 6.170658, 46.220042], "features": [{"type": "Feature", "bbox": [6.141479, 46.19504, 6.170658, 46.220042], "geometry": {"type": "LineString", "coordinates": [[6.153658, 46.19504], [6.153617, 46.195074], [6.1537, 46.195054], [6.15375, 46.195084], [6.153741, 46.195106], [6.153528, 46.195173], [6.153506, 46.195266], [6.153346, 46.19547], [6.153148, 46.195482], [6.152997, 46.195562], [6.152888, 46.195578], [6.152384, 46.195831], [6.152504, 46.196002], [6.152635, 46.196081], [6.15266, 46.196199], [6.152933, 46.196478], [6.152884, 46.196586], [6.152907, 46.196644], [6.15288, 46.196641], [6.15295, 46.196638], [6.152897, 46.196632], [6.152805, 46.19676], [6.152524, 46.196932], [6.152403, 46.197056], [6.152277, 46.197122], [6.152126, 46.197148], [6.151924, 46.197346], [6.15183, 46.197381], [6.151718, 46.197488], [6.151616, 46.197524], [6.151518, 46.197625], [6.151263, 46.197771], [6.151203, 46.197833], [6.151064, 46.197886], [6.151072, 46.197931], [6.150577, 46.198264], [6.150234, 46.198542], [6.150154, 46.198564], [6.150071, 46.198664], [6.149917, 46.198717], [6.149766, 46.198826], [6.149673, 46.198848], [6.149515, 46.198933], [6.149416, 46.198951], [6.149368, 46.199039], [6.149416, 46.199074], [6.14943, 46.199197], [6.149378, 46.199381], [6.149418, 46.199525], [6.149384, 46.199631], [6.149339, 46.199665], [6.149352, 46.199698], [6.149304, 46.199767], [6.149252, 46.199774], [6.149254, 46.199829], [6.149187, 46.199881], [6.149211, 46.200086], [6.149174, 46.200172], [6.149232, 46.200317], [6.149219, 46.200486], [6.149418, 46.200927], [6.149442, 46.201102], [6.14957, 46.201322], [6.149726, 46.201453], [6.149694, 46.201479], [6.149732, 46.201578], [6.149718, 46.201641], [6.149779, 46.201686], [6.149897, 46.201887], [6.149896, 46.201938], [6.149752, 46.202047], [6.149846, 46.202358], [6.149814, 46.202365], [6.149802, 46.202437], [6.149838, 46.202564], [6.149907, 46.202647], [6.149892, 46.202851], [6.150097, 46.203096], [6.15012, 46.203228], [6.14999, 46.203342], [6.149928, 46.203543], [6.149952, 46.203645], [6.150083, 46.20386], [6.150033, 46.203913], [6.150056, 46.203949], [6.150015, 46.203951], [6.150015, 46.204099], [6.149774, 46.204185], [6.149456, 46.204191], [6.149306, 46.204253], [6.149157, 46.204268], [6.149119, 46.204311], [6.149065, 46.20465], [6.149161, 46.2047], [6.149278, 46.204815], [6.149832, 46.205074], [6.149916, 46.205077], [6.150045, 46.204994], [6.150186, 46.205039], [6.150278, 46.205025], [6.150451, 46.205046], [6.150762, 46.204996], [6.151454, 46.204831], [6.151537, 46.20483], [6.151649, 46.204769], [6.15178, 46.20475], [6.152029, 46.204663], [6.152376, 46.204595], [6.152427, 46.204557], [6.152494, 46.204567], [6.152691, 46.204526], [6.153154, 46.204368], [6.153661, 46.204261], [6.153975, 46.204262], [6.154294, 46.204328], [6.154417, 46.2044], [6.154835, 46.204507], [6.155011, 46.204607], [6.155113, 46.204637], [6.155195, 46.204699], [6.155407, 46.204761], [6.155706, 46.2049], [6.156238, 46.205178], [6.156573, 46.205285], [6.156745, 46.205392], [6.156913, 46.205416], [6.156969, 46.205481], [6.157023, 46.205501], [6.157129, 46.205491], [6.157138, 46.205526], [6.157229, 46.205529], [6.157322, 46.205642], [6.157577, 46.20579], [6.157785, 46.20586], [6.158092, 46.206031], [6.158569, 46.206242], [6.158838, 46.206314], [6.158982, 46.20628], [6.159284, 46.206409], [6.15945, 46.206525], [6.159804, 46.206643], [6.159995, 46.206769], [6.160367, 46.206928], [6.160707, 46.207123], [6.16105, 46.207261], [6.161295, 46.207411], [6.161631, 46.207488], [6.161718, 46.207528], [6.161769, 46.20759], [6.161821, 46.207582], [6.161895, 46.207607], [6.162054, 46.207577], [6.162204, 46.207661], [6.162254, 46.207655], [6.162497, 46.207826], [6.162838, 46.207924], [6.162761, 46.208111], [6.162782, 46.208159], [6.162871, 46.208204], [6.16323, 46.208346], [6.163948, 46.208552], [6.164095, 46.208632], [6.164439, 46.208729], [6.164628, 46.209026], [6.165235, 46.209579], [6.166033, 46.210429], [6.166083, 46.210442], [6.166231, 46.21062], [6.166496, 46.210847], [6.166864, 46.211247], [6.167142, 46.211491], [6.167213, 46.211496], [6.167721, 46.211281], [6.168066, 46.210986], [6.168234, 46.210781], [6.168382, 46.210685], [6.16863, 46.210424], [6.169102, 46.210684], [6.169323, 46.210757], [6.169855, 46.210991], [6.169953, 46.2111], [6.16997, 46.211161], [6.170526, 46.211397], [6.170586, 46.211483], [6.170539, 46.211528], [6.170537, 46.211504], [6.170536, 46.211533], [6.170583, 46.211505], [6.170584, 46.211529], [6.170603, 46.211475], [6.170652, 46.211484], [6.170632, 46.211459], [6.170658, 46.211456], [6.170614, 46.211438], [6.170613, 46.211501], [6.170566, 46.211526], [6.170452, 46.21146], [6.17039, 46.211493], [6.170275, 46.211397], [6.170255, 46.211423], [6.170277, 46.211432], [6.170285, 46.211409], [6.17025, 46.2114], [6.170265, 46.211382], [6.170281, 46.211418], [6.170279, 46.211401], [6.170257, 46.211417], [6.170288, 46.211393], [6.170277, 46.211429], [6.170306, 46.211428], [6.170264, 46.21142], [6.170263, 46.211436], [6.17023, 46.211407], [6.170264, 46.211435], [6.170272, 46.211409], [6.170235, 46.211394], [6.170058, 46.211355], [6.170098, 46.211554], [6.170066, 46.211614], [6.169311, 46.212392], [6.169024, 46.212737], [6.168756, 46.213006], [6.168702, 46.213031], [6.168554, 46.213235], [6.168252, 46.213499], [6.168002, 46.213578], [6.167749, 46.213586], [6.167243, 46.213477], [6.165755, 46.212885], [6.164205, 46.212381], [6.161834, 46.211571], [6.161078, 46.211258], [6.159684, 46.210538], [6.157971, 46.209839], [6.156912, 46.20957], [6.156005, 46.20939], [6.155445, 46.209236], [6.154954, 46.209152], [6.154055, 46.209052], [6.153168, 46.208977], [6.15273, 46.208972], [6.152345, 46.209004], [6.151871, 46.209179], [6.151729, 46.20932], [6.151661, 46.209496], [6.151486, 46.209554], [6.151488, 46.209608], [6.151447, 46.209651], [6.15139, 46.209643], [6.151341, 46.209678], [6.151404, 46.209704], [6.151349, 46.209662], [6.1514, 46.209894], [6.151423, 46.209887], [6.151429, 46.209915], [6.151667, 46.210079], [6.1517, 46.210153], [6.151997, 46.210435], [6.15207, 46.210537], [6.152284, 46.210668], [6.152456, 46.210806], [6.152486, 46.210859], [6.152551, 46.210884], [6.152487, 46.210958], [6.152611, 46.211146], [6.152721, 46.21122], [6.152742, 46.211328], [6.152825, 46.2114], [6.152899, 46.211417], [6.152917, 46.211458], [6.153026, 46.211483], [6.153067, 46.211556], [6.153031, 46.211686], [6.152967, 46.211781], [6.152989, 46.211838], [6.152901, 46.212168], [6.152867, 46.212257], [6.152827, 46.21228], [6.152817, 46.212388], [6.152766, 46.212465], [6.152734, 46.212625], [6.152754, 46.212702], [6.152671, 46.213029], [6.152664, 46.213183], [6.152571, 46.213487], [6.152524, 46.213521], [6.152428, 46.214027], [6.152297, 46.214265], [6.152273, 46.214405], [6.152297, 46.214518], [6.152199, 46.214629], [6.152203, 46.21487], [6.152168, 46.215014], [6.152106, 46.215117], [6.152119, 46.215285], [6.152061, 46.215491], [6.151987, 46.215572], [6.151957, 46.215832], [6.151872, 46.215943], [6.151898, 46.216065], [6.151735, 46.21662], [6.151714, 46.216667], [6.151675, 46.216648], [6.151715, 46.216648], [6.151694, 46.216739], [6.151632, 46.216846], [6.151645, 46.216887], [6.151602, 46.216929], [6.151645, 46.217012], [6.151584, 46.21711], [6.151612, 46.217197], [6.151524, 46.217333], [6.151538, 46.217438], [6.151504, 46.217512], [6.151523, 46.217572], [6.151702, 46.217767], [6.151736, 46.21789], [6.151858, 46.218045], [6.152118, 46.218254], [6.152256, 46.218439], [6.152291, 46.21863], [6.152265, 46.219062], [6.152304, 46.219344], [6.152352, 46.21944], [6.152671, 46.219798], [6.152654, 46.219896], [6.152673, 46.219909], [6.152757, 46.219864], [6.152728, 46.219928], [6.152721, 46.219903], [6.152699, 46.219915], [6.152724, 46.21995], [6.152694, 46.219889], [6.152727, 46.219912], [6.152743, 46.219886], [6.152718, 46.219903], [6.152749, 46.219915], [6.152739, 46.219955], [6.152745, 46.219929], [6.152707, 46.21992], [6.152737, 46.219876], [6.152757, 46.219937], [6.152701, 46.219892], [6.152734, 46.219962], [6.152715, 46.219993], [6.152718, 46.219898], [6.152744, 46.219939], [6.152763, 46.219911], [6.152742, 46.219873], [6.152747, 46.21992], [6.152746, 46.219878], [6.152749, 46.219903], [6.152711, 46.21989], [6.152735, 46.219896], [6.152724, 46.219873], [6.152735, 46.219899], [6.152736, 46.219872], [6.152752, 46.219939], [6.15274, 46.219883], [6.15271, 46.219875], [6.152745, 46.219915], [6.152708, 46.219883], [6.152739, 46.219897], [6.152699, 46.219895], [6.152738, 46.219921], [6.152707, 46.219905], [6.152714, 46.219943], [6.152708, 46.219911], [6.152724, 46.219927], [6.152752, 46.21989], [6.152706, 46.219865], [6.15267, 46.219959], [6.152568, 46.220006], [6.152604, 46.220042], [6.152648, 46.219928], [6.152776, 46.220018], [6.152705, 46.219947], [6.152777, 46.219894], [6.152742, 46.219889], [6.152694, 46.219924], [6.152649, 46.21989], [6.152635, 46.219867], [6.15269, 46.219843], [6.152693, 46.21981], [6.152652, 46.219727], [6.152458, 46.21955], [6.152255, 46.21925], [6.152289, 46.219093], [6.152275, 46.218922], [6.152311, 46.218573], [6.152108, 46.218203], [6.15187, 46.218029], [6.151691, 46.21777], [6.151639, 46.217744], [6.15164, 46.217678], [6.151528, 46.217445], [6.15157, 46.217272], [6.151554, 46.217118], [6.151612, 46.217043], [6.151691, 46.216711], [6.151818, 46.216433], [6.151862, 46.216177], [6.151946, 46.215991], [6.15204, 46.215418], [6.152172, 46.215176], [6.152189, 46.215028], [6.15235, 46.214503], [6.152333, 46.214417], [6.152371, 46.214227], [6.152589, 46.21357], [6.15272, 46.212898], [6.152802, 46.212641], [6.152867, 46.212538], [6.152866, 46.212444], [6.152951, 46.212203], [6.153074, 46.211644], [6.153064, 46.211462], [6.152979, 46.211417], [6.152831, 46.211262], [6.152598, 46.211083], [6.152525, 46.210936], [6.152556, 46.210846], [6.152519, 46.210806], [6.152147, 46.210501], [6.152011, 46.210439], [6.151809, 46.210235], [6.151733, 46.210104], [6.151534, 46.209911], [6.151238, 46.20971], [6.150965, 46.209599], [6.150542, 46.209225], [6.150234, 46.208906], [6.1498, 46.208601], [6.149597, 46.208494], [6.149526, 46.208357], [6.149221, 46.208111], [6.14903, 46.207915], [6.148729, 46.207694], [6.148541, 46.20752], [6.148447, 46.207481], [6.148272, 46.207292], [6.148011, 46.207085], [6.148025, 46.207107], [6.147934, 46.207124], [6.14776, 46.207128], [6.147666, 46.207076], [6.147561, 46.207164], [6.147292, 46.207273], [6.147118, 46.207379], [6.146962, 46.207402], [6.146439, 46.207616], [6.146373, 46.207667], [6.146355, 46.207739], [6.146143, 46.207892], [6.146078, 46.207915], [6.145989, 46.207911], [6.145814, 46.207983], [6.145639, 46.208194], [6.145406, 46.20825], [6.145351, 46.208307], [6.144749, 46.208601], [6.144516, 46.208649], [6.144366, 46.208739], [6.144153, 46.208774], [6.143884, 46.208907], [6.143732, 46.209057], [6.143599, 46.209139], [6.14344, 46.209165], [6.143277, 46.209229], [6.142892, 46.20944], [6.141803, 46.209857], [6.141779, 46.209786], [6.141802, 46.209796], [6.141711, 46.209759], [6.141724, 46.209787], [6.141696, 46.209728], [6.141664, 46.209758], [6.141694, 46.209762], [6.141678, 46.209794], [6.141709, 46.209796], [6.141824, 46.209712], [6.141837, 46.20979], [6.141706, 46.209751], [6.141658, 46.20976], [6.141606, 46.209801], [6.141646, 46.209837], [6.141634, 46.209789], [6.14168, 46.209798], [6.141696, 46.209771], [6.141605, 46.209729], [6.141479, 46.209757], [6.141536, 46.209729], [6.141551, 46.209691], [6.141566, 46.209713], [6.141611, 46.209672], [6.141609, 46.209646], [6.141579, 46.209656], [6.141551, 46.209713], [6.14154, 46.209638], [6.141627, 46.209724], [6.141691, 46.209726], [6.141691, 46.209762], [6.141658, 46.209669], [6.141666, 46.209702], [6.14158, 46.20964], [6.141621, 46.209742], [6.141581, 46.209717], [6.141606, 46.209743], [6.141617, 46.209709], [6.141588, 46.209801], [6.141615, 46.209867], [6.141584, 46.209867], [6.141584, 46.209898], [6.141613, 46.209896], [6.141629, 46.209835], [6.141648, 46.20986], [6.1417, 46.209863], [6.141623, 46.209857]]}, "properties": {"name": "1789559386.Geneva_with_Julie", "cmt": "2026-09-16", "tstamp": 1789516800, "desc": "---", "src": "6.141479/46.19504/6.170658/46.220042", "bbox": "6.141479/46.19504/6.170658/46.220042"}}]}