{"type": "FeatureCollection", "name": "TrackSet", "crs": {"type": "name", "properties": {"name": "urn:ogc:def:crs:OGC:1.3:CRS84"}}, "bbox": [6.096758, 46.419737, 6.161127, 46.448571], "features": [{"type": "Feature", "bbox": [6.096758, 46.419737, 6.161127, 46.448571], "geometry": {"type": "LineString", "coordinates": [[6.160055, 46.448492], [6.159987, 46.448465], [6.159844, 46.448489], [6.159765, 46.448564], [6.159753, 46.44854], [6.159669, 46.448527], [6.159556, 46.448513], [6.159513, 46.44853], [6.159444, 46.4485], [6.159301, 46.448322], [6.159164, 46.448212], [6.159015, 46.447979], [6.158836, 46.44763], [6.158849, 46.447603], [6.158748, 46.447477], [6.158789, 46.447359], [6.158729, 46.447204], [6.158461, 46.44688], [6.158296, 46.446377], [6.158306, 46.446307], [6.158225, 46.446211], [6.158148, 46.446204], [6.158106, 46.446171], [6.158088, 46.446055], [6.15814, 46.44596], [6.15813, 46.445698], [6.158078, 46.445602], [6.158071, 46.445634], [6.158094, 46.445602], [6.157997, 46.44565], [6.15805, 46.44565], [6.158102, 46.445392], [6.157968, 46.445231], [6.158054, 46.445164], [6.158032, 46.445192], [6.157965, 46.445205], [6.157954, 46.445237], [6.157838, 46.445213], [6.157842, 46.44518], [6.157669, 46.4451], [6.157443, 46.444885], [6.157431, 46.444712], [6.157616, 46.444608], [6.157588, 46.444667], [6.157634, 46.444651], [6.157634, 46.444676], [6.157668, 46.444622], [6.157767, 46.444596], [6.157876, 46.444526], [6.158022, 46.444501], [6.15828, 46.444406], [6.158563, 46.444251], [6.158714, 46.44419], [6.15875, 46.444195], [6.159278, 46.443939], [6.160093, 46.443629], [6.16017, 46.443614], [6.160159, 46.443639], [6.160224, 46.443603], [6.160196, 46.443625], [6.160176, 46.443574], [6.160161, 46.443625], [6.160176, 46.443585], [6.160121, 46.443603], [6.160111, 46.443572], [6.160155, 46.443587], [6.160139, 46.443572], [6.160135, 46.443609], [6.160086, 46.44357], [6.160134, 46.443644], [6.160211, 46.443655], [6.160208, 46.443575], [6.160254, 46.443521], [6.160308, 46.443502], [6.160345, 46.443429], [6.160628, 46.443193], [6.160705, 46.44319], [6.160764, 46.443087], [6.160846, 46.443041], [6.160989, 46.443023], [6.161072, 46.442966], [6.161127, 46.442844], [6.161057, 46.442739], [6.160872, 46.442663], [6.160778, 46.442675], [6.160725, 46.442647], [6.160317, 46.442582], [6.16019, 46.442536], [6.159942, 46.442528], [6.159882, 46.442562], [6.159493, 46.44262], [6.159368, 46.442675], [6.15924, 46.442787], [6.159168, 46.442929], [6.159208, 46.442949], [6.159199, 46.443003], [6.159019, 46.443182], [6.158949, 46.4433], [6.158765, 46.443409], [6.158727, 46.443278], [6.158554, 46.44316], [6.15844, 46.443017], [6.158283, 46.442921], [6.158246, 46.442829], [6.158065, 46.442775], [6.157888, 46.442769], [6.157742, 46.44281], [6.157599, 46.442797], [6.156724, 46.442914], [6.156571, 46.442909], [6.156375, 46.44286], [6.156168, 46.442758], [6.156049, 46.442748], [6.15599, 46.442807], [6.15592, 46.442802], [6.155026, 46.442577], [6.154798, 46.442607], [6.154678, 46.442576], [6.154345, 46.442602], [6.154288, 46.442582], [6.154263, 46.442614], [6.15419, 46.442612], [6.1541, 46.442571], [6.154021, 46.442495], [6.154017, 46.442442], [6.154348, 46.442194], [6.154396, 46.442084], [6.154589, 46.441953], [6.154795, 46.441747], [6.154841, 46.441613], [6.154916, 46.441562], [6.15495, 46.441467], [6.155045, 46.44139], [6.155142, 46.441253], [6.155053, 46.441046], [6.154871, 46.440854], [6.154861, 46.440557], [6.154616, 46.440437], [6.15456, 46.440457], [6.154472, 46.440429], [6.15423, 46.440284], [6.153993, 46.440009], [6.153975, 46.439922], [6.154043, 46.439785], [6.154021, 46.439637], [6.153913, 46.439555], [6.153623, 46.43946], [6.153471, 46.439284], [6.1533, 46.439199], [6.153115, 46.439225], [6.153084, 46.43927], [6.153001, 46.43928], [6.152738, 46.43927], [6.152444, 46.439312], [6.152343, 46.439287], [6.152217, 46.439301], [6.152071, 46.439261], [6.151892, 46.439319], [6.151734, 46.439282], [6.151361, 46.439244], [6.150061, 46.439161], [6.149886, 46.439123], [6.149473, 46.439083], [6.149246, 46.438936], [6.149104, 46.438878], [6.149003, 46.4389], [6.148833, 46.43888], [6.148779, 46.43892], [6.14853, 46.438923], [6.148297, 46.438892], [6.14823, 46.438906], [6.147181, 46.438695], [6.14685, 46.43859], [6.146541, 46.438601], [6.146454, 46.438629], [6.146196, 46.438596], [6.146008, 46.438541], [6.145844, 46.438447], [6.145663, 46.438492], [6.14542, 46.438467], [6.145343, 46.438491], [6.145313, 46.438542], [6.144666, 46.438683], [6.144522, 46.43863], [6.144512, 46.438583], [6.144405, 46.438654], [6.144386, 46.438633], [6.144359, 46.438676], [6.144304, 46.438662], [6.144212, 46.438778], [6.144147, 46.438788], [6.14399, 46.438703], [6.143916, 46.438747], [6.143841, 46.438757], [6.143804, 46.438851], [6.143775, 46.438819], [6.143754, 46.438853], [6.143426, 46.438823], [6.143289, 46.438847], [6.143184, 46.438832], [6.143131, 46.438937], [6.142917, 46.438984], [6.142899, 46.439028], [6.142855, 46.439038], [6.142805, 46.438962], [6.142743, 46.438972], [6.14274, 46.438943], [6.142665, 46.438953], [6.142682, 46.438969], [6.142626, 46.438934], [6.142628, 46.438985], [6.142671, 46.438799], [6.142618, 46.43867], [6.142516, 46.43864], [6.142391, 46.438679], [6.142267, 46.438668], [6.142225, 46.438691], [6.14208, 46.438703], [6.141924, 46.43876], [6.141867, 46.438738], [6.141857, 46.438806], [6.141302, 46.438919], [6.141224, 46.438877], [6.141197, 46.438921], [6.141162, 46.438909], [6.141154, 46.438946], [6.141072, 46.438892], [6.141074, 46.438942], [6.14095, 46.438951], [6.140912, 46.438983], [6.140857, 46.438957], [6.140516, 46.438944], [6.140483, 46.438852], [6.140355, 46.438799], [6.140343, 46.43875], [6.140306, 46.438748], [6.140202, 46.438659], [6.140163, 46.438664], [6.140087, 46.438514], [6.140039, 46.438476], [6.139971, 46.438481], [6.139779, 46.438401], [6.139634, 46.438385], [6.139543, 46.438402], [6.139293, 46.438381], [6.139155, 46.4384], [6.13911, 46.438355], [6.138957, 46.438313], [6.138775, 46.438364], [6.138726, 46.438419], [6.13846, 46.438446], [6.138051, 46.438542], [6.137426, 46.438606], [6.13732, 46.438643], [6.137198, 46.438634], [6.137075, 46.438682], [6.137091, 46.438754], [6.136951, 46.438762], [6.136876, 46.438833], [6.136719, 46.43888], [6.136431, 46.438891], [6.136265, 46.438871], [6.136112, 46.43889], [6.135724, 46.438842], [6.134999, 46.438892], [6.134893, 46.438855], [6.134533, 46.438818], [6.134425, 46.438831], [6.134303, 46.438792], [6.134063, 46.4388], [6.13401, 46.438763], [6.134, 46.438718], [6.133894, 46.438763], [6.133655, 46.438714], [6.133548, 46.438717], [6.133379, 46.438631], [6.133221, 46.438603], [6.13302, 46.438631], [6.132809, 46.438526], [6.132776, 46.438487], [6.132668, 46.438497], [6.132593, 46.438468], [6.132544, 46.43839], [6.132533, 46.438416], [6.132507, 46.438398], [6.132507, 46.438328], [6.132442, 46.438305], [6.132389, 46.438114], [6.132099, 46.437998], [6.132146, 46.437931], [6.132047, 46.437782], [6.132059, 46.437714], [6.132019, 46.437709], [6.131904, 46.437596], [6.13192, 46.437567], [6.131887, 46.437567], [6.131833, 46.437437], [6.131828, 46.437335], [6.131906, 46.437212], [6.131876, 46.437103], [6.131911, 46.437093], [6.131927, 46.437014], [6.132097, 46.43677], [6.132145, 46.436626], [6.132263, 46.4366], [6.132269, 46.436499], [6.132359, 46.436427], [6.132347, 46.436354], [6.132459, 46.436326], [6.132922, 46.436302], [6.133076, 46.43617], [6.133123, 46.436183], [6.133154, 46.436119], [6.133267, 46.43607], [6.133394, 46.435959], [6.133452, 46.435952], [6.133489, 46.435902], [6.133796, 46.43577], [6.133853, 46.435701], [6.133871, 46.435618], [6.133834, 46.435531], [6.133635, 46.435397], [6.133601, 46.435403], [6.133569, 46.435356], [6.133368, 46.435322], [6.133264, 46.435276], [6.133157, 46.43517], [6.133096, 46.435148], [6.133027, 46.434951], [6.132854, 46.434919], [6.132801, 46.434831], [6.13283, 46.434908], [6.132828, 46.434879], [6.132859, 46.434889], [6.132805, 46.434888], [6.132805, 46.434934], [6.132785, 46.434833], [6.132704, 46.434789], [6.132679, 46.43472], [6.13254, 46.434729], [6.132382, 46.434637], [6.132281, 46.434663], [6.132224, 46.434614], [6.132113, 46.434588], [6.132066, 46.434496], [6.131929, 46.434452], [6.132064, 46.434404], [6.132112, 46.434423], [6.132115, 46.434336], [6.132213, 46.434302], [6.133223, 46.434066], [6.133509, 46.434033], [6.133696, 46.433908], [6.133933, 46.433806], [6.134082, 46.433687], [6.134283, 46.433614], [6.134325, 46.433553], [6.134489, 46.433461], [6.134633, 46.433405], [6.134712, 46.4334], [6.134846, 46.433334], [6.134926, 46.433223], [6.134911, 46.433133], [6.13484, 46.433087], [6.134603, 46.433023], [6.134454, 46.43293], [6.134138, 46.432914], [6.134004, 46.432953], [6.133647, 46.432866], [6.133517, 46.432759], [6.133477, 46.432528], [6.133441, 46.432489], [6.133302, 46.432435], [6.132994, 46.432465], [6.132897, 46.432495], [6.132825, 46.432483], [6.132701, 46.432529], [6.132646, 46.432586], [6.132704, 46.432622], [6.132796, 46.432646], [6.132854, 46.432618], [6.132914, 46.432634], [6.132876, 46.432644], [6.132864, 46.432709], [6.132986, 46.432624], [6.132947, 46.432638], [6.132945, 46.432716], [6.133004, 46.432756], [6.133009, 46.432713], [6.133047, 46.432708], [6.133008, 46.432694], [6.133037, 46.432681], [6.133004, 46.43272], [6.133046, 46.432672], [6.133021, 46.432662], [6.133051, 46.43268], [6.13301, 46.432711], [6.133021, 46.432674], [6.132465, 46.432926], [6.132589, 46.432863], [6.132854, 46.432653], [6.132916, 46.432629], [6.132897, 46.432676], [6.132938, 46.432708], [6.132963, 46.432691], [6.132967, 46.432662], [6.13286, 46.432631], [6.132694, 46.432735], [6.132702, 46.432702], [6.132657, 46.432699], [6.132931, 46.432663], [6.132797, 46.432648], [6.132895, 46.432733], [6.133086, 46.432825], [6.133141, 46.432816], [6.133143, 46.432785], [6.133084, 46.43277], [6.133006, 46.43278], [6.132835, 46.432739], [6.132975, 46.43278], [6.132972, 46.432761], [6.133033, 46.432758], [6.133004, 46.432685], [6.133027, 46.432669], [6.132929, 46.432611], [6.132198, 46.432733], [6.132094, 46.432689], [6.131996, 46.432701], [6.131707, 46.432671], [6.131046, 46.432552], [6.130945, 46.432474], [6.130828, 46.432261], [6.130816, 46.432155], [6.130631, 46.431946], [6.13066, 46.431692], [6.130728, 46.431545], [6.130689, 46.431434], [6.130611, 46.431339], [6.130488, 46.43129], [6.130298, 46.43126], [6.13004, 46.431325], [6.129802, 46.431427], [6.129666, 46.431448], [6.129564, 46.431436], [6.129471, 46.43136], [6.129449, 46.431151], [6.129307, 46.430948], [6.128929, 46.430669], [6.128799, 46.430644], [6.128591, 46.430667], [6.128402, 46.430634], [6.128258, 46.43058], [6.127778, 46.430234], [6.127692, 46.430197], [6.127472, 46.429944], [6.127316, 46.429814], [6.127025, 46.429661], [6.126828, 46.429612], [6.126552, 46.429583], [6.126458, 46.429531], [6.126336, 46.429396], [6.126162, 46.429298], [6.125776, 46.429164], [6.125633, 46.429145], [6.125319, 46.429198], [6.125262, 46.42919], [6.125169, 46.429223], [6.125091, 46.429216], [6.124225, 46.42941]]}, "properties": {"name": "1789641777.St_Cergue_La_Barillette_La_Dole_St_Cergue", "cmt": "2026-09-17", "tstamp": 1789603200, "desc": "UpHill", "src": "6.096758/46.419737/6.161127/46.448571", "bbox": "6.096758/46.419737/6.161127/46.448571"}}, {"type": "Feature", "bbox": [6.096758, 46.419737, 6.161127, 46.448571], "geometry": {"type": "LineString", "coordinates": [[6.124209, 46.429419], [6.123931, 46.429534], [6.123624, 46.429537], [6.123397, 46.42958], [6.12319, 46.42957], [6.122912, 46.429597], [6.122663, 46.429581], [6.122311, 46.429508], [6.122136, 46.429502], [6.121826, 46.429423], [6.121009, 46.429274], [6.120251, 46.429202], [6.119781, 46.429127], [6.119605, 46.429144], [6.119449, 46.42913], [6.119203, 46.429167], [6.118926, 46.429148], [6.118189, 46.429382], [6.117888, 46.429439], [6.11775, 46.429489], [6.117453, 46.429483], [6.116918, 46.429592], [6.116668, 46.429725], [6.116512, 46.429767], [6.116256, 46.429942], [6.116223, 46.429921], [6.115998, 46.430046], [6.115792, 46.430101], [6.115585, 46.430226], [6.115478, 46.430242], [6.115395, 46.430294], [6.115059, 46.430402], [6.115088, 46.430409], [6.115107, 46.430345], [6.114876, 46.43019], [6.114404, 46.429992], [6.114387, 46.429928], [6.114545, 46.429725], [6.11452, 46.429676], [6.114538, 46.429621], [6.114599, 46.429576], [6.114605, 46.429504], [6.114582, 46.429457], [6.114391, 46.429335], [6.114231, 46.429306], [6.114171, 46.429319], [6.113921, 46.429239], [6.113753, 46.429265], [6.113483, 46.429206], [6.113055, 46.429178], [6.11296, 46.429151], [6.112403, 46.429239], [6.112335, 46.429279], [6.111972, 46.429313], [6.111733, 46.429361], [6.111405, 46.429485], [6.111254, 46.429647], [6.11107, 46.429715], [6.110973, 46.429882], [6.11089, 46.429954], [6.110887, 46.429993], [6.110766, 46.430135], [6.110747, 46.430234], [6.110673, 46.430305], [6.11065, 46.430296], [6.110645, 46.430323], [6.110619, 46.430321], [6.11043, 46.430008], [6.110392, 46.429851], [6.109963, 46.429421], [6.109907, 46.429333], [6.109733, 46.429185], [6.10969, 46.429034], [6.10956, 46.428883], [6.109463, 46.428857], [6.109176, 46.428641], [6.10841, 46.427897], [6.108218, 46.427677], [6.108016, 46.427533], [6.10774, 46.427419]]}, "properties": {"name": "1789641777.St_Cergue_La_Barillette_La_Dole_St_Cergue", "cmt": "2026-09-17", "tstamp": 1789603200, "desc": "DownHill", "src": "6.096758/46.419737/6.161127/46.448571", "bbox": "6.096758/46.419737/6.161127/46.448571"}}, {"type": "Feature", "bbox": [6.096758, 46.419737, 6.161127, 46.448571], "geometry": {"type": "LineString", "coordinates": [[6.10772, 46.42741], [6.107486, 46.427286], [6.107282, 46.427212], [6.107101, 46.426995], [6.107039, 46.426989], [6.106947, 46.426932], [6.106765, 46.426782], [6.106712, 46.426683], [6.106582, 46.426637], [6.106378, 46.426338], [6.106329, 46.426294], [6.106257, 46.426284], [6.106273, 46.426303], [6.10633, 46.426299], [6.106288, 46.426306], [6.106324, 46.426295], [6.106295, 46.426209], [6.106336, 46.42609], [6.106516, 46.425977], [6.106673, 46.42595], [6.106771, 46.425873], [6.106858, 46.42571], [6.107063, 46.425606], [6.107006, 46.425583], [6.106808, 46.425571], [6.106483, 46.425436], [6.106331, 46.425431], [6.106177, 46.425475], [6.10591, 46.425438], [6.105368, 46.425222], [6.105299, 46.425175], [6.105213, 46.425058], [6.105187, 46.424903], [6.105416, 46.424743], [6.10542, 46.424647], [6.105261, 46.424557], [6.105185, 46.424421], [6.105113, 46.424139], [6.104948, 46.424041], [6.104805, 46.423886], [6.104691, 46.423619], [6.10462, 46.423592], [6.104493, 46.423323], [6.104487, 46.423251], [6.104443, 46.423205], [6.104454, 46.423165], [6.104399, 46.423091], [6.104361, 46.422918], [6.104397, 46.422857], [6.104367, 46.422829], [6.104372, 46.422764], [6.104201, 46.422704], [6.104099, 46.4226], [6.104207, 46.422513], [6.104245, 46.422392], [6.104308, 46.422345], [6.104347, 46.422245], [6.104386, 46.422235], [6.104372, 46.422168], [6.104436, 46.422119], [6.104516, 46.422111], [6.104608, 46.422138], [6.104707, 46.422125], [6.104889, 46.422186], [6.104965, 46.422171], [6.105041, 46.422196], [6.105159, 46.422195], [6.105179, 46.422172], [6.105153, 46.422128], [6.105266, 46.422021], [6.105316, 46.422021], [6.105333, 46.421974], [6.105392, 46.421955], [6.10543, 46.421782], [6.105357, 46.421686], [6.105328, 46.421686], [6.105334, 46.421648], [6.105201, 46.42148], [6.105176, 46.421401], [6.105037, 46.421227], [6.104539, 46.42094], [6.104413, 46.420895], [6.104236, 46.420774], [6.104198, 46.420773], [6.104024, 46.420641], [6.103937, 46.420651], [6.103712, 46.420599], [6.103074, 46.420406], [6.102504, 46.420085], [6.102174, 46.420098], [6.10203, 46.420058], [6.10194, 46.420081], [6.101825, 46.420157], [6.101614, 46.42011], [6.101508, 46.420023], [6.101274, 46.419903], [6.10068, 46.419925], [6.100551, 46.4199], [6.100281, 46.41977], [6.100022, 46.419737], [6.099702, 46.419865], [6.099573, 46.419953], [6.099547, 46.420001], [6.09932, 46.420069], [6.099191, 46.420262], [6.09911, 46.420331], [6.099051, 46.420313], [6.098893, 46.420337], [6.098591, 46.420451], [6.098444, 46.420435], [6.098379, 46.420388], [6.098166, 46.420346], [6.09797, 46.420254], [6.097789, 46.420266], [6.097657, 46.420297], [6.09743, 46.420429], [6.097255, 46.420593], [6.097177, 46.420615], [6.097101, 46.420741], [6.097063, 46.420861], [6.097123, 46.421304], [6.097032, 46.421345], [6.097062, 46.421436], [6.097007, 46.421495], [6.096993, 46.421689], [6.096766, 46.422042], [6.096758, 46.42222], [6.09677, 46.4222], [6.09686, 46.42231], [6.096976, 46.422476], [6.096995, 46.422558], [6.097205, 46.422769], [6.097235, 46.422832], [6.097392, 46.422911], [6.097408, 46.42301], [6.097576, 46.423243], [6.097587, 46.4233], [6.097747, 46.423379], [6.09832, 46.423847], [6.098371, 46.423864], [6.098558, 46.424073], [6.09888, 46.424298], [6.099413, 46.424851], [6.099573, 46.424954], [6.099665, 46.424979], [6.09982, 46.425124], [6.099902, 46.425145], [6.099881, 46.425231], [6.100083, 46.42547], [6.10007, 46.425531], [6.100118, 46.42558], [6.100113, 46.425717], [6.100127, 46.425734], [6.100181, 46.425701], [6.100185, 46.425672], [6.100203, 46.425733], [6.100357, 46.425784]]}, "properties": {"name": "1789641777.St_Cergue_La_Barillette_La_Dole_St_Cergue", "cmt": "2026-09-17", "tstamp": 1789603200, "desc": "UpHill", "src": "6.096758/46.419737/6.161127/46.448571", "bbox": "6.096758/46.419737/6.161127/46.448571"}}, {"type": "Feature", "bbox": [6.096758, 46.419737, 6.161127, 46.448571], "geometry": {"type": "LineString", "coordinates": [[6.100352, 46.425784], [6.100355, 46.425845], [6.100511, 46.426045], [6.100599, 46.42625], [6.10071, 46.426294], [6.100709, 46.426356], [6.100766, 46.426403], [6.100781, 46.426639], [6.100943, 46.427024], [6.100802, 46.427215], [6.100799, 46.427283], [6.1011, 46.428077], [6.101121, 46.428227], [6.101161, 46.428275], [6.101136, 46.428396], [6.101287, 46.428791], [6.101536, 46.429173], [6.101616, 46.429235], [6.101655, 46.429365], [6.101608, 46.429378], [6.101653, 46.429417], [6.101652, 46.42947], [6.101922, 46.429927], [6.102195, 46.430284], [6.102406, 46.430423], [6.102408, 46.430466], [6.102464, 46.430452], [6.102512, 46.430489], [6.102506, 46.430557], [6.102422, 46.430602], [6.102444, 46.430648], [6.102528, 46.4307], [6.10244, 46.430869], [6.102475, 46.430904], [6.102452, 46.430896], [6.102475, 46.430916], [6.102441, 46.430982], [6.10254, 46.431117], [6.102523, 46.431161], [6.102564, 46.431273], [6.102637, 46.431333], [6.102761, 46.431376], [6.102706, 46.431401], [6.102693, 46.431455], [6.102647, 46.431481], [6.102523, 46.431514], [6.102166, 46.431541], [6.102129, 46.431566], [6.102344, 46.431902], [6.102472, 46.431956], [6.102492, 46.43202], [6.102633, 46.432077], [6.10263, 46.432111], [6.10271, 46.432113], [6.102748, 46.432156], [6.102802, 46.432145], [6.102852, 46.432204], [6.102845, 46.432249], [6.103008, 46.432331], [6.103046, 46.432378], [6.103238, 46.432403], [6.103229, 46.432451], [6.103266, 46.432497], [6.103292, 46.432503], [6.103336, 46.43246], [6.103318, 46.432478], [6.103456, 46.432566], [6.103536, 46.432565], [6.103586, 46.432605], [6.103601, 46.432591], [6.103579, 46.432611], [6.103586, 46.432581], [6.103616, 46.432579], [6.103711, 46.432655], [6.103886, 46.432652], [6.103992, 46.432616], [6.103961, 46.432632], [6.104, 46.432627], [6.103978, 46.432645], [6.103976, 46.432603], [6.103989, 46.432638], [6.103966, 46.432616], [6.103942, 46.432632], [6.103948, 46.432611], [6.103973, 46.432641], [6.103944, 46.432638], [6.103981, 46.432636], [6.103955, 46.432605], [6.103908, 46.432647], [6.103932, 46.432687], [6.104082, 46.432665], [6.104447, 46.432697], [6.104505, 46.432674], [6.10455, 46.432692], [6.104601, 46.432674], [6.105187, 46.432668], [6.105274, 46.432649], [6.105264, 46.432625], [6.105325, 46.432595], [6.105379, 46.432618], [6.105484, 46.432598], [6.105544, 46.432617], [6.105706, 46.432512], [6.105756, 46.432522], [6.105875, 46.432494], [6.106232, 46.432354], [6.106312, 46.432298], [6.10658, 46.432273], [6.106602, 46.432241], [6.106737, 46.432199], [6.106897, 46.432191], [6.10706, 46.43213], [6.107131, 46.432138], [6.107367, 46.432089], [6.107435, 46.432047], [6.107519, 46.432037], [6.107623, 46.432058], [6.10775, 46.431979], [6.10798, 46.43197], [6.108079, 46.431923], [6.108187, 46.431907], [6.108229, 46.431873], [6.108431, 46.431876], [6.108534, 46.431818], [6.10874, 46.431807], [6.109122, 46.43172], [6.109384, 46.431704], [6.109518, 46.431661], [6.109539, 46.431616], [6.109705, 46.431565], [6.109719, 46.431514], [6.109866, 46.431346], [6.109888, 46.431237], [6.109949, 46.431189], [6.110032, 46.43098], [6.110149, 46.430857], [6.110127, 46.430809], [6.110195, 46.430676], [6.110317, 46.430616], [6.110443, 46.430463], [6.110619, 46.430365], [6.110667, 46.430363], [6.111226, 46.430753], [6.111488, 46.430883], [6.111477, 46.430851], [6.111501, 46.430893], [6.11159, 46.430932], [6.111873, 46.431004], [6.112009, 46.4311], [6.112228, 46.431134], [6.112289, 46.431118], [6.112344, 46.431142], [6.112463, 46.43111], [6.112546, 46.431123], [6.112723, 46.431103], [6.113005, 46.431183], [6.113425, 46.431141], [6.113638, 46.431178], [6.113709, 46.431265], [6.113874, 46.431368], [6.113953, 46.431454], [6.113914, 46.431585], [6.114029, 46.43186], [6.114125, 46.431983], [6.114174, 46.432104], [6.114233, 46.432117], [6.114308, 46.43209], [6.114295, 46.432118], [6.114365, 46.432143], [6.114365, 46.432177], [6.114515, 46.432319], [6.114516, 46.432419], [6.114452, 46.432432], [6.114381, 46.432492], [6.114192, 46.432491], [6.114227, 46.432503], [6.114061, 46.432555], [6.113952, 46.432511], [6.113876, 46.432556], [6.113846, 46.432525], [6.113808, 46.432576], [6.113707, 46.432555], [6.113667, 46.432597], [6.113783, 46.432657], [6.113772, 46.432758], [6.113864, 46.432853], [6.113922, 46.433019], [6.114065, 46.433149], [6.114071, 46.433215], [6.11417, 46.43329], [6.11418, 46.433346], [6.114214, 46.433363], [6.114106, 46.433539], [6.114124, 46.433598], [6.114062, 46.433643], [6.114112, 46.433729], [6.114037, 46.433786], [6.114115, 46.43389], [6.114506, 46.434124], [6.115254, 46.434438], [6.115291, 46.434476], [6.115475, 46.434526], [6.11576, 46.434674], [6.116053, 46.434771], [6.11625, 46.434904], [6.116526, 46.435031], [6.117915, 46.435608], [6.118463, 46.435871], [6.118962, 46.436056], [6.119111, 46.436107], [6.119194, 46.436104], [6.119242, 46.43614], [6.119647, 46.436101], [6.119746, 46.436133], [6.119859, 46.436104], [6.120276, 46.436132], [6.120469, 46.436188], [6.120844, 46.436144], [6.120961, 46.436177], [6.121274, 46.436199], [6.122031, 46.436059], [6.122703, 46.436074], [6.123027, 46.436161], [6.123464, 46.436372], [6.123917, 46.436546], [6.124752, 46.436655], [6.125098, 46.436733], [6.12526, 46.436794], [6.125445, 46.436797], [6.125665, 46.436928], [6.12625, 46.436971], [6.126663, 46.437115], [6.126825, 46.437126], [6.12725, 46.437038], [6.127573, 46.437029], [6.127729, 46.437101], [6.12779, 46.437101], [6.127892, 46.437163], [6.128215, 46.437254], [6.128245, 46.437285], [6.12847, 46.437335], [6.128992, 46.4374], [6.129269, 46.437359], [6.129917, 46.437382], [6.130095, 46.43736], [6.130455, 46.437425], [6.130873, 46.43746], [6.130988, 46.437446], [6.1311, 46.437483], [6.131183, 46.437453], [6.131304, 46.437489], [6.13138, 46.437557], [6.131494, 46.437591], [6.131517, 46.437666], [6.131496, 46.43767], [6.131684, 46.437739], [6.13174, 46.437856], [6.131874, 46.43793], [6.132008, 46.437938], [6.132203, 46.438116], [6.132329, 46.438181], [6.132334, 46.438281], [6.132408, 46.438268], [6.132441, 46.438288], [6.132408, 46.438329], [6.132456, 46.438401], [6.132517, 46.438421], [6.132511, 46.438488], [6.132604, 46.43857], [6.132586, 46.438644], [6.132695, 46.438818], [6.132692, 46.438897], [6.132816, 46.439131], [6.132828, 46.439247], [6.132978, 46.439593], [6.132996, 46.439967], [6.132956, 46.44005], [6.133058, 46.440201], [6.133037, 46.440241], [6.133104, 46.440335], [6.133141, 46.44058], [6.133227, 46.440785], [6.133233, 46.440813], [6.133192, 46.440838], [6.133191, 46.440963], [6.133301, 46.441255], [6.133333, 46.441523], [6.133306, 46.4416], [6.133341, 46.441653], [6.133337, 46.441719], [6.133243, 46.441807], [6.133233, 46.441874], [6.133166, 46.441939], [6.133169, 46.442065], [6.133251, 46.442181], [6.133224, 46.442264], [6.133348, 46.442366], [6.133668, 46.442874], [6.133644, 46.442913], [6.133591, 46.442898], [6.133667, 46.44291], [6.133669, 46.442965], [6.133586, 46.443087], [6.133618, 46.443281], [6.133539, 46.443462], [6.133539, 46.443558], [6.133477, 46.443631], [6.13352, 46.443913], [6.133863, 46.44443], [6.133987, 46.444547], [6.13407, 46.444579], [6.134083, 46.444751], [6.134138, 46.444818], [6.134283, 46.444883], [6.134488, 46.444894], [6.134702, 46.445006], [6.13498, 46.445267], [6.135071, 46.445298], [6.13526, 46.44542], [6.135564, 46.445526], [6.135764, 46.445712], [6.135948, 46.445795], [6.136037, 46.445928], [6.136145, 46.446001], [6.136342, 46.446057], [6.136418, 46.446027], [6.136532, 46.446032], [6.137153, 46.446129], [6.137464, 46.446147], [6.137596, 46.446182], [6.138092, 46.446208], [6.138394, 46.446251], [6.138616, 46.446292], [6.138949, 46.446415], [6.139097, 46.446497], [6.13929, 46.446538], [6.140173, 46.446483], [6.140286, 46.446497], [6.140324, 46.446586], [6.140512, 46.446592], [6.140725, 46.446564], [6.140839, 46.446484], [6.140949, 46.446461], [6.141163, 46.446537], [6.141424, 46.446585], [6.141955, 46.446499], [6.142057, 46.446512], [6.142273, 46.446463], [6.142825, 46.446441], [6.14318, 46.446369], [6.143701, 46.44636], [6.143778, 46.446327], [6.143913, 46.446315], [6.144217, 46.446325], [6.144508, 46.44625], [6.144603, 46.446268], [6.144832, 46.446214], [6.145234, 46.446192], [6.145496, 46.44615], [6.145765, 46.44615], [6.145835, 46.446123], [6.145936, 46.446137], [6.146037, 46.446088], [6.146115, 46.446105], [6.146219, 46.446059], [6.146364, 46.44604], [6.146653, 46.446047], [6.146826, 46.445998], [6.146954, 46.445922], [6.147729, 46.44571], [6.147841, 46.445698], [6.148121, 46.445602], [6.14863, 46.445562], [6.148868, 46.445502], [6.149345, 46.445477], [6.149647, 46.445433], [6.149715, 46.445444], [6.149959, 46.445388], [6.150066, 46.445407], [6.15028, 46.44539], [6.150596, 46.445336], [6.150675, 46.445344], [6.150935, 46.445279], [6.151279, 46.445306], [6.15143, 46.445354], [6.151753, 46.445366], [6.152029, 46.445441], [6.152244, 46.445446], [6.152381, 46.445496], [6.152514, 46.445671], [6.1526, 46.445711], [6.152738, 46.445747], [6.152812, 46.445741], [6.152871, 46.445786], [6.152964, 46.445782], [6.15304, 46.445817], [6.15362, 46.445951], [6.153886, 46.445904], [6.153959, 46.44591], [6.154262, 46.445825], [6.154627, 46.445761], [6.154774, 46.445753], [6.155073, 46.445853], [6.155312, 46.445838], [6.15556, 46.445863], [6.156017, 46.445786], [6.156289, 46.445782]]}, "properties": {"name": "1789641777.St_Cergue_La_Barillette_La_Dole_St_Cergue", "cmt": "2026-09-17", "tstamp": 1789603200, "desc": "DownHill", "src": "6.096758/46.419737/6.161127/46.448571", "bbox": "6.096758/46.419737/6.161127/46.448571"}}, {"type": "Feature", "bbox": [6.096758, 46.419737, 6.161127, 46.448571], "geometry": {"type": "LineString", "coordinates": [[6.15631, 46.445783], [6.156611, 46.445767], [6.156858, 46.445725], [6.157164, 46.445764], [6.157896, 46.445727], [6.158007, 46.445776], [6.158035, 46.445893], [6.15817, 46.445943], [6.158202, 46.445986], [6.158249, 46.446171], [6.158291, 46.446215], [6.158281, 46.446314], [6.158371, 46.446483], [6.158419, 46.446758], [6.15872, 46.44713], [6.158683, 46.447193], [6.158708, 46.447323], [6.158594, 46.447384], [6.158549, 46.447365], [6.15867, 46.447453], [6.158713, 46.44759], [6.158793, 46.447672], [6.158784, 46.447708], [6.158939, 46.447835], [6.158951, 46.448028], [6.159108, 46.448226], [6.159122, 46.448296], [6.159341, 46.448495], [6.159507, 46.448571], [6.159773, 46.448516], [6.159755, 46.448391], [6.159738, 46.448421], [6.15972, 46.448408], [6.159737, 46.448381], [6.159746, 46.448404], [6.159856, 46.448397], [6.159873, 46.448434], [6.159951, 46.448472], [6.160097, 46.448492]]}, "properties": {"name": "1789641777.St_Cergue_La_Barillette_La_Dole_St_Cergue", "cmt": "2026-09-17", "tstamp": 1789603200, "desc": "UpHill", "src": "6.096758/46.419737/6.161127/46.448571", "bbox": "6.096758/46.419737/6.161127/46.448571"}}]}