{"type": "FeatureCollection", "name": "TrackSet", "crs": {"type": "name", "properties": {"name": "urn:ogc:def:crs:OGC:1.3:CRS84"}}, "bbox": [-3.192687, 55.949476, -3.187173, 55.955351], "features": [{"type": "Feature", "bbox": [-3.192687, 55.949476, -3.187173, 55.955351], "geometry": {"type": "LineString", "coordinates": [[-3.188322, 55.95423], [-3.188446, 55.954149], [-3.188456, 55.954107], [-3.188514, 55.954077], [-3.188492, 55.954031], [-3.188612, 55.953934], [-3.188684, 55.953717], [-3.188672, 55.953614], [-3.188725, 55.953585], [-3.188964, 55.953558], [-3.18913, 55.953474], [-3.189384, 55.953403], [-3.189366, 55.953423], [-3.189364, 55.953376], [-3.189221, 55.95326], [-3.189236, 55.95316], [-3.189179, 55.95311], [-3.18912, 55.952925], [-3.18915, 55.952871], [-3.189133, 55.952751], [-3.189053, 55.952733], [-3.189043, 55.95267], [-3.188931, 55.952619], [-3.188954, 55.952486], [-3.188902, 55.952462], [-3.188789, 55.952249], [-3.188749, 55.952053], [-3.188087, 55.951065], [-3.188066, 55.950961], [-3.187991, 55.950917], [-3.187993, 55.950735], [-3.187903, 55.950625], [-3.187815, 55.950594], [-3.187775, 55.950398], [-3.187544, 55.950256], [-3.187409, 55.950244], [-3.187391, 55.950219], [-3.187447, 55.950226], [-3.187423, 55.950255], [-3.187479, 55.950225], [-3.187716, 55.950218], [-3.187878, 55.950201], [-3.187887, 55.950183], [-3.188098, 55.950185], [-3.188173, 55.950118], [-3.188321, 55.950062], [-3.188679, 55.950001], [-3.188693, 55.94998], [-3.189002, 55.949903], [-3.189182, 55.949907], [-3.189273, 55.949875], [-3.18956, 55.949854], [-3.189706, 55.94988], [-3.189751, 55.94984], [-3.189993, 55.949785], [-3.189968, 55.949803], [-3.190036, 55.949822], [-3.190071, 55.949806], [-3.190057, 55.949765], [-3.190161, 55.949782], [-3.190209, 55.949759], [-3.19034, 55.949767], [-3.1907, 55.949713], [-3.190836, 55.949746], [-3.190994, 55.949732], [-3.191341, 55.949666], [-3.191476, 55.949619], [-3.191519, 55.949567], [-3.191568, 55.949589], [-3.191626, 55.949565], [-3.191654, 55.949576], [-3.191674, 55.949633], [-3.191537, 55.94958], [-3.19148, 55.949476], [-3.191603, 55.949511], [-3.191662, 55.949557], [-3.191562, 55.94962], [-3.191435, 55.949648], [-3.191445, 55.949691], [-3.191373, 55.94974], [-3.191155, 55.949794], [-3.191141, 55.949781], [-3.191188, 55.949797], [-3.191139, 55.949819], [-3.191091, 55.94977], [-3.191155, 55.949835], [-3.191219, 55.949837], [-3.191044, 55.949882], [-3.190844, 55.949857], [-3.190459, 55.949888], [-3.190203, 55.949878], [-3.189952, 55.949912], [-3.189639, 55.950001], [-3.189282, 55.950015], [-3.189235, 55.949999], [-3.189067, 55.950074], [-3.188259, 55.950105], [-3.188004, 55.950124], [-3.187911, 55.950152], [-3.187693, 55.950147], [-3.187681, 55.950183], [-3.187641, 55.950147], [-3.187672, 55.950167], [-3.187667, 55.950151], [-3.187605, 55.950173], [-3.187639, 55.950245], [-3.1877, 55.950256], [-3.187646, 55.950388], [-3.187751, 55.950403], [-3.187814, 55.950461], [-3.18785, 55.950594], [-3.187937, 55.950701], [-3.187913, 55.95075], [-3.188033, 55.950849], [-3.188118, 55.951019], [-3.188099, 55.951058], [-3.188234, 55.951178], [-3.188223, 55.951224], [-3.188412, 55.951518], [-3.188408, 55.951549], [-3.188312, 55.951596], [-3.188339, 55.951617], [-3.188296, 55.951637], [-3.18828, 55.951715], [-3.188135, 55.951698], [-3.188057, 55.951757], [-3.188116, 55.951765], [-3.188086, 55.951777], [-3.188117, 55.951847], [-3.188201, 55.951927], [-3.188226, 55.952031], [-3.188377, 55.95222], [-3.188465, 55.952422], [-3.188628, 55.952599], [-3.188896, 55.953009], [-3.188994, 55.953088], [-3.189117, 55.953122], [-3.18914, 55.953191], [-3.189531, 55.953203], [-3.189676, 55.953124], [-3.189904, 55.95315], [-3.190075, 55.953087], [-3.190125, 55.953096], [-3.19021, 55.953052], [-3.190403, 55.953022], [-3.190481, 55.952983], [-3.190569, 55.952991], [-3.190936, 55.952911], [-3.191074, 55.952919], [-3.191176, 55.952978], [-3.191206, 55.95303], [-3.190971, 55.953167], [-3.190421, 55.953287], [-3.190258, 55.953293], [-3.190045, 55.953349], [-3.189683, 55.953399], [-3.189349, 55.953512], [-3.1891, 55.953536], [-3.188824, 55.953644], [-3.188687, 55.953642], [-3.188678, 55.953691], [-3.18875, 55.953746], [-3.188709, 55.954023], [-3.188563, 55.954188], [-3.188476, 55.954214], [-3.188443, 55.954334], [-3.188342, 55.954351], [-3.18834, 55.954394], [-3.188305, 55.954399], [-3.188344, 55.954456], [-3.188406, 55.954459], [-3.188533, 55.954556], [-3.188523, 55.954592], [-3.188434, 55.954582], [-3.188878, 55.954573], [-3.188846, 55.954587], [-3.188942, 55.95463], [-3.188925, 55.954575], [-3.189183, 55.95457], [-3.189085, 55.95456], [-3.189, 55.954603], [-3.189033, 55.95461], [-3.189019, 55.954671], [-3.189077, 55.954576], [-3.188936, 55.9546], [-3.188871, 55.954677], [-3.188923, 55.954703], [-3.188806, 55.954733], [-3.188762, 55.954803], [-3.188714, 55.954809], [-3.188737, 55.954885], [-3.188693, 55.954892], [-3.188744, 55.954995], [-3.188782, 55.954974], [-3.188776, 55.954995], [-3.188741, 55.954992], [-3.188756, 55.954944], [-3.188676, 55.954898], [-3.188682, 55.954868], [-3.188734, 55.954891], [-3.188721, 55.954968], [-3.188768, 55.955006], [-3.189431, 55.955351], [-3.192687, 55.952661], [-3.192626, 55.95257], [-3.192528, 55.952676], [-3.192395, 55.952923], [-3.192215, 55.953044], [-3.192086, 55.95302], [-3.191958, 55.953065], [-3.191304, 55.953066], [-3.190485, 55.953231], [-3.190372, 55.95317], [-3.189526, 55.953286], [-3.188095, 55.952651], [-3.187914, 55.952611], [-3.189483, 55.953286], [-3.188917, 55.953501], [-3.188719, 55.953549], [-3.18862, 55.953754], [-3.188509, 55.953879], [-3.188325, 55.953993], [-3.188064, 55.9541], [-3.188005, 55.954154], [-3.187908, 55.954174], [-3.187896, 55.954211], [-3.187544, 55.954411], [-3.187466, 55.954529], [-3.187356, 55.954591], [-3.187307, 55.954679], [-3.187173, 55.954788]]}, "properties": {"name": "1789141229.Edinburgh_whistlestop_tour", "cmt": "2026-09-11", "tstamp": 1789084800, "desc": "---", "src": "-3.192687/55.949476/-3.187173/55.955351", "bbox": "-3.192687/55.949476/-3.187173/55.955351"}}]}