{"type": "FeatureCollection", "name": "TrackSet", "crs": {"type": "name", "properties": {"name": "urn:ogc:def:crs:OGC:1.3:CRS84"}}, "bbox": [6.176572, 46.331725, 6.197502, 46.348054], "features": [{"type": "Feature", "bbox": [6.176572, 46.331725, 6.197502, 46.348054], "geometry": {"type": "LineString", "coordinates": [[6.192893, 46.332177], [6.192601, 46.33221], [6.192565, 46.332238], [6.192546, 46.332349], [6.192533, 46.332506], [6.192709, 46.332883], [6.192733, 46.333038], [6.192693, 46.333118], [6.192759, 46.333225], [6.19303, 46.333543], [6.193139, 46.333607], [6.19316, 46.333651], [6.193316, 46.333773], [6.193775, 46.333971], [6.194045, 46.334145], [6.194297, 46.334397], [6.194557, 46.334559], [6.194724, 46.334773], [6.194819, 46.334844], [6.194889, 46.334851], [6.194928, 46.334952], [6.195014, 46.334938], [6.195218, 46.335282], [6.195188, 46.335413], [6.194955, 46.335623], [6.19492, 46.335731], [6.194762, 46.335903], [6.194715, 46.336028], [6.194897, 46.33652], [6.194931, 46.336797], [6.194969, 46.336853], [6.194949, 46.336883], [6.195107, 46.337104], [6.195218, 46.337372], [6.195247, 46.337708], [6.195219, 46.337927], [6.195328, 46.338341], [6.195565, 46.338799], [6.195685, 46.338948], [6.195802, 46.339024], [6.195825, 46.339117], [6.195996, 46.339353], [6.196363, 46.34011], [6.196817, 46.340923], [6.197502, 46.341531], [6.197448, 46.341578], [6.197268, 46.341631], [6.196914, 46.341803], [6.196813, 46.34188], [6.195774, 46.342341], [6.195642, 46.342432], [6.195481, 46.342466], [6.19505, 46.34272], [6.194899, 46.342764], [6.194822, 46.342827], [6.194654, 46.342882], [6.194284, 46.343098], [6.193658, 46.343339], [6.193601, 46.343392], [6.193466, 46.343423], [6.193395, 46.343477], [6.193068, 46.34361], [6.192485, 46.343929], [6.192236, 46.344018], [6.191807, 46.344237], [6.191704, 46.344261], [6.191381, 46.344413], [6.190896, 46.344665], [6.190285, 46.344923], [6.190141, 46.34505], [6.189841, 46.345146], [6.189853, 46.345162], [6.189784, 46.345166], [6.18972, 46.345213], [6.189547, 46.345273], [6.189497, 46.345321], [6.18932, 46.345362], [6.189125, 46.345482], [6.188892, 46.345567], [6.188555, 46.345756], [6.188141, 46.345932], [6.188039, 46.34603], [6.187809, 46.346143], [6.187349, 46.346318], [6.187273, 46.346386], [6.186975, 46.346481], [6.186832, 46.346568], [6.1867, 46.346601], [6.186443, 46.346735], [6.186376, 46.346732], [6.186298, 46.346667], [6.186228, 46.346664], [6.185978, 46.346742], [6.185782, 46.34687], [6.185653, 46.346897], [6.185595, 46.346881], [6.185162, 46.34644], [6.18469, 46.346052], [6.184661, 46.345976], [6.18454, 46.345845], [6.184401, 46.345813], [6.18411, 46.345958], [6.183595, 46.346162], [6.182918, 46.346685], [6.182501, 46.346931], [6.182249, 46.347131], [6.181955, 46.347295], [6.18177, 46.347445], [6.18176, 46.347497], [6.181691, 46.347569], [6.181555, 46.34767], [6.181459, 46.347701], [6.18146, 46.34774], [6.181433, 46.347721], [6.181277, 46.347783], [6.18114, 46.347896], [6.180868, 46.347974], [6.180719, 46.348054], [6.180573, 46.347891], [6.180424, 46.347832], [6.179971, 46.347486], [6.179821, 46.347407], [6.179561, 46.347297], [6.179335, 46.34726], [6.179237, 46.347197], [6.179145, 46.347187], [6.17853, 46.346973], [6.178376, 46.346951], [6.177764, 46.346722], [6.177482, 46.346518], [6.177292, 46.34642], [6.177256, 46.346321], [6.176572, 46.345795], [6.17659, 46.345643], [6.176741, 46.34547], [6.176953, 46.345337], [6.177152, 46.345248], [6.177459, 46.345164], [6.177637, 46.345023], [6.177605, 46.344747], [6.177618, 46.344426], [6.177745, 46.343378], [6.177983, 46.343238], [6.178716, 46.34299], [6.178928, 46.34294], [6.179372, 46.342715], [6.179754, 46.342472], [6.179873, 46.342429], [6.180035, 46.342426], [6.180188, 46.342458], [6.180314, 46.342529], [6.180489, 46.34268], [6.18088, 46.342944], [6.180914, 46.343], [6.181516, 46.343466], [6.181559, 46.343534], [6.181744, 46.343593], [6.18187, 46.34357], [6.182, 46.343481], [6.18215, 46.343433], [6.182213, 46.343368], [6.182295, 46.343349], [6.182625, 46.343134], [6.182741, 46.343094], [6.182991, 46.342856], [6.183263, 46.34237], [6.183363, 46.342272], [6.184295, 46.341826], [6.184921, 46.341627], [6.185205, 46.341496], [6.185521, 46.341273], [6.185792, 46.341152], [6.186311, 46.340849], [6.186442, 46.340811], [6.186654, 46.340654], [6.186932, 46.340498], [6.187089, 46.340368], [6.188961, 46.339311], [6.189286, 46.339171], [6.189515, 46.339117], [6.1898, 46.339011], [6.189912, 46.339], [6.190097, 46.338879], [6.190294, 46.338732], [6.190593, 46.338444], [6.190907, 46.33798], [6.191023, 46.33788], [6.191048, 46.337811], [6.191317, 46.337484], [6.191335, 46.337372], [6.191497, 46.337171], [6.191686, 46.336837], [6.191747, 46.33661], [6.191716, 46.336575], [6.191707, 46.33641], [6.191333, 46.335849], [6.191207, 46.335559], [6.190863, 46.334982], [6.190751, 46.334676], [6.190679, 46.334596], [6.190349, 46.333983], [6.190104, 46.33362], [6.189985, 46.333328], [6.190005, 46.333267], [6.190145, 46.333177], [6.190587, 46.333141], [6.190711, 46.333099], [6.191195, 46.333084], [6.191691, 46.332995], [6.191815, 46.333016], [6.192059, 46.332992], [6.192263, 46.33293], [6.192555, 46.332881], [6.192675, 46.332718], [6.192612, 46.332507], [6.192656, 46.332412], [6.192654, 46.332287], [6.192759, 46.332194], [6.192998, 46.332139], [6.193061, 46.331957], [6.193582, 46.331855], [6.193647, 46.331809], [6.193814, 46.331799], [6.193961, 46.331873], [6.194128, 46.331871], [6.19428, 46.33183], [6.194304, 46.3318], [6.194273, 46.331725], [6.194231, 46.331777], [6.194258, 46.331748]]}, "properties": {"name": "1790950276.Founex_very_busy_chores_day_so_not_much_time_for_exercise", "cmt": "2026-10-02", "tstamp": 1790899200, "desc": "---", "src": "6.176572/46.331725/6.197502/46.348054", "bbox": "6.176572/46.331725/6.197502/46.348054"}}]}