{"type": "FeatureCollection", "name": "TrackSet", "crs": {"type": "name", "properties": {"name": "urn:ogc:def:crs:OGC:1.3:CRS84"}}, "bbox": [9.550999, 46.733179, 9.557683, 46.74445], "features": [{"type": "Feature", "bbox": [9.550999, 46.733179, 9.557683, 46.74445], "geometry": {"type": "LineString", "coordinates": [[9.556612, 46.739574], [9.556588, 46.739579], [9.556631, 46.739641], [9.556614, 46.739683], [9.556783, 46.739717], [9.556848, 46.739753], [9.556848, 46.739788], [9.556844, 46.739665], [9.556784, 46.739646], [9.55634, 46.739715], [9.556137, 46.739858], [9.556097, 46.739861], [9.55603, 46.74001], [9.556096, 46.740026], [9.556247, 46.740007], [9.55629, 46.740047], [9.556276, 46.740076], [9.556153, 46.740113], [9.556089, 46.740162], [9.556109, 46.740133], [9.556208, 46.740103], [9.556256, 46.740029], [9.55613, 46.740074], [9.55612, 46.74006], [9.555912, 46.740091], [9.556007, 46.74001], [9.556006, 46.739906], [9.555849, 46.739992], [9.555876, 46.740019], [9.555774, 46.740046], [9.555669, 46.740171], [9.555608, 46.740346], [9.555489, 46.740484], [9.55536, 46.740573], [9.555273, 46.740918], [9.555089, 46.741149], [9.555079, 46.741238], [9.555224, 46.741476], [9.555258, 46.741694], [9.55522, 46.741912], [9.555121, 46.74206], [9.555063, 46.742426], [9.554953, 46.74266], [9.554989, 46.742706], [9.554966, 46.742729], [9.555061, 46.742833], [9.55503, 46.742917], [9.555081, 46.742961], [9.555054, 46.742968], [9.555079, 46.742967], [9.555067, 46.742941], [9.555079, 46.742978], [9.555066, 46.74295], [9.555092, 46.742957], [9.555053, 46.742971], [9.555113, 46.742938], [9.555071, 46.74291], [9.555051, 46.742934], [9.555077, 46.74292], [9.555054, 46.742942], [9.55511, 46.742946], [9.555079, 46.742934], [9.555105, 46.742982], [9.554987, 46.742943], [9.555009, 46.742904], [9.555054, 46.742906], [9.555118, 46.742932], [9.555134, 46.742987], [9.555165, 46.742976], [9.555205, 46.743144], [9.555266, 46.74318], [9.555287, 46.743282], [9.555361, 46.743379], [9.555362, 46.743455], [9.555422, 46.743545], [9.555547, 46.743622], [9.555507, 46.743621], [9.555515, 46.743662], [9.555613, 46.743745], [9.55539, 46.743957], [9.555232, 46.744039], [9.555114, 46.744012], [9.555031, 46.744022], [9.5548, 46.744137], [9.554313, 46.744153], [9.554085, 46.744083], [9.553717, 46.744174], [9.553628, 46.744173], [9.553385, 46.74409], [9.55326, 46.74409], [9.553146, 46.744026], [9.552768, 46.744001], [9.552408, 46.744087], [9.552288, 46.74408], [9.552201, 46.744133], [9.551973, 46.744153], [9.55188, 46.744199], [9.551867, 46.744235], [9.551899, 46.744263], [9.551877, 46.744275], [9.5518, 46.744237], [9.551815, 46.744262], [9.551834, 46.744252], [9.551805, 46.74426], [9.551832, 46.744246], [9.551814, 46.744256], [9.551851, 46.744262], [9.551813, 46.74424], [9.551813, 46.744278], [9.551842, 46.744255], [9.55185, 46.744272], [9.551814, 46.74426], [9.551851, 46.744267], [9.55183, 46.74429], [9.551828, 46.744245], [9.551666, 46.744244], [9.5515, 46.744204], [9.551103, 46.744235], [9.551023, 46.744357], [9.551034, 46.744381], [9.55106, 46.744367], [9.551042, 46.744352], [9.551069, 46.744371], [9.551046, 46.74445], [9.551025, 46.744376], [9.551051, 46.744377], [9.551038, 46.744409], [9.551011, 46.744374], [9.551068, 46.74443], [9.550999, 46.74436], [9.551065, 46.744362], [9.551032, 46.744393], [9.551085, 46.744441], [9.551037, 46.744398], [9.551096, 46.744414], [9.551076, 46.744423], [9.551066, 46.744368], [9.551041, 46.744372], [9.55113, 46.744365], [9.551315, 46.744171], [9.551586, 46.744022], [9.551689, 46.743895], [9.551772, 46.743874], [9.551851, 46.743748], [9.551631, 46.743595], [9.551694, 46.743514], [9.551717, 46.743531], [9.551792, 46.743511], [9.55191, 46.743372], [9.552054, 46.743283], [9.552221, 46.74326], [9.552348, 46.743211], [9.552526, 46.743197], [9.552571, 46.743153], [9.55263, 46.743148], [9.552879, 46.743202], [9.553034, 46.743277], [9.553261, 46.743311], [9.553518, 46.743412], [9.553589, 46.74341], [9.553723, 46.743326], [9.553787, 46.743313], [9.554014, 46.743354], [9.554083, 46.743403], [9.554189, 46.74338], [9.554194, 46.743314], [9.554081, 46.743209], [9.553964, 46.743027], [9.553943, 46.742954], [9.553989, 46.74286], [9.553909, 46.742752], [9.553974, 46.74269], [9.553916, 46.74269], [9.554019, 46.742674], [9.554228, 46.742751], [9.554788, 46.742819], [9.554958, 46.742815], [9.554978, 46.742797], [9.555124, 46.742496], [9.555136, 46.742456], [9.555097, 46.742381], [9.555168, 46.742291], [9.55518, 46.742075], [9.555233, 46.742007], [9.555223, 46.741894], [9.555278, 46.741807], [9.555278, 46.741543], [9.555188, 46.741361], [9.555155, 46.741166], [9.555299, 46.74097], [9.555417, 46.740588], [9.555598, 46.740441], [9.555726, 46.74022], [9.55585, 46.740075], [9.555914, 46.740062], [9.556166, 46.740103], [9.55613, 46.740117], [9.556154, 46.74013], [9.556258, 46.740047], [9.556276, 46.740085], [9.556144, 46.740094], [9.556077, 46.740164], [9.556158, 46.740116], [9.556338, 46.74011], [9.556376, 46.74003], [9.556445, 46.740021], [9.556567, 46.739958], [9.556754, 46.739937], [9.556781, 46.739858], [9.556872, 46.739838], [9.556932, 46.739786], [9.557084, 46.739786], [9.557137, 46.739815], [9.557362, 46.739777], [9.557537, 46.739688], [9.557631, 46.739578], [9.557624, 46.739519], [9.557646, 46.73952], [9.55759, 46.739535], [9.557622, 46.739553], [9.557683, 46.739536], [9.557588, 46.739514], [9.557538, 46.739535], [9.557551, 46.739493], [9.557513, 46.739581], [9.557308, 46.739737], [9.557124, 46.739792], [9.556968, 46.739791], [9.556976, 46.739727], [9.557171, 46.739556], [9.557201, 46.739497], [9.557223, 46.739387], [9.55719, 46.739282], [9.557089, 46.739134], [9.556926, 46.739024], [9.556769, 46.738857], [9.556724, 46.738764], [9.556528, 46.73858], [9.556306, 46.738237], [9.556215, 46.738185], [9.556183, 46.738008], [9.556201, 46.737611], [9.556172, 46.737318], [9.556221, 46.736579], [9.55632, 46.736373], [9.556254, 46.735958], [9.556277, 46.73564], [9.55608, 46.734609], [9.556114, 46.734312], [9.556271, 46.733586], [9.556201, 46.733553], [9.556216, 46.733179], [9.556, 46.733267], [9.555958, 46.733222], [9.55623, 46.733561]]}, "properties": {"name": "1790431954.Afternoon_Walk", "cmt": "2026-09-26", "tstamp": 1790380800, "desc": "---", "src": "9.550999/46.733179/9.557683/46.74445", "bbox": "9.550999/46.733179/9.557683/46.74445"}}]}