{"type": "FeatureCollection", "name": "TrackSet", "crs": {"type": "name", "properties": {"name": "urn:ogc:def:crs:OGC:1.3:CRS84"}}, "bbox": [9.21516, 47.112185, 9.219038, 47.115455], "features": [{"type": "Feature", "bbox": [9.21516, 47.112185, 9.219038, 47.115455], "geometry": {"type": "LineString", "coordinates": [[9.218592, 47.112185], [9.217979, 47.112422], [9.217505, 47.11251], [9.217347, 47.112599], [9.217198, 47.112645], [9.217219, 47.112687], [9.217151, 47.112766], [9.217039, 47.112754], [9.217218, 47.112812], [9.217357, 47.112938], [9.217377, 47.11306], [9.217549, 47.113248], [9.217681, 47.113313], [9.217747, 47.113316], [9.21773, 47.11338], [9.21785, 47.113405], [9.218057, 47.113497], [9.21798, 47.113549], [9.217874, 47.113712], [9.217789, 47.113741], [9.217716, 47.113818], [9.217952, 47.114309], [9.21801, 47.114451], [9.218001, 47.114507], [9.218051, 47.114536], [9.217994, 47.114487], [9.217889, 47.11455], [9.217598, 47.114648], [9.217282, 47.11481], [9.216822, 47.114916], [9.21669, 47.114988], [9.216398, 47.115062], [9.216398, 47.115086], [9.215913, 47.115073], [9.215704, 47.115093], [9.21566, 47.11519], [9.215708, 47.115191], [9.215857, 47.115288], [9.216054, 47.115455], [9.215772, 47.115198], [9.215695, 47.115166], [9.215686, 47.115096], [9.215609, 47.11508], [9.215425, 47.115097], [9.21516, 47.115046], [9.215168, 47.114936], [9.215272, 47.114851], [9.215493, 47.11478], [9.215951, 47.114786], [9.215983, 47.114752], [9.216125, 47.114806], [9.216191, 47.114782], [9.216391, 47.114781], [9.21666, 47.114826], [9.217102, 47.114847], [9.217251, 47.114814], [9.217972, 47.114505], [9.218024, 47.114417], [9.217862, 47.114164], [9.217754, 47.113767], [9.217805, 47.113741], [9.217942, 47.11374], [9.218001, 47.113711], [9.218132, 47.113725], [9.218264, 47.113773], [9.218402, 47.113739], [9.218268, 47.113751], [9.218199, 47.113704], [9.218287, 47.113482], [9.218431, 47.113423], [9.218553, 47.113257], [9.218584, 47.113276], [9.218567, 47.11326], [9.218628, 47.113218], [9.218633, 47.113164], [9.218802, 47.113159], [9.218815, 47.11309], [9.21898, 47.113079], [9.219038, 47.113042], [9.218817, 47.113045], [9.218742, 47.113075], [9.218613, 47.113143], [9.218407, 47.113387], [9.218316, 47.113448], [9.218135, 47.113492], [9.218045, 47.113484], [9.218003, 47.113444], [9.217719, 47.113331], [9.217494, 47.113151], [9.217436, 47.113153], [9.217466, 47.113064], [9.217408, 47.113053], [9.217353, 47.11292], [9.217229, 47.112804], [9.217204, 47.112762], [9.217223, 47.112702], [9.217426, 47.112574], [9.217516, 47.11255], [9.217652, 47.112555], [9.217894, 47.112491], [9.217982, 47.112422], [9.218218, 47.112371], [9.218496, 47.112226], [9.218648, 47.112216], [9.218663, 47.112301], [9.218664, 47.112239], [9.218741, 47.112231], [9.218966, 47.112378]]}, "properties": {"name": "1790315487.Murg_pre_breakfast_fresh_air", "cmt": "2026-09-25", "tstamp": 1790294400, "desc": "---", "src": "9.21516/47.112185/9.219038/47.115455", "bbox": "9.21516/47.112185/9.219038/47.115455"}}]}