{"type": "FeatureCollection", "name": "TrackSet", "crs": {"type": "name", "properties": {"name": "urn:ogc:def:crs:OGC:1.3:CRS84"}}, "bbox": [6.8738, 45.939791, 6.897559, 45.951651], "features": [{"type": "Feature", "bbox": [6.8738, 45.939791, 6.897559, 45.951651], "geometry": {"type": "LineString", "coordinates": [[6.896809, 45.951154], [6.896729, 45.951165], [6.896531, 45.951076], [6.896555, 45.95106], [6.896453, 45.951013], [6.896435, 45.95097], [6.896358, 45.950944], [6.896316, 45.950863], [6.896142, 45.950731], [6.896129, 45.950758], [6.896097, 45.950659], [6.896044, 45.950619], [6.896059, 45.950556], [6.896014, 45.950473], [6.896022, 45.950155], [6.895937, 45.950103], [6.89559, 45.949694], [6.895283, 45.949418], [6.895206, 45.949409], [6.895066, 45.94944], [6.894935, 45.949526], [6.894835, 45.949514], [6.894658, 45.949624], [6.894476, 45.949681], [6.894352, 45.949754], [6.894261, 45.949765], [6.894114, 45.949858], [6.893849, 45.949942], [6.893791, 45.950045], [6.893707, 45.950058], [6.893524, 45.950148], [6.893509, 45.950252], [6.89343, 45.950266], [6.893375, 45.950228], [6.893085, 45.950172], [6.892873, 45.950069], [6.892645, 45.949913], [6.892636, 45.949817], [6.892584, 45.949779], [6.892475, 45.949765], [6.892425, 45.949708], [6.892316, 45.949657], [6.892071, 45.949599], [6.891989, 45.949529], [6.891979, 45.949484], [6.891906, 45.949466], [6.891888, 45.949436], [6.891654, 45.949459], [6.891539, 45.949376], [6.891493, 45.949253], [6.891391, 45.949205], [6.891343, 45.949041], [6.89123, 45.948912], [6.891106, 45.948867], [6.890961, 45.948766], [6.890835, 45.948584], [6.890743, 45.948512], [6.890704, 45.948242], [6.890652, 45.94816], [6.890682, 45.948083], [6.890656, 45.94804], [6.890462, 45.947965], [6.890281, 45.947834], [6.890115, 45.947799], [6.889973, 45.947847], [6.889929, 45.947912], [6.889944, 45.948008], [6.88989, 45.948051], [6.889708, 45.948014], [6.8896, 45.947955], [6.889585, 45.947893], [6.889445, 45.947713], [6.889309, 45.947643], [6.889084, 45.947598], [6.888931, 45.947491], [6.888844, 45.947485], [6.888712, 45.947424], [6.888595, 45.947421], [6.888552, 45.947374], [6.888423, 45.947356], [6.888386, 45.947299], [6.888211, 45.947281], [6.888019, 45.947214], [6.887959, 45.947167], [6.887791, 45.94714], [6.887797, 45.947225], [6.887632, 45.947078], [6.887529, 45.947039], [6.887419, 45.946929], [6.887279, 45.946857], [6.887215, 45.94678], [6.886823, 45.946626], [6.886788, 45.946586], [6.88665, 45.946541], [6.886346, 45.946504], [6.886158, 45.946456], [6.885713, 45.94628], [6.88548, 45.946144], [6.885329, 45.946102], [6.885219, 45.946039], [6.885167, 45.946041], [6.885143, 45.946006], [6.884818, 45.945916], [6.884714, 45.945914], [6.88465, 45.94586], [6.884243, 45.945811], [6.88418, 45.945761], [6.884065, 45.945753], [6.884028, 45.945726], [6.88378, 45.945725], [6.883591, 45.94563], [6.883545, 45.94564], [6.883268, 45.945586], [6.883249, 45.945544], [6.883138, 45.945495], [6.882965, 45.945352], [6.882932, 45.945271], [6.882877, 45.945268], [6.882768, 45.945145], [6.882497, 45.944928], [6.882459, 45.944826], [6.882299, 45.944629], [6.882295, 45.944516], [6.882192, 45.944497], [6.882172, 45.944403], [6.882057, 45.944312], [6.88206, 45.944261], [6.881999, 45.944183], [6.882004, 45.944014], [6.881949, 45.943864], [6.881971, 45.943824], [6.88191, 45.94377], [6.881884, 45.943692], [6.881907, 45.94363], [6.881867, 45.943432], [6.881874, 45.943264], [6.881815, 45.94304], [6.881791, 45.943034], [6.881801, 45.942932], [6.881682, 45.942822], [6.881349, 45.942738], [6.881304, 45.942685], [6.881038, 45.942613], [6.880923, 45.94255], [6.880839, 45.942567], [6.880723, 45.942513], [6.88066, 45.942544], [6.880565, 45.942495], [6.88027, 45.942486], [6.880045, 45.942383], [6.879955, 45.942367], [6.879884, 45.942381], [6.879818, 45.94233], [6.879646, 45.942325], [6.87951, 45.942285], [6.879424, 45.942199], [6.879454, 45.942045], [6.879429, 45.941995], [6.879374, 45.941963], [6.87937, 45.941927], [6.879154, 45.94182], [6.879096, 45.941722], [6.879044, 45.941715], [6.879009, 45.94167], [6.878923, 45.941656], [6.878911, 45.941629], [6.878788, 45.941577], [6.878673, 45.941453], [6.878592, 45.941437], [6.878548, 45.941396], [6.878456, 45.941384], [6.878442, 45.941347], [6.878261, 45.941277], [6.878151, 45.941173], [6.878078, 45.941162], [6.878006, 45.941113], [6.877953, 45.941122], [6.877848, 45.941053], [6.87771, 45.941025], [6.877576, 45.940942], [6.877283, 45.940905], [6.877256, 45.940884], [6.877207, 45.940897], [6.877133, 45.940865], [6.877007, 45.940908], [6.876891, 45.940865], [6.876786, 45.940865], [6.876693, 45.940876], [6.876643, 45.940909], [6.876322, 45.940929], [6.876047, 45.940999], [6.875965, 45.94096], [6.8759, 45.940964], [6.87569, 45.940831], [6.875518, 45.940764], [6.875437, 45.940618], [6.875329, 45.940586], [6.875227, 45.940593], [6.874772, 45.940357], [6.874805, 45.940294], [6.874797, 45.940222], [6.874746, 45.940184], [6.874635, 45.940175], [6.87459, 45.940113], [6.874337, 45.939934], [6.87429, 45.939909], [6.874215, 45.939909], [6.874215, 45.93985], [6.874061, 45.939838], [6.87398, 45.939792], [6.873892, 45.939791], [6.8738, 45.939827], [6.873874, 45.939932], [6.873985, 45.94001], [6.874015, 45.940003], [6.874017, 45.940052], [6.87416, 45.940238], [6.874174, 45.940319], [6.874313, 45.94054]]}, "properties": {"name": "1790774427.Chamonix_dog_walk_wiith_Jane", "cmt": "2026-09-30", "tstamp": 1790726400, "desc": "UpHill", "src": "6.8738/45.939791/6.897559/45.951651", "bbox": "6.8738/45.939791/6.897559/45.951651"}}, {"type": "Feature", "bbox": [6.8738, 45.939791, 6.897559, 45.951651], "geometry": {"type": "LineString", "coordinates": [[6.874324, 45.940549], [6.874373, 45.940572], [6.87442, 45.940537], [6.874448, 45.940563], [6.874408, 45.94056], [6.874434, 45.940612], [6.874463, 45.940634], [6.874536, 45.940631], [6.874519, 45.940655], [6.874555, 45.940651], [6.874642, 45.940705], [6.874784, 45.940899], [6.874876, 45.94095], [6.874998, 45.940979], [6.875111, 45.941112], [6.875356, 45.941193], [6.875436, 45.941413], [6.875608, 45.941525], [6.875678, 45.941751], [6.875893, 45.9419], [6.875932, 45.94197], [6.876238, 45.942062], [6.876546, 45.942287], [6.876647, 45.942422], [6.8769, 45.942518], [6.876961, 45.942608], [6.877169, 45.942738], [6.877385, 45.942792], [6.877515, 45.942927], [6.877597, 45.942967], [6.877668, 45.94307], [6.877976, 45.943298], [6.878214, 45.943586], [6.878274, 45.943611], [6.878293, 45.9437], [6.878346, 45.943718], [6.878409, 45.943788], [6.878418, 45.943869], [6.878582, 45.944015], [6.87877, 45.944378], [6.878915, 45.944459], [6.878999, 45.944446], [6.879101, 45.94453], [6.879104, 45.944625], [6.87921, 45.944669], [6.879254, 45.944747], [6.879236, 45.944781], [6.879271, 45.944881], [6.879361, 45.944995], [6.879435, 45.945027], [6.879532, 45.945032], [6.879743, 45.945164], [6.879855, 45.945351], [6.879991, 45.945445], [6.88013, 45.94549], [6.880364, 45.94566], [6.880584, 45.945706], [6.880681, 45.945766], [6.880863, 45.945951], [6.88099, 45.946022], [6.881211, 45.946237], [6.881264, 45.946251], [6.8814, 45.946378], [6.881502, 45.946616], [6.881651, 45.946687], [6.881717, 45.946751], [6.881876, 45.94677], [6.882189, 45.947021], [6.882349, 45.947061], [6.882726, 45.94728], [6.882891, 45.947292], [6.88298, 45.947362], [6.882989, 45.947416], [6.883199, 45.947519], [6.883259, 45.947499], [6.883355, 45.947549], [6.88343, 45.947536], [6.883518, 45.947603], [6.883573, 45.947603], [6.883688, 45.947673], [6.883719, 45.947667], [6.883797, 45.947734], [6.883837, 45.947843], [6.883944, 45.947835], [6.88412, 45.947862], [6.884318, 45.947981], [6.884391, 45.947982], [6.884536, 45.948036], [6.884656, 45.948128], [6.884784, 45.948179], [6.884863, 45.94826], [6.88494, 45.948272], [6.885019, 45.948346], [6.885255, 45.948448], [6.885356, 45.948543], [6.88543, 45.948552], [6.885519, 45.94863], [6.885518, 45.948675], [6.88556, 45.948713], [6.885667, 45.94874], [6.885813, 45.948835], [6.885927, 45.94887], [6.886002, 45.94894], [6.885995, 45.948971], [6.886042, 45.948973], [6.886174, 45.949068], [6.886216, 45.949142], [6.886548, 45.949256], [6.886686, 45.949348], [6.886707, 45.949403], [6.886764, 45.949435], [6.886831, 45.949438], [6.886882, 45.949494], [6.88702, 45.949539], [6.887254, 45.949554], [6.887557, 45.949649], [6.887667, 45.949638], [6.887763, 45.949703], [6.887938, 45.94974], [6.888034, 45.949823], [6.888133, 45.949823], [6.888187, 45.949858], [6.888332, 45.949892], [6.888495, 45.949988], [6.888662, 45.950035], [6.888719, 45.950028], [6.889181, 45.950308], [6.889463, 45.950377], [6.88972, 45.950577], [6.889886, 45.950638], [6.889995, 45.950717], [6.890294, 45.950808], [6.890359, 45.950871], [6.890629, 45.950942], [6.890861, 45.951061], [6.890951, 45.951064], [6.891128, 45.951179], [6.891231, 45.95117], [6.89142, 45.951198], [6.891887, 45.951348], [6.891962, 45.951334], [6.892122, 45.95138], [6.892195, 45.951372], [6.892304, 45.95144], [6.892418, 45.951446], [6.892573, 45.951503], [6.892668, 45.951502], [6.892722, 45.95154], [6.892906, 45.951572], [6.892942, 45.951602], [6.893107, 45.951607], [6.893264, 45.951651], [6.893448, 45.951648], [6.893464, 45.951623], [6.89346, 45.951593], [6.89333, 45.951492], [6.893187, 45.95144], [6.893174, 45.951405], [6.893078, 45.951368], [6.892935, 45.951195], [6.892834, 45.951179], [6.892668, 45.95109], [6.892581, 45.95101], [6.892572, 45.950922], [6.892188, 45.950764], [6.892116, 45.950607], [6.892018, 45.950549], [6.891951, 45.950471], [6.891786, 45.950391], [6.891667, 45.950285], [6.891565, 45.950129], [6.891557, 45.95007], [6.891449, 45.949993], [6.891377, 45.949883], [6.891153, 45.949816], [6.89105, 45.94971], [6.891026, 45.949538]]}, "properties": {"name": "1790774427.Chamonix_dog_walk_wiith_Jane", "cmt": "2026-09-30", "tstamp": 1790726400, "desc": "DownHill", "src": "6.8738/45.939791/6.897559/45.951651", "bbox": "6.8738/45.939791/6.897559/45.951651"}}, {"type": "Feature", "bbox": [6.8738, 45.939791, 6.897559, 45.951651], "geometry": {"type": "LineString", "coordinates": [[6.891027, 45.949524], [6.891029, 45.94949], [6.891096, 45.949449], [6.891243, 45.949413], [6.891315, 45.949335], [6.891294, 45.949202], [6.891374, 45.949181], [6.891455, 45.949232], [6.891575, 45.949369], [6.891657, 45.949348], [6.891699, 45.949398], [6.891784, 45.949377], [6.891873, 45.949431], [6.891926, 45.949498], [6.891922, 45.949557], [6.891967, 45.949593], [6.891941, 45.949561], [6.8919, 45.949586], [6.891947, 45.94958], [6.89187, 45.949605], [6.891948, 45.949572], [6.891971, 45.949657], [6.891936, 45.949666], [6.891959, 45.949656], [6.891993, 45.949699], [6.891994, 45.949655], [6.892228, 45.949688], [6.892197, 45.949675], [6.89227, 45.94955], [6.891962, 45.949511], [6.891963, 45.949579], [6.892036, 45.949613], [6.892021, 45.949635], [6.892091, 45.949643], [6.892091, 45.949675], [6.892142, 45.949699], [6.892235, 45.949671], [6.892437, 45.949761], [6.892542, 45.949912], [6.89266, 45.949993], [6.892711, 45.949994], [6.8927, 45.950023], [6.892749, 45.950058], [6.892674, 45.950042], [6.892647, 45.950059], [6.892727, 45.950102], [6.892659, 45.950125], [6.892716, 45.950054], [6.892739, 45.950081], [6.892723, 45.950063], [6.892717, 45.950102], [6.892792, 45.950109], [6.892875, 45.950225], [6.893008, 45.950294], [6.89309, 45.950253], [6.893419, 45.9503], [6.893621, 45.950118], [6.893875, 45.950032], [6.894569, 45.949662], [6.894717, 45.949623], [6.894767, 45.949583], [6.894906, 45.949564], [6.894935, 45.949511], [6.89506, 45.949493], [6.895087, 45.949464], [6.895204, 45.949435], [6.895307, 45.949495], [6.895391, 45.949589], [6.895446, 45.949603], [6.895926, 45.950074], [6.895983, 45.95021], [6.895967, 45.950512], [6.896059, 45.950621], [6.896084, 45.950733], [6.896436, 45.950991], [6.896443, 45.95102], [6.896639, 45.951105], [6.896873, 45.951153], [6.897104, 45.951084], [6.897148, 45.951027], [6.897108, 45.95099], [6.897135, 45.950989], [6.897141, 45.950959], [6.897221, 45.950951], [6.897297, 45.950993], [6.897272, 45.95097], [6.897304, 45.950867], [6.89727, 45.950882], [6.897298, 45.950939], [6.897323, 45.950916], [6.897394, 45.950915], [6.897358, 45.950905], [6.897364, 45.950873], [6.897377, 45.950903], [6.897308, 45.951007], [6.897302, 45.951117], [6.897357, 45.951167], [6.897424, 45.951156], [6.897487, 45.951117], [6.897458, 45.950952], [6.89731, 45.950868], [6.897296, 45.950829], [6.897405, 45.950818], [6.897429, 45.950838], [6.897458, 45.950977], [6.897483, 45.950962], [6.897443, 45.950837], [6.897559, 45.950673], [6.897516, 45.950692], [6.897543, 45.950693], [6.897515, 45.950682], [6.89721, 45.950739], [6.897527, 45.950723], [6.897372, 45.950722], [6.897466, 45.951089]]}, "properties": {"name": "1790774427.Chamonix_dog_walk_wiith_Jane", "cmt": "2026-09-30", "tstamp": 1790726400, "desc": "UpHill", "src": "6.8738/45.939791/6.897559/45.951651", "bbox": "6.8738/45.939791/6.897559/45.951651"}}]}