{"type": "FeatureCollection", "name": "TrackSet", "crs": {"type": "name", "properties": {"name": "urn:ogc:def:crs:OGC:1.3:CRS84"}}, "bbox": [9.340953, 46.829989, 9.416649, 46.89904], "features": [{"type": "Feature", "bbox": [9.340953, 46.829989, 9.416649, 46.89904], "geometry": {"type": "LineString", "coordinates": [[9.38058, 46.865788], [9.380653, 46.865772], [9.380615, 46.865734], [9.380563, 46.865756], [9.380537, 46.865686], [9.380459, 46.865651], [9.380365, 46.865714], [9.380302, 46.865706], [9.380198, 46.865755], [9.37994, 46.865806], [9.379785, 46.865884], [9.3795, 46.866166], [9.379032, 46.866476], [9.378968, 46.866727], [9.378979, 46.866898], [9.379036, 46.867008], [9.378963, 46.867281], [9.378981, 46.867371], [9.378902, 46.867459], [9.378789, 46.867719], [9.378799, 46.86776], [9.378703, 46.867899], [9.378663, 46.867909], [9.37867, 46.867952], [9.378611, 46.868055], [9.378621, 46.868148], [9.378565, 46.868382], [9.37844, 46.868506], [9.37786, 46.868737], [9.377625, 46.868944], [9.377522, 46.868989], [9.377494, 46.869051], [9.377347, 46.86913], [9.37727, 46.869203], [9.377054, 46.869279], [9.376972, 46.869343], [9.376931, 46.869433], [9.377018, 46.86951], [9.377082, 46.869701], [9.377063, 46.869817], [9.376941, 46.870089], [9.376815, 46.870275], [9.376721, 46.870333], [9.376675, 46.870457], [9.376553, 46.870563], [9.376417, 46.870754], [9.376404, 46.870836], [9.37621, 46.871013], [9.37614, 46.871136], [9.376094, 46.871358], [9.376016, 46.871439], [9.375976, 46.871549], [9.375958, 46.871749], [9.375904, 46.8719], [9.375534, 46.872284], [9.375399, 46.87249], [9.375175, 46.872638], [9.374805, 46.872747], [9.374653, 46.872756], [9.374406, 46.872886], [9.374315, 46.872892], [9.374255, 46.872954], [9.374206, 46.872955], [9.374143, 46.872999], [9.374044, 46.873149], [9.37396, 46.873165], [9.373899, 46.873214], [9.373882, 46.873268], [9.373741, 46.873339], [9.373747, 46.87338], [9.373548, 46.873504], [9.373426, 46.873552], [9.373318, 46.873556], [9.373196, 46.873648], [9.373082, 46.873682], [9.373098, 46.873693], [9.373067, 46.873605], [9.372986, 46.873625], [9.372923, 46.873609], [9.372896, 46.873673], [9.372657, 46.873777], [9.372596, 46.873856], [9.372522, 46.873865], [9.372263, 46.87408], [9.372222, 46.87415], [9.372118, 46.874169], [9.372092, 46.874229], [9.37203, 46.874245], [9.371872, 46.874353], [9.371891, 46.874377], [9.371727, 46.87448], [9.371701, 46.874474], [9.371637, 46.874554], [9.371598, 46.874549], [9.371527, 46.874585], [9.37151, 46.874556], [9.371548, 46.874507], [9.371497, 46.874435], [9.371362, 46.874443], [9.371125, 46.874526], [9.371017, 46.874537], [9.370762, 46.874517], [9.370758, 46.874457], [9.370699, 46.874503], [9.370599, 46.874494], [9.370338, 46.874665], [9.370312, 46.874652], [9.370246, 46.874672], [9.37001, 46.87481], [9.369699, 46.874881], [9.369643, 46.874943], [9.369452, 46.875059], [9.369381, 46.875058], [9.369156, 46.875161], [9.369049, 46.875246], [9.368938, 46.87529], [9.368848, 46.875401], [9.368781, 46.875403], [9.368762, 46.87543], [9.368571, 46.875489], [9.36849, 46.875477], [9.368413, 46.875538], [9.368385, 46.875517], [9.36824, 46.875593], [9.36817, 46.875598], [9.368199, 46.87561], [9.368144, 46.875629], [9.368168, 46.875654], [9.368005, 46.875712], [9.367875, 46.875889], [9.367911, 46.87593], [9.367853, 46.876031], [9.367915, 46.876103], [9.367918, 46.876174], [9.367744, 46.876363], [9.367734, 46.876451], [9.367483, 46.876574], [9.367425, 46.876647], [9.367183, 46.876788], [9.367215, 46.876826], [9.367127, 46.876901], [9.366886, 46.877007], [9.366803, 46.877084], [9.36673, 46.877112], [9.366612, 46.877234], [9.366548, 46.877244], [9.366487, 46.877336], [9.366318, 46.877417], [9.366344, 46.877429], [9.366273, 46.87754], [9.366322, 46.877599], [9.366278, 46.877638], [9.366309, 46.8777], [9.366271, 46.877741], [9.366267, 46.877823], [9.36622, 46.877868], [9.366273, 46.877896], [9.366249, 46.877947], [9.36614, 46.877996], [9.365923, 46.878188], [9.365889, 46.878178], [9.365825, 46.878224], [9.365765, 46.878218], [9.365756, 46.878344], [9.365772, 46.878328], [9.36573, 46.878318], [9.365669, 46.878351], [9.365688, 46.878306], [9.365559, 46.878326], [9.365485, 46.878364], [9.365484, 46.878341], [9.365286, 46.878368], [9.365238, 46.878455], [9.365084, 46.878529], [9.364744, 46.878578], [9.364718, 46.878646], [9.364637, 46.878701], [9.364582, 46.878818], [9.364433, 46.878922], [9.364388, 46.879018], [9.364293, 46.879112], [9.364275, 46.87918], [9.364184, 46.879272], [9.364206, 46.879339], [9.364166, 46.879435], [9.364028, 46.87965], [9.36395, 46.879867], [9.363781, 46.880036], [9.36379, 46.880095], [9.363744, 46.880207], [9.363621, 46.880276], [9.363503, 46.880307], [9.363468, 46.880354], [9.363403, 46.880369], [9.363356, 46.880436], [9.36318, 46.880496], [9.36311, 46.880574], [9.363011, 46.880581], [9.362961, 46.880643], [9.36257, 46.880754], [9.362443, 46.880869], [9.362358, 46.880883], [9.362126, 46.881066], [9.362079, 46.881161], [9.361954, 46.881217], [9.361918, 46.8813], [9.361939, 46.881305], [9.361859, 46.881398], [9.361612, 46.881555], [9.361566, 46.881612], [9.361579, 46.881675], [9.361736, 46.881738], [9.361687, 46.881737], [9.361679, 46.881769], [9.361719, 46.881834], [9.361655, 46.881903], [9.361613, 46.881885], [9.36134, 46.881991], [9.361278, 46.882115], [9.361157, 46.882168], [9.360968, 46.882317], [9.36078, 46.882548], [9.360719, 46.882539], [9.360721, 46.882599], [9.360685, 46.882639], [9.360716, 46.882618], [9.360787, 46.882693], [9.360751, 46.882697], [9.360732, 46.882663], [9.360576, 46.882718], [9.360574, 46.882826], [9.360484, 46.882856], [9.360473, 46.882975], [9.360551, 46.883034], [9.360488, 46.883056], [9.360504, 46.883169], [9.360494, 46.883152], [9.360442, 46.883191], [9.360427, 46.883239], [9.360358, 46.883243], [9.360307, 46.883334], [9.360289, 46.883321], [9.36025, 46.883342], [9.360268, 46.883397], [9.360226, 46.883405], [9.360151, 46.883484], [9.360157, 46.883512], [9.360073, 46.883548], [9.360063, 46.883593], [9.359955, 46.883639], [9.359878, 46.883733], [9.359777, 46.883757], [9.359709, 46.883808], [9.359684, 46.883973], [9.359726, 46.884004], [9.359786, 46.884148], [9.35972, 46.884258], [9.359739, 46.884319], [9.359693, 46.884328], [9.359635, 46.884437], [9.359519, 46.884518], [9.359531, 46.884549], [9.359346, 46.884632], [9.35939, 46.884663], [9.359316, 46.884776], [9.359367, 46.884791], [9.359361, 46.884815], [9.359333, 46.884805], [9.359326, 46.884827], [9.359251, 46.884839], [9.359134, 46.884949], [9.359105, 46.885035], [9.359036, 46.885063], [9.359029, 46.885107], [9.358983, 46.885125], [9.35893, 46.885204], [9.358907, 46.885193], [9.358822, 46.885227], [9.358732, 46.885314], [9.358548, 46.885367], [9.358509, 46.885323], [9.35823, 46.885359], [9.358005, 46.885441], [9.357957, 46.885493], [9.357813, 46.885562], [9.357699, 46.885575], [9.357449, 46.885663], [9.357262, 46.885845], [9.357133, 46.885898], [9.357016, 46.885986], [9.356877, 46.88602], [9.356894, 46.886059], [9.356796, 46.886063], [9.356688, 46.88611], [9.356672, 46.886157], [9.356564, 46.886212], [9.356597, 46.886257], [9.356505, 46.886268], [9.356445, 46.88625], [9.356417, 46.886297], [9.356348, 46.886306], [9.356231, 46.88639], [9.355908, 46.886453], [9.355879, 46.886493], [9.355842, 46.886487], [9.355852, 46.886511], [9.355819, 46.886498], [9.355819, 46.886525], [9.355731, 46.886497], [9.355611, 46.886527], [9.355571, 46.886499], [9.355455, 46.886549], [9.355215, 46.88656], [9.355266, 46.886617], [9.355182, 46.886674], [9.355182, 46.886718], [9.35516, 46.886698], [9.355074, 46.886718], [9.355027, 46.886795], [9.354956, 46.886799], [9.354943, 46.88686], [9.354716, 46.886935], [9.354639, 46.886904], [9.354668, 46.886923], [9.354626, 46.886932], [9.35454, 46.886861], [9.35449, 46.886894], [9.354478, 46.886836], [9.354414, 46.886863], [9.35434, 46.886844], [9.354301, 46.886908], [9.354261, 46.886896], [9.354168, 46.886948], [9.354047, 46.88696], [9.353863, 46.887056], [9.353745, 46.887063], [9.353673, 46.887034], [9.353626, 46.887053], [9.353494, 46.887034], [9.353305, 46.887052], [9.353209, 46.887011], [9.353158, 46.88702], [9.35298, 46.886986], [9.352908, 46.887029], [9.352849, 46.887028], [9.352835, 46.887102], [9.352807, 46.887072], [9.352793, 46.887098], [9.352739, 46.887092], [9.352698, 46.887084], [9.352721, 46.887063], [9.352635, 46.887063], [9.352595, 46.887036], [9.352597, 46.887062], [9.352572, 46.887028], [9.352534, 46.88705], [9.352471, 46.886997], [9.352442, 46.886993], [9.352409, 46.887031], [9.352359, 46.886994], [9.352355, 46.887022], [9.352345, 46.886996], [9.35229, 46.88701], [9.352275, 46.886977], [9.352183, 46.886954], [9.352145, 46.886982], [9.352071, 46.886975], [9.352051, 46.887], [9.352014, 46.886979], [9.351989, 46.88707], [9.351993, 46.887043], [9.351926, 46.887071], [9.351854, 46.887038], [9.351833, 46.887073], [9.351805, 46.887056], [9.351748, 46.887073], [9.351746, 46.887096], [9.351707, 46.887042], [9.351629, 46.887051], [9.351563, 46.887025], [9.351481, 46.886952], [9.351346, 46.886893], [9.351181, 46.886925], [9.351132, 46.886899], [9.351056, 46.886914], [9.350943, 46.886875], [9.350763, 46.886889], [9.350674, 46.88685], [9.350618, 46.886853], [9.35057, 46.886818], [9.350312, 46.886874], [9.350211, 46.886842], [9.350094, 46.886884], [9.350072, 46.886853], [9.350104, 46.886866], [9.350057, 46.886887], [9.350015, 46.886882], [9.349908, 46.886929], [9.349882, 46.88689], [9.349805, 46.886934], [9.349723, 46.886878], [9.349702, 46.886807], [9.349579, 46.886751], [9.349563, 46.886719], [9.349456, 46.886755], [9.349433, 46.886718], [9.349404, 46.88673], [9.349398, 46.886688], [9.349296, 46.886736], [9.349269, 46.886701], [9.349171, 46.886708], [9.349099, 46.886686], [9.349105, 46.886663], [9.349017, 46.886622], [9.348937, 46.886661], [9.348914, 46.886641], [9.348906, 46.886663], [9.348851, 46.886652], [9.348806, 46.886678], [9.348801, 46.886653], [9.348776, 46.88668], [9.348779, 46.886653], [9.348724, 46.886664], [9.348686, 46.886624], [9.348601, 46.886619], [9.348603, 46.886645], [9.348574, 46.886647], [9.348497, 46.886577], [9.348396, 46.886596], [9.348379, 46.886574], [9.348346, 46.886586], [9.348244, 46.886561], [9.348244, 46.886544], [9.348237, 46.886589], [9.348192, 46.886609], [9.34816, 46.886601], [9.348128, 46.886476], [9.348082, 46.886469], [9.348076, 46.886496], [9.34805, 46.886477], [9.348013, 46.886496], [9.348031, 46.886433], [9.34799, 46.88648], [9.347974, 46.886449], [9.347892, 46.886465], [9.347873, 46.886425], [9.347809, 46.886412], [9.347792, 46.886369], [9.347815, 46.886375], [9.347766, 46.886355], [9.347684, 46.886371], [9.347656, 46.88635], [9.347629, 46.886376], [9.347627, 46.886354], [9.347584, 46.886382], [9.347571, 46.886354], [9.347523, 46.886362], [9.347543, 46.886324], [9.347484, 46.886291], [9.347402, 46.88627], [9.347363, 46.886313], [9.347412, 46.886264], [9.347371, 46.886279], [9.347369, 46.886253], [9.347293, 46.886252], [9.347314, 46.88623], [9.347231, 46.886238], [9.34723, 46.886204], [9.347204, 46.886202], [9.347235, 46.886173], [9.347194, 46.886129], [9.347038, 46.886132], [9.346951, 46.886079], [9.34689, 46.886095], [9.346834, 46.886078], [9.346834, 46.886058], [9.346776, 46.88607], [9.346716, 46.886003], [9.346655, 46.886019], [9.346636, 46.885991], [9.346611, 46.886027], [9.346557, 46.886019], [9.34651, 46.885984], [9.346546, 46.885964], [9.346485, 46.88595], [9.346447, 46.885985], [9.346315, 46.885983], [9.346336, 46.88598], [9.346305, 46.885973], [9.346309, 46.88592], [9.346275, 46.885937], [9.346193, 46.885928], [9.346165, 46.885955], [9.346101, 46.88594], [9.34605, 46.885956], [9.34603, 46.885938], [9.346026, 46.885961], [9.346051, 46.885951], [9.346024, 46.885964], [9.346029, 46.885936], [9.345937, 46.885928], [9.345974, 46.8859], [9.345842, 46.885896], [9.345799, 46.885872], [9.345603, 46.885924], [9.345612, 46.885888], [9.345641, 46.8859], [9.345569, 46.885909], [9.345551, 46.885888], [9.345493, 46.885973], [9.34544, 46.885973], [9.345492, 46.885979], [9.345466, 46.885982], [9.345481, 46.886012], [9.345396, 46.885965], [9.345352, 46.886001], [9.345371, 46.886049], [9.345339, 46.886043], [9.345349, 46.886025], [9.345264, 46.886042], [9.345276, 46.886084], [9.345168, 46.886101], [9.345182, 46.886119], [9.345212, 46.886114], [9.345188, 46.886117], [9.345208, 46.886086], [9.345271, 46.886092], [9.345138, 46.886186], [9.345152, 46.886205], [9.345108, 46.886203], [9.345048, 46.886124], [9.344983, 46.886137], [9.345029, 46.886147], [9.344993, 46.886196], [9.34498, 46.886174], [9.344957, 46.886198], [9.34489, 46.886174], [9.344828, 46.886192], [9.34486, 46.886173], [9.34484, 46.886206], [9.344845, 46.886165], [9.344846, 46.886185], [9.3448, 46.886192], [9.344812, 46.886144], [9.344825, 46.886161], [9.344861, 46.886143], [9.344838, 46.886172], [9.344864, 46.886202], [9.344849, 46.886183], [9.344774, 46.886197], [9.344767, 46.886177], [9.344799, 46.886183], [9.344814, 46.886156], [9.344763, 46.886167], [9.344795, 46.88618], [9.3448, 46.886165], [9.344766, 46.886188], [9.344796, 46.886158], [9.344765, 46.886161], [9.344797, 46.886177], [9.344822, 46.886146], [9.344824, 46.886175], [9.344819, 46.886141], [9.344739, 46.88624], [9.344808, 46.886147], [9.344848, 46.886138], [9.344848, 46.886158], [9.344808, 46.886151], [9.344783, 46.886173], [9.344809, 46.886172], [9.344757, 46.886185], [9.344595, 46.886127], [9.344574, 46.886098], [9.344563, 46.886114], [9.344616, 46.886069], [9.344635, 46.885986], [9.344572, 46.885981], [9.344549, 46.885952], [9.344638, 46.885889], [9.3446, 46.885883], [9.344622, 46.885888], [9.344647, 46.885826], [9.344626, 46.885768], [9.344651, 46.885727], [9.344619, 46.885709], [9.3446, 46.885728], [9.344613, 46.885694], [9.344562, 46.885714], [9.344496, 46.885691], [9.344525, 46.885696], [9.344554, 46.885655], [9.3445, 46.885615], [9.344544, 46.885595], [9.344527, 46.885612], [9.34451, 46.885579], [9.344361, 46.885571], [9.344159, 46.885646], [9.344142, 46.885615], [9.344101, 46.885628], [9.344173, 46.885621], [9.344154, 46.885609], [9.34408, 46.885613], [9.344036, 46.885574], [9.343896, 46.885568], [9.343863, 46.885592], [9.343856, 46.885555], [9.343778, 46.885547], [9.3438, 46.885541], [9.343766, 46.885506], [9.343812, 46.885481], [9.343761, 46.885436], [9.343783, 46.885401], [9.343631, 46.885417], [9.343594, 46.885355], [9.343674, 46.885312], [9.343684, 46.885285], [9.343657, 46.885277], [9.343702, 46.885259], [9.34361, 46.885226], [9.343684, 46.885218], [9.343549, 46.885184], [9.343543, 46.885206], [9.343393, 46.885203], [9.343378, 46.885231], [9.343363, 46.885211], [9.343284, 46.885248], [9.343312, 46.885217], [9.343253, 46.88523], [9.343239, 46.885214], [9.343281, 46.885164], [9.343191, 46.885182], [9.34315, 46.885084], [9.343121, 46.885102], [9.343039, 46.885066], [9.342994, 46.885105], [9.343046, 46.885061], [9.342874, 46.885041], [9.342806, 46.885011], [9.342759, 46.885039], [9.342743, 46.885025], [9.342758, 46.885043], [9.342717, 46.885023], [9.342731, 46.885053], [9.342647, 46.885038], [9.342614, 46.885055], [9.342612, 46.88504], [9.342604, 46.885071], [9.34249, 46.885069], [9.342525, 46.885113], [9.342445, 46.88508], [9.342364, 46.885138], [9.342297, 46.885123], [9.342293, 46.885143], [9.342292, 46.885124], [9.342313, 46.885135], [9.342225, 46.885149], [9.342198, 46.885137], [9.342203, 46.885203], [9.342232, 46.885199], [9.342204, 46.885217], [9.342173, 46.88521], [9.342185, 46.885191], [9.342165, 46.885212], [9.342093, 46.885207], [9.342122, 46.885225], [9.342057, 46.885212], [9.341989, 46.885235], [9.341963, 46.885216], [9.34194, 46.885234], [9.341968, 46.885264], [9.341845, 46.885211], [9.341821, 46.885284], [9.341731, 46.885313], [9.341786, 46.885309], [9.34177, 46.885321], [9.341806, 46.885337], [9.341772, 46.885329], [9.34171, 46.885358], [9.341761, 46.885343], [9.341789, 46.885362], [9.341683, 46.885391], [9.341698, 46.885406], [9.341668, 46.885405], [9.341708, 46.885411], [9.341669, 46.885428], [9.341699, 46.885444], [9.341676, 46.88544], [9.341672, 46.885467], [9.341646, 46.885458], [9.341666, 46.88545], [9.341696, 46.88549], [9.34167, 46.885538], [9.341692, 46.885588], [9.341534, 46.885613], [9.34149, 46.885653], [9.34152, 46.885732], [9.341503, 46.885854], [9.341593, 46.886067], [9.341546, 46.886111], [9.341574, 46.886158], [9.341562, 46.886285], [9.341622, 46.886321], [9.341575, 46.886433], [9.341655, 46.886489], [9.341659, 46.886539], [9.341712, 46.886547], [9.341771, 46.886594], [9.341887, 46.886611], [9.341966, 46.886677], [9.342, 46.886741], [9.341987, 46.886831], [9.342036, 46.886891], [9.342013, 46.88692], [9.341945, 46.886918], [9.341951, 46.886935], [9.341942, 46.886901], [9.341948, 46.886935], [9.341864, 46.88697], [9.341658, 46.887019], [9.341585, 46.887249], [9.341493, 46.887323], [9.341504, 46.887367], [9.341533, 46.887371], [9.341487, 46.88737], [9.341478, 46.887394], [9.341539, 46.887599], [9.341458, 46.887647], [9.341477, 46.887701], [9.341342, 46.887958], [9.341368, 46.888003], [9.341332, 46.888064], [9.341359, 46.88818], [9.341324, 46.888322], [9.341352, 46.888377], [9.341296, 46.888448], [9.341296, 46.888609], [9.341333, 46.888699], [9.341293, 46.888741], [9.3413, 46.888956], [9.341508, 46.889124], [9.341486, 46.889255], [9.341525, 46.889273], [9.341543, 46.889379], [9.341594, 46.889445], [9.341556, 46.889516], [9.341557, 46.889668], [9.341599, 46.889726], [9.341562, 46.889847], [9.341587, 46.889913], [9.341529, 46.889985], [9.341515, 46.89008], [9.341612, 46.890258], [9.341602, 46.890346], [9.341631, 46.890408], [9.341547, 46.890497], [9.34156, 46.890639], [9.341532, 46.890698], [9.341445, 46.890773], [9.341372, 46.890799], [9.341346, 46.890852], [9.341374, 46.891026], [9.341441, 46.891083], [9.341429, 46.891099], [9.341401, 46.891077], [9.341454, 46.891079], [9.3414, 46.891071], [9.341432, 46.891074], [9.3414, 46.891114], [9.341434, 46.891122], [9.341468, 46.89119], [9.341476, 46.891304], [9.341535, 46.89134], [9.341544, 46.89148], [9.341464, 46.891556], [9.341503, 46.891802], [9.341565, 46.89194], [9.341527, 46.891944], [9.341508, 46.891981], [9.341531, 46.892083], [9.341497, 46.892129], [9.341439, 46.892148], [9.341461, 46.892248], [9.341383, 46.892414], [9.341429, 46.892462], [9.341382, 46.892508], [9.341417, 46.892541], [9.341349, 46.892616], [9.341378, 46.892727], [9.341334, 46.892746], [9.341295, 46.89283], [9.34133, 46.892937], [9.341228, 46.893039], [9.341273, 46.893048], [9.341229, 46.893132], [9.341243, 46.893196], [9.341328, 46.893266], [9.341348, 46.893347], [9.341285, 46.893407], [9.341311, 46.893466], [9.34128, 46.893528], [9.341283, 46.893701], [9.341202, 46.893832], [9.341213, 46.893858], [9.341172, 46.893889], [9.341147, 46.89402], [9.341091, 46.894057], [9.341117, 46.894097], [9.341088, 46.894178], [9.341029, 46.894186], [9.341014, 46.894331], [9.340986, 46.894331], [9.341018, 46.894402], [9.340975, 46.89443], [9.340953, 46.894497], [9.341, 46.894538], [9.340979, 46.894637], [9.341055, 46.894676], [9.341099, 46.894844], [9.341183, 46.894963], [9.341152, 46.895036], [9.341224, 46.895101], [9.34122, 46.895156], [9.341258, 46.895195], [9.341247, 46.895323], [9.341285, 46.895326], [9.341301, 46.895416], [9.341386, 46.895489], [9.341336, 46.895576], [9.341381, 46.895649], [9.341382, 46.895753], [9.341453, 46.895849], [9.341421, 46.895863], [9.341446, 46.895896], [9.341404, 46.895911], [9.341486, 46.895954], [9.34142, 46.895993], [9.341465, 46.896014], [9.341488, 46.896089], [9.341435, 46.896078], [9.341422, 46.896103], [9.341464, 46.896195], [9.341437, 46.896263], [9.341495, 46.896313], [9.341455, 46.89633], [9.341506, 46.896403], [9.341497, 46.896448], [9.341536, 46.896458], [9.341478, 46.896479], [9.341535, 46.896541], [9.34153, 46.896611], [9.34149, 46.896657], [9.341527, 46.896742], [9.341491, 46.896772], [9.341553, 46.896872], [9.34156, 46.896907], [9.341539, 46.8969], [9.341587, 46.896924], [9.341522, 46.896925], [9.341506, 46.896952], [9.341532, 46.896965], [9.3415, 46.897001], [9.341535, 46.897035], [9.341507, 46.897091], [9.341574, 46.897187], [9.341535, 46.897309], [9.341591, 46.897526], [9.341573, 46.897625], [9.341604, 46.897729], [9.34157, 46.897774], [9.341605, 46.897793], [9.341551, 46.897898], [9.341573, 46.898012], [9.341512, 46.898191], [9.341531, 46.898212], [9.341501, 46.898219], [9.341496, 46.898311], [9.341453, 46.898352], [9.341502, 46.898422], [9.341456, 46.898421], [9.341525, 46.898449], [9.341516, 46.898466], [9.341585, 46.898426], [9.34169, 46.898419], [9.341716, 46.898391], [9.341671, 46.898379], [9.341681, 46.898338], [9.341757, 46.898357], [9.341693, 46.898334], [9.341714, 46.89839], [9.341787, 46.898387], [9.34176, 46.898352], [9.34175, 46.898398], [9.341722, 46.898392], [9.341727, 46.898343], [9.341782, 46.898348], [9.341716, 46.898336], [9.341654, 46.898368], [9.341661, 46.898347], [9.341691, 46.898384], [9.341701, 46.898352], [9.341745, 46.898376], [9.341769, 46.898348], [9.341684, 46.89833], [9.341694, 46.898355], [9.34174, 46.898337], [9.341718, 46.898372], [9.341686, 46.898326], [9.341714, 46.898358], [9.341684, 46.898375], [9.341621, 46.898341], [9.341694, 46.898361], [9.341715, 46.898347], [9.341753, 46.898373], [9.341791, 46.898329], [9.341816, 46.898338], [9.341754, 46.898375], [9.341771, 46.898404], [9.341797, 46.898356], [9.341794, 46.898381], [9.341732, 46.898329], [9.341776, 46.89833], [9.341747, 46.898343], [9.341722, 46.898321], [9.341716, 46.898337], [9.34172, 46.898356], [9.341786, 46.898336], [9.341772, 46.898367], [9.341702, 46.898344], [9.341753, 46.898346], [9.341761, 46.898328], [9.341735, 46.898329], [9.341763, 46.898325], [9.341754, 46.898343], [9.341706, 46.898332], [9.341707, 46.898365], [9.341713, 46.89834], [9.34173, 46.898349], [9.341704, 46.898327], [9.341738, 46.898374], [9.341717, 46.898358], [9.341708, 46.898374], [9.341733, 46.898371], [9.341699, 46.898389], [9.34173, 46.898382], [9.341729, 46.898327], [9.341733, 46.898342], [9.34174, 46.898322], [9.341778, 46.898329], [9.341805, 46.898291], [9.341778, 46.8983], [9.341834, 46.89828], [9.341889, 46.898301], [9.341866, 46.898295], [9.341906, 46.898292], [9.341914, 46.898269], [9.342006, 46.898253], [9.342012, 46.898215], [9.342038, 46.898246], [9.342048, 46.898211], [9.342026, 46.89824], [9.342069, 46.898244], [9.34207, 46.89828], [9.342024, 46.898308], [9.342056, 46.898313], [9.34204, 46.898375], [9.342059, 46.898401], [9.342102, 46.898403], [9.342033, 46.898477], [9.342068, 46.898489], [9.342032, 46.898499], [9.34204, 46.898535], [9.341999, 46.898525], [9.341989, 46.898556], [9.341939, 46.898561], [9.341962, 46.898577], [9.341933, 46.898602], [9.341867, 46.898595], [9.341922, 46.898644], [9.341816, 46.898661], [9.341847, 46.89868], [9.341821, 46.89868], [9.341814, 46.898695], [9.341843, 46.898683], [9.34181, 46.898717], [9.341823, 46.898767], [9.341788, 46.898799], [9.341835, 46.898817], [9.341777, 46.898836], [9.341833, 46.898823], [9.341861, 46.898864], [9.341874, 46.898845], [9.341905, 46.898861], [9.341877, 46.898858], [9.34186, 46.898887], [9.34193, 46.898893], [9.341902, 46.898927], [9.341939, 46.898962], [9.341914, 46.898971], [9.342025, 46.898993], [9.342067, 46.89904], [9.342173, 46.898959], [9.342287, 46.898924], [9.342268, 46.898899], [9.342363, 46.898874], [9.342333, 46.898858], [9.342334, 46.898886], [9.342391, 46.898859], [9.342401, 46.898814], [9.342374, 46.89881], [9.342421, 46.898786], [9.34242, 46.898739], [9.342466, 46.898732], [9.342453, 46.898703], [9.342523, 46.898688], [9.342593, 46.898638], [9.342677, 46.898637], [9.342767, 46.898516], [9.342832, 46.898508], [9.342871, 46.898464], [9.343044, 46.898443], [9.343065, 46.898379], [9.343067, 46.898401], [9.34321, 46.898343], [9.3432, 46.898362], [9.343189, 46.898338], [9.343116, 46.898349], [9.343085, 46.898306], [9.343111, 46.898294], [9.343098, 46.898308], [9.342984, 46.89824], [9.343021, 46.89827], [9.343036, 46.898258], [9.342995, 46.898256], [9.343053, 46.898297], [9.343086, 46.898283], [9.343104, 46.898309], [9.343098, 46.898265], [9.343128, 46.898278], [9.343093, 46.898302], [9.343094, 46.898284], [9.343097, 46.898323], [9.343124, 46.898282], [9.343103, 46.898254], [9.343105, 46.898288], [9.343132, 46.898248], [9.343131, 46.898287], [9.343104, 46.898263], [9.343117, 46.898297], [9.343126, 46.898256], [9.343101, 46.898311], [9.343157, 46.898304], [9.343138, 46.898251], [9.343143, 46.898268], [9.343171, 46.898255], [9.343132, 46.898267], [9.343199, 46.898286], [9.343158, 46.898295], [9.343146, 46.898277], [9.343141, 46.898316], [9.343183, 46.898322], [9.343171, 46.898284], [9.343188, 46.898313], [9.343138, 46.898318], [9.343147, 46.898332], [9.343178, 46.89827], [9.343148, 46.898236], [9.343133, 46.898285], [9.343133, 46.898267], [9.34311, 46.898286], [9.34307, 46.898257], [9.343152, 46.898316], [9.343115, 46.898293], [9.343165, 46.898298], [9.34312, 46.898284], [9.343138, 46.898261], [9.343168, 46.898279], [9.343136, 46.898279], [9.343139, 46.898313], [9.343178, 46.898319], [9.343113, 46.898243], [9.343105, 46.89827], [9.343151, 46.898317], [9.343167, 46.898287], [9.343139, 46.898285], [9.343161, 46.898308], [9.343162, 46.898284], [9.343188, 46.898291], [9.343152, 46.898323], [9.34318, 46.898314], [9.343167, 46.898291], [9.343154, 46.898304], [9.343188, 46.898306], [9.343166, 46.898273], [9.343198, 46.898299], [9.34316, 46.898281], [9.3432, 46.898285], [9.343173, 46.898288], [9.343183, 46.898305], [9.343159, 46.898223], [9.343153, 46.898294], [9.343114, 46.898246], [9.343128, 46.898317], [9.343054, 46.898289], [9.34309, 46.898294], [9.343128, 46.898255], [9.343107, 46.898269], [9.343139, 46.898332], [9.343172, 46.898296], [9.343132, 46.898286], [9.343141, 46.898323], [9.343176, 46.898301], [9.343154, 46.898361], [9.343166, 46.898293], [9.343162, 46.898355], [9.343207, 46.898362], [9.343183, 46.898297], [9.34322, 46.898316], [9.343224, 46.898294], [9.343283, 46.898289], [9.343215, 46.898268], [9.343189, 46.898282], [9.343214, 46.898297], [9.34317, 46.898276], [9.343111, 46.898293], [9.343204, 46.898282], [9.343131, 46.898291], [9.343129, 46.898274], [9.343124, 46.898293], [9.343119, 46.89826], [9.343149, 46.898289], [9.343126, 46.898297], [9.343134, 46.898271], [9.343122, 46.898303], [9.343153, 46.898282], [9.343091, 46.898297], [9.343103, 46.898309], [9.343143, 46.898299], [9.343136, 46.898277], [9.343143, 46.898303], [9.343134, 46.898262], [9.343154, 46.898319], [9.343193, 46.898321], [9.343202, 46.898274], [9.343165, 46.898311], [9.34314, 46.898271], [9.343162, 46.898287], [9.343161, 46.898246], [9.34319, 46.898263], [9.343162, 46.898246], [9.343162, 46.898315], [9.34318, 46.898282], [9.343168, 46.898263], [9.343135, 46.898271], [9.343164, 46.898345], [9.343136, 46.89831], [9.343132, 46.898335], [9.343095, 46.898323], [9.343106, 46.898352], [9.343079, 46.898345], [9.343128, 46.898289], [9.343061, 46.898357], [9.343129, 46.898301], [9.343073, 46.898354], [9.343111, 46.898339], [9.343099, 46.89832], [9.343133, 46.898354], [9.343181, 46.89835], [9.343173, 46.898375], [9.343137, 46.89837], [9.343072, 46.898431], [9.342886, 46.898454], [9.342817, 46.898511], [9.342783, 46.898504], [9.342724, 46.898606], [9.342586, 46.898679]]}, "properties": {"name": "1790392913.Ringelspitzhutte_Ringelspitz_summit_Tamins", "cmt": "2026-09-26", "tstamp": 1790380800, "desc": "UpHill", "src": "9.340953/46.829989/9.416649/46.89904", "bbox": "9.340953/46.829989/9.416649/46.89904"}}, {"type": "Feature", "bbox": [9.340953, 46.829989, 9.416649, 46.89904], "geometry": {"type": "LineString", "coordinates": [[9.342581, 46.898684], [9.342422, 46.898778], [9.342386, 46.898817], [9.342412, 46.898843], [9.342329, 46.898853], [9.342315, 46.898888], [9.342114, 46.899009], [9.342073, 46.898879], [9.342017, 46.898853], [9.342043, 46.898849], [9.34201, 46.898763], [9.342032, 46.898745], [9.342004, 46.898746], [9.342069, 46.898681], [9.341991, 46.898662], [9.342032, 46.898654], [9.342029, 46.898616], [9.342046, 46.898646], [9.34199, 46.898633], [9.341972, 46.898661], [9.34183, 46.898712], [9.341835, 46.898742], [9.341832, 46.898705], [9.341799, 46.898693], [9.341834, 46.898685], [9.341812, 46.898646], [9.341839, 46.898671], [9.341866, 46.89866], [9.34185, 46.898643], [9.341851, 46.898665], [9.341908, 46.898645], [9.341868, 46.898644], [9.341906, 46.898617], [9.341868, 46.89859], [9.341894, 46.898604], [9.341927, 46.898567], [9.341994, 46.898601], [9.341894, 46.898605], [9.341919, 46.898606], [9.341907, 46.898648], [9.34189, 46.898616], [9.341931, 46.898599], [9.341874, 46.898534], [9.34196, 46.898524], [9.341993, 46.898482], [9.341824, 46.89852], [9.341801, 46.89857], [9.341781, 46.898547], [9.341716, 46.898584], [9.341697, 46.898567], [9.341726, 46.898561], [9.341676, 46.898556], [9.341703, 46.898573], [9.341688, 46.89856], [9.341653, 46.898598], [9.341655, 46.898583], [9.341597, 46.898585], [9.341541, 46.898645], [9.341502, 46.898615], [9.341505, 46.898542], [9.341457, 46.898564], [9.341483, 46.898538], [9.341459, 46.898504], [9.341486, 46.898508], [9.341391, 46.898548], [9.341417, 46.898497], [9.341347, 46.898452], [9.341388, 46.898443], [9.341353, 46.898419], [9.341442, 46.898318], [9.341416, 46.898283], [9.34147, 46.89826], [9.34147, 46.898215], [9.341529, 46.89818], [9.341532, 46.89815], [9.341569, 46.898154], [9.341597, 46.898123], [9.341573, 46.898111], [9.341615, 46.898108], [9.341584, 46.898139], [9.341608, 46.898118], [9.341613, 46.89815], [9.341597, 46.898109], [9.341624, 46.8981], [9.341597, 46.898022], [9.341629, 46.897949], [9.341583, 46.897949], [9.341575, 46.897927], [9.341654, 46.897794], [9.341647, 46.897531], [9.341678, 46.8975], [9.341593, 46.897288], [9.34164, 46.8972], [9.341604, 46.897145], [9.341548, 46.897125], [9.34155, 46.897039], [9.341584, 46.897005], [9.341549, 46.896989], [9.3416, 46.896881], [9.341572, 46.896876], [9.341607, 46.896863], [9.341586, 46.896871], [9.341567, 46.896841], [9.341572, 46.896793], [9.341527, 46.896733], [9.341574, 46.896674], [9.341519, 46.896642], [9.341583, 46.896581], [9.341582, 46.896467], [9.341516, 46.896413], [9.341613, 46.896266], [9.341555, 46.896265], [9.341634, 46.896233], [9.341608, 46.896208], [9.341654, 46.896078], [9.341635, 46.896047], [9.341673, 46.896035], [9.341634, 46.896028], [9.341594, 46.895978], [9.341644, 46.895901], [9.341583, 46.895883], [9.341583, 46.89584], [9.341513, 46.89579], [9.341496, 46.895727], [9.34147, 46.895727], [9.341451, 46.89565], [9.341484, 46.895621], [9.341481, 46.895518], [9.341371, 46.895401], [9.341351, 46.895319], [9.341292, 46.895301], [9.341272, 46.895207], [9.341297, 46.895113], [9.341266, 46.895016], [9.341215, 46.894972], [9.341231, 46.894906], [9.34117, 46.894864], [9.341158, 46.894738], [9.341052, 46.894613], [9.34103, 46.894459], [9.340966, 46.894443], [9.341, 46.894412], [9.340981, 46.894334], [9.341066, 46.894315], [9.341091, 46.894193], [9.341145, 46.894147], [9.341141, 46.894099], [9.341098, 46.894085], [9.341165, 46.894029], [9.341222, 46.893916], [9.341211, 46.893876], [9.341246, 46.893828], [9.341219, 46.893815], [9.341261, 46.893738], [9.341336, 46.893685], [9.34129, 46.89365], [9.341337, 46.893593], [9.341274, 46.893407], [9.341298, 46.893303], [9.341258, 46.893291], [9.34127, 46.893245], [9.341227, 46.893214], [9.341304, 46.892946], [9.341247, 46.892935], [9.34128, 46.892851], [9.341228, 46.892772], [9.341211, 46.892706], [9.341237, 46.892682], [9.341206, 46.892639], [9.341247, 46.892551], [9.341285, 46.892547], [9.341291, 46.892481], [9.341395, 46.892439], [9.341401, 46.892404], [9.34132, 46.89237], [9.341427, 46.892354], [9.341436, 46.892281], [9.341498, 46.892275], [9.341531, 46.892244], [9.341532, 46.892119], [9.341572, 46.892089], [9.341538, 46.89208], [9.341569, 46.892048], [9.341494, 46.892064], [9.341606, 46.891944], [9.341577, 46.89189], [9.341556, 46.8919], [9.341515, 46.891848], [9.341474, 46.891846], [9.341474, 46.891763], [9.341423, 46.891702], [9.341383, 46.891713], [9.341407, 46.891624], [9.341566, 46.891514], [9.341565, 46.891441], [9.341605, 46.891401], [9.341587, 46.891369], [9.341553, 46.891367], [9.34158, 46.891317], [9.341532, 46.891306], [9.341547, 46.891199], [9.341455, 46.891134], [9.341482, 46.891042], [9.341425, 46.890985], [9.341397, 46.89082], [9.341464, 46.890722], [9.341546, 46.890718], [9.3415, 46.890721], [9.341585, 46.890664], [9.341592, 46.890585], [9.341547, 46.890529], [9.341577, 46.890458], [9.341621, 46.890457], [9.341678, 46.890389], [9.341648, 46.890353], [9.341683, 46.890279], [9.34158, 46.890127], [9.34155, 46.889935], [9.341569, 46.889841], [9.341514, 46.889732], [9.341555, 46.889671], [9.341449, 46.889508], [9.341467, 46.889439], [9.341311, 46.889361], [9.34129, 46.889192], [9.341321, 46.88913], [9.341288, 46.888946], [9.341152, 46.8889], [9.341218, 46.888804], [9.341306, 46.8885], [9.341353, 46.888465], [9.341332, 46.888401], [9.341387, 46.888361], [9.341353, 46.888314], [9.341397, 46.888137], [9.341388, 46.887772], [9.341571, 46.887548], [9.341514, 46.887328], [9.341562, 46.887196], [9.341593, 46.887186], [9.341608, 46.887029], [9.341637, 46.886963], [9.341753, 46.886926], [9.341895, 46.886835], [9.341893, 46.886734], [9.341768, 46.886655], [9.341761, 46.886578], [9.341668, 46.886543], [9.341711, 46.886483], [9.341693, 46.886291], [9.341759, 46.886178], [9.341783, 46.886036], [9.341698, 46.885981], [9.341599, 46.885975], [9.341578, 46.88595], [9.341504, 46.885955], [9.341527, 46.885931], [9.34146, 46.885795], [9.341513, 46.885701], [9.341598, 46.88568], [9.341632, 46.885687], [9.341606, 46.885711], [9.34164, 46.885707], [9.341656, 46.885684], [9.341627, 46.885702], [9.341662, 46.885718], [9.341637, 46.885695], [9.341624, 46.885739], [9.341623, 46.885696], [9.341659, 46.8857], [9.34163, 46.885682], [9.341625, 46.885709], [9.341642, 46.885698], [9.341598, 46.885679], [9.341625, 46.88571], [9.341632, 46.88568], [9.341643, 46.885718], [9.341645, 46.88568], [9.341592, 46.885679], [9.341575, 46.885629], [9.341767, 46.885584], [9.341749, 46.885533], [9.341795, 46.885462], [9.341763, 46.885424], [9.341793, 46.885456], [9.341847, 46.885404], [9.341828, 46.885368], [9.34192, 46.885327], [9.341901, 46.885275], [9.341931, 46.885251], [9.341869, 46.885227], [9.34196, 46.885286], [9.342069, 46.885281], [9.342087, 46.88526], [9.342117, 46.885275], [9.342137, 46.885233], [9.342226, 46.885237], [9.34244, 46.885148], [9.342506, 46.88508], [9.342576, 46.885097], [9.342658, 46.885073], [9.342768, 46.884982], [9.342768, 46.88495], [9.342776, 46.884976], [9.342913, 46.885013], [9.342916, 46.885063], [9.343166, 46.885107], [9.343139, 46.885144], [9.34319, 46.885126], [9.343199, 46.885164], [9.343238, 46.885152], [9.343253, 46.885177], [9.343288, 46.885172], [9.343405, 46.88523], [9.343457, 46.885209], [9.343521, 46.88524], [9.343564, 46.885232], [9.34356, 46.885191], [9.343637, 46.885231], [9.34373, 46.885235], [9.343667, 46.885337], [9.343679, 46.885371], [9.343731, 46.885368], [9.34374, 46.885401], [9.343787, 46.885386], [9.343776, 46.885428], [9.343826, 46.885466], [9.343784, 46.885545], [9.343844, 46.885544], [9.343861, 46.885579], [9.343837, 46.885598], [9.343965, 46.885608], [9.344041, 46.88558], [9.344103, 46.885615], [9.344166, 46.885588], [9.344173, 46.885624], [9.344261, 46.885645], [9.34438, 46.8856], [9.344492, 46.885593], [9.344559, 46.885629], [9.344567, 46.885725], [9.344604, 46.885693], [9.344668, 46.885838], [9.34461, 46.885988], [9.344667, 46.885973], [9.344597, 46.88612], [9.344635, 46.886169], [9.344768, 46.886154], [9.344783, 46.886195], [9.344828, 46.886185], [9.344842, 46.886208], [9.344865, 46.886189], [9.344883, 46.886223], [9.345033, 46.886168], [9.345116, 46.886222], [9.34516, 46.886221], [9.345173, 46.886175], [9.345335, 46.886111], [9.345381, 46.886034], [9.3454, 46.886056], [9.345474, 46.885993], [9.345504, 46.886002], [9.345542, 46.88596], [9.345656, 46.885941], [9.345705, 46.885897], [9.345771, 46.88591], [9.345808, 46.885886], [9.345868, 46.885889], [9.34597, 46.885961], [9.346021, 46.885967], [9.346103, 46.885915], [9.346186, 46.885943], [9.346272, 46.885929], [9.346333, 46.885968], [9.346365, 46.885953], [9.346432, 46.885975], [9.346518, 46.886041], [9.346597, 46.886], [9.346624, 46.886041], [9.346741, 46.886025], [9.346772, 46.886059], [9.346981, 46.88606], [9.347109, 46.886169], [9.34713, 46.886154], [9.347154, 46.886168], [9.347134, 46.886188], [9.347203, 46.886176], [9.347318, 46.886224], [9.347398, 46.886231], [9.347445, 46.886209], [9.347497, 46.886229], [9.347647, 46.88622], [9.347753, 46.88624], [9.347766, 46.886181], [9.347736, 46.886278], [9.347768, 46.886249], [9.34776, 46.886292], [9.347808, 46.886308], [9.347855, 46.886406], [9.347937, 46.88646], [9.347937, 46.886505], [9.348078, 46.886492], [9.348232, 46.886537], [9.348403, 46.886483], [9.348768, 46.886636], [9.348946, 46.886601], [9.348989, 46.886624], [9.349071, 46.886606], [9.349116, 46.886658], [9.349297, 46.886718], [9.349402, 46.886715], [9.349435, 46.886635], [9.34953, 46.886589], [9.349662, 46.886614], [9.349709, 46.8866], [9.349905, 46.886728], [9.349963, 46.886744], [9.350024, 46.886719], [9.350147, 46.886773], [9.350434, 46.886799], [9.350463, 46.886818], [9.350713, 46.886729], [9.350809, 46.886774], [9.350915, 46.88679], [9.350964, 46.886768], [9.351209, 46.886773], [9.351453, 46.886885], [9.351484, 46.886926], [9.351584, 46.886922], [9.351608, 46.886969], [9.351668, 46.886964], [9.35174, 46.886996], [9.351753, 46.886975], [9.351787, 46.887003], [9.351858, 46.886986], [9.351953, 46.887013], [9.351991, 46.887086], [9.352113, 46.887059], [9.352221, 46.886966], [9.352341, 46.887037], [9.35238, 46.88703], [9.352438, 46.887061], [9.352514, 46.887055], [9.352613, 46.887087], [9.35269, 46.887069], [9.352829, 46.887154], [9.352898, 46.887153], [9.352955, 46.887072], [9.353087, 46.887031], [9.353345, 46.887085], [9.353631, 46.887071], [9.353691, 46.887121], [9.353738, 46.887086], [9.353834, 46.887065], [9.35402, 46.887064], [9.354142, 46.886974], [9.354249, 46.886968], [9.354345, 46.886934], [9.35438, 46.886947], [9.35451, 46.886851], [9.354642, 46.88694], [9.354664, 46.88692], [9.354755, 46.886944], [9.354818, 46.886916], [9.354934, 46.886915], [9.355011, 46.886882], [9.355042, 46.886804], [9.355215, 46.886716], [9.355294, 46.886742], [9.35529, 46.886695], [9.355373, 46.886695], [9.355369, 46.886651], [9.355431, 46.886593], [9.355534, 46.886588], [9.355628, 46.886522], [9.35574, 46.886589], [9.355799, 46.886548], [9.355942, 46.886565], [9.356032, 46.886497], [9.356186, 46.886449], [9.356249, 46.886402], [9.356414, 46.886372], [9.356554, 46.886291], [9.356646, 46.886305], [9.356681, 46.886286], [9.356664, 46.886242], [9.356779, 46.886205], [9.356846, 46.886102], [9.356934, 46.886096], [9.35698, 46.886054], [9.357039, 46.886046], [9.357211, 46.885954], [9.357339, 46.885837], [9.357431, 46.885805], [9.357433, 46.88576], [9.3575, 46.885712], [9.357917, 46.885515], [9.358027, 46.885488], [9.358244, 46.885299], [9.358273, 46.8852], [9.358326, 46.885155], [9.35852, 46.88515], [9.358741, 46.885054], [9.358857, 46.885041], [9.358884, 46.884949], [9.35909, 46.884814], [9.359165, 46.884641], [9.359242, 46.884585], [9.35927, 46.884631], [9.359348, 46.88463], [9.359434, 46.884677], [9.359475, 46.884584], [9.359548, 46.884589], [9.359642, 46.884458], [9.359682, 46.884337], [9.359771, 46.88425], [9.359759, 46.883991], [9.359704, 46.88392], [9.359708, 46.883832], [9.359817, 46.883732], [9.359958, 46.883678], [9.359968, 46.883702], [9.360031, 46.883664], [9.360208, 46.883488], [9.360224, 46.883438], [9.360288, 46.883399], [9.360296, 46.883346], [9.360367, 46.883344], [9.36045, 46.88326], [9.360535, 46.883123], [9.360524, 46.88305], [9.36056, 46.88297], [9.360527, 46.882865], [9.360653, 46.882758], [9.360631, 46.882723], [9.360654, 46.88269], [9.36085, 46.8826], [9.360844, 46.882552], [9.360896, 46.882465], [9.361045, 46.882286], [9.361268, 46.882141], [9.361338, 46.882132], [9.361441, 46.881947], [9.361631, 46.881948], [9.361738, 46.881869], [9.361705, 46.881762], [9.361724, 46.881707], [9.361663, 46.881719], [9.361587, 46.881674], [9.361585, 46.881606], [9.361746, 46.881497], [9.361875, 46.881466], [9.362021, 46.881213], [9.362168, 46.881127], [9.362327, 46.880935], [9.362504, 46.880884], [9.362592, 46.880753], [9.36294, 46.880656], [9.362993, 46.880659], [9.363045, 46.88061], [9.363163, 46.880574], [9.36323, 46.880511], [9.363425, 46.880441], [9.363573, 46.880318], [9.363677, 46.880281], [9.363804, 46.880109], [9.363822, 46.880024], [9.363915, 46.879936], [9.363972, 46.879797], [9.364048, 46.879754], [9.364087, 46.879599], [9.364237, 46.879385], [9.364236, 46.879325], [9.364276, 46.879296], [9.364257, 46.879262], [9.364338, 46.879117], [9.364405, 46.879072], [9.364462, 46.878934], [9.364551, 46.878896], [9.364575, 46.878835], [9.364675, 46.878779], [9.364776, 46.878584], [9.364926, 46.878551], [9.364971, 46.878516], [9.365037, 46.878538], [9.365137, 46.878534], [9.365316, 46.878438], [9.365305, 46.878395], [9.365383, 46.878401], [9.365435, 46.878378], [9.365516, 46.878394], [9.365582, 46.878358], [9.365647, 46.878361], [9.365678, 46.87833], [9.365701, 46.878357], [9.365754, 46.878343], [9.365748, 46.878324], [9.365802, 46.878346], [9.365823, 46.87823], [9.365902, 46.878203], [9.365942, 46.878216], [9.366039, 46.878174], [9.366025, 46.878123], [9.366144, 46.878043], [9.366139, 46.878011], [9.36625, 46.877917], [9.366204, 46.877902], [9.366292, 46.8778], [9.366429, 46.877359], [9.366561, 46.877314], [9.366579, 46.877264], [9.36663, 46.87725], [9.366798, 46.877086], [9.367068, 46.876922], [9.367135, 46.876801], [9.367356, 46.876729], [9.36772, 46.876475], [9.367805, 46.876388], [9.367848, 46.876283], [9.367978, 46.876157], [9.367958, 46.876006], [9.368024, 46.875867], [9.368505, 46.87546], [9.3687, 46.875482], [9.368905, 46.875409], [9.368911, 46.875364], [9.369064, 46.875237], [9.369555, 46.875007], [9.369865, 46.874823], [9.37001, 46.874704], [9.370019, 46.874659], [9.370263, 46.874578], [9.370325, 46.874504], [9.370411, 46.874475], [9.370502, 46.874491], [9.3706, 46.874449], [9.370653, 46.874476], [9.370717, 46.874446], [9.370728, 46.874487], [9.370792, 46.874511], [9.370811, 46.874497], [9.370904, 46.874526], [9.371092, 46.874525], [9.371486, 46.874425], [9.371517, 46.874434], [9.371525, 46.874481], [9.371498, 46.874574], [9.371519, 46.874592], [9.371535, 46.874572], [9.371644, 46.874576], [9.37171, 46.874482], [9.371797, 46.874478], [9.371951, 46.874335], [9.372041, 46.874294], [9.372079, 46.874222], [9.372241, 46.874152], [9.372295, 46.874071], [9.37243, 46.873993], [9.372505, 46.873894], [9.372606, 46.873834], [9.372653, 46.873834], [9.3727, 46.873777], [9.372837, 46.873757], [9.372878, 46.873699], [9.372958, 46.873697], [9.372993, 46.873635], [9.373116, 46.873679], [9.373191, 46.873679], [9.373372, 46.873574], [9.373491, 46.873554], [9.373603, 46.8735], [9.373775, 46.873387], [9.373984, 46.873179], [9.374105, 46.873147], [9.374137, 46.872992], [9.374198, 46.87295], [9.374303, 46.872929], [9.374506, 46.872825], [9.374708, 46.872768], [9.375076, 46.872719], [9.375139, 46.872669], [9.37526, 46.872637], [9.375407, 46.872525], [9.375746, 46.872109], [9.375956, 46.871912], [9.37606, 46.871615], [9.376063, 46.871459], [9.376129, 46.871322], [9.376131, 46.871222], [9.37634, 46.870893], [9.376422, 46.870839], [9.376525, 46.870689], [9.376596, 46.870522], [9.376739, 46.870424], [9.376764, 46.870346], [9.376905, 46.87021], [9.376967, 46.870095], [9.377106, 46.869675], [9.377034, 46.869504], [9.376952, 46.869424], [9.376963, 46.869368], [9.377015, 46.869317], [9.377419, 46.869116], [9.377497, 46.869055], [9.377554, 46.868958], [9.377735, 46.868865], [9.377835, 46.868749], [9.378203, 46.868592], [9.378332, 46.868569], [9.37853, 46.868452], [9.378594, 46.868328], [9.378606, 46.868157], [9.378751, 46.867904], [9.378771, 46.867779], [9.378881, 46.867674], [9.378923, 46.86752], [9.37905, 46.867386], [9.379037, 46.867338], [9.379127, 46.867267], [9.379181, 46.867081], [9.379176, 46.866984], [9.379254, 46.866917], [9.379273, 46.866838], [9.379386, 46.866797], [9.379484, 46.866698], [9.379559, 46.866553], [9.379769, 46.866286], [9.379846, 46.866251], [9.379913, 46.866259], [9.380347, 46.866105], [9.380503, 46.865945], [9.380514, 46.865879], [9.380711, 46.865686], [9.380787, 46.865697], [9.3808, 46.865748], [9.380776, 46.865698], [9.380667, 46.865704], [9.380574, 46.865745], [9.380493, 46.865661], [9.380456, 46.865666], [9.380469, 46.865571], [9.380481, 46.865587], [9.380543, 46.865555], [9.380503, 46.86546], [9.380548, 46.865418], [9.380536, 46.865356], [9.380615, 46.865306], [9.380473, 46.86526], [9.38062, 46.865058], [9.380886, 46.865083], [9.381037, 46.865063], [9.381197, 46.865095], [9.381347, 46.864857], [9.381429, 46.864794], [9.3815, 46.864797], [9.38148, 46.864777], [9.381521, 46.864775], [9.381613, 46.864827], [9.381645, 46.864896], [9.381725, 46.864962], [9.381996, 46.865136], [9.382075, 46.865109], [9.382167, 46.864956], [9.382251, 46.864884], [9.3823, 46.86485], [9.382495, 46.864802], [9.382567, 46.864704], [9.382585, 46.864759], [9.382699, 46.8648], [9.382761, 46.864851], [9.38282, 46.865018], [9.383005, 46.865147], [9.383086, 46.865241], [9.383093, 46.865291], [9.38322, 46.865369], [9.383403, 46.865542], [9.38351, 46.86557], [9.383676, 46.865557], [9.384064, 46.865422], [9.384533, 46.864916], [9.384598, 46.864559], [9.384813, 46.864429], [9.384901, 46.864239], [9.385297, 46.863928], [9.385696, 46.863523], [9.386011, 46.863277], [9.386119, 46.86313], [9.3861, 46.862852], [9.386123, 46.862817], [9.386235, 46.862779], [9.386501, 46.862605], [9.386564, 46.862588], [9.387061, 46.862695], [9.387121, 46.862679], [9.387364, 46.86272], [9.387471, 46.862702], [9.387592, 46.862637], [9.387699, 46.862381], [9.387776, 46.862272], [9.387848, 46.862234], [9.388123, 46.862165], [9.388526, 46.862196], [9.38878, 46.862125], [9.388999, 46.862021], [9.389403, 46.861568], [9.38944, 46.861486], [9.389468, 46.861366], [9.389446, 46.861048], [9.389476, 46.860988], [9.389475, 46.8608], [9.389566, 46.860475], [9.389911, 46.860092], [9.39003, 46.859997], [9.390094, 46.859855], [9.390154, 46.859802], [9.390168, 46.859662], [9.390249, 46.859581], [9.390217, 46.859552], [9.39024, 46.859521], [9.390782, 46.859247], [9.390841, 46.859175], [9.391097, 46.858986], [9.391115, 46.858903], [9.39154, 46.858388], [9.391596, 46.8584], [9.391579, 46.858493], [9.39145, 46.858718], [9.391625, 46.859107], [9.391623, 46.859278], [9.391577, 46.859336], [9.391532, 46.859514], [9.391511, 46.859731], [9.391389, 46.859924], [9.391581, 46.860304], [9.391398, 46.860576], [9.391385, 46.860604], [9.391439, 46.860609], [9.391641, 46.860539], [9.391897, 46.860408], [9.391953, 46.860302], [9.391913, 46.860212], [9.391942, 46.860122], [9.392039, 46.860082], [9.392119, 46.859989], [9.392284, 46.859981], [9.392391, 46.860002], [9.392496, 46.859951], [9.39264, 46.859929], [9.392813, 46.859799], [9.392826, 46.859751], [9.393043, 46.859726], [9.393201, 46.859587], [9.393291, 46.859572], [9.393339, 46.859528], [9.393523, 46.859464], [9.393689, 46.859286], [9.393776, 46.859099], [9.393833, 46.859105], [9.393914, 46.859027], [9.393956, 46.859035], [9.393976, 46.858998], [9.394145, 46.858982], [9.394366, 46.858896], [9.394484, 46.858819], [9.394601, 46.858806], [9.394724, 46.858712], [9.394811, 46.858702], [9.394837, 46.858646], [9.394972, 46.858655], [9.394999, 46.858629], [9.395054, 46.858648], [9.395059, 46.85854], [9.395129, 46.858553], [9.395134, 46.858526], [9.395223, 46.858518], [9.395297, 46.858462], [9.395332, 46.858414], [9.39529, 46.858401], [9.395327, 46.858365], [9.395282, 46.858368], [9.395288, 46.858348], [9.39533, 46.858373], [9.395312, 46.858388], [9.3953, 46.858372], [9.395391, 46.858362], [9.395316, 46.858369], [9.395366, 46.858354], [9.395364, 46.858384], [9.395336, 46.858378], [9.395405, 46.858383], [9.395378, 46.858406], [9.395343, 46.858375], [9.395424, 46.858367], [9.3955, 46.858324], [9.395597, 46.858185], [9.395597, 46.858084], [9.39565, 46.85807], [9.395681, 46.858088], [9.395672, 46.858028], [9.395763, 46.858017], [9.395783, 46.857964], [9.395841, 46.857958], [9.395861, 46.857924], [9.396031, 46.857855], [9.396117, 46.857863], [9.39624, 46.857762], [9.396437, 46.857819], [9.396669, 46.857686], [9.396754, 46.857729], [9.396834, 46.857719], [9.39692, 46.85766], [9.397012, 46.857636], [9.397107, 46.857545], [9.397124, 46.857513], [9.397091, 46.857444], [9.397132, 46.857388], [9.397419, 46.857229], [9.397461, 46.857247], [9.397554, 46.857214], [9.397561, 46.857191], [9.3976, 46.857205], [9.397622, 46.857163], [9.397733, 46.857147], [9.398123, 46.857191], [9.398256, 46.85717], [9.39832, 46.857195], [9.398406, 46.857173], [9.398439, 46.857115], [9.398592, 46.857028], [9.398647, 46.856933], [9.398694, 46.856939], [9.398778, 46.856831], [9.398696, 46.856726], [9.398705, 46.856658], [9.398763, 46.856636], [9.398757, 46.856594], [9.398695, 46.856606], [9.398729, 46.856558], [9.398684, 46.856535], [9.39869, 46.856497], [9.39873, 46.856513], [9.398763, 46.856476], [9.398846, 46.856467], [9.39897, 46.85649], [9.399099, 46.85647], [9.399253, 46.85648], [9.39939, 46.856432], [9.399614, 46.856435], [9.399678, 46.856403], [9.399736, 46.856418], [9.399882, 46.856341], [9.399983, 46.856342], [9.40011, 46.856384], [9.400229, 46.856306], [9.400292, 46.856312], [9.400353, 46.85628], [9.400386, 46.856197], [9.400415, 46.856223], [9.400426, 46.856205], [9.400433, 46.856225], [9.400479, 46.856218], [9.400482, 46.85617], [9.400621, 46.856146], [9.400669, 46.856116], [9.400661, 46.856096], [9.400709, 46.856102], [9.400789, 46.856036], [9.400858, 46.856046], [9.400971, 46.855923], [9.401026, 46.855811], [9.40112, 46.855726], [9.401283, 46.855724], [9.401505, 46.855682], [9.401593, 46.855724], [9.401832, 46.855774], [9.401918, 46.85576], [9.401965, 46.85571], [9.402203, 46.855615], [9.402234, 46.855554], [9.402214, 46.855464], [9.402316, 46.855414], [9.402274, 46.855374], [9.402337, 46.855385], [9.402359, 46.855424], [9.402388, 46.855389], [9.402422, 46.855392], [9.402427, 46.855429], [9.402497, 46.855458], [9.402486, 46.855513], [9.402534, 46.855558], [9.402601, 46.855594], [9.402635, 46.855581], [9.402756, 46.85565], [9.402799, 46.855593], [9.40287, 46.855627], [9.4029, 46.8556], [9.402979, 46.855604], [9.40301, 46.855657], [9.403191, 46.855785], [9.403284, 46.855689], [9.403373, 46.855701], [9.403382, 46.855675], [9.403444, 46.855661], [9.403659, 46.855691], [9.403785, 46.855747], [9.404018, 46.855765], [9.404215, 46.855666], [9.404279, 46.855669], [9.404289, 46.855647], [9.404356, 46.855643], [9.40451, 46.855577], [9.404681, 46.855449], [9.404817, 46.855506], [9.40495, 46.855507], [9.405207, 46.855627], [9.405288, 46.855642], [9.405471, 46.855626], [9.405945, 46.855718], [9.405992, 46.855755], [9.406104, 46.855763], [9.406376, 46.855956], [9.406723, 46.855982], [9.406953, 46.855932], [9.407166, 46.85573], [9.407209, 46.855565], [9.40731, 46.855482], [9.407479, 46.85541], [9.407866, 46.855426], [9.408302, 46.855542], [9.408479, 46.855564], [9.408896, 46.855566], [9.409031, 46.855602], [9.409557, 46.855472], [9.409703, 46.855386], [9.409869, 46.855386], [9.410016, 46.855435], [9.410155, 46.855654], [9.410276, 46.855738], [9.410418, 46.855762], [9.410526, 46.855818], [9.410604, 46.855818], [9.410767, 46.855878], [9.410825, 46.855933], [9.411031, 46.856017], [9.411187, 46.856121], [9.411531, 46.856209], [9.411643, 46.856066], [9.41158, 46.856052], [9.411601, 46.855989], [9.411539, 46.855946], [9.411566, 46.855944], [9.411532, 46.855973], [9.411508, 46.855961], [9.411563, 46.855971], [9.411581, 46.856007], [9.41152, 46.856048], [9.411606, 46.855984], [9.411611, 46.855794], [9.411744, 46.855484], [9.411867, 46.855341], [9.411902, 46.855334], [9.41209, 46.855086], [9.412124, 46.855082], [9.412243, 46.854864], [9.412658, 46.854362], [9.412941, 46.854183], [9.413099, 46.854146], [9.412953, 46.854341], [9.412959, 46.854497], [9.413341, 46.855034], [9.413566, 46.855425], [9.413412, 46.856001], [9.413478, 46.856581], [9.413764, 46.856821], [9.4139, 46.856858], [9.414168, 46.857389], [9.41444, 46.857666], [9.414421, 46.857702], [9.414595, 46.857858], [9.414605, 46.858007], [9.414676, 46.858102], [9.414715, 46.8581], [9.414743, 46.858158], [9.414802, 46.858158], [9.414816, 46.858232], [9.414855, 46.85826], [9.415142, 46.858323], [9.415256, 46.858389], [9.415267, 46.858365], [9.415338, 46.858379], [9.4154, 46.858346], [9.415611, 46.858354], [9.415655, 46.858295], [9.415734, 46.858281], [9.415791, 46.858233], [9.415881, 46.858203], [9.415935, 46.858225], [9.41596, 46.858176], [9.41609, 46.858196], [9.416138, 46.858153], [9.416149, 46.858066], [9.416099, 46.85803], [9.416002, 46.858018], [9.415987, 46.857991], [9.415908, 46.85799], [9.415903, 46.857965], [9.415944, 46.857952], [9.41578, 46.857881], [9.415701, 46.857815], [9.415717, 46.857796], [9.41566, 46.857692], [9.415526, 46.857643], [9.415504, 46.857583], [9.41544, 46.857539], [9.415445, 46.857462], [9.415399, 46.857366], [9.415299, 46.857318], [9.415326, 46.857284], [9.415311, 46.857233], [9.415416, 46.857091], [9.415351, 46.857066], [9.415395, 46.856976], [9.415352, 46.856952], [9.415376, 46.856813], [9.415308, 46.856721], [9.415362, 46.856686], [9.415319, 46.856612], [9.41534, 46.856628], [9.41532, 46.856622], [9.415352, 46.85661], [9.415351, 46.856544], [9.415263, 46.856469], [9.415298, 46.856386], [9.415341, 46.856371], [9.415336, 46.856326], [9.415404, 46.856296], [9.415412, 46.85622], [9.415497, 46.856202], [9.415449, 46.856194], [9.415453, 46.856161], [9.41552, 46.856013], [9.415612, 46.855963], [9.415605, 46.855912], [9.415765, 46.855775], [9.415786, 46.855647], [9.415819, 46.855621], [9.415805, 46.855558], [9.415854, 46.855502], [9.415902, 46.855341], [9.415945, 46.855304], [9.415878, 46.855073], [9.41594, 46.855085], [9.415956, 46.855059], [9.415921, 46.855053], [9.415965, 46.85502], [9.415927, 46.854991], [9.415931, 46.854927], [9.415822, 46.854849], [9.415872, 46.854853], [9.415832, 46.854885], [9.416055, 46.854946], [9.416068, 46.854989], [9.416028, 46.854993], [9.416146, 46.855038], [9.416193, 46.854958], [9.416141, 46.854944], [9.416192, 46.854878], [9.416145, 46.854874], [9.416213, 46.85487], [9.416241, 46.854884], [9.416206, 46.8549], [9.416211, 46.85487], [9.416297, 46.854853], [9.416273, 46.854827], [9.416307, 46.854807], [9.41629, 46.854788], [9.416315, 46.854745], [9.416358, 46.854739], [9.416233, 46.854713], [9.416206, 46.854679], [9.416247, 46.854625], [9.416387, 46.854607], [9.416357, 46.854601], [9.416337, 46.854547], [9.416385, 46.854515], [9.416344, 46.854481], [9.416384, 46.854488], [9.416384, 46.854444], [9.416311, 46.854372], [9.416258, 46.854388], [9.416348, 46.854412], [9.416331, 46.854346], [9.416409, 46.854361], [9.416329, 46.854251], [9.416333, 46.854193], [9.416381, 46.854141], [9.416288, 46.854168], [9.416324, 46.854163], [9.416315, 46.854074], [9.416374, 46.854033], [9.416322, 46.85398], [9.416524, 46.853912], [9.416515, 46.85383], [9.416579, 46.853835], [9.416588, 46.853817], [9.416516, 46.853804], [9.416557, 46.853753], [9.41663, 46.853727], [9.416643, 46.853637], [9.416596, 46.853594], [9.416635, 46.853598], [9.416577, 46.853572], [9.416575, 46.853511], [9.416648, 46.853477], [9.416649, 46.853448], [9.416549, 46.853455], [9.416575, 46.853444], [9.41647, 46.85325], [9.416511, 46.85323], [9.416415, 46.853183], [9.416429, 46.8531], [9.416381, 46.853065], [9.416464, 46.853014], [9.416475, 46.853034], [9.416522, 46.852987], [9.416428, 46.852937], [9.416448, 46.852916], [9.416356, 46.852844], [9.416415, 46.852837], [9.416458, 46.8528], [9.416463, 46.852819], [9.416571, 46.852789], [9.416522, 46.852765], [9.416482, 46.852775], [9.416502, 46.852726], [9.416434, 46.852699], [9.416423, 46.852629], [9.416465, 46.85263], [9.416557, 46.852577], [9.4166, 46.852598], [9.416611, 46.852577], [9.416638, 46.852604], [9.416566, 46.852578], [9.416592, 46.85254], [9.416545, 46.852529], [9.416515, 46.852489], [9.416466, 46.852349], [9.416471, 46.852266], [9.416406, 46.852233], [9.416367, 46.852084], [9.416288, 46.852011], [9.416314, 46.851835], [9.416348, 46.851829], [9.4163, 46.851842], [9.416327, 46.851785], [9.416248, 46.851737], [9.416272, 46.851707], [9.416209, 46.851612], [9.416231, 46.851584], [9.416165, 46.851525], [9.416119, 46.851527], [9.416062, 46.851465], [9.416068, 46.851416], [9.416134, 46.851383], [9.416068, 46.851331], [9.416123, 46.851217], [9.416065, 46.851197], [9.416052, 46.851219], [9.416024, 46.851193], [9.4159, 46.851214], [9.415918, 46.851182], [9.415976, 46.851176], [9.415908, 46.851127], [9.415945, 46.851107], [9.415952, 46.851059], [9.41579, 46.85088], [9.415849, 46.850773], [9.415807, 46.850761], [9.415754, 46.850791], [9.415653, 46.850765], [9.415408, 46.850805], [9.415428, 46.850758], [9.415353, 46.850693], [9.415263, 46.850663], [9.415169, 46.850586], [9.41496, 46.850528], [9.414933, 46.850498], [9.41495, 46.850472], [9.414793, 46.850389], [9.41475, 46.850304], [9.414832, 46.85013], [9.4148, 46.85009], [9.414806, 46.85001], [9.414643, 46.849937], [9.414581, 46.849827], [9.414435, 46.849758], [9.414355, 46.849673], [9.414381, 46.8496], [9.414269, 46.84964], [9.414261, 46.849574], [9.414231, 46.849564], [9.414248, 46.849498], [9.414205, 46.849481], [9.414217, 46.849421], [9.414168, 46.849426], [9.414159, 46.849393], [9.414212, 46.849361], [9.4142, 46.849396], [9.414178, 46.84937], [9.414138, 46.849377], [9.414052, 46.849295], [9.414063, 46.849237], [9.413964, 46.849182], [9.414047, 46.849169], [9.414005, 46.849121], [9.414027, 46.849019], [9.413972, 46.848978], [9.413986, 46.848937], [9.414015, 46.848943], [9.414059, 46.84889], [9.41402, 46.848842], [9.414062, 46.848823], [9.414035, 46.848761], [9.414102, 46.848695], [9.414107, 46.848648], [9.414029, 46.848639], [9.414062, 46.848625], [9.414024, 46.848549], [9.413959, 46.84851], [9.413969, 46.84847], [9.413871, 46.848459], [9.413688, 46.848373], [9.413661, 46.848311], [9.413626, 46.8483], [9.413634, 46.848242], [9.413486, 46.848225], [9.413454, 46.848147], [9.413469, 46.848101], [9.413385, 46.848127], [9.413393, 46.848147], [9.413346, 46.848068], [9.41322, 46.848025], [9.413075, 46.848005], [9.41309, 46.848025], [9.413043, 46.848022], [9.412745, 46.847904], [9.41266, 46.847895], [9.412633, 46.847915], [9.412621, 46.847894], [9.412504, 46.847867], [9.412497, 46.847828], [9.412412, 46.847864], [9.412412, 46.847843], [9.41232, 46.847835], [9.412164, 46.847753], [9.412063, 46.847756], [9.411905, 46.847651], [9.411884, 46.847688], [9.411837, 46.847695], [9.411719, 46.847653], [9.411676, 46.847627], [9.411654, 46.847561], [9.411583, 46.84758], [9.411475, 46.847553], [9.411441, 46.847504], [9.411391, 46.847488], [9.411387, 46.847434], [9.411273, 46.847423], [9.411291, 46.847399], [9.411231, 46.847393], [9.411118, 46.847325], [9.41108, 46.847272], [9.410946, 46.847239], [9.410739, 46.847115], [9.41064, 46.84712], [9.410557, 46.847094], [9.410552, 46.84706], [9.410479, 46.847063], [9.41045, 46.847012], [9.410329, 46.846945], [9.410341, 46.846959], [9.410236, 46.846949], [9.409608, 46.846718], [9.409363, 46.84668], [9.40933, 46.846615], [9.409278, 46.846626], [9.409197, 46.846595], [9.409089, 46.8466], [9.409054, 46.846626], [9.409016, 46.846598], [9.408904, 46.846603], [9.408815, 46.846563], [9.408803, 46.846576], [9.408788, 46.846531], [9.40853, 46.846492], [9.408509, 46.846444], [9.408449, 46.846412], [9.408357, 46.846424], [9.408174, 46.846321], [9.407812, 46.846225], [9.407739, 46.846154], [9.4077, 46.846137], [9.407675, 46.846151], [9.40771, 46.846144], [9.407676, 46.846108], [9.407581, 46.846114], [9.407605, 46.846117], [9.407587, 46.84608], [9.407511, 46.846056], [9.407457, 46.845972], [9.407354, 46.845951], [9.407316, 46.845898], [9.407222, 46.845889], [9.407132, 46.845845], [9.407109, 46.84582], [9.407146, 46.845691], [9.407079, 46.84566], [9.407055, 46.845559], [9.406965, 46.845521], [9.406884, 46.845402], [9.406832, 46.845202], [9.406672, 46.845011], [9.406558, 46.844693], [9.406372, 46.84458], [9.406285, 46.844493], [9.406222, 46.844476], [9.406089, 46.84433], [9.405978, 46.844283], [9.405907, 46.844147], [9.405794, 46.844076], [9.405681, 46.84392], [9.405617, 46.843729], [9.40555, 46.843644], [9.405558, 46.843594], [9.405322, 46.842991], [9.405274, 46.842581], [9.405238, 46.842504], [9.405254, 46.842426], [9.405175, 46.842314], [9.405158, 46.842199], [9.405105, 46.84212], [9.404943, 46.842022], [9.404869, 46.84189], [9.40447, 46.841651], [9.404301, 46.841261], [9.404304, 46.841195], [9.404249, 46.841077], [9.404278, 46.840887], [9.404258, 46.84085], [9.404326, 46.840389], [9.404298, 46.840349], [9.404376, 46.839844], [9.404379, 46.839539], [9.404607, 46.83853], [9.4046, 46.838418], [9.404534, 46.8383], [9.404578, 46.838153], [9.404768, 46.837967], [9.404794, 46.837828], [9.404892, 46.83769], [9.404952, 46.837509], [9.405172, 46.837118], [9.405306, 46.836698], [9.405368, 46.836645], [9.405344, 46.836602], [9.405407, 46.836484], [9.405361, 46.836381], [9.405331, 46.835935], [9.405412, 46.835844], [9.405457, 46.835604], [9.405551, 46.835381], [9.405552, 46.834941], [9.405512, 46.834825], [9.405536, 46.834721], [9.405613, 46.834573], [9.405655, 46.834559], [9.40576, 46.834615], [9.405744, 46.834673], [9.405808, 46.834808], [9.405966, 46.834886], [9.406038, 46.834829], [9.406031, 46.834589], [9.405995, 46.834521], [9.406016, 46.83446], [9.405981, 46.834398], [9.406016, 46.834157], [9.40605, 46.834132], [9.406069, 46.834036], [9.40604, 46.833739], [9.406055, 46.833438], [9.406012, 46.833253], [9.406065, 46.832914], [9.406042, 46.832817], [9.406112, 46.832606], [9.406201, 46.832525], [9.406297, 46.832267], [9.406379, 46.83217], [9.406376, 46.832119], [9.406522, 46.83197], [9.406576, 46.831843], [9.406423, 46.831219], [9.406474, 46.831083], [9.40647, 46.830945], [9.406556, 46.830736], [9.406514, 46.830616], [9.406497, 46.830389], [9.406512, 46.830329], [9.406565, 46.830285], [9.406578, 46.830107], [9.40665, 46.830122], [9.406631, 46.830079], [9.406706, 46.830026], [9.406699, 46.829989], [9.406685, 46.830034]]}, "properties": {"name": "1790392913.Ringelspitzhutte_Ringelspitz_summit_Tamins", "cmt": "2026-09-26", "tstamp": 1790380800, "desc": "DownHill", "src": "9.340953/46.829989/9.416649/46.89904", "bbox": "9.340953/46.829989/9.416649/46.89904"}}, {"type": "Feature", "bbox": [9.340953, 46.829989, 9.416649, 46.89904], "geometry": {"type": "LineString", "coordinates": [[9.406664, 46.83004], [9.406664, 46.83004]]}, "properties": {"name": "1790392913.Ringelspitzhutte_Ringelspitz_summit_Tamins", "cmt": "2026-09-26", "tstamp": 1790380800, "desc": "UpHill", "src": "9.340953/46.829989/9.416649/46.89904", "bbox": "9.340953/46.829989/9.416649/46.89904"}}]}