{"type": "FeatureCollection", "name": "TrackSet", "crs": {"type": "name", "properties": {"name": "urn:ogc:def:crs:OGC:1.3:CRS84"}}, "bbox": [6.18013, 46.331551, 6.206573, 46.354034], "features": [{"type": "Feature", "bbox": [6.18013, 46.331551, 6.206573, 46.354034], "geometry": {"type": "LineString", "coordinates": [[6.19402, 46.331792], [6.193955, 46.331782], [6.193972, 46.331738], [6.193511, 46.331808], [6.193414, 46.331888], [6.193167, 46.331868], [6.192949, 46.331939], [6.192969, 46.332017], [6.19292, 46.332055], [6.192916, 46.332132], [6.192791, 46.332178], [6.19256, 46.332217], [6.192535, 46.332308], [6.192422, 46.332371], [6.192488, 46.332506], [6.192482, 46.332629], [6.192614, 46.332788], [6.19257, 46.332836], [6.19245, 46.332869], [6.192389, 46.332922], [6.191832, 46.332955], [6.191735, 46.33299], [6.191612, 46.33298], [6.191139, 46.333022], [6.189938, 46.333213], [6.189406, 46.333396], [6.188713, 46.33358], [6.188546, 46.333651], [6.188016, 46.333772], [6.187915, 46.33382], [6.187778, 46.333836], [6.187771, 46.333869], [6.187801, 46.333846], [6.187823, 46.333898], [6.187808, 46.333838], [6.187828, 46.333878], [6.187688, 46.333944], [6.185256, 46.334586], [6.183141, 46.335223], [6.182107, 46.335468], [6.181449, 46.33574], [6.18125, 46.3358], [6.181212, 46.3358], [6.181139, 46.335749], [6.181166, 46.335756], [6.181159, 46.335806], [6.18117, 46.335785], [6.181132, 46.335813], [6.181116, 46.335736], [6.18109, 46.335767], [6.181104, 46.335725], [6.181124, 46.335771], [6.181153, 46.335759], [6.181192, 46.335805], [6.181183, 46.335849], [6.180519, 46.336211], [6.180293, 46.336388], [6.180298, 46.336414], [6.180154, 46.336572], [6.18013, 46.336553], [6.18013, 46.336616], [6.18066, 46.337192], [6.180917, 46.337421], [6.181154, 46.337689], [6.181428, 46.337905], [6.181668, 46.338139], [6.182206, 46.338715], [6.182358, 46.338834], [6.182381, 46.338902], [6.182666, 46.339122], [6.1829, 46.339413], [6.183068, 46.339548], [6.183098, 46.339601], [6.183102, 46.339576], [6.183104, 46.339612], [6.183368, 46.339845], [6.18379, 46.340301], [6.183868, 46.340337], [6.184388, 46.3409], [6.184516, 46.340988], [6.184654, 46.341181], [6.184718, 46.3412], [6.184855, 46.341365], [6.185009, 46.341495], [6.185134, 46.341526], [6.186138, 46.340935], [6.186321, 46.340917], [6.18649, 46.341045], [6.186756, 46.341294], [6.186835, 46.341402], [6.186989, 46.341514], [6.18756, 46.34206], [6.18767, 46.342133], [6.188067, 46.342543], [6.18819, 46.34262], [6.188661, 46.343103], [6.190235, 46.344539], [6.190485, 46.34482], [6.190483, 46.344883], [6.19035, 46.344953], [6.190165, 46.344995], [6.189545, 46.345313], [6.188906, 46.345581], [6.188442, 46.345844], [6.188133, 46.345952], [6.187882, 46.346078], [6.187816, 46.346146], [6.187653, 46.346176], [6.187174, 46.346435], [6.18685, 46.346574], [6.186834, 46.346601], [6.186614, 46.346673], [6.186462, 46.346751], [6.186446, 46.346805], [6.186509, 46.346966], [6.18694, 46.347345], [6.18699, 46.347497], [6.186887, 46.347583], [6.186592, 46.34768], [6.186498, 46.347779], [6.186413, 46.347811], [6.186162, 46.347993], [6.186053, 46.348011], [6.185831, 46.348111], [6.185765, 46.348177], [6.185601, 46.348247], [6.185596, 46.348299], [6.185684, 46.348358], [6.18568, 46.348402], [6.185777, 46.348471], [6.185807, 46.348565], [6.185904, 46.348645], [6.186204, 46.348824], [6.186241, 46.348823], [6.186314, 46.34891], [6.186564, 46.349077], [6.186747, 46.349128], [6.187007, 46.349294], [6.187687, 46.349487], [6.187821, 46.349565], [6.188087, 46.349664], [6.188265, 46.3497], [6.188362, 46.349752], [6.188468, 46.349733], [6.188708, 46.349753], [6.188948, 46.349691], [6.189029, 46.349603], [6.189178, 46.34957], [6.18938, 46.349416], [6.189563, 46.349347], [6.18962, 46.349279], [6.189746, 46.349225], [6.189867, 46.349115], [6.190103, 46.34903], [6.190359, 46.349036], [6.190459, 46.348974], [6.190524, 46.348967], [6.190513, 46.348939], [6.190725, 46.349009], [6.19082, 46.348967], [6.190917, 46.348991], [6.19093, 46.349027], [6.191134, 46.349152], [6.191403, 46.349261], [6.191462, 46.349415], [6.191654, 46.349691], [6.191757, 46.349764], [6.19183, 46.349771], [6.191942, 46.349729], [6.192093, 46.349717], [6.192375, 46.349617], [6.192633, 46.349579], [6.192821, 46.3496], [6.192934, 46.349702], [6.192966, 46.349879], [6.193017, 46.349962], [6.193125, 46.350045], [6.193278, 46.35025], [6.193343, 46.350294], [6.193438, 46.350413], [6.193428, 46.350459], [6.193506, 46.350531], [6.193734, 46.350549], [6.193799, 46.350576], [6.193916, 46.350541], [6.194031, 46.350557], [6.194192, 46.350714], [6.194228, 46.350798], [6.194427, 46.350808], [6.1945, 46.350787], [6.19481, 46.350556], [6.195084, 46.35054], [6.195315, 46.350483], [6.195381, 46.350577], [6.19537, 46.350605], [6.195443, 46.350658], [6.19543, 46.350675], [6.195535, 46.350708], [6.195593, 46.35076], [6.19564, 46.350917], [6.195609, 46.350972], [6.19532, 46.351118], [6.195337, 46.351185], [6.195351, 46.351166], [6.195398, 46.351253], [6.195481, 46.351289], [6.195616, 46.351426], [6.195748, 46.35162], [6.195877, 46.351729], [6.196064, 46.352011], [6.196113, 46.352034], [6.196111, 46.352072], [6.196182, 46.352088], [6.196125, 46.352081], [6.196229, 46.352202], [6.196292, 46.352248], [6.196503, 46.352307], [6.196639, 46.352443], [6.196735, 46.352463], [6.196884, 46.352541], [6.197125, 46.352615], [6.1975, 46.352777], [6.198138, 46.353173], [6.198566, 46.3535], [6.199265, 46.353899], [6.199525, 46.354003], [6.199552, 46.354034], [6.199756, 46.353957], [6.200122, 46.353709], [6.200316, 46.353639], [6.200408, 46.35356], [6.200614, 46.35346], [6.20063, 46.353422], [6.200765, 46.353369], [6.200777, 46.35333], [6.200927, 46.353271], [6.201, 46.353322], [6.200958, 46.353265], [6.201009, 46.353216], [6.201129, 46.35317], [6.201259, 46.353055], [6.201544, 46.352948], [6.201588, 46.352894], [6.20175, 46.352813], [6.201823, 46.352793], [6.20199, 46.352858], [6.202066, 46.352939], [6.202217, 46.353029], [6.202338, 46.353157], [6.202388, 46.353183], [6.202483, 46.353181], [6.202367, 46.353168], [6.202215, 46.353071], [6.201823, 46.35275], [6.201807, 46.352682], [6.201891, 46.352612], [6.201976, 46.352595], [6.20199, 46.352552], [6.202069, 46.352528], [6.202097, 46.352463], [6.202299, 46.352345], [6.202388, 46.352205], [6.202523, 46.352181], [6.202779, 46.351965], [6.203069, 46.351936], [6.203189, 46.351972], [6.203354, 46.351962], [6.203486, 46.352036], [6.203988, 46.35219], [6.204403, 46.352388], [6.204485, 46.352386], [6.204693, 46.352459], [6.20545, 46.352076], [6.205542, 46.352006], [6.206023, 46.351786], [6.206285, 46.351617], [6.206401, 46.351577], [6.206553, 46.351461], [6.206573, 46.351409], [6.206525, 46.351344], [6.205735, 46.350751], [6.205517, 46.350634], [6.204867, 46.350394], [6.204495, 46.350142], [6.204271, 46.350049], [6.204091, 46.349885], [6.203933, 46.349837], [6.203548, 46.349546], [6.203411, 46.34938], [6.203256, 46.349301], [6.202813, 46.348965], [6.202545, 46.348802], [6.202178, 46.348666], [6.202004, 46.348499], [6.20183, 46.348413], [6.201523, 46.348368], [6.200962, 46.348181], [6.200772, 46.348142], [6.200498, 46.34798], [6.2003, 46.347715], [6.200219, 46.347553], [6.200295, 46.347557], [6.200398, 46.347612], [6.200416, 46.347573], [6.200374, 46.347528], [6.200332, 46.347532], [6.200346, 46.347551], [6.200377, 46.347548], [6.200281, 46.347519], [6.200265, 46.347423], [6.200061, 46.347105], [6.20009, 46.347132], [6.199989, 46.346854], [6.199908, 46.346398], [6.199866, 46.346321], [6.199824, 46.345733], [6.199738, 46.345307], [6.199846, 46.345031], [6.200139, 46.344843], [6.20036, 46.34465], [6.200595, 46.344523], [6.20074, 46.344396], [6.200761, 46.344306], [6.200526, 46.343704], [6.200407, 46.343562], [6.20025, 46.343455], [6.200184, 46.34334], [6.200187, 46.343245], [6.200127, 46.343152], [6.200094, 46.342994], [6.200052, 46.34296], [6.200046, 46.342848], [6.200109, 46.342765], [6.200379, 46.342697], [6.200505, 46.342531], [6.200635, 46.342456], [6.200824, 46.342257], [6.201047, 46.342171], [6.201207, 46.342079], [6.201461, 46.342023], [6.201581, 46.341967], [6.201662, 46.341965], [6.201947, 46.341852], [6.20207, 46.34183], [6.202228, 46.341754], [6.20223, 46.341714], [6.201916, 46.341106], [6.201754, 46.340527], [6.201593, 46.340162], [6.201081, 46.339462], [6.200779, 46.339181], [6.200546, 46.338881], [6.200307, 46.338665], [6.200262, 46.338585], [6.200119, 46.338512], [6.200119, 46.338477], [6.2001, 46.338489], [6.200054, 46.338459], [6.199798, 46.338197], [6.199495, 46.337999], [6.199037, 46.337548], [6.198909, 46.337483], [6.198752, 46.337257], [6.198605, 46.337138], [6.198512, 46.336956], [6.198231, 46.336698], [6.198255, 46.336591], [6.197718, 46.336284], [6.197542, 46.336144], [6.197265, 46.336027], [6.197147, 46.335925], [6.197151, 46.335865], [6.19698, 46.335879], [6.196813, 46.33584], [6.196893, 46.335891], [6.196905, 46.335906], [6.196865, 46.335904], [6.196683, 46.335806], [6.19619, 46.33619], [6.195913, 46.336318], [6.195781, 46.336408], [6.194997, 46.336728], [6.194917, 46.336617], [6.194915, 46.336539], [6.194825, 46.336366], [6.194802, 46.336203], [6.194711, 46.336159], [6.194233, 46.336353], [6.193627, 46.336457], [6.193322, 46.336541], [6.193145, 46.336629], [6.193076, 46.336623], [6.192902, 46.336413], [6.192907, 46.336367], [6.192746, 46.336261], [6.192743, 46.336198], [6.192643, 46.336126], [6.192665, 46.336054], [6.192767, 46.336024], [6.192908, 46.335939], [6.192911, 46.335902], [6.192985, 46.335836], [6.192947, 46.335792], [6.19265, 46.336004], [6.192161, 46.336262], [6.191822, 46.336478], [6.191691, 46.336465], [6.191599, 46.336518], [6.1912, 46.336476], [6.190801, 46.336561], [6.190759, 46.336594], [6.19019, 46.33676], [6.189769, 46.336962], [6.188298, 46.337486], [6.187737, 46.337641], [6.18699, 46.337893], [6.186834, 46.337921], [6.186156, 46.338156], [6.186102, 46.338142], [6.185865, 46.33797], [6.185624, 46.337738], [6.185059, 46.337348], [6.184903, 46.33722], [6.184884, 46.337173], [6.184707, 46.33707], [6.184589, 46.337044], [6.184445, 46.336932], [6.184167, 46.33656], [6.18399, 46.336408], [6.183977, 46.336339], [6.183743, 46.336061], [6.183475, 46.335794], [6.183213, 46.33547], [6.183053, 46.335327], [6.182725, 46.335321], [6.182414, 46.335378], [6.182365, 46.33542], [6.181722, 46.335602], [6.181738, 46.335633], [6.181714, 46.335645], [6.181635, 46.335657], [6.181282, 46.335808], [6.181186, 46.335788], [6.181183, 46.335759], [6.181227, 46.335741], [6.181287, 46.335793], [6.181176, 46.335859], [6.181143, 46.335764], [6.181167, 46.335744], [6.181136, 46.33574], [6.181137, 46.335718], [6.181172, 46.335714], [6.181152, 46.335694], [6.181127, 46.335717], [6.18102, 46.335689], [6.180964, 46.335703], [6.181087, 46.335675], [6.181153, 46.335606], [6.181226, 46.335659], [6.181214, 46.335611], [6.181021, 46.335666], [6.18104, 46.335636], [6.181132, 46.33568], [6.181127, 46.335788], [6.181151, 46.335767], [6.181233, 46.335832], [6.181285, 46.335838], [6.181722, 46.335626], [6.182023, 46.335534], [6.182301, 46.335406], [6.182454, 46.335399], [6.182802, 46.3353], [6.182901, 46.335321], [6.183174, 46.335279], [6.183318, 46.335166], [6.183818, 46.33506], [6.184318, 46.33489], [6.184477, 46.334857], [6.184809, 46.334729], [6.185087, 46.334677], [6.185609, 46.334521], [6.186076, 46.334428], [6.186605, 46.334255], [6.18709, 46.334168], [6.187243, 46.334112], [6.187332, 46.334029], [6.187523, 46.333939], [6.187728, 46.333909], [6.188078, 46.333783], [6.188466, 46.333697], [6.18864, 46.33361], [6.189065, 46.333502], [6.18933, 46.333404], [6.189475, 46.33338], [6.189821, 46.333253], [6.190474, 46.333145], [6.191032, 46.333091], [6.191133, 46.33306], [6.191505, 46.333015], [6.191741, 46.333017], [6.191845, 46.332975], [6.192024, 46.332979], [6.192137, 46.332938], [6.192432, 46.332889], [6.192558, 46.332902], [6.192593, 46.332927], [6.192659, 46.332807], [6.192668, 46.332611], [6.192581, 46.33249], [6.192741, 46.332144], [6.192814, 46.332099], [6.192981, 46.33209], [6.193045, 46.331969], [6.193294, 46.331877], [6.193815, 46.331813], [6.194027, 46.331855], [6.194317, 46.331856], [6.194312, 46.331816], [6.194442, 46.331691], [6.194416, 46.331629], [6.194435, 46.331568], [6.194394, 46.331571], [6.194396, 46.331551], [6.194352, 46.331602], [6.194377, 46.331573], [6.194362, 46.331601], [6.194431, 46.33167], [6.19439, 46.331744], [6.194302, 46.331737], [6.194331, 46.331789], [6.194287, 46.331748], [6.194121, 46.331689]]}, "properties": {"name": "1790679715.Founex_loop_with_K", "cmt": "2026-09-29", "tstamp": 1790640000, "desc": "---", "src": "6.18013/46.331551/6.206573/46.354034", "bbox": "6.18013/46.331551/6.206573/46.354034"}}]}