{"type": "FeatureCollection", "name": "TrackSet", "crs": {"type": "name", "properties": {"name": "urn:ogc:def:crs:OGC:1.3:CRS84"}}, "bbox": [6.891096, 45.949164, 6.897303, 45.951147], "features": [{"type": "Feature", "bbox": [6.891096, 45.949164, 6.897303, 45.951147], "geometry": {"type": "LineString", "coordinates": [[6.897114, 45.951006], [6.897057, 45.951057], [6.896922, 45.951109], [6.896804, 45.951111], [6.89668, 45.951063], [6.896624, 45.951071], [6.89655, 45.951004], [6.896481, 45.951005], [6.896439, 45.950952], [6.896328, 45.950915], [6.896184, 45.950724], [6.896064, 45.950617], [6.896, 45.950458], [6.896033, 45.950301], [6.895962, 45.950271], [6.895974, 45.95029], [6.896006, 45.950219], [6.895965, 45.950132], [6.895789, 45.949921], [6.895696, 45.949854], [6.895615, 45.949716], [6.895552, 45.949692], [6.895508, 45.949601], [6.895364, 45.949466], [6.895273, 45.949417], [6.895159, 45.949407], [6.894879, 45.949508], [6.894745, 45.949605], [6.894674, 45.949613], [6.894655, 45.949654], [6.894616, 45.949636], [6.894378, 45.949754], [6.894286, 45.949761], [6.893993, 45.949935], [6.893888, 45.949949], [6.893768, 45.95006], [6.893639, 45.950075], [6.893547, 45.950133], [6.893488, 45.95025], [6.89339, 45.950288], [6.893397, 45.950265], [6.893235, 45.950174], [6.893155, 45.950216], [6.893045, 45.950169], [6.892993, 45.950199], [6.893028, 45.950217], [6.89301, 45.950195], [6.892958, 45.950209], [6.892862, 45.950078], [6.892797, 45.950039], [6.892776, 45.949954], [6.892722, 45.949949], [6.892689, 45.949885], [6.892456, 45.949736], [6.892407, 45.949749], [6.892472, 45.949702], [6.892392, 45.949691], [6.892339, 45.949629], [6.892163, 45.949629], [6.892079, 45.9496], [6.892003, 45.949495], [6.891941, 45.949464], [6.89179, 45.949418], [6.891683, 45.949422], [6.891632, 45.949401], [6.891567, 45.949301], [6.891485, 45.949263], [6.891482, 45.949207], [6.89141, 45.949164], [6.891419, 45.949186], [6.891371, 45.949176], [6.891332, 45.949217], [6.89134, 45.949291], [6.89131, 45.949269], [6.891262, 45.949292], [6.891258, 45.949314], [6.891321, 45.949286], [6.891106, 45.94941], [6.891096, 45.949478], [6.891301, 45.949559], [6.891316, 45.949597], [6.891378, 45.949603], [6.891396, 45.949555], [6.89145, 45.949536], [6.891421, 45.949572], [6.89143, 45.949557], [6.891561, 45.949583], [6.891702, 45.949657], [6.891805, 45.949651], [6.891882, 45.949688], [6.89191, 45.949738], [6.892089, 45.949831], [6.892341, 45.950015], [6.892377, 45.95007], [6.892575, 45.950153], [6.892716, 45.950286], [6.892714, 45.950335], [6.89278, 45.95033], [6.892823, 45.950357], [6.892817, 45.950381], [6.892861, 45.950402], [6.892846, 45.950507], [6.892889, 45.950557], [6.892973, 45.950566], [6.892955, 45.950608], [6.89298, 45.950626], [6.893086, 45.950664], [6.89307, 45.950741], [6.893129, 45.950743], [6.89323, 45.950674], [6.893208, 45.950699], [6.893297, 45.950898], [6.893356, 45.950905], [6.893343, 45.950934], [6.893379, 45.95093], [6.893432, 45.950965], [6.893417, 45.951021], [6.893536, 45.951077], [6.893589, 45.951083], [6.893634, 45.951019], [6.893635, 45.951044], [6.893693, 45.951044], [6.893744, 45.951093], [6.893915, 45.951004], [6.893947, 45.95103], [6.89394, 45.951013], [6.894296, 45.951025], [6.894394, 45.951009], [6.894448, 45.950826], [6.894429, 45.950712], [6.894395, 45.950685], [6.894417, 45.950576], [6.894379, 45.950553], [6.894386, 45.950489], [6.894359, 45.950459], [6.894296, 45.950458], [6.894201, 45.950296], [6.894153, 45.950282], [6.894114, 45.950192], [6.89405, 45.950163], [6.894078, 45.95002], [6.894044, 45.950027], [6.89398, 45.949978], [6.894066, 45.94995], [6.894184, 45.949825], [6.894244, 45.949832], [6.894388, 45.949757], [6.894757, 45.949627], [6.894982, 45.949491], [6.895213, 45.949434], [6.895298, 45.949462], [6.89549, 45.949631], [6.895809, 45.949953], [6.895954, 45.950147], [6.895989, 45.950152], [6.896027, 45.950221], [6.895989, 45.950416], [6.896011, 45.950559], [6.89605, 45.950568], [6.896126, 45.950703], [6.896115, 45.95073], [6.896179, 45.950731], [6.89618, 45.95076], [6.896211, 45.95075], [6.896244, 45.950822], [6.896419, 45.950992], [6.896537, 45.95107], [6.89673, 45.951137], [6.896889, 45.951147], [6.897063, 45.951097], [6.897176, 45.950987], [6.897164, 45.950929], [6.897219, 45.950934], [6.897236, 45.950899], [6.897231, 45.950948], [6.897303, 45.950899]]}, "properties": {"name": "1790838735.Chamonix_old_dog_walk", "cmt": "2026-10-01", "tstamp": 1790812800, "desc": "---", "src": "6.891096/45.949164/6.897303/45.951147", "bbox": "6.891096/45.949164/6.897303/45.951147"}}]}