{"type": "FeatureCollection", "name": "TrackSet", "crs": {"type": "name", "properties": {"name": "urn:ogc:def:crs:OGC:1.3:CRS84"}}, "bbox": [7.179451, 46.071511, 7.241137, 46.101607], "features": [{"type": "Feature", "bbox": [7.179451, 46.071511, 7.241137, 46.101607], "geometry": {"type": "LineString", "coordinates": [[7.212221, 46.079711], [7.211965, 46.079895], [7.212203, 46.079956], [7.212236, 46.080023], [7.212172, 46.079963], [7.212217, 46.079941], [7.212212, 46.079984], [7.212253, 46.07998], [7.212244, 46.079999], [7.212304, 46.080018], [7.212302, 46.080063], [7.212399, 46.08007], [7.212438, 46.080129], [7.212522, 46.080177], [7.212554, 46.080267], [7.212511, 46.080382], [7.212527, 46.080414], [7.212403, 46.080476], [7.212406, 46.080584], [7.212358, 46.080625], [7.212438, 46.080743], [7.212593, 46.080832], [7.212611, 46.080893], [7.21282, 46.081072], [7.212839, 46.081135], [7.212687, 46.081393], [7.21245, 46.081546], [7.212558, 46.081655], [7.212704, 46.081696], [7.212656, 46.081787], [7.212672, 46.081811], [7.212592, 46.081872], [7.212556, 46.081948], [7.21269, 46.082207], [7.212709, 46.082301], [7.212623, 46.082361], [7.212631, 46.082436], [7.212536, 46.082537], [7.212529, 46.082585], [7.212319, 46.082669], [7.212263, 46.082717], [7.212168, 46.082736], [7.211814, 46.082976], [7.211555, 46.08304], [7.211307, 46.083164], [7.211155, 46.083161], [7.210989, 46.08325], [7.210977, 46.083287], [7.21082, 46.083348], [7.210772, 46.08341], [7.210661, 46.083467], [7.210356, 46.083436], [7.209818, 46.083468], [7.209417, 46.083599], [7.209124, 46.083648], [7.208582, 46.083825], [7.207915, 46.083965], [7.207557, 46.084094], [7.207306, 46.084152], [7.207277, 46.084188], [7.20735, 46.0843], [7.207602, 46.084576], [7.207666, 46.0847], [7.207694, 46.084908], [7.207947, 46.085265], [7.208043, 46.085745], [7.207891, 46.085774], [7.207691, 46.085746], [7.207433, 46.085826], [7.20734, 46.085831], [7.207264, 46.085872], [7.207005, 46.085871], [7.206909, 46.085927], [7.206677, 46.085979], [7.206385, 46.086114], [7.206087, 46.08633], [7.205884, 46.086403], [7.205799, 46.086472], [7.205709, 46.086498], [7.205552, 46.086736], [7.205256, 46.086995], [7.204999, 46.087278], [7.204756, 46.087614], [7.20465, 46.087686], [7.204058, 46.087826], [7.203674, 46.0878], [7.20327, 46.087804], [7.202419, 46.087653], [7.202414, 46.087632], [7.202415, 46.08766], [7.202432, 46.087643], [7.202436, 46.087665], [7.202457, 46.087656], [7.202403, 46.087664], [7.202445, 46.087673], [7.202456, 46.087638], [7.202109, 46.0876], [7.201435, 46.087476], [7.200634, 46.087452], [7.200462, 46.087471], [7.200149, 46.087464], [7.199702, 46.087537], [7.19948, 46.087602], [7.198975, 46.087825], [7.198855, 46.087904], [7.198478, 46.088042], [7.197901, 46.088165], [7.19764, 46.088159], [7.197363, 46.088115], [7.196508, 46.088169], [7.196463, 46.088192], [7.195982, 46.088164], [7.19583, 46.088193], [7.195697, 46.08816], [7.195529, 46.088187], [7.195082, 46.088206], [7.19497, 46.088191], [7.194827, 46.088241], [7.194611, 46.088237], [7.194567, 46.088275], [7.194312, 46.088357], [7.194187, 46.088368], [7.194032, 46.088462], [7.193821, 46.088539], [7.193633, 46.088682], [7.193471, 46.088871], [7.193332, 46.088917], [7.193221, 46.08899], [7.193165, 46.088984], [7.193087, 46.089024], [7.192796, 46.089006], [7.192376, 46.089033], [7.19205, 46.089013], [7.191588, 46.088853], [7.191443, 46.088737], [7.191258, 46.088676], [7.190755, 46.088693], [7.190589, 46.088731], [7.190529, 46.088724], [7.190368, 46.088783], [7.190183, 46.088782], [7.190129, 46.088761], [7.190043, 46.088803], [7.189773, 46.088832], [7.189426, 46.088934], [7.189253, 46.088958], [7.188958, 46.089079], [7.188679, 46.089317], [7.188507, 46.089374], [7.188473, 46.089421], [7.18822, 46.089509], [7.187928, 46.089742], [7.18777, 46.089812], [7.187716, 46.089879], [7.18748, 46.089956], [7.18721, 46.090133], [7.187084, 46.090175], [7.187003, 46.090259], [7.186544, 46.090464], [7.186209, 46.090487], [7.186004, 46.090457], [7.185731, 46.090461], [7.185686, 46.090484], [7.185605, 46.090446], [7.185555, 46.090453], [7.185395, 46.090412], [7.185163, 46.090425], [7.185075, 46.090406], [7.184795, 46.090469], [7.184742, 46.090462], [7.184564, 46.090541], [7.184436, 46.090608], [7.184262, 46.090773], [7.184226, 46.090913], [7.184091, 46.091043], [7.184073, 46.091162], [7.184034, 46.091193], [7.18388, 46.091237], [7.183795, 46.091355], [7.183385, 46.091525], [7.183277, 46.091616], [7.183059, 46.091659], [7.182958, 46.091759], [7.182798, 46.091794], [7.182719, 46.091915], [7.182591, 46.091966], [7.18258, 46.091996], [7.18239, 46.092094], [7.182352, 46.092202], [7.182178, 46.092253], [7.182133, 46.09233], [7.181796, 46.092527], [7.181747, 46.0926], [7.181664, 46.09261], [7.181539, 46.092693], [7.181396, 46.092732], [7.181266, 46.092831], [7.181147, 46.092846], [7.181019, 46.092945], [7.180937, 46.092968], [7.180784, 46.092953], [7.180645, 46.092833], [7.180555, 46.092805], [7.180425, 46.092703], [7.180211, 46.092649], [7.180141, 46.092659], [7.180005, 46.092634], [7.179931, 46.09265], [7.17974, 46.092827], [7.179639, 46.09301], [7.179632, 46.093106], [7.179582, 46.093158], [7.179516, 46.093514], [7.179604, 46.093941], [7.179451, 46.094367], [7.179527, 46.094497], [7.179481, 46.094664], [7.179522, 46.094943], [7.179623, 46.094936], [7.179696, 46.095046], [7.179768, 46.09484], [7.179681, 46.094784], [7.179734, 46.094727], [7.179805, 46.094723], [7.179862, 46.094686], [7.180012, 46.094768], [7.180051, 46.094745], [7.180152, 46.094749], [7.180306, 46.094704], [7.180379, 46.094705], [7.180424, 46.094672], [7.180473, 46.094696], [7.18048, 46.094745], [7.180404, 46.094785], [7.180503, 46.094866], [7.180482, 46.095046], [7.180581, 46.095125], [7.180546, 46.09512], [7.180557, 46.095146], [7.18053, 46.09513], [7.180575, 46.095161], [7.180589, 46.095125], [7.180639, 46.095129], [7.180646, 46.095151], [7.180544, 46.095196], [7.180506, 46.095185], [7.180527, 46.095208], [7.180458, 46.095234], [7.180457, 46.095259], [7.180404, 46.095242], [7.18035, 46.095284], [7.180376, 46.09529], [7.180348, 46.095273], [7.180382, 46.0953], [7.180354, 46.09534], [7.180332, 46.095311], [7.180352, 46.095395], [7.180349, 46.095428], [7.180327, 46.095423], [7.180341, 46.095402], [7.180425, 46.095463], [7.180504, 46.095481], [7.180501, 46.095444], [7.180533, 46.095487], [7.180533, 46.095457], [7.180575, 46.095497], [7.180567, 46.095538], [7.180718, 46.095655], [7.180778, 46.095643], [7.180766, 46.095606], [7.180856, 46.095633], [7.180907, 46.095678], [7.180898, 46.095708], [7.18092, 46.095701], [7.181004, 46.095768], [7.18092, 46.095783], [7.180999, 46.095825], [7.180924, 46.095864], [7.18096, 46.095865], [7.180982, 46.095896], [7.180998, 46.095878], [7.180981, 46.095926], [7.181027, 46.095974], [7.180999, 46.096015], [7.181034, 46.096023], [7.181038, 46.096054], [7.180982, 46.096124], [7.180919, 46.096142], [7.180921, 46.096168], [7.180878, 46.096099], [7.180849, 46.09614], [7.180873, 46.096151], [7.18084, 46.096134], [7.180911, 46.096207], [7.18076, 46.096185], [7.180769, 46.096308], [7.180649, 46.096386], [7.18069, 46.096407], [7.180647, 46.096424], [7.180702, 46.096472], [7.180633, 46.096455], [7.180637, 46.096522], [7.180675, 46.096508], [7.180804, 46.096615], [7.180799, 46.096491], [7.180866, 46.096532], [7.180856, 46.096493], [7.180882, 46.096483], [7.18102, 46.096507], [7.181054, 46.096472], [7.181054, 46.096537], [7.181118, 46.096574], [7.181081, 46.096651], [7.181124, 46.096717], [7.181061, 46.096729], [7.181087, 46.096695], [7.181061, 46.096738], [7.181146, 46.096787], [7.181083, 46.096913], [7.18102, 46.096945], [7.181028, 46.097035], [7.180996, 46.097019], [7.18097, 46.097054], [7.181005, 46.097061], [7.181018, 46.097107], [7.180967, 46.097145], [7.181002, 46.097222], [7.181209, 46.097273], [7.181235, 46.097249], [7.181278, 46.09732], [7.181421, 46.097317], [7.181453, 46.097356], [7.181526, 46.097353], [7.181593, 46.097295], [7.181607, 46.097322], [7.181578, 46.097324], [7.181631, 46.097333], [7.181472, 46.097473], [7.181428, 46.097482], [7.181432, 46.097508], [7.181406, 46.097504], [7.181418, 46.097485], [7.181395, 46.097502], [7.18142, 46.097521], [7.181377, 46.097579], [7.181264, 46.097656], [7.181232, 46.097639], [7.181243, 46.097715], [7.181371, 46.097746], [7.181471, 46.097817], [7.181521, 46.097806], [7.18153, 46.097838], [7.181581, 46.097839], [7.181651, 46.097893], [7.181652, 46.097929], [7.181757, 46.097979], [7.181866, 46.097979], [7.181882, 46.098018], [7.18186, 46.098], [7.181904, 46.09799], [7.182005, 46.098004], [7.182095, 46.09804], [7.182089, 46.098075], [7.182121, 46.098061], [7.182095, 46.098075], [7.182078, 46.098048], [7.182062, 46.098058], [7.18204, 46.09817], [7.182002, 46.098174], [7.181994, 46.098222], [7.181921, 46.098279], [7.18197, 46.098342], [7.181952, 46.098324], [7.181891, 46.098401], [7.181854, 46.098381], [7.181836, 46.098408], [7.18183, 46.098497], [7.181869, 46.098532], [7.181928, 46.09856], [7.181917, 46.098547], [7.181959, 46.098546], [7.18197, 46.098581], [7.182093, 46.098579], [7.182124, 46.098615], [7.182181, 46.098596], [7.182211, 46.098616], [7.18223, 46.098586], [7.182346, 46.098603], [7.182406, 46.098556], [7.182476, 46.098595], [7.18246, 46.098582], [7.1824, 46.098614], [7.182402, 46.09864], [7.182378, 46.098632], [7.182385, 46.098661], [7.182325, 46.098727], [7.182359, 46.098763], [7.182478, 46.098805], [7.182574, 46.098755], [7.182592, 46.098777], [7.18269, 46.098777], [7.182391, 46.098994], [7.182325, 46.098989], [7.182235, 46.099095], [7.18212, 46.099145], [7.182046, 46.099132], [7.182014, 46.09923], [7.181906, 46.099365], [7.181919, 46.099419], [7.181895, 46.099429], [7.181941, 46.099484], [7.181859, 46.099541], [7.181846, 46.099587], [7.181848, 46.099642], [7.181897, 46.099674], [7.181873, 46.099662], [7.181892, 46.099677], [7.181858, 46.099698], [7.181868, 46.099671], [7.181943, 46.099711], [7.181995, 46.099679], [7.182015, 46.099697], [7.18193, 46.099744], [7.181854, 46.099735], [7.181925, 46.099742], [7.18188, 46.099731], [7.181904, 46.099701], [7.181974, 46.099688], [7.182001, 46.099729], [7.182064, 46.099719], [7.182061, 46.099754], [7.182061, 46.099724], [7.182174, 46.099817], [7.182296, 46.09976], [7.182338, 46.099765], [7.182375, 46.099741], [7.182366, 46.099699], [7.182353, 46.099718], [7.18243, 46.09973], [7.182374, 46.099671], [7.182395, 46.09964], [7.182469, 46.099639], [7.18251, 46.099677], [7.18247, 46.099791], [7.182543, 46.099798], [7.182599, 46.099868], [7.182545, 46.099888], [7.182602, 46.099941], [7.182548, 46.099982], [7.182537, 46.100028], [7.182655, 46.100068], [7.182715, 46.100048], [7.182803, 46.099939], [7.182791, 46.099919], [7.182752, 46.099923], [7.182828, 46.099848], [7.1828, 46.100024], [7.182873, 46.100023], [7.182913, 46.100069], [7.182975, 46.100076], [7.183046, 46.099997], [7.18301, 46.100011], [7.182986, 46.100118], [7.183064, 46.100176], [7.183016, 46.100249], [7.183011, 46.10036], [7.183067, 46.100394], [7.183157, 46.100399], [7.183225, 46.100488], [7.183407, 46.100512], [7.18346, 46.100423], [7.183425, 46.100395], [7.183443, 46.100437], [7.183471, 46.100412], [7.18354, 46.100424], [7.183546, 46.100403], [7.183585, 46.100431], [7.183613, 46.100394], [7.183675, 46.10038], [7.183698, 46.100406], [7.183771, 46.100337], [7.18382, 46.100352], [7.183864, 46.100315], [7.183966, 46.100341], [7.184031, 46.100329], [7.184113, 46.100397], [7.184079, 46.100409], [7.18409, 46.100431], [7.184155, 46.100445], [7.184212, 46.100495], [7.18431, 46.100382], [7.184277, 46.100351], [7.184203, 46.100353], [7.18435, 46.10035], [7.18449, 46.100255], [7.184586, 46.100252], [7.184605, 46.100216], [7.184782, 46.100228], [7.18483, 46.100281], [7.184945, 46.100313], [7.185094, 46.10027], [7.185208, 46.10028], [7.185283, 46.100329], [7.185362, 46.10032], [7.185397, 46.10028], [7.185498, 46.100259], [7.185568, 46.100276], [7.185643, 46.100195], [7.185752, 46.100145], [7.185806, 46.100057], [7.185872, 46.100056], [7.185902, 46.100091], [7.185949, 46.100077], [7.185926, 46.100057], [7.185954, 46.099994], [7.186053, 46.100028], [7.186106, 46.100008], [7.186084, 46.09999], [7.186219, 46.099893], [7.186217, 46.099856], [7.186279, 46.099787], [7.186245, 46.099716], [7.186307, 46.099665], [7.186297, 46.099632], [7.186364, 46.099641], [7.186361, 46.099594], [7.186416, 46.099566], [7.186443, 46.099472], [7.186488, 46.099456], [7.186519, 46.099402], [7.186473, 46.099368], [7.186545, 46.099379], [7.186529, 46.099363], [7.186574, 46.099335], [7.186671, 46.099338], [7.186706, 46.099314], [7.186749, 46.099337], [7.186752, 46.09932], [7.186785, 46.099326], [7.186805, 46.099262], [7.186763, 46.099228], [7.186815, 46.099209], [7.187111, 46.099234], [7.187121, 46.09921], [7.187207, 46.099332], [7.187293, 46.099358], [7.187313, 46.099399], [7.187372, 46.09939], [7.18748, 46.099425], [7.187613, 46.099559], [7.18767, 46.099573], [7.187684, 46.099674], [7.187717, 46.099665], [7.187806, 46.099701], [7.187807, 46.099649], [7.187793, 46.099616], [7.187591, 46.099554], [7.187502, 46.099583], [7.187441, 46.099645], [7.187539, 46.099689], [7.187522, 46.099661], [7.187472, 46.099659], [7.187477, 46.099681], [7.187485, 46.099647], [7.187403, 46.09961], [7.187324, 46.099623], [7.187213, 46.099602], [7.187188, 46.099626], [7.187221, 46.099644], [7.187255, 46.099845], [7.187371, 46.099895], [7.187368, 46.099912], [7.187345, 46.099901], [7.187438, 46.099974], [7.187589, 46.1], [7.187608, 46.100047], [7.187674, 46.100064], [7.187736, 46.100178], [7.187782, 46.10014], [7.187754, 46.100122], [7.187773, 46.100101], [7.187744, 46.10014], [7.187792, 46.10017], [7.187769, 46.100192], [7.187795, 46.100193], [7.187745, 46.100163], [7.187657, 46.10022], [7.187829, 46.100296], [7.187779, 46.100292], [7.187703, 46.100339], [7.187645, 46.100307], [7.187591, 46.100324], [7.187691, 46.100427], [7.187767, 46.100371], [7.187807, 46.100375], [7.187776, 46.100457], [7.187676, 46.100448], [7.187579, 46.100469], [7.187612, 46.100548], [7.187754, 46.10059], [7.187705, 46.100618], [7.187662, 46.100608], [7.187571, 46.100663], [7.187476, 46.100666], [7.187336, 46.10073], [7.187288, 46.100852], [7.187213, 46.100886], [7.187219, 46.100906], [7.187197, 46.100908], [7.187204, 46.100881], [7.187233, 46.100876], [7.187192, 46.100915], [7.187247, 46.100905], [7.187311, 46.100946], [7.187403, 46.100925], [7.187459, 46.100966], [7.187555, 46.100941], [7.187555, 46.100924], [7.187742, 46.100954], [7.187796, 46.100935], [7.187897, 46.100953], [7.18789, 46.100971], [7.187979, 46.101014], [7.188043, 46.101009], [7.188092, 46.101093], [7.188051, 46.101143], [7.187995, 46.101146], [7.187993, 46.101169], [7.188035, 46.101171], [7.187999, 46.101237], [7.18796, 46.101244], [7.188023, 46.101361], [7.188237, 46.101403], [7.188292, 46.101374], [7.188339, 46.101388], [7.188338, 46.101331], [7.188354, 46.101354], [7.188397, 46.101369], [7.188434, 46.101351], [7.188454, 46.101375], [7.188469, 46.101356], [7.188527, 46.101373], [7.188606, 46.101361], [7.188613, 46.101329], [7.188718, 46.101451], [7.188727, 46.101411], [7.188753, 46.101445], [7.188754, 46.101519], [7.188725, 46.101545], [7.18876, 46.101607], [7.188803, 46.101579], [7.188919, 46.101581], [7.189125, 46.101488], [7.18924, 46.101493], [7.189297, 46.101439], [7.189293, 46.101406], [7.189519, 46.101355], [7.189508, 46.101339], [7.189555, 46.10132], [7.189542, 46.101294], [7.189693, 46.101291], [7.189771, 46.101242], [7.189847, 46.101282], [7.189984, 46.101258], [7.190084, 46.101272], [7.190111, 46.101237], [7.190204, 46.101202], [7.190191, 46.101159], [7.190271, 46.101148], [7.19032, 46.101085], [7.190297, 46.101066], [7.190346, 46.101045], [7.190354, 46.100923], [7.190299, 46.100855], [7.190152, 46.100831], [7.190266, 46.10081], [7.190278, 46.100767], [7.190392, 46.100695], [7.190315, 46.100588], [7.190312, 46.100461], [7.190352, 46.100415], [7.190396, 46.10041], [7.190355, 46.100365], [7.190445, 46.100327], [7.19083, 46.10028], [7.190851, 46.100248], [7.190923, 46.100226], [7.190955, 46.100101], [7.190944, 46.100061], [7.190913, 46.100062], [7.190939, 46.10008], [7.191025, 46.100049], [7.191132, 46.099871], [7.191201, 46.099861], [7.19116, 46.099877], [7.191272, 46.099935], [7.191427, 46.099872], [7.191454, 46.099806], [7.191489, 46.099808], [7.191492, 46.099834], [7.191535, 46.09983], [7.191536, 46.099808], [7.191567, 46.099857], [7.191475, 46.099942], [7.191529, 46.099993], [7.191513, 46.099976], [7.191539, 46.099988], [7.191575, 46.099925], [7.191537, 46.099933], [7.191531, 46.099971], [7.191499, 46.099949], [7.191456, 46.099967], [7.191403, 46.100039], [7.191447, 46.100084], [7.191621, 46.100094], [7.191702, 46.100039], [7.191865, 46.100005], [7.191846, 46.100015], [7.191945, 46.100055], [7.191926, 46.100064], [7.191962, 46.100011], [7.19202, 46.099998], [7.192, 46.099987], [7.19205, 46.099966], [7.192105, 46.099878], [7.192095, 46.099731], [7.192143, 46.099717], [7.19214, 46.099681], [7.192187, 46.099655], [7.192172, 46.099619], [7.192205, 46.099548], [7.1923, 46.099503], [7.19232, 46.099435], [7.192378, 46.0994], [7.192437, 46.099251], [7.192532, 46.099134], [7.192531, 46.09909], [7.192667, 46.098918], [7.192693, 46.098774], [7.192755, 46.098746], [7.192755, 46.098709], [7.192803, 46.098676], [7.192818, 46.09861], [7.192907, 46.098499], [7.192951, 46.098401], [7.192926, 46.098366], [7.193169, 46.098063], [7.193194, 46.097927], [7.193295, 46.097881], [7.193295, 46.097818], [7.193387, 46.097764], [7.193573, 46.09751], [7.1937, 46.097397], [7.193859, 46.097189], [7.193929, 46.097145], [7.193979, 46.097012], [7.194021, 46.097008], [7.194102, 46.097114], [7.19419, 46.097134], [7.194275, 46.097194], [7.194315, 46.097171], [7.19437, 46.097214], [7.194446, 46.097211], [7.194392, 46.097201], [7.1943, 46.097243], [7.194226, 46.097223], [7.194129, 46.097244], [7.193971, 46.09733], [7.19393, 46.097387], [7.193823, 46.097433], [7.193809, 46.097481], [7.194095, 46.097461], [7.194191, 46.097411], [7.194363, 46.097452], [7.194432, 46.097499], [7.194654, 46.097451], [7.194733, 46.097495], [7.194873, 46.097491], [7.194948, 46.097571], [7.194996, 46.097594], [7.195014, 46.097569], [7.195048, 46.097579], [7.195174, 46.097651], [7.195256, 46.097642], [7.195335, 46.09768], [7.195399, 46.097649], [7.195397, 46.097667], [7.195386, 46.097695], [7.19532, 46.09772], [7.195186, 46.097729], [7.195095, 46.097692], [7.194851, 46.097682], [7.19455, 46.097737], [7.194514, 46.097716], [7.194418, 46.097747], [7.194385, 46.097733], [7.194223, 46.097782], [7.194116, 46.09785], [7.193915, 46.098061], [7.193742, 46.098292], [7.193742, 46.098223], [7.19379, 46.098333], [7.193834, 46.098294], [7.193809, 46.098293], [7.193869, 46.09828], [7.19382, 46.098355], [7.193853, 46.09828], [7.193924, 46.098268], [7.193916, 46.098217], [7.194003, 46.098125], [7.194178, 46.098062], [7.194196, 46.098022], [7.194278, 46.09798], [7.194432, 46.097971], [7.194601, 46.09803], [7.194702, 46.098], [7.194748, 46.098034], [7.194897, 46.098051], [7.194907, 46.09813], [7.194959, 46.098157], [7.195082, 46.09816], [7.195267, 46.098283], [7.195368, 46.098256], [7.195429, 46.098169], [7.195513, 46.098114], [7.19556, 46.098123], [7.195633, 46.098088], [7.195703, 46.097961], [7.195786, 46.097956]]}, "properties": {"name": "1790066342.Le_Chable_return_via_the_long_route", "cmt": "2026-09-22", "tstamp": 1790035200, "desc": "UpHill", "src": "7.179451/46.071511/7.241137/46.101607", "bbox": "7.179451/46.071511/7.241137/46.101607"}}, {"type": "Feature", "bbox": [7.179451, 46.071511, 7.241137, 46.101607], "geometry": {"type": "LineString", "coordinates": [[7.195802, 46.097948], [7.195786, 46.097885], [7.195837, 46.097835], [7.195812, 46.097813], [7.195789, 46.097872], [7.195813, 46.097803], [7.195873, 46.097765], [7.195908, 46.09778], [7.195927, 46.097765], [7.195862, 46.097685], [7.195846, 46.097728], [7.195795, 46.097687], [7.196012, 46.097441], [7.196177, 46.09762], [7.196122, 46.097679], [7.196168, 46.097721], [7.196117, 46.097763], [7.196075, 46.097705], [7.196026, 46.097716], [7.195877, 46.097795], [7.195877, 46.09785], [7.195806, 46.097812], [7.195867, 46.09779], [7.195886, 46.097841], [7.19585, 46.097863], [7.195836, 46.09783], [7.195816, 46.097864], [7.195843, 46.097855], [7.195908, 46.097893], [7.196131, 46.097895], [7.196162, 46.097918], [7.196189, 46.097875], [7.196245, 46.097877], [7.196392, 46.097896], [7.196527, 46.097952], [7.196584, 46.097918], [7.196636, 46.097949], [7.19676, 46.097915], [7.19698, 46.097913], [7.197087, 46.097964], [7.197138, 46.097933], [7.197457, 46.098], [7.197446, 46.097973], [7.197568, 46.098046], [7.197829, 46.098071], [7.197889, 46.098033], [7.197968, 46.098039], [7.198001, 46.097978], [7.198216, 46.097824], [7.198267, 46.097822], [7.198314, 46.097872], [7.19839, 46.09784], [7.198557, 46.097858], [7.198739, 46.097815], [7.198797, 46.097719], [7.198747, 46.097626], [7.198654, 46.097639], [7.19862, 46.097681], [7.198549, 46.097693], [7.198534, 46.097716], [7.198543, 46.097698], [7.198472, 46.097669], [7.198434, 46.097599], [7.198415, 46.097649], [7.198364, 46.097587], [7.198347, 46.097633], [7.198301, 46.09763], [7.198333, 46.097609], [7.198331, 46.09764], [7.198305, 46.097615], [7.198309, 46.097675], [7.198281, 46.09767], [7.198285, 46.09763], [7.19832, 46.097659], [7.198281, 46.097657], [7.198328, 46.097656], [7.198303, 46.097641], [7.198331, 46.097627], [7.198338, 46.097642], [7.198317, 46.097609], [7.19834, 46.097598], [7.198314, 46.097593], [7.198348, 46.097583], [7.198319, 46.097652], [7.198363, 46.097635], [7.198333, 46.097637], [7.198355, 46.097619], [7.198313, 46.097659], [7.198313, 46.097621], [7.198299, 46.097653], [7.198358, 46.097652], [7.198332, 46.09766], [7.198329, 46.097609], [7.19837, 46.097651], [7.198336, 46.097673], [7.198293, 46.097657], [7.198313, 46.097647], [7.198326, 46.097667], [7.198291, 46.097682], [7.198328, 46.097645], [7.198349, 46.097686], [7.198306, 46.09764], [7.19834, 46.09766], [7.198344, 46.097632], [7.19835, 46.097695], [7.19832, 46.09764], [7.198297, 46.097666], [7.198313, 46.097649], [7.198352, 46.097692], [7.198317, 46.097666], [7.198319, 46.097684], [7.198321, 46.097652], [7.198303, 46.097673], [7.198318, 46.097641], [7.19834, 46.097654], [7.19832, 46.097669], [7.198316, 46.097619], [7.198348, 46.09765], [7.198386, 46.097626], [7.198411, 46.097656], [7.198442, 46.097653], [7.19845, 46.097622], [7.198585, 46.097719], [7.198617, 46.097671], [7.198773, 46.097624], [7.198723, 46.097567], [7.198826, 46.097554], [7.198815, 46.097499], [7.198769, 46.097487], [7.198819, 46.097412], [7.198796, 46.097406], [7.199018, 46.097338], [7.199084, 46.097282], [7.199081, 46.097232], [7.199117, 46.097217], [7.199041, 46.096723], [7.199124, 46.096747], [7.199138, 46.09673], [7.199105, 46.096772], [7.199117, 46.096749], [7.19914, 46.096783], [7.199133, 46.096728], [7.199094, 46.096711], [7.199139, 46.096613], [7.1991, 46.09661], [7.199072, 46.096572], [7.19912, 46.096516], [7.199187, 46.096542], [7.199213, 46.096271], [7.199195, 46.096209], [7.199117, 46.096126], [7.199133, 46.096082], [7.199185, 46.096105], [7.199164, 46.096061], [7.199196, 46.095998], [7.199463, 46.095962], [7.199705, 46.095978], [7.199746, 46.096006], [7.199844, 46.096019], [7.199941, 46.095969], [7.199853, 46.096002], [7.19987, 46.096017], [7.199876, 46.096002], [7.199873, 46.096036], [7.19991, 46.096027], [7.199938, 46.096047], [7.199969, 46.096108], [7.200124, 46.096124], [7.200247, 46.09617], [7.200263, 46.096156], [7.200235, 46.096177], [7.20025, 46.096204], [7.200344, 46.096239], [7.200413, 46.096236], [7.200428, 46.096157], [7.200385, 46.096051], [7.200403, 46.095974], [7.20038, 46.095926], [7.20044, 46.095905], [7.200363, 46.09585], [7.200391, 46.095771], [7.200346, 46.095598], [7.200394, 46.095568], [7.200368, 46.095472], [7.2003, 46.09546], [7.200274, 46.095418], [7.200324, 46.095293], [7.200256, 46.094826], [7.200214, 46.094807], [7.200205, 46.094761], [7.200097, 46.094781], [7.200383, 46.094709], [7.200485, 46.094606], [7.20028, 46.094862], [7.200197, 46.094831], [7.200308, 46.094862], [7.200287, 46.094819], [7.200277, 46.094853], [7.200224, 46.09484], [7.2002, 46.094867], [7.200294, 46.09486], [7.200208, 46.094864], [7.20021, 46.094889], [7.200198, 46.094835], [7.200138, 46.094789], [7.200108, 46.094803], [7.200233, 46.094913], [7.200246, 46.095097], [7.200281, 46.095157], [7.200511, 46.095265], [7.200598, 46.09526], [7.200607, 46.095286], [7.200623, 46.095275], [7.200694, 46.095321], [7.200752, 46.095316], [7.200807, 46.095389], [7.200914, 46.09546], [7.201014, 46.095487], [7.201143, 46.095586], [7.201161, 46.095637], [7.20122, 46.095662], [7.201275, 46.095797], [7.201526, 46.095909], [7.201632, 46.096053], [7.201608, 46.096115], [7.201668, 46.096172], [7.201651, 46.096232], [7.201677, 46.096241], [7.201616, 46.096283], [7.20163, 46.096346], [7.201596, 46.09642], [7.201634, 46.096493], [7.20157, 46.096514], [7.20156, 46.096557], [7.201604, 46.096583], [7.201641, 46.096664], [7.201725, 46.096683], [7.201721, 46.096736], [7.201777, 46.096839], [7.201894, 46.09691], [7.201879, 46.096955], [7.20194, 46.09701], [7.201914, 46.097105], [7.201977, 46.097209], [7.201944, 46.097355], [7.201846, 46.097484], [7.201888, 46.097545], [7.20182, 46.097948], [7.201877, 46.098048], [7.201925, 46.098061], [7.201871, 46.098167], [7.201906, 46.098197], [7.201887, 46.098257], [7.201967, 46.098307], [7.201933, 46.098393], [7.202029, 46.098468], [7.202054, 46.098557], [7.201989, 46.098703], [7.202186, 46.098812], [7.202304, 46.09897], [7.202487, 46.099002], [7.202591, 46.099096], [7.20266, 46.099122], [7.202679, 46.099295], [7.202765, 46.099417], [7.202779, 46.099569], [7.20291, 46.099634], [7.202964, 46.09969], [7.203063, 46.099712], [7.203246, 46.099855], [7.203388, 46.099873], [7.203471, 46.100101], [7.203555, 46.100169], [7.203633, 46.100182], [7.203798, 46.100147], [7.2039, 46.100171], [7.204078, 46.100142], [7.204161, 46.100119], [7.204244, 46.100036], [7.204405, 46.100021], [7.20451, 46.099976], [7.204655, 46.099992], [7.204718, 46.099975], [7.204951, 46.099819], [7.205071, 46.09986], [7.205159, 46.099835], [7.205172, 46.099809], [7.205181, 46.099828], [7.205259, 46.099738], [7.205354, 46.0997], [7.205393, 46.099635], [7.20547, 46.099651], [7.205471, 46.099629], [7.205576, 46.099598], [7.205641, 46.099616], [7.205652, 46.099578], [7.20575, 46.099524], [7.205755, 46.099495], [7.205862, 46.099444], [7.205878, 46.099382], [7.205934, 46.099329], [7.206015, 46.099334], [7.206094, 46.099249], [7.206164, 46.099248], [7.206145, 46.099186], [7.20626, 46.099173], [7.206364, 46.099217], [7.2066, 46.099206], [7.206696, 46.099188], [7.206689, 46.09917], [7.206853, 46.099178], [7.207097, 46.098914], [7.207226, 46.098863], [7.207342, 46.098722], [7.207464, 46.098677], [7.207854, 46.098668], [7.208005, 46.098687], [7.208212, 46.098648], [7.208309, 46.098673]]}, "properties": {"name": "1790066342.Le_Chable_return_via_the_long_route", "cmt": "2026-09-22", "tstamp": 1790035200, "desc": "DownHill", "src": "7.179451/46.071511/7.241137/46.101607", "bbox": "7.179451/46.071511/7.241137/46.101607"}}, {"type": "Feature", "bbox": [7.179451, 46.071511, 7.241137, 46.101607], "geometry": {"type": "LineString", "coordinates": [[7.208322, 46.098679], [7.20846, 46.098671], [7.208526, 46.098705], [7.208665, 46.098697], [7.209037, 46.098766], [7.209369, 46.09871], [7.209504, 46.098726], [7.209615, 46.09869], [7.210403, 46.098801], [7.210456, 46.09884], [7.210812, 46.098927], [7.211209, 46.099122], [7.211259, 46.099126], [7.211388, 46.099189], [7.211643, 46.099397], [7.211778, 46.099404], [7.211912, 46.09945], [7.211958, 46.099522], [7.21211, 46.099578], [7.212147, 46.099648], [7.212232, 46.099696], [7.212226, 46.099722], [7.212373, 46.099778], [7.21272, 46.09977], [7.212931, 46.099723], [7.21301, 46.099682], [7.213131, 46.099678], [7.213208, 46.099649], [7.213593, 46.099644], [7.213766, 46.099619], [7.213899, 46.099631], [7.213993, 46.099611], [7.214061, 46.099629], [7.214284, 46.099572], [7.214479, 46.099397], [7.214512, 46.099317], [7.214939, 46.099217], [7.215165, 46.099125], [7.215859, 46.098998], [7.216115, 46.098878], [7.216237, 46.098853], [7.216669, 46.098529], [7.216877, 46.098276], [7.217165, 46.098138], [7.217586, 46.098061], [7.217753, 46.097985], [7.217905, 46.097952], [7.218059, 46.097862], [7.218385, 46.09777], [7.218474, 46.097724], [7.21856, 46.097731], [7.218949, 46.097661], [7.219071, 46.097665], [7.219253, 46.097709], [7.219508, 46.097701], [7.219715, 46.097725], [7.219932, 46.097694], [7.220115, 46.097723], [7.220645, 46.097728], [7.220756, 46.097755], [7.221002, 46.097733], [7.221144, 46.097752], [7.221776, 46.097703], [7.221977, 46.097714], [7.22207, 46.097667], [7.222262, 46.09763], [7.222813, 46.097697], [7.223508, 46.097925], [7.223697, 46.097936], [7.22381, 46.097902], [7.223985, 46.097898], [7.224134, 46.097821], [7.224259, 46.097804], [7.224357, 46.097771], [7.224333, 46.097756], [7.224349, 46.097773], [7.224344, 46.097756], [7.224469, 46.097734], [7.224589, 46.097623], [7.224659, 46.097623], [7.224815, 46.09754], [7.224964, 46.097411], [7.225093, 46.097356], [7.225224, 46.097241], [7.225404, 46.097133], [7.225696, 46.097021], [7.225828, 46.097001], [7.225862, 46.096971], [7.225918, 46.097012], [7.225842, 46.096982], [7.225856, 46.097], [7.225922, 46.096982], [7.225944, 46.097018], [7.225903, 46.096987], [7.225956, 46.097002], [7.226011, 46.096986], [7.226, 46.09697], [7.225978, 46.096994], [7.225916, 46.096979], [7.225943, 46.096929], [7.225967, 46.096916], [7.225956, 46.096949], [7.225965, 46.096933], [7.225947, 46.09691], [7.226029, 46.096912], [7.226329, 46.096832], [7.226364, 46.096739], [7.226413, 46.096735], [7.226502, 46.096804], [7.226586, 46.096772], [7.226649, 46.096654], [7.226543, 46.09669], [7.226608, 46.096683], [7.226592, 46.096666], [7.226628, 46.096652], [7.2266, 46.096645], [7.226626, 46.096625], [7.226618, 46.096654], [7.226681, 46.096633], [7.226681, 46.096661], [7.226713, 46.096629], [7.226629, 46.096677], [7.226645, 46.09671], [7.226664, 46.096675], [7.226694, 46.09668], [7.226566, 46.096734], [7.226652, 46.096712], [7.226758, 46.096744], [7.226916, 46.096699], [7.227247, 46.096677], [7.227444, 46.096624], [7.227954, 46.096426], [7.228004, 46.096361], [7.228101, 46.096353], [7.228049, 46.096211], [7.228107, 46.096], [7.228048, 46.095992], [7.228081, 46.096027], [7.228253, 46.096076], [7.228422, 46.096064], [7.228709, 46.09597], [7.228769, 46.095968], [7.228865, 46.096012], [7.22897, 46.096027], [7.229223, 46.095993], [7.229259, 46.095974], [7.229249, 46.095945], [7.229368, 46.095868], [7.229475, 46.095883], [7.229537, 46.095862], [7.22961, 46.095825], [7.229665, 46.095729], [7.229763, 46.095707], [7.229847, 46.095624], [7.230158, 46.095517], [7.230179, 46.095539], [7.230222, 46.095497], [7.230368, 46.095442], [7.230715, 46.095205], [7.230793, 46.095182], [7.230847, 46.095122], [7.230987, 46.095081], [7.231282, 46.094787], [7.231449, 46.094684], [7.231459, 46.094605], [7.2317, 46.094512], [7.231777, 46.094455], [7.231644, 46.094473], [7.231692, 46.094502], [7.231661, 46.094487], [7.23173, 46.094491], [7.231683, 46.094421], [7.23173, 46.094436], [7.231808, 46.094407], [7.232006, 46.094434], [7.232023, 46.094402], [7.231993, 46.094379], [7.231866, 46.094385], [7.2319, 46.09436], [7.231831, 46.094347], [7.231773, 46.094272], [7.231726, 46.09426], [7.231754, 46.094316], [7.23196, 46.094299], [7.232127, 46.094488], [7.231842, 46.094376], [7.231842, 46.094345], [7.231678, 46.094199], [7.231541, 46.094188], [7.231439, 46.094079], [7.231611, 46.093983], [7.231936, 46.09413], [7.232038, 46.094207], [7.232174, 46.094192], [7.23247, 46.094064], [7.232496, 46.094007], [7.232619, 46.093956], [7.232685, 46.093889], [7.232913, 46.093791], [7.232991, 46.093692], [7.232976, 46.093662], [7.233041, 46.093609], [7.233085, 46.093443], [7.233184, 46.093318], [7.233168, 46.093219], [7.23321, 46.093162], [7.23319, 46.093062], [7.233225, 46.092976], [7.233175, 46.092925], [7.233183, 46.092879], [7.233146, 46.092876], [7.2331, 46.092908], [7.23313, 46.092962], [7.232998, 46.092955], [7.232951, 46.092988], [7.232826, 46.093011], [7.232873, 46.093129], [7.233139, 46.093027], [7.233145, 46.093004], [7.233117, 46.092999], [7.23297, 46.09303], [7.233094, 46.092995], [7.233119, 46.092935], [7.233262, 46.092823], [7.233317, 46.092691], [7.233306, 46.092608], [7.23334, 46.092532], [7.233319, 46.092476], [7.233378, 46.092357], [7.233298, 46.092105], [7.233326, 46.092038], [7.233314, 46.091888], [7.233283, 46.091837], [7.233065, 46.091713], [7.232924, 46.091557], [7.232882, 46.091467], [7.232912, 46.091284], [7.232974, 46.091205], [7.232976, 46.091047], [7.233008, 46.09097], [7.232953, 46.09076], [7.23298, 46.09079], [7.232985, 46.090748], [7.232925, 46.090655], [7.232757, 46.09053], [7.232688, 46.09043], [7.232534, 46.090372], [7.232393, 46.090232], [7.232241, 46.090139], [7.232189, 46.09005], [7.23198, 46.089853], [7.231825, 46.089774], [7.231716, 46.089665], [7.231115, 46.089248], [7.231083, 46.089191], [7.231154, 46.089112], [7.231179, 46.089002], [7.231096, 46.088874], [7.231023, 46.088841], [7.231047, 46.088855], [7.230993, 46.088854], [7.231029, 46.088864], [7.231005, 46.088851], [7.231046, 46.088789], [7.231013, 46.088708], [7.231059, 46.088621], [7.231123, 46.088613], [7.231215, 46.088646], [7.23128, 46.088604], [7.23144, 46.088629], [7.231673, 46.08856], [7.231689, 46.08852], [7.231898, 46.088537], [7.231941, 46.088461], [7.232026, 46.08843], [7.232035, 46.088384], [7.232156, 46.088347], [7.232181, 46.088284], [7.232227, 46.08827], [7.232214, 46.088205], [7.232328, 46.088124], [7.23227, 46.088039], [7.232325, 46.088028], [7.232308, 46.088012], [7.232388, 46.087952], [7.232338, 46.087924], [7.23237, 46.087941], [7.232362, 46.087884], [7.2324, 46.087867], [7.232367, 46.087798], [7.232423, 46.087641], [7.232456, 46.087608], [7.232502, 46.087616], [7.232524, 46.087597], [7.232494, 46.087529], [7.232548, 46.087491], [7.232519, 46.087387], [7.232533, 46.087289], [7.232484, 46.087265], [7.232449, 46.087286], [7.232431, 46.087236], [7.23248, 46.087199], [7.232576, 46.08719], [7.232706, 46.087116], [7.232849, 46.08696], [7.232858, 46.086913], [7.232921, 46.086879], [7.232929, 46.086797], [7.233054, 46.086652], [7.232996, 46.086617], [7.232833, 46.08667], [7.232807, 46.086729], [7.232755, 46.086753], [7.232675, 46.086878], [7.232605, 46.086931], [7.232484, 46.086921], [7.232418, 46.086948], [7.232483, 46.086938], [7.232488, 46.086888], [7.232554, 46.086829], [7.23254, 46.086754], [7.232594, 46.086719], [7.232591, 46.086694], [7.232552, 46.086687], [7.232597, 46.086684], [7.232612, 46.086612], [7.232669, 46.086595], [7.232687, 46.086537], [7.232781, 46.086474], [7.232791, 46.086417], [7.232827, 46.086418], [7.232831, 46.086383], [7.232789, 46.086345], [7.232813, 46.086223], [7.232827, 46.086192], [7.232859, 46.086194], [7.232879, 46.086122], [7.232934, 46.086092], [7.232817, 46.085992], [7.232849, 46.085916], [7.232827, 46.0859], [7.232868, 46.08591], [7.232835, 46.085885], [7.232856, 46.085867], [7.232888, 46.085906], [7.232847, 46.085889], [7.232882, 46.085895], [7.232889, 46.085856], [7.232897, 46.085875], [7.232858, 46.085872], [7.232806, 46.085807], [7.232733, 46.085789], [7.23263, 46.085701], [7.232574, 46.085595], [7.232511, 46.085564], [7.232511, 46.085522], [7.232469, 46.085495], [7.232494, 46.085202], [7.23263, 46.085147], [7.232636, 46.085113], [7.232697, 46.085077], [7.232659, 46.084982], [7.232721, 46.084861], [7.232804, 46.084845], [7.232731, 46.084722], [7.232602, 46.084641], [7.232662, 46.084513], [7.23263, 46.08448], [7.232726, 46.084483], [7.232588, 46.084272], [7.232637, 46.084243], [7.232571, 46.08419], [7.232585, 46.08415], [7.232522, 46.084075], [7.232542, 46.084045], [7.232487, 46.083926], [7.232531, 46.083836], [7.23256, 46.083845], [7.232593, 46.083785], [7.232562, 46.083722], [7.232362, 46.083608], [7.232264, 46.083613], [7.232092, 46.083502], [7.232094, 46.083409], [7.232148, 46.083342], [7.232121, 46.083302], [7.232429, 46.083143], [7.232438, 46.083101], [7.232509, 46.083047], [7.232531, 46.082897], [7.232485, 46.082762], [7.232539, 46.082643], [7.232601, 46.082604], [7.232629, 46.08246], [7.232756, 46.082402], [7.23287, 46.082293], [7.232887, 46.082231], [7.232993, 46.082197], [7.232996, 46.082129], [7.233081, 46.082096], [7.233101, 46.082007], [7.233203, 46.081898], [7.233295, 46.081888], [7.233337, 46.081855], [7.233358, 46.081875], [7.233325, 46.081886], [7.233354, 46.081844], [7.233397, 46.081851], [7.233416, 46.081829], [7.233493, 46.081855], [7.233642, 46.08175], [7.23366, 46.081771], [7.233596, 46.081796], [7.233578, 46.081852], [7.233631, 46.081922], [7.23377, 46.081952], [7.233812, 46.081921], [7.233924, 46.081906], [7.233925, 46.081882], [7.233972, 46.081906], [7.233964, 46.081868], [7.234019, 46.081889], [7.23406, 46.081868], [7.23406, 46.081921], [7.234145, 46.081998], [7.234264, 46.081967], [7.234301, 46.081907], [7.234449, 46.081869], [7.234541, 46.081787], [7.234656, 46.081816], [7.234608, 46.081779], [7.234559, 46.081871], [7.234593, 46.081922], [7.234571, 46.081959], [7.234709, 46.081987], [7.234682, 46.082102], [7.234796, 46.082088], [7.234842, 46.082149], [7.234915, 46.082133], [7.234954, 46.082086], [7.235092, 46.082077], [7.235145, 46.081997], [7.235249, 46.08198], [7.235402, 46.08185], [7.23549, 46.081835], [7.235549, 46.081796], [7.235568, 46.08175], [7.235693, 46.081722], [7.23576, 46.081679], [7.235761, 46.081612], [7.235951, 46.081612], [7.236121, 46.081576]]}, "properties": {"name": "1790066342.Le_Chable_return_via_the_long_route", "cmt": "2026-09-22", "tstamp": 1790035200, "desc": "UpHill", "src": "7.179451/46.071511/7.241137/46.101607", "bbox": "7.179451/46.071511/7.241137/46.101607"}}, {"type": "Feature", "bbox": [7.179451, 46.071511, 7.241137, 46.101607], "geometry": {"type": "LineString", "coordinates": [[7.236144, 46.081568], [7.236239, 46.081536], [7.236275, 46.081565], [7.236336, 46.081556], [7.236389, 46.081595], [7.236469, 46.081603], [7.23657, 46.081547], [7.236616, 46.081578], [7.236676, 46.081537], [7.236707, 46.081571], [7.236699, 46.081541], [7.236744, 46.081557], [7.236797, 46.081529], [7.236873, 46.081616], [7.236931, 46.081606], [7.236982, 46.081556], [7.23723, 46.081531], [7.237269, 46.081576], [7.23725, 46.081599], [7.237332, 46.081626], [7.237362, 46.081686], [7.237501, 46.081715], [7.237756, 46.081915], [7.237836, 46.082023], [7.23794, 46.082076], [7.237973, 46.082165], [7.23823, 46.082405], [7.238296, 46.082505], [7.238422, 46.082582], [7.238566, 46.082783], [7.238719, 46.0829], [7.238822, 46.08297], [7.239021, 46.083032], [7.239032, 46.083077], [7.239128, 46.083169], [7.23935, 46.083261], [7.239592, 46.083306], [7.239636, 46.083296], [7.239736, 46.083349], [7.239795, 46.083301], [7.239814, 46.083314], [7.23981, 46.083272], [7.239894, 46.083243], [7.239883, 46.083226], [7.239872, 46.083245], [7.239926, 46.083265], [7.240008, 46.083224], [7.240241, 46.08293], [7.240273, 46.082764], [7.240247, 46.082748], [7.240369, 46.082653], [7.240559, 46.082401], [7.24058, 46.082264], [7.240619, 46.08222], [7.240531, 46.082148], [7.240528, 46.082078], [7.240586, 46.081985], [7.240628, 46.081977], [7.240547, 46.081894], [7.240412, 46.08188], [7.24045, 46.081835], [7.240466, 46.081859], [7.240353, 46.081896], [7.240415, 46.081846], [7.240383, 46.081847], [7.240387, 46.081904], [7.240397, 46.08183], [7.240324, 46.081815], [7.240323, 46.081765], [7.240242, 46.081757], [7.240252, 46.081709], [7.240284, 46.081715], [7.240297, 46.081682], [7.240198, 46.081588], [7.240171, 46.081638], [7.240061, 46.081646], [7.239967, 46.081862], [7.239847, 46.081843], [7.239788, 46.081877], [7.239806, 46.081902], [7.239742, 46.081926], [7.239735, 46.081972], [7.239689, 46.081945], [7.239679, 46.081828], [7.239824, 46.081763], [7.2398, 46.081789], [7.239748, 46.081782], [7.23978, 46.081778], [7.239698, 46.081726], [7.239752, 46.081693], [7.239691, 46.0817], [7.239684, 46.081658], [7.239774, 46.081592], [7.23982, 46.081513], [7.239812, 46.08146], [7.239868, 46.081427], [7.239882, 46.08138], [7.239805, 46.08128], [7.23983, 46.081188], [7.239771, 46.081117], [7.239686, 46.081047], [7.239609, 46.081054], [7.239548, 46.08102], [7.239541, 46.080973], [7.239504, 46.080967], [7.239505, 46.080931], [7.239611, 46.080813], [7.239541, 46.080693], [7.239598, 46.080664], [7.239598, 46.080621], [7.239727, 46.080586], [7.2399, 46.080319], [7.240048, 46.080285], [7.240275, 46.080316], [7.240327, 46.080282], [7.240403, 46.080288], [7.240585, 46.080196], [7.240724, 46.079981], [7.240876, 46.079971], [7.24105, 46.079925], [7.241104, 46.079903], [7.241137, 46.079831], [7.241008, 46.079666], [7.240904, 46.079634], [7.240878, 46.079595], [7.240792, 46.079563], [7.240758, 46.079475], [7.240634, 46.079428], [7.240615, 46.079354], [7.240418, 46.079254], [7.240294, 46.079099], [7.240118, 46.07899], [7.240047, 46.078983], [7.240031, 46.078942], [7.23995, 46.078888], [7.239725, 46.078809], [7.239694, 46.078758], [7.239585, 46.078724], [7.239465, 46.078643], [7.239453, 46.078558], [7.239384, 46.078534], [7.239307, 46.078449], [7.239359, 46.078394], [7.239357, 46.078276], [7.239308, 46.078231], [7.23932, 46.078197], [7.239215, 46.078114], [7.239115, 46.078084], [7.239104, 46.078039], [7.238906, 46.077898], [7.238768, 46.077727], [7.238645, 46.077493], [7.238482, 46.077518], [7.238368, 46.077478], [7.238315, 46.077564], [7.238274, 46.077493], [7.238039, 46.077405], [7.23796, 46.077455], [7.237968, 46.077492], [7.23783, 46.077449], [7.237719, 46.077493], [7.237775, 46.077622], [7.237607, 46.077566], [7.237597, 46.07751], [7.237507, 46.077471], [7.237372, 46.077468], [7.237334, 46.077416], [7.237164, 46.077373], [7.237139, 46.077323], [7.237083, 46.0773], [7.236975, 46.077189], [7.236814, 46.077102], [7.236775, 46.077113], [7.236795, 46.077083], [7.23676, 46.077052], [7.236799, 46.077011], [7.236867, 46.07701], [7.236866, 46.076889], [7.236903, 46.076856], [7.236859, 46.076823], [7.236785, 46.076816], [7.236687, 46.076869], [7.236668, 46.076904], [7.23669, 46.076915], [7.236662, 46.076916], [7.236647, 46.076826], [7.236551, 46.07679], [7.236523, 46.076754], [7.236486, 46.076649], [7.236518, 46.076588], [7.236481, 46.076526], [7.236428, 46.076538], [7.236395, 46.0765], [7.236332, 46.076515], [7.236396, 46.076481], [7.236397, 46.076451], [7.236522, 46.076484], [7.236593, 46.076469], [7.236609, 46.076443], [7.236686, 46.076458], [7.236699, 46.076436], [7.236775, 46.076423], [7.236796, 46.076343], [7.236692, 46.076342], [7.23658, 46.076288], [7.236394, 46.076247], [7.236333, 46.076269], [7.236208, 46.076259], [7.236191, 46.07624], [7.236032, 46.076274], [7.236039, 46.076365], [7.235968, 46.07648], [7.236003, 46.076477], [7.235948, 46.076411], [7.235964, 46.076382], [7.235901, 46.076328], [7.235912, 46.076277], [7.23585, 46.076195], [7.235794, 46.076168], [7.235852, 46.076156], [7.235849, 46.076099], [7.235893, 46.076092], [7.235887, 46.076073], [7.235765, 46.075992], [7.235679, 46.07598], [7.235624, 46.076001], [7.235585, 46.076114], [7.235472, 46.07616], [7.235473, 46.07635], [7.235503, 46.076314], [7.235542, 46.076311], [7.235471, 46.076275], [7.235419, 46.076289], [7.235358, 46.076252], [7.23536, 46.076035], [7.235258, 46.076022], [7.235164, 46.076045], [7.235097, 46.076159], [7.235117, 46.076171], [7.235152, 46.076132], [7.235088, 46.076077], [7.23518, 46.075858], [7.235183, 46.075725], [7.235023, 46.07573], [7.234957, 46.075779], [7.234909, 46.075749], [7.234844, 46.075753], [7.234876, 46.075776], [7.234855, 46.075781], [7.234905, 46.075766], [7.234884, 46.075723], [7.234926, 46.0757], [7.234948, 46.075605], [7.235053, 46.075581], [7.235018, 46.075498], [7.23492, 46.075395], [7.234791, 46.075312], [7.23456, 46.075245], [7.2345, 46.0752], [7.234534, 46.075147], [7.234406, 46.075104], [7.234305, 46.075111], [7.234159, 46.075079], [7.234058, 46.075114], [7.233955, 46.0752], [7.233879, 46.075134], [7.233873, 46.075105], [7.233913, 46.075109], [7.233978, 46.075039], [7.234389, 46.075025], [7.234496, 46.07499], [7.234548, 46.074946], [7.234674, 46.074956], [7.234813, 46.075004], [7.234917, 46.074957], [7.234964, 46.074902], [7.234944, 46.074822], [7.235007, 46.074803], [7.23513, 46.074609], [7.235122, 46.074466], [7.235193, 46.074398], [7.235247, 46.074271], [7.23527, 46.074248], [7.235376, 46.074248], [7.23539, 46.074225], [7.235385, 46.074155], [7.235427, 46.074094], [7.235379, 46.073891], [7.235458, 46.073733], [7.23541, 46.073731], [7.235508, 46.073669], [7.235536, 46.07361], [7.235537, 46.073572], [7.23546, 46.073543], [7.235498, 46.073524], [7.235469, 46.073517], [7.235538, 46.073529], [7.23543, 46.073451], [7.235445, 46.073365], [7.235409, 46.073276], [7.235449, 46.073171], [7.23554, 46.073109], [7.235637, 46.072853], [7.235705, 46.072799], [7.235848, 46.072749], [7.2359, 46.072697], [7.236243, 46.072582], [7.236266, 46.072566], [7.236236, 46.072481], [7.236294, 46.072464], [7.236205, 46.072459], [7.236018, 46.072541], [7.235812, 46.072591], [7.235467, 46.07273], [7.235321, 46.072824], [7.235115, 46.072912], [7.235004, 46.072995], [7.234969, 46.073081], [7.234855, 46.073159], [7.234865, 46.073202], [7.234514, 46.073401], [7.234434, 46.073592], [7.234375, 46.073655], [7.234182, 46.073785], [7.234103, 46.073803], [7.234138, 46.073771], [7.234234, 46.073753], [7.234309, 46.073519], [7.234399, 46.073354], [7.234619, 46.073157], [7.234753, 46.073084], [7.234758, 46.072998], [7.234791, 46.072977], [7.234768, 46.072949], [7.234835, 46.07289], [7.234849, 46.072645], [7.234943, 46.072576], [7.235035, 46.072353], [7.23519, 46.072111], [7.23541, 46.071918], [7.23558, 46.071856], [7.235818, 46.071704], [7.235888, 46.071603], [7.236024, 46.071572], [7.236073, 46.071521], [7.23604, 46.071511], [7.235719, 46.071584], [7.235631, 46.071635], [7.235585, 46.071616], [7.235603, 46.071633], [7.235565, 46.071622], [7.235367, 46.071674], [7.235202, 46.071677], [7.235127, 46.071708], [7.234888, 46.071864], [7.234687, 46.071915], [7.234477, 46.07215], [7.234126, 46.072371], [7.233797, 46.072481], [7.233712, 46.072576], [7.233538, 46.072666], [7.233174, 46.072772], [7.23281, 46.072929], [7.232543, 46.073189], [7.232442, 46.073261], [7.232284, 46.073312], [7.232157, 46.073489], [7.232035, 46.073578], [7.231966, 46.073711], [7.232009, 46.07384], [7.231991, 46.073883], [7.231934, 46.073882], [7.231872, 46.073817], [7.231908, 46.073619], [7.231893, 46.073503], [7.231805, 46.073527], [7.23169, 46.073661], [7.231485, 46.073785], [7.231454, 46.073875], [7.23136, 46.073982], [7.231365, 46.074023], [7.231216, 46.074182], [7.231174, 46.074352], [7.231125, 46.074392], [7.231236, 46.074475], [7.231261, 46.074557], [7.231236, 46.074545], [7.231144, 46.074609], [7.231039, 46.074606], [7.23093, 46.074655], [7.230899, 46.074701], [7.230907, 46.074824], [7.230856, 46.074888], [7.230783, 46.074802], [7.230676, 46.074766], [7.23059, 46.074862], [7.230405, 46.074856], [7.230185, 46.074799], [7.230104, 46.074805], [7.230005, 46.074722], [7.229892, 46.074699], [7.229868, 46.074646], [7.229816, 46.074637], [7.229691, 46.074546], [7.229664, 46.074555], [7.229475, 46.074447], [7.229383, 46.074442], [7.229257, 46.074388], [7.229194, 46.074408], [7.229093, 46.074369], [7.228845, 46.074434], [7.22825, 46.074503], [7.228145, 46.074571], [7.227815, 46.074709], [7.227727, 46.074823], [7.227509, 46.074913], [7.227344, 46.075083], [7.227203, 46.075119], [7.227194, 46.075208], [7.227127, 46.075289], [7.227025, 46.075348], [7.226993, 46.075416], [7.226884, 46.075456], [7.226748, 46.07557], [7.226537, 46.075635], [7.22642, 46.075716], [7.226102, 46.075835], [7.225998, 46.075932], [7.22579, 46.076021], [7.225731, 46.075998], [7.22575, 46.076007], [7.225858, 46.07582], [7.225912, 46.075804], [7.225982, 46.075644], [7.226104, 46.075547], [7.226257, 46.075318], [7.226371, 46.075262], [7.226424, 46.075201], [7.226581, 46.07514], [7.226527, 46.075084], [7.226379, 46.075057], [7.226213, 46.075146], [7.226096, 46.075166], [7.225893, 46.07526], [7.225785, 46.075277], [7.225849, 46.075148], [7.226094, 46.074992], [7.226145, 46.07492], [7.226238, 46.074707], [7.226245, 46.07461], [7.226307, 46.074532], [7.226348, 46.074386], [7.226331, 46.074349], [7.225875, 46.074265], [7.225428, 46.074234], [7.225287, 46.074193], [7.225104, 46.074261], [7.224507, 46.074177], [7.224469, 46.074191], [7.224163, 46.07416], [7.224105, 46.074182], [7.223816, 46.074143], [7.223601, 46.074152], [7.223565, 46.074114], [7.22338, 46.074121], [7.223373, 46.074138], [7.223312, 46.074124], [7.223285, 46.074112], [7.22335, 46.074048], [7.223493, 46.07402], [7.223582, 46.073971], [7.223396, 46.073602], [7.223452, 46.073447], [7.223416, 46.073352], [7.223357, 46.073316], [7.223354, 46.073264], [7.22341, 46.073195], [7.222975, 46.073067], [7.222563, 46.072996], [7.222359, 46.073021], [7.222218, 46.073082], [7.222101, 46.073261], [7.22212, 46.073455], [7.222029, 46.073729], [7.222044, 46.073816], [7.221982, 46.07402], [7.221762, 46.07409], [7.221644, 46.07426], [7.221591, 46.074729], [7.221507, 46.07494], [7.221249, 46.075258], [7.221059, 46.075427], [7.220785, 46.075618], [7.219988, 46.075997], [7.2195, 46.076403], [7.21931, 46.07649], [7.219239, 46.076484], [7.219238, 46.07651], [7.219074, 46.076596], [7.21901, 46.076681], [7.218793, 46.076797], [7.218601, 46.076862], [7.218373, 46.076898], [7.218354, 46.076927], [7.218251, 46.076903], [7.21804, 46.076917], [7.217824, 46.077006], [7.217461, 46.077078], [7.217351, 46.07712], [7.217175, 46.077138], [7.217069, 46.077197], [7.217082, 46.077412], [7.2169, 46.077418], [7.216453, 46.077504], [7.216356, 46.077501], [7.216025, 46.077585], [7.215837, 46.077601], [7.215058, 46.077801], [7.215019, 46.07783]]}, "properties": {"name": "1790066342.Le_Chable_return_via_the_long_route", "cmt": "2026-09-22", "tstamp": 1790035200, "desc": "DownHill", "src": "7.179451/46.071511/7.241137/46.101607", "bbox": "7.179451/46.071511/7.241137/46.101607"}}, {"type": "Feature", "bbox": [7.179451, 46.071511, 7.241137, 46.101607], "geometry": {"type": "LineString", "coordinates": [[7.215008, 46.07784], [7.214807, 46.077989], [7.214228, 46.078302], [7.214123, 46.078439], [7.21409, 46.078542], [7.214028, 46.07846], [7.213868, 46.078423], [7.213747, 46.078365], [7.213589, 46.078374], [7.213608, 46.078416], [7.213677, 46.078403], [7.213643, 46.078388], [7.213618, 46.078419], [7.213611, 46.078368], [7.213576, 46.078353], [7.213477, 46.078413], [7.21336, 46.078623], [7.213296, 46.078821], [7.213269, 46.079048], [7.21328, 46.079209], [7.213313, 46.079223], [7.213256, 46.079235], [7.213256, 46.079258], [7.213227, 46.079233], [7.213278, 46.079225], [7.213263, 46.079297], [7.213284, 46.079308], [7.213316, 46.079284], [7.213305, 46.07931], [7.213235, 46.079296], [7.213278, 46.079255], [7.213264, 46.079233], [7.21328, 46.079267], [7.21328, 46.079244], [7.213198, 46.079312], [7.213172, 46.079512], [7.213117, 46.079634], [7.21292, 46.079916], [7.212942, 46.080024], [7.212731, 46.08007], [7.212574, 46.080188], [7.212475, 46.080157], [7.212322, 46.07995], [7.212206, 46.079888], [7.212198, 46.079865], [7.212313, 46.079787], [7.21225, 46.079734], [7.212248, 46.079647], [7.212286, 46.079661], [7.212273, 46.079614]]}, "properties": {"name": "1790066342.Le_Chable_return_via_the_long_route", "cmt": "2026-09-22", "tstamp": 1790035200, "desc": "UpHill", "src": "7.179451/46.071511/7.241137/46.101607", "bbox": "7.179451/46.071511/7.241137/46.101607"}}]}