{"type": "FeatureCollection", "name": "TrackSet", "crs": {"type": "name", "properties": {"name": "urn:ogc:def:crs:OGC:1.3:CRS84"}}, "bbox": [6.180148, 46.335285, 6.202238, 46.350815], "features": [{"type": "Feature", "bbox": [6.180148, 46.335285, 6.202238, 46.350815], "geometry": {"type": "LineString", "coordinates": [[6.181018, 46.335931], [6.180695, 46.336135], [6.180645, 46.336131], [6.18063, 46.336162], [6.180486, 46.336222], [6.180333, 46.33635], [6.180148, 46.336567], [6.180153, 46.336667], [6.180482, 46.336999], [6.180592, 46.337065], [6.180848, 46.337361], [6.180991, 46.337462], [6.181016, 46.337545], [6.181093, 46.337576], [6.181139, 46.337656], [6.181423, 46.337901], [6.181713, 46.33819], [6.181919, 46.338442], [6.182059, 46.338536], [6.182437, 46.338943], [6.18275, 46.339228], [6.183004, 46.339525], [6.183346, 46.339804], [6.183516, 46.340017], [6.183649, 46.340118], [6.183781, 46.340297], [6.183915, 46.340435], [6.18404, 46.340513], [6.184459, 46.340955], [6.184563, 46.341026], [6.184641, 46.341135], [6.184872, 46.341341], [6.184933, 46.341443], [6.185064, 46.341524], [6.185136, 46.341522], [6.185454, 46.341373], [6.185525, 46.34131], [6.185673, 46.341257], [6.185835, 46.341121], [6.186161, 46.340941], [6.18628, 46.340917], [6.186358, 46.340926], [6.186972, 46.3415], [6.187008, 46.341563], [6.18715, 46.341665], [6.187508, 46.342026], [6.18759, 46.342077], [6.188222, 46.342687], [6.188283, 46.342717], [6.188446, 46.342905], [6.188557, 46.34298], [6.189183, 46.343581], [6.189336, 46.343684], [6.189533, 46.343928], [6.189811, 46.344142], [6.189903, 46.344265], [6.190102, 46.344419], [6.190523, 46.344823], [6.190466, 46.344871], [6.190468, 46.344912], [6.190349, 46.344939], [6.190167, 46.345049], [6.190029, 46.345076], [6.189823, 46.345213], [6.18972, 46.345231], [6.189585, 46.345293], [6.189366, 46.345442], [6.189248, 46.345451], [6.188958, 46.345574], [6.188732, 46.345727], [6.188489, 46.345805], [6.188402, 46.345877], [6.188222, 46.34592], [6.187992, 46.346069], [6.187861, 46.346103], [6.187697, 46.346171], [6.187641, 46.346223], [6.187363, 46.346328], [6.18709, 46.346497], [6.186925, 46.34656], [6.186913, 46.346592], [6.18664, 46.346676], [6.186477, 46.346782], [6.18647, 46.346873], [6.186544, 46.34691], [6.186708, 46.347138], [6.186917, 46.347313], [6.186988, 46.347439], [6.186941, 46.347554], [6.186458, 46.347792], [6.186331, 46.347891], [6.186216, 46.347937], [6.1862, 46.347951], [6.186237, 46.347972], [6.186192, 46.347964], [6.185996, 46.34805], [6.185953, 46.348095], [6.185847, 46.348091], [6.185811, 46.348154], [6.185662, 46.348258], [6.185632, 46.348304], [6.185682, 46.348396], [6.185772, 46.348463], [6.18594, 46.348686], [6.186092, 46.348697], [6.186164, 46.348789], [6.18623, 46.348814], [6.18634, 46.348913], [6.186471, 46.348946], [6.186594, 46.349088], [6.186704, 46.349106], [6.186808, 46.349192], [6.186918, 46.349206], [6.187269, 46.349373], [6.187729, 46.34948], [6.188003, 46.349637], [6.188287, 46.349712], [6.188606, 46.349756], [6.188737, 46.349755], [6.189042, 46.349638], [6.189421, 46.349396], [6.189577, 46.349345], [6.189796, 46.349193], [6.190075, 46.34907], [6.190213, 46.34904], [6.190294, 46.349063], [6.19038, 46.349008], [6.190586, 46.348998], [6.190626, 46.348972], [6.190636, 46.348994], [6.190644, 46.348976], [6.190664, 46.348994], [6.190745, 46.348977], [6.190741, 46.349002], [6.190842, 46.34897], [6.190965, 46.349081], [6.191145, 46.349157], [6.191171, 46.349202], [6.191256, 46.349215], [6.191344, 46.349281], [6.191406, 46.349294], [6.191654, 46.349645], [6.191806, 46.349781], [6.192021, 46.349759], [6.192642, 46.349564], [6.192762, 46.349536], [6.192815, 46.349545], [6.192948, 46.349659], [6.192965, 46.349832], [6.193072, 46.350041], [6.193287, 46.350226], [6.193457, 46.350427], [6.193554, 46.350498], [6.193693, 46.350551], [6.193985, 46.350544], [6.194077, 46.35059], [6.194118, 46.350724], [6.194157, 46.350755], [6.194416, 46.350815], [6.194581, 46.35073], [6.194753, 46.350564], [6.195024, 46.350542], [6.195188, 46.350513], [6.195224, 46.350486], [6.195356, 46.350483], [6.195669, 46.350341], [6.196103, 46.350296], [6.196226, 46.350235], [6.196425, 46.350195], [6.19644, 46.350169], [6.196631, 46.350114], [6.197002, 46.349941], [6.197264, 46.349893], [6.197416, 46.349829], [6.197654, 46.349688], [6.197717, 46.349599], [6.197836, 46.349586], [6.198094, 46.349495], [6.198301, 46.349221], [6.198376, 46.349176], [6.198458, 46.349162], [6.19859, 46.349042], [6.198792, 46.349006], [6.199002, 46.348838], [6.199328, 46.34875], [6.199534, 46.348561], [6.199839, 46.348448], [6.199983, 46.348325], [6.200005, 46.348246], [6.199966, 46.348169], [6.200221, 46.348095], [6.200397, 46.348009], [6.200416, 46.348058], [6.20048, 46.34796], [6.200406, 46.347917], [6.200333, 46.347814], [6.200368, 46.347731], [6.200242, 46.347582], [6.199992, 46.347108], [6.199941, 46.34676], [6.199805, 46.346313], [6.199775, 46.345896], [6.19973, 46.345722], [6.199745, 46.345499], [6.199702, 46.345341], [6.199732, 46.345183], [6.19982, 46.345072], [6.200078, 46.344902], [6.200188, 46.344794], [6.200694, 46.344462], [6.200763, 46.344405], [6.20077, 46.344352], [6.200711, 46.344125], [6.200638, 46.344045], [6.200572, 46.343783], [6.200457, 46.343608], [6.200219, 46.343348], [6.200048, 46.342819], [6.200096, 46.342768], [6.200268, 46.342725], [6.200468, 46.342614], [6.200869, 46.342236], [6.201021, 46.342195], [6.201389, 46.342025], [6.201502, 46.342019], [6.201726, 46.341916], [6.201884, 46.34191], [6.201967, 46.341871], [6.201969, 46.341846], [6.202101, 46.341798], [6.202173, 46.341799], [6.202238, 46.341732], [6.201941, 46.341149], [6.201858, 46.340819], [6.201771, 46.340664], [6.20166, 46.340272], [6.201521, 46.340026], [6.201378, 46.339886], [6.201165, 46.339562], [6.20097, 46.339405], [6.200863, 46.339242], [6.200755, 46.339179], [6.200614, 46.338985], [6.200296, 46.338662], [6.200064, 46.338491], [6.199928, 46.338342], [6.199711, 46.338185], [6.199406, 46.337902], [6.199128, 46.337698], [6.199009, 46.337552], [6.198842, 46.337458], [6.198721, 46.337288], [6.198634, 46.337098], [6.19841, 46.336854], [6.198319, 46.336791], [6.198309, 46.336747], [6.198251, 46.336715], [6.198234, 46.336597], [6.198194, 46.336544], [6.197535, 46.336167], [6.197482, 46.336107], [6.197393, 46.336082], [6.197225, 46.335938], [6.197136, 46.335908], [6.197034, 46.335942], [6.196966, 46.335893], [6.196942, 46.335836], [6.196804, 46.335783], [6.196782, 46.335799], [6.19689, 46.335921], [6.196686, 46.335823], [6.19619, 46.336205], [6.195197, 46.336664], [6.195004, 46.336728], [6.194953, 46.336691], [6.194875, 46.336492], [6.194842, 46.336474], [6.194806, 46.336212], [6.194738, 46.336156], [6.194637, 46.336162], [6.194334, 46.336319], [6.193764, 46.336429], [6.193124, 46.336642], [6.192737, 46.336207], [6.19258, 46.336116], [6.192452, 46.33613], [6.192057, 46.336365], [6.192027, 46.336405], [6.191935, 46.336426], [6.191791, 46.336519], [6.191547, 46.336528], [6.191325, 46.33649], [6.191014, 46.336539], [6.190064, 46.33684], [6.189988, 46.336901], [6.189828, 46.336954], [6.189596, 46.337074], [6.189357, 46.33712], [6.187797, 46.337652], [6.187255, 46.337806], [6.186997, 46.337914], [6.186137, 46.338157], [6.18608, 46.338135], [6.185765, 46.337851], [6.185273, 46.337522], [6.185266, 46.33749], [6.185082, 46.337399], [6.184811, 46.337186], [6.184745, 46.337167], [6.184616, 46.337028], [6.184413, 46.336886], [6.184246, 46.336637], [6.183971, 46.336343], [6.183922, 46.336321], [6.18374, 46.336052], [6.183519, 46.335846], [6.183439, 46.335711], [6.183132, 46.335416], [6.183064, 46.335306], [6.183, 46.335285], [6.182657, 46.335337], [6.182096, 46.335486], [6.182075, 46.335442], [6.181895, 46.335568], [6.181684, 46.335625], [6.181665, 46.335651], [6.181276, 46.335808], [6.181212, 46.335807], [6.181157, 46.335757], [6.181213, 46.335757], [6.181101, 46.33572], [6.181156, 46.33576], [6.181155, 46.335828], [6.181196, 46.335807]]}, "properties": {"name": "1790237427.Founex_walk_with_K", "cmt": "2026-09-24", "tstamp": 1790208000, "desc": "---", "src": "6.180148/46.335285/6.202238/46.350815", "bbox": "6.180148/46.335285/6.202238/46.350815"}}]}