{"type": "FeatureCollection", "name": "TrackSet", "crs": {"type": "name", "properties": {"name": "urn:ogc:def:crs:OGC:1.3:CRS84"}}, "bbox": [6.893928, 45.949404, 6.92588, 45.9821], "features": [{"type": "Feature", "bbox": [6.893928, 45.949404, 6.92588, 45.9821], "geometry": {"type": "LineString", "coordinates": [[6.897132, 45.950995], [6.89711, 45.951051], [6.896997, 45.951133], [6.89693, 45.951151], [6.896736, 45.951118], [6.896669, 45.951061], [6.896448, 45.950991], [6.896071, 45.950629], [6.896015, 45.950458], [6.896001, 45.950192], [6.896035, 45.950119], [6.896002, 45.950125], [6.895953, 45.950089], [6.895826, 45.949943], [6.895821, 45.949892], [6.895573, 45.949665], [6.895538, 45.949668], [6.895283, 45.949409], [6.895238, 45.949404], [6.895085, 45.94944], [6.894756, 45.949584], [6.894383, 45.949694], [6.894324, 45.949752], [6.894124, 45.949841], [6.893976, 45.94994], [6.893928, 45.950009], [6.8941, 45.950366], [6.894137, 45.950376], [6.894347, 45.950617], [6.894359, 45.950781], [6.894328, 45.950854], [6.894373, 45.950887], [6.894353, 45.950935], [6.89439, 45.950998], [6.8946, 45.951115], [6.894632, 45.951211], [6.894679, 45.951251], [6.89488, 45.951319], [6.895069, 45.951341], [6.89527, 45.951555], [6.895451, 45.95166], [6.895537, 45.951815], [6.895626, 45.951846], [6.895748, 45.95194], [6.895981, 45.952021], [6.896052, 45.952167], [6.89618, 45.952318], [6.896364, 45.952395], [6.896637, 45.952606], [6.896899, 45.952665], [6.896943, 45.952703], [6.897051, 45.952699], [6.897081, 45.952733], [6.897153, 45.952745], [6.897313, 45.952833], [6.897369, 45.952907], [6.897421, 45.952859], [6.8974, 45.952924], [6.89746, 45.95295], [6.897475, 45.952988], [6.897751, 45.953042], [6.897834, 45.953095], [6.898049, 45.953416], [6.898208, 45.953588], [6.898255, 45.953726], [6.898387, 45.953814], [6.898661, 45.95412], [6.898734, 45.954155], [6.898797, 45.954279], [6.898959, 45.954377], [6.899179, 45.954669], [6.899291, 45.954755], [6.899382, 45.954875], [6.89973, 45.955035], [6.899765, 45.955076], [6.899841, 45.955089], [6.899906, 45.95515], [6.899914, 45.955206], [6.899962, 45.955193], [6.900167, 45.955399], [6.900206, 45.955364], [6.900676, 45.955576], [6.900603, 45.955624], [6.90064, 45.955684], [6.900739, 45.955729], [6.900946, 45.956017], [6.901011, 45.956029], [6.900954, 45.95605], [6.901004, 45.956114], [6.901003, 45.956164], [6.901066, 45.956198], [6.901116, 45.956348], [6.901183, 45.956403], [6.90117, 45.956531], [6.901212, 45.956686], [6.90126, 45.956682], [6.901333, 45.956742], [6.901339, 45.956816], [6.901448, 45.956974], [6.901516, 45.956968], [6.901588, 45.957012], [6.901612, 45.957152], [6.901674, 45.957227], [6.901729, 45.957418], [6.901719, 45.957523], [6.901888, 45.957683], [6.901942, 45.9577], [6.902073, 45.957846], [6.902062, 45.957885], [6.902132, 45.957919], [6.902144, 45.957944], [6.902098, 45.957978], [6.902108, 45.958062], [6.902175, 45.95821], [6.902272, 45.958322], [6.902326, 45.958348], [6.902391, 45.958323], [6.902426, 45.958348], [6.902936, 45.95892], [6.903146, 45.959098], [6.903222, 45.959079], [6.904126, 45.959397], [6.904289, 45.959502], [6.90438, 45.959514], [6.904405, 45.959549], [6.904609, 45.959636], [6.904869, 45.959649], [6.905033, 45.959626], [6.90512, 45.959699], [6.905267, 45.959745], [6.905405, 45.959844], [6.905466, 45.959848], [6.905808, 45.960028], [6.906163, 45.960073], [6.906288, 45.960044], [6.906428, 45.960043], [6.906444, 45.960071], [6.906586, 45.960049], [6.906546, 45.960123], [6.906734, 45.960323], [6.906795, 45.960351], [6.906832, 45.960404], [6.90701, 45.960438], [6.907385, 45.960628], [6.907524, 45.960765], [6.907536, 45.960867], [6.907601, 45.960857], [6.907751, 45.961084], [6.907811, 45.961111], [6.907881, 45.961193], [6.907901, 45.961259], [6.907949, 45.961257], [6.908015, 45.961297], [6.909005, 45.96209], [6.909073, 45.962197], [6.909066, 45.962323], [6.909136, 45.962448], [6.909207, 45.962508], [6.909333, 45.962571], [6.909384, 45.962573], [6.909394, 45.962608], [6.909738, 45.962861], [6.909806, 45.962946], [6.910001, 45.963069], [6.910156, 45.963093], [6.91035, 45.963194], [6.910531, 45.96324], [6.910742, 45.963384], [6.910832, 45.963381], [6.910981, 45.963452], [6.911107, 45.963474], [6.911217, 45.963688], [6.911445, 45.964007], [6.911525, 45.964054], [6.911568, 45.964165], [6.911581, 45.964151], [6.911605, 45.96417], [6.911645, 45.964241], [6.911696, 45.964378], [6.911684, 45.964479], [6.911729, 45.964574], [6.911692, 45.96468], [6.911737, 45.96473], [6.911708, 45.964791], [6.911717, 45.964888], [6.911834, 45.965039], [6.91201, 45.965172], [6.912025, 45.965212], [6.911939, 45.965382], [6.911903, 45.965598], [6.911988, 45.965673], [6.912133, 45.966277], [6.912116, 45.966396], [6.912145, 45.966446], [6.912094, 45.966531], [6.911895, 45.966559], [6.91178, 45.966546], [6.911737, 45.966565], [6.911719, 45.966655], [6.911741, 45.96669], [6.911775, 45.966683], [6.911665, 45.966847], [6.911663, 45.966979], [6.911631, 45.967018], [6.911516, 45.967044], [6.911436, 45.967193], [6.911474, 45.967263], [6.911549, 45.967287], [6.911615, 45.967364], [6.911642, 45.967458], [6.91172, 45.967518], [6.911858, 45.967496], [6.911942, 45.967554], [6.91211, 45.967729], [6.912264, 45.967937], [6.912281, 45.968013], [6.912359, 45.968091], [6.912399, 45.968223], [6.912688, 45.968773], [6.912717, 45.968916], [6.9128, 45.969048], [6.912799, 45.96912], [6.912884, 45.969178], [6.912909, 45.969262], [6.913029, 45.969404], [6.91303, 45.969483], [6.91317, 45.96964], [6.913187, 45.9697], [6.913362, 45.969809], [6.913381, 45.970004], [6.913586, 45.970488], [6.913753, 45.97105], [6.913991, 45.971587], [6.914218, 45.971947], [6.914793, 45.972647], [6.915118, 45.972893], [6.915182, 45.972979], [6.915257, 45.972987], [6.915843, 45.973538], [6.916401, 45.973927], [6.917032, 45.974254], [6.917189, 45.974297], [6.917764, 45.974542], [6.91835, 45.974712], [6.918736, 45.974783], [6.918682, 45.974812], [6.918748, 45.974793], [6.918736, 45.974754], [6.918806, 45.974788], [6.918809, 45.97475], [6.918834, 45.974793], [6.91899, 45.974845], [6.919018, 45.974876], [6.919318, 45.974959], [6.919523, 45.974987], [6.919592, 45.975043], [6.9198, 45.975092], [6.920127, 45.975435], [6.920315, 45.975581], [6.920391, 45.975689], [6.920597, 45.975861], [6.920646, 45.975945], [6.920748, 45.976014], [6.920816, 45.976122], [6.920779, 45.976225], [6.920793, 45.976352], [6.920916, 45.976543], [6.921133, 45.976725], [6.921254, 45.976892], [6.921591, 45.977182], [6.92234, 45.978038], [6.922433, 45.978214], [6.922491, 45.978259], [6.922523, 45.978345], [6.922763, 45.978666], [6.923035, 45.979142], [6.923068, 45.979268], [6.923348, 45.979701], [6.923469, 45.979776], [6.923627, 45.979973], [6.923855, 45.980109], [6.92401, 45.980282], [6.92423, 45.980444], [6.924283, 45.980528], [6.924431, 45.980635], [6.924577, 45.980694], [6.924551, 45.980718], [6.924575, 45.98073], [6.924551, 45.980723], [6.924587, 45.980736], [6.924526, 45.980732], [6.924582, 45.980738], [6.924652, 45.980678], [6.923962, 45.980232], [6.923923, 45.980176], [6.923944, 45.98031], [6.924042, 45.980371], [6.924011, 45.980371], [6.924002, 45.980338], [6.92399, 45.980369], [6.924028, 45.980427], [6.923969, 45.98045], [6.923991, 45.980516], [6.924222, 45.980605], [6.924324, 45.980613], [6.924468, 45.980666], [6.924598, 45.980788], [6.92482, 45.980938], [6.924923, 45.981072], [6.925201, 45.981299], [6.925448, 45.981384], [6.925663, 45.98152], [6.925701, 45.981833], [6.925794, 45.981925], [6.925822, 45.982017], [6.92588, 45.982072], [6.925794, 45.9821], [6.925645, 45.981846], [6.925499, 45.98169], [6.925423, 45.981657], [6.925249, 45.981644], [6.925056, 45.981592], [6.925006, 45.981606], [6.924885, 45.981526], [6.92476, 45.981515], [6.92447, 45.981419], [6.924412, 45.98143], [6.924262, 45.98131], [6.924053, 45.981216], [6.924018, 45.981167], [6.923949, 45.981163], [6.923394, 45.980761], [6.923316, 45.980745], [6.92304, 45.98061], [6.922895, 45.980533], [6.922875, 45.980512], [6.922902, 45.98051], [6.922877, 45.980521], [6.92288, 45.980503], [6.922831, 45.980496], [6.922498, 45.980293], [6.922083, 45.979929], [6.921948, 45.979716], [6.921818, 45.979584], [6.92161, 45.979145], [6.921461, 45.978921], [6.921538, 45.978877], [6.921396, 45.978824], [6.92136, 45.978756], [6.921388, 45.978694], [6.921355, 45.978684], [6.921304, 45.978542], [6.921222, 45.978476], [6.921168, 45.978469], [6.92112, 45.978392], [6.921041, 45.978346], [6.921025, 45.978263], [6.920876, 45.978092], [6.92081, 45.978084], [6.920737, 45.978106], [6.920483, 45.977972], [6.919993, 45.977625], [6.919678, 45.977331], [6.919662, 45.977283], [6.919499, 45.977127], [6.919455, 45.977038], [6.919319, 45.976962], [6.919296, 45.976903], [6.919233, 45.976893], [6.919202, 45.976846], [6.919132, 45.976837], [6.918922, 45.976725], [6.918638, 45.976625], [6.918388, 45.976501], [6.91812, 45.976354], [6.91784, 45.976155], [6.916325, 45.975363], [6.915884, 45.975179], [6.915705, 45.97507], [6.915488, 45.975028], [6.915387, 45.974933], [6.915127, 45.974825], [6.915106, 45.974773], [6.915079, 45.974797], [6.91503, 45.974788], [6.914645, 45.974641], [6.91395, 45.9742], [6.913893, 45.974095], [6.913756, 45.973988], [6.913671, 45.973807], [6.913539, 45.973716], [6.913314, 45.973661], [6.913175, 45.973553], [6.913156, 45.973487]]}, "properties": {"name": "1790844888.Les_Tines_Argentiere_younger_dog_walk", "cmt": "2026-10-01", "tstamp": 1790812800, "desc": "UpHill", "src": "6.893928/45.949404/6.92588/45.9821", "bbox": "6.893928/45.949404/6.92588/45.9821"}}, {"type": "Feature", "bbox": [6.893928, 45.949404, 6.92588, 45.9821], "geometry": {"type": "LineString", "coordinates": [[6.913156, 45.973487], [6.913029, 45.973478], [6.912946, 45.973362], [6.912921, 45.973247], [6.912848, 45.973162], [6.912886, 45.973038], [6.912832, 45.972977], [6.912822, 45.972857], [6.912771, 45.972839], [6.912588, 45.972526], [6.912401, 45.972347], [6.912123, 45.972143], [6.912099, 45.972095], [6.912048, 45.972097], [6.911959, 45.972028], [6.911957, 45.97194], [6.911805, 45.971882], [6.911781, 45.971801], [6.911717, 45.97181], [6.911214, 45.971], [6.911183, 45.970754], [6.911133, 45.970725], [6.911136, 45.970695], [6.911297, 45.970657], [6.911371, 45.970593], [6.911415, 45.970454], [6.911377, 45.970317], [6.911264, 45.970218], [6.911298, 45.970169], [6.911282, 45.970148], [6.911217, 45.970158], [6.911177, 45.970138], [6.911074, 45.969928], [6.910949, 45.969906], [6.910837, 45.969834], [6.910697, 45.969699], [6.910592, 45.969659], [6.910546, 45.969564], [6.910037, 45.969243], [6.910011, 45.969092], [6.910047, 45.968962], [6.909959, 45.968835], [6.909965, 45.968746], [6.909917, 45.968621], [6.909935, 45.968578], [6.909881, 45.968514], [6.909878, 45.968441], [6.909708, 45.968285], [6.909541, 45.968206], [6.909442, 45.968123], [6.909332, 45.967957], [6.909196, 45.967856], [6.909114, 45.967686], [6.909011, 45.967611], [6.908969, 45.967447], [6.908783, 45.96735], [6.908693, 45.967218], [6.908715, 45.967089], [6.908568, 45.9669], [6.908533, 45.966811], [6.908416, 45.966687], [6.908406, 45.966587], [6.908303, 45.966544], [6.908266, 45.966498], [6.908084, 45.966458], [6.907993, 45.966411], [6.907852, 45.966406], [6.907747, 45.966296], [6.90773, 45.966239], [6.907668, 45.966197], [6.907662, 45.966037], [6.907575, 45.965959], [6.907543, 45.96587], [6.907464, 45.965812], [6.907446, 45.965756], [6.907353, 45.965723], [6.90727, 45.965744], [6.907094, 45.965579], [6.907064, 45.965503], [6.907083, 45.9654], [6.90699, 45.965216], [6.906808, 45.965042], [6.906641, 45.964984], [6.906548, 45.964922], [6.90654, 45.964814], [6.906491, 45.964819], [6.906444, 45.964786], [6.90618, 45.964205], [6.906067, 45.964024], [6.906054, 45.963932], [6.905966, 45.963904], [6.90586, 45.963784], [6.905682, 45.963685], [6.905635, 45.963597], [6.905675, 45.963537], [6.905615, 45.963508], [6.905579, 45.963446], [6.905462, 45.963416], [6.90544, 45.963384], [6.905312, 45.962972], [6.905325, 45.962806], [6.905251, 45.962718], [6.905263, 45.962684], [6.905203, 45.962636], [6.904984, 45.962591], [6.904931, 45.962535], [6.904948, 45.962518], [6.904782, 45.962415], [6.904756, 45.962369], [6.904794, 45.962318], [6.904736, 45.962301], [6.904662, 45.962139], [6.904735, 45.962092], [6.904765, 45.962108], [6.904821, 45.962049], [6.904776, 45.961907], [6.904812, 45.961923], [6.904822, 45.961786], [6.904679, 45.961714], [6.904579, 45.961627], [6.904512, 45.961635], [6.904435, 45.961604], [6.904378, 45.961493], [6.904329, 45.961515], [6.904271, 45.96149], [6.904218, 45.961428], [6.904127, 45.961147], [6.90405, 45.961132], [6.90402, 45.961083], [6.904042, 45.961051], [6.903975, 45.960781], [6.903971, 45.960555], [6.903938, 45.960509], [6.904004, 45.960444], [6.904037, 45.96048], [6.90427, 45.960474], [6.904278, 45.960397], [6.904247, 45.960389], [6.904208, 45.96031], [6.904059, 45.960236], [6.903977, 45.96024], [6.903752, 45.960342], [6.903686, 45.960324], [6.903622, 45.960243], [6.903632, 45.960189], [6.903548, 45.960097], [6.903456, 45.960035], [6.903383, 45.960055], [6.903316, 45.960025], [6.90323, 45.959944], [6.903156, 45.959924], [6.903013, 45.959815], [6.902394, 45.959168], [6.902232, 45.958871], [6.902215, 45.958739], [6.902142, 45.958729], [6.901839, 45.958299], [6.901505, 45.957975], [6.901487, 45.957897], [6.901388, 45.957811], [6.901287, 45.957647], [6.901214, 45.957596], [6.901197, 45.957295], [6.901221, 45.957066], [6.901264, 45.95686], [6.901315, 45.956808], [6.901299, 45.956654], [6.901223, 45.956573], [6.901275, 45.956472], [6.901132, 45.95633], [6.901119, 45.956196], [6.900918, 45.956031], [6.900987, 45.956059], [6.90103, 45.956046], [6.901029, 45.956012], [6.900875, 45.955902], [6.900765, 45.955739], [6.900667, 45.955663], [6.900624, 45.955521], [6.900569, 45.955499], [6.900496, 45.955386], [6.900426, 45.955334], [6.900072, 45.955219], [6.900001, 45.95514], [6.900004, 45.955075], [6.899864, 45.954991], [6.899808, 45.954996], [6.899804, 45.954955], [6.899698, 45.954913], [6.899648, 45.954821], [6.89927, 45.954584], [6.899231, 45.954512], [6.899023, 45.954321], [6.898936, 45.954176], [6.898828, 45.954135], [6.898744, 45.954004], [6.898663, 45.953966], [6.898648, 45.953978], [6.898536, 45.95389], [6.898325, 45.953587], [6.898114, 45.95341], [6.898082, 45.953297], [6.898005, 45.953188], [6.897875, 45.95309], [6.897862, 45.953037], [6.897759, 45.952952], [6.897615, 45.952913], [6.897435, 45.952814], [6.897326, 45.952721], [6.897033, 45.952608], [6.896876, 45.952596], [6.896819, 45.952561], [6.896508, 45.952474], [6.896477, 45.952447], [6.896499, 45.952417], [6.896263, 45.952281], [6.896207, 45.952151], [6.896071, 45.95209], [6.896012, 45.951991], [6.895809, 45.951847], [6.89575, 45.951837], [6.895593, 45.95174], [6.895546, 45.95165], [6.895372, 45.951535], [6.895338, 45.95145], [6.895241, 45.95134], [6.895069, 45.951242], [6.894786, 45.951194], [6.894524, 45.950992], [6.894441, 45.951], [6.894446, 45.950939], [6.894383, 45.950814], [6.894386, 45.950579], [6.894229, 45.950366], [6.894095, 45.950237], [6.894061, 45.95011], [6.893961, 45.94999], [6.893994, 45.949936], [6.895188, 45.949426], [6.895258, 45.949434], [6.895326, 45.949507], [6.895458, 45.949569], [6.895607, 45.949726], [6.895652, 45.949829], [6.895708, 45.949859]]}, "properties": {"name": "1790844888.Les_Tines_Argentiere_younger_dog_walk", "cmt": "2026-10-01", "tstamp": 1790812800, "desc": "DownHill", "src": "6.893928/45.949404/6.92588/45.9821", "bbox": "6.893928/45.949404/6.92588/45.9821"}}, {"type": "Feature", "bbox": [6.893928, 45.949404, 6.92588, 45.9821], "geometry": {"type": "LineString", "coordinates": [[6.895718, 45.949871], [6.895803, 45.9499], [6.896001, 45.950234], [6.89596, 45.950328], [6.895947, 45.950493], [6.896087, 45.950674], [6.896126, 45.950782], [6.896311, 45.950899], [6.896549, 45.951117], [6.896904, 45.951147], [6.89706, 45.951127], [6.897163, 45.951014], [6.897254, 45.950967], [6.897251, 45.950929], [6.897265, 45.950952], [6.897225, 45.950947], [6.897275, 45.95092]]}, "properties": {"name": "1790844888.Les_Tines_Argentiere_younger_dog_walk", "cmt": "2026-10-01", "tstamp": 1790812800, "desc": "UpHill", "src": "6.893928/45.949404/6.92588/45.9821", "bbox": "6.893928/45.949404/6.92588/45.9821"}}]}