{"type": "FeatureCollection", "name": "TrackSet", "crs": {"type": "name", "properties": {"name": "urn:ogc:def:crs:OGC:1.3:CRS84"}}, "bbox": [6.158603, 46.4284, 6.204946, 46.448742], "features": [{"type": "Feature", "bbox": [6.158603, 46.4284, 6.204946, 46.448742], "geometry": {"type": "LineString", "coordinates": [[6.18333, 46.448388], [6.183292, 46.448424], [6.183422, 46.448479], [6.183363, 46.448432], [6.183246, 46.448423], [6.183147, 46.448448], [6.183079, 46.448409], [6.182943, 46.448431], [6.182914, 46.448416], [6.182288, 46.44852], [6.182023, 46.448528], [6.181751, 46.44848], [6.181529, 46.448401], [6.181383, 46.448319], [6.181181, 46.448135], [6.181064, 46.447906], [6.181035, 46.447751], [6.180972, 46.447685], [6.180919, 46.44748], [6.180842, 46.44739], [6.180563, 46.447225], [6.18051, 46.447152], [6.17971, 46.446631], [6.179658, 46.446541], [6.179395, 46.446407], [6.17911, 46.446405], [6.178983, 46.446334], [6.178957, 46.446258], [6.178893, 46.446196], [6.178796, 46.446145], [6.178603, 46.446135], [6.1785, 46.446103], [6.178412, 46.445991], [6.178362, 46.445993], [6.178269, 46.445872], [6.178172, 46.445828], [6.178071, 46.445828], [6.178038, 46.445789], [6.17789, 46.445756], [6.177731, 46.445638], [6.177656, 46.445628], [6.17754, 46.445564], [6.177301, 46.44551], [6.177277, 46.445477], [6.177014, 46.445407], [6.17692, 46.44535], [6.176773, 46.44534], [6.176607, 46.445275], [6.176459, 46.445269], [6.176382, 46.445232], [6.176221, 46.445204], [6.176068, 46.445147], [6.176046, 46.445112], [6.17582, 46.445098], [6.175775, 46.44507], [6.175767, 46.445087], [6.175677, 46.445067], [6.175694, 46.445086], [6.175665, 46.445048], [6.175721, 46.445054], [6.175619, 46.445069], [6.175716, 46.445048], [6.175681, 46.445035], [6.175682, 46.444954], [6.175703, 46.444946], [6.175725, 46.444983], [6.17567, 46.44489], [6.175708, 46.444866], [6.175663, 46.444876], [6.175616, 46.44495], [6.175637, 46.444981], [6.17561, 46.44497], [6.175658, 46.444962], [6.175675, 46.44499], [6.175693, 46.444973], [6.175649, 46.444968], [6.175743, 46.444972], [6.175689, 46.444975], [6.175724, 46.444972], [6.175651, 46.445007], [6.175638, 46.444987], [6.175698, 46.444984], [6.175666, 46.445006], [6.175674, 46.445037], [6.175652, 46.445019], [6.175693, 46.445002], [6.17566, 46.445001], [6.175742, 46.444986], [6.17571, 46.444957], [6.175704, 46.444979], [6.175843, 46.444929], [6.175921, 46.444936], [6.175964, 46.444917], [6.175948, 46.444882], [6.175954, 46.444911], [6.176023, 46.444925], [6.176088, 46.444909], [6.17627, 46.444947], [6.176499, 46.444896], [6.176652, 46.444889], [6.17674, 46.444799], [6.176719, 46.444769], [6.176568, 46.444718], [6.176235, 46.444675], [6.176103, 46.444636], [6.175848, 46.444616], [6.175802, 46.444683], [6.175619, 46.4447], [6.175509, 46.44475], [6.175322, 46.444774], [6.175246, 46.44476], [6.17516, 46.444808], [6.174995, 46.444796], [6.174777, 46.444889], [6.174571, 46.444932], [6.174466, 46.444994], [6.174362, 46.444999], [6.174252, 46.445089], [6.174052, 46.445116], [6.174023, 46.445091], [6.173871, 46.445106], [6.173438, 46.445212], [6.172977, 46.445266], [6.172897, 46.445298], [6.172814, 46.445268], [6.172635, 46.445302], [6.172236, 46.445263], [6.17148, 46.445306], [6.171419, 46.445287], [6.171184, 46.445325], [6.171071, 46.445379], [6.170898, 46.445365], [6.170746, 46.445395], [6.170594, 46.445362], [6.170419, 46.445387], [6.170357, 46.445358], [6.170223, 46.445348], [6.170181, 46.445372], [6.170051, 46.445358], [6.169898, 46.445394], [6.169409, 46.445428], [6.169374, 46.445465], [6.169322, 46.445382], [6.169015, 46.445429], [6.168924, 46.445395], [6.168872, 46.4454], [6.16884, 46.445441], [6.16881, 46.445426], [6.168775, 46.445443], [6.168801, 46.445439], [6.168791, 46.445454], [6.168693, 46.445464], [6.168582, 46.445522], [6.168388, 46.445661], [6.168179, 46.445749], [6.168113, 46.445819], [6.167921, 46.445871], [6.167705, 46.446015], [6.167665, 46.446075], [6.167577, 46.44609], [6.167354, 46.446224], [6.167325, 46.446284], [6.167111, 46.44635], [6.167095, 46.446389], [6.16692, 46.4465], [6.166839, 46.446624], [6.166777, 46.446649], [6.166766, 46.44668], [6.16683, 46.446715], [6.166822, 46.446736], [6.166602, 46.446864], [6.166623, 46.446901], [6.166404, 46.447055], [6.166374, 46.447131], [6.166274, 46.447158], [6.166248, 46.447207], [6.1661, 46.447287], [6.166046, 46.447349], [6.165924, 46.44737], [6.165897, 46.447357], [6.165733, 46.447429], [6.165628, 46.447413], [6.165606, 46.447454], [6.165467, 46.447467], [6.165304, 46.447518], [6.165234, 46.447554], [6.165152, 46.447669], [6.164932, 46.447755], [6.164853, 46.447812], [6.164658, 46.447878], [6.164524, 46.447891], [6.164425, 46.447955], [6.164224, 46.447973], [6.164203, 46.448014], [6.164097, 46.447981], [6.16378, 46.448037], [6.163691, 46.447942], [6.163569, 46.447942], [6.163354, 46.447865], [6.162931, 46.447816], [6.162692, 46.44794], [6.1626, 46.448037], [6.162619, 46.448203], [6.16255, 46.448238], [6.162551, 46.448291], [6.162423, 46.448323], [6.16227, 46.448346], [6.162092, 46.448282], [6.16186, 46.448256], [6.161455, 46.448295], [6.161231, 46.448192], [6.161106, 46.448163], [6.160674, 46.448413], [6.160402, 46.448341], [6.160252, 46.448357], [6.159882, 46.448471], [6.159917, 46.448455], [6.159894, 46.448465], [6.159784, 46.448401], [6.159611, 46.448475], [6.15938, 46.448442]]}, "properties": {"name": "1790593371.Jura_with_Luke", "cmt": "2026-09-28", "tstamp": 1790553600, "desc": "UpHill", "src": "6.158603/46.4284/6.204946/46.448742", "bbox": "6.158603/46.4284/6.204946/46.448742"}}, {"type": "Feature", "bbox": [6.158603, 46.4284, 6.204946, 46.448742], "geometry": {"type": "LineString", "coordinates": [[6.159367, 46.44843], [6.159355, 46.448387], [6.159228, 46.448329], [6.159174, 46.448256], [6.158942, 46.447827], [6.158857, 46.447537], [6.158789, 46.447421], [6.158803, 46.447408], [6.158845, 46.44743], [6.158829, 46.44737], [6.158691, 46.447311], [6.158603, 46.447311], [6.158795, 46.44734], [6.15865, 46.447282], [6.158721, 46.447356], [6.158781, 46.447345], [6.158748, 46.447302], [6.158727, 46.447314], [6.158762, 46.44731], [6.158735, 46.447284], [6.158775, 46.447315], [6.158697, 46.447377], [6.158703, 46.447503], [6.158863, 46.447697], [6.158959, 46.447995], [6.159107, 46.448305], [6.159406, 46.448519], [6.159495, 46.448546], [6.15966, 46.448543], [6.159783, 46.448569], [6.159917, 46.448549], [6.160063, 46.44847], [6.160157, 46.448479], [6.160186, 46.448527], [6.160106, 46.44857], [6.160195, 46.448574], [6.16019, 46.448611], [6.160111, 46.448742], [6.160172, 46.448645], [6.160139, 46.44867], [6.160193, 46.44845], [6.160083, 46.448496], [6.160179, 46.448461], [6.160191, 46.448496], [6.160229, 46.448502], [6.160172, 46.448617], [6.160091, 46.448669], [6.160125, 46.448671], [6.160147, 46.448643], [6.160437, 46.448609], [6.160676, 46.448511], [6.161061, 46.448448], [6.161362, 46.448363], [6.161729, 46.448364], [6.161887, 46.44831], [6.162126, 46.448373], [6.162339, 46.448372], [6.162484, 46.448319], [6.162539, 46.448264], [6.162671, 46.448268], [6.162753, 46.447973], [6.162936, 46.447922], [6.163035, 46.447906], [6.16351, 46.447974], [6.163821, 46.448087], [6.163905, 46.44808], [6.164049, 46.448015], [6.164112, 46.448028], [6.164189, 46.448005], [6.164339, 46.448038], [6.164414, 46.447973], [6.16462, 46.447889], [6.164674, 46.447894], [6.164716, 46.447857], [6.164795, 46.447859], [6.164899, 46.447795], [6.164968, 46.447798], [6.165081, 46.447757], [6.165189, 46.44768], [6.165182, 46.447608], [6.165267, 46.447525], [6.165316, 46.447554], [6.165451, 46.44751], [6.165691, 46.447502], [6.165912, 46.447363], [6.165924, 46.447395], [6.165984, 46.447405], [6.166083, 46.447389], [6.16612, 46.447353], [6.166178, 46.447354], [6.16631, 46.447241], [6.166459, 46.447178], [6.166509, 46.447091], [6.166692, 46.446908], [6.166742, 46.446909], [6.166764, 46.446874], [6.166818, 46.446867], [6.166926, 46.446773], [6.166894, 46.446723], [6.166959, 46.446681], [6.16695, 46.446568], [6.167092, 46.446512], [6.167177, 46.446514], [6.167258, 46.446374], [6.167347, 46.446336], [6.167402, 46.446269], [6.167466, 46.446276], [6.167629, 46.446208], [6.167665, 46.44614], [6.167739, 46.446107], [6.167892, 46.445951], [6.168053, 46.445912], [6.168251, 46.445772], [6.168435, 46.445693], [6.168531, 46.445689], [6.16873, 46.445583], [6.16884, 46.445584], [6.168995, 46.445499], [6.169086, 46.445496], [6.169322, 46.445428], [6.169443, 46.445483], [6.169676, 46.445492], [6.169984, 46.445387], [6.170117, 46.445404], [6.170249, 46.445378], [6.170418, 46.445405], [6.170598, 46.445383], [6.170772, 46.445402], [6.170863, 46.445439], [6.171074, 46.445401], [6.17116, 46.445416], [6.171251, 46.445376], [6.171417, 46.4454], [6.171449, 46.445358], [6.171543, 46.44535], [6.171621, 46.445312], [6.171779, 46.445334], [6.172223, 46.445272], [6.172716, 46.445299], [6.172888, 46.445286], [6.173204, 46.445226], [6.173655, 46.445176], [6.174035, 46.445082], [6.174249, 46.445089], [6.174403, 46.445039], [6.174521, 46.44496], [6.174611, 46.444955], [6.174743, 46.444901], [6.174854, 46.444901], [6.175042, 46.44483], [6.17521, 46.444825], [6.175422, 46.444778], [6.175525, 46.44472], [6.175887, 46.444645], [6.17635, 46.444703], [6.176429, 46.444742], [6.176773, 46.444803], [6.176684, 46.444785], [6.176502, 46.444845], [6.176333, 46.444841], [6.176227, 46.444878], [6.176039, 46.444897], [6.175935, 46.444905], [6.175886, 46.444884], [6.175683, 46.444949], [6.175653, 46.444976], [6.175674, 46.444996], [6.175673, 46.444972], [6.175633, 46.444969], [6.175611, 46.444986], [6.175662, 46.444978], [6.175619, 46.444996], [6.175656, 46.444995], [6.176042, 46.444911], [6.176312, 46.444927], [6.176499, 46.444896], [6.176811, 46.444884], [6.176829, 46.444861], [6.176777, 46.444882], [6.176746, 46.444829], [6.176783, 46.444771], [6.176752, 46.444792], [6.17701, 46.444799], [6.177128, 46.44473], [6.177277, 46.444744], [6.177302, 46.444715], [6.177607, 46.444751], [6.177714, 46.444706], [6.17776, 46.444633], [6.177802, 46.444641], [6.177892, 46.444599], [6.178366, 46.44464], [6.178536, 46.44463], [6.178587, 46.444584], [6.178687, 46.444569], [6.178901, 46.444602], [6.178936, 46.444565], [6.179055, 46.444571], [6.1792, 46.444508], [6.179216, 46.444451], [6.179283, 46.444422], [6.17952, 46.444436], [6.179524, 46.444411], [6.179597, 46.444463], [6.179738, 46.444491], [6.179924, 46.444597], [6.180094, 46.444629], [6.180264, 46.444757], [6.180442, 46.444819], [6.180462, 46.444856], [6.180617, 46.444872], [6.180655, 46.44492], [6.180767, 46.444952], [6.180967, 46.445076], [6.18108, 46.445092], [6.181211, 46.445189], [6.181436, 46.445223], [6.181543, 46.445206], [6.181655, 46.445225], [6.181756, 46.445204], [6.181912, 46.445241], [6.182051, 46.44532], [6.182098, 46.445314], [6.182149, 46.445235], [6.182062, 46.445137], [6.182069, 46.44505], [6.181929, 46.444962], [6.181917, 46.444891], [6.181803, 46.444824], [6.181717, 46.44458], [6.18165, 46.444524], [6.181633, 46.444425], [6.181442, 46.444256], [6.181328, 46.444197], [6.181253, 46.444081], [6.181043, 46.443941], [6.180832, 46.443629], [6.180847, 46.443606], [6.180795, 46.443584], [6.180618, 46.443363], [6.180572, 46.443211], [6.180601, 46.443122], [6.180522, 46.443065], [6.18043, 46.442903], [6.180349, 46.442863], [6.180247, 46.442717], [6.180109, 46.442599], [6.180007, 46.442545], [6.179819, 46.442511], [6.179506, 46.442386], [6.179441, 46.442322], [6.179407, 46.442145], [6.179522, 46.441992], [6.17963, 46.441975], [6.179798, 46.441739], [6.180023, 46.44162], [6.180074, 46.441507], [6.180321, 46.441351], [6.180397, 46.441201], [6.180401, 46.441121], [6.180343, 46.440987], [6.180347, 46.440861], [6.18028, 46.440721], [6.180285, 46.440666], [6.180095, 46.440544], [6.180054, 46.440487], [6.180068, 46.440448], [6.180006, 46.440394], [6.180011, 46.440325], [6.180127, 46.440249], [6.180261, 46.440276], [6.180456, 46.440255], [6.180572, 46.440295], [6.180823, 46.440278], [6.1809, 46.440312], [6.180943, 46.440286], [6.181068, 46.44029], [6.181301, 46.440137], [6.181541, 46.44008], [6.181661, 46.439975], [6.181673, 46.439913], [6.18187, 46.439744], [6.181965, 46.439529], [6.182078, 46.439405], [6.182132, 46.439244], [6.182017, 46.439015], [6.182017, 46.438892], [6.181924, 46.438797], [6.181992, 46.438751], [6.181969, 46.438763], [6.181938, 46.438686], [6.181889, 46.438662], [6.181808, 46.438468], [6.181828, 46.438371], [6.181807, 46.438364], [6.182082, 46.438306], [6.182091, 46.438244], [6.182361, 46.438266], [6.182658, 46.438248], [6.18274, 46.438169], [6.182719, 46.438109], [6.182742, 46.438077], [6.182983, 46.438044], [6.183285, 46.437793], [6.183431, 46.437751], [6.183712, 46.437561], [6.183806, 46.437438], [6.183933, 46.43741], [6.184027, 46.437273], [6.184114, 46.437245], [6.18417, 46.437169], [6.184234, 46.437159], [6.184393, 46.437051], [6.184449, 46.43696], [6.184509, 46.436933], [6.184568, 46.436851], [6.184823, 46.436633], [6.18503, 46.436611], [6.18521, 46.436526], [6.185276, 46.436518], [6.185581, 46.436319], [6.185688, 46.436301], [6.185809, 46.436204], [6.186068, 46.43612], [6.186187, 46.436012], [6.186463, 46.435962], [6.18656, 46.4359], [6.186625, 46.435906], [6.186852, 46.435826], [6.187068, 46.435819], [6.187277, 46.435903], [6.187333, 46.435861], [6.187435, 46.435851], [6.187631, 46.435893], [6.18773, 46.435893], [6.187819, 46.435865], [6.188013, 46.435887], [6.188214, 46.435749], [6.188312, 46.435757], [6.188378, 46.435818], [6.188531, 46.435894], [6.188606, 46.435893], [6.188585, 46.435856], [6.188654, 46.435769], [6.188704, 46.43575], [6.188778, 46.435621], [6.188766, 46.435562], [6.188812, 46.435458], [6.188891, 46.435427], [6.189135, 46.435199], [6.190178, 46.434562], [6.190265, 46.434486], [6.190503, 46.434396], [6.190575, 46.43433], [6.190733, 46.434278], [6.190763, 46.434231], [6.190938, 46.434123], [6.191109, 46.434025], [6.191176, 46.434014], [6.191498, 46.433811], [6.191947, 46.433645], [6.19216, 46.433513], [6.192322, 46.433478], [6.192357, 46.433456], [6.192356, 46.433418], [6.192447, 46.433356], [6.193147, 46.433037], [6.193388, 46.432897], [6.193524, 46.432856], [6.194012, 46.43255], [6.194442, 46.432355], [6.1947, 46.432208], [6.194878, 46.432167], [6.195306, 46.432123], [6.195425, 46.432088], [6.195787, 46.432088], [6.195961, 46.432065], [6.196145, 46.432082], [6.196263, 46.43206], [6.196784, 46.432055], [6.197239, 46.432015], [6.197441, 46.432062], [6.197735, 46.431984], [6.198125, 46.431843], [6.19868, 46.431692], [6.199127, 46.431529], [6.199667, 46.43117], [6.199793, 46.431126], [6.200014, 46.430916], [6.200162, 46.430804], [6.200187, 46.430797], [6.200197, 46.430829], [6.200167, 46.43084], [6.20024, 46.430752], [6.200333, 46.430689], [6.200764, 46.430476], [6.200799, 46.430412], [6.201012, 46.430363], [6.201249, 46.430374], [6.201584, 46.430293], [6.201669, 46.430303], [6.201991, 46.430255], [6.202169, 46.430259], [6.202361, 46.430217], [6.202604, 46.430222], [6.202815, 46.430292], [6.203225, 46.430483], [6.20334, 46.430501], [6.203415, 46.430465], [6.20357, 46.43031], [6.203737, 46.430209], [6.203834, 46.430105], [6.203883, 46.429939], [6.203822, 46.429892], [6.203784, 46.429786], [6.204138, 46.429458], [6.204253, 46.429281], [6.204378, 46.429191], [6.20458, 46.429122], [6.20486, 46.429088], [6.204944, 46.42897], [6.204946, 46.428829]]}, "properties": {"name": "1790593371.Jura_with_Luke", "cmt": "2026-09-28", "tstamp": 1790553600, "desc": "DownHill", "src": "6.158603/46.4284/6.204946/46.448742", "bbox": "6.158603/46.4284/6.204946/46.448742"}}, {"type": "Feature", "bbox": [6.158603, 46.4284, 6.204946, 46.448742], "geometry": {"type": "LineString", "coordinates": [[6.204939, 46.428816], [6.204899, 46.428737], [6.204806, 46.428688], [6.20472, 46.428551], [6.204616, 46.428471], [6.204552, 46.428431], [6.204399, 46.4284], [6.204388, 46.428434]]}, "properties": {"name": "1790593371.Jura_with_Luke", "cmt": "2026-09-28", "tstamp": 1790553600, "desc": "UpHill", "src": "6.158603/46.4284/6.204946/46.448742", "bbox": "6.158603/46.4284/6.204946/46.448742"}}]}