{"type": "FeatureCollection", "name": "TrackSet", "crs": {"type": "name", "properties": {"name": "urn:ogc:def:crs:OGC:1.3:CRS84"}}, "bbox": [9.214784, 47.112197, 9.218694, 47.115101], "features": [{"type": "Feature", "bbox": [9.214784, 47.112197, 9.218694, 47.115101], "geometry": {"type": "LineString", "coordinates": [[9.218674, 47.112297], [9.218629, 47.112228], [9.218646, 47.112207], [9.218655, 47.112232], [9.218519, 47.112203], [9.218178, 47.112394], [9.218041, 47.112437], [9.217865, 47.112407], [9.217844, 47.11243], [9.217867, 47.112486], [9.217807, 47.112438], [9.21779, 47.112472], [9.217634, 47.112475], [9.217584, 47.112523], [9.2173, 47.112647], [9.21718, 47.112668], [9.217142, 47.112753], [9.217016, 47.112753], [9.216907, 47.112811], [9.216818, 47.112787], [9.216455, 47.112763], [9.216281, 47.112724], [9.216218, 47.112685], [9.216103, 47.112682], [9.216027, 47.112652], [9.215892, 47.112659], [9.21564, 47.112563], [9.215632, 47.112458], [9.215672, 47.112441], [9.215668, 47.112404], [9.215591, 47.112374], [9.215628, 47.112418], [9.21558, 47.112446], [9.215555, 47.112553], [9.215439, 47.112646], [9.215362, 47.112664], [9.215281, 47.11274], [9.215202, 47.112762], [9.21522, 47.112793], [9.21517, 47.112839], [9.215079, 47.112777], [9.215541, 47.113029], [9.215582, 47.113097], [9.215535, 47.11312], [9.215489, 47.113067], [9.215447, 47.113072], [9.215267, 47.113141], [9.215202, 47.113218], [9.21535, 47.113195], [9.215396, 47.113166], [9.215613, 47.113141], [9.215616, 47.113033], [9.215777, 47.113052], [9.215817, 47.113031], [9.215916, 47.113054], [9.215829, 47.11302], [9.215779, 47.113047], [9.215926, 47.113017], [9.215993, 47.113079], [9.216083, 47.113087], [9.217029, 47.113061], [9.217139, 47.113095], [9.217271, 47.113098], [9.21759, 47.113215], [9.217643, 47.113263], [9.217699, 47.11327], [9.217716, 47.113388], [9.217798, 47.113388], [9.21788, 47.113448], [9.21817, 47.113529], [9.218151, 47.113603], [9.21805, 47.113677], [9.217774, 47.113738], [9.217718, 47.113779], [9.217848, 47.114196], [9.21802, 47.114421], [9.217989, 47.114484], [9.21793, 47.114515], [9.217952, 47.114545], [9.217918, 47.114547], [9.217888, 47.114594], [9.217954, 47.11479], [9.217927, 47.114598], [9.217901, 47.114585], [9.217835, 47.114614], [9.217749, 47.114742], [9.217641, 47.114761], [9.217436, 47.114852], [9.21737, 47.114901], [9.217364, 47.114937], [9.21731, 47.114921], [9.21733, 47.114926], [9.217355, 47.114796], [9.217298, 47.114776], [9.217195, 47.114823], [9.217122, 47.114825], [9.21711, 47.114867], [9.217133, 47.114848], [9.216943, 47.114881], [9.216776, 47.115012], [9.216689, 47.115027], [9.216635, 47.115009], [9.216618, 47.115038], [9.216483, 47.115068], [9.216392, 47.115067], [9.216286, 47.115023], [9.216307, 47.115046], [9.216251, 47.115049], [9.21621, 47.115079], [9.216237, 47.115079], [9.21622, 47.115101], [9.216031, 47.115057], [9.215907, 47.115081], [9.215413, 47.115084], [9.215291, 47.115038], [9.215166, 47.115022], [9.215326, 47.114812], [9.21594, 47.114794], [9.215996, 47.114775], [9.216055, 47.114707], [9.216161, 47.114133], [9.216225, 47.113973], [9.21623, 47.113781], [9.216326, 47.113659], [9.216385, 47.11349], [9.216119, 47.11344], [9.21526, 47.113455], [9.214882, 47.113387], [9.214826, 47.113192], [9.214883, 47.11312], [9.214917, 47.11318], [9.214853, 47.11331], [9.21493, 47.113131], [9.214847, 47.112979], [9.214856, 47.112893], [9.214784, 47.112724], [9.215057, 47.112724], [9.214852, 47.112881], [9.215067, 47.112821], [9.214998, 47.112781], [9.214986, 47.112822], [9.214961, 47.112788], [9.21509, 47.112742], [9.215248, 47.112837], [9.21537, 47.112665], [9.215444, 47.112637], [9.215606, 47.112492], [9.215978, 47.112687], [9.216155, 47.112673], [9.216403, 47.112724], [9.216563, 47.112712], [9.21681, 47.11275], [9.216974, 47.11274], [9.217152, 47.11278], [9.217232, 47.112757], [9.217336, 47.112671], [9.217369, 47.112598], [9.217519, 47.11256], [9.217672, 47.112466], [9.217792, 47.112466], [9.21788, 47.112425], [9.217997, 47.112428], [9.218056, 47.112336], [9.218107, 47.112351], [9.21817, 47.11231], [9.21831, 47.112286], [9.218391, 47.112202], [9.218616, 47.112197], [9.218664, 47.112212], [9.218694, 47.112273]]}, "properties": {"name": "1790279697.Murg_night_stroll", "cmt": "2026-09-24", "tstamp": 1790208000, "desc": "---", "src": "9.214784/47.112197/9.218694/47.115101", "bbox": "9.214784/47.112197/9.218694/47.115101"}}]}