{"type": "FeatureCollection", "name": "TrackSet", "crs": {"type": "name", "properties": {"name": "urn:ogc:def:crs:OGC:1.3:CRS84"}}, "bbox": [9.510431, 46.713156, 9.548146, 46.727273], "features": [{"type": "Feature", "bbox": [9.510431, 46.713156, 9.548146, 46.727273], "geometry": {"type": "LineString", "coordinates": [[9.547469, 46.72494], [9.547536, 46.725153], [9.547433, 46.725229], [9.547366, 46.725233], [9.547306, 46.725185], [9.547288, 46.725209], [9.546996, 46.72526], [9.546963, 46.725284], [9.546667, 46.725253], [9.546672, 46.725275], [9.546658, 46.725205], [9.546655, 46.725249], [9.546616, 46.725238], [9.546665, 46.725267], [9.546615, 46.725247], [9.546621, 46.725285], [9.546634, 46.725228], [9.546666, 46.725264], [9.546592, 46.725167], [9.546627, 46.725156], [9.546625, 46.725176], [9.546639, 46.72514], [9.546639, 46.725234], [9.546665, 46.725245], [9.546616, 46.725245], [9.546661, 46.725252], [9.546645, 46.725272], [9.546718, 46.725211], [9.546729, 46.725237], [9.546854, 46.725276], [9.546925, 46.725261], [9.546866, 46.725368], [9.546911, 46.725277], [9.546885, 46.72531], [9.546904, 46.725336], [9.547283, 46.725252], [9.547452, 46.725297], [9.547627, 46.725528], [9.547907, 46.725833], [9.548003, 46.725902], [9.548106, 46.726042], [9.548106, 46.72614], [9.548146, 46.726173], [9.548128, 46.7262], [9.548075, 46.726216], [9.54805, 46.726183], [9.547882, 46.726133], [9.547797, 46.726138], [9.547627, 46.726067], [9.547448, 46.726029], [9.547309, 46.726034], [9.547001, 46.725993], [9.546789, 46.726021], [9.546399, 46.726002], [9.546162, 46.726056], [9.545976, 46.726055], [9.545826, 46.72609], [9.545604, 46.726085], [9.544968, 46.726237], [9.544705, 46.726218], [9.544425, 46.726261], [9.544294, 46.726318], [9.544143, 46.72662], [9.543928, 46.726817], [9.54343, 46.726986], [9.543167, 46.727215], [9.543072, 46.727229], [9.543014, 46.727233], [9.54293, 46.72717], [9.542789, 46.727134], [9.542518, 46.726962], [9.542523, 46.726874], [9.542571, 46.726844], [9.542608, 46.72673], [9.542713, 46.726624], [9.542758, 46.726528], [9.542738, 46.726427], [9.542694, 46.726384], [9.542496, 46.726427], [9.542159, 46.726579], [9.541685, 46.726669], [9.54152, 46.726657], [9.54151, 46.726625], [9.54168, 46.726534], [9.541741, 46.72645], [9.541737, 46.726367], [9.541804, 46.726241], [9.541789, 46.726201], [9.541721, 46.726167], [9.541605, 46.726184], [9.541349, 46.726273], [9.541092, 46.72641], [9.540822, 46.726428], [9.540755, 46.726469], [9.540587, 46.726481], [9.540468, 46.726521], [9.540359, 46.726512], [9.540293, 46.726476], [9.539943, 46.726584], [9.539859, 46.726563], [9.539841, 46.726606], [9.539776, 46.726644], [9.539751, 46.726734], [9.539846, 46.726953], [9.539704, 46.72702], [9.539613, 46.726991], [9.539501, 46.727009], [9.539392, 46.726934], [9.539275, 46.726915], [9.539192, 46.726948], [9.53907, 46.726945], [9.538995, 46.726967], [9.538931, 46.726994], [9.538891, 46.727067], [9.538543, 46.727065], [9.538369, 46.727149], [9.538204, 46.727183], [9.538097, 46.727174], [9.538099, 46.727196], [9.538032, 46.727188], [9.537976, 46.727233], [9.537815, 46.727236], [9.537726, 46.727273], [9.537581, 46.727248], [9.537504, 46.727186], [9.537612, 46.726966], [9.537688, 46.726888], [9.537731, 46.726764], [9.537693, 46.726723], [9.537724, 46.726634], [9.5377, 46.726498], [9.537607, 46.726355], [9.537419, 46.726338], [9.537364, 46.726296], [9.537191, 46.726259], [9.537036, 46.726269], [9.536612, 46.726355], [9.536427, 46.726283], [9.536229, 46.726281], [9.536158, 46.726236], [9.536092, 46.72624], [9.535955, 46.726201], [9.535885, 46.726147], [9.535781, 46.72593], [9.535677, 46.725857], [9.535505, 46.725808], [9.535302, 46.725866], [9.535226, 46.726012], [9.535259, 46.726159], [9.535225, 46.726225], [9.535091, 46.726279], [9.535085, 46.72632], [9.534983, 46.726409], [9.534841, 46.726445], [9.534739, 46.726322], [9.534682, 46.726297], [9.534507, 46.726384], [9.534387, 46.72639], [9.534243, 46.72629], [9.534067, 46.726236], [9.533886, 46.72603], [9.533509, 46.725943], [9.533299, 46.725854], [9.533274, 46.725818], [9.533326, 46.725814], [9.53331, 46.72579], [9.533231, 46.72579], [9.533147, 46.725745], [9.53316, 46.725729], [9.533157, 46.725751], [9.533137, 46.725742], [9.533148, 46.725715], [9.532659, 46.725275], [9.53266, 46.725143], [9.532727, 46.725078], [9.532748, 46.725007], [9.532866, 46.724907], [9.533027, 46.724827], [9.533095, 46.72484], [9.533223, 46.724809], [9.533174, 46.724679], [9.532859, 46.724649], [9.532561, 46.724756], [9.532521, 46.724809], [9.532503, 46.724772], [9.532464, 46.724787], [9.532451, 46.724768], [9.532524, 46.724794], [9.53252, 46.724818], [9.5325, 46.724734], [9.532402, 46.724678], [9.53178, 46.724449], [9.531711, 46.724403], [9.5313, 46.724339], [9.530922, 46.724225], [9.530765, 46.724086], [9.530565, 46.723983], [9.530498, 46.723898], [9.530492, 46.723716], [9.530627, 46.723422], [9.530679, 46.72313], [9.530576, 46.723018], [9.530407, 46.722955], [9.530406, 46.72288], [9.530465, 46.722839], [9.530606, 46.722813], [9.530718, 46.722695], [9.530742, 46.722565], [9.530791, 46.722515], [9.530763, 46.722423], [9.530808, 46.722366], [9.530821, 46.722263], [9.530894, 46.722194], [9.530915, 46.722111], [9.531068, 46.721986], [9.531055, 46.721946], [9.530944, 46.721897], [9.530929, 46.721862], [9.530889, 46.72185], [9.530944, 46.72187], [9.530897, 46.72188], [9.530877, 46.721837], [9.530779, 46.721879], [9.530805, 46.721887], [9.530818, 46.721866], [9.530798, 46.721884], [9.530821, 46.721895], [9.530289, 46.721883], [9.530301, 46.721899], [9.530156, 46.721917], [9.530077, 46.721894], [9.529799, 46.721922], [9.529445, 46.721891], [9.529193, 46.721585], [9.529098, 46.721559], [9.528888, 46.72155], [9.528753, 46.721465], [9.52868, 46.721291], [9.528552, 46.721218], [9.528534, 46.721159], [9.528335, 46.720949], [9.528148, 46.720861], [9.528083, 46.720877], [9.528114, 46.721044], [9.528083, 46.721186], [9.527918, 46.721583], [9.527807, 46.721707], [9.527702, 46.72171], [9.527504, 46.72162], [9.527399, 46.72161], [9.52735, 46.721581], [9.526957, 46.721558], [9.526825, 46.721514], [9.52664, 46.721514], [9.526574, 46.721488], [9.526417, 46.721332], [9.526387, 46.721164], [9.526322, 46.721071], [9.526258, 46.720848], [9.526056, 46.72057], [9.525884, 46.720498], [9.525636, 46.720447], [9.525196, 46.720266], [9.525055, 46.720139], [9.525077, 46.719941], [9.525038, 46.719823], [9.524812, 46.719594], [9.524586, 46.719427], [9.524596, 46.719156], [9.524523, 46.719069], [9.524375, 46.718657], [9.524148, 46.718316], [9.524121, 46.718141], [9.524068, 46.718082], [9.524067, 46.717969], [9.523974, 46.717878], [9.523932, 46.717789], [9.523873, 46.717764], [9.523798, 46.717679], [9.523728, 46.717448], [9.523748, 46.717405], [9.52371, 46.717224], [9.52362, 46.7171], [9.523561, 46.716884], [9.523488, 46.716879], [9.52339, 46.716944], [9.523284, 46.717169], [9.523174, 46.717174], [9.523122, 46.71713], [9.523137, 46.717051], [9.523101, 46.716977], [9.522728, 46.716705], [9.522064, 46.716584], [9.521919, 46.71649], [9.521641, 46.716379], [9.521571, 46.716323], [9.521449, 46.71633], [9.521366, 46.716445], [9.521317, 46.716472], [9.521268, 46.716456], [9.521256, 46.716477], [9.52127, 46.716442], [9.521179, 46.716337], [9.521136, 46.716367], [9.52108, 46.716231], [9.520823, 46.716027], [9.520719, 46.715881], [9.520675, 46.715869], [9.520603, 46.715781], [9.520594, 46.715795], [9.520534, 46.71576], [9.520498, 46.715768], [9.52032, 46.715666], [9.520098, 46.715632], [9.520027, 46.715642], [9.519955, 46.715696], [9.519835, 46.715697], [9.519896, 46.715563], [9.519891, 46.715422], [9.519863, 46.715347], [9.519782, 46.715341], [9.519674, 46.715251], [9.519683, 46.715163], [9.519654, 46.71515], [9.519596, 46.715168], [9.519402, 46.715124], [9.519397, 46.715031], [9.519313, 46.715008], [9.519055, 46.715059], [9.519083, 46.714937], [9.519151, 46.714853], [9.518985, 46.714801], [9.518916, 46.714736], [9.51881, 46.714725], [9.518776, 46.714677], [9.518671, 46.714631], [9.518591, 46.714508], [9.518423, 46.714377], [9.518252, 46.714109], [9.518187, 46.7141], [9.518116, 46.714053], [9.517932, 46.714065], [9.517763, 46.714029], [9.517609, 46.713877], [9.517461, 46.713834], [9.517425, 46.713773], [9.517375, 46.713752], [9.517303, 46.71375], [9.51729, 46.713694], [9.517229, 46.713669], [9.517161, 46.713543], [9.51706, 46.713523], [9.516984, 46.713459], [9.516842, 46.713418], [9.516729, 46.713318], [9.5166, 46.713311], [9.516463, 46.713268], [9.516225, 46.713268], [9.515883, 46.713229], [9.515673, 46.713156], [9.515538, 46.713156], [9.515382, 46.713275], [9.515032, 46.713387], [9.514933, 46.713348], [9.51473, 46.713491], [9.514436, 46.713528], [9.514344, 46.71358], [9.514229, 46.713597], [9.514176, 46.713669], [9.514015, 46.713729], [9.514151, 46.713845], [9.514142, 46.713892], [9.51399, 46.713935], [9.513701, 46.714109], [9.513957, 46.714277], [9.514282, 46.714585], [9.514323, 46.714703], [9.514244, 46.714799], [9.514275, 46.714889], [9.514399, 46.715024], [9.514613, 46.71514], [9.514651, 46.715202], [9.514613, 46.715231], [9.514479, 46.715251], [9.514366, 46.715249], [9.514277, 46.715215], [9.514175, 46.715274], [9.514074, 46.715271], [9.513938, 46.715323], [9.513828, 46.715301], [9.513708, 46.715345], [9.513593, 46.71531], [9.513532, 46.715365], [9.513397, 46.715392], [9.513381, 46.715448], [9.513155, 46.715535], [9.513173, 46.715568], [9.513219, 46.715568], [9.51327, 46.715603], [9.51321, 46.715621], [9.513139, 46.715717], [9.513194, 46.71576], [9.513263, 46.715771], [9.513306, 46.715821], [9.513248, 46.715844], [9.513136, 46.715972], [9.513291, 46.716001], [9.513366, 46.716078], [9.513346, 46.716181], [9.513396, 46.716207], [9.513417, 46.716394], [9.513488, 46.716507], [9.51346, 46.716518], [9.513442, 46.716598], [9.513471, 46.71665], [9.513371, 46.716955], [9.51339, 46.717084], [9.513261, 46.717259], [9.513141, 46.717332], [9.513144, 46.717386], [9.512702, 46.717872], [9.512593, 46.718103], [9.512518, 46.718187], [9.512503, 46.718283], [9.512396, 46.71842], [9.512208, 46.718547], [9.512166, 46.718665], [9.512061, 46.718767], [9.512013, 46.718866], [9.511834, 46.718976], [9.511697, 46.719011], [9.511678, 46.719064], [9.511596, 46.719074], [9.511531, 46.719021], [9.511465, 46.719064], [9.511432, 46.719127], [9.511356, 46.719114], [9.511326, 46.71913], [9.511289, 46.719301], [9.511202, 46.719403], [9.511206, 46.719467], [9.511171, 46.719472], [9.511065, 46.719628], [9.510817, 46.720091], [9.510723, 46.720171], [9.510768, 46.720231], [9.510584, 46.720476], [9.510494, 46.720722], [9.510512, 46.720848], [9.510463, 46.72089], [9.510431, 46.721068], [9.5105, 46.721156], [9.510474, 46.721321], [9.510496, 46.72159], [9.510562, 46.721669], [9.510636, 46.721685], [9.510671, 46.721754], [9.510638, 46.721802]]}, "properties": {"name": "1790502355.Lenzerheide_piz_scalottas", "cmt": "2026-09-27", "tstamp": 1790467200, "desc": "UpHill", "src": "9.510431/46.713156/9.548146/46.727273", "bbox": "9.510431/46.713156/9.548146/46.727273"}}, {"type": "Feature", "bbox": [9.510431, 46.713156, 9.548146, 46.727273], "geometry": {"type": "LineString", "coordinates": [[9.510619, 46.721804], [9.510519, 46.721806], [9.510546, 46.721793]]}, "properties": {"name": "1790502355.Lenzerheide_piz_scalottas", "cmt": "2026-09-27", "tstamp": 1790467200, "desc": "DownHill", "src": "9.510431/46.713156/9.548146/46.727273", "bbox": "9.510431/46.713156/9.548146/46.727273"}}]}