{"type": "FeatureCollection", "name": "TrackSet", "crs": {"type": "name", "properties": {"name": "urn:ogc:def:crs:OGC:1.3:CRS84"}}, "bbox": [6.29706, 46.430737, 6.313779, 46.442293], "features": [{"type": "Feature", "bbox": [6.29706, 46.430737, 6.313779, 46.442293], "geometry": {"type": "LineString", "coordinates": [[6.298972, 46.435911], [6.299118, 46.435878], [6.299362, 46.435719], [6.299376, 46.435763], [6.299435, 46.435758], [6.299546, 46.435729], [6.299654, 46.435659], [6.299705, 46.435652], [6.299745, 46.435674], [6.299764, 46.435602], [6.299735, 46.435545], [6.299953, 46.43539], [6.300122, 46.435372], [6.300142, 46.435329], [6.300304, 46.435292], [6.300301, 46.435261], [6.300473, 46.435169], [6.300648, 46.435181], [6.300655, 46.435164], [6.300546, 46.43503], [6.300592, 46.435013], [6.300539, 46.434909], [6.30044, 46.434803], [6.300375, 46.434535], [6.300385, 46.434442], [6.300341, 46.434379], [6.300324, 46.434249], [6.300245, 46.434121], [6.300154, 46.43401], [6.300095, 46.43398], [6.299992, 46.433815], [6.299735, 46.433616], [6.299583, 46.433469], [6.299559, 46.433407], [6.299488, 46.433383], [6.299369, 46.433254], [6.29904, 46.433016], [6.298985, 46.432932], [6.298569, 46.432595], [6.298422, 46.432362], [6.298258, 46.432232], [6.298098, 46.431888], [6.298007, 46.431838], [6.297855, 46.431607], [6.297926, 46.431514], [6.29793, 46.431401], [6.298122, 46.43136], [6.298229, 46.431372], [6.298274, 46.431327], [6.298484, 46.431386], [6.298601, 46.431367], [6.29874, 46.43131], [6.298885, 46.431318], [6.298957, 46.431235], [6.299161, 46.431214], [6.299307, 46.431143], [6.299345, 46.431095], [6.299414, 46.431085], [6.299432, 46.431052], [6.299544, 46.431036], [6.299574, 46.43101], [6.299539, 46.430979], [6.299623, 46.430965], [6.299924, 46.430737], [6.300049, 46.430828], [6.300099, 46.430902], [6.300364, 46.431085], [6.300377, 46.431154], [6.300485, 46.431238], [6.300611, 46.4314], [6.300982, 46.431742], [6.301038, 46.431766], [6.301037, 46.431813], [6.301156, 46.431963], [6.301985, 46.432851], [6.302107, 46.432925], [6.30231, 46.433133], [6.302442, 46.433202], [6.302606, 46.433379], [6.302651, 46.433392], [6.302791, 46.433523], [6.302882, 46.43364], [6.302992, 46.433705], [6.303194, 46.433916], [6.303265, 46.433954], [6.303373, 46.434093], [6.303656, 46.434296], [6.303681, 46.434358], [6.303803, 46.434461], [6.304194, 46.434748], [6.304427, 46.434834], [6.304453, 46.435041], [6.304226, 46.435167], [6.304072, 46.43529], [6.303953, 46.435341], [6.303825, 46.435451], [6.303849, 46.435523], [6.304076, 46.435643], [6.304507, 46.435792], [6.304539, 46.435822], [6.304794, 46.435885], [6.304859, 46.435931], [6.305416, 46.436143], [6.305561, 46.436223], [6.306935, 46.437422], [6.307031, 46.437455], [6.30717, 46.437451], [6.307223, 46.437422], [6.307359, 46.437437], [6.30781, 46.437777], [6.308126, 46.437966], [6.308302, 46.438116], [6.308647, 46.438312], [6.3087, 46.438378], [6.308973, 46.438518], [6.309181, 46.438697], [6.309252, 46.438722], [6.309577, 46.438967], [6.309716, 46.439033], [6.309975, 46.439236], [6.31004, 46.439252], [6.310135, 46.439354], [6.310164, 46.439349], [6.310406, 46.43953], [6.310883, 46.439826], [6.311131, 46.44004], [6.31145, 46.440249], [6.311688, 46.440443], [6.311766, 46.440476], [6.312327, 46.440937], [6.312612, 46.441117], [6.312703, 46.441225], [6.312868, 46.44132], [6.313285, 46.441669], [6.313652, 46.441909], [6.313775, 46.442034], [6.313779, 46.442094], [6.313552, 46.442147], [6.313366, 46.442154], [6.313212, 46.442199], [6.313148, 46.44219], [6.312753, 46.44229], [6.312383, 46.442293], [6.311967, 46.441977], [6.311776, 46.441772], [6.31161, 46.441623], [6.311505, 46.441569], [6.311173, 46.441253], [6.310997, 46.441141], [6.310409, 46.440569], [6.30942, 46.43993], [6.309093, 46.439761], [6.308888, 46.439627], [6.308844, 46.439561], [6.308734, 46.43952], [6.308277, 46.439237], [6.308047, 46.439132], [6.307961, 46.439051], [6.307495, 46.438799], [6.307194, 46.438512], [6.306718, 46.438204], [6.306604, 46.438091], [6.306363, 46.43793], [6.306236, 46.437799], [6.306004, 46.437661], [6.305952, 46.437585], [6.305639, 46.43737], [6.30544, 46.437181], [6.305275, 46.437088], [6.305035, 46.436879], [6.305015, 46.436823], [6.305621, 46.436411], [6.305669, 46.436349], [6.305667, 46.436289], [6.30544, 46.436153], [6.305177, 46.436037], [6.304813, 46.435928], [6.304536, 46.435793], [6.303826, 46.435519], [6.303816, 46.435452], [6.304381, 46.435088], [6.304464, 46.435007], [6.304449, 46.43492], [6.303641, 46.434312], [6.303304, 46.433985], [6.302923, 46.433675], [6.302709, 46.433436], [6.302465, 46.433257], [6.301926, 46.432787], [6.301648, 46.432504], [6.30146, 46.432248], [6.301328, 46.432142], [6.300956, 46.431704], [6.300511, 46.4313], [6.300414, 46.431171], [6.300023, 46.430791], [6.299889, 46.430749], [6.299689, 46.430935], [6.299478, 46.431058], [6.298928, 46.431276], [6.298393, 46.431394], [6.298214, 46.431369], [6.297914, 46.431449], [6.297889, 46.431531], [6.297758, 46.431609], [6.297766, 46.431655], [6.2977, 46.431668], [6.297604, 46.431793], [6.297531, 46.43182], [6.29721, 46.432097], [6.29706, 46.432362], [6.29715, 46.4327], [6.297402, 46.433022], [6.297443, 46.43321], [6.297593, 46.43338], [6.297634, 46.433526], [6.297752, 46.43371], [6.29785, 46.433753], [6.298235, 46.434109], [6.298314, 46.434154], [6.298323, 46.43424], [6.298445, 46.434414], [6.298482, 46.434533], [6.298788, 46.434922], [6.299061, 46.435163], [6.299519, 46.435469], [6.299615, 46.435501], [6.299653, 46.435547], [6.299651, 46.435598], [6.299582, 46.435629], [6.299558, 46.435669], [6.299405, 46.435733], [6.299359, 46.435805], [6.299221, 46.435833], [6.299166, 46.435821], [6.299069, 46.435856], [6.298999, 46.435826], [6.29899, 46.435784], [6.29902, 46.435802], [6.299178, 46.43576], [6.299206, 46.435698], [6.299208, 46.435725], [6.299307, 46.435719], [6.299322, 46.435744], [6.299262, 46.435739], [6.299262, 46.435707], [6.299207, 46.435722], [6.299223, 46.435693], [6.299188, 46.435665], [6.299173, 46.435695], [6.299214, 46.435719], [6.299133, 46.435717], [6.299156, 46.435721], [6.299126, 46.435721], [6.299138, 46.435744], [6.299223, 46.43572], [6.29927, 46.435739], [6.299257, 46.435758], [6.299277, 46.435711], [6.299224, 46.435652], [6.299214, 46.435673], [6.299176, 46.435671], [6.299179, 46.435692], [6.299248, 46.435678], [6.299229, 46.435734], [6.299139, 46.435746], [6.299259, 46.43571], [6.299256, 46.435726], [6.299262, 46.435697], [6.299421, 46.435701], [6.299237, 46.435691], [6.299253, 46.435656], [6.299385, 46.435677], [6.2993, 46.435726], [6.299322, 46.435671], [6.299252, 46.435643], [6.299153, 46.435675], [6.299148, 46.435715], [6.299176, 46.435718], [6.299171, 46.435683], [6.2992, 46.435691], [6.299199, 46.435657], [6.299121, 46.435649], [6.299107, 46.435679], [6.299229, 46.435679], [6.299129, 46.435672], [6.299117, 46.435706], [6.299138, 46.435685], [6.299169, 46.435697], [6.299117, 46.435759], [6.299077, 46.435759], [6.299088, 46.435692], [6.299124, 46.435655], [6.299191, 46.435662], [6.299147, 46.435672], [6.299169, 46.435711], [6.299019, 46.435709], [6.299112, 46.435707], [6.299113, 46.435744], [6.299229, 46.435758], [6.299409, 46.435643], [6.299476, 46.435632], [6.299456, 46.435643], [6.299488, 46.435666], [6.299638, 46.435666], [6.299591, 46.435615]]}, "properties": {"name": "1790169505.Dully_social_walk_talk", "cmt": "2026-09-23", "tstamp": 1790121600, "desc": "---", "src": "6.29706/46.430737/6.313779/46.442293", "bbox": "6.29706/46.430737/6.313779/46.442293"}}]}