{"type": "FeatureCollection", "name": "TrackSet", "crs": {"type": "name", "properties": {"name": "urn:ogc:def:crs:OGC:1.3:CRS84"}}, "bbox": [6.141639, 46.200552, 6.196301, 46.33173], "features": [{"type": "Feature", "bbox": [6.141639, 46.200552, 6.196301, 46.33173], "geometry": {"type": "LineString", "coordinates": [[6.194431, 46.33173], [6.194609, 46.331661], [6.194686, 46.331599], [6.194667, 46.331483], [6.194576, 46.331367], [6.194541, 46.331166], [6.194485, 46.331097], [6.194517, 46.331098], [6.194504, 46.331069], [6.194172, 46.330546], [6.194137, 46.330446], [6.194095, 46.330419], [6.194017, 46.330211], [6.193947, 46.330134], [6.193814, 46.330099], [6.193743, 46.330136], [6.193413, 46.330184], [6.193326, 46.330183], [6.193202, 46.330143], [6.193227, 46.329996], [6.193201, 46.329878], [6.193272, 46.32978], [6.193225, 46.329783], [6.193261, 46.329785], [6.193234, 46.329788], [6.193269, 46.329743], [6.193448, 46.329662], [6.194063, 46.329536], [6.194121, 46.329549], [6.194299, 46.329484], [6.194707, 46.329406], [6.19485, 46.329414], [6.19485, 46.329431], [6.194871, 46.329413], [6.194916, 46.329442], [6.194951, 46.329398], [6.195065, 46.329352], [6.195232, 46.329334], [6.195305, 46.329293], [6.195637, 46.329199], [6.195745, 46.329191], [6.196097, 46.329093], [6.196129, 46.329], [6.196282, 46.328951], [6.196301, 46.328909], [6.19619, 46.328824], [6.196112, 46.328673], [6.195903, 46.328466], [6.195804, 46.328323], [6.195606, 46.328153], [6.195294, 46.327811], [6.195145, 46.327585], [6.195127, 46.327498], [6.194607, 46.326819], [6.194617, 46.326791], [6.194406, 46.326599], [6.194304, 46.326433], [6.194161, 46.326311], [6.194136, 46.326226], [6.193989, 46.326113], [6.193704, 46.325785], [6.193626, 46.325745], [6.193566, 46.325649], [6.193442, 46.325575], [6.19336, 46.325564], [6.192994, 46.325703], [6.192959, 46.325758], [6.192755, 46.325808], [6.192714, 46.325803], [6.192608, 46.325699], [6.192341, 46.325264], [6.192184, 46.325074], [6.192159, 46.324992], [6.192064, 46.324901], [6.192052, 46.324835], [6.191856, 46.324594], [6.191352, 46.323836], [6.191742, 46.323609], [6.191971, 46.323411], [6.192113, 46.323221], [6.192115, 46.323148], [6.19192, 46.322977], [6.19157, 46.322813], [6.191447, 46.322723], [6.191295, 46.322563], [6.190873, 46.322272], [6.190772, 46.322155], [6.190753, 46.322091], [6.190424, 46.321695], [6.190251, 46.321333], [6.19017, 46.321093], [6.190174, 46.321018], [6.190111, 46.320898], [6.190098, 46.320663], [6.189882, 46.320484], [6.189716, 46.320298], [6.189509, 46.320148], [6.189225, 46.320073], [6.189142, 46.319908], [6.188965, 46.319899], [6.188837, 46.319832], [6.188753, 46.319749], [6.18863, 46.31943], [6.18855, 46.319337], [6.188556, 46.319249], [6.188511, 46.319189], [6.188497, 46.319091], [6.188391, 46.318941], [6.188361, 46.318825], [6.18818, 46.31851], [6.188164, 46.318337], [6.187974, 46.31791], [6.187953, 46.317719], [6.187865, 46.31755], [6.187877, 46.317532], [6.1879, 46.317603], [6.187926, 46.317606], [6.187969, 46.317557], [6.187984, 46.317441], [6.187858, 46.317532], [6.187898, 46.317632], [6.187961, 46.317608], [6.187865, 46.317512], [6.187723, 46.317484], [6.187684, 46.31751], [6.187679, 46.317387], [6.187648, 46.317353], [6.187677, 46.317239], [6.187657, 46.317219], [6.187642, 46.317246], [6.187663, 46.317245], [6.187608, 46.31727], [6.187588, 46.317246], [6.149429, 46.226874], [6.144989, 46.216362], [6.142629, 46.210762], [6.142546, 46.210736], [6.142443, 46.210769], [6.142422, 46.210682], [6.143173, 46.210491], [6.143226, 46.210478], [6.143275, 46.210507], [6.143304, 46.21057], [6.143288, 46.210556], [6.143346, 46.210547], [6.143251, 46.210559], [6.143275, 46.210523], [6.14331, 46.210561], [6.143239, 46.21059], [6.143242, 46.210566], [6.143286, 46.210578], [6.143315, 46.210484], [6.143214, 46.210447], [6.14322, 46.210355], [6.143173, 46.210268], [6.143244, 46.210003], [6.143156, 46.209848], [6.143019, 46.209722], [6.14302, 46.209673], [6.142955, 46.209632], [6.142945, 46.209521], [6.14287, 46.209401], [6.142939, 46.209262], [6.143063, 46.209327], [6.143227, 46.209292], [6.143357, 46.209173], [6.143544, 46.209083], [6.143758, 46.20905], [6.143911, 46.208999], [6.144025, 46.208927], [6.144094, 46.208844], [6.144643, 46.208532], [6.14474, 46.20844], [6.144844, 46.208426], [6.144927, 46.208363], [6.145013, 46.208343], [6.145067, 46.208279], [6.1452, 46.208213], [6.145253, 46.207993], [6.145404, 46.207978], [6.145496, 46.207868], [6.145602, 46.207832], [6.145605, 46.207807], [6.145561, 46.207806], [6.145501, 46.207758], [6.145584, 46.207645], [6.145689, 46.207589], [6.145769, 46.207597], [6.145842, 46.207449], [6.14624, 46.207137], [6.146266, 46.207072], [6.146318, 46.207042], [6.14644, 46.207044], [6.146615, 46.20698], [6.146595, 46.20695], [6.14663, 46.206877], [6.146546, 46.206737], [6.146586, 46.206687], [6.146577, 46.206584], [6.146942, 46.205955], [6.146973, 46.205769], [6.146734, 46.205314], [6.146573, 46.204863], [6.146408, 46.204683], [6.14642, 46.204589], [6.146329, 46.204364], [6.14616, 46.204276], [6.146084, 46.204283], [6.146054, 46.204177], [6.146095, 46.204168], [6.146113, 46.204107], [6.146124, 46.203921], [6.145923, 46.203649], [6.145902, 46.203524], [6.146009, 46.203469], [6.146173, 46.203478], [6.146231, 46.203441], [6.146463, 46.203419], [6.146771, 46.203321], [6.14682, 46.20326], [6.14685, 46.203285], [6.146966, 46.203275], [6.14697, 46.203217], [6.147219, 46.203054], [6.147358, 46.203038], [6.147554, 46.203072], [6.147525, 46.203076], [6.147585, 46.203248], [6.147689, 46.203364], [6.148236, 46.203002], [6.148246, 46.202956], [6.148104, 46.202942], [6.14804, 46.202823], [6.147885, 46.202781], [6.147877, 46.20272], [6.147904, 46.202705], [6.147865, 46.202659], [6.147959, 46.202547], [6.147932, 46.202416], [6.147946, 46.202267], [6.147915, 46.202173], [6.14775, 46.202], [6.147804, 46.201953], [6.147776, 46.201915], [6.147797, 46.201886], [6.147705, 46.201802], [6.147696, 46.201736], [6.147745, 46.201746], [6.147666, 46.201614], [6.14766, 46.201566], [6.147699, 46.201514], [6.147665, 46.201498], [6.147673, 46.201466], [6.147702, 46.201464], [6.14771, 46.201423], [6.147788, 46.201419], [6.147822, 46.20135], [6.147807, 46.201309], [6.147781, 46.20132], [6.147722, 46.201295], [6.147819, 46.201198], [6.147793, 46.201094], [6.147832, 46.201089], [6.147901, 46.201016], [6.148069, 46.200986], [6.148196, 46.200996], [6.148025, 46.200828], [6.147992, 46.200733], [6.147867, 46.200675], [6.147946, 46.200635], [6.147885, 46.200609], [6.147852, 46.200561], [6.147753, 46.200576], [6.147671, 46.200552], [6.147749, 46.200594], [6.147546, 46.200642], [6.147544, 46.200705], [6.147464, 46.200706], [6.147465, 46.200768], [6.147401, 46.200829], [6.147391, 46.200933], [6.147283, 46.200989], [6.147116, 46.200966], [6.147136, 46.200981], [6.147108, 46.200986], [6.146862, 46.200774], [6.146977, 46.200786], [6.146959, 46.200806], [6.146985, 46.200797], [6.146987, 46.200842], [6.146949, 46.200861], [6.146987, 46.200886], [6.146925, 46.200998], [6.146865, 46.201044], [6.146826, 46.201034], [6.146854, 46.201062], [6.146821, 46.20106], [6.146811, 46.20099], [6.146851, 46.201055], [6.146864, 46.201041], [6.146795, 46.200917], [6.146822, 46.200947], [6.146761, 46.201014], [6.146757, 46.201121], [6.146638, 46.20107], [6.146531, 46.200986], [6.146463, 46.200975], [6.146382, 46.200842], [6.14638, 46.200776], [6.146259, 46.200745], [6.146202, 46.200752], [6.146181, 46.200723], [6.145963, 46.20077], [6.145844, 46.200848], [6.145735, 46.200879], [6.145653, 46.200853], [6.145431, 46.200895], [6.145322, 46.200939], [6.145359, 46.20095], [6.145247, 46.201011], [6.145029, 46.20102], [6.144966, 46.201046], [6.145013, 46.201065], [6.144895, 46.201076], [6.144738, 46.201159], [6.144642, 46.20117], [6.144735, 46.201181], [6.1447, 46.201262], [6.144427, 46.20133], [6.144378, 46.201357], [6.144399, 46.201376], [6.144388, 46.20135], [6.144158, 46.201419], [6.143973, 46.201517], [6.143861, 46.201653], [6.143855, 46.201775], [6.143805, 46.201802], [6.143807, 46.201861], [6.143606, 46.20238], [6.143532, 46.202457], [6.143469, 46.202622], [6.143294, 46.202847], [6.143253, 46.202988], [6.143314, 46.203219], [6.143268, 46.203291], [6.143273, 46.203418], [6.143234, 46.203446], [6.14324, 46.203555], [6.1432, 46.203649], [6.143241, 46.203782], [6.143212, 46.203822], [6.143412, 46.203933], [6.143476, 46.203998], [6.143486, 46.204172], [6.143428, 46.204235], [6.143552, 46.204428], [6.143565, 46.204685], [6.143625, 46.20459], [6.143734, 46.204578], [6.143922, 46.204606], [6.143907, 46.204618], [6.144035, 46.204656], [6.144322, 46.204689], [6.144549, 46.204778], [6.144835, 46.204785], [6.14503, 46.204816], [6.14511, 46.204801], [6.145177, 46.204823], [6.145199, 46.2049], [6.145157, 46.205052], [6.145191, 46.20508], [6.145125, 46.20518], [6.145148, 46.205223], [6.145052, 46.205411], [6.144969, 46.205487], [6.144928, 46.205634], [6.144878, 46.205699], [6.144913, 46.206004], [6.144855, 46.206161], [6.144932, 46.206186], [6.144903, 46.206177], [6.144893, 46.206209], [6.144926, 46.2062], [6.145233, 46.20632], [6.145508, 46.206452], [6.145663, 46.206451], [6.145816, 46.206536], [6.145902, 46.206531], [6.146102, 46.206616], [6.146432, 46.2067], [6.146786, 46.206738], [6.147019, 46.206905], [6.147289, 46.207005], [6.147312, 46.20698], [6.147289, 46.206929], [6.147315, 46.206899], [6.147306, 46.206768], [6.147371, 46.20683], [6.147441, 46.206841], [6.147561, 46.206718], [6.14761, 46.206758], [6.147928, 46.206817], [6.148071, 46.206912], [6.148085, 46.20693], [6.148032, 46.206929], [6.148145, 46.206968], [6.14811, 46.207051], [6.148142, 46.207117], [6.148244, 46.207182], [6.148288, 46.207177], [6.148355, 46.207225], [6.148456, 46.207249], [6.148696, 46.20741], [6.148736, 46.207469], [6.148715, 46.207551], [6.14877, 46.207553], [6.148702, 46.207563], [6.148744, 46.207667], [6.148892, 46.207727], [6.149104, 46.207984], [6.149259, 46.208079], [6.14943, 46.208269], [6.149564, 46.20836], [6.149593, 46.208418], [6.149735, 46.2085], [6.149782, 46.208593], [6.149904, 46.208662], [6.150135, 46.208704], [6.150792, 46.208601], [6.150888, 46.208686], [6.151009, 46.208716], [6.151173, 46.208627], [6.151207, 46.208655], [6.151241, 46.208644], [6.151237, 46.208622], [6.151215, 46.208649], [6.151238, 46.208652], [6.151214, 46.208663], [6.151158, 46.208637], [6.15099, 46.208744], [6.151068, 46.209003], [6.150904, 46.209232], [6.15109, 46.209431], [6.151007, 46.209522], [6.151003, 46.209619], [6.151101, 46.209696], [6.1512, 46.209517], [6.15127, 46.209465], [6.151245, 46.209485], [6.151227, 46.209404], [6.151293, 46.209304], [6.151243, 46.209307], [6.151294, 46.209251], [6.151278, 46.209187], [6.151545, 46.209234], [6.151674, 46.209179], [6.151741, 46.209116], [6.151776, 46.20888], [6.151655, 46.208556], [6.151393, 46.208202], [6.151165, 46.20798], [6.151011, 46.207897], [6.151002, 46.207836], [6.150314, 46.207121], [6.149879, 46.206443], [6.149574, 46.20615], [6.149261, 46.205897], [6.148989, 46.205707], [6.148905, 46.205669], [6.148827, 46.205665], [6.148436, 46.205341], [6.148341, 46.2052], [6.148301, 46.204976], [6.14842, 46.204795], [6.148565, 46.204698], [6.148629, 46.204685], [6.148628, 46.204663], [6.148628, 46.204684], [6.148679, 46.204667], [6.148713, 46.204628], [6.14864, 46.204563], [6.14863, 46.204511], [6.14844, 46.204491], [6.148182, 46.204557], [6.147935, 46.204575], [6.147776, 46.204636], [6.147372, 46.204707], [6.146976, 46.204826], [6.146739, 46.204844], [6.146623, 46.204809], [6.146632, 46.204936], [6.146792, 46.205237], [6.146786, 46.205281], [6.147117, 46.205879], [6.146975, 46.206045], [6.146961, 46.206129], [6.1467, 46.206572], [6.146643, 46.20662], [6.14654, 46.206845], [6.146385, 46.206921], [6.146361, 46.207064], [6.146106, 46.207215], [6.146063, 46.207273], [6.146083, 46.207259], [6.146095, 46.207298], [6.146013, 46.207324], [6.145991, 46.207371], [6.145943, 46.207363], [6.145894, 46.20739], [6.14587, 46.207446], [6.145706, 46.207546], [6.14558, 46.207571], [6.145503, 46.207561], [6.145532, 46.207597], [6.145497, 46.207642], [6.145514, 46.207691], [6.145539, 46.207727], [6.145618, 46.20774], [6.145532, 46.207813], [6.14537, 46.207874], [6.145234, 46.208094], [6.145145, 46.20812], [6.144957, 46.208272], [6.144697, 46.20842], [6.144459, 46.208656], [6.144367, 46.208663], [6.144359, 46.208693], [6.144238, 46.208719], [6.144092, 46.208817], [6.143953, 46.208847], [6.143681, 46.208987], [6.143708, 46.209155], [6.143604, 46.209239], [6.143403, 46.209293], [6.141639, 46.210202], [6.141741, 46.21021], [6.141798, 46.210244], [6.141971, 46.210258], [6.141945, 46.21032], [6.141887, 46.210327], [6.141888, 46.210309], [6.141878, 46.210328], [6.141926, 46.210406], [6.142041, 46.21049]]}, "properties": {"name": "1790611552.Geneva_with_Luke_green_jet_d’eau_and_fab_moon", "cmt": "2026-09-28", "tstamp": 1790553600, "desc": "---", "src": "6.141639/46.200552/6.196301/46.33173", "bbox": "6.141639/46.200552/6.196301/46.33173"}}]}