{"type": "FeatureCollection", "name": "TrackSet", "crs": {"type": "name", "properties": {"name": "urn:ogc:def:crs:OGC:1.3:CRS84"}}, "bbox": [7.34006, 45.939137, 7.380833, 46.002245], "features": [{"type": "Feature", "bbox": [7.34006, 45.939137, 7.380833, 46.002245], "geometry": {"type": "LineString", "coordinates": [[7.34061, 46.002245], [7.340551, 46.002195], [7.340232, 46.002093], [7.34017, 46.001993], [7.340071, 46.001925], [7.34006, 46.001783], [7.340169, 46.001658], [7.34032, 46.001581], [7.340486, 46.001576], [7.340639, 46.001516], [7.341055, 46.001426], [7.341389, 46.001441], [7.341597, 46.001408], [7.341808, 46.001421], [7.341928, 46.001376], [7.342056, 46.001379], [7.342184, 46.001295], [7.342284, 46.001266], [7.342445, 46.001111], [7.342563, 46.001084], [7.342749, 46.000905], [7.342943, 46.000822], [7.34334, 46.000573], [7.343463, 46.000441], [7.34358, 46.000209], [7.343776, 46.000063], [7.343852, 46.000049], [7.345163, 45.997724], [7.345259, 45.997756], [7.345215, 45.997788], [7.345275, 45.997836], [7.345212, 45.997963], [7.345185, 45.997956], [7.346704, 45.996914], [7.346567, 45.996947], [7.346305, 45.996958], [7.346363, 45.996916], [7.346428, 45.996916], [7.346441, 45.996758], [7.346475, 45.99674], [7.345999, 45.997124], [7.345671, 45.997339], [7.345884, 45.997139], [7.34589, 45.997177], [7.345922, 45.997142], [7.345818, 45.997278], [7.345542, 45.997336], [7.345461, 45.997273], [7.345397, 45.997323], [7.347257, 45.991166], [7.347299, 45.991196], [7.347348, 45.991189], [7.347366, 45.991219], [7.34742, 45.991144], [7.347447, 45.991145], [7.347424, 45.99114], [7.347472, 45.991149], [7.347468, 45.991126], [7.347456, 45.991147], [7.347433, 45.991124], [7.34746, 45.991144], [7.347404, 45.991138], [7.347421, 45.991172], [7.347465, 45.991124], [7.347463, 45.991144], [7.347434, 45.991128], [7.347451, 45.991146], [7.347403, 45.991118], [7.347429, 45.991144], [7.347442, 45.991124], [7.347452, 45.991151], [7.347435, 45.991136], [7.347417, 45.991158], [7.347447, 45.991158], [7.347231, 45.990813], [7.347284, 45.990619], [7.347228, 45.990539], [7.347199, 45.990536], [7.347095, 45.990573], [7.347064, 45.990711], [7.34699, 45.990814], [7.346979, 45.990941], [7.347037, 45.991046], [7.347077, 45.991266], [7.347019, 45.991309], [7.346934, 45.991267], [7.346913, 45.991152], [7.346638, 45.990934], [7.34631, 45.990366], [7.346216, 45.990259], [7.34609, 45.990171], [7.345923, 45.989951], [7.345803, 45.989844], [7.34563, 45.989567], [7.345644, 45.989376], [7.345691, 45.989343], [7.345765, 45.989197], [7.345751, 45.989039], [7.345817, 45.988917], [7.345862, 45.988646], [7.345927, 45.988514], [7.345953, 45.988299], [7.346011, 45.988225], [7.346008, 45.988174], [7.346079, 45.988105], [7.346193, 45.987807], [7.346115, 45.98767], [7.345916, 45.987561], [7.345878, 45.987433], [7.345973, 45.987259], [7.345955, 45.987136], [7.345898, 45.987044], [7.346013, 45.986925], [7.345992, 45.986886], [7.346008, 45.986876], [7.346008, 45.9869], [7.346034, 45.98688], [7.346125, 45.986714], [7.346094, 45.986614], [7.345927, 45.986508], [7.345913, 45.98639], [7.345808, 45.986291], [7.345715, 45.985929], [7.345717, 45.985615], [7.345666, 45.985556], [7.345646, 45.985572], [7.345665, 45.985559], [7.345597, 45.985553], [7.34555, 45.98558], [7.345381, 45.985576], [7.345168, 45.985622], [7.345103, 45.985664], [7.345032, 45.985763], [7.34505, 45.985796], [7.345, 45.985961], [7.34503, 45.986002], [7.345002, 45.986063], [7.345018, 45.986125], [7.345082, 45.986194], [7.345079, 45.986244], [7.345069, 45.986279], [7.344989, 45.986318], [7.344854, 45.986248], [7.344519, 45.986181], [7.344132, 45.986013], [7.344153, 45.986003], [7.344131, 45.985979], [7.343948, 45.985915], [7.343952, 45.985888], [7.343815, 45.985777], [7.343651, 45.985726], [7.343532, 45.985627], [7.343465, 45.985527], [7.34337, 45.985528], [7.343337, 45.985426], [7.343247, 45.985401], [7.343214, 45.985349], [7.343163, 45.985332], [7.343187, 45.985303], [7.342996, 45.985133], [7.34302, 45.98497], [7.34307, 45.984936], [7.343179, 45.984759], [7.343286, 45.984721], [7.343335, 45.984645], [7.343552, 45.984518], [7.343944, 45.984382], [7.343981, 45.984343], [7.34397, 45.984251], [7.343877, 45.984155], [7.343836, 45.984042], [7.343703, 45.984001], [7.343714, 45.983952], [7.343575, 45.983825], [7.343542, 45.98376], [7.343486, 45.983741], [7.343341, 45.983575], [7.34323, 45.983534], [7.343174, 45.983397], [7.34304, 45.983207], [7.343036, 45.983035], [7.34309, 45.982975], [7.343041, 45.982896], [7.343086, 45.982793], [7.343047, 45.982679], [7.342999, 45.982674], [7.342936, 45.982614], [7.342912, 45.982621], [7.342947, 45.98254], [7.343065, 45.982457], [7.343105, 45.982238], [7.34321, 45.982069], [7.343164, 45.981809], [7.343195, 45.981729], [7.34313, 45.981583], [7.343206, 45.981494], [7.343185, 45.981431], [7.343262, 45.981284], [7.343326, 45.981257], [7.343402, 45.981264], [7.343423, 45.981185], [7.343465, 45.981173], [7.343448, 45.981152], [7.343541, 45.981109], [7.343671, 45.980923], [7.343774, 45.98091], [7.343838, 45.980863], [7.343863, 45.98078], [7.343988, 45.980622], [7.34409, 45.980402], [7.344169, 45.980306], [7.344123, 45.980221], [7.344131, 45.980162], [7.344249, 45.980048], [7.344296, 45.979926], [7.344427, 45.979812], [7.344399, 45.979743], [7.344488, 45.979598], [7.34445, 45.979575], [7.344499, 45.97955], [7.344514, 45.979409], [7.344634, 45.97929], [7.34463, 45.979245], [7.344669, 45.979231], [7.344789, 45.979067], [7.34479, 45.978988], [7.344929, 45.978835], [7.344892, 45.978685], [7.344741, 45.97854], [7.344692, 45.978446], [7.344736, 45.978298], [7.344723, 45.978248], [7.344832, 45.978084], [7.344777, 45.978012], [7.344817, 45.977943], [7.344772, 45.977904], [7.344841, 45.977746], [7.344815, 45.977724], [7.344838, 45.977587], [7.344795, 45.97757], [7.344726, 45.977605], [7.3447, 45.977526], [7.344752, 45.977474], [7.344709, 45.977428], [7.34474, 45.977386], [7.34467, 45.977374], [7.344705, 45.977308], [7.344655, 45.977253], [7.344545, 45.977198], [7.344512, 45.977205], [7.34445, 45.977134], [7.344497, 45.977159], [7.344464, 45.977022], [7.344628, 45.976721], [7.344556, 45.976604], [7.344574, 45.976555], [7.344469, 45.976423], [7.344492, 45.976397], [7.344429, 45.976369], [7.344455, 45.976268], [7.344318, 45.976138], [7.344284, 45.976054], [7.344183, 45.975981], [7.344161, 45.975659], [7.344128, 45.975651], [7.344044, 45.975712], [7.343939, 45.975729], [7.343915, 45.975671], [7.343788, 45.975685], [7.343762, 45.97572], [7.343698, 45.97568], [7.343731, 45.975621], [7.343705, 45.975585], [7.343744, 45.975577], [7.343726, 45.975357], [7.343795, 45.975178], [7.343879, 45.975097], [7.34398, 45.975055], [7.344026, 45.974943], [7.344124, 45.974867], [7.344141, 45.974769], [7.344264, 45.974662], [7.344325, 45.974478], [7.344324, 45.974384], [7.344292, 45.974363], [7.344282, 45.974387], [7.344256, 45.974362], [7.34431, 45.974383], [7.344306, 45.974405], [7.34433, 45.974362], [7.344295, 45.974371], [7.344269, 45.974344], [7.344252, 45.974368], [7.344298, 45.974394], [7.344275, 45.974386], [7.344304, 45.974354], [7.344216, 45.974279], [7.344137, 45.974098], [7.343948, 45.973879], [7.343931, 45.973777], [7.343982, 45.973731], [7.343974, 45.973663], [7.344096, 45.973522], [7.344157, 45.973491], [7.344182, 45.973411], [7.344315, 45.973352], [7.344359, 45.973293], [7.344442, 45.973265], [7.344451, 45.973207], [7.344529, 45.973156], [7.344577, 45.972971], [7.344815, 45.972692], [7.344872, 45.972568], [7.344993, 45.972462], [7.344994, 45.972273], [7.344922, 45.972172], [7.344873, 45.972007], [7.344939, 45.971852], [7.344894, 45.971646], [7.34489, 45.9714], [7.344768, 45.971217], [7.344827, 45.971111], [7.344804, 45.971034], [7.344748, 45.970991], [7.344797, 45.970936], [7.344905, 45.970947], [7.344975, 45.970888], [7.344961, 45.970603], [7.34491, 45.970511], [7.34494, 45.970472], [7.344861, 45.970386], [7.344859, 45.97023], [7.344894, 45.970158], [7.344855, 45.970133], [7.344918, 45.969987], [7.344898, 45.969946], [7.344953, 45.969885], [7.344915, 45.969821], [7.344969, 45.969794], [7.344956, 45.969764], [7.345033, 45.969608], [7.345009, 45.969578], [7.345054, 45.969504], [7.345051, 45.969426], [7.345123, 45.969316], [7.345095, 45.969295], [7.345185, 45.969236], [7.345187, 45.969166], [7.345322, 45.968961], [7.345284, 45.968933], [7.345322, 45.968866], [7.345295, 45.968831], [7.345365, 45.968412], [7.345319, 45.968234], [7.345341, 45.96817], [7.345282, 45.968111], [7.345308, 45.968023], [7.345259, 45.967963], [7.345283, 45.967896], [7.345258, 45.967797], [7.345332, 45.967669], [7.345355, 45.967538], [7.345262, 45.96728], [7.345328, 45.967215], [7.345299, 45.967172], [7.345339, 45.967119], [7.345329, 45.967078], [7.345385, 45.967033], [7.345431, 45.966869], [7.345408, 45.966795], [7.345429, 45.9667], [7.345371, 45.966583], [7.345407, 45.966317], [7.345322, 45.966156], [7.345232, 45.966068], [7.345201, 45.965953], [7.345235, 45.965903], [7.345196, 45.965843], [7.345269, 45.965758], [7.345208, 45.965609], [7.345239, 45.965467], [7.345069, 45.965209], [7.345086, 45.965111], [7.344971, 45.965021], [7.345007, 45.964774], [7.344956, 45.964732], [7.344895, 45.964478], [7.344786, 45.964432], [7.344755, 45.964328], [7.344748, 45.964109], [7.344676, 45.964001], [7.344708, 45.963989], [7.344693, 45.963961], [7.344765, 45.963923], [7.34478, 45.96378], [7.344718, 45.963549], [7.344769, 45.963451], [7.344626, 45.963251], [7.344625, 45.963145], [7.344581, 45.963101], [7.344611, 45.963031], [7.344522, 45.962962], [7.344516, 45.962863], [7.344573, 45.962789], [7.344449, 45.96268], [7.344493, 45.962594], [7.344432, 45.962464], [7.344429, 45.962361], [7.34439, 45.962321], [7.344338, 45.962311], [7.344309, 45.962263], [7.344365, 45.962163], [7.344352, 45.962005], [7.344262, 45.961863], [7.344219, 45.961872], [7.344046, 45.961804], [7.344057, 45.961734], [7.344016, 45.961605], [7.343912, 45.961539], [7.343797, 45.961529], [7.343775, 45.961447], [7.34373, 45.961439], [7.343727, 45.961465], [7.34373, 45.961442], [7.343601, 45.961369], [7.343524, 45.96137], [7.343441, 45.96126], [7.343451, 45.961238], [7.343336, 45.961174], [7.343326, 45.961093], [7.343357, 45.961027], [7.343433, 45.960974], [7.343408, 45.960945], [7.343437, 45.960919]]}, "properties": {"name": "1791284894.Mauvoisin_Chanrion_refuge_via_high_route", "cmt": "2026-10-06", "tstamp": 1791244800, "desc": "UpHill", "src": "7.34006/45.939137/7.380833/46.002245", "bbox": "7.34006/45.939137/7.380833/46.002245"}}, {"type": "Feature", "bbox": [7.34006, 45.939137, 7.380833, 46.002245], "geometry": {"type": "LineString", "coordinates": [[7.343439, 45.960905], [7.343437, 45.960823], [7.343359, 45.960742], [7.343365, 45.960639], [7.343412, 45.960603], [7.343348, 45.960522], [7.343316, 45.960395], [7.343173, 45.96034], [7.343284, 45.960155], [7.343213, 45.960089], [7.343212, 45.959905], [7.343129, 45.959757], [7.343151, 45.959704], [7.343129, 45.959493], [7.343157, 45.959452], [7.343097, 45.959365], [7.343153, 45.959231], [7.343072, 45.959083], [7.343123, 45.959034], [7.343124, 45.958948], [7.343183, 45.958918], [7.343258, 45.95878], [7.34327, 45.958684], [7.343181, 45.958632], [7.343227, 45.958628], [7.343316, 45.958525], [7.343409, 45.958515], [7.343404, 45.958455], [7.343529, 45.958394], [7.343601, 45.958285], [7.343705, 45.958262], [7.343777, 45.958294], [7.343806, 45.958281], [7.343809, 45.958196], [7.343849, 45.958171], [7.343804, 45.958088], [7.344032, 45.957827], [7.344065, 45.957695], [7.344155, 45.95753], [7.344384, 45.957315], [7.344426, 45.957242], [7.344425, 45.957217], [7.344384, 45.957235], [7.344397, 45.957219], [7.344442, 45.957241], [7.344414, 45.957201], [7.344392, 45.957219], [7.344421, 45.957229], [7.344433, 45.957212], [7.344365, 45.957224], [7.344399, 45.957245], [7.344372, 45.957223], [7.344468, 45.957192], [7.344501, 45.957129], [7.344517, 45.957018], [7.344485, 45.956991], [7.344534, 45.956919], [7.344517, 45.956842], [7.344573, 45.956798], [7.344578, 45.956701], [7.344619, 45.956642], [7.344599, 45.956591], [7.344623, 45.956549], [7.344561, 45.95647], [7.344551, 45.956365], [7.344709, 45.95616], [7.344809, 45.956107], [7.344914, 45.956006], [7.344949, 45.955921], [7.344915, 45.955834], [7.345009, 45.955773], [7.345135, 45.955767], [7.345218, 45.955693], [7.34534, 45.955648], [7.345494, 45.955546], [7.345699, 45.955379], [7.345794, 45.955226], [7.345872, 45.955169], [7.345897, 45.955063], [7.345867, 45.954878], [7.34591, 45.954688], [7.345844, 45.954555], [7.345901, 45.954409], [7.345879, 45.954302], [7.345899, 45.954229], [7.345941, 45.954183], [7.34597, 45.954009], [7.346039, 45.953888], [7.346018, 45.95374], [7.346134, 45.953556], [7.346136, 45.953491], [7.346221, 45.953439], [7.346182, 45.953291], [7.346367, 45.953117], [7.346473, 45.953057], [7.346599, 45.953031], [7.346632, 45.952981], [7.346543, 45.952826], [7.346394, 45.952678], [7.34623, 45.952569], [7.346129, 45.952426], [7.345898, 45.95229], [7.345733, 45.952239], [7.34567, 45.95218], [7.345571, 45.952168], [7.345501, 45.952079], [7.345348, 45.952026], [7.345275, 45.951882], [7.345234, 45.951586], [7.345307, 45.951514], [7.345361, 45.951516], [7.345394, 45.951453], [7.345508, 45.95142], [7.345693, 45.951437], [7.345904, 45.951405], [7.345985, 45.951436], [7.346061, 45.95138], [7.346152, 45.951361], [7.346075, 45.951195], [7.34614, 45.95115], [7.346169, 45.951069], [7.346293, 45.951002], [7.346315, 45.950963], [7.346447, 45.950923], [7.346568, 45.950811], [7.346947, 45.950724], [7.347021, 45.950679], [7.346935, 45.950484], [7.34694, 45.9504], [7.346807, 45.950184], [7.34685, 45.950106], [7.347009, 45.95005], [7.34703, 45.950009], [7.34631, 45.949479], [7.346196, 45.949436], [7.345838, 45.949412], [7.34581, 45.949322], [7.345725, 45.949312], [7.345755, 45.949327], [7.345768, 45.949312], [7.345745, 45.949329], [7.345728, 45.949294], [7.345566, 45.949232], [7.345442, 45.949218], [7.345372, 45.949152], [7.345294, 45.949147], [7.345309, 45.949104], [7.345334, 45.949111], [7.345288, 45.949129], [7.345318, 45.949165], [7.345373, 45.949136], [7.345414, 45.949147], [7.345362, 45.949099], [7.345458, 45.94905], [7.34547, 45.949016], [7.345553, 45.949019], [7.345632, 45.94894], [7.345738, 45.948951], [7.345737, 45.948985], [7.345868, 45.948939], [7.345891, 45.94895], [7.345909, 45.948934], [7.345861, 45.948922], [7.345961, 45.948938], [7.345957, 45.94891], [7.346049, 45.948954], [7.346171, 45.948901], [7.346379, 45.948854], [7.346375, 45.948828], [7.346375, 45.94886], [7.346353, 45.948853], [7.346375, 45.948863], [7.34639, 45.948837], [7.34636, 45.948828], [7.346376, 45.948849], [7.346421, 45.948825], [7.346478, 45.948837], [7.346639, 45.948814], [7.347036, 45.948831], [7.347381, 45.948906], [7.348024, 45.948944], [7.348091, 45.948971], [7.348274, 45.948937], [7.348251, 45.948946], [7.348265, 45.948908], [7.348216, 45.948777], [7.348272, 45.948694], [7.34822, 45.948606], [7.348219, 45.948515], [7.348153, 45.948457], [7.34815, 45.948314], [7.348069, 45.94808], [7.348082, 45.947994], [7.348049, 45.947971], [7.348002, 45.947799], [7.348014, 45.947664], [7.348118, 45.947506], [7.348228, 45.947468], [7.348323, 45.947362], [7.348393, 45.947316], [7.348503, 45.947329], [7.348514, 45.947216], [7.348657, 45.947076], [7.348761, 45.94703], [7.34877, 45.94692], [7.348964, 45.94673], [7.34936, 45.946463], [7.349453, 45.946355], [7.349438, 45.946317], [7.349488, 45.946294], [7.349521, 45.94619], [7.349674, 45.946085], [7.349903, 45.946015], [7.349951, 45.94595], [7.350145, 45.945864], [7.350278, 45.94571], [7.350545, 45.945512], [7.350623, 45.945482], [7.35069, 45.945493], [7.350711, 45.945447], [7.350807, 45.945421], [7.350913, 45.945354], [7.351013, 45.945344], [7.351044, 45.945299], [7.351115, 45.945278], [7.351462, 45.944986], [7.351602, 45.944918], [7.351788, 45.944702], [7.351959, 45.944608], [7.351977, 45.944565], [7.351987, 45.944605], [7.351955, 45.944607], [7.351873, 45.944698], [7.35188, 45.944911], [7.351916, 45.944938], [7.352015, 45.944904], [7.352034, 45.944855], [7.352105, 45.944821], [7.35211, 45.944785], [7.352215, 45.944688], [7.352272, 45.944586], [7.352343, 45.944543], [7.352381, 45.944433], [7.352526, 45.944328], [7.3526, 45.944228], [7.352715, 45.944172], [7.352815, 45.94406], [7.352834, 45.943969], [7.352912, 45.9439], [7.353106, 45.943836], [7.353165, 45.943842], [7.353516, 45.943673], [7.353571, 45.943675], [7.353682, 45.943577], [7.353817, 45.943553], [7.353976, 45.943459], [7.354022, 45.94346], [7.354181, 45.943389], [7.354214, 45.943423], [7.354313, 45.943274], [7.354423, 45.943222], [7.354581, 45.943213], [7.354634, 45.943193], [7.354624, 45.94316], [7.354755, 45.943142], [7.354789, 45.943089], [7.354965, 45.943064], [7.35526, 45.942979], [7.355393, 45.942836], [7.355482, 45.94281], [7.355579, 45.942728], [7.355684, 45.94269], [7.355762, 45.942564], [7.355784, 45.942417], [7.355862, 45.942335], [7.355984, 45.942219], [7.356174, 45.942112], [7.356318, 45.941925], [7.356441, 45.941856], [7.356491, 45.941732], [7.356553, 45.941715], [7.356595, 45.941658], [7.356681, 45.941639], [7.356722, 45.941564], [7.356797, 45.941549], [7.356789, 45.941525], [7.356866, 45.941493], [7.356998, 45.941332], [7.357161, 45.941301], [7.357266, 45.941198], [7.35739, 45.941151], [7.357488, 45.941079], [7.357569, 45.941068], [7.357612, 45.941001], [7.357693, 45.940983], [7.357675, 45.941044], [7.357699, 45.941051], [7.357864, 45.940967], [7.357873, 45.940792], [7.358019, 45.940618], [7.358044, 45.940466], [7.358089, 45.940607], [7.358144, 45.940647], [7.358184, 45.940619], [7.358289, 45.940639], [7.358494, 45.940527], [7.358722, 45.940551], [7.358847, 45.940534], [7.358939, 45.940477], [7.358929, 45.94045], [7.359029, 45.940273], [7.359112, 45.940226], [7.359142, 45.94008], [7.359219, 45.940126], [7.359219, 45.940078], [7.359273, 45.94002], [7.359416, 45.939954], [7.359464, 45.939913], [7.359448, 45.939902], [7.359651, 45.939863], [7.359706, 45.939872], [7.35984, 45.939812], [7.359905, 45.939743], [7.359948, 45.939783], [7.360044, 45.9398], [7.36005, 45.939908], [7.360117, 45.939919], [7.360123, 45.940032], [7.360161, 45.940072], [7.360111, 45.940091], [7.360124, 45.940114], [7.360089, 45.940091], [7.360144, 45.940173], [7.360082, 45.940145], [7.360081, 45.940189], [7.360144, 45.940259], [7.360205, 45.940282], [7.360214, 45.940374], [7.360282, 45.940399], [7.360358, 45.940386], [7.360318, 45.940451], [7.360203, 45.940489], [7.360095, 45.94047], [7.360084, 45.940517], [7.360119, 45.940586], [7.360192, 45.940609], [7.360169, 45.940729], [7.360251, 45.940891], [7.360243, 45.940953], [7.360367, 45.94098], [7.360423, 45.941106], [7.360408, 45.94116], [7.360491, 45.94125], [7.36049, 45.941282], [7.360402, 45.94136], [7.360407, 45.941437], [7.360335, 45.941614], [7.360371, 45.941611], [7.360364, 45.941679], [7.360459, 45.941749], [7.360426, 45.941797], [7.360443, 45.941839], [7.360572, 45.942009], [7.360636, 45.94203], [7.360633, 45.942065], [7.360571, 45.942061], [7.360605, 45.942038], [7.360551, 45.942024], [7.360527, 45.94204], [7.360554, 45.942055], [7.360483, 45.94205], [7.360468, 45.942079], [7.360507, 45.942118], [7.36044, 45.942116], [7.360425, 45.942156], [7.36029, 45.942215], [7.360484, 45.942268], [7.36051, 45.942306], [7.36056, 45.942314], [7.360536, 45.942362], [7.36071, 45.942419], [7.360661, 45.94245], [7.360545, 45.942457], [7.360547, 45.942487], [7.360582, 45.942496], [7.36057, 45.942523], [7.36066, 45.942564], [7.360525, 45.942605], [7.360799, 45.942692], [7.360911, 45.94267], [7.360889, 45.942725], [7.36092, 45.942748], [7.361152, 45.942724], [7.361193, 45.942647], [7.361276, 45.942631], [7.361324, 45.942649], [7.361331, 45.942628], [7.361327, 45.942668], [7.361353, 45.942647], [7.3613, 45.942738], [7.361306, 45.942834], [7.361404, 45.942792], [7.361422, 45.942844], [7.361501, 45.942841], [7.361456, 45.94289], [7.361517, 45.942879], [7.361661, 45.942976], [7.361724, 45.942962], [7.361794, 45.942876], [7.361809, 45.942724], [7.361882, 45.942689], [7.3619, 45.942653], [7.361923, 45.942582], [7.361899, 45.942495], [7.361944, 45.942536], [7.361974, 45.942465], [7.36212, 45.942394], [7.362208, 45.942224], [7.362237, 45.942235], [7.3625, 45.942144], [7.362561, 45.942149], [7.362582, 45.942082], [7.362626, 45.942064], [7.36264, 45.942093], [7.36284, 45.941957], [7.362857, 45.941991], [7.362893, 45.941979], [7.362973, 45.941903], [7.363013, 45.941932], [7.363075, 45.941884], [7.363128, 45.941898], [7.363274, 45.941768], [7.363323, 45.941773], [7.363425, 45.941733], [7.363521, 45.941739], [7.363585, 45.941674], [7.363834, 45.941669], [7.363944, 45.941637], [7.363952, 45.94159], [7.364027, 45.941558], [7.364039, 45.941506], [7.364141, 45.941458], [7.364308, 45.941487], [7.364496, 45.941452], [7.364514, 45.941421], [7.364569, 45.941439], [7.364635, 45.941407], [7.364675, 45.941437], [7.364653, 45.941461], [7.364691, 45.941525], [7.364663, 45.941559], [7.364711, 45.941573], [7.364709, 45.941614], [7.364874, 45.941751], [7.364898, 45.941925], [7.365019, 45.942095], [7.364983, 45.942159], [7.365085, 45.942235], [7.365093, 45.942268], [7.365199, 45.942311], [7.365263, 45.942299], [7.36536, 45.942326], [7.365675, 45.942329], [7.365774, 45.942351], [7.366096, 45.942301], [7.366151, 45.94237], [7.366198, 45.942386], [7.366214, 45.942492], [7.366272, 45.942517], [7.366263, 45.942572], [7.366313, 45.942625], [7.366332, 45.942712], [7.366303, 45.942792], [7.366323, 45.942854], [7.366269, 45.942906], [7.366304, 45.942947], [7.366256, 45.942988], [7.366282, 45.943015], [7.366222, 45.943083], [7.366284, 45.943159], [7.36633, 45.943142], [7.366297, 45.943208], [7.366208, 45.943225], [7.366435, 45.943267], [7.366382, 45.943278], [7.366311, 45.943339], [7.366306, 45.943393], [7.366359, 45.943415], [7.366377, 45.943482], [7.366353, 45.943506], [7.36633, 45.943497], [7.366342, 45.943516], [7.36632, 45.943491], [7.366358, 45.943519], [7.366346, 45.943487], [7.366279, 45.943522], [7.366298, 45.943501], [7.366359, 45.943508], [7.36631, 45.943501], [7.366311, 45.943519], [7.366354, 45.943509], [7.366323, 45.943501], [7.366323, 45.943529], [7.366295, 45.943511], [7.366321, 45.943497], [7.366333, 45.943512], [7.366327, 45.943478], [7.366317, 45.943512], [7.366348, 45.9435], [7.366319, 45.94348], [7.366309, 45.943505], [7.36634, 45.943523], [7.366311, 45.94351], [7.366355, 45.943523], [7.366339, 45.943493], [7.366382, 45.943556], [7.366458, 45.943581]]}, "properties": {"name": "1791284894.Mauvoisin_Chanrion_refuge_via_high_route", "cmt": "2026-10-06", "tstamp": 1791244800, "desc": "DownHill", "src": "7.34006/45.939137/7.380833/46.002245", "bbox": "7.34006/45.939137/7.380833/46.002245"}}, {"type": "Feature", "bbox": [7.34006, 45.939137, 7.380833, 46.002245], "geometry": {"type": "LineString", "coordinates": [[7.366459, 45.943573], [7.366527, 45.943523], [7.3669, 45.943409], [7.36699, 45.943434], [7.367133, 45.943653], [7.367311, 45.943821], [7.367322, 45.94395], [7.367361, 45.944021], [7.367413, 45.944074], [7.367485, 45.944084], [7.367506, 45.94403], [7.367397, 45.943817], [7.367527, 45.943568], [7.36751, 45.943446], [7.367628, 45.94335], [7.367763, 45.943294], [7.367813, 45.943121], [7.367909, 45.942995], [7.367994, 45.942968], [7.368131, 45.942979], [7.368245, 45.942941], [7.368341, 45.942937], [7.368461, 45.942868], [7.368546, 45.942878], [7.3687, 45.942806], [7.368725, 45.942822], [7.368812, 45.942787], [7.368763, 45.942903], [7.368828, 45.942926], [7.368759, 45.942988], [7.368795, 45.943005], [7.368866, 45.942991], [7.369058, 45.942876], [7.36912, 45.942871], [7.3692, 45.942809], [7.369292, 45.942636], [7.369327, 45.942631], [7.369333, 45.942591], [7.36939, 45.94258], [7.369407, 45.942528], [7.369522, 45.942638], [7.369629, 45.942606], [7.369616, 45.942625], [7.369648, 45.942621], [7.369734, 45.942526], [7.369871, 45.942438], [7.369907, 45.942356], [7.369926, 45.942126], [7.369835, 45.94201], [7.369825, 45.94179], [7.369616, 45.941567], [7.369548, 45.941539], [7.36944, 45.941433], [7.369429, 45.941393], [7.36952, 45.941316], [7.369795, 45.941498], [7.369894, 45.941519], [7.369914, 45.9415], [7.369835, 45.941436], [7.36983, 45.94135], [7.369863, 45.94129], [7.369827, 45.941205], [7.369872, 45.941107], [7.36985, 45.941058], [7.369904, 45.941063], [7.369927, 45.941099], [7.370054, 45.941155], [7.370291, 45.9412], [7.37022, 45.941038], [7.370157, 45.941], [7.370183, 45.940903], [7.370114, 45.940815], [7.370118, 45.940778], [7.370057, 45.940752], [7.370122, 45.940752], [7.370173, 45.940793], [7.370234, 45.940795], [7.370448, 45.940913], [7.370528, 45.940921], [7.370574, 45.94097], [7.370618, 45.94094], [7.370617, 45.940823], [7.370584, 45.940769], [7.37063, 45.940774], [7.370704, 45.940851], [7.370756, 45.940847], [7.37077, 45.940868], [7.370819, 45.94085], [7.370812, 45.940775], [7.370712, 45.94071], [7.370744, 45.940689], [7.37079, 45.940728], [7.370896, 45.940707], [7.370969, 45.940747], [7.371052, 45.940758], [7.371091, 45.940737], [7.371159, 45.940789], [7.371199, 45.940775], [7.371154, 45.940776], [7.371315, 45.940814], [7.371385, 45.940794], [7.371501, 45.940843], [7.371575, 45.940802], [7.371592, 45.940824], [7.371661, 45.940816], [7.371663, 45.940844], [7.371722, 45.940866], [7.371788, 45.940859], [7.371884, 45.940889], [7.371922, 45.940887], [7.371915, 45.940844], [7.372144, 45.940964], [7.372361, 45.94097], [7.37247, 45.941326], [7.372526, 45.941329], [7.372446, 45.941431], [7.372469, 45.941567], [7.372443, 45.941615], [7.372488, 45.941739], [7.372455, 45.941768], [7.372513, 45.941831], [7.372491, 45.941891], [7.372471, 45.941882], [7.372495, 45.941895], [7.372418, 45.941966], [7.372414, 45.942325], [7.372441, 45.942331], [7.372837, 45.94211], [7.372912, 45.942186], [7.372897, 45.942249], [7.372927, 45.942309], [7.372853, 45.942387], [7.372862, 45.942427], [7.372983, 45.942458], [7.37307, 45.942439], [7.373101, 45.942466], [7.37323, 45.942659], [7.373389, 45.94283], [7.373384, 45.942861], [7.373486, 45.942998], [7.373575, 45.943056], [7.373588, 45.943123], [7.373563, 45.943149], [7.373599, 45.943177], [7.373524, 45.943318], [7.373604, 45.943502], [7.373745, 45.94354], [7.373773, 45.943551], [7.373753, 45.94356], [7.373904, 45.943567], [7.37397, 45.943684], [7.373943, 45.94375], [7.373985, 45.943792], [7.373973, 45.94384], [7.374045, 45.943908], [7.37401, 45.943955], [7.374048, 45.944009], [7.374011, 45.944038], [7.374053, 45.944135], [7.374022, 45.944155], [7.374003, 45.944299], [7.373967, 45.944313], [7.373943, 45.944391], [7.373985, 45.944419], [7.37414, 45.944344], [7.374216, 45.944334], [7.374321, 45.944222], [7.374421, 45.944217], [7.374498, 45.944081], [7.374601, 45.944012], [7.374606, 45.943984], [7.3747, 45.943954], [7.374847, 45.943851], [7.374865, 45.943879], [7.374827, 45.943907], [7.374851, 45.943927], [7.374762, 45.944064], [7.374832, 45.944224], [7.374793, 45.944304], [7.374828, 45.944373], [7.374796, 45.94443], [7.374876, 45.944456], [7.374951, 45.944425], [7.37496, 45.944346], [7.375009, 45.94436], [7.375059, 45.944334], [7.375014, 45.944248], [7.37509, 45.944246], [7.375172, 45.944202], [7.37516, 45.944182], [7.375212, 45.944123], [7.375187, 45.944114], [7.375268, 45.944063], [7.375251, 45.94398], [7.37528, 45.943973], [7.375321, 45.944001], [7.375349, 45.943965], [7.375425, 45.943986], [7.375456, 45.94393], [7.375419, 45.943914], [7.375401, 45.943943], [7.375423, 45.943952], [7.37549, 45.94392], [7.375467, 45.943883], [7.37551, 45.943826], [7.375535, 45.943829], [7.375523, 45.943786], [7.375565, 45.943758], [7.375542, 45.943684], [7.375589, 45.943673], [7.375587, 45.943446], [7.37556, 45.943394], [7.3756, 45.943372], [7.375622, 45.943291], [7.375712, 45.943261], [7.375734, 45.943315], [7.375801, 45.94333], [7.375825, 45.943264], [7.376001, 45.943125], [7.376026, 45.943023], [7.376118, 45.943026], [7.376144, 45.942991], [7.376126, 45.942961], [7.376166, 45.942943], [7.376136, 45.94294], [7.376273, 45.942895], [7.376338, 45.942801], [7.376369, 45.942634], [7.376306, 45.942452], [7.376356, 45.942362], [7.376357, 45.942217], [7.376314, 45.94215], [7.376331, 45.942028], [7.376291, 45.941937], [7.376327, 45.941904], [7.376635, 45.941792], [7.37672, 45.941717], [7.376895, 45.941639], [7.376892, 45.941599], [7.376942, 45.94155], [7.376895, 45.941493], [7.376954, 45.941355], [7.376937, 45.941279], [7.376986, 45.941232], [7.376976, 45.941188], [7.377033, 45.941064], [7.376982, 45.940952], [7.37702, 45.940853], [7.377205, 45.940733], [7.377546, 45.940683], [7.378084, 45.94077], [7.378263, 45.940939], [7.378489, 45.941064], [7.378671, 45.941045], [7.378859, 45.940955], [7.37903, 45.940915], [7.379068, 45.94087], [7.379197, 45.940819], [7.379266, 45.940741], [7.379354, 45.940544], [7.379281, 45.940211], [7.379344, 45.940182], [7.379523, 45.940168], [7.379624, 45.940036], [7.379898, 45.939904], [7.380084, 45.939763], [7.380103, 45.939707], [7.380297, 45.939667], [7.380327, 45.939743], [7.380413, 45.939742], [7.380394, 45.939778], [7.380424, 45.939805], [7.380459, 45.939816], [7.380509, 45.939796], [7.380547, 45.939747], [7.380517, 45.939625], [7.380429, 45.939549], [7.380386, 45.939436], [7.380507, 45.939331], [7.380531, 45.939278], [7.380676, 45.939208]]}, "properties": {"name": "1791284894.Mauvoisin_Chanrion_refuge_via_high_route", "cmt": "2026-10-06", "tstamp": 1791244800, "desc": "UpHill", "src": "7.34006/45.939137/7.380833/46.002245", "bbox": "7.34006/45.939137/7.380833/46.002245"}}, {"type": "Feature", "bbox": [7.34006, 45.939137, 7.380833, 46.002245], "geometry": {"type": "LineString", "coordinates": [[7.380676, 45.939215], [7.380659, 45.939195], [7.380632, 45.939226], [7.380613, 45.939197], [7.380624, 45.939237], [7.380673, 45.939265], [7.380675, 45.939206], [7.380746, 45.939244], [7.380775, 45.939233], [7.380757, 45.939245], [7.380794, 45.939137], [7.380774, 45.939171], [7.380833, 45.939192], [7.38076, 45.939219]]}, "properties": {"name": "1791284894.Mauvoisin_Chanrion_refuge_via_high_route", "cmt": "2026-10-06", "tstamp": 1791244800, "desc": "DownHill", "src": "7.34006/45.939137/7.380833/46.002245", "bbox": "7.34006/45.939137/7.380833/46.002245"}}]}