{"type": "FeatureCollection", "name": "TrackSet", "crs": {"type": "name", "properties": {"name": "urn:ogc:def:crs:OGC:1.3:CRS84"}}, "bbox": [7.629669, 46.746992, 7.636359, 46.754529], "features": [{"type": "Feature", "bbox": [7.629669, 46.746992, 7.636359, 46.754529], "geometry": {"type": "LineString", "coordinates": [[7.636359, 46.746992], [7.636204, 46.747067], [7.636137, 46.747143], [7.63614, 46.747123], [7.636072, 46.747157], [7.636002, 46.74716], [7.635804, 46.747275], [7.635423, 46.747595], [7.635165, 46.747753], [7.634683, 46.748117], [7.634308, 46.748473], [7.634251, 46.748662], [7.634487, 46.74874], [7.634615, 46.748757], [7.634667, 46.748805], [7.635047, 46.748868], [7.635351, 46.748964], [7.634872, 46.749645], [7.634812, 46.749779], [7.634852, 46.750025], [7.634655, 46.750347], [7.634473, 46.750604], [7.63421, 46.750854], [7.633847, 46.751349], [7.633753, 46.751407], [7.633706, 46.751561], [7.633567, 46.751691], [7.633496, 46.751831], [7.633293, 46.752039], [7.633212, 46.752184], [7.633089, 46.752314], [7.632848, 46.752498], [7.632835, 46.752575], [7.632643, 46.752761], [7.632595, 46.752896], [7.632419, 46.753073], [7.632276, 46.753312], [7.632112, 46.753441], [7.632064, 46.753513], [7.631887, 46.753627], [7.631847, 46.753686], [7.63162, 46.753836], [7.631489, 46.753849], [7.631257, 46.753993], [7.631159, 46.754089], [7.630733, 46.754097], [7.630506, 46.754145], [7.630354, 46.754227], [7.630208, 46.754401], [7.630107, 46.75447], [7.630085, 46.75432], [7.629952, 46.754426], [7.629915, 46.754358], [7.629817, 46.754407], [7.629722, 46.754473], [7.629694, 46.754529], [7.629766, 46.754487], [7.62974, 46.754491], [7.629697, 46.754431], [7.629718, 46.754465], [7.629757, 46.754437], [7.629819, 46.75431], [7.629821, 46.754334], [7.629853, 46.754317], [7.629831, 46.754312], [7.629884, 46.754326], [7.629885, 46.75435], [7.62986, 46.75433], [7.629878, 46.75431], [7.629814, 46.754346], [7.629818, 46.754322], [7.629669, 46.754323], [7.629756, 46.754293], [7.629754, 46.754344], [7.629898, 46.754417], [7.629818, 46.754323]]}, "properties": {"name": "1791211411.Thun_afternoon_tea_to_train", "cmt": "2026-10-05", "tstamp": 1791158400, "desc": "---", "src": "7.629669/46.746992/7.636359/46.754529", "bbox": "7.629669/46.746992/7.636359/46.754529"}}]}