{"type": "FeatureCollection", "name": "TrackSet", "crs": {"type": "name", "properties": {"name": "urn:ogc:def:crs:OGC:1.3:CRS84"}}, "bbox": [6.157941, 46.428412, 6.204961, 46.448382], "features": [{"type": "Feature", "bbox": [6.157941, 46.428412, 6.204961, 46.448382], "geometry": {"type": "LineString", "coordinates": [[6.204415, 46.428468], [6.204429, 46.428448], [6.204386, 46.428443], [6.204394, 46.428416], [6.204524, 46.428475], [6.204522, 46.428449], [6.204605, 46.428553], [6.20465, 46.428558], [6.204753, 46.428711], [6.204864, 46.428797], [6.204858, 46.428868], [6.204908, 46.428952], [6.204847, 46.428998], [6.204682, 46.429037], [6.20463, 46.429083], [6.20436, 46.429207], [6.204179, 46.429266], [6.204035, 46.429363], [6.203953, 46.429498], [6.20367, 46.429706], [6.203671, 46.429858], [6.203809, 46.430065], [6.203811, 46.430133], [6.203667, 46.430256], [6.203456, 46.430313], [6.203365, 46.430421], [6.203267, 46.430481], [6.203078, 46.430479], [6.202977, 46.430365], [6.202907, 46.430357], [6.202737, 46.430262], [6.202489, 46.430214], [6.20216, 46.430227], [6.202063, 46.430259], [6.201659, 46.430301], [6.20148, 46.430349], [6.201271, 46.430344], [6.200901, 46.430376], [6.200685, 46.430507], [6.200548, 46.430533], [6.200392, 46.430665], [6.200153, 46.430782], [6.200137, 46.430825], [6.199806, 46.431036], [6.199596, 46.431276], [6.199287, 46.431469], [6.198117, 46.431862], [6.197642, 46.431993], [6.197342, 46.432014], [6.196976, 46.431998], [6.196458, 46.432054], [6.196223, 46.432039], [6.195727, 46.432062], [6.194798, 46.432172], [6.194515, 46.432262], [6.194241, 46.432405], [6.194047, 46.432539], [6.193997, 46.432547], [6.193937, 46.432613], [6.193725, 46.432747], [6.193058, 46.433094], [6.192582, 46.433286], [6.192083, 46.433544], [6.191968, 46.433565], [6.191822, 46.433687], [6.191664, 46.433716], [6.191507, 46.433784], [6.191443, 46.433855], [6.191164, 46.433994], [6.191071, 46.434066], [6.190516, 46.434336], [6.190388, 46.434424], [6.19034, 46.434417], [6.190313, 46.434508], [6.190258, 46.43451], [6.190176, 46.434583], [6.19013, 46.434584], [6.189921, 46.43468], [6.189282, 46.435114], [6.189113, 46.435206], [6.188925, 46.435259], [6.188816, 46.435364], [6.188747, 46.435497], [6.188791, 46.435609], [6.188784, 46.435627], [6.188715, 46.435607], [6.188649, 46.435737], [6.188636, 46.435871], [6.18836, 46.43573], [6.18795, 46.435792], [6.187914, 46.435814], [6.187662, 46.435823], [6.187526, 46.435873], [6.187445, 46.435834], [6.18739, 46.435851], [6.187056, 46.435815], [6.186867, 46.435755], [6.18666, 46.435802], [6.186508, 46.435807], [6.186254, 46.43597], [6.186001, 46.436079], [6.185742, 46.436119], [6.185589, 46.436253], [6.185521, 46.436257], [6.185513, 46.436287], [6.185365, 46.436357], [6.185292, 46.436414], [6.185288, 46.436467], [6.185231, 46.43648], [6.185191, 46.43646], [6.184935, 46.436519], [6.18482, 46.436608], [6.184617, 46.436644], [6.184508, 46.436699], [6.184528, 46.436712], [6.184489, 46.436753], [6.184352, 46.436846], [6.184393, 46.436872], [6.184385, 46.436904], [6.184126, 46.437123], [6.184083, 46.437214], [6.183973, 46.437285], [6.183927, 46.437268], [6.183862, 46.43739], [6.183802, 46.437414], [6.183744, 46.437485], [6.183587, 46.437529], [6.183421, 46.437626], [6.183284, 46.437656], [6.183224, 46.437733], [6.183037, 46.437824], [6.18297, 46.43794], [6.182787, 46.438037], [6.182752, 46.43809], [6.182452, 46.438156], [6.182163, 46.43817], [6.182067, 46.438238], [6.182092, 46.43826], [6.182062, 46.438281], [6.181831, 46.43833], [6.181747, 46.43852], [6.181825, 46.438656], [6.181857, 46.438789], [6.181907, 46.43883], [6.181885, 46.43894], [6.181941, 46.439012], [6.181943, 46.439072], [6.182004, 46.439115], [6.182029, 46.43922], [6.18202, 46.439389], [6.181871, 46.43959], [6.181856, 46.439701], [6.181816, 46.439719], [6.181733, 46.439849], [6.181576, 46.439942], [6.181463, 46.440056], [6.181334, 46.440095], [6.181247, 46.440168], [6.181183, 46.440195], [6.181119, 46.440192], [6.180975, 46.440272], [6.180848, 46.440257], [6.180715, 46.440284], [6.180446, 46.440184], [6.180044, 46.440242], [6.179957, 46.440381], [6.179965, 46.440497], [6.180033, 46.440572], [6.180038, 46.440643], [6.180169, 46.440744], [6.180243, 46.440842], [6.1803, 46.440994], [6.180247, 46.441019], [6.180237, 46.441055], [6.180283, 46.44108], [6.180265, 46.441125], [6.180316, 46.44117], [6.180238, 46.441187], [6.180213, 46.441371], [6.179971, 46.441535], [6.17989, 46.441663], [6.179778, 46.441719], [6.179759, 46.441772], [6.17972, 46.441771], [6.179662, 46.441816], [6.179631, 46.441897], [6.179553, 46.441971], [6.179385, 46.442008], [6.179322, 46.44206], [6.179309, 46.44211], [6.17935, 46.442179], [6.179331, 46.4423], [6.179446, 46.442443], [6.180096, 46.442648], [6.18009, 46.442686], [6.180166, 46.442816], [6.18021, 46.442801], [6.180298, 46.442872], [6.180324, 46.442985], [6.180433, 46.443048], [6.180478, 46.443105], [6.180479, 46.443205], [6.180556, 46.443257], [6.180549, 46.443312], [6.180615, 46.443414], [6.180609, 46.443505], [6.180667, 46.443564], [6.180683, 46.443644], [6.180804, 46.443837], [6.180985, 46.444005], [6.180981, 46.444056], [6.181119, 46.444092], [6.181162, 46.444192], [6.181209, 46.444198], [6.181366, 46.444388], [6.181573, 46.444552], [6.181576, 46.444611], [6.1816, 46.444611], [6.181797, 46.44491], [6.181785, 46.444958], [6.181852, 46.445016], [6.181883, 46.445092], [6.181989, 46.445177], [6.181981, 46.445201], [6.182066, 46.445249], [6.182151, 46.445254], [6.182158, 46.445278], [6.182, 46.445245], [6.181917, 46.445181], [6.181681, 46.445178], [6.181523, 46.445137], [6.181371, 46.44513], [6.181288, 46.445072], [6.181205, 46.445069], [6.18117, 46.445035], [6.181046, 46.445008], [6.180993, 46.444939], [6.180833, 46.444917], [6.180669, 46.44484], [6.180594, 46.444774], [6.180415, 46.444723], [6.180156, 46.444586], [6.179821, 46.444505], [6.179515, 46.444373], [6.179382, 46.444359], [6.179241, 46.444364], [6.179267, 46.444404], [6.179202, 46.44444], [6.179216, 46.444467], [6.179177, 46.444489], [6.179164, 46.444467], [6.179123, 46.444489], [6.179077, 46.444477], [6.178961, 46.444528], [6.178765, 46.444518], [6.178619, 46.444591], [6.178495, 46.444609], [6.178344, 46.444565], [6.178258, 46.444561], [6.17821, 46.444585], [6.178128, 46.444554], [6.177859, 46.444571], [6.177764, 46.444596], [6.177674, 46.444655], [6.177571, 46.44463], [6.17734, 46.444668], [6.177262, 46.444706], [6.1772, 46.444674], [6.177126, 46.444708], [6.177065, 46.444692], [6.176926, 46.44473], [6.176906, 46.444718], [6.176866, 46.444746], [6.176805, 46.444751], [6.176783, 46.444732], [6.176743, 46.444798], [6.176703, 46.444755], [6.17674, 46.44474], [6.176726, 46.444768], [6.176783, 46.444727], [6.176725, 46.444706], [6.176505, 46.444712], [6.176329, 46.444665], [6.17588, 46.444627], [6.175882, 46.444643], [6.175819, 46.444641], [6.175792, 46.444664], [6.175701, 46.444662], [6.17571, 46.444708], [6.17567, 46.44472], [6.175496, 46.444714], [6.175443, 46.444769], [6.175272, 46.444803], [6.175236, 46.444837], [6.175057, 46.444809], [6.174991, 46.444853], [6.174799, 46.444859], [6.174538, 46.444941], [6.174523, 46.444967], [6.174414, 46.444995], [6.174327, 46.44505], [6.174184, 46.445068], [6.174015, 46.445057], [6.17398, 46.445096], [6.173452, 46.445207], [6.173228, 46.445235], [6.173164, 46.44522], [6.172876, 46.445273], [6.171757, 46.445269], [6.171411, 46.445306], [6.17134, 46.445332], [6.171119, 46.445318], [6.171035, 46.445355], [6.170924, 46.445349], [6.170739, 46.445397], [6.170459, 46.445354], [6.170221, 46.445348], [6.169932, 46.445392], [6.169856, 46.445381], [6.169727, 46.445431], [6.169598, 46.445421], [6.169512, 46.445449], [6.169254, 46.445392], [6.16926, 46.445424], [6.169243, 46.445378], [6.169239, 46.445412], [6.169204, 46.445377], [6.169037, 46.445406], [6.168822, 46.445494], [6.168559, 46.44555], [6.168445, 46.445612], [6.168325, 46.445738], [6.16809, 46.445779], [6.168056, 46.445818], [6.167952, 46.445851], [6.167897, 46.445977], [6.167831, 46.445987], [6.167693, 46.446065], [6.167487, 46.446111], [6.167431, 46.446151], [6.167423, 46.446203], [6.167329, 46.446243], [6.167308, 46.446318], [6.167254, 46.446336], [6.167169, 46.446327], [6.167074, 46.446415], [6.166978, 46.446426], [6.166968, 46.446462], [6.166869, 46.446537], [6.166839, 46.446655], [6.166788, 46.44672], [6.166786, 46.446804], [6.166618, 46.446866], [6.166592, 46.446945], [6.166547, 46.446962], [6.166456, 46.447076], [6.166402, 46.447088], [6.166413, 46.447125], [6.166369, 46.447172], [6.166268, 46.447201], [6.166277, 46.447246], [6.166173, 46.447274], [6.166125, 46.447323], [6.166016, 46.447353], [6.165879, 46.447341], [6.16579, 46.447447], [6.165401, 46.447476], [6.165352, 46.447515], [6.165233, 46.447536], [6.165201, 46.447622], [6.164986, 46.44776], [6.164927, 46.447757], [6.164861, 46.447809], [6.164791, 46.447806], [6.1646, 46.447861], [6.16447, 46.447904], [6.164414, 46.447953], [6.164218, 46.447994], [6.164207, 46.448017], [6.164186, 46.447992], [6.164112, 46.447995], [6.163864, 46.448044], [6.163787, 46.448032], [6.163751, 46.447984], [6.163629, 46.447966], [6.163573, 46.447894], [6.163444, 46.447904], [6.163399, 46.447866], [6.163259, 46.447877], [6.163152, 46.447829], [6.162942, 46.447846], [6.162643, 46.447976], [6.162657, 46.448188], [6.162612, 46.448237], [6.162462, 46.448286], [6.162445, 46.448328], [6.162385, 46.448304], [6.162189, 46.448305], [6.162113, 46.448272], [6.161809, 46.448268], [6.161463, 46.448299], [6.161392, 46.448241], [6.161379, 46.448268], [6.161347, 46.448224], [6.161184, 46.448275], [6.161121, 46.448235], [6.161062, 46.448279], [6.161097, 46.448267], [6.161062, 46.448283], [6.161079, 46.448302], [6.161084, 46.44828], [6.161202, 46.448322], [6.161232, 46.448382], [6.161349, 46.448306], [6.161398, 46.448196], [6.161349, 46.448181], [6.161176, 46.448206], [6.161083, 46.448181], [6.161051, 46.448135], [6.160805, 46.448026], [6.160707, 46.447955], [6.160642, 46.447953], [6.160432, 46.447865], [6.160325, 46.447791], [6.160018, 46.447791], [6.159794, 46.447705], [6.159753, 46.447709], [6.159316, 46.447419], [6.158944, 46.447229], [6.158866, 46.447245], [6.158774, 46.447303], [6.158666, 46.447305], [6.158608, 46.447384], [6.15861, 46.447297], [6.158534, 46.447335]]}, "properties": {"name": "1791643630.Givrins_St_Cergue_return_and_down_in_dark", "cmt": "2026-10-10", "tstamp": 1791590400, "desc": "UpHill", "src": "6.157941/46.428412/6.204961/46.448382", "bbox": "6.157941/46.428412/6.204961/46.448382"}}, {"type": "Feature", "bbox": [6.157941, 46.428412, 6.204961, 46.448382], "geometry": {"type": "LineString", "coordinates": [[6.158585, 46.447333], [6.158663, 46.447404], [6.158673, 46.447333], [6.158717, 46.447317], [6.158682, 46.44716], [6.158719, 46.447119], [6.158618, 46.446949], [6.158627, 46.446969], [6.15868, 46.446965], [6.157941, 46.445596], [6.158219, 46.445458], [6.158132, 46.445262], [6.158182, 46.445312], [6.158155, 46.44529], [6.158248, 46.445311], [6.158308, 46.445287], [6.158344, 46.445224], [6.158324, 46.445176], [6.158378, 46.445104], [6.158579, 46.445003], [6.158612, 46.444944], [6.158666, 46.444952], [6.158698, 46.44491], [6.158812, 46.444878], [6.158799, 46.444838], [6.158881, 46.444871], [6.158934, 46.444751], [6.15904, 46.444743], [6.159279, 46.444578], [6.15942, 46.444556], [6.159485, 46.444454], [6.159609, 46.444444], [6.159701, 46.444368], [6.159957, 46.44433], [6.160275, 46.444234], [6.160385, 46.444227], [6.160454, 46.444151], [6.160669, 46.44403], [6.160858, 46.44403], [6.160927, 46.443997], [6.16103, 46.444013], [6.16117, 46.443942], [6.161262, 46.443979], [6.161427, 46.4439], [6.161522, 46.443931], [6.161571, 46.443891], [6.161646, 46.443889], [6.161679, 46.443864], [6.162024, 46.443845], [6.16211, 46.443794], [6.162175, 46.443811], [6.162256, 46.443778], [6.162332, 46.44369], [6.162621, 46.443654], [6.162704, 46.443604], [6.1628, 46.443494], [6.162842, 46.443494], [6.162894, 46.443552], [6.16299, 46.443554], [6.163042, 46.443541], [6.163119, 46.443472], [6.163233, 46.443483], [6.163289, 46.443447], [6.163342, 46.443455], [6.163418, 46.443424], [6.163457, 46.443391], [6.163537, 46.443383], [6.163626, 46.443315], [6.163731, 46.443287], [6.1638, 46.443213], [6.163949, 46.443131], [6.164197, 46.442771], [6.164195, 46.44271], [6.164303, 46.442696], [6.164386, 46.442602], [6.164511, 46.442527], [6.164566, 46.442438], [6.164536, 46.442418], [6.164543, 46.442355], [6.16464, 46.442247], [6.16459, 46.442144], [6.164459, 46.44209], [6.164399, 46.442032], [6.164319, 46.44202], [6.164048, 46.441894], [6.163615, 46.441815], [6.163522, 46.441836], [6.163439, 46.441805], [6.163268, 46.441678], [6.163236, 46.441626], [6.163168, 46.44151], [6.163178, 46.441265], [6.163216, 46.441219], [6.163346, 46.44117], [6.163381, 46.441134], [6.163559, 46.44109], [6.163606, 46.44102], [6.163726, 46.441027], [6.163778, 46.441108], [6.164153, 46.441171], [6.164736, 46.441184], [6.164859, 46.441123], [6.164921, 46.441175], [6.16502, 46.441169], [6.165729, 46.440917], [6.166636, 46.440484], [6.166708, 46.440461], [6.166699, 46.440485], [6.166746, 46.440447], [6.166746, 46.440466], [6.167149, 46.440339], [6.167573, 46.44017], [6.167643, 46.440179], [6.167732, 46.440276], [6.167817, 46.440284], [6.167906, 46.440367], [6.167969, 46.440345], [6.168092, 46.440379], [6.168127, 46.44033], [6.168196, 46.440303], [6.168259, 46.440337], [6.168338, 46.440328], [6.168356, 46.440379], [6.168478, 46.440422], [6.168576, 46.440341], [6.168647, 46.440327], [6.168638, 46.440302], [6.168682, 46.44027], [6.168827, 46.440384], [6.168854, 46.440309], [6.16881, 46.44022], [6.168887, 46.440133], [6.168956, 46.440208], [6.169062, 46.440166], [6.16915, 46.440168], [6.169191, 46.440199], [6.169205, 46.440184], [6.169311, 46.440279], [6.169487, 46.440315], [6.169488, 46.44036], [6.169543, 46.440404], [6.169575, 46.440366], [6.169558, 46.440462], [6.169585, 46.440576], [6.16971, 46.44068], [6.169735, 46.440756], [6.169785, 46.440792], [6.169915, 46.440831], [6.169959, 46.440867], [6.170008, 46.440869], [6.170045, 46.440839], [6.170137, 46.440858], [6.170198, 46.440962], [6.170278, 46.441027], [6.170283, 46.441], [6.170298, 46.441021], [6.170275, 46.441026], [6.170275, 46.441001], [6.17029, 46.441027], [6.170335, 46.44101], [6.170534, 46.441075], [6.170592, 46.441083], [6.170619, 46.441065], [6.170661, 46.441124], [6.170711, 46.44114], [6.170855, 46.441102], [6.170912, 46.441061], [6.170998, 46.441179], [6.171071, 46.441188], [6.171221, 46.441307], [6.171314, 46.441317], [6.171425, 46.441289], [6.171519, 46.441227], [6.171584, 46.441141], [6.171721, 46.441145], [6.171826, 46.441085], [6.171915, 46.440881], [6.171974, 46.440878], [6.172015, 46.440834], [6.172162, 46.440769], [6.172247, 46.440766], [6.172379, 46.440695], [6.172472, 46.440676], [6.172637, 46.440551], [6.1727, 46.440536], [6.172742, 46.440429], [6.172653, 46.440279], [6.172538, 46.440174], [6.172536, 46.440009], [6.172508, 46.439906], [6.172459, 46.439862], [6.172451, 46.439549], [6.17241, 46.439464], [6.172321, 46.439339], [6.172237, 46.439328], [6.171916, 46.439036], [6.171439, 46.438536], [6.171425, 46.438435], [6.171533, 46.438355], [6.171555, 46.438252], [6.171626, 46.438228], [6.171815, 46.438022], [6.171772, 46.437951], [6.171753, 46.437646], [6.171903, 46.437574], [6.17195, 46.437503], [6.172042, 46.437487], [6.172071, 46.437422], [6.172148, 46.43741], [6.172168, 46.437348], [6.172218, 46.437331], [6.172357, 46.437191], [6.172421, 46.437213], [6.172449, 46.437204], [6.172446, 46.437163], [6.172558, 46.437164], [6.172669, 46.437134], [6.173137, 46.437162], [6.173281, 46.437126], [6.173308, 46.437089], [6.17341, 46.437058], [6.173528, 46.436979], [6.17353, 46.436932], [6.17372, 46.436954], [6.173718, 46.43693], [6.173808, 46.436894], [6.174047, 46.43687], [6.174197, 46.436755], [6.174331, 46.436736], [6.174384, 46.436619], [6.174594, 46.436422], [6.174685, 46.436451], [6.174924, 46.436394], [6.174959, 46.43633], [6.175199, 46.436152], [6.175236, 46.436074], [6.175349, 46.436041], [6.17535, 46.436001], [6.175422, 46.435946], [6.175442, 46.435892], [6.175494, 46.435867], [6.175502, 46.435891], [6.175535, 46.435881], [6.175499, 46.435869], [6.175526, 46.435856], [6.175515, 46.435814], [6.175563, 46.435811], [6.175659, 46.435728], [6.175649, 46.435664], [6.175898, 46.435412], [6.175943, 46.43531], [6.176, 46.435318], [6.176102, 46.435279], [6.176237, 46.435265], [6.176283, 46.435202], [6.176391, 46.435198], [6.176482, 46.435134], [6.176599, 46.434996], [6.176615, 46.434884], [6.176672, 46.43484], [6.176705, 46.434845], [6.176712, 46.434795], [6.176781, 46.43475], [6.176942, 46.434764], [6.177091, 46.434731], [6.177135, 46.434743], [6.177163, 46.434698], [6.17748, 46.434607], [6.178431, 46.434181], [6.178642, 46.434145], [6.178851, 46.433991], [6.178922, 46.433966], [6.179126, 46.433901], [6.179144, 46.433926], [6.179388, 46.433867], [6.179782, 46.433729], [6.180704, 46.433487], [6.181, 46.433456], [6.181214, 46.433485], [6.181253, 46.433453], [6.181277, 46.433484], [6.181369, 46.433471], [6.181624, 46.433517], [6.181778, 46.433504], [6.18192, 46.433545], [6.181947, 46.433524], [6.181988, 46.433537], [6.18209, 46.433501], [6.182172, 46.433505], [6.182715, 46.433333], [6.182758, 46.433345], [6.182779, 46.433321], [6.182827, 46.43334], [6.18286, 46.4333], [6.183295, 46.433209], [6.183661, 46.43318], [6.18374, 46.43321], [6.183772, 46.433205], [6.183777, 46.433173], [6.183889, 46.433143], [6.183966, 46.433182], [6.183981, 46.433131], [6.184131, 46.433095], [6.1842, 46.433109], [6.184209, 46.433086], [6.184264, 46.43308], [6.184361, 46.433118], [6.184542, 46.433014], [6.184664, 46.433008], [6.184791, 46.433104], [6.184858, 46.433068], [6.184858, 46.433043], [6.184865, 46.433093], [6.184943, 46.43316], [6.184941, 46.433103], [6.18491, 46.433085], [6.184936, 46.433142], [6.184991, 46.433182], [6.185166, 46.433102], [6.185145, 46.433124], [6.185165, 46.433103], [6.18518, 46.433115], [6.185156, 46.433104], [6.18511, 46.433129], [6.185119, 46.433155], [6.185218, 46.433119], [6.185333, 46.43314], [6.185344, 46.433111], [6.185452, 46.433087], [6.185569, 46.433121], [6.185788, 46.433109], [6.185922, 46.433019], [6.185952, 46.432959], [6.186077, 46.432855], [6.186092, 46.432828], [6.186042, 46.432758], [6.186108, 46.432646], [6.186292, 46.432474], [6.186452, 46.4324], [6.186601, 46.432214], [6.186755, 46.432095], [6.186953, 46.431973], [6.187066, 46.431945], [6.187189, 46.431876], [6.187514, 46.431775], [6.187768, 46.431752], [6.187898, 46.431691], [6.188472, 46.43165], [6.189002, 46.431587], [6.189078, 46.43156], [6.189313, 46.431606], [6.189405, 46.431573], [6.189511, 46.431584], [6.189639, 46.431529], [6.1898, 46.431507], [6.19013, 46.431533], [6.19024, 46.431579], [6.190279, 46.43155], [6.190392, 46.431594], [6.190432, 46.431583], [6.190555, 46.43162], [6.190691, 46.43168], [6.191038, 46.431733], [6.191144, 46.431791], [6.191264, 46.431817], [6.191335, 46.431803], [6.191557, 46.431869], [6.191596, 46.431908], [6.191823, 46.43199], [6.192188, 46.432029], [6.192294, 46.431993], [6.1924, 46.431995], [6.192497, 46.432043], [6.19259, 46.432163], [6.192824, 46.43229], [6.193589, 46.432428], [6.194123, 46.432367], [6.194513, 46.432253], [6.195495, 46.432095], [6.196266, 46.432067], [6.196652, 46.432086], [6.196999, 46.432036], [6.197251, 46.432035], [6.19741, 46.432068], [6.197611, 46.432041], [6.198378, 46.431777], [6.19911, 46.431559], [6.199354, 46.431427], [6.1996, 46.431231], [6.199799, 46.431122], [6.199936, 46.430988], [6.200263, 46.430754], [6.200669, 46.430563], [6.200816, 46.430435], [6.20092, 46.430391], [6.201303, 46.430331], [6.20172, 46.430342], [6.202346, 46.430218], [6.202737, 46.430272], [6.20305, 46.430419], [6.203245, 46.430472], [6.203377, 46.430453], [6.203724, 46.430245], [6.203872, 46.4301], [6.203848, 46.429987], [6.203749, 46.429825], [6.203826, 46.429672], [6.20431, 46.429203], [6.204699, 46.429102], [6.204948, 46.428994], [6.204961, 46.428914], [6.204918, 46.42883]]}, "properties": {"name": "1791643630.Givrins_St_Cergue_return_and_down_in_dark", "cmt": "2026-10-10", "tstamp": 1791590400, "desc": "DownHill", "src": "6.157941/46.428412/6.204961/46.448382", "bbox": "6.157941/46.428412/6.204961/46.448382"}}, {"type": "Feature", "bbox": [6.157941, 46.428412, 6.204961, 46.448382], "geometry": {"type": "LineString", "coordinates": [[6.204918, 46.428815], [6.204888, 46.428736], [6.204616, 46.428487], [6.204513, 46.428426], [6.2044, 46.428419], [6.204436, 46.428412]]}, "properties": {"name": "1791643630.Givrins_St_Cergue_return_and_down_in_dark", "cmt": "2026-10-10", "tstamp": 1791590400, "desc": "UpHill", "src": "6.157941/46.428412/6.204961/46.448382", "bbox": "6.157941/46.428412/6.204961/46.448382"}}]}