{"type": "FeatureCollection", "name": "TrackSet", "crs": {"type": "name", "properties": {"name": "urn:ogc:def:crs:OGC:1.3:CRS84"}}, "bbox": [6.923571, 46.417954, 6.979047, 46.43665], "features": [{"type": "Feature", "bbox": [6.923571, 46.417954, 6.979047, 46.43665], "geometry": {"type": "LineString", "coordinates": [[6.923571, 46.433228], [6.923607, 46.433195], [6.923683, 46.433207], [6.923786, 46.433185], [6.923824, 46.433083], [6.92366, 46.433182], [6.923793, 46.433272], [6.923914, 46.43327], [6.924017, 46.433221], [6.924057, 46.433239], [6.924104, 46.433223], [6.924204, 46.433262], [6.924306, 46.43325], [6.924415, 46.433296], [6.924436, 46.433273], [6.924369, 46.433107], [6.924229, 46.432915], [6.923972, 46.432808], [6.924062, 46.432794], [6.92421, 46.432718], [6.924278, 46.432641], [6.9245, 46.432593], [6.924614, 46.432535], [6.924759, 46.43251], [6.924919, 46.432529], [6.924951, 46.432474], [6.925043, 46.432473], [6.92513, 46.432442], [6.92531, 46.432464], [6.9254, 46.432413], [6.92558, 46.432415], [6.925669, 46.432355], [6.925878, 46.432312], [6.926007, 46.432248], [6.926337, 46.432279], [6.926417, 46.432349], [6.926437, 46.432432], [6.9265, 46.432491], [6.926486, 46.432531], [6.926539, 46.432543], [6.926533, 46.43256], [6.926649, 46.432563], [6.926766, 46.432602], [6.92688, 46.432604], [6.926986, 46.432571], [6.92705, 46.432588], [6.927101, 46.432727], [6.927184, 46.432796], [6.927287, 46.43283], [6.927295, 46.432599], [6.927386, 46.432429], [6.92756, 46.432275], [6.927771, 46.432153], [6.92784, 46.432146], [6.927934, 46.432161], [6.928031, 46.432281], [6.928517, 46.432592], [6.928845, 46.432706], [6.928997, 46.432801], [6.929087, 46.432822], [6.929214, 46.432915], [6.929422, 46.432992], [6.929529, 46.433081], [6.929593, 46.433088], [6.929652, 46.433129], [6.929651, 46.433157], [6.929826, 46.43323], [6.929854, 46.433267], [6.929933, 46.433235], [6.929994, 46.433282], [6.930068, 46.433295], [6.930118, 46.433391], [6.930222, 46.433446], [6.930251, 46.433424], [6.930318, 46.433428], [6.930369, 46.433529], [6.930522, 46.433607], [6.930538, 46.433675], [6.930666, 46.433722], [6.930768, 46.433845], [6.930877, 46.433864], [6.930946, 46.433905], [6.931041, 46.433818], [6.931013, 46.433736], [6.931075, 46.433694], [6.931026, 46.433522], [6.931063, 46.433474], [6.931031, 46.433431], [6.931085, 46.433343], [6.931065, 46.433257], [6.931122, 46.433099], [6.931271, 46.432876], [6.931238, 46.432802], [6.931301, 46.432791], [6.931349, 46.432741], [6.931415, 46.43272], [6.93147, 46.432629], [6.93169, 46.43256], [6.931704, 46.432466], [6.931732, 46.432429], [6.931775, 46.432425], [6.931753, 46.432308], [6.931793, 46.432293], [6.931833, 46.432221], [6.931903, 46.432188], [6.931866, 46.432161], [6.931893, 46.43211], [6.931977, 46.432064], [6.931952, 46.431974], [6.93205, 46.43193], [6.932085, 46.431855], [6.932184, 46.431801], [6.932171, 46.431735], [6.932291, 46.4317], [6.932266, 46.431662], [6.932313, 46.431633], [6.932406, 46.431622], [6.932498, 46.431558], [6.932586, 46.431563], [6.932824, 46.431487], [6.933035, 46.431514], [6.933229, 46.431462], [6.933343, 46.43149], [6.933368, 46.431459], [6.933528, 46.431493], [6.933633, 46.431482], [6.933809, 46.431403], [6.933854, 46.431409], [6.933869, 46.431378], [6.933908, 46.431394], [6.933987, 46.43138], [6.934023, 46.431414], [6.934111, 46.431386], [6.934197, 46.431391], [6.934275, 46.431338], [6.934347, 46.431327], [6.934431, 46.431256], [6.93467, 46.431241], [6.934648, 46.431181], [6.934771, 46.431203], [6.934752, 46.431151], [6.9348, 46.431121], [6.934785, 46.431068], [6.934843, 46.431112], [6.934808, 46.431114], [6.93477, 46.431207], [6.934815, 46.431313], [6.934775, 46.431349], [6.934761, 46.431428], [6.934914, 46.431507], [6.934847, 46.431533], [6.934889, 46.431662], [6.935011, 46.431687], [6.935042, 46.431734], [6.934944, 46.431764], [6.934954, 46.431792], [6.934872, 46.431859], [6.934861, 46.431908], [6.934741, 46.432044], [6.934685, 46.432228], [6.934617, 46.432303], [6.934629, 46.43236], [6.934794, 46.432526], [6.934796, 46.43264], [6.935006, 46.432787], [6.934992, 46.432815], [6.9351, 46.43282], [6.935132, 46.433017], [6.935318, 46.433126], [6.935366, 46.433191], [6.935601, 46.433266], [6.935839, 46.433398], [6.935975, 46.433412], [6.936035, 46.433453], [6.936147, 46.433431], [6.9362, 46.433478], [6.936308, 46.433486], [6.936479, 46.433556], [6.93696, 46.433563], [6.93754, 46.433649], [6.937725, 46.433645], [6.937866, 46.433671], [6.937984, 46.433625], [6.938111, 46.433622], [6.938117, 46.433601], [6.938185, 46.433625], [6.938165, 46.433573], [6.938072, 46.433624], [6.938096, 46.433682], [6.938335, 46.433782], [6.938446, 46.433783], [6.938507, 46.433813], [6.938487, 46.433821], [6.938602, 46.433754], [6.938794, 46.433745], [6.939149, 46.4339], [6.939569, 46.433974], [6.939727, 46.433971], [6.939893, 46.43393], [6.94007, 46.433993], [6.940265, 46.434013], [6.940417, 46.434098], [6.940732, 46.434138], [6.940945, 46.434132], [6.941177, 46.434207], [6.941281, 46.434164], [6.941432, 46.434177], [6.941537, 46.434158], [6.941571, 46.434175], [6.941625, 46.434154], [6.94181, 46.434214], [6.941915, 46.434185], [6.941992, 46.434126], [6.942093, 46.434137], [6.942433, 46.434293], [6.942618, 46.434314], [6.942913, 46.434426], [6.942984, 46.434402], [6.943139, 46.434411], [6.943461, 46.434461], [6.943692, 46.434438], [6.943824, 46.434463], [6.944179, 46.434655], [6.944724, 46.434707], [6.944968, 46.434778], [6.945238, 46.43482], [6.945486, 46.434821], [6.946032, 46.434903], [6.946436, 46.435142], [6.946531, 46.435231], [6.946634, 46.435266], [6.946711, 46.435339], [6.946828, 46.435392], [6.946923, 46.435508], [6.946944, 46.435636], [6.946982, 46.435678], [6.947067, 46.435707], [6.947059, 46.435763], [6.947202, 46.435836], [6.947341, 46.436005], [6.947385, 46.435987], [6.947362, 46.435964], [6.947384, 46.435906], [6.947342, 46.435805], [6.947355, 46.435763], [6.947284, 46.435648], [6.947289, 46.435502], [6.947188, 46.435373], [6.947198, 46.435277], [6.947141, 46.435206], [6.947029, 46.434897], [6.946874, 46.434633], [6.946696, 46.434485], [6.946593, 46.434348], [6.946625, 46.434346], [6.946604, 46.434304], [6.946702, 46.434173], [6.947161, 46.43433], [6.947153, 46.43428], [6.947267, 46.434335], [6.947438, 46.434325], [6.947585, 46.434351], [6.947633, 46.434334], [6.947733, 46.43437], [6.94799, 46.434398], [6.948071, 46.434387], [6.948217, 46.434465], [6.948406, 46.434501], [6.948603, 46.434497], [6.948788, 46.43453], [6.94883, 46.434511], [6.948921, 46.434544], [6.948963, 46.434522], [6.949227, 46.434587], [6.949363, 46.434585], [6.949396, 46.434552], [6.949479, 46.434572], [6.949584, 46.434532], [6.949743, 46.434571], [6.949861, 46.434503], [6.949932, 46.434493], [6.949998, 46.434512], [6.950054, 46.434485], [6.950104, 46.434497], [6.950129, 46.434536], [6.950172, 46.434486], [6.95026, 46.434539], [6.950401, 46.434489], [6.95052, 46.434533], [6.950551, 46.434487], [6.950654, 46.434489], [6.950723, 46.434421], [6.950753, 46.434438], [6.950803, 46.434423], [6.95082, 46.434386], [6.950867, 46.434413], [6.950891, 46.434397], [6.950961, 46.434416], [6.95103, 46.434459], [6.951069, 46.434422], [6.951142, 46.434451], [6.951203, 46.434436], [6.951515, 46.434494], [6.951568, 46.434523], [6.951677, 46.434519], [6.951785, 46.434555], [6.951881, 46.434623], [6.951987, 46.434625], [6.952168, 46.434706], [6.952228, 46.434696], [6.952382, 46.434804], [6.952954, 46.434919], [6.953027, 46.43496], [6.953215, 46.435], [6.953723, 46.435037], [6.954024, 46.435077], [6.954133, 46.435118], [6.954606, 46.435136], [6.954687, 46.435166], [6.954843, 46.435169], [6.954955, 46.435145], [6.955539, 46.435229], [6.955631, 46.43523], [6.955701, 46.435204], [6.955953, 46.435242], [6.956073, 46.435129], [6.956238, 46.435048], [6.956204, 46.435089], [6.956245, 46.435169], [6.95636, 46.435195], [6.956411, 46.435192], [6.956451, 46.435159], [6.956524, 46.435191], [6.956636, 46.435163], [6.956698, 46.435206], [6.956753, 46.435136], [6.956955, 46.435165], [6.957175, 46.435131], [6.957303, 46.435138], [6.957404, 46.43522], [6.957432, 46.435202], [6.957399, 46.435185], [6.957456, 46.435176], [6.957658, 46.435192], [6.957744, 46.435173], [6.957764, 46.435193], [6.957842, 46.435196], [6.957868, 46.435227], [6.957938, 46.435213], [6.957984, 46.435168], [6.957931, 46.435221], [6.957976, 46.435282], [6.958028, 46.435296], [6.958292, 46.435214], [6.958318, 46.435167], [6.95848, 46.435116], [6.958581, 46.435134], [6.958676, 46.435117], [6.958713, 46.435123], [6.958709, 46.435142], [6.958803, 46.435133], [6.958767, 46.435117], [6.95871, 46.435232], [6.958723, 46.435277], [6.958682, 46.435309], [6.958745, 46.435359], [6.958821, 46.435291], [6.958974, 46.435303], [6.959031, 46.435297], [6.959045, 46.43527], [6.959147, 46.43526], [6.959225, 46.43528], [6.959226, 46.435299], [6.959214, 46.435283], [6.959296, 46.435289], [6.959346, 46.435243], [6.959414, 46.435249], [6.959442, 46.435267], [6.959411, 46.435289], [6.959453, 46.43531], [6.95955, 46.435324], [6.959512, 46.435333], [6.959508, 46.435317], [6.959531, 46.435336], [6.9595, 46.435389], [6.95942, 46.435441], [6.959446, 46.435456], [6.959394, 46.435513], [6.959334, 46.435738], [6.959347, 46.435837], [6.959466, 46.435853], [6.959569, 46.435926], [6.959603, 46.435817], [6.959827, 46.435722], [6.959886, 46.435795], [6.960234, 46.435902], [6.960315, 46.43598], [6.960605, 46.436097], [6.960946, 46.436116], [6.960988, 46.435984], [6.961114, 46.435952], [6.961305, 46.436028], [6.961547, 46.436053], [6.961618, 46.436071], [6.961625, 46.436095], [6.961736, 46.436104], [6.961769, 46.436135], [6.961788, 46.436119], [6.962051, 46.436204], [6.962262, 46.436218], [6.962329, 46.436268], [6.962416, 46.436254], [6.9625, 46.436287], [6.962874, 46.436326], [6.96308, 46.436373], [6.963153, 46.436366], [6.963335, 46.436427], [6.963445, 46.436415], [6.963613, 46.436468], [6.963697, 46.436433], [6.963921, 46.436469], [6.963966, 46.436457], [6.964042, 46.436373], [6.964124, 46.436368], [6.964202, 46.436394], [6.964252, 46.436364], [6.964164, 46.436276], [6.964334, 46.436223], [6.964444, 46.436235], [6.964484, 46.436218], [6.964545, 46.43625], [6.964611, 46.436252], [6.964755, 46.436217], [6.964829, 46.43625], [6.964907, 46.436241], [6.965134, 46.436326], [6.965205, 46.436297], [6.965215, 46.436254], [6.965324, 46.436298], [6.965434, 46.436265], [6.965464, 46.436311], [6.965516, 46.436318], [6.965507, 46.436339], [6.965504, 46.436323], [6.965585, 46.436323], [6.965663, 46.436361], [6.965747, 46.436317], [6.965843, 46.436348], [6.9661, 46.436295], [6.966424, 46.436369], [6.966567, 46.436338], [6.966745, 46.436402], [6.967507, 46.436431], [6.967764, 46.436484], [6.96781, 46.436458], [6.96796, 46.436476], [6.967997, 46.436498], [6.967897, 46.436516], [6.96791, 46.436563], [6.96808, 46.43665], [6.968238, 46.436554], [6.968295, 46.436483], [6.968517, 46.436378], [6.968625, 46.436368], [6.968763, 46.436319], [6.968966, 46.436319], [6.969041, 46.436293], [6.96915, 46.436305], [6.969203, 46.436352], [6.969447, 46.436299], [6.969466, 46.436188], [6.969731, 46.435904], [6.969945, 46.43579], [6.9702, 46.435596], [6.97048, 46.435466], [6.970497, 46.435387], [6.970626, 46.435236], [6.97078, 46.435172], [6.97081, 46.435108], [6.970915, 46.43506], [6.97102, 46.435076], [6.97114, 46.435001], [6.971246, 46.435006], [6.971503, 46.434906], [6.971689, 46.434891], [6.971736, 46.434848], [6.971889, 46.43482], [6.972014, 46.43473], [6.972142, 46.43471], [6.972212, 46.434657], [6.972187, 46.434546], [6.972117, 46.434508], [6.972153, 46.434461], [6.972099, 46.43425], [6.97192, 46.433929], [6.971918, 46.433714], [6.971808, 46.43352], [6.971815, 46.433472], [6.971777, 46.433456], [6.971727, 46.433355], [6.971758, 46.433321], [6.971709, 46.433167], [6.971702, 46.432916], [6.971572, 46.432632], [6.971648, 46.432414], [6.971729, 46.432352], [6.971726, 46.432247], [6.971763, 46.4322], [6.97173, 46.432076], [6.971752, 46.431941], [6.971722, 46.431876], [6.971785, 46.431837], [6.971807, 46.43176], [6.971753, 46.431687], [6.971751, 46.431558], [6.971723, 46.431526], [6.9717, 46.431536], [6.971736, 46.431406], [6.971696, 46.431391], [6.97165, 46.431286], [6.971671, 46.431227], [6.971645, 46.431249], [6.971538, 46.431114], [6.971454, 46.43107], [6.971275, 46.431035], [6.971169, 46.430864], [6.971034, 46.43073], [6.971085, 46.430666], [6.971147, 46.430689], [6.971182, 46.430677], [6.971236, 46.430598], [6.97133, 46.430607], [6.971332, 46.430532], [6.971286, 46.430527], [6.971342, 46.430539], [6.971327, 46.430561], [6.971401, 46.430591], [6.971426, 46.430554], [6.971487, 46.430546], [6.971448, 46.430516], [6.971526, 46.430508], [6.97157, 46.430372], [6.971546, 46.430401], [6.971591, 46.430438], [6.971687, 46.430455], [6.971714, 46.430486], [6.971712, 46.430467], [6.971782, 46.430497], [6.971831, 46.430467], [6.971841, 46.430489], [6.97182, 46.430445], [6.971843, 46.430422], [6.971794, 46.430404], [6.971813, 46.430391], [6.971775, 46.430336], [6.971848, 46.430285], [6.971872, 46.430303], [6.971833, 46.430227], [6.971801, 46.430234], [6.971822, 46.430252], [6.971802, 46.4302], [6.971845, 46.430188], [6.971787, 46.430042], [6.971819, 46.430046], [6.971799, 46.430038], [6.971784, 46.430088], [6.971764, 46.430083], [6.971826, 46.430038], [6.971793, 46.430003], [6.971817, 46.430029], [6.971796, 46.430034], [6.971816, 46.429993], [6.971881, 46.429989], [6.971927, 46.429945], [6.971859, 46.429924], [6.971871, 46.429943], [6.971849, 46.42994], [6.971853, 46.429908], [6.971912, 46.429879], [6.971858, 46.429844], [6.971912, 46.429822], [6.971886, 46.429777], [6.971939, 46.429789], [6.971927, 46.42974], [6.971893, 46.429742], [6.971915, 46.429719], [6.971981, 46.429725], [6.971926, 46.429661], [6.971961, 46.429678], [6.971917, 46.42953], [6.971978, 46.42953], [6.972025, 46.429472], [6.971888, 46.429408], [6.971855, 46.429424], [6.971917, 46.429409], [6.971896, 46.429377], [6.971749, 46.429353], [6.971773, 46.429292], [6.971695, 46.429161], [6.971638, 46.429153], [6.971625, 46.42913], [6.97171, 46.429121], [6.971771, 46.429145], [6.971862, 46.429097], [6.971866, 46.429054], [6.971831, 46.429048], [6.971815, 46.428996], [6.971887, 46.428801], [6.97197, 46.428728], [6.971962, 46.428656], [6.972007, 46.4286], [6.972069, 46.428395], [6.971989, 46.428268], [6.971997, 46.428327], [6.972061, 46.428338], [6.972091, 46.428373], [6.9723, 46.428408], [6.972314, 46.428446], [6.972536, 46.428538], [6.972627, 46.428631], [6.972849, 46.428782], [6.972859, 46.428833], [6.972964, 46.428931], [6.973065, 46.429113], [6.973314, 46.429203], [6.973474, 46.42932], [6.973553, 46.429343], [6.973612, 46.429398], [6.973636, 46.429471], [6.973828, 46.429542], [6.973904, 46.429624], [6.973997, 46.42963], [6.974099, 46.429681], [6.974172, 46.429678], [6.974374, 46.429738], [6.974385, 46.42976], [6.974356, 46.429759], [6.974497, 46.429853], [6.974536, 46.429866], [6.974553, 46.429847], [6.974645, 46.429911], [6.974693, 46.429903], [6.974731, 46.429931], [6.974812, 46.429931], [6.97486, 46.429955], [6.974934, 46.430037], [6.975165, 46.430193], [6.975451, 46.430257], [6.975494, 46.430295], [6.975542, 46.430283], [6.975527, 46.430325], [6.975558, 46.430345], [6.975701, 46.430365], [6.975736, 46.430405], [6.975754, 46.430393], [6.975795, 46.430417], [6.975924, 46.430426], [6.97595, 46.430408], [6.975992, 46.430424], [6.976016, 46.430453], [6.975952, 46.430466], [6.975937, 46.430507], [6.976036, 46.4305], [6.976059, 46.430531], [6.976032, 46.430555], [6.975962, 46.43054], [6.975919, 46.430576], [6.975957, 46.430654], [6.976114, 46.430655], [6.97617, 46.43071], [6.976127, 46.430732], [6.976069, 46.430719], [6.975998, 46.430767], [6.975867, 46.430775], [6.975887, 46.430814], [6.976171, 46.430895], [6.976254, 46.430967], [6.97631, 46.430967], [6.976336, 46.430993], [6.97659, 46.430994], [6.976631, 46.431043], [6.976716, 46.431073], [6.976743, 46.431134], [6.976837, 46.431134], [6.976882, 46.431183], [6.976983, 46.43122], [6.976956, 46.431198], [6.976917, 46.431192], [6.976929, 46.431234], [6.977293, 46.431381], [6.977442, 46.431372], [6.977522, 46.431428], [6.977706, 46.431497], [6.9776, 46.431507], [6.977581, 46.431532], [6.978026, 46.431675], [6.977928, 46.431781], [6.977854, 46.431769], [6.977849, 46.431788], [6.977835, 46.431758], [6.97778, 46.431751], [6.977765, 46.431824], [6.977607, 46.431851], [6.977538, 46.431838], [6.977461, 46.431775], [6.977326, 46.431753], [6.977232, 46.431764], [6.977204, 46.431788], [6.976988, 46.431763], [6.976946, 46.43179], [6.976881, 46.43177], [6.976722, 46.431842], [6.976672, 46.431834], [6.976648, 46.431801], [6.97655, 46.431834], [6.976453, 46.431802], [6.976405, 46.431827], [6.976358, 46.431819], [6.97631, 46.431866], [6.976264, 46.431822], [6.976222, 46.431829]]}, "properties": {"name": "1791113941.Rocher_de_Naye_afternoon_hike", "cmt": "2026-10-04", "tstamp": 1791072000, "desc": "UpHill", "src": "6.923571/46.417954/6.979047/46.43665", "bbox": "6.923571/46.417954/6.979047/46.43665"}}, {"type": "Feature", "bbox": [6.923571, 46.417954, 6.979047, 46.43665], "geometry": {"type": "LineString", "coordinates": [[6.97622, 46.431832], [6.976166, 46.431844], [6.976032, 46.431823], [6.976049, 46.431866], [6.976131, 46.431915], [6.976118, 46.431886], [6.976157, 46.43188], [6.976123, 46.431885], [6.976093, 46.431818], [6.976073, 46.43184], [6.976122, 46.431856], [6.976137, 46.431842], [6.976118, 46.431875], [6.976162, 46.431874], [6.976142, 46.431858], [6.976106, 46.431874], [6.976145, 46.431892], [6.976142, 46.43185], [6.976159, 46.431908], [6.976126, 46.431905], [6.976166, 46.431911], [6.976134, 46.431918], [6.976148, 46.431892], [6.976117, 46.431879], [6.976163, 46.4319], [6.976153, 46.431933], [6.976152, 46.431887], [6.976129, 46.431922], [6.976136, 46.431904], [6.976086, 46.431883], [6.9761, 46.431996], [6.976139, 46.432042], [6.976134, 46.432018], [6.976224, 46.432078], [6.976234, 46.432141], [6.976363, 46.432204], [6.976413, 46.432294], [6.976598, 46.432448], [6.97672, 46.432329], [6.976697, 46.432305], [6.976741, 46.432189], [6.976774, 46.432196], [6.976846, 46.432327], [6.976906, 46.432372], [6.97693, 46.432364], [6.976989, 46.432257], [6.977057, 46.431994], [6.977159, 46.432054], [6.977325, 46.432204], [6.977324, 46.432245], [6.977436, 46.432312], [6.977727, 46.432573], [6.978001, 46.432692], [6.978025, 46.432672], [6.978024, 46.432532], [6.977956, 46.43218], [6.977985, 46.431947], [6.977965, 46.431867], [6.977915, 46.431818], [6.977939, 46.431772], [6.978249, 46.431635], [6.978349, 46.431632], [6.978659, 46.431557], [6.978715, 46.431524], [6.978839, 46.43152], [6.978906, 46.431464], [6.979002, 46.431434], [6.97898, 46.431419], [6.979047, 46.431452], [6.978977, 46.431429], [6.978964, 46.431374], [6.978988, 46.431394], [6.978994, 46.431357], [6.97857, 46.431344], [6.978426, 46.431372], [6.978414, 46.43135], [6.978384, 46.431373], [6.978235, 46.431355], [6.978119, 46.431374], [6.978011, 46.431318], [6.977997, 46.431341], [6.977889, 46.43132], [6.977826, 46.431333], [6.977735, 46.431281], [6.97763, 46.431265], [6.977289, 46.431282], [6.976898, 46.43118], [6.976746, 46.431124], [6.976554, 46.430986], [6.9765, 46.430993], [6.976459, 46.430956], [6.976333, 46.430937], [6.976345, 46.430913], [6.976261, 46.430879], [6.976218, 46.430763], [6.976149, 46.430734], [6.976153, 46.430709], [6.97606, 46.430641], [6.975974, 46.43065], [6.975945, 46.430625], [6.975952, 46.430562], [6.976077, 46.430535], [6.976054, 46.430506], [6.975991, 46.4305], [6.975937, 46.430522], [6.975946, 46.430475], [6.976026, 46.430432], [6.975941, 46.430386], [6.97589, 46.430402], [6.975851, 46.430372], [6.975771, 46.430391], [6.975728, 46.430351], [6.975667, 46.430372], [6.975615, 46.430322], [6.975558, 46.430338], [6.975528, 46.430306], [6.975572, 46.430263], [6.97549, 46.430275], [6.97546, 46.430235], [6.975252, 46.430189], [6.975053, 46.430112], [6.974971, 46.430028], [6.974855, 46.429993], [6.974817, 46.429928], [6.974705, 46.429916], [6.974691, 46.429875], [6.974601, 46.429883], [6.974613, 46.429841], [6.974476, 46.429832], [6.974365, 46.429769], [6.974374, 46.429739], [6.974287, 46.429681], [6.974051, 46.429663], [6.973886, 46.429578], [6.973742, 46.429551], [6.97371, 46.429496], [6.9736, 46.429445], [6.973536, 46.429328], [6.973461, 46.429316], [6.973417, 46.429262], [6.973102, 46.429102], [6.972955, 46.428917], [6.972951, 46.428861], [6.97271, 46.428632], [6.972277, 46.428412], [6.972162, 46.428401], [6.971993, 46.428341], [6.972009, 46.428321], [6.971969, 46.42829], [6.972049, 46.428216], [6.972059, 46.428151], [6.972032, 46.428165], [6.972069, 46.428206], [6.972029, 46.428187], [6.972032, 46.428077], [6.97197, 46.427922], [6.971985, 46.427832], [6.971933, 46.427796], [6.971926, 46.427737], [6.971615, 46.427647], [6.971254, 46.42742], [6.971156, 46.427332], [6.971007, 46.427281], [6.970948, 46.427216], [6.970829, 46.427158], [6.970577, 46.427107], [6.97043, 46.427051], [6.970335, 46.426984], [6.970217, 46.426949], [6.970167, 46.426898], [6.970172, 46.42687], [6.970416, 46.426939], [6.970645, 46.426911], [6.970719, 46.426933], [6.970798, 46.426926], [6.970787, 46.426855], [6.970536, 46.42685], [6.970307, 46.426694], [6.970191, 46.426721], [6.970075, 46.426701], [6.969898, 46.426763], [6.969775, 46.426843], [6.969598, 46.426898], [6.96963, 46.426988], [6.969538, 46.42709], [6.969415, 46.427087], [6.969116, 46.427004], [6.968807, 46.426844], [6.968709, 46.426719], [6.968568, 46.426622], [6.968382, 46.426564], [6.96811, 46.426413], [6.968098, 46.426376], [6.967838, 46.426294], [6.967759, 46.426227], [6.967645, 46.426181], [6.967629, 46.426133], [6.967501, 46.426023], [6.967468, 46.425908], [6.967396, 46.425867], [6.967267, 46.42586], [6.967253, 46.425817], [6.967194, 46.425799], [6.96717, 46.425733], [6.967096, 46.425756], [6.967011, 46.425735], [6.966988, 46.425689], [6.966894, 46.425651], [6.966742, 46.425525], [6.966717, 46.425455], [6.966657, 46.425427], [6.966646, 46.425364], [6.96657, 46.425344], [6.96654, 46.425281], [6.966444, 46.425242], [6.966425, 46.42521], [6.966332, 46.425211], [6.966245, 46.425103], [6.965939, 46.425072], [6.965824, 46.425111], [6.965656, 46.425079], [6.965514, 46.425078], [6.965448, 46.425099], [6.965316, 46.425062], [6.965183, 46.424907], [6.965196, 46.424878], [6.965303, 46.424976], [6.965403, 46.42499], [6.965523, 46.424984], [6.965599, 46.424932], [6.965787, 46.424904], [6.965872, 46.424868], [6.965969, 46.42487], [6.966069, 46.424912], [6.966119, 46.424897], [6.966071, 46.424851], [6.965946, 46.424822], [6.965891, 46.42482], [6.965816, 46.424854], [6.965686, 46.424825], [6.965478, 46.424818], [6.965364, 46.424766], [6.965411, 46.424687], [6.965591, 46.424603], [6.965561, 46.424546], [6.965569, 46.424441], [6.965584, 46.42443], [6.965586, 46.424453], [6.965615, 46.42439], [6.965642, 46.424389], [6.965598, 46.424394], [6.965535, 46.424329], [6.965624, 46.424228], [6.965612, 46.424147], [6.96568, 46.424073], [6.965659, 46.424072], [6.965699, 46.423982], [6.965578, 46.423971], [6.965382, 46.424006], [6.965338, 46.423982], [6.965244, 46.424005], [6.96517, 46.423984], [6.965121, 46.423931], [6.964946, 46.423894], [6.964938, 46.423915], [6.964876, 46.423924], [6.964728, 46.423919], [6.964524, 46.42384], [6.964272, 46.423907], [6.964225, 46.423864], [6.964221, 46.423792], [6.964106, 46.423663], [6.964147, 46.423589], [6.964121, 46.423548], [6.964144, 46.423543], [6.964103, 46.423531], [6.964091, 46.423488], [6.964132, 46.42344], [6.964027, 46.423332], [6.964026, 46.423238], [6.963925, 46.423185], [6.963896, 46.423129], [6.963814, 46.423103], [6.963765, 46.423032], [6.963783, 46.422977], [6.963697, 46.422904], [6.963654, 46.422799], [6.963517, 46.422675], [6.963321, 46.4226], [6.96327, 46.422544], [6.963114, 46.422488], [6.963096, 46.422452], [6.962967, 46.422437], [6.962992, 46.422412], [6.962972, 46.422445], [6.96275, 46.422398], [6.962684, 46.422363], [6.962574, 46.422375], [6.962365, 46.422305], [6.962323, 46.422263], [6.962218, 46.422259], [6.961996, 46.422193], [6.961954, 46.422125], [6.96178, 46.422123], [6.961523, 46.422043], [6.961413, 46.421981], [6.961414, 46.421903], [6.961267, 46.421822], [6.961288, 46.421752], [6.961043, 46.421698], [6.960974, 46.421646], [6.960872, 46.421653], [6.960778, 46.421589], [6.960705, 46.421594], [6.960579, 46.421562], [6.960525, 46.421466], [6.960463, 46.421433], [6.960469, 46.421367], [6.960441, 46.421343], [6.960256, 46.421279], [6.960161, 46.42129], [6.959989, 46.421109], [6.959885, 46.421092], [6.959777, 46.421051], [6.959745, 46.421009], [6.959646, 46.420987], [6.959607, 46.420908], [6.959444, 46.420882], [6.959311, 46.420758], [6.959318, 46.420695], [6.95928, 46.420687], [6.959188, 46.420574], [6.959298, 46.420312], [6.959253, 46.420254], [6.959133, 46.420256], [6.959063, 46.420314], [6.958953, 46.42034], [6.958914, 46.420387], [6.958842, 46.420416], [6.958787, 46.420398], [6.958726, 46.420467], [6.958612, 46.420455], [6.958378, 46.420528], [6.95833, 46.420563], [6.958191, 46.420573], [6.958113, 46.420631], [6.957974, 46.420618], [6.957943, 46.420557], [6.957812, 46.420585], [6.957618, 46.420498], [6.957492, 46.420532], [6.957449, 46.42051], [6.957239, 46.42049], [6.957117, 46.420424], [6.957077, 46.420315], [6.956923, 46.420221], [6.95691, 46.420148], [6.956748, 46.419997], [6.956732, 46.419942], [6.956625, 46.419939], [6.956489, 46.419805], [6.956438, 46.41981], [6.955945, 46.419683], [6.955248, 46.419428], [6.954915, 46.419166], [6.954892, 46.419075], [6.95479, 46.418916], [6.954783, 46.418803], [6.954802, 46.418734], [6.954844, 46.418711], [6.95484, 46.418646], [6.955065, 46.418428], [6.955126, 46.418233], [6.955084, 46.418168], [6.954912, 46.418148], [6.954526, 46.418234], [6.954489, 46.418251], [6.954434, 46.418375], [6.954413, 46.418364], [6.954186, 46.418466], [6.95403, 46.418484], [6.95368, 46.418471], [6.953461, 46.418428], [6.953024, 46.418272], [6.95253, 46.417984], [6.952291, 46.417954], [6.952012, 46.41806], [6.951906, 46.418156], [6.951775, 46.418217], [6.951766, 46.418276], [6.951633, 46.418343], [6.951374, 46.41855], [6.951344, 46.418616], [6.951373, 46.418751], [6.951679, 46.419011], [6.952209, 46.419204], [6.952321, 46.419328], [6.952366, 46.419442], [6.952557, 46.419645], [6.95269, 46.419709], [6.95305, 46.419785], [6.953206, 46.419899], [6.953232, 46.419978], [6.953327, 46.420068], [6.953359, 46.420168], [6.953488, 46.420315], [6.953568, 46.420359], [6.95363, 46.420595], [6.953591, 46.420816], [6.953695, 46.42094], [6.954041, 46.421181], [6.954068, 46.421257], [6.954157, 46.421328], [6.954191, 46.421419], [6.954288, 46.421503], [6.954287, 46.421646], [6.954224, 46.421829], [6.954078, 46.422168], [6.953995, 46.422222], [6.954868, 46.422715], [6.955116, 46.422927], [6.955298, 46.42302], [6.955333, 46.423072], [6.955778, 46.423247], [6.955808, 46.42334], [6.955904, 46.42344], [6.955916, 46.423579], [6.955886, 46.423686], [6.955921, 46.423874], [6.956058, 46.424031], [6.956122, 46.424226], [6.956076, 46.424303], [6.956091, 46.424496], [6.956139, 46.424531], [6.956348, 46.424576], [6.956372, 46.424564], [6.956467, 46.4246], [6.956598, 46.424691], [6.956694, 46.424819], [6.957052, 46.425059], [6.957416, 46.425092], [6.957808, 46.424949], [6.957924, 46.424954], [6.958062, 46.425004], [6.958128, 46.425126], [6.958113, 46.425217], [6.958211, 46.425396], [6.958658, 46.425803], [6.9588, 46.425969], [6.958892, 46.426158], [6.95903, 46.426193], [6.959086, 46.426244], [6.95928, 46.426306], [6.959509, 46.426312], [6.959553, 46.426334], [6.959663, 46.426509], [6.959822, 46.426635], [6.960042, 46.426958], [6.960153, 46.427024], [6.960312, 46.4273], [6.960318, 46.427396], [6.960397, 46.427468], [6.960422, 46.427537], [6.960531, 46.427617], [6.960589, 46.427744], [6.960563, 46.427734], [6.960541, 46.427759], [6.960548, 46.427734], [6.960519, 46.427769], [6.960572, 46.427793], [6.960596, 46.42786], [6.960699, 46.427939], [6.960844, 46.428114], [6.960859, 46.428248], [6.960967, 46.428507], [6.960938, 46.428675], [6.961009, 46.42882], [6.96119, 46.428979], [6.961314, 46.42924], [6.961458, 46.42946], [6.961555, 46.429537], [6.961594, 46.429695], [6.961752, 46.429831], [6.961796, 46.430025], [6.961896, 46.430107], [6.962124, 46.430162], [6.962178, 46.430208], [6.962303, 46.430543], [6.962435, 46.430744], [6.962336, 46.430958], [6.96215, 46.431094], [6.962079, 46.431119], [6.9623, 46.431408], [6.962137, 46.43152], [6.962107, 46.431569], [6.962143, 46.43165], [6.962306, 46.431813], [6.96232, 46.431931], [6.962445, 46.432161], [6.962718, 46.43243], [6.962724, 46.432498], [6.962403, 46.432575], [6.962134, 46.432704], [6.96148, 46.432722], [6.961083, 46.43293], [6.961063, 46.43297], [6.960989, 46.432995], [6.960802, 46.433006], [6.960762, 46.432983], [6.960752, 46.432934], [6.960481, 46.432853], [6.960391, 46.432757], [6.960279, 46.432733], [6.960174, 46.432764], [6.960012, 46.432762], [6.959911, 46.432715], [6.959887, 46.432674], [6.959766, 46.432648], [6.959591, 46.432469], [6.959544, 46.432449], [6.95951, 46.432499], [6.959547, 46.432436], [6.959511, 46.432453], [6.959525, 46.432434], [6.959492, 46.432433], [6.959513, 46.432467], [6.959541, 46.43243], [6.95949, 46.432375], [6.959325, 46.432313], [6.959136, 46.432194], [6.958836, 46.432136], [6.958657, 46.432056], [6.958415, 46.432039], [6.958043, 46.432234], [6.957886, 46.432376], [6.957679, 46.432468], [6.957403, 46.432462], [6.957315, 46.432416], [6.957195, 46.432397], [6.957004, 46.432402], [6.956914, 46.432437], [6.956898, 46.432421], [6.956892, 46.432441], [6.956875, 46.432422], [6.956906, 46.432441], [6.956896, 46.432467], [6.956747, 46.432526], [6.956733, 46.432607], [6.956686, 46.432637], [6.956655, 46.432708], [6.956529, 46.432801], [6.956488, 46.432881], [6.956302, 46.432998], [6.956156, 46.433164], [6.956021, 46.433232], [6.955811, 46.433492], [6.955377, 46.433746], [6.955238, 46.433886], [6.955054, 46.433964], [6.954393, 46.433948], [6.954096, 46.433903], [6.954006, 46.433939], [6.953576, 46.433732], [6.95274, 46.433698], [6.952394, 46.433644], [6.952139, 46.433646], [6.952011, 46.433624], [6.951845, 46.433655], [6.951569, 46.433568], [6.951065, 46.433547], [6.950784, 46.433486], [6.950328, 46.433591], [6.949969, 46.433774], [6.949826, 46.433797], [6.949723, 46.433864], [6.949262, 46.433986], [6.949149, 46.434039], [6.948894, 46.434068], [6.948341, 46.43407], [6.948147, 46.434104], [6.947713, 46.434115], [6.947369, 46.434257], [6.947191, 46.434267], [6.946997, 46.43422], [6.946847, 46.434149], [6.946721, 46.434146], [6.946504, 46.434098], [6.946421, 46.434105], [6.946386, 46.434124], [6.946405, 46.434134], [6.946378, 46.434113], [6.946349, 46.434128], [6.946295, 46.434054], [6.946363, 46.434053], [6.946353, 46.434018]]}, "properties": {"name": "1791113941.Rocher_de_Naye_afternoon_hike", "cmt": "2026-10-04", "tstamp": 1791072000, "desc": "DownHill", "src": "6.923571/46.417954/6.979047/46.43665", "bbox": "6.923571/46.417954/6.979047/46.43665"}}]}