{"type": "FeatureCollection", "name": "TrackSet", "crs": {"type": "name", "properties": {"name": "urn:ogc:def:crs:OGC:1.3:CRS84"}}, "bbox": [7.340641, 45.93924, 7.383157, 46.002459], "features": [{"type": "Feature", "bbox": [7.340641, 45.93924, 7.383157, 46.002459], "geometry": {"type": "LineString", "coordinates": [[7.380775, 45.939256], [7.380841, 45.93924], [7.381049, 45.939367], [7.381022, 45.939439], [7.381066, 45.939492], [7.381019, 45.939581], [7.381057, 45.939591], [7.381041, 45.939647], [7.381069, 45.939663], [7.380996, 45.939797], [7.380943, 45.939821], [7.380841, 45.939954], [7.380847, 45.940102], [7.38088, 45.940123], [7.380848, 45.940201], [7.380843, 45.94042], [7.380809, 45.940485], [7.380715, 45.940543], [7.380743, 45.940609], [7.380718, 45.940626], [7.38073, 45.940647], [7.380752, 45.940635], [7.380689, 45.940669], [7.380672, 45.940734], [7.380719, 45.940881], [7.380701, 45.940984], [7.380728, 45.940978], [7.380687, 45.940998], [7.380659, 45.941088], [7.380709, 45.941161], [7.380709, 45.941209], [7.380654, 45.941282], [7.380668, 45.941396], [7.380719, 45.941487], [7.380647, 45.941531], [7.380708, 45.94192], [7.380668, 45.941988], [7.380756, 45.94209], [7.380686, 45.942236], [7.380722, 45.942333], [7.380705, 45.942413], [7.380824, 45.942537], [7.380817, 45.942579], [7.380931, 45.942768], [7.380916, 45.942826], [7.380947, 45.94287], [7.380893, 45.943011], [7.380802, 45.943067], [7.380804, 45.943095], [7.380704, 45.943177], [7.380741, 45.943192], [7.380563, 45.943252], [7.380534, 45.943334], [7.38047, 45.943329], [7.380457, 45.943393], [7.380554, 45.943419], [7.380577, 45.943459], [7.380698, 45.943454], [7.380752, 45.943545], [7.380683, 45.943691], [7.380712, 45.943812], [7.380672, 45.943873], [7.380689, 45.943978], [7.380553, 45.944085], [7.380574, 45.944164], [7.380526, 45.944203], [7.380506, 45.944307], [7.380452, 45.944343], [7.380526, 45.944647], [7.380697, 45.944932], [7.380673, 45.944997], [7.380787, 45.94511], [7.380752, 45.945156], [7.380762, 45.945207], [7.380647, 45.945274], [7.380653, 45.94532], [7.380563, 45.945374], [7.380576, 45.945454], [7.380539, 45.945493], [7.380541, 45.945564], [7.380486, 45.945644], [7.380416, 45.945684], [7.380344, 45.945856], [7.380266, 45.945908], [7.380257, 45.945948], [7.380375, 45.946066], [7.380385, 45.946129], [7.380502, 45.946172], [7.380613, 45.946254], [7.380666, 45.94638], [7.380785, 45.946468], [7.380885, 45.946698], [7.380847, 45.946813], [7.380925, 45.946859], [7.380993, 45.946984], [7.381269, 45.947154], [7.381295, 45.94723], [7.381371, 45.947266], [7.381379, 45.947294], [7.381463, 45.947298], [7.381637, 45.947419], [7.381807, 45.947476], [7.381817, 45.947505], [7.381887, 45.947536], [7.381922, 45.947606], [7.38203, 45.947627], [7.382087, 45.947704], [7.382143, 45.947732], [7.38212, 45.947759], [7.382136, 45.947749], [7.382154, 45.947792], [7.382275, 45.947841], [7.382289, 45.947883], [7.382211, 45.947951], [7.382221, 45.947983], [7.382206, 45.947968], [7.382226, 45.948105], [7.382437, 45.94816], [7.382517, 45.948123], [7.382627, 45.948227], [7.382665, 45.948317], [7.382635, 45.948338], [7.382649, 45.948361], [7.382709, 45.948345], [7.382778, 45.948363], [7.382786, 45.948405], [7.382723, 45.948455], [7.3828, 45.948473], [7.38282, 45.948502], [7.382873, 45.948502], [7.382906, 45.948624], [7.383024, 45.948762], [7.383046, 45.948848], [7.383087, 45.94887], [7.383097, 45.94897], [7.383047, 45.949017], [7.383123, 45.949123], [7.383116, 45.94918], [7.383075, 45.9492], [7.383058, 45.949287], [7.383016, 45.949321], [7.383055, 45.949377], [7.383043, 45.94943], [7.38298, 45.949485], [7.383013, 45.949627], [7.382982, 45.949713], [7.382935, 45.949738], [7.383028, 45.949829], [7.382999, 45.949825], [7.383107, 45.949836], [7.383157, 45.949875], [7.383096, 45.949843], [7.383043, 45.949883], [7.383003, 45.949961], [7.38305, 45.950029], [7.382979, 45.950063], [7.383005, 45.950055], [7.38299, 45.950041], [7.382991, 45.950083], [7.382974, 45.950054], [7.383013, 45.95008], [7.382992, 45.950064], [7.382996, 45.950097], [7.382873, 45.950182], [7.382692, 45.950426], [7.382557, 45.950484], [7.382326, 45.95054], [7.382263, 45.950619], [7.382143, 45.95061], [7.382047, 45.950659], [7.38194, 45.950669], [7.381921, 45.950718], [7.381818, 45.950725], [7.381732, 45.950782], [7.381416, 45.950813], [7.381331, 45.950775], [7.381168, 45.950793], [7.381022, 45.9509], [7.38087, 45.950945], [7.380879, 45.950928], [7.380941, 45.950981], [7.380895, 45.950954], [7.380914, 45.950935], [7.380806, 45.950984], [7.380709, 45.950974], [7.380637, 45.951033], [7.380524, 45.951071], [7.380499, 45.951089], [7.380571, 45.951108], [7.380537, 45.951097], [7.380465, 45.95112], [7.380464, 45.951141], [7.380504, 45.951142], [7.380434, 45.951188], [7.380497, 45.951184], [7.380494, 45.951233], [7.380497, 45.951209], [7.380463, 45.951203], [7.380362, 45.951233], [7.38028, 45.951344], [7.380264, 45.951324], [7.380306, 45.951353], [7.380266, 45.951343], [7.380269, 45.951429], [7.380161, 45.951435], [7.380137, 45.951455], [7.380145, 45.951471], [7.380179, 45.951446], [7.380253, 45.951455], [7.380247, 45.951476], [7.38016, 45.951505], [7.380033, 45.951494], [7.380101, 45.951597], [7.3801, 45.95168], [7.380048, 45.951729], [7.379967, 45.951729], [7.379948, 45.951754]]}, "properties": {"name": "1791353747.Chanrion_refuge_Mauvoisin_dam", "cmt": "2026-10-07", "tstamp": 1791331200, "desc": "UpHill", "src": "7.340641/45.93924/7.383157/46.002459", "bbox": "7.340641/45.93924/7.383157/46.002459"}}, {"type": "Feature", "bbox": [7.340641, 45.93924, 7.383157, 46.002459], "geometry": {"type": "LineString", "coordinates": [[7.379929, 45.951763], [7.379799, 45.951811], [7.379665, 45.951818], [7.37957, 45.951795], [7.379422, 45.951818], [7.379199, 45.951796], [7.379037, 45.951877], [7.378928, 45.951991], [7.378926, 45.952048], [7.378995, 45.952091], [7.379108, 45.95225], [7.37898, 45.952307], [7.378942, 45.952445], [7.378985, 45.952482], [7.378985, 45.952688], [7.379059, 45.952803], [7.379046, 45.952918], [7.379241, 45.953101], [7.379084, 45.953342], [7.378958, 45.953432], [7.378906, 45.953517], [7.378953, 45.953605], [7.379017, 45.953636], [7.378978, 45.953807], [7.378846, 45.953935], [7.378758, 45.953973], [7.378437, 45.954213], [7.378427, 45.9543], [7.378487, 45.954334], [7.378368, 45.954534], [7.37823, 45.954649], [7.37818, 45.954737], [7.378237, 45.954799], [7.378316, 45.954993], [7.378493, 45.955091], [7.378502, 45.955235], [7.378409, 45.955359], [7.378318, 45.955435], [7.378172, 45.955493], [7.37811, 45.955562], [7.377986, 45.955609], [7.377719, 45.955776], [7.37764, 45.95588], [7.377525, 45.955945], [7.377481, 45.956024], [7.377423, 45.95606], [7.376702, 45.956373], [7.376694, 45.956438], [7.376614, 45.956489], [7.376584, 45.956602], [7.376464, 45.956788], [7.376505, 45.956906], [7.376238, 45.957211], [7.376248, 45.957246], [7.376165, 45.957363], [7.376026, 45.957431], [7.375965, 45.957433], [7.375912, 45.957468], [7.375899, 45.957527], [7.375851, 45.957538], [7.37568, 45.957906], [7.375551, 45.957958], [7.375468, 45.958051], [7.375315, 45.958061], [7.375068, 45.958162], [7.374949, 45.95826], [7.374942, 45.958309], [7.374732, 45.958356], [7.374707, 45.95847], [7.374646, 45.958526], [7.374409, 45.958517], [7.374335, 45.95856], [7.374238, 45.958683], [7.37415, 45.958682], [7.373995, 45.958747], [7.373967, 45.958791], [7.373868, 45.95882], [7.373761, 45.958918], [7.373676, 45.958942], [7.3736, 45.95901], [7.373407, 45.959098], [7.373378, 45.959142], [7.373052, 45.959216], [7.372857, 45.959333], [7.372647, 45.959377], [7.372625, 45.959444], [7.372571, 45.959476], [7.372568, 45.959534], [7.372524, 45.959546], [7.372511, 45.95958], [7.372224, 45.959669], [7.372043, 45.959817], [7.371919, 45.96], [7.371939, 45.960064], [7.371784, 45.96016], [7.371799, 45.960191], [7.37176, 45.960211], [7.371752, 45.960263], [7.371656, 45.960331], [7.371586, 45.960438], [7.371315, 45.960592], [7.371259, 45.960659], [7.370927, 45.960899], [7.370406, 45.961146], [7.370355, 45.961185], [7.370387, 45.961204], [7.37027, 45.961206], [7.370198, 45.961271], [7.369905, 45.961392], [7.369795, 45.961518], [7.36974, 45.961531], [7.369585, 45.961664], [7.369513, 45.961692], [7.369416, 45.961792], [7.36933, 45.961822], [7.369125, 45.96203], [7.369018, 45.96207], [7.368972, 45.962123], [7.368866, 45.962157], [7.368807, 45.962228], [7.368542, 45.9624], [7.36846, 45.962481], [7.368284, 45.962546], [7.367994, 45.962699], [7.367786, 45.962867], [7.36769, 45.9629], [7.36747, 45.963206], [7.367404, 45.963237], [7.367288, 45.96336], [7.367271, 45.96347], [7.367179, 45.963585], [7.367143, 45.963708], [7.367073, 45.963779], [7.367052, 45.963844], [7.367075, 45.963915], [7.367007, 45.963954], [7.366909, 45.964154], [7.366682, 45.964391], [7.366673, 45.964454], [7.366491, 45.964672], [7.366333, 45.964927], [7.366152, 45.965049], [7.366147, 45.965114], [7.366062, 45.965206], [7.366038, 45.965282], [7.366059, 45.96545], [7.365977, 45.965607], [7.365985, 45.965719], [7.366158, 45.965907], [7.366133, 45.965961], [7.366181, 45.966019], [7.366172, 45.966071], [7.366232, 45.966214], [7.366211, 45.966303], [7.366236, 45.966398], [7.366449, 45.966523], [7.366549, 45.966641], [7.366631, 45.966659], [7.366683, 45.966744], [7.366674, 45.966783], [7.366784, 45.966841], [7.366722, 45.966901], [7.366677, 45.96705], [7.366617, 45.967095], [7.366643, 45.96716], [7.366608, 45.967182], [7.36656, 45.967325], [7.366187, 45.967674], [7.366063, 45.967829], [7.36608, 45.967916], [7.365997, 45.96796], [7.365913, 45.968101], [7.365865, 45.968294], [7.365823, 45.96834], [7.365844, 45.968384], [7.365808, 45.968566], [7.365782, 45.968678], [7.365747, 45.968707], [7.36572, 45.96897], [7.365668, 45.969105], [7.36579, 45.96924], [7.365867, 45.969273], [7.3659, 45.96938], [7.366064, 45.969458], [7.366081, 45.969492], [7.365975, 45.969677], [7.365788, 45.969744], [7.365753, 45.969801], [7.365828, 45.969911], [7.365822, 45.969952], [7.365874, 45.969981], [7.365845, 45.970188], [7.365885, 45.970438], [7.365826, 45.970558], [7.365903, 45.970987], [7.366001, 45.971135], [7.36594, 45.971194], [7.365927, 45.971272], [7.366023, 45.971342], [7.36598, 45.971477], [7.365937, 45.971502], [7.36595, 45.97155], [7.365885, 45.971596], [7.365835, 45.97168], [7.365807, 45.971883], [7.365713, 45.971939], [7.365666, 45.972104], [7.365589, 45.97222], [7.365582, 45.972328], [7.365614, 45.972407], [7.365585, 45.972557], [7.365627, 45.972609], [7.365588, 45.972732], [7.365573, 45.972979], [7.365648, 45.97306], [7.365658, 45.973116], [7.365615, 45.973196], [7.365498, 45.973252], [7.365504, 45.973354], [7.365431, 45.973438], [7.365411, 45.973565], [7.365453, 45.973613], [7.365391, 45.973671], [7.365406, 45.97372], [7.365359, 45.973816], [7.365417, 45.973893], [7.365399, 45.973923], [7.36543, 45.973976], [7.3654, 45.974063], [7.365457, 45.974314], [7.365329, 45.974674], [7.36508, 45.974888], [7.365088, 45.97501], [7.364978, 45.975205], [7.364772, 45.975293], [7.364761, 45.97537], [7.364609, 45.975425], [7.364574, 45.975478], [7.364466, 45.975513], [7.364401, 45.975597], [7.364228, 45.975678], [7.364161, 45.975755], [7.364151, 45.975817], [7.364069, 45.975836], [7.363993, 45.975928], [7.36385, 45.97597], [7.363786, 45.976008], [7.363803, 45.976024], [7.363797, 45.975992], [7.363775, 45.976002], [7.363813, 45.976], [7.363766, 45.975985], [7.363802, 45.976023], [7.363779, 45.976026], [7.363801, 45.97599], [7.36378, 45.975994], [7.363808, 45.975997], [7.363777, 45.975989], [7.36381, 45.975992], [7.363758, 45.976009], [7.363675, 45.976121], [7.363602, 45.976157], [7.363567, 45.976232], [7.363402, 45.976322], [7.36339, 45.976361], [7.363289, 45.976392], [7.363182, 45.976537], [7.363079, 45.9766], [7.363005, 45.976714], [7.363045, 45.976798], [7.362911, 45.976973], [7.362805, 45.977061], [7.362749, 45.977223], [7.362745, 45.977421], [7.362596, 45.977574], [7.362476, 45.977825], [7.362474, 45.978036], [7.36251, 45.97813], [7.362618, 45.978228], [7.362547, 45.978312], [7.362602, 45.978488], [7.362682, 45.978626], [7.362795, 45.978666], [7.362875, 45.9789], [7.362934, 45.978969], [7.363013, 45.978977], [7.363081, 45.979137], [7.363139, 45.979167], [7.363175, 45.979238], [7.363138, 45.979297], [7.363086, 45.979604], [7.362939, 45.979762], [7.362842, 45.980083], [7.362867, 45.98024], [7.362977, 45.98025], [7.362903, 45.980218], [7.362806, 45.980272], [7.362804, 45.980322], [7.362693, 45.980427], [7.362621, 45.980604], [7.362635, 45.980789], [7.362605, 45.980913], [7.362541, 45.980968], [7.362475, 45.981174], [7.362342, 45.981335], [7.362286, 45.981493], [7.362377, 45.981912], [7.362489, 45.982152], [7.362323, 45.982453], [7.362308, 45.982772], [7.362354, 45.982937], [7.36241, 45.983015], [7.362407, 45.983157], [7.362581, 45.983446], [7.362584, 45.983694], [7.362533, 45.983768], [7.362509, 45.983969], [7.362404, 45.984214], [7.362406, 45.9844], [7.362368, 45.984544], [7.362313, 45.984631], [7.362256, 45.98467], [7.362226, 45.984644], [7.362219, 45.984569], [7.362126, 45.984409], [7.362023, 45.984405], [7.361993, 45.984449], [7.361968, 45.984773], [7.361927, 45.984895], [7.361939, 45.985028], [7.362, 45.985129], [7.361915, 45.985352], [7.361989, 45.985605], [7.361995, 45.985765], [7.361961, 45.985828], [7.361839, 45.985929], [7.361802, 45.986066], [7.361691, 45.986147], [7.361444, 45.986555], [7.361433, 45.986638], [7.361333, 45.986785], [7.361317, 45.986767], [7.361251, 45.986908], [7.361263, 45.98685], [7.361154, 45.986904], [7.361136, 45.986852], [7.36107, 45.986871], [7.361023, 45.986934], [7.360935, 45.986945], [7.36079, 45.987069], [7.360719, 45.987072], [7.360466, 45.987235], [7.360314, 45.987293], [7.360231, 45.987386], [7.360089, 45.987337], [7.360044, 45.987369], [7.358933, 45.987544], [7.358652, 45.987692], [7.358577, 45.987709], [7.358491, 45.98781], [7.35839, 45.98807], [7.358248, 45.988225], [7.35825, 45.988379], [7.358334, 45.988411], [7.358364, 45.988456], [7.358224, 45.988412], [7.358228, 45.988306], [7.358177, 45.988275], [7.358157, 45.988288], [7.358136, 45.988243], [7.358153, 45.988188], [7.358239, 45.988132], [7.358231, 45.988028], [7.35807, 45.988076], [7.357958, 45.988062], [7.357916, 45.988004], [7.357927, 45.987945], [7.357776, 45.987818], [7.357691, 45.987818], [7.357584, 45.987878], [7.357417, 45.98781], [7.35718, 45.987966], [7.357213, 45.987897], [7.357285, 45.987865], [7.357434, 45.987721], [7.357457, 45.987664], [7.357393, 45.987689], [7.357567, 45.987472], [7.357631, 45.98744], [7.357308, 45.987516], [7.35725, 45.987552], [7.357268, 45.987478], [7.35736, 45.987415], [7.357342, 45.987381], [7.357267, 45.987386], [7.357303, 45.987298], [7.357286, 45.98724], [7.357349, 45.987215], [7.357465, 45.987244], [7.357427, 45.987217], [7.357448, 45.987193], [7.357421, 45.987141], [7.357386, 45.987123], [7.357443, 45.987089], [7.357541, 45.987124], [7.357413, 45.987134], [7.357253, 45.987101], [7.357317, 45.987051], [7.357435, 45.987027], [7.357552, 45.986971], [7.357644, 45.986898], [7.357572, 45.986853], [7.357404, 45.986933], [7.357541, 45.986828], [7.357527, 45.986764], [7.357441, 45.986798], [7.357418, 45.986878], [7.357252, 45.986926], [7.357262, 45.986952], [7.357224, 45.98693], [7.357099, 45.986982], [7.357043, 45.986885], [7.356973, 45.98693], [7.356905, 45.986927], [7.356843, 45.986954], [7.35675, 45.987013], [7.356794, 45.986911], [7.356652, 45.986996], [7.356725, 45.986913], [7.356707, 45.986826], [7.356632, 45.986886], [7.356397, 45.986978], [7.356411, 45.986861], [7.356342, 45.986864], [7.35631, 45.987023], [7.35635, 45.987138], [7.356329, 45.98717], [7.356373, 45.987226], [7.356354, 45.98734], [7.356427, 45.987502], [7.356418, 45.987608], [7.356368, 45.987668], [7.356313, 45.987839], [7.356224, 45.987877], [7.356089, 45.988023], [7.356048, 45.988106], [7.355955, 45.988188], [7.355887, 45.988365], [7.355779, 45.988487], [7.355701, 45.988533], [7.355665, 45.9888], [7.355566, 45.988912], [7.355452, 45.988986], [7.355305, 45.989198], [7.35512, 45.989323], [7.355143, 45.989323], [7.355128, 45.989406], [7.355082, 45.989466], [7.355026, 45.98966], [7.354943, 45.98981], [7.354818, 45.989947], [7.354752, 45.990092], [7.354629, 45.990582], [7.354652, 45.990655], [7.354621, 45.990813], [7.354487, 45.990946], [7.35444, 45.991087], [7.354378, 45.991154], [7.35439, 45.991227], [7.354348, 45.99126], [7.354393, 45.991366], [7.354376, 45.991472], [7.354399, 45.991498], [7.354335, 45.991665], [7.354386, 45.99179], [7.354359, 45.991918], [7.354435, 45.991952], [7.354402, 45.991941], [7.354395, 45.991991], [7.354495, 45.99229], [7.354473, 45.992413], [7.35454, 45.992509], [7.354587, 45.992665], [7.354556, 45.992736], [7.354638, 45.992851], [7.354639, 45.992942], [7.354723, 45.993011], [7.354909, 45.993061], [7.355031, 45.993122], [7.355071, 45.993187], [7.354995, 45.993313], [7.355057, 45.993456], [7.355115, 45.993516], [7.355263, 45.993575], [7.35532, 45.993636], [7.355159, 45.993675], [7.355123, 45.993723], [7.35515, 45.993866], [7.355271, 45.994036], [7.355255, 45.994108], [7.355179, 45.994144], [7.355106, 45.994347], [7.355112, 45.994414], [7.355025, 45.994529], [7.354624, 45.994848], [7.354595, 45.994955], [7.354646, 45.995011], [7.354632, 45.995113], [7.354622, 45.995099], [7.35473, 45.995085], [7.354794, 45.995109], [7.354822, 45.99509], [7.354772, 45.995094], [7.35481, 45.995116], [7.354894, 45.995115], [7.35474, 45.995099], [7.354817, 45.995124], [7.354772, 45.995101], [7.354806, 45.995081], [7.354779, 45.995074], [7.354764, 45.995088], [7.354805, 45.995076], [7.354888, 45.995099], [7.354754, 45.995034], [7.354751, 45.995057], [7.354698, 45.995041], [7.354655, 45.995059], [7.354633, 45.995052], [7.354674, 45.995049], [7.354616, 45.995028], [7.354648, 45.995064], [7.354601, 45.995069], [7.354632, 45.995068], [7.354548, 45.995053], [7.354636, 45.995084], [7.354643, 45.995046], [7.354701, 45.995085], [7.354647, 45.995084], [7.354661, 45.995039], [7.354591, 45.995065], [7.35464, 45.995064], [7.354626, 45.995082], [7.354667, 45.995099], [7.354647, 45.995157], [7.354569, 45.995212], [7.354469, 45.995219], [7.354485, 45.995236], [7.354438, 45.99526], [7.354455, 45.995274], [7.354422, 45.995305], [7.354303, 45.995291], [7.354247, 45.995353], [7.354226, 45.99544], [7.354145, 45.995514], [7.354181, 45.995571], [7.354158, 45.995618], [7.35418, 45.995675], [7.354163, 45.995763], [7.354118, 45.995808], [7.354163, 45.995934], [7.354128, 45.99596], [7.354108, 45.996117], [7.354147, 45.996364], [7.353629, 45.996713], [7.354036, 45.996444], [7.354241, 45.996486], [7.354268, 45.996508], [7.354231, 45.996546], [7.354245, 45.996612], [7.354346, 45.996682], [7.354148, 45.996511], [7.353847, 45.996585], [7.353885, 45.996556], [7.353858, 45.996589], [7.353794, 45.996536], [7.353751, 45.996583], [7.353616, 45.996593], [7.353628, 45.996546], [7.353531, 45.996574], [7.353461, 45.996533], [7.353385, 45.996528], [7.353339, 45.99673], [7.353242, 45.996751], [7.353182, 45.99682], [7.35233, 45.997235]]}, "properties": {"name": "1791353747.Chanrion_refuge_Mauvoisin_dam", "cmt": "2026-10-07", "tstamp": 1791331200, "desc": "DownHill", "src": "7.340641/45.93924/7.383157/46.002459", "bbox": "7.340641/45.93924/7.383157/46.002459"}}, {"type": "Feature", "bbox": [7.340641, 45.93924, 7.383157, 46.002459], "geometry": {"type": "LineString", "coordinates": [[7.352296, 45.997252], [7.352263, 45.997268], [7.351867, 45.997187], [7.352318, 45.997329], [7.352381, 45.997358], [7.352394, 45.997416], [7.352428, 45.997433], [7.352344, 45.997493], [7.35229, 45.997654], [7.352204, 45.997668], [7.352213, 45.9978], [7.351968, 45.997832], [7.351921, 45.997815], [7.351844, 45.997896], [7.351782, 45.997921], [7.351768, 45.998027], [7.35171, 45.998043], [7.351653, 45.998107], [7.351368, 45.998136], [7.351282, 45.998183], [7.351344, 45.998209], [7.351308, 45.998213], [7.351304, 45.998325], [7.351265, 45.998247], [7.351337, 45.998244], [7.351218, 45.998378], [7.35124, 45.998468], [7.351288, 45.99851], [7.351216, 45.998533], [7.350257, 45.999583], [7.350486, 45.99969], [7.350431, 45.999649], [7.350334, 45.999656], [7.350245, 45.999583], [7.350206, 45.999433], [7.350052, 45.999132], [7.34998, 45.999068], [7.349875, 45.99907], [7.349917, 45.999041], [7.34981, 45.998865], [7.349477, 45.998512], [7.349078, 45.998199], [7.349016, 45.998193], [7.348838, 45.998098], [7.348784, 45.998097], [7.348623, 45.997983], [7.348194, 45.997802], [7.347513, 45.997624], [7.347361, 45.997613], [7.347312, 45.997632], [7.347249, 45.997609], [7.346625, 45.997559], [7.346065, 45.997587], [7.345825, 45.997567], [7.345688, 45.99755], [7.345549, 45.9975], [7.345476, 45.997429], [7.345693, 45.997946], [7.345473, 45.997983], [7.345558, 45.997965], [7.345503, 45.997919], [7.345384, 45.997897], [7.345206, 45.997351]]}, "properties": {"name": "1791353747.Chanrion_refuge_Mauvoisin_dam", "cmt": "2026-10-07", "tstamp": 1791331200, "desc": "UpHill", "src": "7.340641/45.93924/7.383157/46.002459", "bbox": "7.340641/45.93924/7.383157/46.002459"}}, {"type": "Feature", "bbox": [7.340641, 45.93924, 7.383157, 46.002459], "geometry": {"type": "LineString", "coordinates": [[7.345281, 45.99773], [7.345319, 45.99792], [7.345323, 45.997886], [7.345253, 45.997939], [7.345036, 45.998326], [7.344751, 45.998621], [7.344641, 45.998818], [7.344382, 45.99913], [7.344275, 45.999227], [7.344208, 45.999243], [7.344035, 45.999348], [7.343869, 45.999427], [7.343714, 45.999443], [7.343665, 45.99948], [7.343703, 45.999547], [7.343795, 45.999524], [7.344054, 45.999561], [7.344141, 45.999547], [7.34438, 45.999429], [7.34444, 45.999426], [7.344759, 45.99929], [7.344904, 45.999212], [7.344986, 45.999121], [7.345267, 45.999022], [7.34528, 45.999052], [7.344863, 45.999286], [7.344508, 45.999673], [7.344348, 45.999737], [7.344285, 45.999799], [7.344146, 45.999853], [7.344064, 45.999932], [7.343815, 46.00006], [7.343721, 46.000063], [7.34357, 46.000253], [7.343546, 46.000309], [7.343572, 46.000327], [7.343489, 46.000405], [7.343358, 46.000643], [7.343289, 46.000917], [7.343253, 46.001264], [7.34314, 46.001427], [7.343149, 46.001474], [7.343106, 46.001533], [7.343114, 46.001618], [7.343205, 46.001777], [7.343215, 46.001928], [7.343092, 46.002057], [7.34302, 46.002016], [7.342975, 46.002065], [7.34292, 46.002006], [7.342875, 46.002018], [7.342908, 46.002133], [7.343017, 46.002195], [7.342988, 46.002307], [7.342951, 46.002322]]}, "properties": {"name": "1791353747.Chanrion_refuge_Mauvoisin_dam", "cmt": "2026-10-07", "tstamp": 1791331200, "desc": "DownHill", "src": "7.340641/45.93924/7.383157/46.002459", "bbox": "7.340641/45.93924/7.383157/46.002459"}}, {"type": "Feature", "bbox": [7.340641, 45.93924, 7.383157, 46.002459], "geometry": {"type": "LineString", "coordinates": [[7.342945, 46.002331], [7.342936, 46.002429], [7.342852, 46.002451], [7.342598, 46.002393], [7.342431, 46.002419], [7.342335, 46.002337], [7.342299, 46.002353], [7.342322, 46.002355], [7.342291, 46.002397], [7.342326, 46.002348], [7.34133, 46.002459], [7.342244, 46.002326], [7.342281, 46.002376], [7.342291, 46.002346], [7.342226, 46.002363], [7.34222, 46.002336], [7.342081, 46.002329], [7.341425, 46.002401], [7.341045, 46.002323], [7.340874, 46.00231], [7.340747, 46.002255], [7.340641, 46.002243], [7.340653, 46.002274], [7.340671, 46.002263]]}, "properties": {"name": "1791353747.Chanrion_refuge_Mauvoisin_dam", "cmt": "2026-10-07", "tstamp": 1791331200, "desc": "UpHill", "src": "7.340641/45.93924/7.383157/46.002459", "bbox": "7.340641/45.93924/7.383157/46.002459"}}]}