{"type": "FeatureCollection", "name": "TrackSet", "crs": {"type": "name", "properties": {"name": "urn:ogc:def:crs:OGC:1.3:CRS84"}}, "bbox": [7.627827, 46.74445, 7.638498, 46.760257], "features": [{"type": "Feature", "bbox": [7.627827, 46.74445, 7.638498, 46.760257], "geometry": {"type": "LineString", "coordinates": [[7.630081, 46.754491], [7.630128, 46.754468], [7.630121, 46.754442], [7.630279, 46.754511], [7.63036, 46.754616], [7.630304, 46.75463], [7.63051, 46.754751], [7.630456, 46.754742], [7.630431, 46.754804], [7.630358, 46.754859], [7.630404, 46.7549], [7.63034, 46.754953], [7.630325, 46.755161], [7.630009, 46.75545], [7.629953, 46.755585], [7.629815, 46.755625], [7.629709, 46.755738], [7.629658, 46.755752], [7.629742, 46.755894], [7.629755, 46.756009], [7.629812, 46.75603], [7.629973, 46.756013], [7.630088, 46.756026], [7.630093, 46.756048], [7.630202, 46.756067], [7.630056, 46.756075], [7.630021, 46.756114], [7.630019, 46.756312], [7.630093, 46.75641], [7.630107, 46.75648], [7.630188, 46.75656], [7.63021, 46.756555], [7.630163, 46.756553], [7.63015, 46.75658], [7.630197, 46.756631], [7.630182, 46.756709], [7.630276, 46.756833], [7.630253, 46.756844], [7.630337, 46.756894], [7.630363, 46.756956], [7.630496, 46.756964], [7.630548, 46.757002], [7.630509, 46.757015], [7.630559, 46.756997], [7.63061, 46.757034], [7.630633, 46.757023], [7.630611, 46.757037], [7.630627, 46.757025], [7.630639, 46.757053], [7.630844, 46.757141], [7.631091, 46.757185], [7.631118, 46.757153], [7.631107, 46.757204], [7.631165, 46.757177], [7.631214, 46.757238], [7.631257, 46.757254], [7.631286, 46.757236], [7.631154, 46.757244], [7.631194, 46.757228], [7.631165, 46.757254], [7.631199, 46.75733], [7.631172, 46.757368], [7.630895, 46.757583], [7.631037, 46.757569], [7.631048, 46.757588], [7.631002, 46.757638], [7.630919, 46.757671], [7.630963, 46.757787], [7.630989, 46.757772], [7.630999, 46.75787], [7.630858, 46.757766], [7.630854, 46.757858], [7.630879, 46.757829], [7.630845, 46.757789], [7.63085, 46.757696], [7.630893, 46.75766], [7.630866, 46.757641], [7.630843, 46.75768], [7.630748, 46.757664], [7.630544, 46.757733], [7.630523, 46.757702], [7.630456, 46.757746], [7.63039, 46.75773], [7.630386, 46.757765], [7.630379, 46.757732], [7.630291, 46.757742], [7.630247, 46.757783], [7.630127, 46.7577], [7.630137, 46.757778], [7.630161, 46.757775], [7.630129, 46.757774], [7.63013, 46.757823], [7.630077, 46.757813], [7.630069, 46.757848], [7.630143, 46.757819], [7.630054, 46.757841], [7.630077, 46.757892], [7.630102, 46.757883], [7.63008, 46.757912], [7.630065, 46.757886], [7.630025, 46.757901], [7.630085, 46.757911], [7.63004, 46.757896], [7.630065, 46.757886], [7.630069, 46.757902], [7.630056, 46.757867], [7.63009, 46.757883], [7.630032, 46.757876], [7.630062, 46.757894], [7.630041, 46.757893], [7.630067, 46.757854], [7.630042, 46.757848], [7.630108, 46.758059], [7.630065, 46.758024], [7.63008, 46.758003], [7.63007, 46.758069], [7.62993, 46.758125], [7.629841, 46.758231], [7.629779, 46.758222], [7.629797, 46.75824], [7.62977, 46.758267], [7.62982, 46.758256], [7.629767, 46.758262], [7.629772, 46.758278], [7.629818, 46.758282], [7.629781, 46.758269], [7.629738, 46.758288], [7.629648, 46.758382], [7.62961, 46.758366], [7.629658, 46.758478], [7.629634, 46.758556], [7.62941, 46.75864], [7.629297, 46.75871], [7.62923, 46.758706], [7.629143, 46.758811], [7.629036, 46.758884], [7.629012, 46.758874], [7.629105, 46.758935], [7.629171, 46.759054], [7.62919, 46.759026], [7.629157, 46.759073], [7.629263, 46.759105], [7.629282, 46.759139], [7.629224, 46.759145], [7.629283, 46.759175], [7.629295, 46.759159], [7.629308, 46.759227], [7.629212, 46.759215], [7.629177, 46.759245], [7.629122, 46.759222], [7.629077, 46.759236], [7.629068, 46.759303], [7.628967, 46.759313], [7.629004, 46.75936], [7.628992, 46.759399], [7.628939, 46.759396], [7.628965, 46.759353], [7.62891, 46.759359], [7.628835, 46.759463], [7.628794, 46.759441], [7.628777, 46.759456], [7.628736, 46.759416], [7.628707, 46.759426], [7.628627, 46.759502], [7.628638, 46.759485], [7.628669, 46.759516], [7.628668, 46.759719], [7.628707, 46.759732], [7.628727, 46.759793], [7.628744, 46.75977], [7.628801, 46.759793], [7.628937, 46.759781], [7.62897, 46.759799], [7.628945, 46.759865], [7.628934, 46.759833], [7.628955, 46.759843], [7.628881, 46.759875], [7.628954, 46.759936], [7.628992, 46.759894], [7.628953, 46.75988], [7.628987, 46.75989], [7.628986, 46.759873], [7.628931, 46.759823], [7.629068, 46.759822], [7.629108, 46.759763], [7.629094, 46.759726], [7.629136, 46.7597], [7.6291, 46.759653], [7.629125, 46.759676], [7.629178, 46.759659], [7.629252, 46.759703], [7.629245, 46.759777], [7.62928, 46.759764], [7.629254, 46.759735], [7.629283, 46.759788], [7.629302, 46.75976], [7.629314, 46.759803], [7.629339, 46.75979], [7.629286, 46.759807], [7.629418, 46.759848], [7.629431, 46.760049], [7.629396, 46.76005], [7.629408, 46.760004], [7.6294, 46.760022], [7.629371, 46.760009], [7.629436, 46.760123], [7.629518, 46.760151], [7.62952, 46.760108], [7.629579, 46.760074], [7.629493, 46.760032], [7.629618, 46.760014], [7.629592, 46.759927], [7.629617, 46.759872], [7.629681, 46.759856], [7.629689, 46.759811], [7.629756, 46.759751], [7.630012, 46.759666], [7.630041, 46.759621], [7.630049, 46.759652], [7.630071, 46.759626], [7.630071, 46.759646], [7.630033, 46.759705], [7.630061, 46.759652], [7.630094, 46.759636], [7.630098, 46.759653], [7.63005, 46.759715], [7.630061, 46.759693], [7.630078, 46.759705], [7.630067, 46.759739], [7.630237, 46.759781], [7.630287, 46.759756], [7.630326, 46.759808], [7.630309, 46.759752], [7.630319, 46.759809], [7.630338, 46.759774], [7.63029, 46.759792], [7.630191, 46.759769], [7.630176, 46.759796], [7.630116, 46.759782], [7.630112, 46.759804], [7.630326, 46.75974], [7.630079, 46.759681], [7.630056, 46.759692], [7.63014, 46.759771], [7.630009, 46.759738], [7.630006, 46.759902], [7.630038, 46.759894], [7.630037, 46.759851], [7.629997, 46.759876], [7.629958, 46.759851], [7.629941, 46.759871], [7.629933, 46.759779], [7.629989, 46.759973], [7.630038, 46.760004], [7.630101, 46.759996], [7.630077, 46.759981], [7.630141, 46.759884], [7.630091, 46.759849], [7.630043, 46.759903], [7.629846, 46.759924], [7.629931, 46.759998], [7.629975, 46.760095], [7.629667, 46.759979], [7.629566, 46.760049], [7.6296, 46.760066], [7.629681, 46.760023], [7.629759, 46.760031], [7.629649, 46.760134], [7.629637, 46.760166], [7.629651, 46.760184], [7.629672, 46.760155], [7.629645, 46.760162], [7.629665, 46.760178], [7.629589, 46.760161], [7.629672, 46.760257], [7.629617, 46.760163], [7.629463, 46.760141], [7.629452, 46.760118], [7.629476, 46.76007], [7.629424, 46.759886], [7.629508, 46.75983], [7.629521, 46.759737], [7.62957, 46.759685], [7.629655, 46.75967], [7.629947, 46.759455], [7.629942, 46.759422], [7.630071, 46.75937], [7.630218, 46.759253], [7.630303, 46.759136], [7.630398, 46.759111], [7.630437, 46.759067], [7.630538, 46.759067], [7.630525, 46.759039], [7.630575, 46.759032], [7.630657, 46.758888], [7.630739, 46.758896], [7.630807, 46.75886], [7.630816, 46.758825], [7.630776, 46.758794], [7.630919, 46.758681], [7.630975, 46.758481], [7.631015, 46.758445], [7.631134, 46.758442], [7.631381, 46.758519], [7.631439, 46.758493], [7.631566, 46.758522], [7.631613, 46.758475], [7.631803, 46.75849], [7.631886, 46.758533], [7.631841, 46.758554], [7.631859, 46.758538], [7.631837, 46.75855], [7.631825, 46.758525], [7.631871, 46.75852], [7.63183, 46.758585], [7.631858, 46.758628], [7.631798, 46.758455], [7.631782, 46.758503], [7.631692, 46.758495], [7.631593, 46.75852], [7.631523, 46.75854], [7.631489, 46.758578], [7.631402, 46.758585], [7.63136, 46.758626], [7.631248, 46.758639], [7.631237, 46.758704], [7.631197, 46.758708], [7.63113, 46.758779], [7.631125, 46.758863], [7.631073, 46.758924], [7.631054, 46.759163], [7.63099, 46.759243], [7.630794, 46.759371], [7.630778, 46.759411], [7.630725, 46.75942], [7.630622, 46.759541], [7.630568, 46.759518], [7.63057, 46.759582], [7.630504, 46.759658], [7.630379, 46.759706], [7.630252, 46.75972], [7.63019, 46.759765], [7.630149, 46.759722], [7.630082, 46.759717], [7.630055, 46.759643], [7.630001, 46.759646], [7.629963, 46.759605], [7.629946, 46.759617], [7.629942, 46.759585], [7.629892, 46.759587], [7.629816, 46.759548], [7.629743, 46.759577], [7.629722, 46.759632], [7.629646, 46.759629], [7.629529, 46.759732], [7.629531, 46.759782], [7.629446, 46.759784], [7.629425, 46.759859], [7.629375, 46.759845], [7.629316, 46.759877], [7.62931, 46.75981], [7.629236, 46.759821], [7.629234, 46.759783], [7.629224, 46.759808], [7.629278, 46.759789], [7.629214, 46.759809], [7.629169, 46.75976], [7.629175, 46.759707], [7.629127, 46.759707], [7.629117, 46.759679], [7.629075, 46.759707], [7.629113, 46.759669], [7.628916, 46.75953], [7.628929, 46.759643], [7.628918, 46.759605], [7.628899, 46.759638], [7.628842, 46.759797], [7.628866, 46.759785], [7.628886, 46.759818], [7.629178, 46.759757], [7.629257, 46.759951], [7.629272, 46.759882], [7.629339, 46.75985], [7.629186, 46.759804], [7.629081, 46.759691], [7.629128, 46.759681], [7.629163, 46.759703], [7.629107, 46.75966], [7.628996, 46.759783], [7.628866, 46.759831], [7.628893, 46.759832], [7.628869, 46.75985], [7.628894, 46.75985], [7.628904, 46.759766], [7.628807, 46.759759], [7.628786, 46.759718], [7.628795, 46.759741], [7.628663, 46.759758], [7.628528, 46.759667], [7.628447, 46.759658], [7.628392, 46.759689], [7.628223, 46.75963], [7.628143, 46.759619], [7.628099, 46.759637], [7.628051, 46.759582], [7.628001, 46.759599], [7.627933, 46.759525], [7.627869, 46.759506], [7.627827, 46.759531], [7.627909, 46.759436], [7.627993, 46.759403], [7.628103, 46.759292], [7.628217, 46.759277], [7.628318, 46.759305], [7.628359, 46.75928], [7.628448, 46.759288], [7.628496, 46.759238], [7.628464, 46.759148], [7.628673, 46.759003], [7.628794, 46.758952], [7.62893, 46.758941], [7.629019, 46.758869], [7.629103, 46.758874], [7.629139, 46.758829], [7.62931, 46.758762], [7.629508, 46.75873], [7.629753, 46.758595], [7.629759, 46.758485], [7.629441, 46.758158], [7.629442, 46.758087], [7.629253, 46.757941], [7.629176, 46.757723], [7.629101, 46.757608], [7.629024, 46.75756], [7.629082, 46.757557], [7.629087, 46.75751], [7.629212, 46.75744], [7.629343, 46.757451], [7.629381, 46.757422], [7.629421, 46.757447], [7.629507, 46.757411], [7.629744, 46.757394], [7.629763, 46.757366], [7.62983, 46.75735], [7.629868, 46.757362], [7.629918, 46.757251], [7.629982, 46.757255], [7.630017, 46.757222], [7.630067, 46.757242], [7.630048, 46.757179], [7.630067, 46.757195], [7.630104, 46.757176], [7.630192, 46.757184], [7.630193, 46.757101], [7.630265, 46.756958], [7.630262, 46.756876], [7.630244, 46.75685], [7.630142, 46.756834], [7.630078, 46.756749], [7.630062, 46.75666], [7.630015, 46.756621], [7.630098, 46.756614], [7.630192, 46.756545], [7.630194, 46.756426], [7.630137, 46.756374], [7.629922, 46.756321], [7.629858, 46.756249], [7.629921, 46.756199], [7.629874, 46.756183], [7.629994, 46.756182], [7.630052, 46.756089], [7.629828, 46.75598], [7.629804, 46.755904], [7.629758, 46.755887], [7.629774, 46.755854], [7.629707, 46.755817], [7.629733, 46.755745], [7.629683, 46.755679], [7.629722, 46.755658], [7.629676, 46.755594], [7.629722, 46.755553], [7.629801, 46.755554], [7.629828, 46.755534], [7.62991, 46.755551], [7.630056, 46.755479], [7.630294, 46.75531], [7.630382, 46.755276], [7.630499, 46.755148], [7.630645, 46.755081], [7.630649, 46.755058], [7.63055, 46.754976], [7.630565, 46.754957], [7.630572, 46.75501], [7.630513, 46.755007], [7.630629, 46.755055], [7.630523, 46.754929], [7.630504, 46.755074], [7.630587, 46.755096], [7.63048, 46.754997], [7.63062, 46.754853], [7.630668, 46.754711], [7.630758, 46.754593], [7.630873, 46.754572], [7.630839, 46.754543], [7.630902, 46.754541], [7.630892, 46.75451], [7.630931, 46.75452], [7.630936, 46.75447], [7.631059, 46.754398], [7.631224, 46.754236], [7.631348, 46.754169], [7.631724, 46.753822], [7.631931, 46.753712], [7.631957, 46.753641], [7.632058, 46.753564], [7.632059, 46.753532], [7.632108, 46.753513], [7.632177, 46.753411], [7.632307, 46.753317], [7.63239, 46.753206], [7.632393, 46.753152], [7.632575, 46.752994], [7.632626, 46.752893], [7.632715, 46.752841], [7.632792, 46.752763], [7.632782, 46.752743], [7.632841, 46.752726], [7.632939, 46.752552], [7.632945, 46.752481], [7.633047, 46.752415], [7.633041, 46.75239], [7.633122, 46.752353], [7.633314, 46.752143], [7.633322, 46.752076], [7.633452, 46.751962], [7.633541, 46.751833], [7.633603, 46.751804], [7.633712, 46.751588], [7.633971, 46.751221], [7.634003, 46.751118], [7.634094, 46.751048], [7.634298, 46.750781], [7.63444, 46.750667], [7.634595, 46.750484], [7.634632, 46.75038], [7.634853, 46.750079], [7.634869, 46.749836], [7.635089, 46.74945], [7.635238, 46.749253], [7.635363, 46.748959], [7.635297, 46.748915], [7.63481, 46.748768], [7.63472, 46.748778], [7.634316, 46.748648], [7.634297, 46.748621], [7.634465, 46.748394], [7.634444, 46.748388], [7.634617, 46.748249], [7.634725, 46.748115], [7.634809, 46.74808], [7.634921, 46.747966], [7.635094, 46.747861], [7.635131, 46.747785], [7.635226, 46.747763], [7.635382, 46.747641], [7.635599, 46.74755], [7.635678, 46.747399], [7.635742, 46.747358], [7.635814, 46.747351], [7.635859, 46.747283], [7.635943, 46.74726], [7.636172, 46.74711], [7.636256, 46.747114], [7.636308, 46.747082], [7.636369, 46.747101], [7.636362, 46.747046], [7.636399, 46.747011], [7.636609, 46.746883], [7.636776, 46.746885], [7.63686, 46.746842], [7.637006, 46.746847], [7.637175, 46.746656], [7.637202, 46.74659], [7.637167, 46.746568], [7.637197, 46.746558], [7.637148, 46.746572], [7.637181, 46.746567], [7.63718, 46.746526], [7.637234, 46.746489], [7.63719, 46.74646], [7.637242, 46.746459], [7.637367, 46.746293], [7.637438, 46.746297], [7.637712, 46.746165], [7.637707, 46.746089], [7.637765, 46.74609], [7.637725, 46.746087], [7.637764, 46.74611], [7.637866, 46.74605], [7.638225, 46.745994], [7.638315, 46.74608], [7.638282, 46.746229], [7.638339, 46.74628], [7.638409, 46.746296], [7.638306, 46.746209], [7.638324, 46.746165], [7.638295, 46.746197], [7.638199, 46.746148], [7.638269, 46.746163], [7.638241, 46.746183], [7.638243, 46.746163], [7.638286, 46.746187], [7.638284, 46.746165], [7.638235, 46.746161], [7.638296, 46.746184], [7.63825, 46.746172], [7.638241, 46.746187], [7.638222, 46.746169], [7.63833, 46.746198], [7.638238, 46.746148], [7.638217, 46.746173], [7.638268, 46.746182], [7.638241, 46.746153], [7.638299, 46.746167], [7.638219, 46.746145], [7.638292, 46.746205], [7.638279, 46.746158], [7.638318, 46.746173], [7.638383, 46.746094], [7.638073, 46.745816], [7.637891, 46.745734], [7.637645, 46.745572], [7.637472, 46.745507], [7.637282, 46.745353], [7.63699, 46.745201], [7.636987, 46.745148], [7.636869, 46.745101], [7.636821, 46.745055], [7.636776, 46.745057], [7.636748, 46.744993], [7.636636, 46.744985], [7.636525, 46.744946], [7.636459, 46.744891], [7.636293, 46.744882], [7.636166, 46.744815], [7.636072, 46.744817], [7.635924, 46.744888], [7.63578, 46.745088], [7.635626, 46.745132], [7.635572, 46.745182], [7.635463, 46.745205], [7.635328, 46.745172], [7.635314, 46.745131], [7.635189, 46.745149], [7.635112, 46.745109], [7.635054, 46.745114], [7.634871, 46.745004], [7.634707, 46.744955], [7.63447, 46.744781], [7.634436, 46.744719], [7.634374, 46.744708], [7.634278, 46.744641], [7.634161, 46.744509], [7.633943, 46.74447], [7.63387, 46.744483], [7.633796, 46.74455], [7.633635, 46.744617], [7.633649, 46.744671], [7.633581, 46.744682], [7.633607, 46.74465], [7.633579, 46.744606], [7.633557, 46.744642], [7.633516, 46.74461], [7.633562, 46.744634], [7.633547, 46.744653], [7.63345, 46.744713], [7.633407, 46.744714], [7.633401, 46.744744], [7.633329, 46.74476], [7.633342, 46.744797], [7.6333, 46.744828], [7.633182, 46.744861], [7.633112, 46.744939], [7.633048, 46.744928], [7.633042, 46.745007], [7.632946, 46.745102], [7.632939, 46.745139], [7.632993, 46.74516], [7.633047, 46.74508], [7.63316, 46.745005], [7.633251, 46.744982], [7.633307, 46.744882], [7.633385, 46.744869], [7.63341, 46.744824], [7.633486, 46.74479], [7.633568, 46.744791], [7.633661, 46.744758], [7.633694, 46.744685], [7.63383, 46.744587], [7.633886, 46.74445], [7.634015, 46.744508], [7.634034, 46.744487], [7.634131, 46.744504], [7.63414, 46.744585], [7.634291, 46.74476], [7.634617, 46.744992], [7.634773, 46.745048], [7.634733, 46.74505], [7.634703, 46.745173], [7.634543, 46.745199], [7.63454, 46.745241], [7.634379, 46.745264], [7.634272, 46.745322], [7.634292, 46.745385], [7.634369, 46.745441], [7.634398, 46.745431], [7.634477, 46.745503], [7.634484, 46.745485], [7.634581, 46.745508], [7.634827, 46.745704], [7.635002, 46.745779], [7.635002, 46.745837], [7.635085, 46.745927], [7.635073, 46.745959], [7.635459, 46.746242], [7.63556, 46.746278], [7.635646, 46.74635], [7.635796, 46.746406], [7.635882, 46.746471], [7.636113, 46.746542], [7.636258, 46.74669], [7.636397, 46.746778], [7.63638, 46.746901], [7.63654, 46.747067], [7.636654, 46.747132], [7.636684, 46.747121], [7.636806, 46.74718], [7.636909, 46.747193], [7.636939, 46.747248], [7.636993, 46.747301], [7.637046, 46.747309], [7.637063, 46.747345], [7.637113, 46.74734], [7.637242, 46.747195], [7.637307, 46.747191], [7.637441, 46.747124], [7.637455, 46.747093], [7.637503, 46.747083], [7.637501, 46.747111], [7.637545, 46.747117], [7.637437, 46.747093], [7.637518, 46.74709], [7.637464, 46.747063], [7.637431, 46.747076], [7.637439, 46.747115], [7.637484, 46.747088], [7.63751, 46.747123], [7.637456, 46.747074], [7.637462, 46.747138], [7.63746, 46.74709], [7.637419, 46.747063], [7.637428, 46.747104], [7.637405, 46.747092], [7.637437, 46.747113], [7.637358, 46.747128], [7.637395, 46.747087], [7.637407, 46.747134], [7.637429, 46.747092], [7.637398, 46.747143], [7.637426, 46.74709], [7.637443, 46.74711], [7.637392, 46.747093], [7.637435, 46.747104], [7.637407, 46.747084], [7.637452, 46.747041], [7.637489, 46.747079], [7.637443, 46.747084], [7.63743, 46.747113], [7.637483, 46.747062], [7.637495, 46.747079], [7.637436, 46.747062], [7.637447, 46.747094], [7.637399, 46.747115], [7.637458, 46.747108], [7.637385, 46.747134], [7.637378, 46.747111], [7.637421, 46.747084], [7.637445, 46.747096], [7.637411, 46.747095], [7.637441, 46.747135], [7.637427, 46.747124], [7.637412, 46.747149], [7.637454, 46.747132], [7.637465, 46.747094], [7.637416, 46.747122], [7.637417, 46.747152], [7.637418, 46.74708], [7.63739, 46.747076], [7.637464, 46.747123], [7.637397, 46.74713], [7.637389, 46.747087], [7.637412, 46.747104], [7.637699, 46.746972], [7.637811, 46.746898], [7.637862, 46.746813], [7.637998, 46.746738], [7.638042, 46.746671], [7.638125, 46.746621], [7.638312, 46.74638], [7.638333, 46.746311], [7.638393, 46.746285], [7.638346, 46.746203], [7.638357, 46.746119], [7.638419, 46.746122], [7.63843, 46.746174], [7.638462, 46.746211], [7.638483, 46.746204], [7.638405, 46.746235], [7.638498, 46.746187], [7.638422, 46.746178], [7.638432, 46.746075], [7.638351, 46.746032], [7.638338, 46.746056], [7.638341, 46.746029], [7.638361, 46.746043], [7.638333, 46.746037], [7.638323, 46.746069], [7.638353, 46.746054], [7.638209, 46.745941], [7.638105, 46.745955], [7.638018, 46.746007], [7.637919, 46.746012], [7.637662, 46.746079], [7.637551, 46.746056], [7.637422, 46.746085], [7.637444, 46.746058], [7.637379, 46.746036], [7.637296, 46.746111], [7.63735, 46.746024], [7.637308, 46.74602], [7.637285, 46.746045], [7.637325, 46.745956]]}, "properties": {"name": "1791192225.Thun_with_L", "cmt": "2026-10-05", "tstamp": 1791158400, "desc": "---", "src": "7.627827/46.74445/7.638498/46.760257", "bbox": "7.627827/46.74445/7.638498/46.760257"}}]}