{"type": "FeatureCollection", "name": "TrackSet", "crs": {"type": "name", "properties": {"name": "urn:ogc:def:crs:OGC:1.3:CRS84"}}, "bbox": [6.141472, 46.198539, 6.155377, 46.210438], "features": [{"type": "Feature", "bbox": [6.141472, 46.198539, 6.155377, 46.210438], "geometry": {"type": "LineString", "coordinates": [[6.143542, 46.209205], [6.143598, 46.209117], [6.143977, 46.208936], [6.144133, 46.208802], [6.144464, 46.208607], [6.144557, 46.20852], [6.144868, 46.208323], [6.145105, 46.208298], [6.14514, 46.20824], [6.145222, 46.20821], [6.145258, 46.208169], [6.145314, 46.208173], [6.145312, 46.20808], [6.145379, 46.207958], [6.145604, 46.207811], [6.145602, 46.207641], [6.145803, 46.207439], [6.145862, 46.207272], [6.146072, 46.207187], [6.146364, 46.206901], [6.146473, 46.206887], [6.146495, 46.206863], [6.146727, 46.20627], [6.146791, 46.20615], [6.146892, 46.206071], [6.146991, 46.205879], [6.14698, 46.205786], [6.146847, 46.205574], [6.146843, 46.205507], [6.14672, 46.205334], [6.146604, 46.204885], [6.146654, 46.20475], [6.146834, 46.204574], [6.146775, 46.204429], [6.146807, 46.204335], [6.146903, 46.204311], [6.147203, 46.204317], [6.147607, 46.204253], [6.147699, 46.204211], [6.14789, 46.204198], [6.148164, 46.204121], [6.148224, 46.204067], [6.148221, 46.204026], [6.14812, 46.203926], [6.147954, 46.203565], [6.14792, 46.203391], [6.147814, 46.203264], [6.147678, 46.203176], [6.147621, 46.203067], [6.147641, 46.203039], [6.147904, 46.202967], [6.148112, 46.202997], [6.148219, 46.20294], [6.148391, 46.2029], [6.148566, 46.20279], [6.148649, 46.202796], [6.148808, 46.202685], [6.149057, 46.202619], [6.149287, 46.202676], [6.149469, 46.202613], [6.149849, 46.202599], [6.15002, 46.202516], [6.150135, 46.202498], [6.150175, 46.202522], [6.150174, 46.202477], [6.150297, 46.202631], [6.150319, 46.202413], [6.150437, 46.202338], [6.150607, 46.202309], [6.150643, 46.202326], [6.150672, 46.202306], [6.15062, 46.202321], [6.150565, 46.202304], [6.150357, 46.202464], [6.150384, 46.20242], [6.150563, 46.202359], [6.150633, 46.202304], [6.150982, 46.202207], [6.15104, 46.202146], [6.151139, 46.202167], [6.151453, 46.202046], [6.151471, 46.202078], [6.151571, 46.202032], [6.151691, 46.202016], [6.151719, 46.202101], [6.1519, 46.202072], [6.152045, 46.201874], [6.152241, 46.201798], [6.152217, 46.201771], [6.152243, 46.201778], [6.152259, 46.201746], [6.152308, 46.201748], [6.152313, 46.201826], [6.152262, 46.201917], [6.152591, 46.20167], [6.152652, 46.201676], [6.152841, 46.201578], [6.152847, 46.201529], [6.152992, 46.201432], [6.153068, 46.201324], [6.153216, 46.201254], [6.153509, 46.201233], [6.153749, 46.201318], [6.153839, 46.201402], [6.153884, 46.201407], [6.154073, 46.20137], [6.154326, 46.201356], [6.154411, 46.201286], [6.154421, 46.201246], [6.154473, 46.201283], [6.154563, 46.201298], [6.155079, 46.201181], [6.155154, 46.201188], [6.155228, 46.201171], [6.155358, 46.201088], [6.15532, 46.201027], [6.15532, 46.200928], [6.155377, 46.200838], [6.155332, 46.200415], [6.155244, 46.200333], [6.155215, 46.200182], [6.155157, 46.200135], [6.155072, 46.199986], [6.154959, 46.199888], [6.154815, 46.19946], [6.154837, 46.199399], [6.154794, 46.199382], [6.154699, 46.199429], [6.154625, 46.19938], [6.154657, 46.199269], [6.1546, 46.19923], [6.154411, 46.199281], [6.154269, 46.199222], [6.154101, 46.19919], [6.154081, 46.199171], [6.154126, 46.199161], [6.154107, 46.199149], [6.154049, 46.199155], [6.153967, 46.199097], [6.153687, 46.199002], [6.15342, 46.198687], [6.153292, 46.198602], [6.15312, 46.198577], [6.15308, 46.198548], [6.152939, 46.198539], [6.152824, 46.198596], [6.152491, 46.198853], [6.152377, 46.198901], [6.152294, 46.199003], [6.151922, 46.199271], [6.151618, 46.199352], [6.151491, 46.199453], [6.151315, 46.199657], [6.151186, 46.199751], [6.150885, 46.199928], [6.150469, 46.200109], [6.150205, 46.200151], [6.149954, 46.200222], [6.149771, 46.2002], [6.149746, 46.200216], [6.149708, 46.200179], [6.149365, 46.200203], [6.149195, 46.200334], [6.149082, 46.200309], [6.149057, 46.200335], [6.149019, 46.20032], [6.148997, 46.200345], [6.149069, 46.200334], [6.149015, 46.200332], [6.149045, 46.200351], [6.149012, 46.200338], [6.148977, 46.200378], [6.149024, 46.200301], [6.149009, 46.200368], [6.149043, 46.200377], [6.149017, 46.200316], [6.148983, 46.200316], [6.149038, 46.200318], [6.149004, 46.200301], [6.149154, 46.200297], [6.149103, 46.200337], [6.14911, 46.200404], [6.149178, 46.200447], [6.149159, 46.200531], [6.149271, 46.200566], [6.149195, 46.2007], [6.149239, 46.200714], [6.149209, 46.200769], [6.149275, 46.200836], [6.149334, 46.200851], [6.149317, 46.200873], [6.149361, 46.200889], [6.14955, 46.200902], [6.149608, 46.200926], [6.14978, 46.201089], [6.149785, 46.201071], [6.149798, 46.201102], [6.149817, 46.20109], [6.149814, 46.201169], [6.149847, 46.201175], [6.149872, 46.201148], [6.150066, 46.201299], [6.150099, 46.201399], [6.150127, 46.201389], [6.150185, 46.201414], [6.150186, 46.201487], [6.150327, 46.20149], [6.150445, 46.201575], [6.150452, 46.201635], [6.15051, 46.201697], [6.150621, 46.201704], [6.150665, 46.201764], [6.150829, 46.201779], [6.150922, 46.201941], [6.150956, 46.201934], [6.15101, 46.202071], [6.150949, 46.202017], [6.150956, 46.201907], [6.150849, 46.201789], [6.150809, 46.201773], [6.150587, 46.201785], [6.150104, 46.201918], [6.14994, 46.202046], [6.149742, 46.202099], [6.149616, 46.202165], [6.14959, 46.202204], [6.149587, 46.202178], [6.149513, 46.202216], [6.149476, 46.202203], [6.149346, 46.202223], [6.149337, 46.202206], [6.1493, 46.202234], [6.149309, 46.202284], [6.149247, 46.202316], [6.149153, 46.202302], [6.149076, 46.202333], [6.149044, 46.202311], [6.1489, 46.202321], [6.148729, 46.2024], [6.148613, 46.202499], [6.148576, 46.202482], [6.148519, 46.202498], [6.148478, 46.202484], [6.148282, 46.202258], [6.14821, 46.202254], [6.148151, 46.20221], [6.148121, 46.202114], [6.148046, 46.202028], [6.148014, 46.202059], [6.147928, 46.202005], [6.147915, 46.201954], [6.147851, 46.201968], [6.147866, 46.20192], [6.147979, 46.201839], [6.148101, 46.201657], [6.147999, 46.201752], [6.14795, 46.201749], [6.147951, 46.201688], [6.147914, 46.201665], [6.147806, 46.201694], [6.147609, 46.201393], [6.14761, 46.201366], [6.147685, 46.20137], [6.147754, 46.201395], [6.147784, 46.201441], [6.147823, 46.201417], [6.147789, 46.201423], [6.147834, 46.201446], [6.147801, 46.201575], [6.147836, 46.201615], [6.147887, 46.201626], [6.14808, 46.201627], [6.14814, 46.201661], [6.148249, 46.201678], [6.148368, 46.201645], [6.148525, 46.201677], [6.148624, 46.201631], [6.148775, 46.201683], [6.149024, 46.201712], [6.149136, 46.201701], [6.149128, 46.201649], [6.149077, 46.201651], [6.149163, 46.201682], [6.149151, 46.201642], [6.14922, 46.20189], [6.149207, 46.201851], [6.149161, 46.201842], [6.149163, 46.201866], [6.149069, 46.201913], [6.14901, 46.201878], [6.148994, 46.201921], [6.149045, 46.201944], [6.149091, 46.202011], [6.149185, 46.20203], [6.149483, 46.20188], [6.149556, 46.20179], [6.149758, 46.201702], [6.149739, 46.201627], [6.14971, 46.201626], [6.14974, 46.201503], [6.149692, 46.201376], [6.149526, 46.201243], [6.149451, 46.201249], [6.149518, 46.201223], [6.149526, 46.20125], [6.149516, 46.201203], [6.149519, 46.201227], [6.14955, 46.201226], [6.14952, 46.201356], [6.149571, 46.201319], [6.149606, 46.201327], [6.149673, 46.201257], [6.1497, 46.201273], [6.1497, 46.201317], [6.149672, 46.201313], [6.149728, 46.201608], [6.149778, 46.201666], [6.149647, 46.201767], [6.149636, 46.201808], [6.149463, 46.201834], [6.149344, 46.20195], [6.14931, 46.201887], [6.149244, 46.201921], [6.14921, 46.2019], [6.149157, 46.201955], [6.149121, 46.201941], [6.149121, 46.20197], [6.14915, 46.201951], [6.149236, 46.201959], [6.149172, 46.202012], [6.149183, 46.201979], [6.149146, 46.202016], [6.149083, 46.202028], [6.148996, 46.202127], [6.148857, 46.202169], [6.148833, 46.202193], [6.148866, 46.202222], [6.148807, 46.202212], [6.148763, 46.202287], [6.148672, 46.202278], [6.14864, 46.202339], [6.148609, 46.202321], [6.148539, 46.202457], [6.148514, 46.202432], [6.148407, 46.20244], [6.148352, 46.202388], [6.148236, 46.202423], [6.148155, 46.202483], [6.148075, 46.20247], [6.149982, 46.203626], [6.14996, 46.203625], [6.149906, 46.203749], [6.149681, 46.203797], [6.149599, 46.203786], [6.149521, 46.203768], [6.149467, 46.203654], [6.149436, 46.203689], [6.14921, 46.203724], [6.149067, 46.203807], [6.148682, 46.20392], [6.148592, 46.203967], [6.148548, 46.204027], [6.148434, 46.204027], [6.148086, 46.204122], [6.148045, 46.20417], [6.148119, 46.204304], [6.147874, 46.204337], [6.147548, 46.204452], [6.147401, 46.204541], [6.147377, 46.204654], [6.147281, 46.20473], [6.146659, 46.204924], [6.146638, 46.205169], [6.146698, 46.205206], [6.14683, 46.205435], [6.146956, 46.205892], [6.146579, 46.206633], [6.146506, 46.206836], [6.146221, 46.207043], [6.14624, 46.207061], [6.146204, 46.207124], [6.146123, 46.207212], [6.146092, 46.207206], [6.146099, 46.20729], [6.146028, 46.207359], [6.145868, 46.207223], [6.145918, 46.207256], [6.145861, 46.207487], [6.14578, 46.207506], [6.145768, 46.207537], [6.145662, 46.207528], [6.145578, 46.207551], [6.145562, 46.20762], [6.145632, 46.207759], [6.145455, 46.207853], [6.145302, 46.207901], [6.145264, 46.207884], [6.145277, 46.207997], [6.145225, 46.207997], [6.14524, 46.208044], [6.145196, 46.208113], [6.145, 46.208286], [6.144889, 46.208334], [6.144856, 46.208431], [6.144764, 46.208457], [6.144728, 46.208495], [6.144483, 46.208557], [6.144363, 46.208637], [6.144059, 46.208731], [6.143894, 46.20881], [6.143767, 46.208926], [6.143576, 46.209013], [6.143506, 46.209057], [6.143501, 46.209091], [6.141472, 46.210336], [6.141804, 46.210438], [6.141874, 46.2104], [6.142007, 46.210407], [6.141964, 46.21033], [6.141941, 46.210363], [6.141865, 46.210317], [6.141874, 46.210359]]}, "properties": {"name": "1791534187.Geneva_wander", "cmt": "2026-10-09", "tstamp": 1791504000, "desc": "---", "src": "6.141472/46.198539/6.155377/46.210438", "bbox": "6.141472/46.198539/6.155377/46.210438"}}]}