{"type": "FeatureCollection", "name": "TrackSet", "crs": {"type": "name", "properties": {"name": "urn:ogc:def:crs:OGC:1.3:CRS84"}}, "bbox": [7.143798, 46.067147, 7.212059, 46.079641], "features": [{"type": "Feature", "bbox": [7.143798, 46.067147, 7.212059, 46.079641], "geometry": {"type": "LineString", "coordinates": [[7.212059, 46.079637], [7.211779, 46.079589], [7.211675, 46.079521], [7.211611, 46.079535], [7.211585, 46.079468], [7.211441, 46.079441], [7.21141, 46.079246], [7.211475, 46.079169], [7.211428, 46.07914], [7.211419, 46.079171], [7.211383, 46.079086], [7.211337, 46.079078], [7.211359, 46.079052], [7.21131, 46.079035], [7.211195, 46.078919], [7.211192, 46.078763], [7.211127, 46.0786], [7.211142, 46.078548], [7.211026, 46.078293], [7.211078, 46.078287], [7.211076, 46.078267], [7.211021, 46.078268], [7.211005, 46.078248], [7.211023, 46.078204], [7.210952, 46.078008], [7.210923, 46.07774], [7.210845, 46.077576], [7.210729, 46.077519], [7.209883, 46.077418], [7.209797, 46.077355], [7.209825, 46.077296], [7.2098, 46.077224], [7.209858, 46.07683], [7.209892, 46.076784], [7.209847, 46.076589], [7.209971, 46.076199], [7.209965, 46.076079], [7.210003, 46.076057], [7.210025, 46.075855], [7.210182, 46.075595], [7.210193, 46.075453], [7.210253, 46.075367], [7.210209, 46.075235], [7.210169, 46.07521], [7.210009, 46.075255], [7.209955, 46.075313], [7.209829, 46.075254], [7.209736, 46.075163], [7.20974, 46.075077], [7.209521, 46.07489], [7.209344, 46.074884], [7.209232, 46.074981], [7.20913, 46.075005], [7.209041, 46.07507], [7.208969, 46.075065], [7.20889, 46.075099], [7.208819, 46.07505], [7.208858, 46.075041], [7.20888, 46.074988], [7.208974, 46.074926], [7.208989, 46.074849], [7.209062, 46.074769], [7.209037, 46.074629], [7.20909, 46.074466], [7.209302, 46.074361], [7.209365, 46.074286], [7.209392, 46.074299], [7.209503, 46.074202], [7.209617, 46.074181], [7.20981, 46.073962], [7.209789, 46.073915], [7.209845, 46.07384], [7.209921, 46.073819], [7.21003, 46.073675], [7.209944, 46.073549], [7.209865, 46.073494], [7.209686, 46.073453], [7.209509, 46.073453], [7.20942, 46.073477], [7.209376, 46.073444], [7.209424, 46.073383], [7.209612, 46.073301], [7.209803, 46.073296], [7.20992, 46.073259], [7.209926, 46.073236], [7.210091, 46.073218], [7.210197, 46.073054], [7.210306, 46.073017], [7.210356, 46.073025], [7.210457, 46.072975], [7.210519, 46.072983], [7.210828, 46.072838], [7.210844, 46.072783], [7.210881, 46.072791], [7.210988, 46.07274], [7.211093, 46.072741], [7.211154, 46.072694], [7.211242, 46.07267], [7.211244, 46.072646], [7.211316, 46.072614], [7.211545, 46.07242], [7.211539, 46.072389], [7.211606, 46.072363], [7.211595, 46.072305], [7.211318, 46.072334], [7.211069, 46.072459], [7.21091, 46.072482], [7.21091, 46.072519], [7.210807, 46.07257], [7.210532, 46.072569], [7.210429, 46.0726], [7.21031, 46.072567], [7.210107, 46.072594], [7.210035, 46.072575], [7.209996, 46.072538], [7.210065, 46.072564], [7.210144, 46.072552], [7.21016, 46.072475], [7.210211, 46.072474], [7.210282, 46.072351], [7.210451, 46.072339], [7.210583, 46.072264], [7.210641, 46.072196], [7.210712, 46.072182], [7.210723, 46.072144], [7.210795, 46.072119], [7.210898, 46.071898], [7.210862, 46.071838], [7.210813, 46.071823], [7.21067, 46.071839], [7.210578, 46.071888], [7.2105, 46.071864], [7.210345, 46.071879], [7.210041, 46.071786], [7.209896, 46.071794], [7.209833, 46.071843], [7.209736, 46.07186], [7.209683, 46.071821], [7.209678, 46.071836], [7.209709, 46.071767], [7.209691, 46.07161], [7.209552, 46.071544], [7.209421, 46.071552], [7.209252, 46.071613], [7.209201, 46.071603], [7.209085, 46.071657], [7.20898, 46.071658], [7.2089, 46.071593], [7.208884, 46.071417], [7.208812, 46.071343], [7.208826, 46.071241], [7.208787, 46.071128], [7.208887, 46.07105], [7.209072, 46.07096], [7.20915, 46.070881], [7.209069, 46.070874], [7.209066, 46.070919], [7.209052, 46.070899], [7.209099, 46.07088], [7.209087, 46.070917], [7.209046, 46.070875], [7.209025, 46.070935], [7.208757, 46.070981], [7.208354, 46.071089], [7.208174, 46.0712], [7.208187, 46.071435], [7.208115, 46.071502], [7.208025, 46.071536], [7.207956, 46.071517], [7.207798, 46.071627], [7.207723, 46.071648], [7.20766, 46.071808], [7.2076, 46.071849], [7.207506, 46.071864], [7.20746, 46.071902], [7.207286, 46.071894], [7.207078, 46.07195], [7.206977, 46.071942], [7.206852, 46.072001], [7.206736, 46.071978], [7.20667, 46.072055], [7.206525, 46.072053], [7.206314, 46.072086], [7.206245, 46.072123], [7.206248, 46.072168], [7.20599, 46.072267], [7.205763, 46.072288], [7.205585, 46.072343], [7.2055, 46.072402], [7.205507, 46.072428], [7.205351, 46.072512], [7.20532, 46.072573], [7.205238, 46.072599], [7.20516, 46.072668], [7.20501, 46.072679], [7.204992, 46.07272], [7.204825, 46.072793], [7.204783, 46.072837], [7.204682, 46.072853], [7.204692, 46.072983], [7.204722, 46.072992], [7.204757, 46.073106], [7.204672, 46.073282], [7.204233, 46.07347], [7.204189, 46.073527], [7.204058, 46.073559], [7.203828, 46.073669], [7.203812, 46.073707], [7.203585, 46.073771], [7.20341, 46.073881], [7.203355, 46.073878], [7.203147, 46.07394], [7.203088, 46.074], [7.203048, 46.073998], [7.202849, 46.074195], [7.202755, 46.074198], [7.202893, 46.074071], [7.203024, 46.073892], [7.20311, 46.073646], [7.203191, 46.073581], [7.203302, 46.073543], [7.203415, 46.07342], [7.203435, 46.073321], [7.203376, 46.073283], [7.203322, 46.073316], [7.203326, 46.073356], [7.203199, 46.073393], [7.203146, 46.073433], [7.203105, 46.073421], [7.203087, 46.073455], [7.203075, 46.07343], [7.203067, 46.073463], [7.202979, 46.073432], [7.203013, 46.07347], [7.203044, 46.073453], [7.202985, 46.073457], [7.203025, 46.073475], [7.203005, 46.073487], [7.203014, 46.073471], [7.203136, 46.073474], [7.203231, 46.073436], [7.203325, 46.073359], [7.203358, 46.073262], [7.203462, 46.07316], [7.203512, 46.07302], [7.203482, 46.072956], [7.20341, 46.072927], [7.203374, 46.072866], [7.20341, 46.072744], [7.203477, 46.072698], [7.203548, 46.072704], [7.203628, 46.072664], [7.203667, 46.072522], [7.20379, 46.072366], [7.203764, 46.072295], [7.203899, 46.072184], [7.203999, 46.072008], [7.204146, 46.071959], [7.204146, 46.071919], [7.204194, 46.071916], [7.204481, 46.071589], [7.204804, 46.071482], [7.204901, 46.071388], [7.205134, 46.071304], [7.205316, 46.071199], [7.205403, 46.071046], [7.205458, 46.071007], [7.205473, 46.070877], [7.205611, 46.070699], [7.205633, 46.070602], [7.205833, 46.070314], [7.205976, 46.070236], [7.206215, 46.070169], [7.206496, 46.070128], [7.206618, 46.070058], [7.206763, 46.069839], [7.206895, 46.069735], [7.206893, 46.069691], [7.206962, 46.069618], [7.207101, 46.069327], [7.207201, 46.069193], [7.207325, 46.069091], [7.207326, 46.069041], [7.207034, 46.069048], [7.206855, 46.069111], [7.2068, 46.069107], [7.206758, 46.069138], [7.206644, 46.069122], [7.206598, 46.069163], [7.206457, 46.069211], [7.206506, 46.06923], [7.206442, 46.069242], [7.206495, 46.069288], [7.206522, 46.069226], [7.206635, 46.069198], [7.206679, 46.068982], [7.206689, 46.069006], [7.206737, 46.068978], [7.206694, 46.068979], [7.206704, 46.068914], [7.206677, 46.068884], [7.206641, 46.068885], [7.206677, 46.068839], [7.206605, 46.068872], [7.206589, 46.068847], [7.206621, 46.068846], [7.206578, 46.068811], [7.206517, 46.068812], [7.20648, 46.068841], [7.206404, 46.068808], [7.206339, 46.068825], [7.206274, 46.068806], [7.206288, 46.068839], [7.206289, 46.06877], [7.206243, 46.068724], [7.20587, 46.068845], [7.205807, 46.06892], [7.205741, 46.068924], [7.205681, 46.068958], [7.205605, 46.069043], [7.205533, 46.069045], [7.20555, 46.069079], [7.205006, 46.069217], [7.204872, 46.069321], [7.204786, 46.069345], [7.204751, 46.06942], [7.204772, 46.069468], [7.204723, 46.069481], [7.204691, 46.069426], [7.204743, 46.069371], [7.204757, 46.069295], [7.204838, 46.069226], [7.204806, 46.069134], [7.204928, 46.069002], [7.20488, 46.068949], [7.204884, 46.068965], [7.204819, 46.068963], [7.204861, 46.068936], [7.20482, 46.068942], [7.204672, 46.06906], [7.204528, 46.069082], [7.204423, 46.069159], [7.204324, 46.069188], [7.204309, 46.069217], [7.204219, 46.069231], [7.20415, 46.069333], [7.204156, 46.069371], [7.204109, 46.069388], [7.204025, 46.069348], [7.204004, 46.069303], [7.204004, 46.069083], [7.20389, 46.069055], [7.203706, 46.069219], [7.203427, 46.069213], [7.203204, 46.069301], [7.203146, 46.069365], [7.202928, 46.069467], [7.202893, 46.069514], [7.202815, 46.069536], [7.202807, 46.069585], [7.202733, 46.069629], [7.202617, 46.069809], [7.202498, 46.06985], [7.202405, 46.069836], [7.202314, 46.069882], [7.202275, 46.069853], [7.202232, 46.069855], [7.202206, 46.069871], [7.202256, 46.069896], [7.202243, 46.069994], [7.201964, 46.070212], [7.201767, 46.070229], [7.201774, 46.070168], [7.20171, 46.070099], [7.20174, 46.070057], [7.201744, 46.069916], [7.201804, 46.069816], [7.20175, 46.069801], [7.201591, 46.069955], [7.201497, 46.069974], [7.201455, 46.070034], [7.201405, 46.070047], [7.201378, 46.070116], [7.201144, 46.070323], [7.201038, 46.070344], [7.200918, 46.070441], [7.200891, 46.070412], [7.201055, 46.070336], [7.201183, 46.070166], [7.201254, 46.069891], [7.201221, 46.069869], [7.201082, 46.069988], [7.201003, 46.070134], [7.200806, 46.070217], [7.200695, 46.070231], [7.200618, 46.070294], [7.200395, 46.070388], [7.200379, 46.070308], [7.200625, 46.070074], [7.200732, 46.069872], [7.200732, 46.06972], [7.200678, 46.069673], [7.20075, 46.069585], [7.200771, 46.069479], [7.200826, 46.069431], [7.200757, 46.069329], [7.200751, 46.069259], [7.200697, 46.06924], [7.200694, 46.069214], [7.200816, 46.069049], [7.200769, 46.068865], [7.200794, 46.068709], [7.200862, 46.068594], [7.200828, 46.068501], [7.200776, 46.068503], [7.200547, 46.068619], [7.20037, 46.068784], [7.20036, 46.068836], [7.200149, 46.068936], [7.200002, 46.069077], [7.199939, 46.069086], [7.199889, 46.069154], [7.199798, 46.069177], [7.199713, 46.069158], [7.199616, 46.06919], [7.199526, 46.069183], [7.199524, 46.069212], [7.199397, 46.069273], [7.199401, 46.069309], [7.199262, 46.069295], [7.199208, 46.069306], [7.199175, 46.069359], [7.199018, 46.069368], [7.198966, 46.069446], [7.198896, 46.069445], [7.198767, 46.069492], [7.198676, 46.069579], [7.198526, 46.069573], [7.198466, 46.069597], [7.198288, 46.069752], [7.198258, 46.069692], [7.198321, 46.06952], [7.198314, 46.069458], [7.198249, 46.069406], [7.198281, 46.069289], [7.198251, 46.069253], [7.198323, 46.06901], [7.19842, 46.068931], [7.198509, 46.068903], [7.198619, 46.068912], [7.198697, 46.068877], [7.198808, 46.068739], [7.198843, 46.068631], [7.198794, 46.068611], [7.198739, 46.068622], [7.198638, 46.068676], [7.198445, 46.068719], [7.198162, 46.068702], [7.198142, 46.068663], [7.19834, 46.068551], [7.198378, 46.068455], [7.198372, 46.068353], [7.198319, 46.068336], [7.198234, 46.068347], [7.198109, 46.068428], [7.198052, 46.068515], [7.197892, 46.068522], [7.197786, 46.068598], [7.197505, 46.068617], [7.197432, 46.06866], [7.197416, 46.068773], [7.197342, 46.068911], [7.197254, 46.068935], [7.197199, 46.068901], [7.197163, 46.068942], [7.197154, 46.068842], [7.197221, 46.068816], [7.197169, 46.068721], [7.197222, 46.068666], [7.197224, 46.068506], [7.197432, 46.068443], [7.197522, 46.068385], [7.197521, 46.068242], [7.197611, 46.068094], [7.197569, 46.068096], [7.197608, 46.068105], [7.197634, 46.068081], [7.197628, 46.067936], [7.197672, 46.06787], [7.197785, 46.067806], [7.197828, 46.067728], [7.19773, 46.067517], [7.197688, 46.067511], [7.197709, 46.067529], [7.197671, 46.067526], [7.197709, 46.067587], [7.197745, 46.067589], [7.197723, 46.067627], [7.197461, 46.067705], [7.197405, 46.067811], [7.19743, 46.067819], [7.197412, 46.067792], [7.197453, 46.067784], [7.197421, 46.067714], [7.197441, 46.067635], [7.197415, 46.067626], [7.197292, 46.067691], [7.197311, 46.067714], [7.197424, 46.067637], [7.197354, 46.067608], [7.197299, 46.067541], [7.197337, 46.067396], [7.197208, 46.067463], [7.197184, 46.067567], [7.197131, 46.06757], [7.19715, 46.067471], [7.197071, 46.067401], [7.197121, 46.067286], [7.197167, 46.067261], [7.197163, 46.06721], [7.197185, 46.067211], [7.197158, 46.067147], [7.19711, 46.067211], [7.197052, 46.06721], [7.196956, 46.067251], [7.196913, 46.067292], [7.196925, 46.067312], [7.196784, 46.067376], [7.196795, 46.067399], [7.196752, 46.067425], [7.196773, 46.067433], [7.196759, 46.067398]]}, "properties": {"name": "1791026232.Le_Chable_Sembrancher", "cmt": "2026-10-03", "tstamp": 1790985600, "desc": "UpHill", "src": "7.143798/46.067147/7.212059/46.079641", "bbox": "7.143798/46.067147/7.212059/46.079641"}}, {"type": "Feature", "bbox": [7.143798, 46.067147, 7.212059, 46.079641], "geometry": {"type": "LineString", "coordinates": [[7.196754, 46.067395], [7.196659, 46.067451], [7.196549, 46.067446], [7.196413, 46.067518], [7.196333, 46.067503], [7.196283, 46.067551], [7.196247, 46.067665], [7.196186, 46.067727], [7.196295, 46.067891], [7.196213, 46.068082], [7.196156, 46.068104], [7.196142, 46.068136], [7.196049, 46.068134], [7.196064, 46.068188], [7.19596, 46.068235], [7.195917, 46.068305], [7.195872, 46.068312], [7.195821, 46.068413], [7.195801, 46.0684], [7.195757, 46.068432], [7.19572, 46.068427], [7.195714, 46.068502], [7.195594, 46.068503], [7.195571, 46.068595], [7.195509, 46.068614], [7.195494, 46.068653], [7.195507, 46.068721], [7.195574, 46.068763], [7.195568, 46.068779], [7.195524, 46.068772], [7.195562, 46.068838], [7.195504, 46.068844], [7.19555, 46.068889], [7.195568, 46.068854], [7.195523, 46.068865], [7.195544, 46.068857], [7.195499, 46.068843], [7.195567, 46.068819], [7.195564, 46.068868], [7.195524, 46.068896], [7.195539, 46.06896], [7.195566, 46.068966], [7.195496, 46.069003], [7.19538, 46.069133], [7.195433, 46.06918], [7.195403, 46.069251], [7.195416, 46.069332], [7.195462, 46.06936], [7.19552, 46.069541], [7.195567, 46.069569], [7.195611, 46.069784], [7.195708, 46.069858], [7.195727, 46.070001], [7.195849, 46.070137], [7.195802, 46.070233], [7.195839, 46.070262], [7.195824, 46.070327], [7.195769, 46.070387], [7.195817, 46.070413], [7.195848, 46.0705], [7.19589, 46.070527], [7.195856, 46.070584], [7.195933, 46.070717], [7.195927, 46.070819], [7.195967, 46.07086], [7.195941, 46.070972], [7.195994, 46.071007], [7.195976, 46.071073], [7.196012, 46.071112], [7.195954, 46.071186], [7.196015, 46.071253], [7.196096, 46.071251], [7.196072, 46.071251], [7.1961, 46.071275], [7.196151, 46.071287], [7.196119, 46.071291], [7.196089, 46.071358], [7.196088, 46.071414], [7.196134, 46.071436], [7.196109, 46.071527], [7.196147, 46.07163], [7.196192, 46.071643], [7.196261, 46.071738], [7.19627, 46.071874], [7.19624, 46.07191], [7.196269, 46.07196], [7.196172, 46.072078], [7.19622, 46.072161], [7.19619, 46.072242], [7.196208, 46.072277], [7.196111, 46.072416], [7.196082, 46.072554], [7.196045, 46.072588], [7.196169, 46.072683], [7.19621, 46.072595], [7.19617, 46.072569], [7.196075, 46.072611], [7.196097, 46.072638], [7.19612, 46.072619], [7.196115, 46.072661], [7.196151, 46.072686], [7.196049, 46.07275], [7.19592, 46.073133], [7.195847, 46.073208], [7.195798, 46.073379], [7.195741, 46.073421], [7.195766, 46.073487], [7.195693, 46.073586], [7.195696, 46.073721], [7.195606, 46.073889], [7.195482, 46.073957], [7.195448, 46.074023], [7.195431, 46.074105], [7.195496, 46.074149], [7.195495, 46.074227], [7.195443, 46.074335], [7.195461, 46.074663], [7.195353, 46.074732], [7.195368, 46.074784], [7.195333, 46.074812], [7.195184, 46.074883], [7.195053, 46.074906], [7.194825, 46.075045], [7.194738, 46.075046], [7.194672, 46.075074], [7.194663, 46.075092], [7.194714, 46.075119], [7.194704, 46.075146], [7.194722, 46.075132], [7.194655, 46.075087], [7.194689, 46.075133], [7.194696, 46.075117], [7.19469, 46.075139], [7.194656, 46.075137], [7.19467, 46.075148], [7.19468, 46.075118], [7.194678, 46.075181], [7.194722, 46.075217], [7.194692, 46.075151], [7.194715, 46.075145], [7.194682, 46.07512], [7.194633, 46.075206], [7.194486, 46.075184], [7.194329, 46.075328], [7.194267, 46.075432], [7.194391, 46.075541], [7.194375, 46.075849], [7.194282, 46.075936], [7.194293, 46.076021], [7.193981, 46.076139], [7.193869, 46.076107], [7.193737, 46.076138], [7.193503, 46.076103], [7.193225, 46.075933], [7.193221, 46.075896], [7.192888, 46.075848], [7.192823, 46.075809], [7.192769, 46.075695], [7.192563, 46.075622], [7.192473, 46.075553], [7.192342, 46.07553], [7.192274, 46.075555], [7.192172, 46.075478], [7.192042, 46.075506], [7.191843, 46.075463], [7.191796, 46.075479], [7.191484, 46.075468], [7.191401, 46.075428], [7.191336, 46.075433], [7.19125, 46.075294], [7.191148, 46.075238], [7.191015, 46.075215], [7.190925, 46.075235], [7.190879, 46.075186], [7.190707, 46.075125], [7.190603, 46.075111], [7.190546, 46.075128], [7.190419, 46.075094], [7.190299, 46.075033], [7.190204, 46.074948], [7.190182, 46.074881], [7.190068, 46.074861], [7.189886, 46.074696], [7.189634, 46.074593], [7.189551, 46.074526], [7.189495, 46.074537], [7.189275, 46.074462], [7.189119, 46.074454], [7.189012, 46.074423], [7.188955, 46.074335], [7.188688, 46.074226], [7.188658, 46.074158], [7.188505, 46.074076], [7.188419, 46.073965], [7.1883, 46.073925], [7.188168, 46.073928], [7.188074, 46.073833], [7.187957, 46.073788], [7.187884, 46.073793], [7.187855, 46.073739], [7.187724, 46.073641], [7.18745, 46.073634], [7.187372, 46.073588], [7.187394, 46.073571], [7.187345, 46.073576], [7.187338, 46.073599], [7.187444, 46.073818], [7.187517, 46.073857], [7.18758, 46.073835], [7.187708, 46.073929], [7.187737, 46.073991], [7.187868, 46.074079], [7.187836, 46.074092], [7.187876, 46.074089], [7.188042, 46.074234], [7.188243, 46.074515], [7.188563, 46.075068], [7.188761, 46.075316], [7.188783, 46.075421], [7.188818, 46.07544], [7.188734, 46.075491], [7.188652, 46.075504], [7.188444, 46.075428], [7.18826, 46.07543], [7.188039, 46.075399], [7.187766, 46.075328], [7.187707, 46.075299], [7.187732, 46.075279], [7.187716, 46.075245], [7.187432, 46.075168], [7.187327, 46.075112], [7.187244, 46.075023], [7.187062, 46.07496], [7.187022, 46.0749], [7.186516, 46.074671], [7.186493, 46.074636], [7.186317, 46.0746], [7.186272, 46.074557], [7.186043, 46.074483], [7.185988, 46.074478], [7.18599, 46.074494], [7.185822, 46.074405], [7.185439, 46.074295], [7.185402, 46.074242], [7.185248, 46.074198], [7.185233, 46.074154], [7.185109, 46.07407], [7.184963, 46.074054], [7.184912, 46.07409], [7.184809, 46.073988], [7.184723, 46.074034], [7.184628, 46.073967], [7.184617, 46.074004], [7.184507, 46.07399], [7.183712, 46.073743], [7.183148, 46.073615], [7.183077, 46.073569], [7.182679, 46.073484], [7.182629, 46.073497], [7.18263, 46.073479], [7.182566, 46.073479], [7.182533, 46.073449], [7.18214, 46.073365], [7.182067, 46.073373], [7.181716, 46.073272], [7.181564, 46.073261], [7.181484, 46.073213], [7.181454, 46.073232], [7.181439, 46.073208], [7.181424, 46.073226], [7.181338, 46.073222], [7.181321, 46.07317], [7.181201, 46.073175], [7.181109, 46.073135], [7.181067, 46.073077], [7.181026, 46.073087], [7.180883, 46.073027], [7.180773, 46.073022], [7.180737, 46.072988], [7.180551, 46.072968], [7.180104, 46.072835], [7.180085, 46.072849], [7.17984, 46.07277], [7.179778, 46.072774], [7.179732, 46.072718], [7.179628, 46.07271], [7.17937, 46.072633], [7.179253, 46.072629], [7.178977, 46.072558], [7.178918, 46.07252], [7.178648, 46.072455], [7.178544, 46.072455], [7.178214, 46.072353], [7.178007, 46.072337], [7.177699, 46.072242], [7.177216, 46.072146], [7.177141, 46.072157], [7.177089, 46.072121], [7.176965, 46.072096], [7.176594, 46.072045], [7.176536, 46.072018], [7.176419, 46.072027], [7.176265, 46.071969], [7.175715, 46.07188], [7.175269, 46.071848], [7.174816, 46.071768], [7.174731, 46.071782], [7.174541, 46.071747], [7.174426, 46.07176], [7.174318, 46.071728], [7.174281, 46.071764], [7.174128, 46.07174], [7.174053, 46.071764], [7.173925, 46.071718], [7.173887, 46.071766], [7.173825, 46.071711], [7.173668, 46.071701], [7.173622, 46.071678], [7.173573, 46.07171], [7.173526, 46.071702], [7.17343, 46.071731], [7.173377, 46.07177], [7.173288, 46.071759], [7.173115, 46.071688], [7.173015, 46.071619], [7.172997, 46.071665], [7.17304, 46.071664], [7.173016, 46.071645], [7.172877, 46.07171], [7.172594, 46.071634], [7.17235, 46.071648], [7.172058, 46.071605], [7.171973, 46.071621], [7.171932, 46.071598], [7.171625, 46.071578], [7.17125, 46.071581], [7.171001, 46.071555], [7.170973, 46.071573], [7.170934, 46.071548], [7.170774, 46.071532], [7.170819, 46.071527], [7.170899, 46.071563], [7.170837, 46.071586], [7.170838, 46.071554], [7.17078, 46.071539], [7.170784, 46.071559], [7.170745, 46.071539], [7.17049, 46.071538], [7.170241, 46.071503], [7.170179, 46.071519], [7.169945, 46.07151], [7.169757, 46.071467], [7.169055, 46.071438], [7.168621, 46.071378], [7.168469, 46.071384], [7.168407, 46.071356], [7.168134, 46.071329], [7.168046, 46.071341], [7.167926, 46.071308], [7.167622, 46.071285], [7.167491, 46.071248], [7.167086, 46.071227], [7.166946, 46.071184], [7.166709, 46.071179], [7.16661, 46.071143], [7.165133, 46.070934], [7.164993, 46.070926], [7.164972, 46.070948], [7.16484, 46.070888], [7.164135, 46.070795], [7.163999, 46.070752], [7.163966, 46.070712], [7.163935, 46.070728], [7.163891, 46.070687], [7.163744, 46.070675], [7.163669, 46.070636], [7.163474, 46.070683], [7.163422, 46.070602], [7.163253, 46.0706], [7.163011, 46.070716], [7.162929, 46.070724], [7.162884, 46.070693], [7.162872, 46.07074], [7.162832, 46.070757], [7.162743, 46.070761], [7.162548, 46.070828], [7.162454, 46.070773], [7.162491, 46.070745], [7.162464, 46.070678], [7.162376, 46.07067], [7.162319, 46.070689], [7.162337, 46.070674], [7.162447, 46.070735], [7.162492, 46.070795], [7.162478, 46.070772], [7.162447, 46.070787], [7.162531, 46.070858], [7.162495, 46.070738], [7.162444, 46.070734], [7.162391, 46.070691], [7.162335, 46.070675], [7.16232, 46.070701], [7.162359, 46.070716], [7.162271, 46.070747], [7.162244, 46.070729], [7.162353, 46.070868], [7.162475, 46.070937], [7.162565, 46.070926], [7.162576, 46.070958], [7.162669, 46.071012], [7.162763, 46.071026], [7.162824, 46.071095], [7.163014, 46.071097], [7.163073, 46.071173], [7.1631, 46.071293], [7.163117, 46.071248], [7.16313, 46.071282], [7.163046, 46.071246], [7.162914, 46.071234], [7.162697, 46.071397], [7.162611, 46.071433], [7.162502, 46.071541], [7.162298, 46.071578], [7.162283, 46.071636], [7.162179, 46.071662], [7.162204, 46.071668], [7.162179, 46.071687], [7.161995, 46.071716], [7.161928, 46.071692], [7.161785, 46.071708], [7.161734, 46.071851], [7.161528, 46.07192], [7.161197, 46.072012], [7.161088, 46.071987], [7.160996, 46.072038], [7.160804, 46.07205], [7.160675, 46.072026], [7.160631, 46.072075], [7.16043, 46.072114], [7.16019, 46.072101], [7.160001, 46.072049], [7.159892, 46.072058], [7.159816, 46.072033], [7.159683, 46.07203], [7.159652, 46.071998], [7.159584, 46.071986], [7.159488, 46.072025], [7.159287, 46.071977], [7.159186, 46.071889], [7.159098, 46.071853], [7.159066, 46.071806], [7.159023, 46.071805], [7.158847, 46.071701], [7.158596, 46.071505], [7.158572, 46.071471], [7.158591, 46.071412], [7.158517, 46.071233], [7.158381, 46.071157], [7.158413, 46.071106], [7.15813, 46.07102], [7.158004, 46.071077], [7.157924, 46.071336], [7.157958, 46.071588], [7.15791, 46.07163], [7.157948, 46.071701], [7.157854, 46.071812], [7.158087, 46.072074], [7.158107, 46.072211], [7.158077, 46.072252], [7.158125, 46.072314], [7.158065, 46.072339], [7.158051, 46.072298], [7.157855, 46.072233], [7.15761, 46.072035], [7.157493, 46.07203], [7.157201, 46.072262], [7.156941, 46.072553], [7.156838, 46.072606], [7.156787, 46.072731], [7.15678, 46.072864], [7.156865, 46.07308], [7.156921, 46.073144], [7.156947, 46.073278], [7.157125, 46.073488], [7.157192, 46.073641], [7.15754, 46.073918], [7.158016, 46.074218], [7.158142, 46.074399], [7.158259, 46.074967], [7.158119, 46.075083], [7.157856, 46.075197], [7.157764, 46.075334], [7.157772, 46.075371], [7.157639, 46.0755], [7.157592, 46.075515], [7.157566, 46.075706], [7.157607, 46.075742], [7.157583, 46.075785], [7.157761, 46.075927], [7.157893, 46.075928], [7.157912, 46.075911], [7.158178, 46.075968], [7.158255, 46.076089], [7.158292, 46.076255], [7.158273, 46.076321], [7.158203, 46.07639], [7.158047, 46.076368], [7.157774, 46.076451], [7.157522, 46.076437], [7.157464, 46.076452], [7.157431, 46.07643], [7.157341, 46.076469], [7.157111, 46.076432], [7.157061, 46.076471], [7.156997, 46.076467], [7.15673, 46.076555], [7.156591, 46.076555], [7.156377, 46.076612], [7.156084, 46.07662], [7.155779, 46.07671], [7.155557, 46.076748], [7.155423, 46.076809], [7.155166, 46.076858], [7.155016, 46.076853], [7.154851, 46.077019], [7.154798, 46.076986], [7.154752, 46.076887], [7.154669, 46.07686], [7.154052, 46.076983], [7.153986, 46.076948], [7.15388, 46.076946], [7.153776, 46.076995], [7.153471, 46.076996], [7.153438, 46.077036], [7.153271, 46.077054], [7.153162, 46.077102], [7.15305, 46.077101], [7.153103, 46.077106], [7.153138, 46.077139], [7.153135, 46.077117], [7.153057, 46.077091], [7.152855, 46.077134], [7.152558, 46.077108], [7.152316, 46.077182], [7.15225, 46.077173], [7.15201, 46.077286], [7.151894, 46.077285], [7.151754, 46.077317], [7.151545, 46.077468], [7.151305, 46.077526], [7.15128, 46.077502], [7.151228, 46.077552], [7.15121, 46.077667], [7.151237, 46.077746], [7.151326, 46.07782], [7.151272, 46.077903], [7.151323, 46.077994], [7.151325, 46.078089], [7.151286, 46.078284], [7.151196, 46.078294], [7.151215, 46.078275], [7.151311, 46.07834], [7.151311, 46.078404], [7.151378, 46.078472], [7.151305, 46.078555], [7.151295, 46.078629], [7.151185, 46.078703], [7.151023, 46.078745], [7.150995, 46.078789], [7.150911, 46.078776], [7.150861, 46.078811], [7.150795, 46.078815], [7.150637, 46.078927], [7.150546, 46.07891], [7.150458, 46.078929], [7.150361, 46.078895], [7.150274, 46.078809], [7.15008, 46.078754], [7.149902, 46.078825], [7.149783, 46.078838], [7.149739, 46.07888], [7.149589, 46.078862], [7.149506, 46.07888], [7.149376, 46.078983], [7.149242, 46.078975], [7.149159, 46.079018], [7.149062, 46.079015], [7.149007, 46.07904], [7.148855, 46.07898], [7.148299, 46.078953], [7.14823, 46.078984], [7.148219, 46.079107], [7.14817, 46.079156], [7.148141, 46.079428], [7.147949, 46.079425], [7.147776, 46.079495], [7.147519, 46.079469], [7.1473, 46.079492], [7.146922, 46.079541], [7.146761, 46.079591], [7.146493, 46.079632], [7.146209, 46.079606], [7.145935, 46.079641], [7.145964, 46.079617], [7.145944, 46.079635], [7.14571, 46.079634], [7.145522, 46.07961], [7.145386, 46.079546], [7.145224, 46.079549], [7.145132, 46.079519], [7.145028, 46.079342]]}, "properties": {"name": "1791026232.Le_Chable_Sembrancher", "cmt": "2026-10-03", "tstamp": 1790985600, "desc": "DownHill", "src": "7.143798/46.067147/7.212059/46.079641", "bbox": "7.143798/46.067147/7.212059/46.079641"}}, {"type": "Feature", "bbox": [7.143798, 46.067147, 7.212059, 46.079641], "geometry": {"type": "LineString", "coordinates": [[7.145018, 46.079334], [7.144973, 46.079305], [7.144812, 46.079299], [7.14476, 46.079269], [7.144614, 46.079246], [7.144442, 46.07927], [7.144257, 46.079238], [7.144068, 46.079248], [7.143965, 46.079287], [7.143798, 46.079283], [7.143832, 46.079293], [7.143921, 46.079492], [7.143947, 46.079446], [7.143867, 46.079435], [7.143846, 46.079374], [7.143886, 46.079409], [7.14392, 46.079395], [7.144018, 46.079277], [7.14435, 46.079281], [7.144451, 46.079321], [7.144637, 46.07932], [7.144746, 46.079364], [7.144753, 46.079342], [7.144912, 46.079278], [7.144937, 46.079212], [7.145164, 46.079152], [7.145243, 46.078971], [7.145335, 46.078962], [7.14544, 46.078869], [7.145433, 46.078638], [7.145529, 46.07859], [7.145582, 46.078524], [7.145605, 46.078192], [7.145749, 46.078006], [7.14577, 46.077933], [7.14573, 46.077878], [7.145846, 46.077736], [7.145882, 46.077553], [7.14592, 46.077503], [7.145876, 46.077208], [7.146037, 46.07709], [7.145783, 46.076813], [7.145628, 46.076794], [7.145663, 46.076832], [7.145623, 46.076833], [7.145535, 46.076789], [7.145556, 46.076839]]}, "properties": {"name": "1791026232.Le_Chable_Sembrancher", "cmt": "2026-10-03", "tstamp": 1790985600, "desc": "UpHill", "src": "7.143798/46.067147/7.212059/46.079641", "bbox": "7.143798/46.067147/7.212059/46.079641"}}]}