<?xml version="1.0" encoding="UTF-8" standalone="no"?>
<gpx xmlns="http://www.topografix.com/GPX/1/1" creator="GaiaGPS" version="1.1" xmlns:xsi="http://www.w3.org/2001/XMLSchema-instance" xsi:schemaLocation="http://www.topografix.com/GPX/1/1 http://www.topografix.com/GPX/1/1/gpx.xsd">
  <metadata>
    <time>2026-09-04T16:50:54Z</time>
  </metadata>
  <rte>
    <name>EDI to Athelstaneford</name>
<rtept lat="55.945240" lon="-3.358703">
<ele>32.7</ele>
</rtept>
<rtept lat="55.945198" lon="-3.358669">
<ele>33.0</ele>
</rtept>
<rtept lat="55.945156" lon="-3.358647">
<ele>33.3</ele>
</rtept>
<rtept lat="55.945129" lon="-3.358639">
<ele>33.3</ele>
</rtept>
<rtept lat="55.945089" lon="-3.358651">
<ele>33.1</ele>
</rtept>
<rtept lat="55.945042" lon="-3.358676">
<ele>33.0</ele>
</rtept>
<rtept lat="55.945014" lon="-3.358701">
<ele>33.1</ele>
</rtept>
<rtept lat="55.944795" lon="-3.358549">
<ele>30.4</ele>
</rtept>
<rtept lat="55.944534" lon="-3.358333">
<ele>30.7</ele>
</rtept>
<rtept lat="55.944494" lon="-3.358497">
<ele>33.2</ele>
</rtept>
<rtept lat="55.944463" lon="-3.358621">
<ele>35.2</ele>
</rtept>
<rtept lat="55.944426" lon="-3.358831">
<ele>35.4</ele>
</rtept>
<rtept lat="55.944402" lon="-3.359024">
<ele>34.5</ele>
</rtept>
<rtept lat="55.944388" lon="-3.359211">
<ele>33.2</ele>
</rtept>
<rtept lat="55.944386" lon="-3.359280">
<ele>32.8</ele>
</rtept>
<rtept lat="55.944382" lon="-3.359423">
<ele>32.1</ele>
</rtept>
<rtept lat="55.944388" lon="-3.359597">
<ele>31.5</ele>
</rtept>
<rtept lat="55.944393" lon="-3.359731">
<ele>31.0</ele>
</rtept>
<rtept lat="55.944442" lon="-3.359971">
<ele>30.1</ele>
</rtept>
<rtept lat="55.944490" lon="-3.360170">
<ele>29.6</ele>
</rtept>
<rtept lat="55.944527" lon="-3.360331">
<ele>29.2</ele>
</rtept>
<rtept lat="55.944539" lon="-3.360457">
<ele>29.2</ele>
</rtept>
<rtept lat="55.944540" lon="-3.360581">
<ele>29.1</ele>
</rtept>
<rtept lat="55.944525" lon="-3.360664">
<ele>29.0</ele>
</rtept>
<rtept lat="55.944480" lon="-3.360776">
<ele>28.8</ele>
</rtept>
<rtept lat="55.944444" lon="-3.360812">
<ele>28.6</ele>
</rtept>
<rtept lat="55.944412" lon="-3.360845">
<ele>28.4</ele>
</rtept>
<rtept lat="55.944349" lon="-3.360874">
<ele>28.2</ele>
</rtept>
<rtept lat="55.944317" lon="-3.360856">
<ele>28.0</ele>
</rtept>
<rtept lat="55.944306" lon="-3.360853">
<ele>28.0</ele>
</rtept>
<rtept lat="55.944284" lon="-3.360847">
<ele>28.1</ele>
</rtept>
<rtept lat="55.944251" lon="-3.360850">
<ele>28.2</ele>
</rtept>
<rtept lat="55.944205" lon="-3.360872">
<ele>28.4</ele>
</rtept>
<rtept lat="55.944164" lon="-3.360915">
<ele>28.5</ele>
</rtept>
<rtept lat="55.944144" lon="-3.360947">
<ele>28.6</ele>
</rtept>
<rtept lat="55.944126" lon="-3.360985">
<ele>28.6</ele>
</rtept>
<rtept lat="55.944112" lon="-3.361028">
<ele>28.7</ele>
</rtept>
<rtept lat="55.944066" lon="-3.361040">
<ele>28.9</ele>
</rtept>
<rtept lat="55.944031" lon="-3.361050">
<ele>29.0</ele>
</rtept>
<rtept lat="55.943971" lon="-3.361067">
<ele>28.4</ele>
</rtept>
<rtept lat="55.943825" lon="-3.361073">
<ele>26.8</ele>
</rtept>
<rtept lat="55.943653" lon="-3.361034">
<ele>26.5</ele>
</rtept>
<rtept lat="55.943491" lon="-3.360985">
<ele>27.0</ele>
</rtept>
<rtept lat="55.943018" lon="-3.360797">
<ele>29.3</ele>
</rtept>
<rtept lat="55.942739" lon="-3.360698">
<ele>28.4</ele>
</rtept>
<rtept lat="55.942520" lon="-3.360603">
<ele>25.5</ele>
</rtept>
<rtept lat="55.942055" lon="-3.360398">
<ele>24.0</ele>
</rtept>
<rtept lat="55.941505" lon="-3.360109">
<ele>27.1</ele>
</rtept>
<rtept lat="55.941127" lon="-3.359886">
<ele>31.2</ele>
</rtept>
<rtept lat="55.940589" lon="-3.359528">
<ele>40.6</ele>
</rtept>
<rtept lat="55.940453" lon="-3.359438">
<ele>40.8</ele>
</rtept>
<rtept lat="55.940192" lon="-3.359264">
<ele>37.6</ele>
</rtept>
<rtept lat="55.940120" lon="-3.359217">
<ele>36.4</ele>
</rtept>
<rtept lat="55.940132" lon="-3.359129">
<ele>35.5</ele>
</rtept>
<rtept lat="55.940129" lon="-3.359039">
<ele>34.6</ele>
</rtept>
<rtept lat="55.940116" lon="-3.358970">
<ele>33.8</ele>
</rtept>
<rtept lat="55.940113" lon="-3.358953">
<ele>33.6</ele>
</rtept>
<rtept lat="55.940084" lon="-3.358879">
<ele>32.7</ele>
</rtept>
<rtept lat="55.940044" lon="-3.358823">
<ele>32.0</ele>
</rtept>
<rtept lat="55.939998" lon="-3.358788">
<ele>31.6</ele>
</rtept>
<rtept lat="55.939948" lon="-3.358778">
<ele>31.4</ele>
</rtept>
<rtept lat="55.939898" lon="-3.358793">
<ele>31.4</ele>
</rtept>
<rtept lat="55.939853" lon="-3.358831">
<ele>31.7</ele>
</rtept>
<rtept lat="55.939815" lon="-3.358890">
<ele>32.3</ele>
</rtept>
<rtept lat="55.939788" lon="-3.358965">
<ele>33.0</ele>
</rtept>
<rtept lat="55.939465" lon="-3.358796">
<ele>34.3</ele>
</rtept>
<rtept lat="55.939192" lon="-3.358674">
<ele>35.3</ele>
</rtept>
<rtept lat="55.938934" lon="-3.358598">
<ele>38.0</ele>
</rtept>
<rtept lat="55.938812" lon="-3.358572">
<ele>39.4</ele>
</rtept>
<rtept lat="55.938582" lon="-3.358575">
<ele>40.4</ele>
</rtept>
<rtept lat="55.938367" lon="-3.358600">
<ele>43.1</ele>
</rtept>
<rtept lat="55.938230" lon="-3.358638">
<ele>46.4</ele>
</rtept>
<rtept lat="55.938147" lon="-3.358641">
<ele>48.1</ele>
</rtept>
<rtept lat="55.938083" lon="-3.358626">
<ele>49.1</ele>
</rtept>
<rtept lat="55.937988" lon="-3.358562">
<ele>50.0</ele>
</rtept>
<rtept lat="55.937840" lon="-3.358438">
<ele>49.9</ele>
</rtept>
<rtept lat="55.937817" lon="-3.358401">
<ele>49.4</ele>
</rtept>
<rtept lat="55.937791" lon="-3.358369">
<ele>48.9</ele>
</rtept>
<rtept lat="55.937707" lon="-3.358293">
<ele>47.6</ele>
</rtept>
<rtept lat="55.937634" lon="-3.358261">
<ele>46.9</ele>
</rtept>
<rtept lat="55.937558" lon="-3.358183">
<ele>45.6</ele>
</rtept>
<rtept lat="55.937439" lon="-3.358045">
<ele>44.8</ele>
</rtept>
<rtept lat="55.937362" lon="-3.357918">
<ele>46.5</ele>
</rtept>
<rtept lat="55.937295" lon="-3.357778">
<ele>47.8</ele>
</rtept>
<rtept lat="55.937259" lon="-3.357707">
<ele>47.7</ele>
</rtept>
<rtept lat="55.937180" lon="-3.357507">
<ele>49.2</ele>
</rtept>
<rtept lat="55.937106" lon="-3.357247">
<ele>49.7</ele>
</rtept>
<rtept lat="55.937012" lon="-3.356684">
<ele>52.7</ele>
</rtept>
<rtept lat="55.936963" lon="-3.356175">
<ele>52.0</ele>
</rtept>
<rtept lat="55.936921" lon="-3.355314">
<ele>54.1</ele>
</rtept>
<rtept lat="55.936826" lon="-3.352905">
<ele>55.5</ele>
</rtept>
<rtept lat="55.936816" lon="-3.351255">
<ele>55.9</ele>
</rtept>
<rtept lat="55.936803" lon="-3.349614">
<ele>56.0</ele>
</rtept>
<rtept lat="55.936794" lon="-3.349035">
<ele>56.1</ele>
</rtept>
<rtept lat="55.936792" lon="-3.349035">
<ele>56.1</ele>
</rtept>
<rtept lat="55.936792" lon="-3.349019">
<ele>56.1</ele>
</rtept>
<rtept lat="55.936772" lon="-3.348394">
<ele>55.8</ele>
</rtept>
<rtept lat="55.936690" lon="-3.346643">
<ele>55.2</ele>
</rtept>
<rtept lat="55.936623" lon="-3.345213">
<ele>56.3</ele>
</rtept>
<rtept lat="55.936523" lon="-3.343172">
<ele>55.0</ele>
</rtept>
<rtept lat="55.936513" lon="-3.342608">
<ele>54.4</ele>
</rtept>
<rtept lat="55.936513" lon="-3.342049">
<ele>55.6</ele>
</rtept>
<rtept lat="55.936521" lon="-3.341742">
<ele>56.7</ele>
</rtept>
<rtept lat="55.936529" lon="-3.341466">
<ele>57.7</ele>
</rtept>
<rtept lat="55.936557" lon="-3.340872">
<ele>58.1</ele>
</rtept>
<rtept lat="55.936594" lon="-3.340182">
<ele>58.9</ele>
</rtept>
<rtept lat="55.936639" lon="-3.339342">
<ele>58.7</ele>
</rtept>
<rtept lat="55.936771" lon="-3.336961">
<ele>56.9</ele>
</rtept>
<rtept lat="55.936819" lon="-3.336362">
<ele>51.4</ele>
</rtept>
<rtept lat="55.936879" lon="-3.335875">
<ele>47.3</ele>
</rtept>
<rtept lat="55.936933" lon="-3.335507">
<ele>47.8</ele>
</rtept>
<rtept lat="55.936984" lon="-3.335226">
<ele>51.3</ele>
</rtept>
<rtept lat="55.937062" lon="-3.334847">
<ele>58.6</ele>
</rtept>
<rtept lat="55.937143" lon="-3.334485">
<ele>61.3</ele>
</rtept>
<rtept lat="55.937495" lon="-3.333026">
<ele>59.0</ele>
</rtept>
<rtept lat="55.937804" lon="-3.331625">
<ele>55.3</ele>
</rtept>
<rtept lat="55.938430" lon="-3.328796">
<ele>61.3</ele>
</rtept>
<rtept lat="55.938624" lon="-3.327891">
<ele>62.8</ele>
</rtept>
<rtept lat="55.938804" lon="-3.327011">
<ele>64.0</ele>
</rtept>
<rtept lat="55.939073" lon="-3.325814">
<ele>55.7</ele>
</rtept>
<rtept lat="55.939466" lon="-3.324079">
<ele>54.1</ele>
</rtept>
<rtept lat="55.939533" lon="-3.323855">
<ele>53.7</ele>
</rtept>
<rtept lat="55.939547" lon="-3.323808">
<ele>53.8</ele>
</rtept>
<rtept lat="55.939598" lon="-3.323662">
<ele>54.2</ele>
</rtept>
<rtept lat="55.939630" lon="-3.323592">
<ele>53.9</ele>
</rtept>
<rtept lat="55.939697" lon="-3.323446">
<ele>52.4</ele>
</rtept>
<rtept lat="55.939791" lon="-3.323323">
<ele>49.9</ele>
</rtept>
<rtept lat="55.939860" lon="-3.323196">
<ele>48.5</ele>
</rtept>
<rtept lat="55.939913" lon="-3.323068">
<ele>47.9</ele>
</rtept>
<rtept lat="55.939951" lon="-3.322943">
<ele>47.0</ele>
</rtept>
<rtept lat="55.939992" lon="-3.322737">
<ele>45.8</ele>
</rtept>
<rtept lat="55.940010" lon="-3.322534">
<ele>45.2</ele>
</rtept>
<rtept lat="55.940009" lon="-3.322411">
<ele>44.9</ele>
</rtept>
<rtept lat="55.940005" lon="-3.322287">
<ele>44.7</ele>
</rtept>
<rtept lat="55.939992" lon="-3.322172">
<ele>45.0</ele>
</rtept>
<rtept lat="55.939973" lon="-3.322061">
<ele>46.2</ele>
</rtept>
<rtept lat="55.939900" lon="-3.321808">
<ele>46.0</ele>
</rtept>
<rtept lat="55.939839" lon="-3.321671">
<ele>45.1</ele>
</rtept>
<rtept lat="55.939763" lon="-3.321546">
<ele>44.9</ele>
</rtept>
<rtept lat="55.939639" lon="-3.321410">
<ele>44.9</ele>
</rtept>
<rtept lat="55.939534" lon="-3.321342">
<ele>45.0</ele>
</rtept>
<rtept lat="55.939454" lon="-3.321313">
<ele>44.9</ele>
</rtept>
<rtept lat="55.939345" lon="-3.321303">
<ele>44.7</ele>
</rtept>
<rtept lat="55.939266" lon="-3.321316">
<ele>45.7</ele>
</rtept>
<rtept lat="55.939166" lon="-3.321359">
<ele>48.4</ele>
</rtept>
<rtept lat="55.939074" lon="-3.321427">
<ele>50.9</ele>
</rtept>
<rtept lat="55.938986" lon="-3.321523">
<ele>51.7</ele>
</rtept>
<rtept lat="55.938882" lon="-3.321692">
<ele>51.4</ele>
</rtept>
<rtept lat="55.938824" lon="-3.321827">
<ele>51.1</ele>
</rtept>
<rtept lat="55.938774" lon="-3.321995">
<ele>50.5</ele>
</rtept>
<rtept lat="55.938629" lon="-3.322178">
<ele>46.2</ele>
</rtept>
<rtept lat="55.938530" lon="-3.322275">
<ele>43.7</ele>
</rtept>
<rtept lat="55.938434" lon="-3.322328">
<ele>42.3</ele>
</rtept>
<rtept lat="55.938360" lon="-3.322346">
<ele>42.0</ele>
</rtept>
<rtept lat="55.938319" lon="-3.322361">
<ele>41.7</ele>
</rtept>
<rtept lat="55.938220" lon="-3.322377">
<ele>41.2</ele>
</rtept>
<rtept lat="55.938130" lon="-3.322377">
<ele>41.3</ele>
</rtept>
<rtept lat="55.938022" lon="-3.322345">
<ele>42.7</ele>
</rtept>
<rtept lat="55.937655" lon="-3.322189">
<ele>46.5</ele>
</rtept>
<rtept lat="55.936605" lon="-3.321697">
<ele>30.3</ele>
</rtept>
<rtept lat="55.935984" lon="-3.321433">
<ele>29.0</ele>
</rtept>
<rtept lat="55.935659" lon="-3.321283">
<ele>29.7</ele>
</rtept>
<rtept lat="55.935210" lon="-3.321086">
<ele>30.4</ele>
</rtept>
<rtept lat="55.934236" lon="-3.320625">
<ele>31.0</ele>
</rtept>
<rtept lat="55.932982" lon="-3.320075">
<ele>34.7</ele>
</rtept>
<rtept lat="55.931834" lon="-3.319570">
<ele>34.0</ele>
</rtept>
<rtept lat="55.931251" lon="-3.319247">
<ele>43.1</ele>
</rtept>
<rtept lat="55.930583" lon="-3.318768">
<ele>40.8</ele>
</rtept>
<rtept lat="55.929996" lon="-3.318324">
<ele>38.0</ele>
</rtept>
<rtept lat="55.929824" lon="-3.318171">
<ele>38.3</ele>
</rtept>
<rtept lat="55.929609" lon="-3.317983">
<ele>39.9</ele>
</rtept>
<rtept lat="55.929326" lon="-3.317715">
<ele>41.0</ele>
</rtept>
<rtept lat="55.928965" lon="-3.317347">
<ele>41.1</ele>
</rtept>
<rtept lat="55.928434" lon="-3.316745">
<ele>42.7</ele>
</rtept>
<rtept lat="55.927214" lon="-3.315134">
<ele>43.8</ele>
</rtept>
<rtept lat="55.925989" lon="-3.313397">
<ele>49.5</ele>
</rtept>
<rtept lat="55.925421" lon="-3.312609">
<ele>53.6</ele>
</rtept>
<rtept lat="55.925070" lon="-3.312109">
<ele>54.4</ele>
</rtept>
<rtept lat="55.924274" lon="-3.310969">
<ele>51.4</ele>
</rtept>
<rtept lat="55.923661" lon="-3.310092">
<ele>53.2</ele>
</rtept>
<rtept lat="55.923242" lon="-3.309511">
<ele>57.4</ele>
</rtept>
<rtept lat="55.921948" lon="-3.307617">
<ele>67.7</ele>
</rtept>
<rtept lat="55.921815" lon="-3.307421">
<ele>68.6</ele>
</rtept>
<rtept lat="55.919756" lon="-3.304409">
<ele>70.8</ele>
</rtept>
<rtept lat="55.917446" lon="-3.300966">
<ele>61.4</ele>
</rtept>
<rtept lat="55.917153" lon="-3.300563">
<ele>60.2</ele>
</rtept>
<rtept lat="55.916802" lon="-3.300031">
<ele>61.8</ele>
</rtept>
<rtept lat="55.916499" lon="-3.299575">
<ele>65.9</ele>
</rtept>
<rtept lat="55.916027" lon="-3.298743">
<ele>67.5</ele>
</rtept>
<rtept lat="55.915301" lon="-3.297233">
<ele>69.8</ele>
</rtept>
<rtept lat="55.914532" lon="-3.295368">
<ele>73.1</ele>
</rtept>
<rtept lat="55.914310" lon="-3.294649">
<ele>71.6</ele>
</rtept>
<rtept lat="55.913973" lon="-3.293388">
<ele>77.8</ele>
</rtept>
<rtept lat="55.912925" lon="-3.288435">
<ele>90.7</ele>
</rtept>
<rtept lat="55.912328" lon="-3.286006">
<ele>96.8</ele>
</rtept>
<rtept lat="55.911693" lon="-3.283912">
<ele>102.5</ele>
</rtept>
<rtept lat="55.910931" lon="-3.281986">
<ele>102.9</ele>
</rtept>
<rtept lat="55.910231" lon="-3.280598">
<ele>104.4</ele>
</rtept>
<rtept lat="55.909976" lon="-3.280153">
<ele>102.8</ele>
</rtept>
<rtept lat="55.909499" lon="-3.279406">
<ele>104.7</ele>
</rtept>
<rtept lat="55.909028" lon="-3.278753">
<ele>110.0</ele>
</rtept>
<rtept lat="55.908287" lon="-3.277886">
<ele>120.7</ele>
</rtept>
<rtept lat="55.907566" lon="-3.277123">
<ele>121.2</ele>
</rtept>
<rtept lat="55.907272" lon="-3.276851">
<ele>121.0</ele>
</rtept>
<rtept lat="55.906431" lon="-3.276143">
<ele>114.6</ele>
</rtept>
<rtept lat="55.905074" lon="-3.274971">
<ele>113.6</ele>
</rtept>
<rtept lat="55.904405" lon="-3.274392">
<ele>114.1</ele>
</rtept>
<rtept lat="55.903779" lon="-3.273822">
<ele>120.3</ele>
</rtept>
<rtept lat="55.903460" lon="-3.273499">
<ele>120.6</ele>
</rtept>
<rtept lat="55.903296" lon="-3.273311">
<ele>120.6</ele>
</rtept>
<rtept lat="55.902790" lon="-3.272729">
<ele>117.4</ele>
</rtept>
<rtept lat="55.902562" lon="-3.272434">
<ele>119.9</ele>
</rtept>
<rtept lat="55.902311" lon="-3.272094">
<ele>124.4</ele>
</rtept>
<rtept lat="55.902054" lon="-3.271713">
<ele>125.1</ele>
</rtept>
<rtept lat="55.901739" lon="-3.271215">
<ele>129.5</ele>
</rtept>
<rtept lat="55.901596" lon="-3.270972">
<ele>132.1</ele>
</rtept>
<rtept lat="55.901459" lon="-3.270723">
<ele>134.2</ele>
</rtept>
<rtept lat="55.901140" lon="-3.270120">
<ele>139.2</ele>
</rtept>
<rtept lat="55.900868" lon="-3.269558">
<ele>144.0</ele>
</rtept>
<rtept lat="55.900565" lon="-3.268882">
<ele>145.5</ele>
</rtept>
<rtept lat="55.900281" lon="-3.268145">
<ele>143.6</ele>
</rtept>
<rtept lat="55.900027" lon="-3.267452">
<ele>145.7</ele>
</rtept>
<rtept lat="55.899865" lon="-3.266937">
<ele>146.0</ele>
</rtept>
<rtept lat="55.899712" lon="-3.266432">
<ele>149.2</ele>
</rtept>
<rtept lat="55.899503" lon="-3.265652">
<ele>152.1</ele>
</rtept>
<rtept lat="55.899382" lon="-3.265131">
<ele>148.6</ele>
</rtept>
<rtept lat="55.899265" lon="-3.264592">
<ele>147.6</ele>
</rtept>
<rtept lat="55.899158" lon="-3.264041">
<ele>147.1</ele>
</rtept>
<rtept lat="55.899065" lon="-3.263495">
<ele>146.5</ele>
</rtept>
<rtept lat="55.898981" lon="-3.262968">
<ele>147.5</ele>
</rtept>
<rtept lat="55.898906" lon="-3.262424">
<ele>149.0</ele>
</rtept>
<rtept lat="55.898805" lon="-3.261680">
<ele>149.9</ele>
</rtept>
<rtept lat="55.898725" lon="-3.260947">
<ele>151.7</ele>
</rtept>
<rtept lat="55.898573" lon="-3.259433">
<ele>152.7</ele>
</rtept>
<rtept lat="55.898461" lon="-3.257817">
<ele>151.0</ele>
</rtept>
<rtept lat="55.898416" lon="-3.256998">
<ele>150.0</ele>
</rtept>
<rtept lat="55.898379" lon="-3.256273">
<ele>150.1</ele>
</rtept>
<rtept lat="55.898353" lon="-3.255460">
<ele>151.1</ele>
</rtept>
<rtept lat="55.898332" lon="-3.254647">
<ele>151.2</ele>
</rtept>
<rtept lat="55.898316" lon="-3.253212">
<ele>148.3</ele>
</rtept>
<rtept lat="55.898318" lon="-3.252764">
<ele>147.8</ele>
</rtept>
<rtept lat="55.898345" lon="-3.251285">
<ele>153.4</ele>
</rtept>
<rtept lat="55.898362" lon="-3.250696">
<ele>154.3</ele>
</rtept>
<rtept lat="55.898384" lon="-3.250139">
<ele>153.7</ele>
</rtept>
<rtept lat="55.898425" lon="-3.249346">
<ele>153.0</ele>
</rtept>
<rtept lat="55.898469" lon="-3.248573">
<ele>152.8</ele>
</rtept>
<rtept lat="55.898540" lon="-3.247569">
<ele>147.6</ele>
</rtept>
<rtept lat="55.898611" lon="-3.246691">
<ele>150.9</ele>
</rtept>
<rtept lat="55.898764" lon="-3.245062">
<ele>155.2</ele>
</rtept>
<rtept lat="55.898991" lon="-3.242614">
<ele>156.7</ele>
</rtept>
<rtept lat="55.899405" lon="-3.237419">
<ele>164.7</ele>
</rtept>
<rtept lat="55.899551" lon="-3.235353">
<ele>162.3</ele>
</rtept>
<rtept lat="55.899596" lon="-3.233689">
<ele>157.2</ele>
</rtept>
<rtept lat="55.899591" lon="-3.232513">
<ele>158.0</ele>
</rtept>
<rtept lat="55.899564" lon="-3.231347">
<ele>159.4</ele>
</rtept>
<rtept lat="55.899420" lon="-3.227975">
<ele>151.8</ele>
</rtept>
<rtept lat="55.899205" lon="-3.224704">
<ele>147.8</ele>
</rtept>
<rtept lat="55.899086" lon="-3.223251">
<ele>145.7</ele>
</rtept>
<rtept lat="55.898998" lon="-3.222138">
<ele>144.3</ele>
</rtept>
<rtept lat="55.898807" lon="-3.219918">
<ele>144.9</ele>
</rtept>
<rtept lat="55.898669" lon="-3.218469">
<ele>141.9</ele>
</rtept>
<rtept lat="55.898501" lon="-3.216854">
<ele>145.6</ele>
</rtept>
<rtept lat="55.898387" lon="-3.215795">
<ele>150.9</ele>
</rtept>
<rtept lat="55.898273" lon="-3.214837">
<ele>149.7</ele>
</rtept>
<rtept lat="55.898173" lon="-3.214037">
<ele>147.1</ele>
</rtept>
<rtept lat="55.897975" lon="-3.212470">
<ele>143.2</ele>
</rtept>
<rtept lat="55.897830" lon="-3.211310">
<ele>141.6</ele>
</rtept>
<rtept lat="55.897509" lon="-3.209188">
<ele>140.5</ele>
</rtept>
<rtept lat="55.897346" lon="-3.208266">
<ele>137.3</ele>
</rtept>
<rtept lat="55.897120" lon="-3.207136">
<ele>139.8</ele>
</rtept>
<rtept lat="55.896893" lon="-3.206139">
<ele>139.6</ele>
</rtept>
<rtept lat="55.896654" lon="-3.205238">
<ele>138.1</ele>
</rtept>
<rtept lat="55.896449" lon="-3.204543">
<ele>139.2</ele>
</rtept>
<rtept lat="55.896221" lon="-3.203858">
<ele>139.8</ele>
</rtept>
<rtept lat="55.895462" lon="-3.201730">
<ele>137.5</ele>
</rtept>
<rtept lat="55.894995" lon="-3.200351">
<ele>142.0</ele>
</rtept>
<rtept lat="55.894523" lon="-3.198815">
<ele>137.1</ele>
</rtept>
<rtept lat="55.894243" lon="-3.197810">
<ele>134.0</ele>
</rtept>
<rtept lat="55.893976" lon="-3.196840">
<ele>134.4</ele>
</rtept>
<rtept lat="55.893760" lon="-3.196030">
<ele>133.5</ele>
</rtept>
<rtept lat="55.893418" lon="-3.194459">
<ele>133.6</ele>
</rtept>
<rtept lat="55.893102" lon="-3.192704">
<ele>134.2</ele>
</rtept>
<rtept lat="55.892591" lon="-3.189670">
<ele>128.8</ele>
</rtept>
<rtept lat="55.892350" lon="-3.187593">
<ele>124.3</ele>
</rtept>
<rtept lat="55.892167" lon="-3.185644">
<ele>123.4</ele>
</rtept>
<rtept lat="55.891551" lon="-3.179216">
<ele>120.7</ele>
</rtept>
<rtept lat="55.891130" lon="-3.174940">
<ele>125.8</ele>
</rtept>
<rtept lat="55.890925" lon="-3.173122">
<ele>123.2</ele>
</rtept>
<rtept lat="55.890459" lon="-3.169008">
<ele>126.4</ele>
</rtept>
<rtept lat="55.890223" lon="-3.166959">
<ele>123.8</ele>
</rtept>
<rtept lat="55.890140" lon="-3.166181">
<ele>127.8</ele>
</rtept>
<rtept lat="55.890049" lon="-3.165193">
<ele>130.5</ele>
</rtept>
<rtept lat="55.889992" lon="-3.164530">
<ele>129.4</ele>
</rtept>
<rtept lat="55.889915" lon="-3.163291">
<ele>132.6</ele>
</rtept>
<rtept lat="55.889880" lon="-3.162537">
<ele>131.3</ele>
</rtept>
<rtept lat="55.889847" lon="-3.161457">
<ele>131.0</ele>
</rtept>
<rtept lat="55.889823" lon="-3.160488">
<ele>131.1</ele>
</rtept>
<rtept lat="55.889794" lon="-3.158756">
<ele>130.9</ele>
</rtept>
<rtept lat="55.889787" lon="-3.156762">
<ele>134.9</ele>
</rtept>
<rtept lat="55.889786" lon="-3.155883">
<ele>140.1</ele>
</rtept>
<rtept lat="55.889790" lon="-3.155046">
<ele>140.8</ele>
</rtept>
<rtept lat="55.889801" lon="-3.153895">
<ele>138.8</ele>
</rtept>
<rtept lat="55.889813" lon="-3.153034">
<ele>137.6</ele>
</rtept>
<rtept lat="55.889826" lon="-3.152179">
<ele>133.7</ele>
</rtept>
<rtept lat="55.889847" lon="-3.151057">
<ele>131.4</ele>
</rtept>
<rtept lat="55.889881" lon="-3.150111">
<ele>126.7</ele>
</rtept>
<rtept lat="55.889914" lon="-3.149464">
<ele>127.4</ele>
</rtept>
<rtept lat="55.889942" lon="-3.148918">
<ele>131.9</ele>
</rtept>
<rtept lat="55.890000" lon="-3.148006">
<ele>128.2</ele>
</rtept>
<rtept lat="55.890067" lon="-3.147132">
<ele>127.5</ele>
</rtept>
<rtept lat="55.890114" lon="-3.146589">
<ele>130.2</ele>
</rtept>
<rtept lat="55.890169" lon="-3.146025">
<ele>129.7</ele>
</rtept>
<rtept lat="55.890193" lon="-3.145719">
<ele>129.3</ele>
</rtept>
<rtept lat="55.890285" lon="-3.144885">
<ele>126.1</ele>
</rtept>
<rtept lat="55.890389" lon="-3.144062">
<ele>126.0</ele>
</rtept>
<rtept lat="55.890487" lon="-3.143388">
<ele>125.2</ele>
</rtept>
<rtept lat="55.890652" lon="-3.142296">
<ele>126.4</ele>
</rtept>
<rtept lat="55.890815" lon="-3.141327">
<ele>126.4</ele>
</rtept>
<rtept lat="55.891098" lon="-3.139870">
<ele>129.6</ele>
</rtept>
<rtept lat="55.891269" lon="-3.139053">
<ele>129.6</ele>
</rtept>
<rtept lat="55.891390" lon="-3.138514">
<ele>127.8</ele>
</rtept>
<rtept lat="55.891579" lon="-3.137723">
<ele>126.9</ele>
</rtept>
<rtept lat="55.891814" lon="-3.136821">
<ele>127.1</ele>
</rtept>
<rtept lat="55.892030" lon="-3.136049">
<ele>122.8</ele>
</rtept>
<rtept lat="55.892430" lon="-3.134698">
<ele>118.8</ele>
</rtept>
<rtept lat="55.892820" lon="-3.133521">
<ele>115.1</ele>
</rtept>
<rtept lat="55.893013" lon="-3.132964">
<ele>113.4</ele>
</rtept>
<rtept lat="55.893615" lon="-3.131267">
<ele>108.9</ele>
</rtept>
<rtept lat="55.893916" lon="-3.130409">
<ele>109.2</ele>
</rtept>
<rtept lat="55.894411" lon="-3.129015">
<ele>105.3</ele>
</rtept>
<rtept lat="55.895043" lon="-3.127232">
<ele>100.0</ele>
</rtept>
<rtept lat="55.896209" lon="-3.123900">
<ele>98.9</ele>
</rtept>
<rtept lat="55.896612" lon="-3.122648">
<ele>96.6</ele>
</rtept>
<rtept lat="55.897014" lon="-3.121258">
<ele>95.4</ele>
</rtept>
<rtept lat="55.897321" lon="-3.120115">
<ele>91.8</ele>
</rtept>
<rtept lat="55.897468" lon="-3.119553">
<ele>90.9</ele>
</rtept>
<rtept lat="55.897718" lon="-3.118462">
<ele>90.6</ele>
</rtept>
<rtept lat="55.897835" lon="-3.117943">
<ele>91.1</ele>
</rtept>
<rtept lat="55.898006" lon="-3.117132">
<ele>90.7</ele>
</rtept>
<rtept lat="55.898180" lon="-3.116277">
<ele>89.3</ele>
</rtept>
<rtept lat="55.898404" lon="-3.115074">
<ele>88.9</ele>
</rtept>
<rtept lat="55.898545" lon="-3.114205">
<ele>86.9</ele>
</rtept>
<rtept lat="55.898727" lon="-3.112989">
<ele>79.8</ele>
</rtept>
<rtept lat="55.898858" lon="-3.112064">
<ele>79.6</ele>
</rtept>
<rtept lat="55.898971" lon="-3.111105">
<ele>79.8</ele>
</rtept>
<rtept lat="55.899084" lon="-3.110004">
<ele>77.2</ele>
</rtept>
<rtept lat="55.899168" lon="-3.109097">
<ele>78.0</ele>
</rtept>
<rtept lat="55.899239" lon="-3.108150">
<ele>74.4</ele>
</rtept>
<rtept lat="55.899291" lon="-3.107338">
<ele>72.2</ele>
</rtept>
<rtept lat="55.899323" lon="-3.106724">
<ele>72.1</ele>
</rtept>
<rtept lat="55.899357" lon="-3.105957">
<ele>71.1</ele>
</rtept>
<rtept lat="55.899376" lon="-3.105434">
<ele>70.4</ele>
</rtept>
<rtept lat="55.899390" lon="-3.104964">
<ele>70.0</ele>
</rtept>
<rtept lat="55.899405" lon="-3.104193">
<ele>67.5</ele>
</rtept>
<rtept lat="55.899411" lon="-3.103427">
<ele>66.1</ele>
</rtept>
<rtept lat="55.899408" lon="-3.102406">
<ele>65.5</ele>
</rtept>
<rtept lat="55.899365" lon="-3.100715">
<ele>64.9</ele>
</rtept>
<rtept lat="55.899356" lon="-3.099994">
<ele>63.6</ele>
</rtept>
<rtept lat="55.899357" lon="-3.099445">
<ele>65.9</ele>
</rtept>
<rtept lat="55.899368" lon="-3.098714">
<ele>65.0</ele>
</rtept>
<rtept lat="55.899391" lon="-3.098031">
<ele>64.2</ele>
</rtept>
<rtept lat="55.899429" lon="-3.097331">
<ele>61.8</ele>
</rtept>
<rtept lat="55.899470" lon="-3.096762">
<ele>62.7</ele>
</rtept>
<rtept lat="55.899534" lon="-3.096084">
<ele>64.2</ele>
</rtept>
<rtept lat="55.899578" lon="-3.095669">
<ele>62.8</ele>
</rtept>
<rtept lat="55.899632" lon="-3.095237">
<ele>61.0</ele>
</rtept>
<rtept lat="55.899679" lon="-3.094919">
<ele>60.7</ele>
</rtept>
<rtept lat="55.899731" lon="-3.094639">
<ele>60.6</ele>
</rtept>
<rtept lat="55.899784" lon="-3.094364">
<ele>61.2</ele>
</rtept>
<rtept lat="55.899803" lon="-3.094269">
<ele>61.0</ele>
</rtept>
<rtept lat="55.899923" lon="-3.093560">
<ele>57.6</ele>
</rtept>
<rtept lat="55.899966" lon="-3.093368">
<ele>56.9</ele>
</rtept>
<rtept lat="55.899999" lon="-3.093260">
<ele>56.1</ele>
</rtept>
<rtept lat="55.900043" lon="-3.093150">
<ele>55.4</ele>
</rtept>
<rtept lat="55.900115" lon="-3.093017">
<ele>55.0</ele>
</rtept>
<rtept lat="55.900198" lon="-3.092894">
<ele>54.9</ele>
</rtept>
<rtept lat="55.900213" lon="-3.092891">
<ele>54.9</ele>
</rtept>
<rtept lat="55.900236" lon="-3.092886">
<ele>54.9</ele>
</rtept>
<rtept lat="55.900310" lon="-3.092850">
<ele>54.8</ele>
</rtept>
<rtept lat="55.900378" lon="-3.092787">
<ele>55.0</ele>
</rtept>
<rtept lat="55.900414" lon="-3.092735">
<ele>55.2</ele>
</rtept>
<rtept lat="55.900437" lon="-3.092701">
<ele>55.7</ele>
</rtept>
<rtept lat="55.900486" lon="-3.092595">
<ele>57.1</ele>
</rtept>
<rtept lat="55.900515" lon="-3.092502">
<ele>58.1</ele>
</rtept>
<rtept lat="55.900531" lon="-3.092431">
<ele>58.4</ele>
</rtept>
<rtept lat="55.900543" lon="-3.092324">
<ele>58.4</ele>
</rtept>
<rtept lat="55.900545" lon="-3.092169">
<ele>58.3</ele>
</rtept>
<rtept lat="55.900527" lon="-3.092018">
<ele>58.0</ele>
</rtept>
<rtept lat="55.900489" lon="-3.091879">
<ele>57.1</ele>
</rtept>
<rtept lat="55.900476" lon="-3.091843">
<ele>56.7</ele>
</rtept>
<rtept lat="55.900457" lon="-3.091724">
<ele>55.9</ele>
</rtept>
<rtept lat="55.900440" lon="-3.091584">
<ele>55.1</ele>
</rtept>
<rtept lat="55.900436" lon="-3.091429">
<ele>54.4</ele>
</rtept>
<rtept lat="55.900440" lon="-3.091250">
<ele>55.7</ele>
</rtept>
<rtept lat="55.900468" lon="-3.091093">
<ele>57.1</ele>
</rtept>
<rtept lat="55.900533" lon="-3.090839">
<ele>58.1</ele>
</rtept>
<rtept lat="55.900742" lon="-3.090139">
<ele>58.1</ele>
</rtept>
<rtept lat="55.901048" lon="-3.089228">
<ele>60.2</ele>
</rtept>
<rtept lat="55.901348" lon="-3.088441">
<ele>59.9</ele>
</rtept>
<rtept lat="55.901514" lon="-3.088027">
<ele>60.1</ele>
</rtept>
<rtept lat="55.901787" lon="-3.087399">
<ele>61.3</ele>
</rtept>
<rtept lat="55.902110" lon="-3.086727">
<ele>61.8</ele>
</rtept>
<rtept lat="55.902378" lon="-3.086230">
<ele>61.7</ele>
</rtept>
<rtept lat="55.902721" lon="-3.085597">
<ele>59.4</ele>
</rtept>
<rtept lat="55.903523" lon="-3.084079">
<ele>55.6</ele>
</rtept>
<rtept lat="55.904097" lon="-3.082957">
<ele>58.6</ele>
</rtept>
<rtept lat="55.904096" lon="-3.082957">
<ele>58.6</ele>
</rtept>
<rtept lat="55.904380" lon="-3.082402">
<ele>58.1</ele>
</rtept>
<rtept lat="55.905071" lon="-3.081049">
<ele>52.7</ele>
</rtept>
<rtept lat="55.906189" lon="-3.078772">
<ele>55.8</ele>
</rtept>
<rtept lat="55.906724" lon="-3.077664">
<ele>59.0</ele>
</rtept>
<rtept lat="55.907238" lon="-3.076584">
<ele>53.2</ele>
</rtept>
<rtept lat="55.907756" lon="-3.075460">
<ele>51.6</ele>
</rtept>
<rtept lat="55.908276" lon="-3.074335">
<ele>56.9</ele>
</rtept>
<rtept lat="55.909256" lon="-3.072133">
<ele>53.7</ele>
</rtept>
<rtept lat="55.909952" lon="-3.070550">
<ele>49.0</ele>
</rtept>
<rtept lat="55.910136" lon="-3.070164">
<ele>46.6</ele>
</rtept>
<rtept lat="55.910322" lon="-3.069797">
<ele>47.7</ele>
</rtept>
<rtept lat="55.910722" lon="-3.069058">
<ele>56.4</ele>
</rtept>
<rtept lat="55.910789" lon="-3.068947">
<ele>58.1</ele>
</rtept>
<rtept lat="55.910942" lon="-3.068692">
<ele>60.2</ele>
</rtept>
<rtept lat="55.911213" lon="-3.068272">
<ele>57.9</ele>
</rtept>
<rtept lat="55.911603" lon="-3.067723">
<ele>51.3</ele>
</rtept>
<rtept lat="55.911958" lon="-3.067267">
<ele>41.5</ele>
</rtept>
<rtept lat="55.912341" lon="-3.066835">
<ele>55.0</ele>
</rtept>
<rtept lat="55.912661" lon="-3.066512">
<ele>47.6</ele>
</rtept>
<rtept lat="55.912994" lon="-3.066210">
<ele>38.2</ele>
</rtept>
<rtept lat="55.913351" lon="-3.065902">
<ele>36.2</ele>
</rtept>
<rtept lat="55.913629" lon="-3.065690">
<ele>33.1</ele>
</rtept>
<rtept lat="55.914120" lon="-3.065368">
<ele>38.8</ele>
</rtept>
<rtept lat="55.914365" lon="-3.065227">
<ele>31.3</ele>
</rtept>
<rtept lat="55.914609" lon="-3.065101">
<ele>26.5</ele>
</rtept>
<rtept lat="55.914969" lon="-3.064933">
<ele>23.5</ele>
</rtept>
<rtept lat="55.915307" lon="-3.064807">
<ele>22.7</ele>
</rtept>
<rtept lat="55.915577" lon="-3.064717">
<ele>18.9</ele>
</rtept>
<rtept lat="55.916210" lon="-3.064564">
<ele>11.9</ele>
</rtept>
<rtept lat="55.916701" lon="-3.064460">
<ele>11.9</ele>
</rtept>
<rtept lat="55.917166" lon="-3.064368">
<ele>12.0</ele>
</rtept>
<rtept lat="55.918473" lon="-3.064097">
<ele>10.2</ele>
</rtept>
<rtept lat="55.919513" lon="-3.063876">
<ele>9.3</ele>
</rtept>
<rtept lat="55.919769" lon="-3.063815">
<ele>8.8</ele>
</rtept>
<rtept lat="55.920319" lon="-3.063634">
<ele>8.9</ele>
</rtept>
<rtept lat="55.920543" lon="-3.063542">
<ele>10.7</ele>
</rtept>
<rtept lat="55.920859" lon="-3.063394">
<ele>17.6</ele>
</rtept>
<rtept lat="55.921249" lon="-3.063187">
<ele>23.1</ele>
</rtept>
<rtept lat="55.921521" lon="-3.063021">
<ele>30.4</ele>
</rtept>
<rtept lat="55.921839" lon="-3.062794">
<ele>31.6</ele>
</rtept>
<rtept lat="55.922405" lon="-3.062342">
<ele>19.4</ele>
</rtept>
<rtept lat="55.922663" lon="-3.062113">
<ele>17.2</ele>
</rtept>
<rtept lat="55.922956" lon="-3.061826">
<ele>35.4</ele>
</rtept>
<rtept lat="55.923107" lon="-3.061670">
<ele>42.0</ele>
</rtept>
<rtept lat="55.923256" lon="-3.061505">
<ele>46.3</ele>
</rtept>
<rtept lat="55.923469" lon="-3.061252">
<ele>46.5</ele>
</rtept>
<rtept lat="55.923661" lon="-3.061028">
<ele>39.9</ele>
</rtept>
<rtept lat="55.923799" lon="-3.060853">
<ele>32.6</ele>
</rtept>
<rtept lat="55.923892" lon="-3.060746">
<ele>25.0</ele>
</rtept>
<rtept lat="55.923958" lon="-3.060678">
<ele>20.3</ele>
</rtept>
<rtept lat="55.924035" lon="-3.060628">
<ele>16.0</ele>
</rtept>
<rtept lat="55.924096" lon="-3.060615">
<ele>15.9</ele>
</rtept>
<rtept lat="55.924236" lon="-3.060632">
<ele>15.8</ele>
</rtept>
<rtept lat="55.924286" lon="-3.060675">
<ele>15.6</ele>
</rtept>
<rtept lat="55.924358" lon="-3.060744">
<ele>15.4</ele>
</rtept>
<rtept lat="55.924442" lon="-3.060779">
<ele>15.6</ele>
</rtept>
<rtept lat="55.924542" lon="-3.060799">
<ele>15.9</ele>
</rtept>
<rtept lat="55.924653" lon="-3.060782">
<ele>15.8</ele>
</rtept>
<rtept lat="55.924761" lon="-3.060735">
<ele>15.8</ele>
</rtept>
<rtept lat="55.924893" lon="-3.060679">
<ele>16.4</ele>
</rtept>
<rtept lat="55.924921" lon="-3.060658">
<ele>16.8</ele>
</rtept>
<rtept lat="55.925009" lon="-3.060596">
<ele>18.2</ele>
</rtept>
<rtept lat="55.925101" lon="-3.060487">
<ele>19.7</ele>
</rtept>
<rtept lat="55.925125" lon="-3.060450">
<ele>20.2</ele>
</rtept>
<rtept lat="55.925214" lon="-3.060309">
<ele>20.4</ele>
</rtept>
<rtept lat="55.925270" lon="-3.060118">
<ele>19.2</ele>
</rtept>
<rtept lat="55.925297" lon="-3.059997">
<ele>18.1</ele>
</rtept>
<rtept lat="55.925360" lon="-3.059821">
<ele>16.1</ele>
</rtept>
<rtept lat="55.925425" lon="-3.059658">
<ele>13.5</ele>
</rtept>
<rtept lat="55.925521" lon="-3.059499">
<ele>12.3</ele>
</rtept>
<rtept lat="55.925640" lon="-3.059355">
<ele>12.1</ele>
</rtept>
<rtept lat="55.925755" lon="-3.059305">
<ele>12.0</ele>
</rtept>
<rtept lat="55.925836" lon="-3.059289">
<ele>12.0</ele>
</rtept>
<rtept lat="55.925904" lon="-3.059291">
<ele>12.0</ele>
</rtept>
<rtept lat="55.925970" lon="-3.059305">
<ele>12.0</ele>
</rtept>
<rtept lat="55.926044" lon="-3.059345">
<ele>12.1</ele>
</rtept>
<rtept lat="55.926053" lon="-3.059352">
<ele>12.1</ele>
</rtept>
<rtept lat="55.926126" lon="-3.059401">
<ele>12.4</ele>
</rtept>
<rtept lat="55.926156" lon="-3.059439">
<ele>12.6</ele>
</rtept>
<rtept lat="55.926213" lon="-3.059508">
<ele>12.7</ele>
</rtept>
<rtept lat="55.926247" lon="-3.059550">
<ele>12.6</ele>
</rtept>
<rtept lat="55.926278" lon="-3.059608">
<ele>12.3</ele>
</rtept>
<rtept lat="55.926326" lon="-3.059727">
<ele>11.8</ele>
</rtept>
<rtept lat="55.926368" lon="-3.059842">
<ele>12.4</ele>
</rtept>
<rtept lat="55.926402" lon="-3.059988">
<ele>12.7</ele>
</rtept>
<rtept lat="55.926416" lon="-3.060091">
<ele>12.3</ele>
</rtept>
<rtept lat="55.926439" lon="-3.060303">
<ele>11.8</ele>
</rtept>
<rtept lat="55.926445" lon="-3.060468">
<ele>12.9</ele>
</rtept>
<rtept lat="55.926506" lon="-3.061955">
<ele>17.3</ele>
</rtept>
<rtept lat="55.926518" lon="-3.062264">
<ele>18.5</ele>
</rtept>
<rtept lat="55.926548" lon="-3.062539">
<ele>16.2</ele>
</rtept>
<rtept lat="55.926591" lon="-3.062788">
<ele>16.7</ele>
</rtept>
<rtept lat="55.926631" lon="-3.062961">
<ele>17.9</ele>
</rtept>
<rtept lat="55.926698" lon="-3.063194">
<ele>19.2</ele>
</rtept>
<rtept lat="55.926713" lon="-3.063337">
<ele>20.0</ele>
</rtept>
<rtept lat="55.926723" lon="-3.063484">
<ele>20.2</ele>
</rtept>
<rtept lat="55.926734" lon="-3.063606">
<ele>20.3</ele>
</rtept>
<rtept lat="55.926733" lon="-3.063645">
<ele>20.6</ele>
</rtept>
<rtept lat="55.926734" lon="-3.063666">
<ele>20.8</ele>
</rtept>
<rtept lat="55.926739" lon="-3.063690">
<ele>21.0</ele>
</rtept>
<rtept lat="55.926747" lon="-3.063730">
<ele>21.3</ele>
</rtept>
<rtept lat="55.926769" lon="-3.063773">
<ele>21.5</ele>
</rtept>
<rtept lat="55.926806" lon="-3.063806">
<ele>21.4</ele>
</rtept>
<rtept lat="55.926842" lon="-3.063811">
<ele>21.4</ele>
</rtept>
<rtept lat="55.926867" lon="-3.063799">
<ele>21.3</ele>
</rtept>
<rtept lat="55.926880" lon="-3.063787">
<ele>21.2</ele>
</rtept>
<rtept lat="55.926893" lon="-3.063771">
<ele>21.0</ele>
</rtept>
<rtept lat="55.926923" lon="-3.063752">
<ele>20.8</ele>
</rtept>
<rtept lat="55.926951" lon="-3.063735">
<ele>20.6</ele>
</rtept>
<rtept lat="55.927071" lon="-3.063652">
<ele>19.5</ele>
</rtept>
<rtept lat="55.927156" lon="-3.063584">
<ele>19.3</ele>
</rtept>
<rtept lat="55.927258" lon="-3.063549">
<ele>19.8</ele>
</rtept>
<rtept lat="55.927337" lon="-3.063504">
<ele>20.1</ele>
</rtept>
<rtept lat="55.927415" lon="-3.063450">
<ele>20.6</ele>
</rtept>
<rtept lat="55.927501" lon="-3.063387">
<ele>21.7</ele>
</rtept>
<rtept lat="55.927582" lon="-3.063310">
<ele>22.9</ele>
</rtept>
<rtept lat="55.927595" lon="-3.063298">
<ele>23.1</ele>
</rtept>
<rtept lat="55.928075" lon="-3.062837">
<ele>27.1</ele>
</rtept>
<rtept lat="55.928847" lon="-3.062097">
<ele>22.8</ele>
</rtept>
<rtept lat="55.928911" lon="-3.062042">
<ele>21.5</ele>
</rtept>
<rtept lat="55.929268" lon="-3.061728">
<ele>16.3</ele>
</rtept>
<rtept lat="55.929979" lon="-3.061094">
<ele>16.9</ele>
</rtept>
<rtept lat="55.930088" lon="-3.060972">
<ele>16.5</ele>
</rtept>
<rtept lat="55.930167" lon="-3.060901">
<ele>16.7</ele>
</rtept>
<rtept lat="55.930301" lon="-3.060843">
<ele>18.9</ele>
</rtept>
<rtept lat="55.930436" lon="-3.060777">
<ele>20.8</ele>
</rtept>
<rtept lat="55.930606" lon="-3.060736">
<ele>22.8</ele>
</rtept>
<rtept lat="55.930680" lon="-3.060684">
<ele>23.8</ele>
</rtept>
<rtept lat="55.930766" lon="-3.060616">
<ele>24.4</ele>
</rtept>
<rtept lat="55.930862" lon="-3.060482">
<ele>25.8</ele>
</rtept>
<rtept lat="55.930913" lon="-3.060412">
<ele>26.7</ele>
</rtept>
<rtept lat="55.931086" lon="-3.060111">
<ele>29.0</ele>
</rtept>
<rtept lat="55.931302" lon="-3.059762">
<ele>28.7</ele>
</rtept>
<rtept lat="55.931587" lon="-3.059412">
<ele>24.6</ele>
</rtept>
<rtept lat="55.931749" lon="-3.059261">
<ele>22.5</ele>
</rtept>
<rtept lat="55.931847" lon="-3.059192">
<ele>22.2</ele>
</rtept>
<rtept lat="55.931977" lon="-3.059178">
<ele>21.0</ele>
</rtept>
<rtept lat="55.932130" lon="-3.059227">
<ele>19.0</ele>
</rtept>
<rtept lat="55.932247" lon="-3.059277">
<ele>17.7</ele>
</rtept>
<rtept lat="55.932328" lon="-3.059336">
<ele>17.1</ele>
</rtept>
<rtept lat="55.932430" lon="-3.059413">
<ele>16.3</ele>
</rtept>
<rtept lat="55.932606" lon="-3.059577">
<ele>14.8</ele>
</rtept>
<rtept lat="55.932773" lon="-3.059749">
<ele>15.0</ele>
</rtept>
<rtept lat="55.932845" lon="-3.059831">
<ele>14.5</ele>
</rtept>
<rtept lat="55.933062" lon="-3.060079">
<ele>15.2</ele>
</rtept>
<rtept lat="55.934376" lon="-3.061500">
<ele>22.0</ele>
</rtept>
<rtept lat="55.934717" lon="-3.061868">
<ele>22.6</ele>
</rtept>
<rtept lat="55.935008" lon="-3.062157">
<ele>21.8</ele>
</rtept>
<rtept lat="55.935264" lon="-3.062324">
<ele>20.6</ele>
</rtept>
<rtept lat="55.935558" lon="-3.062482">
<ele>20.1</ele>
</rtept>
<rtept lat="55.936144" lon="-3.062761">
<ele>18.8</ele>
</rtept>
<rtept lat="55.936176" lon="-3.062771">
<ele>18.8</ele>
</rtept>
<rtept lat="55.936317" lon="-3.062817">
<ele>18.5</ele>
</rtept>
<rtept lat="55.936407" lon="-3.062837">
<ele>18.2</ele>
</rtept>
<rtept lat="55.936555" lon="-3.062842">
<ele>17.9</ele>
</rtept>
<rtept lat="55.936731" lon="-3.062848">
<ele>17.5</ele>
</rtept>
<rtept lat="55.936840" lon="-3.062842">
<ele>17.5</ele>
</rtept>
<rtept lat="55.936953" lon="-3.062821">
<ele>18.2</ele>
</rtept>
<rtept lat="55.937043" lon="-3.062787">
<ele>18.7</ele>
</rtept>
<rtept lat="55.937140" lon="-3.062747">
<ele>19.0</ele>
</rtept>
<rtept lat="55.937556" lon="-3.062521">
<ele>22.8</ele>
</rtept>
<rtept lat="55.937839" lon="-3.062353">
<ele>18.1</ele>
</rtept>
<rtept lat="55.938058" lon="-3.062204">
<ele>17.6</ele>
</rtept>
<rtept lat="55.938296" lon="-3.062031">
<ele>22.0</ele>
</rtept>
<rtept lat="55.938506" lon="-3.061865">
<ele>24.7</ele>
</rtept>
<rtept lat="55.938871" lon="-3.061513">
<ele>34.5</ele>
</rtept>
<rtept lat="55.939251" lon="-3.061145">
<ele>33.4</ele>
</rtept>
<rtept lat="55.939425" lon="-3.060998">
<ele>26.9</ele>
</rtept>
<rtept lat="55.939621" lon="-3.060842">
<ele>16.5</ele>
</rtept>
<rtept lat="55.939720" lon="-3.060775">
<ele>14.8</ele>
</rtept>
<rtept lat="55.939736" lon="-3.060766">
<ele>14.4</ele>
</rtept>
<rtept lat="55.939829" lon="-3.060710">
<ele>12.3</ele>
</rtept>
<rtept lat="55.939910" lon="-3.060663">
<ele>11.3</ele>
</rtept>
<rtept lat="55.939901" lon="-3.060495">
<ele>11.5</ele>
</rtept>
<rtept lat="55.939897" lon="-3.060428">
<ele>12.0</ele>
</rtept>
<rtept lat="55.939892" lon="-3.060312">
<ele>12.9</ele>
</rtept>
<rtept lat="55.939888" lon="-3.059993">
<ele>14.1</ele>
</rtept>
<rtept lat="55.939896" lon="-3.059770">
<ele>13.4</ele>
</rtept>
<rtept lat="55.939909" lon="-3.059574">
<ele>13.4</ele>
</rtept>
<rtept lat="55.939931" lon="-3.059342">
<ele>13.9</ele>
</rtept>
<rtept lat="55.939963" lon="-3.059068">
<ele>13.6</ele>
</rtept>
<rtept lat="55.940061" lon="-3.058563">
<ele>11.4</ele>
</rtept>
<rtept lat="55.940082" lon="-3.058396">
<ele>10.4</ele>
</rtept>
<rtept lat="55.940090" lon="-3.058287">
<ele>9.6</ele>
</rtept>
<rtept lat="55.940089" lon="-3.058134">
<ele>8.2</ele>
</rtept>
<rtept lat="55.940125" lon="-3.058141">
<ele>8.0</ele>
</rtept>
<rtept lat="55.940164" lon="-3.058128">
<ele>7.9</ele>
</rtept>
<rtept lat="55.940181" lon="-3.058110">
<ele>7.9</ele>
</rtept>
<rtept lat="55.940198" lon="-3.058093">
<ele>7.8</ele>
</rtept>
<rtept lat="55.940225" lon="-3.058040">
<ele>7.6</ele>
</rtept>
<rtept lat="55.940240" lon="-3.057975">
<ele>7.5</ele>
</rtept>
<rtept lat="55.940304" lon="-3.057832">
<ele>7.2</ele>
</rtept>
<rtept lat="55.940397" lon="-3.057633">
<ele>7.0</ele>
</rtept>
<rtept lat="55.940406" lon="-3.057615">
<ele>7.0</ele>
</rtept>
<rtept lat="55.940419" lon="-3.057580">
<ele>7.0</ele>
</rtept>
<rtept lat="55.940492" lon="-3.057389">
<ele>7.3</ele>
</rtept>
<rtept lat="55.940514" lon="-3.057341">
<ele>7.4</ele>
</rtept>
<rtept lat="55.940553" lon="-3.057253">
<ele>7.5</ele>
</rtept>
<rtept lat="55.940827" lon="-3.056643">
<ele>8.0</ele>
</rtept>
<rtept lat="55.940937" lon="-3.056392">
<ele>8.0</ele>
</rtept>
<rtept lat="55.940990" lon="-3.056287">
<ele>7.7</ele>
</rtept>
<rtept lat="55.941043" lon="-3.056180">
<ele>7.4</ele>
</rtept>
<rtept lat="55.941242" lon="-3.055715">
<ele>7.5</ele>
</rtept>
<rtept lat="55.941415" lon="-3.055310">
<ele>8.5</ele>
</rtept>
<rtept lat="55.941416" lon="-3.055310">
<ele>8.5</ele>
</rtept>
<rtept lat="55.941709" lon="-3.054625">
<ele>7.2</ele>
</rtept>
<rtept lat="55.941802" lon="-3.054428">
<ele>6.0</ele>
</rtept>
<rtept lat="55.941834" lon="-3.054358">
<ele>5.9</ele>
</rtept>
<rtept lat="55.941876" lon="-3.054280">
<ele>5.6</ele>
</rtept>
<rtept lat="55.941991" lon="-3.054137">
<ele>4.7</ele>
</rtept>
<rtept lat="55.942038" lon="-3.053887">
<ele>5.2</ele>
</rtept>
<rtept lat="55.942074" lon="-3.053692">
<ele>5.0</ele>
</rtept>
<rtept lat="55.942105" lon="-3.053499">
<ele>5.6</ele>
</rtept>
<rtept lat="55.942116" lon="-3.053427">
<ele>5.9</ele>
</rtept>
<rtept lat="55.942159" lon="-3.053122">
<ele>7.1</ele>
</rtept>
<rtept lat="55.942252" lon="-3.052467">
<ele>6.4</ele>
</rtept>
<rtept lat="55.942323" lon="-3.051959">
<ele>6.0</ele>
</rtept>
<rtept lat="55.942483" lon="-3.051130">
<ele>6.0</ele>
</rtept>
<rtept lat="55.942521" lon="-3.050939">
<ele>6.9</ele>
</rtept>
<rtept lat="55.942596" lon="-3.050571">
<ele>7.2</ele>
</rtept>
<rtept lat="55.942600" lon="-3.050552">
<ele>7.1</ele>
</rtept>
<rtept lat="55.942795" lon="-3.049601">
<ele>8.3</ele>
</rtept>
<rtept lat="55.942852" lon="-3.049307">
<ele>8.2</ele>
</rtept>
<rtept lat="55.942865" lon="-3.049243">
<ele>8.0</ele>
</rtept>
<rtept lat="55.943049" lon="-3.048220">
<ele>7.5</ele>
</rtept>
<rtept lat="55.943053" lon="-3.048197">
<ele>7.5</ele>
</rtept>
<rtept lat="55.943074" lon="-3.048082">
<ele>7.7</ele>
</rtept>
<rtept lat="55.943104" lon="-3.047936">
<ele>7.7</ele>
</rtept>
<rtept lat="55.943116" lon="-3.047876">
<ele>7.7</ele>
</rtept>
<rtept lat="55.943144" lon="-3.047741">
<ele>7.6</ele>
</rtept>
<rtept lat="55.943182" lon="-3.047558">
<ele>7.9</ele>
</rtept>
<rtept lat="55.943270" lon="-3.047127">
<ele>7.2</ele>
</rtept>
<rtept lat="55.943305" lon="-3.046951">
<ele>7.0</ele>
</rtept>
<rtept lat="55.943461" lon="-3.046217">
<ele>7.0</ele>
</rtept>
<rtept lat="55.943507" lon="-3.046025">
<ele>7.2</ele>
</rtept>
<rtept lat="55.943532" lon="-3.045933">
<ele>7.4</ele>
</rtept>
<rtept lat="55.943563" lon="-3.045825">
<ele>7.7</ele>
</rtept>
<rtept lat="55.943568" lon="-3.045808">
<ele>7.7</ele>
</rtept>
<rtept lat="55.943575" lon="-3.045787">
<ele>7.6</ele>
</rtept>
<rtept lat="55.943585" lon="-3.045756">
<ele>7.6</ele>
</rtept>
<rtept lat="55.943622" lon="-3.045638">
<ele>7.5</ele>
</rtept>
<rtept lat="55.943734" lon="-3.045333">
<ele>6.3</ele>
</rtept>
<rtept lat="55.943791" lon="-3.045184">
<ele>6.5</ele>
</rtept>
<rtept lat="55.943942" lon="-3.044854">
<ele>7.4</ele>
</rtept>
<rtept lat="55.944732" lon="-3.043344">
<ele>8.0</ele>
</rtept>
<rtept lat="55.945159" lon="-3.042534">
<ele>6.1</ele>
</rtept>
<rtept lat="55.945349" lon="-3.042154">
<ele>7.5</ele>
</rtept>
<rtept lat="55.945406" lon="-3.042016">
<ele>7.9</ele>
</rtept>
<rtept lat="55.945430" lon="-3.041944">
<ele>8.0</ele>
</rtept>
<rtept lat="55.945444" lon="-3.041852">
<ele>8.0</ele>
</rtept>
<rtept lat="55.945448" lon="-3.041808">
<ele>8.0</ele>
</rtept>
<rtept lat="55.945511" lon="-3.041046">
<ele>8.0</ele>
</rtept>
<rtept lat="55.945542" lon="-3.040688">
<ele>7.7</ele>
</rtept>
<rtept lat="55.945615" lon="-3.039819">
<ele>7.0</ele>
</rtept>
<rtept lat="55.945642" lon="-3.039461">
<ele>7.6</ele>
</rtept>
<rtept lat="55.945667" lon="-3.039120">
<ele>7.8</ele>
</rtept>
<rtept lat="55.945715" lon="-3.038496">
<ele>6.9</ele>
</rtept>
<rtept lat="55.945731" lon="-3.038240">
<ele>6.7</ele>
</rtept>
<rtept lat="55.945734" lon="-3.038013">
<ele>6.7</ele>
</rtept>
<rtept lat="55.945722" lon="-3.037648">
<ele>6.8</ele>
</rtept>
<rtept lat="55.945712" lon="-3.037309">
<ele>7.6</ele>
</rtept>
<rtept lat="55.945699" lon="-3.036987">
<ele>7.1</ele>
</rtept>
<rtept lat="55.945678" lon="-3.036294">
<ele>8.0</ele>
</rtept>
<rtept lat="55.945606" lon="-3.035491">
<ele>7.6</ele>
</rtept>
<rtept lat="55.945573" lon="-3.035205">
<ele>8.4</ele>
</rtept>
<rtept lat="55.945479" lon="-3.034524">
<ele>9.3</ele>
</rtept>
<rtept lat="55.945420" lon="-3.034169">
<ele>10.0</ele>
</rtept>
<rtept lat="55.945404" lon="-3.034075">
<ele>9.9</ele>
</rtept>
<rtept lat="55.945367" lon="-3.033859">
<ele>9.7</ele>
</rtept>
<rtept lat="55.945315" lon="-3.033573">
<ele>10.4</ele>
</rtept>
<rtept lat="55.945268" lon="-3.033311">
<ele>11.2</ele>
</rtept>
<rtept lat="55.945168" lon="-3.032755">
<ele>10.5</ele>
</rtept>
<rtept lat="55.945092" lon="-3.032344">
<ele>9.3</ele>
</rtept>
<rtept lat="55.945015" lon="-3.031928">
<ele>9.8</ele>
</rtept>
<rtept lat="55.944977" lon="-3.031698">
<ele>9.9</ele>
</rtept>
<rtept lat="55.944853" lon="-3.030884">
<ele>9.1</ele>
</rtept>
<rtept lat="55.944776" lon="-3.030347">
<ele>8.4</ele>
</rtept>
<rtept lat="55.944653" lon="-3.029389">
<ele>9.1</ele>
</rtept>
<rtept lat="55.944554" lon="-3.028453">
<ele>9.8</ele>
</rtept>
<rtept lat="55.944483" lon="-3.027776">
<ele>9.0</ele>
</rtept>
<rtept lat="55.944403" lon="-3.026932">
<ele>9.6</ele>
</rtept>
<rtept lat="55.944396" lon="-3.026725">
<ele>8.9</ele>
</rtept>
<rtept lat="55.944399" lon="-3.026664">
<ele>8.7</ele>
</rtept>
<rtept lat="55.944406" lon="-3.026516">
<ele>8.3</ele>
</rtept>
<rtept lat="55.944423" lon="-3.026343">
<ele>8.0</ele>
</rtept>
<rtept lat="55.944461" lon="-3.026274">
<ele>8.0</ele>
</rtept>
<rtept lat="55.944466" lon="-3.026262">
<ele>8.0</ele>
</rtept>
<rtept lat="55.944470" lon="-3.026250">
<ele>8.0</ele>
</rtept>
<rtept lat="55.944493" lon="-3.026150">
<ele>8.0</ele>
</rtept>
<rtept lat="55.944494" lon="-3.026125">
<ele>8.0</ele>
</rtept>
<rtept lat="55.944498" lon="-3.026042">
<ele>7.8</ele>
</rtept>
<rtept lat="55.944490" lon="-3.025983">
<ele>7.5</ele>
</rtept>
<rtept lat="55.944484" lon="-3.025937">
<ele>7.4</ele>
</rtept>
<rtept lat="55.944453" lon="-3.025844">
<ele>7.0</ele>
</rtept>
<rtept lat="55.944433" lon="-3.025810">
<ele>6.9</ele>
</rtept>
<rtept lat="55.944424" lon="-3.025795">
<ele>6.8</ele>
</rtept>
<rtept lat="55.944422" lon="-3.025772">
<ele>6.7</ele>
</rtept>
<rtept lat="55.944422" lon="-3.025762">
<ele>6.7</ele>
</rtept>
<rtept lat="55.944414" lon="-3.025615">
<ele>6.0</ele>
</rtept>
<rtept lat="55.944406" lon="-3.025474">
<ele>5.9</ele>
</rtept>
<rtept lat="55.944420" lon="-3.025061">
<ele>6.4</ele>
</rtept>
<rtept lat="55.944439" lon="-3.024814">
<ele>7.1</ele>
</rtept>
<rtept lat="55.944450" lon="-3.024665">
<ele>7.7</ele>
</rtept>
<rtept lat="55.944460" lon="-3.024451">
<ele>8.1</ele>
</rtept>
<rtept lat="55.944464" lon="-3.024153">
<ele>8.6</ele>
</rtept>
<rtept lat="55.944461" lon="-3.023726">
<ele>9.1</ele>
</rtept>
<rtept lat="55.944446" lon="-3.023406">
<ele>10.2</ele>
</rtept>
<rtept lat="55.944406" lon="-3.022869">
<ele>10.2</ele>
</rtept>
<rtept lat="55.944338" lon="-3.022094">
<ele>9.5</ele>
</rtept>
<rtept lat="55.944273" lon="-3.021598">
<ele>9.2</ele>
</rtept>
<rtept lat="55.944234" lon="-3.021354">
<ele>10.3</ele>
</rtept>
<rtept lat="55.944203" lon="-3.021194">
<ele>12.5</ele>
</rtept>
<rtept lat="55.944147" lon="-3.020940">
<ele>11.5</ele>
</rtept>
<rtept lat="55.944081" lon="-3.020716">
<ele>11.9</ele>
</rtept>
<rtept lat="55.943954" lon="-3.020297">
<ele>13.1</ele>
</rtept>
<rtept lat="55.943881" lon="-3.020055">
<ele>14.7</ele>
</rtept>
<rtept lat="55.943800" lon="-3.019748">
<ele>15.4</ele>
</rtept>
<rtept lat="55.943777" lon="-3.019631">
<ele>15.3</ele>
</rtept>
<rtept lat="55.943752" lon="-3.019504">
<ele>15.2</ele>
</rtept>
<rtept lat="55.943712" lon="-3.019235">
<ele>14.7</ele>
</rtept>
<rtept lat="55.943648" lon="-3.018816">
<ele>16.3</ele>
</rtept>
<rtept lat="55.943607" lon="-3.018585">
<ele>17.0</ele>
</rtept>
<rtept lat="55.943560" lon="-3.018386">
<ele>17.4</ele>
</rtept>
<rtept lat="55.943464" lon="-3.017968">
<ele>19.0</ele>
</rtept>
<rtept lat="55.943358" lon="-3.017583">
<ele>18.5</ele>
</rtept>
<rtept lat="55.942926" lon="-3.016144">
<ele>14.0</ele>
</rtept>
<rtept lat="55.942883" lon="-3.016004">
<ele>14.3</ele>
</rtept>
<rtept lat="55.942453" lon="-3.014675">
<ele>15.5</ele>
</rtept>
<rtept lat="55.942421" lon="-3.014525">
<ele>15.1</ele>
</rtept>
<rtept lat="55.942398" lon="-3.014392">
<ele>14.6</ele>
</rtept>
<rtept lat="55.942342" lon="-3.013803">
<ele>13.0</ele>
</rtept>
<rtept lat="55.942313" lon="-3.013502">
<ele>13.6</ele>
</rtept>
<rtept lat="55.942306" lon="-3.013389">
<ele>14.1</ele>
</rtept>
<rtept lat="55.942297" lon="-3.013247">
<ele>14.9</ele>
</rtept>
<rtept lat="55.942292" lon="-3.013112">
<ele>15.8</ele>
</rtept>
<rtept lat="55.942293" lon="-3.013010">
<ele>16.6</ele>
</rtept>
<rtept lat="55.942295" lon="-3.012892">
<ele>17.3</ele>
</rtept>
<rtept lat="55.942300" lon="-3.012752">
<ele>18.3</ele>
</rtept>
<rtept lat="55.942335" lon="-3.012205">
<ele>19.8</ele>
</rtept>
<rtept lat="55.942373" lon="-3.011676">
<ele>19.1</ele>
</rtept>
<rtept lat="55.942381" lon="-3.011293">
<ele>19.2</ele>
</rtept>
<rtept lat="55.942387" lon="-3.011011">
<ele>19.5</ele>
</rtept>
<rtept lat="55.942385" lon="-3.010774">
<ele>20.2</ele>
</rtept>
<rtept lat="55.942374" lon="-3.010476">
<ele>21.1</ele>
</rtept>
<rtept lat="55.942358" lon="-3.010152">
<ele>21.5</ele>
</rtept>
<rtept lat="55.942357" lon="-3.009943">
<ele>22.5</ele>
</rtept>
<rtept lat="55.942358" lon="-3.009788">
<ele>23.6</ele>
</rtept>
<rtept lat="55.942369" lon="-3.009630">
<ele>24.4</ele>
</rtept>
<rtept lat="55.942388" lon="-3.009439">
<ele>25.2</ele>
</rtept>
<rtept lat="55.942410" lon="-3.009329">
<ele>26.1</ele>
</rtept>
<rtept lat="55.942473" lon="-3.009122">
<ele>27.5</ele>
</rtept>
<rtept lat="55.942500" lon="-3.009058">
<ele>27.9</ele>
</rtept>
<rtept lat="55.942537" lon="-3.008982">
<ele>28.5</ele>
</rtept>
<rtept lat="55.942570" lon="-3.008928">
<ele>29.0</ele>
</rtept>
<rtept lat="55.942595" lon="-3.008875">
<ele>29.5</ele>
</rtept>
<rtept lat="55.942601" lon="-3.008861">
<ele>29.6</ele>
</rtept>
<rtept lat="55.942661" lon="-3.008724">
<ele>30.0</ele>
</rtept>
<rtept lat="55.942700" lon="-3.008594">
<ele>29.9</ele>
</rtept>
<rtept lat="55.942715" lon="-3.008521">
<ele>29.5</ele>
</rtept>
<rtept lat="55.942720" lon="-3.008458">
<ele>29.2</ele>
</rtept>
<rtept lat="55.942719" lon="-3.008395">
<ele>28.9</ele>
</rtept>
<rtept lat="55.942710" lon="-3.008320">
<ele>28.5</ele>
</rtept>
<rtept lat="55.942693" lon="-3.008252">
<ele>28.2</ele>
</rtept>
<rtept lat="55.942664" lon="-3.008186">
<ele>27.7</ele>
</rtept>
<rtept lat="55.942646" lon="-3.008149">
<ele>27.4</ele>
</rtept>
<rtept lat="55.942628" lon="-3.008126">
<ele>27.2</ele>
</rtept>
<rtept lat="55.942619" lon="-3.008107">
<ele>27.0</ele>
</rtept>
<rtept lat="55.942613" lon="-3.008093">
<ele>26.9</ele>
</rtept>
<rtept lat="55.942601" lon="-3.008052">
<ele>26.7</ele>
</rtept>
<rtept lat="55.942592" lon="-3.008005">
<ele>26.5</ele>
</rtept>
<rtept lat="55.942588" lon="-3.007943">
<ele>26.2</ele>
</rtept>
<rtept lat="55.942588" lon="-3.007743">
<ele>25.4</ele>
</rtept>
<rtept lat="55.942615" lon="-3.007584">
<ele>24.5</ele>
</rtept>
<rtept lat="55.942633" lon="-3.007430">
<ele>23.7</ele>
</rtept>
<rtept lat="55.942641" lon="-3.007257">
<ele>23.2</ele>
</rtept>
<rtept lat="55.942643" lon="-3.006848">
<ele>23.4</ele>
</rtept>
<rtept lat="55.942611" lon="-3.006414">
<ele>21.0</ele>
</rtept>
<rtept lat="55.942597" lon="-3.006113">
<ele>19.9</ele>
</rtept>
<rtept lat="55.942622" lon="-3.005626">
<ele>23.4</ele>
</rtept>
<rtept lat="55.942684" lon="-3.005338">
<ele>26.4</ele>
</rtept>
<rtept lat="55.942727" lon="-3.005174">
<ele>26.6</ele>
</rtept>
<rtept lat="55.942752" lon="-3.005146">
<ele>26.6</ele>
</rtept>
<rtept lat="55.942779" lon="-3.005101">
<ele>26.7</ele>
</rtept>
<rtept lat="55.942796" lon="-3.005050">
<ele>26.8</ele>
</rtept>
<rtept lat="55.942809" lon="-3.004966">
<ele>26.8</ele>
</rtept>
<rtept lat="55.942806" lon="-3.004881">
<ele>26.8</ele>
</rtept>
<rtept lat="55.942791" lon="-3.004811">
<ele>26.6</ele>
</rtept>
<rtept lat="55.942805" lon="-3.004637">
<ele>26.1</ele>
</rtept>
<rtept lat="55.942827" lon="-3.004431">
<ele>24.5</ele>
</rtept>
<rtept lat="55.942960" lon="-3.004028">
<ele>21.6</ele>
</rtept>
<rtept lat="55.943039" lon="-3.003676">
<ele>21.4</ele>
</rtept>
<rtept lat="55.943100" lon="-3.003407">
<ele>23.0</ele>
</rtept>
<rtept lat="55.943173" lon="-3.002830">
<ele>23.9</ele>
</rtept>
<rtept lat="55.943177" lon="-3.002797">
<ele>23.8</ele>
</rtept>
<rtept lat="55.943191" lon="-3.002700">
<ele>24.0</ele>
</rtept>
<rtept lat="55.943276" lon="-3.002016">
<ele>24.1</ele>
</rtept>
<rtept lat="55.943477" lon="-3.000540">
<ele>25.9</ele>
</rtept>
<rtept lat="55.943605" lon="-2.999489">
<ele>22.7</ele>
</rtept>
<rtept lat="55.943655" lon="-2.999085">
<ele>22.2</ele>
</rtept>
<rtept lat="55.943673" lon="-2.998942">
<ele>22.9</ele>
</rtept>
<rtept lat="55.943837" lon="-2.997653">
<ele>23.9</ele>
</rtept>
<rtept lat="55.943870" lon="-2.997393">
<ele>24.7</ele>
</rtept>
<rtept lat="55.943905" lon="-2.997113">
<ele>24.7</ele>
</rtept>
<rtept lat="55.944212" lon="-2.994891">
<ele>29.0</ele>
</rtept>
<rtept lat="55.944310" lon="-2.994104">
<ele>27.5</ele>
</rtept>
<rtept lat="55.944312" lon="-2.994104">
<ele>27.5</ele>
</rtept>
<rtept lat="55.944344" lon="-2.993843">
<ele>26.2</ele>
</rtept>
<rtept lat="55.944423" lon="-2.993225">
<ele>26.8</ele>
</rtept>
<rtept lat="55.944566" lon="-2.992095">
<ele>30.5</ele>
</rtept>
<rtept lat="55.944634" lon="-2.991525">
<ele>31.7</ele>
</rtept>
<rtept lat="55.944651" lon="-2.991272">
<ele>32.7</ele>
</rtept>
<rtept lat="55.944668" lon="-2.990918">
<ele>33.5</ele>
</rtept>
<rtept lat="55.944661" lon="-2.990498">
<ele>33.5</ele>
</rtept>
<rtept lat="55.944659" lon="-2.990385">
<ele>33.3</ele>
</rtept>
<rtept lat="55.944656" lon="-2.990135">
<ele>32.7</ele>
</rtept>
<rtept lat="55.944650" lon="-2.989842">
<ele>32.8</ele>
</rtept>
<rtept lat="55.944643" lon="-2.989549">
<ele>34.2</ele>
</rtept>
<rtept lat="55.944638" lon="-2.989396">
<ele>34.9</ele>
</rtept>
<rtept lat="55.944636" lon="-2.989109">
<ele>35.7</ele>
</rtept>
<rtept lat="55.944630" lon="-2.988419">
<ele>41.2</ele>
</rtept>
<rtept lat="55.944631" lon="-2.987997">
<ele>40.6</ele>
</rtept>
<rtept lat="55.944636" lon="-2.987498">
<ele>43.2</ele>
</rtept>
<rtept lat="55.944645" lon="-2.987223">
<ele>45.0</ele>
</rtept>
<rtept lat="55.944647" lon="-2.987131">
<ele>46.5</ele>
</rtept>
<rtept lat="55.944676" lon="-2.987133">
<ele>46.4</ele>
</rtept>
<rtept lat="55.944735" lon="-2.987127">
<ele>46.3</ele>
</rtept>
<rtept lat="55.944795" lon="-2.987097">
<ele>46.6</ele>
</rtept>
<rtept lat="55.944837" lon="-2.987064">
<ele>46.8</ele>
</rtept>
<rtept lat="55.944886" lon="-2.987016">
<ele>47.3</ele>
</rtept>
<rtept lat="55.944951" lon="-2.986914">
<ele>48.1</ele>
</rtept>
<rtept lat="55.944980" lon="-2.986856">
<ele>48.3</ele>
</rtept>
<rtept lat="55.945020" lon="-2.986776">
<ele>48.6</ele>
</rtept>
<rtept lat="55.945077" lon="-2.986628">
<ele>49.1</ele>
</rtept>
<rtept lat="55.945138" lon="-2.986425">
<ele>49.9</ele>
</rtept>
<rtept lat="55.945187" lon="-2.986194">
<ele>49.2</ele>
</rtept>
<rtept lat="55.945235" lon="-2.985915">
<ele>48.0</ele>
</rtept>
<rtept lat="55.945343" lon="-2.985259">
<ele>46.2</ele>
</rtept>
<rtept lat="55.945410" lon="-2.984877">
<ele>47.5</ele>
</rtept>
<rtept lat="55.945464" lon="-2.984623">
<ele>50.2</ele>
</rtept>
<rtept lat="55.945508" lon="-2.984453">
<ele>52.8</ele>
</rtept>
<rtept lat="55.945579" lon="-2.984229">
<ele>54.8</ele>
</rtept>
<rtept lat="55.945661" lon="-2.984003">
<ele>57.1</ele>
</rtept>
<rtept lat="55.945788" lon="-2.983663">
<ele>56.8</ele>
</rtept>
<rtept lat="55.945905" lon="-2.983364">
<ele>57.3</ele>
</rtept>
<rtept lat="55.946038" lon="-2.983014">
<ele>56.7</ele>
</rtept>
<rtept lat="55.946291" lon="-2.982342">
<ele>56.0</ele>
</rtept>
<rtept lat="55.946556" lon="-2.981632">
<ele>52.2</ele>
</rtept>
<rtept lat="55.946653" lon="-2.981321">
<ele>52.1</ele>
</rtept>
<rtept lat="55.946726" lon="-2.981035">
<ele>51.9</ele>
</rtept>
<rtept lat="55.946892" lon="-2.980618">
<ele>52.0</ele>
</rtept>
<rtept lat="55.947112" lon="-2.980039">
<ele>51.1</ele>
</rtept>
<rtept lat="55.947287" lon="-2.979567">
<ele>50.3</ele>
</rtept>
<rtept lat="55.947553" lon="-2.978842">
<ele>46.4</ele>
</rtept>
<rtept lat="55.947771" lon="-2.978220">
<ele>46.1</ele>
</rtept>
<rtept lat="55.948024" lon="-2.977490">
<ele>46.3</ele>
</rtept>
<rtept lat="55.948234" lon="-2.976863">
<ele>43.7</ele>
</rtept>
<rtept lat="55.948392" lon="-2.976380">
<ele>43.7</ele>
</rtept>
<rtept lat="55.948559" lon="-2.975857">
<ele>41.8</ele>
</rtept>
<rtept lat="55.948828" lon="-2.974980">
<ele>41.2</ele>
</rtept>
<rtept lat="55.949195" lon="-2.973732">
<ele>39.2</ele>
</rtept>
<rtept lat="55.949414" lon="-2.972930">
<ele>37.7</ele>
</rtept>
<rtept lat="55.949621" lon="-2.972146">
<ele>42.5</ele>
</rtept>
<rtept lat="55.949760" lon="-2.971612">
<ele>44.3</ele>
</rtept>
<rtept lat="55.949891" lon="-2.971086">
<ele>46.9</ele>
</rtept>
<rtept lat="55.950022" lon="-2.970549">
<ele>47.0</ele>
</rtept>
<rtept lat="55.950249" lon="-2.969618">
<ele>44.6</ele>
</rtept>
<rtept lat="55.950409" lon="-2.968930">
<ele>44.1</ele>
</rtept>
<rtept lat="55.950579" lon="-2.968154">
<ele>43.5</ele>
</rtept>
<rtept lat="55.950748" lon="-2.967344">
<ele>44.6</ele>
</rtept>
<rtept lat="55.950883" lon="-2.966661">
<ele>45.7</ele>
</rtept>
<rtept lat="55.951069" lon="-2.965708">
<ele>42.4</ele>
</rtept>
<rtept lat="55.951167" lon="-2.965164">
<ele>41.6</ele>
</rtept>
<rtept lat="55.951289" lon="-2.964476">
<ele>39.9</ele>
</rtept>
<rtept lat="55.951430" lon="-2.963628">
<ele>39.3</ele>
</rtept>
<rtept lat="55.951583" lon="-2.962656">
<ele>38.5</ele>
</rtept>
<rtept lat="55.951714" lon="-2.961795">
<ele>42.2</ele>
</rtept>
<rtept lat="55.951891" lon="-2.960518">
<ele>41.4</ele>
</rtept>
<rtept lat="55.951977" lon="-2.959854">
<ele>42.7</ele>
</rtept>
<rtept lat="55.952054" lon="-2.959224">
<ele>44.3</ele>
</rtept>
<rtept lat="55.952125" lon="-2.958589">
<ele>40.3</ele>
</rtept>
<rtept lat="55.952245" lon="-2.957475">
<ele>37.0</ele>
</rtept>
<rtept lat="55.952341" lon="-2.956470">
<ele>38.1</ele>
</rtept>
<rtept lat="55.952391" lon="-2.955882">
<ele>40.3</ele>
</rtept>
<rtept lat="55.952478" lon="-2.954732">
<ele>46.9</ele>
</rtept>
<rtept lat="55.952546" lon="-2.953745">
<ele>49.3</ele>
</rtept>
<rtept lat="55.952590" lon="-2.952984">
<ele>45.3</ele>
</rtept>
<rtept lat="55.952626" lon="-2.952314">
<ele>44.0</ele>
</rtept>
<rtept lat="55.952667" lon="-2.951342">
<ele>43.2</ele>
</rtept>
<rtept lat="55.952689" lon="-2.950593">
<ele>42.5</ele>
</rtept>
<rtept lat="55.952718" lon="-2.949461">
<ele>43.1</ele>
</rtept>
<rtept lat="55.952739" lon="-2.948344">
<ele>45.7</ele>
</rtept>
<rtept lat="55.952746" lon="-2.947343">
<ele>48.1</ele>
</rtept>
<rtept lat="55.952744" lon="-2.946569">
<ele>51.4</ele>
</rtept>
<rtept lat="55.952738" lon="-2.945749">
<ele>54.8</ele>
</rtept>
<rtept lat="55.952733" lon="-2.945261">
<ele>57.6</ele>
</rtept>
<rtept lat="55.952718" lon="-2.944634">
<ele>55.7</ele>
</rtept>
<rtept lat="55.952704" lon="-2.944037">
<ele>54.1</ele>
</rtept>
<rtept lat="55.952663" lon="-2.942957">
<ele>56.1</ele>
</rtept>
<rtept lat="55.952651" lon="-2.942639">
<ele>58.4</ele>
</rtept>
<rtept lat="55.952618" lon="-2.941892">
<ele>61.0</ele>
</rtept>
<rtept lat="55.952580" lon="-2.941189">
<ele>57.6</ele>
</rtept>
<rtept lat="55.952546" lon="-2.940612">
<ele>56.7</ele>
</rtept>
<rtept lat="55.952477" lon="-2.939616">
<ele>58.5</ele>
</rtept>
<rtept lat="55.952396" lon="-2.938566">
<ele>57.1</ele>
</rtept>
<rtept lat="55.952336" lon="-2.937870">
<ele>57.7</ele>
</rtept>
<rtept lat="55.952262" lon="-2.937075">
<ele>55.9</ele>
</rtept>
<rtept lat="55.952142" lon="-2.935939">
<ele>57.8</ele>
</rtept>
<rtept lat="55.952037" lon="-2.935033">
<ele>58.8</ele>
</rtept>
<rtept lat="55.951889" lon="-2.933846">
<ele>57.3</ele>
</rtept>
<rtept lat="55.951736" lon="-2.932711">
<ele>61.8</ele>
</rtept>
<rtept lat="55.951620" lon="-2.931910">
<ele>63.7</ele>
</rtept>
<rtept lat="55.951393" lon="-2.930444">
<ele>66.5</ele>
</rtept>
<rtept lat="55.951133" lon="-2.928965">
<ele>69.8</ele>
</rtept>
<rtept lat="55.950920" lon="-2.927831">
<ele>66.5</ele>
</rtept>
<rtept lat="55.950756" lon="-2.927004">
<ele>66.1</ele>
</rtept>
<rtept lat="55.950586" lon="-2.926197">
<ele>67.3</ele>
</rtept>
<rtept lat="55.950398" lon="-2.925339">
<ele>70.8</ele>
</rtept>
<rtept lat="55.950188" lon="-2.924429">
<ele>71.0</ele>
</rtept>
<rtept lat="55.949985" lon="-2.923574">
<ele>70.7</ele>
</rtept>
<rtept lat="55.949656" lon="-2.922270">
<ele>69.9</ele>
</rtept>
<rtept lat="55.949443" lon="-2.921415">
<ele>73.4</ele>
</rtept>
<rtept lat="55.949186" lon="-2.920365">
<ele>74.7</ele>
</rtept>
<rtept lat="55.948976" lon="-2.919460">
<ele>73.8</ele>
</rtept>
<rtept lat="55.948769" lon="-2.918531">
<ele>73.5</ele>
</rtept>
<rtept lat="55.948504" lon="-2.917193">
<ele>72.0</ele>
</rtept>
<rtept lat="55.948268" lon="-2.915938">
<ele>74.3</ele>
</rtept>
<rtept lat="55.948057" lon="-2.914702">
<ele>74.6</ele>
</rtept>
<rtept lat="55.947964" lon="-2.914141">
<ele>73.9</ele>
</rtept>
<rtept lat="55.947876" lon="-2.913554">
<ele>74.5</ele>
</rtept>
<rtept lat="55.947834" lon="-2.913255">
<ele>74.9</ele>
</rtept>
<rtept lat="55.947776" lon="-2.912844">
<ele>76.9</ele>
</rtept>
<rtept lat="55.947678" lon="-2.912121">
<ele>76.7</ele>
</rtept>
<rtept lat="55.947613" lon="-2.911580">
<ele>75.0</ele>
</rtept>
<rtept lat="55.947511" lon="-2.910731">
<ele>74.1</ele>
</rtept>
<rtept lat="55.947394" lon="-2.909639">
<ele>76.8</ele>
</rtept>
<rtept lat="55.947298" lon="-2.908615">
<ele>80.1</ele>
</rtept>
<rtept lat="55.947236" lon="-2.907901">
<ele>79.1</ele>
</rtept>
<rtept lat="55.947181" lon="-2.907178">
<ele>79.3</ele>
</rtept>
<rtept lat="55.947135" lon="-2.906551">
<ele>79.5</ele>
</rtept>
<rtept lat="55.947108" lon="-2.906113">
<ele>78.2</ele>
</rtept>
<rtept lat="55.947066" lon="-2.905416">
<ele>78.7</ele>
</rtept>
<rtept lat="55.947032" lon="-2.904675">
<ele>79.2</ele>
</rtept>
<rtept lat="55.947001" lon="-2.903933">
<ele>78.9</ele>
</rtept>
<rtept lat="55.946983" lon="-2.903349">
<ele>78.9</ele>
</rtept>
<rtept lat="55.946965" lon="-2.902469">
<ele>77.8</ele>
</rtept>
<rtept lat="55.946953" lon="-2.901593">
<ele>75.5</ele>
</rtept>
<rtept lat="55.946955" lon="-2.900703">
<ele>78.4</ele>
</rtept>
<rtept lat="55.946960" lon="-2.900122">
<ele>78.8</ele>
</rtept>
<rtept lat="55.946969" lon="-2.899539">
<ele>82.0</ele>
</rtept>
<rtept lat="55.946987" lon="-2.898932">
<ele>86.1</ele>
</rtept>
<rtept lat="55.947015" lon="-2.898219">
<ele>83.3</ele>
</rtept>
<rtept lat="55.947053" lon="-2.897481">
<ele>82.1</ele>
</rtept>
<rtept lat="55.947092" lon="-2.896909">
<ele>83.0</ele>
</rtept>
<rtept lat="55.947124" lon="-2.896461">
<ele>82.7</ele>
</rtept>
<rtept lat="55.947197" lon="-2.895603">
<ele>83.7</ele>
</rtept>
<rtept lat="55.947270" lon="-2.894872">
<ele>84.5</ele>
</rtept>
<rtept lat="55.947351" lon="-2.894141">
<ele>84.1</ele>
</rtept>
<rtept lat="55.947440" lon="-2.893424">
<ele>88.8</ele>
</rtept>
<rtept lat="55.947535" lon="-2.892716">
<ele>87.5</ele>
</rtept>
<rtept lat="55.947640" lon="-2.892007">
<ele>89.0</ele>
</rtept>
<rtept lat="55.947761" lon="-2.891297">
<ele>89.2</ele>
</rtept>
<rtept lat="55.947860" lon="-2.890745">
<ele>87.8</ele>
</rtept>
<rtept lat="55.947996" lon="-2.890044">
<ele>91.4</ele>
</rtept>
<rtept lat="55.948140" lon="-2.889347">
<ele>92.5</ele>
</rtept>
<rtept lat="55.948232" lon="-2.888925">
<ele>92.3</ele>
</rtept>
<rtept lat="55.948322" lon="-2.888530">
<ele>92.3</ele>
</rtept>
<rtept lat="55.948439" lon="-2.888035">
<ele>94.7</ele>
</rtept>
<rtept lat="55.948547" lon="-2.887589">
<ele>97.7</ele>
</rtept>
<rtept lat="55.948695" lon="-2.887015">
<ele>95.5</ele>
</rtept>
<rtept lat="55.948838" lon="-2.886504">
<ele>95.5</ele>
</rtept>
<rtept lat="55.949118" lon="-2.885504">
<ele>91.8</ele>
</rtept>
<rtept lat="55.949332" lon="-2.884716">
<ele>96.2</ele>
</rtept>
<rtept lat="55.949497" lon="-2.884085">
<ele>93.9</ele>
</rtept>
<rtept lat="55.949636" lon="-2.883535">
<ele>93.9</ele>
</rtept>
<rtept lat="55.949791" lon="-2.882878">
<ele>93.0</ele>
</rtept>
<rtept lat="55.949947" lon="-2.882205">
<ele>91.7</ele>
</rtept>
<rtept lat="55.950093" lon="-2.881547">
<ele>92.0</ele>
</rtept>
<rtept lat="55.950179" lon="-2.881134">
<ele>94.8</ele>
</rtept>
<rtept lat="55.950269" lon="-2.880724">
<ele>92.9</ele>
</rtept>
<rtept lat="55.950370" lon="-2.880219">
<ele>91.8</ele>
</rtept>
<rtept lat="55.950448" lon="-2.879818">
<ele>94.1</ele>
</rtept>
<rtept lat="55.950551" lon="-2.879271">
<ele>94.4</ele>
</rtept>
<rtept lat="55.950676" lon="-2.878566">
<ele>93.9</ele>
</rtept>
<rtept lat="55.950790" lon="-2.877881">
<ele>95.0</ele>
</rtept>
<rtept lat="55.950941" lon="-2.876925">
<ele>94.9</ele>
</rtept>
<rtept lat="55.951042" lon="-2.876222">
<ele>94.6</ele>
</rtept>
<rtept lat="55.951192" lon="-2.875112">
<ele>93.9</ele>
</rtept>
<rtept lat="55.951310" lon="-2.874124">
<ele>94.4</ele>
</rtept>
<rtept lat="55.951363" lon="-2.873649">
<ele>94.8</ele>
</rtept>
<rtept lat="55.951424" lon="-2.873071">
<ele>94.9</ele>
</rtept>
<rtept lat="55.951509" lon="-2.872172">
<ele>95.6</ele>
</rtept>
<rtept lat="55.951595" lon="-2.871186">
<ele>94.4</ele>
</rtept>
<rtept lat="55.951720" lon="-2.869752">
<ele>100.6</ele>
</rtept>
<rtept lat="55.951842" lon="-2.868307">
<ele>103.9</ele>
</rtept>
<rtept lat="55.952102" lon="-2.865339">
<ele>100.3</ele>
</rtept>
<rtept lat="55.952251" lon="-2.863641">
<ele>99.3</ele>
</rtept>
<rtept lat="55.952347" lon="-2.862556">
<ele>98.9</ele>
</rtept>
<rtept lat="55.952401" lon="-2.861934">
<ele>96.9</ele>
</rtept>
<rtept lat="55.952601" lon="-2.859649">
<ele>99.6</ele>
</rtept>
<rtept lat="55.952758" lon="-2.857785">
<ele>99.7</ele>
</rtept>
<rtept lat="55.952896" lon="-2.856222">
<ele>100.8</ele>
</rtept>
<rtept lat="55.953080" lon="-2.854097">
<ele>99.2</ele>
</rtept>
<rtept lat="55.953576" lon="-2.848352">
<ele>101.8</ele>
</rtept>
<rtept lat="55.953723" lon="-2.846773">
<ele>102.2</ele>
</rtept>
<rtept lat="55.953844" lon="-2.845182">
<ele>103.7</ele>
</rtept>
<rtept lat="55.953897" lon="-2.844281">
<ele>102.3</ele>
</rtept>
<rtept lat="55.953937" lon="-2.843401">
<ele>100.1</ele>
</rtept>
<rtept lat="55.954013" lon="-2.841560">
<ele>100.8</ele>
</rtept>
<rtept lat="55.954131" lon="-2.837973">
<ele>95.9</ele>
</rtept>
<rtept lat="55.954228" lon="-2.834445">
<ele>93.0</ele>
</rtept>
<rtept lat="55.954310" lon="-2.830900">
<ele>87.0</ele>
</rtept>
<rtept lat="55.954315" lon="-2.830515">
<ele>87.8</ele>
</rtept>
<rtept lat="55.954329" lon="-2.829418">
<ele>80.1</ele>
</rtept>
<rtept lat="55.954344" lon="-2.828623">
<ele>85.2</ele>
</rtept>
<rtept lat="55.954360" lon="-2.827594">
<ele>82.7</ele>
</rtept>
<rtept lat="55.954373" lon="-2.826442">
<ele>79.4</ele>
</rtept>
<rtept lat="55.954398" lon="-2.824850">
<ele>80.7</ele>
</rtept>
<rtept lat="55.954415" lon="-2.824162">
<ele>80.8</ele>
</rtept>
<rtept lat="55.954435" lon="-2.823580">
<ele>80.5</ele>
</rtept>
<rtept lat="55.954460" lon="-2.823040">
<ele>81.0</ele>
</rtept>
<rtept lat="55.954487" lon="-2.822563">
<ele>84.2</ele>
</rtept>
<rtept lat="55.954509" lon="-2.822213">
<ele>80.6</ele>
</rtept>
<rtept lat="55.954534" lon="-2.821877">
<ele>83.1</ele>
</rtept>
<rtept lat="55.954582" lon="-2.821258">
<ele>79.5</ele>
</rtept>
<rtept lat="55.954655" lon="-2.820435">
<ele>81.9</ele>
</rtept>
<rtept lat="55.954747" lon="-2.819578">
<ele>82.9</ele>
</rtept>
<rtept lat="55.954801" lon="-2.819118">
<ele>84.9</ele>
</rtept>
<rtept lat="55.954857" lon="-2.818687">
<ele>86.9</ele>
</rtept>
<rtept lat="55.954896" lon="-2.818406">
<ele>88.0</ele>
</rtept>
<rtept lat="55.955004" lon="-2.817646">
<ele>89.0</ele>
</rtept>
<rtept lat="55.955151" lon="-2.816712">
<ele>84.0</ele>
</rtept>
<rtept lat="55.955284" lon="-2.815936">
<ele>82.2</ele>
</rtept>
<rtept lat="55.955460" lon="-2.815020">
<ele>82.2</ele>
</rtept>
<rtept lat="55.955644" lon="-2.814148">
<ele>81.6</ele>
</rtept>
<rtept lat="55.955778" lon="-2.813566">
<ele>81.2</ele>
</rtept>
<rtept lat="55.955968" lon="-2.812786">
<ele>84.0</ele>
</rtept>
<rtept lat="55.956140" lon="-2.812119">
<ele>83.5</ele>
</rtept>
<rtept lat="55.956274" lon="-2.811617">
<ele>83.0</ele>
</rtept>
<rtept lat="55.956437" lon="-2.811030">
<ele>83.0</ele>
</rtept>
<rtept lat="55.956672" lon="-2.810248">
<ele>86.6</ele>
</rtept>
<rtept lat="55.956937" lon="-2.809386">
<ele>88.4</ele>
</rtept>
<rtept lat="55.957291" lon="-2.808257">
<ele>87.2</ele>
</rtept>
<rtept lat="55.957875" lon="-2.806352">
<ele>87.4</ele>
</rtept>
<rtept lat="55.958855" lon="-2.803177">
<ele>78.3</ele>
</rtept>
<rtept lat="55.959308" lon="-2.801688">
<ele>76.8</ele>
</rtept>
<rtept lat="55.959655" lon="-2.800564">
<ele>76.5</ele>
</rtept>
<rtept lat="55.960065" lon="-2.799227">
<ele>79.5</ele>
</rtept>
<rtept lat="55.960421" lon="-2.798080">
<ele>85.0</ele>
</rtept>
<rtept lat="55.960707" lon="-2.797147">
<ele>89.1</ele>
</rtept>
<rtept lat="55.960922" lon="-2.796437">
<ele>88.7</ele>
</rtept>
<rtept lat="55.961110" lon="-2.795785">
<ele>89.4</ele>
</rtept>
<rtept lat="55.961254" lon="-2.795260">
<ele>91.0</ele>
</rtept>
<rtept lat="55.961365" lon="-2.794832">
<ele>90.0</ele>
</rtept>
<rtept lat="55.961510" lon="-2.794217">
<ele>91.4</ele>
</rtept>
<rtept lat="55.961639" lon="-2.793658">
<ele>90.3</ele>
</rtept>
<rtept lat="55.961767" lon="-2.793032">
<ele>90.9</ele>
</rtept>
<rtept lat="55.961908" lon="-2.792286">
<ele>90.4</ele>
</rtept>
<rtept lat="55.962018" lon="-2.791669">
<ele>88.5</ele>
</rtept>
<rtept lat="55.962098" lon="-2.791167">
<ele>88.9</ele>
</rtept>
<rtept lat="55.962220" lon="-2.790337">
<ele>91.1</ele>
</rtept>
<rtept lat="55.962278" lon="-2.789860">
<ele>91.2</ele>
</rtept>
<rtept lat="55.962316" lon="-2.789484">
<ele>91.2</ele>
</rtept>
<rtept lat="55.962371" lon="-2.788874">
<ele>90.1</ele>
</rtept>
<rtept lat="55.962410" lon="-2.788397">
<ele>88.9</ele>
</rtept>
<rtept lat="55.962445" lon="-2.787899">
<ele>87.9</ele>
</rtept>
<rtept lat="55.962472" lon="-2.787373">
<ele>86.5</ele>
</rtept>
<rtept lat="55.962487" lon="-2.786846">
<ele>85.8</ele>
</rtept>
<rtept lat="55.962495" lon="-2.786121">
<ele>84.0</ele>
</rtept>
<rtept lat="55.962493" lon="-2.785400">
<ele>81.5</ele>
</rtept>
<rtept lat="55.962484" lon="-2.784422">
<ele>75.2</ele>
</rtept>
<rtept lat="55.962480" lon="-2.784422">
<ele>75.2</ele>
<name></name>
</rtept>
<rtept lat="55.962479" lon="-2.784269">
<ele>74.3</ele>
</rtept>
<rtept lat="55.962456" lon="-2.783095">
<ele>70.4</ele>
</rtept>
<rtept lat="55.962495" lon="-2.782347">
<ele>69.7</ele>
</rtept>
<rtept lat="55.962604" lon="-2.779728">
<ele>68.2</ele>
</rtept>
<rtept lat="55.962641" lon="-2.779171">
<ele>69.0</ele>
</rtept>
<rtept lat="55.962728" lon="-2.777836">
<ele>67.7</ele>
</rtept>
<rtept lat="55.962814" lon="-2.776472">
<ele>60.0</ele>
</rtept>
<rtept lat="55.962903" lon="-2.774946">
<ele>58.8</ele>
</rtept>
<rtept lat="55.962916" lon="-2.774682">
<ele>58.1</ele>
</rtept>
<rtept lat="55.962934" lon="-2.774423">
<ele>58.8</ele>
</rtept>
<rtept lat="55.962950" lon="-2.774288">
<ele>57.8</ele>
</rtept>
<rtept lat="55.962979" lon="-2.774075">
<ele>56.6</ele>
</rtept>
<rtept lat="55.963010" lon="-2.773918">
<ele>55.8</ele>
</rtept>
<rtept lat="55.963035" lon="-2.773834">
<ele>55.3</ele>
</rtept>
<rtept lat="55.963080" lon="-2.773748">
<ele>54.6</ele>
</rtept>
<rtept lat="55.963146" lon="-2.773681">
<ele>53.8</ele>
</rtept>
<rtept lat="55.963200" lon="-2.773658">
<ele>53.5</ele>
</rtept>
<rtept lat="55.963219" lon="-2.773659">
<ele>53.9</ele>
</rtept>
<rtept lat="55.963239" lon="-2.773661">
<ele>54.3</ele>
</rtept>
<rtept lat="55.963268" lon="-2.773656">
<ele>54.9</ele>
</rtept>
<rtept lat="55.963310" lon="-2.773633">
<ele>55.7</ele>
</rtept>
<rtept lat="55.963343" lon="-2.773601">
<ele>56.2</ele>
</rtept>
<rtept lat="55.963379" lon="-2.773540">
<ele>56.9</ele>
</rtept>
<rtept lat="55.963405" lon="-2.773466">
<ele>57.4</ele>
</rtept>
<rtept lat="55.963420" lon="-2.773370">
<ele>57.7</ele>
</rtept>
<rtept lat="55.963445" lon="-2.773278">
<ele>58.1</ele>
</rtept>
<rtept lat="55.963480" lon="-2.773146">
<ele>58.5</ele>
</rtept>
<rtept lat="55.963552" lon="-2.772953">
<ele>60.2</ele>
</rtept>
<rtept lat="55.963594" lon="-2.772846">
<ele>61.2</ele>
</rtept>
<rtept lat="55.963650" lon="-2.772669">
<ele>61.7</ele>
</rtept>
<rtept lat="55.963696" lon="-2.772430">
<ele>61.0</ele>
</rtept>
<rtept lat="55.963712" lon="-2.772313">
<ele>60.3</ele>
</rtept>
<rtept lat="55.963723" lon="-2.772163">
<ele>59.8</ele>
</rtept>
<rtept lat="55.963731" lon="-2.771901">
<ele>59.8</ele>
</rtept>
<rtept lat="55.963726" lon="-2.771601">
<ele>59.4</ele>
</rtept>
<rtept lat="55.963695" lon="-2.771059">
<ele>56.5</ele>
</rtept>
<rtept lat="55.963662" lon="-2.770496">
<ele>54.1</ele>
</rtept>
<rtept lat="55.963636" lon="-2.769927">
<ele>49.5</ele>
</rtept>
<rtept lat="55.963631" lon="-2.769346">
<ele>49.9</ele>
</rtept>
<rtept lat="55.963634" lon="-2.768944">
<ele>49.3</ele>
</rtept>
<rtept lat="55.963659" lon="-2.768383">
<ele>55.4</ele>
</rtept>
<rtept lat="55.963681" lon="-2.768000">
<ele>56.3</ele>
</rtept>
<rtept lat="55.963733" lon="-2.767420">
<ele>55.0</ele>
</rtept>
<rtept lat="55.963812" lon="-2.766726">
<ele>54.3</ele>
</rtept>
<rtept lat="55.963930" lon="-2.765881">
<ele>54.2</ele>
</rtept>
<rtept lat="55.964039" lon="-2.765177">
<ele>56.6</ele>
</rtept>
<rtept lat="55.964171" lon="-2.764413">
<ele>59.6</ele>
</rtept>
<rtept lat="55.964279" lon="-2.763857">
<ele>62.1</ele>
</rtept>
<rtept lat="55.964415" lon="-2.763219">
<ele>61.7</ele>
</rtept>
<rtept lat="55.964601" lon="-2.762407">
<ele>62.8</ele>
</rtept>
<rtept lat="55.964817" lon="-2.761561">
<ele>64.5</ele>
</rtept>
<rtept lat="55.965020" lon="-2.760817">
<ele>64.7</ele>
</rtept>
<rtept lat="55.965593" lon="-2.758893">
<ele>65.3</ele>
</rtept>
<rtept lat="55.966087" lon="-2.757209">
<ele>66.0</ele>
</rtept>
<rtept lat="55.966179" lon="-2.756903">
<ele>62.3</ele>
</rtept>
<rtept lat="55.966606" lon="-2.755477">
<ele>63.0</ele>
</rtept>
<rtept lat="55.966823" lon="-2.754751">
<ele>65.6</ele>
</rtept>
<rtept lat="55.967006" lon="-2.754078">
<ele>65.4</ele>
</rtept>
<rtept lat="55.967109" lon="-2.753692">
<ele>68.3</ele>
</rtept>
<rtept lat="55.967225" lon="-2.753229">
<ele>62.5</ele>
</rtept>
<rtept lat="55.967462" lon="-2.752215">
<ele>61.7</ele>
</rtept>
<rtept lat="55.967636" lon="-2.751411">
<ele>63.7</ele>
</rtept>
<rtept lat="55.967987" lon="-2.749457">
<ele>57.3</ele>
</rtept>
<rtept lat="55.968411" lon="-2.746930">
<ele>55.0</ele>
</rtept>
<rtept lat="55.968635" lon="-2.745621">
<ele>56.0</ele>
</rtept>
<rtept lat="55.969436" lon="-2.740778">
<ele>52.6</ele>
</rtept>
<rtept lat="55.969635" lon="-2.739662">
<ele>55.2</ele>
</rtept>
<rtept lat="55.969852" lon="-2.738359">
<ele>52.9</ele>
</rtept>
<rtept lat="55.970372" lon="-2.735237">
<ele>60.1</ele>
</rtept>
<rtept lat="55.970610" lon="-2.735403">
<ele>60.4</ele>
</rtept>
<rtept lat="55.970899" lon="-2.735657">
<ele>53.5</ele>
</rtept>
<rtept lat="55.971889" lon="-2.736547">
<ele>52.8</ele>
</rtept>
<rtept lat="55.971892" lon="-2.736547">
<ele>52.9</ele>
</rtept>
<rtept lat="55.972707" lon="-2.737281">
<ele>57.7</ele>
</rtept>
<rtept lat="55.972821" lon="-2.737376">
<ele>57.0</ele>
</rtept>
<rtept lat="55.972947" lon="-2.737439">
<ele>55.7</ele>
</rtept>
<rtept lat="55.973583" lon="-2.737481">
<ele>48.4</ele>
</rtept>
<rtept lat="55.974503" lon="-2.737519">
<ele>47.1</ele>
</rtept>
<rtept lat="55.975529" lon="-2.737556">
<ele>54.5</ele>
</rtept>
<rtept lat="55.976221" lon="-2.737562">
<ele>61.0</ele>
</rtept>
<rtept lat="55.976549" lon="-2.737554">
<ele>71.8</ele>
</rtept>
<rtept lat="55.976671" lon="-2.737562">
<ele>71.7</ele>
</rtept>
<rtept lat="55.976782" lon="-2.737579">
<ele>71.5</ele>
</rtept>
<rtept lat="55.976887" lon="-2.737611">
<ele>70.1</ele>
</rtept>
<rtept lat="55.977020" lon="-2.737691">
<ele>68.1</ele>
</rtept>
<rtept lat="55.977993" lon="-2.738352">
<ele>51.7</ele>
</rtept>
<rtept lat="55.980665" lon="-2.740156">
<ele>52.5</ele>
</rtept>
<rtept lat="55.981604" lon="-2.740793">
<ele>61.2</ele>
</rtept>
<rtept lat="55.981852" lon="-2.740958">
<ele>65.5</ele>
</rtept>
<rtept lat="55.981978" lon="-2.741040">
<ele>65.5</ele>
</rtept>
<rtept lat="55.982017" lon="-2.741065">
<ele>65.3</ele>
</rtept>
<rtept lat="55.982118" lon="-2.741116">
<ele>65.1</ele>
</rtept>
<rtept lat="55.982163" lon="-2.741128">
<ele>65.2</ele>
</rtept>
<rtept lat="55.982218" lon="-2.741119">
<ele>65.4</ele>
</rtept>
<rtept lat="55.982323" lon="-2.741068">
<ele>66.2</ele>
</rtept>
<rtept lat="55.982460" lon="-2.740983">
<ele>70.1</ele>
</rtept>
<rtept lat="55.982576" lon="-2.740889">
<ele>75.5</ele>
</rtept>
<rtept lat="55.982693" lon="-2.740771">
<ele>79.8</ele>
</rtept>
<rtept lat="55.982936" lon="-2.740468">
<ele>75.8</ele>
</rtept>
<rtept lat="55.983078" lon="-2.740254">
<ele>55.2</ele>
</rtept>
<rtept lat="55.983229" lon="-2.740008">
<ele>54.1</ele>
</rtept>
<rtept lat="55.983325" lon="-2.739873">
<ele>52.2</ele>
</rtept>
<rtept lat="55.983400" lon="-2.739777">
<ele>50.9</ele>
</rtept>
<rtept lat="55.983502" lon="-2.739648">
<ele>51.2</ele>
</rtept>
<rtept lat="55.983567" lon="-2.739570">
<ele>52.5</ele>
</rtept>
<rtept lat="55.983627" lon="-2.739461">
<ele>54.3</ele>
</rtept>
<rtept lat="55.983690" lon="-2.739299">
<ele>56.1</ele>
</rtept>
<rtept lat="55.983788" lon="-2.738982">
<ele>57.6</ele>
</rtept>
<rtept lat="55.983885" lon="-2.738674">
<ele>55.7</ele>
</rtept>
<rtept lat="55.983983" lon="-2.738449">
<ele>53.4</ele>
</rtept>
<rtept lat="55.984080" lon="-2.738276">
<ele>50.3</ele>
</rtept>
<rtept lat="55.984207" lon="-2.738083">
<ele>46.8</ele>
</rtept>
<rtept lat="55.984316" lon="-2.737913">
<ele>45.6</ele>
</rtept>
<rtept lat="55.984412" lon="-2.737708">
<ele>45.1</ele>
</rtept>
<rtept lat="55.984500" lon="-2.737528">
<ele>43.9</ele>
</rtept>
<rtept lat="55.984562" lon="-2.737420">
<ele>42.4</ele>
</rtept>
<rtept lat="55.984644" lon="-2.737345">
<ele>42.1</ele>
</rtept>
<rtept lat="55.984725" lon="-2.737291">
<ele>42.9</ele>
</rtept>
<rtept lat="55.985014" lon="-2.737205">
<ele>43.9</ele>
</rtept>
<rtept lat="55.985375" lon="-2.737111">
<ele>43.6</ele>
</rtept>
<rtept lat="55.985661" lon="-2.737025">
<ele>46.6</ele>
</rtept>
<rtept lat="55.986426" lon="-2.736844">
<ele>36.6</ele>
</rtept>
<rtept lat="55.987518" lon="-2.736583">
<ele>31.3</ele>
</rtept>
<rtept lat="55.988527" lon="-2.736356">
<ele>36.8</ele>
</rtept>
<rtept lat="55.989151" lon="-2.736261">
<ele>35.8</ele>
</rtept>
<rtept lat="55.989765" lon="-2.736163">
<ele>38.8</ele>
</rtept>
<rtept lat="55.990603" lon="-2.735995">
<ele>43.9</ele>
</rtept>
<rtept lat="55.991365" lon="-2.735844">
<ele>45.4</ele>
</rtept>
<rtept lat="55.991846" lon="-2.735743">
<ele>46.9</ele>
</rtept>
<rtept lat="55.991871" lon="-2.736037">
<ele>48.8</ele>
</rtept>
<rtept lat="55.991857" lon="-2.736365">
<ele>52.7</ele>
</rtept>
<rtept lat="55.991836" lon="-2.736655">
<ele>53.5</ele>
</rtept>
<rtept lat="55.991562" lon="-2.739978">
<ele>50.8</ele>
</rtept>
<rtept lat="55.991560" lon="-2.739978">
<ele>50.8</ele>
</rtept>
<rtept lat="55.991111" lon="-2.745418">
<ele>57.7</ele>
</rtept>
<rtept lat="55.991065" lon="-2.745998">
<ele>54.0</ele>
</rtept>
<rtept lat="55.991059" lon="-2.746076">
<ele>53.3</ele>
</rtept>
<rtept lat="55.989188" lon="-2.745721">
<ele>52.9</ele>
</rtept>
<rtept lat="55.988957" lon="-2.745686">
<ele>53.4</ele>
</rtept>
<rtept lat="55.988856" lon="-2.745669">
<ele>52.6</ele>
</rtept>
<rtept lat="55.988751" lon="-2.745663">
<ele>51.6</ele>
</rtept>
<rtept lat="55.988593" lon="-2.745679">
<ele>50.4</ele>
</rtept>
<rtept lat="55.988460" lon="-2.745689">
<ele>50.0</ele>
</rtept>
<rtept lat="55.988119" lon="-2.745712">
<ele>64.8</ele>
</rtept>
<rtept lat="55.987909" lon="-2.745702">
<ele>72.0</ele>
</rtept>
<rtept lat="55.987674" lon="-2.745671">
<ele>71.1</ele>
</rtept>
<rtept lat="55.987253" lon="-2.745637">
<ele>72.9</ele>
</rtept>
<rtept lat="55.987039" lon="-2.745595">
<ele>71.4</ele>
</rtept>
<rtept lat="55.986914" lon="-2.745571">
<ele>71.7</ele>
</rtept>
<rtept lat="55.986890" lon="-2.745577">
<ele>71.7</ele>
</rtept>
<rtept lat="55.986872" lon="-2.745595">
<ele>71.8</ele>
</rtept>
<rtept lat="55.986855" lon="-2.745632">
<ele>71.9</ele>
</rtept>
<rtept lat="55.986837" lon="-2.745679">
<ele>72.0</ele>
</rtept>
<rtept lat="55.986821" lon="-2.745764">
<ele>72.0</ele>
</rtept>
<rtept lat="55.986689" lon="-2.746715">
<ele>72.6</ele>
<name></name>
</rtept>
  </rte>
</gpx>