<?xml version="1.0" encoding="UTF-8" standalone="no"?>
<gpx xmlns="http://www.topografix.com/GPX/1/1" creator="GaiaGPS" version="1.1" xmlns:xsi="http://www.w3.org/2001/XMLSchema-instance" xsi:schemaLocation="http://www.topografix.com/GPX/1/1 http://www.topografix.com/GPX/1/1/gpx.xsd">
  <metadata>
    <time>2026-09-06T17:00:12Z</time>
  </metadata>
  <rte>
    <name>Monachyle Mhor</name>
<rtept lat="56.116464" lon="-3.939268">
<ele>28.8</ele>
</rtept>
<rtept lat="56.117106" lon="-3.938719">
<ele>23.6</ele>
</rtept>
<rtept lat="56.117147" lon="-3.938851">
<ele>22.8</ele>
</rtept>
<rtept lat="56.117317" lon="-3.939423">
<ele>21.3</ele>
</rtept>
<rtept lat="56.117433" lon="-3.939869">
<ele>21.0</ele>
</rtept>
<rtept lat="56.117497" lon="-3.940164">
<ele>21.8</ele>
</rtept>
<rtept lat="56.117505" lon="-3.940214">
<ele>21.9</ele>
</rtept>
<rtept lat="56.117610" lon="-3.940721">
<ele>21.5</ele>
</rtept>
<rtept lat="56.117612" lon="-3.940721">
<ele>21.5</ele>
</rtept>
<rtept lat="56.117716" lon="-3.941225">
<ele>22.0</ele>
</rtept>
<rtept lat="56.117791" lon="-3.941603">
<ele>22.2</ele>
</rtept>
<rtept lat="56.117811" lon="-3.941702">
<ele>22.0</ele>
</rtept>
<rtept lat="56.117966" lon="-3.942476">
<ele>20.4</ele>
</rtept>
<rtept lat="56.117983" lon="-3.942560">
<ele>20.5</ele>
</rtept>
<rtept lat="56.118140" lon="-3.943303">
<ele>20.0</ele>
</rtept>
<rtept lat="56.118167" lon="-3.943433">
<ele>19.7</ele>
</rtept>
<rtept lat="56.118197" lon="-3.943574">
<ele>19.2</ele>
</rtept>
<rtept lat="56.118635" lon="-3.945855">
<ele>24.3</ele>
</rtept>
<rtept lat="56.118776" lon="-3.946476">
<ele>28.3</ele>
</rtept>
<rtept lat="56.119019" lon="-3.947547">
<ele>25.3</ele>
</rtept>
<rtept lat="56.119047" lon="-3.947711">
<ele>23.0</ele>
</rtept>
<rtept lat="56.119049" lon="-3.947823">
<ele>22.2</ele>
</rtept>
<rtept lat="56.119051" lon="-3.947919">
<ele>22.5</ele>
</rtept>
<rtept lat="56.118995" lon="-3.948075">
<ele>22.7</ele>
</rtept>
<rtept lat="56.119041" lon="-3.948123">
<ele>22.7</ele>
</rtept>
<rtept lat="56.119083" lon="-3.948169">
<ele>22.4</ele>
</rtept>
<rtept lat="56.119127" lon="-3.948255">
<ele>22.1</ele>
</rtept>
<rtept lat="56.119155" lon="-3.948339">
<ele>22.0</ele>
</rtept>
<rtept lat="56.119315" lon="-3.948993">
<ele>19.0</ele>
</rtept>
<rtept lat="56.119388" lon="-3.949317">
<ele>18.8</ele>
</rtept>
<rtept lat="56.119475" lon="-3.949607">
<ele>18.4</ele>
</rtept>
<rtept lat="56.119592" lon="-3.949941">
<ele>18.7</ele>
</rtept>
<rtept lat="56.119714" lon="-3.950257">
<ele>18.1</ele>
</rtept>
<rtept lat="56.119968" lon="-3.950847">
<ele>16.0</ele>
</rtept>
<rtept lat="56.120028" lon="-3.950996">
<ele>16.1</ele>
</rtept>
<rtept lat="56.120378" lon="-3.951829">
<ele>14.5</ele>
</rtept>
<rtept lat="56.120446" lon="-3.951936">
<ele>14.2</ele>
</rtept>
<rtept lat="56.120500" lon="-3.952020">
<ele>14.2</ele>
</rtept>
<rtept lat="56.120598" lon="-3.952121">
<ele>14.3</ele>
</rtept>
<rtept lat="56.120680" lon="-3.952210">
<ele>14.0</ele>
</rtept>
<rtept lat="56.120673" lon="-3.952291">
<ele>13.9</ele>
</rtept>
<rtept lat="56.120681" lon="-3.952372">
<ele>13.9</ele>
</rtept>
<rtept lat="56.120704" lon="-3.952443">
<ele>13.9</ele>
</rtept>
<rtept lat="56.120738" lon="-3.952496">
<ele>13.7</ele>
</rtept>
<rtept lat="56.120781" lon="-3.952527">
<ele>13.3</ele>
</rtept>
<rtept lat="56.120821" lon="-3.952531">
<ele>13.0</ele>
</rtept>
<rtept lat="56.120861" lon="-3.952514">
<ele>12.8</ele>
</rtept>
<rtept lat="56.120896" lon="-3.952477">
<ele>12.5</ele>
</rtept>
<rtept lat="56.120923" lon="-3.952423">
<ele>12.4</ele>
</rtept>
<rtept lat="56.120940" lon="-3.952357">
<ele>12.2</ele>
</rtept>
<rtept lat="56.120946" lon="-3.952285">
<ele>12.2</ele>
</rtept>
<rtept lat="56.121069" lon="-3.952251">
<ele>12.0</ele>
</rtept>
<rtept lat="56.121147" lon="-3.952207">
<ele>12.0</ele>
</rtept>
<rtept lat="56.121238" lon="-3.952147">
<ele>12.0</ele>
</rtept>
<rtept lat="56.121329" lon="-3.952098">
<ele>10.8</ele>
</rtept>
<rtept lat="56.121422" lon="-3.952070">
<ele>9.6</ele>
</rtept>
<rtept lat="56.121491" lon="-3.952051">
<ele>8.7</ele>
</rtept>
<rtept lat="56.121640" lon="-3.952050">
<ele>8.4</ele>
</rtept>
<rtept lat="56.121985" lon="-3.952062">
<ele>8.2</ele>
</rtept>
<rtept lat="56.122102" lon="-3.952071">
<ele>8.0</ele>
</rtept>
<rtept lat="56.122269" lon="-3.952094">
<ele>7.9</ele>
</rtept>
<rtept lat="56.122487" lon="-3.952140">
<ele>8.0</ele>
</rtept>
<rtept lat="56.122741" lon="-3.952219">
<ele>8.4</ele>
</rtept>
<rtept lat="56.122908" lon="-3.952282">
<ele>8.7</ele>
</rtept>
<rtept lat="56.123242" lon="-3.952425">
<ele>7.2</ele>
</rtept>
<rtept lat="56.123361" lon="-3.952490">
<ele>7.0</ele>
</rtept>
<rtept lat="56.123586" lon="-3.952621">
<ele>7.2</ele>
</rtept>
<rtept lat="56.123829" lon="-3.952789">
<ele>8.2</ele>
</rtept>
<rtept lat="56.124123" lon="-3.953013">
<ele>7.6</ele>
</rtept>
<rtept lat="56.124247" lon="-3.953176">
<ele>7.5</ele>
</rtept>
<rtept lat="56.124350" lon="-3.953332">
<ele>7.2</ele>
</rtept>
<rtept lat="56.124432" lon="-3.953505">
<ele>7.5</ele>
</rtept>
<rtept lat="56.124496" lon="-3.953677">
<ele>7.8</ele>
</rtept>
<rtept lat="56.124524" lon="-3.953773">
<ele>7.9</ele>
</rtept>
<rtept lat="56.124568" lon="-3.953922">
<ele>8.0</ele>
</rtept>
<rtept lat="56.124595" lon="-3.954047">
<ele>8.1</ele>
</rtept>
<rtept lat="56.124646" lon="-3.954314">
<ele>8.5</ele>
</rtept>
<rtept lat="56.124610" lon="-3.954339">
<ele>8.2</ele>
</rtept>
<rtept lat="56.124579" lon="-3.954385">
<ele>8.0</ele>
</rtept>
<rtept lat="56.124557" lon="-3.954447">
<ele>8.1</ele>
</rtept>
<rtept lat="56.124549" lon="-3.954518">
<ele>7.9</ele>
</rtept>
<rtept lat="56.124553" lon="-3.954590">
<ele>7.6</ele>
</rtept>
<rtept lat="56.124570" lon="-3.954656">
<ele>7.3</ele>
</rtept>
<rtept lat="56.124598" lon="-3.954708">
<ele>7.2</ele>
</rtept>
<rtept lat="56.124634" lon="-3.954741">
<ele>7.4</ele>
</rtept>
<rtept lat="56.124674" lon="-3.954752">
<ele>7.7</ele>
</rtept>
<rtept lat="56.124664" lon="-3.954911">
<ele>7.6</ele>
</rtept>
<rtept lat="56.124665" lon="-3.955115">
<ele>7.5</ele>
</rtept>
<rtept lat="56.124666" lon="-3.955279">
<ele>7.3</ele>
</rtept>
<rtept lat="56.124695" lon="-3.955699">
<ele>7.6</ele>
</rtept>
<rtept lat="56.124762" lon="-3.956115">
<ele>7.3</ele>
</rtept>
<rtept lat="56.124892" lon="-3.956686">
<ele>7.0</ele>
</rtept>
<rtept lat="56.125020" lon="-3.957082">
<ele>6.4</ele>
</rtept>
<rtept lat="56.125131" lon="-3.957382">
<ele>6.6</ele>
</rtept>
<rtept lat="56.125369" lon="-3.957899">
<ele>6.6</ele>
</rtept>
<rtept lat="56.125658" lon="-3.958429">
<ele>6.5</ele>
</rtept>
<rtept lat="56.126256" lon="-3.959438">
<ele>6.0</ele>
</rtept>
<rtept lat="56.126653" lon="-3.960094">
<ele>6.8</ele>
</rtept>
<rtept lat="56.127027" lon="-3.960726">
<ele>8.7</ele>
</rtept>
<rtept lat="56.127249" lon="-3.961096">
<ele>9.8</ele>
</rtept>
<rtept lat="56.127662" lon="-3.961780">
<ele>11.1</ele>
</rtept>
<rtept lat="56.128328" lon="-3.962876">
<ele>7.2</ele>
</rtept>
<rtept lat="56.128664" lon="-3.963383">
<ele>6.2</ele>
</rtept>
<rtept lat="56.128897" lon="-3.963660">
<ele>6.1</ele>
</rtept>
<rtept lat="56.129053" lon="-3.963818">
<ele>7.0</ele>
</rtept>
<rtept lat="56.129306" lon="-3.964027">
<ele>7.0</ele>
</rtept>
<rtept lat="56.129474" lon="-3.964145">
<ele>7.1</ele>
</rtept>
<rtept lat="56.129519" lon="-3.964176">
<ele>7.0</ele>
</rtept>
<rtept lat="56.129683" lon="-3.964408">
<ele>8.0</ele>
</rtept>
<rtept lat="56.129682" lon="-3.964496">
<ele>8.0</ele>
</rtept>
<rtept lat="56.129696" lon="-3.964580">
<ele>8.0</ele>
</rtept>
<rtept lat="56.129732" lon="-3.964670">
<ele>8.0</ele>
</rtept>
<rtept lat="56.129785" lon="-3.964729">
<ele>8.0</ele>
</rtept>
<rtept lat="56.129838" lon="-3.964748">
<ele>8.0</ele>
</rtept>
<rtept lat="56.129891" lon="-3.964734">
<ele>8.1</ele>
</rtept>
<rtept lat="56.129950" lon="-3.964783">
<ele>8.3</ele>
</rtept>
<rtept lat="56.130109" lon="-3.964986">
<ele>8.9</ele>
</rtept>
<rtept lat="56.130417" lon="-3.965390">
<ele>9.0</ele>
</rtept>
<rtept lat="56.130619" lon="-3.965521">
<ele>9.0</ele>
</rtept>
<rtept lat="56.130935" lon="-3.965553">
<ele>9.9</ele>
</rtept>
<rtept lat="56.131559" lon="-3.965389">
<ele>9.6</ele>
</rtept>
<rtept lat="56.131776" lon="-3.965493">
<ele>9.9</ele>
</rtept>
<rtept lat="56.131874" lon="-3.965583">
<ele>9.9</ele>
</rtept>
<rtept lat="56.132012" lon="-3.965877">
<ele>8.7</ele>
</rtept>
<rtept lat="56.132012" lon="-3.965986">
<ele>8.0</ele>
</rtept>
<rtept lat="56.132020" lon="-3.966093">
<ele>7.3</ele>
</rtept>
<rtept lat="56.132074" lon="-3.966337">
<ele>7.1</ele>
</rtept>
<rtept lat="56.132170" lon="-3.966535">
<ele>7.5</ele>
</rtept>
<rtept lat="56.132297" lon="-3.966665">
<ele>8.5</ele>
</rtept>
<rtept lat="56.132441" lon="-3.966711">
<ele>8.8</ele>
</rtept>
<rtept lat="56.132526" lon="-3.966698">
<ele>8.5</ele>
</rtept>
<rtept lat="56.132609" lon="-3.966654">
<ele>8.1</ele>
</rtept>
<rtept lat="56.132914" lon="-3.966747">
<ele>7.3</ele>
</rtept>
<rtept lat="56.133069" lon="-3.966851">
<ele>8.2</ele>
</rtept>
<rtept lat="56.133382" lon="-3.967437">
<ele>10.3</ele>
</rtept>
<rtept lat="56.133698" lon="-3.968069">
<ele>9.8</ele>
</rtept>
<rtept lat="56.134048" lon="-3.968947">
<ele>8.9</ele>
</rtept>
<rtept lat="56.134457" lon="-3.970131">
<ele>8.8</ele>
</rtept>
<rtept lat="56.134914" lon="-3.971542">
<ele>13.6</ele>
</rtept>
<rtept lat="56.135061" lon="-3.972013">
<ele>16.6</ele>
</rtept>
<rtept lat="56.135111" lon="-3.972261">
<ele>17.2</ele>
</rtept>
<rtept lat="56.135204" lon="-3.972596">
<ele>17.5</ele>
</rtept>
<rtept lat="56.135213" lon="-3.972814">
<ele>18.2</ele>
</rtept>
<rtept lat="56.135167" lon="-3.973119">
<ele>15.9</ele>
</rtept>
<rtept lat="56.135105" lon="-3.973306">
<ele>15.3</ele>
</rtept>
<rtept lat="56.135055" lon="-3.973340">
<ele>15.2</ele>
</rtept>
<rtept lat="56.134998" lon="-3.973408">
<ele>14.7</ele>
</rtept>
<rtept lat="56.134950" lon="-3.973510">
<ele>13.8</ele>
</rtept>
<rtept lat="56.134844" lon="-3.973611">
<ele>12.9</ele>
</rtept>
<rtept lat="56.134677" lon="-3.973732">
<ele>10.7</ele>
</rtept>
<rtept lat="56.134434" lon="-3.973763">
<ele>9.4</ele>
</rtept>
<rtept lat="56.134162" lon="-3.973702">
<ele>9.2</ele>
</rtept>
<rtept lat="56.133979" lon="-3.973655">
<ele>9.7</ele>
</rtept>
<rtept lat="56.133740" lon="-3.973536">
<ele>10.3</ele>
</rtept>
<rtept lat="56.133544" lon="-3.973336">
<ele>11.0</ele>
</rtept>
<rtept lat="56.133368" lon="-3.972990">
<ele>10.8</ele>
</rtept>
<rtept lat="56.133286" lon="-3.972629">
<ele>11.7</ele>
</rtept>
<rtept lat="56.133279" lon="-3.972144">
<ele>10.8</ele>
</rtept>
<rtept lat="56.133381" lon="-3.971690">
<ele>11.0</ele>
</rtept>
<rtept lat="56.133577" lon="-3.971320">
<ele>13.2</ele>
</rtept>
<rtept lat="56.133806" lon="-3.971118">
<ele>11.9</ele>
</rtept>
<rtept lat="56.134123" lon="-3.971072">
<ele>11.1</ele>
</rtept>
<rtept lat="56.134453" lon="-3.971062">
<ele>11.3</ele>
</rtept>
<rtept lat="56.135508" lon="-3.971182">
<ele>16.0</ele>
</rtept>
<rtept lat="56.136462" lon="-3.971222">
<ele>7.9</ele>
</rtept>
<rtept lat="56.137163" lon="-3.971315">
<ele>9.5</ele>
</rtept>
<rtept lat="56.138746" lon="-3.971526">
<ele>10.5</ele>
</rtept>
<rtept lat="56.140611" lon="-3.971540">
<ele>10.5</ele>
</rtept>
<rtept lat="56.141378" lon="-3.971442">
<ele>15.2</ele>
</rtept>
<rtept lat="56.141976" lon="-3.971341">
<ele>13.0</ele>
</rtept>
<rtept lat="56.142589" lon="-3.971218">
<ele>9.4</ele>
</rtept>
<rtept lat="56.143985" lon="-3.970847">
<ele>8.9</ele>
</rtept>
<rtept lat="56.145282" lon="-3.970311">
<ele>19.5</ele>
</rtept>
<rtept lat="56.147232" lon="-3.969197">
<ele>11.2</ele>
</rtept>
<rtept lat="56.149731" lon="-3.967470">
<ele>25.5</ele>
</rtept>
<rtept lat="56.151523" lon="-3.966609">
<ele>9.4</ele>
</rtept>
<rtept lat="56.152149" lon="-3.966350">
<ele>8.1</ele>
</rtept>
<rtept lat="56.152716" lon="-3.966184">
<ele>10.6</ele>
</rtept>
<rtept lat="56.153130" lon="-3.966079">
<ele>8.6</ele>
</rtept>
<rtept lat="56.153599" lon="-3.965995">
<ele>7.3</ele>
</rtept>
<rtept lat="56.154070" lon="-3.965916">
<ele>7.5</ele>
</rtept>
<rtept lat="56.154621" lon="-3.965865">
<ele>7.7</ele>
</rtept>
<rtept lat="56.155139" lon="-3.965839">
<ele>7.0</ele>
</rtept>
<rtept lat="56.155669" lon="-3.965845">
<ele>8.0</ele>
</rtept>
<rtept lat="56.156035" lon="-3.965864">
<ele>9.4</ele>
</rtept>
<rtept lat="56.156423" lon="-3.965903">
<ele>11.1</ele>
</rtept>
<rtept lat="56.156799" lon="-3.965953">
<ele>12.4</ele>
</rtept>
<rtept lat="56.157132" lon="-3.966000">
<ele>12.1</ele>
</rtept>
<rtept lat="56.157390" lon="-3.966052">
<ele>10.5</ele>
</rtept>
<rtept lat="56.157734" lon="-3.966131">
<ele>12.1</ele>
</rtept>
<rtept lat="56.157854" lon="-3.966156">
<ele>13.3</ele>
</rtept>
<rtept lat="56.158281" lon="-3.966277">
<ele>14.6</ele>
</rtept>
<rtept lat="56.158470" lon="-3.966333">
<ele>16.0</ele>
</rtept>
<rtept lat="56.158965" lon="-3.966505">
<ele>18.5</ele>
</rtept>
<rtept lat="56.159450" lon="-3.966696">
<ele>20.6</ele>
</rtept>
<rtept lat="56.159982" lon="-3.966933">
<ele>26.0</ele>
</rtept>
<rtept lat="56.160375" lon="-3.967131">
<ele>23.9</ele>
</rtept>
<rtept lat="56.160844" lon="-3.967383">
<ele>22.6</ele>
</rtept>
<rtept lat="56.161409" lon="-3.967736">
<ele>26.2</ele>
</rtept>
<rtept lat="56.162204" lon="-3.968218">
<ele>29.9</ele>
</rtept>
<rtept lat="56.163218" lon="-3.968827">
<ele>45.9</ele>
</rtept>
<rtept lat="56.163504" lon="-3.968991">
<ele>41.3</ele>
</rtept>
<rtept lat="56.163761" lon="-3.969125">
<ele>37.8</ele>
</rtept>
<rtept lat="56.164019" lon="-3.969251">
<ele>35.1</ele>
</rtept>
<rtept lat="56.164444" lon="-3.969444">
<ele>43.0</ele>
</rtept>
<rtept lat="56.164704" lon="-3.969548">
<ele>39.9</ele>
</rtept>
<rtept lat="56.164934" lon="-3.969634">
<ele>37.6</ele>
</rtept>
<rtept lat="56.165212" lon="-3.969735">
<ele>40.6</ele>
</rtept>
<rtept lat="56.165916" lon="-3.969958">
<ele>40.9</ele>
</rtept>
<rtept lat="56.166145" lon="-3.970018">
<ele>41.3</ele>
</rtept>
<rtept lat="56.166560" lon="-3.970113">
<ele>43.2</ele>
</rtept>
<rtept lat="56.167292" lon="-3.970240">
<ele>50.0</ele>
</rtept>
<rtept lat="56.168546" lon="-3.970456">
<ele>44.3</ele>
</rtept>
<rtept lat="56.169426" lon="-3.970616">
<ele>45.4</ele>
</rtept>
<rtept lat="56.169519" lon="-3.970646">
<ele>46.9</ele>
</rtept>
<rtept lat="56.169589" lon="-3.970692">
<ele>47.6</ele>
</rtept>
<rtept lat="56.169663" lon="-3.970764">
<ele>47.6</ele>
</rtept>
<rtept lat="56.169772" lon="-3.970949">
<ele>47.4</ele>
</rtept>
<rtept lat="56.169879" lon="-3.971148">
<ele>48.4</ele>
</rtept>
<rtept lat="56.169947" lon="-3.971245">
<ele>50.3</ele>
</rtept>
<rtept lat="56.170012" lon="-3.971493">
<ele>54.0</ele>
</rtept>
<rtept lat="56.170050" lon="-3.971650">
<ele>56.4</ele>
</rtept>
<rtept lat="56.170088" lon="-3.971846">
<ele>57.7</ele>
</rtept>
<rtept lat="56.170106" lon="-3.972149">
<ele>58.1</ele>
</rtept>
<rtept lat="56.170061" lon="-3.972735">
<ele>56.6</ele>
</rtept>
<rtept lat="56.170034" lon="-3.973112">
<ele>55.0</ele>
</rtept>
<rtept lat="56.170023" lon="-3.973392">
<ele>56.0</ele>
</rtept>
<rtept lat="56.170025" lon="-3.973617">
<ele>57.6</ele>
</rtept>
<rtept lat="56.170041" lon="-3.973782">
<ele>58.5</ele>
</rtept>
<rtept lat="56.170059" lon="-3.973931">
<ele>59.1</ele>
</rtept>
<rtept lat="56.170084" lon="-3.974094">
<ele>59.3</ele>
</rtept>
<rtept lat="56.170102" lon="-3.974167">
<ele>59.3</ele>
</rtept>
<rtept lat="56.170141" lon="-3.974320">
<ele>59.0</ele>
</rtept>
<rtept lat="56.170198" lon="-3.974514">
<ele>58.4</ele>
</rtept>
<rtept lat="56.170260" lon="-3.974698">
<ele>58.1</ele>
</rtept>
<rtept lat="56.170299" lon="-3.974811">
<ele>58.4</ele>
</rtept>
<rtept lat="56.170351" lon="-3.974961">
<ele>59.0</ele>
</rtept>
<rtept lat="56.170416" lon="-3.975138">
<ele>59.5</ele>
</rtept>
<rtept lat="56.170491" lon="-3.975316">
<ele>58.8</ele>
</rtept>
<rtept lat="56.170586" lon="-3.975506">
<ele>58.5</ele>
</rtept>
<rtept lat="56.170655" lon="-3.975622">
<ele>60.5</ele>
</rtept>
<rtept lat="56.170727" lon="-3.975729">
<ele>63.5</ele>
</rtept>
<rtept lat="56.170828" lon="-3.975875">
<ele>63.8</ele>
</rtept>
<rtept lat="56.171002" lon="-3.976112">
<ele>63.7</ele>
</rtept>
<rtept lat="56.171184" lon="-3.976398">
<ele>66.1</ele>
</rtept>
<rtept lat="56.171243" lon="-3.976498">
<ele>66.8</ele>
</rtept>
<rtept lat="56.171296" lon="-3.976605">
<ele>67.3</ele>
</rtept>
<rtept lat="56.171355" lon="-3.976734">
<ele>67.5</ele>
</rtept>
<rtept lat="56.171424" lon="-3.976912">
<ele>67.6</ele>
</rtept>
<rtept lat="56.171462" lon="-3.977039">
<ele>67.7</ele>
</rtept>
<rtept lat="56.171498" lon="-3.977189">
<ele>67.9</ele>
</rtept>
<rtept lat="56.171527" lon="-3.977357">
<ele>68.5</ele>
</rtept>
<rtept lat="56.171546" lon="-3.977520">
<ele>68.9</ele>
</rtept>
<rtept lat="56.171572" lon="-3.977838">
<ele>68.6</ele>
</rtept>
<rtept lat="56.171582" lon="-3.977960">
<ele>68.4</ele>
</rtept>
<rtept lat="56.171605" lon="-3.978210">
<ele>65.5</ele>
</rtept>
<rtept lat="56.171624" lon="-3.978363">
<ele>63.5</ele>
</rtept>
<rtept lat="56.171680" lon="-3.978758">
<ele>61.8</ele>
</rtept>
<rtept lat="56.171708" lon="-3.978927">
<ele>61.6</ele>
</rtept>
<rtept lat="56.171720" lon="-3.978985">
<ele>61.6</ele>
</rtept>
<rtept lat="56.171739" lon="-3.979085">
<ele>61.4</ele>
</rtept>
<rtept lat="56.171777" lon="-3.979242">
<ele>61.2</ele>
</rtept>
<rtept lat="56.171826" lon="-3.979388">
<ele>61.8</ele>
</rtept>
<rtept lat="56.171877" lon="-3.979511">
<ele>64.4</ele>
</rtept>
<rtept lat="56.171934" lon="-3.979626">
<ele>66.9</ele>
</rtept>
<rtept lat="56.172027" lon="-3.979785">
<ele>68.0</ele>
</rtept>
<rtept lat="56.172110" lon="-3.979915">
<ele>66.8</ele>
</rtept>
<rtept lat="56.172176" lon="-3.980005">
<ele>66.6</ele>
</rtept>
<rtept lat="56.172253" lon="-3.980102">
<ele>66.8</ele>
</rtept>
<rtept lat="56.172348" lon="-3.980209">
<ele>67.5</ele>
</rtept>
<rtept lat="56.172456" lon="-3.980313">
<ele>68.0</ele>
</rtept>
<rtept lat="56.172564" lon="-3.980406">
<ele>68.6</ele>
</rtept>
<rtept lat="56.172754" lon="-3.980549">
<ele>68.0</ele>
</rtept>
<rtept lat="56.172848" lon="-3.980616">
<ele>68.3</ele>
</rtept>
<rtept lat="56.172952" lon="-3.980697">
<ele>69.3</ele>
</rtept>
<rtept lat="56.173080" lon="-3.980806">
<ele>71.0</ele>
</rtept>
<rtept lat="56.173416" lon="-3.981089">
<ele>77.0</ele>
</rtept>
<rtept lat="56.173515" lon="-3.981177">
<ele>77.2</ele>
</rtept>
<rtept lat="56.173619" lon="-3.981281">
<ele>75.9</ele>
</rtept>
<rtept lat="56.173741" lon="-3.981415">
<ele>75.2</ele>
</rtept>
<rtept lat="56.173849" lon="-3.981551">
<ele>74.8</ele>
</rtept>
<rtept lat="56.173970" lon="-3.981708">
<ele>73.0</ele>
</rtept>
<rtept lat="56.174219" lon="-3.982033">
<ele>71.0</ele>
</rtept>
<rtept lat="56.174422" lon="-3.982292">
<ele>74.7</ele>
</rtept>
<rtept lat="56.174591" lon="-3.982523">
<ele>80.7</ele>
</rtept>
<rtept lat="56.174795" lon="-3.982857">
<ele>82.6</ele>
</rtept>
<rtept lat="56.174948" lon="-3.983120">
<ele>82.3</ele>
</rtept>
<rtept lat="56.175074" lon="-3.983371">
<ele>76.1</ele>
</rtept>
<rtept lat="56.175185" lon="-3.983610">
<ele>73.8</ele>
</rtept>
<rtept lat="56.175249" lon="-3.983769">
<ele>76.5</ele>
</rtept>
<rtept lat="56.175292" lon="-3.983912">
<ele>77.8</ele>
</rtept>
<rtept lat="56.175337" lon="-3.984113">
<ele>76.3</ele>
</rtept>
<rtept lat="56.175385" lon="-3.984366">
<ele>79.5</ele>
</rtept>
<rtept lat="56.175622" lon="-3.985719">
<ele>81.8</ele>
</rtept>
<rtept lat="56.175725" lon="-3.986290">
<ele>79.8</ele>
</rtept>
<rtept lat="56.175741" lon="-3.986380">
<ele>80.1</ele>
</rtept>
<rtept lat="56.175782" lon="-3.986607">
<ele>81.9</ele>
</rtept>
<rtept lat="56.175818" lon="-3.986799">
<ele>83.0</ele>
</rtept>
<rtept lat="56.175841" lon="-3.986964">
<ele>83.5</ele>
</rtept>
<rtept lat="56.175859" lon="-3.987141">
<ele>83.7</ele>
</rtept>
<rtept lat="56.175877" lon="-3.987453">
<ele>84.2</ele>
</rtept>
<rtept lat="56.175886" lon="-3.987745">
<ele>83.4</ele>
</rtept>
<rtept lat="56.175907" lon="-3.988565">
<ele>83.7</ele>
</rtept>
<rtept lat="56.175926" lon="-3.989243">
<ele>77.4</ele>
</rtept>
<rtept lat="56.175939" lon="-3.989919">
<ele>76.9</ele>
</rtept>
<rtept lat="56.175942" lon="-3.990367">
<ele>77.4</ele>
</rtept>
<rtept lat="56.175945" lon="-3.990575">
<ele>78.2</ele>
</rtept>
<rtept lat="56.175958" lon="-3.990887">
<ele>79.3</ele>
</rtept>
<rtept lat="56.175969" lon="-3.991070">
<ele>79.9</ele>
</rtept>
<rtept lat="56.175982" lon="-3.991233">
<ele>80.5</ele>
</rtept>
<rtept lat="56.176007" lon="-3.991500">
<ele>81.8</ele>
</rtept>
<rtept lat="56.176037" lon="-3.991726">
<ele>81.8</ele>
</rtept>
<rtept lat="56.176076" lon="-3.991965">
<ele>79.3</ele>
</rtept>
<rtept lat="56.176121" lon="-3.992206">
<ele>81.1</ele>
</rtept>
<rtept lat="56.176147" lon="-3.992345">
<ele>83.6</ele>
</rtept>
<rtept lat="56.176184" lon="-3.992536">
<ele>85.6</ele>
</rtept>
<rtept lat="56.176270" lon="-3.992910">
<ele>85.5</ele>
</rtept>
<rtept lat="56.176343" lon="-3.993171">
<ele>86.6</ele>
</rtept>
<rtept lat="56.176394" lon="-3.993317">
<ele>86.9</ele>
</rtept>
<rtept lat="56.176423" lon="-3.993396">
<ele>87.2</ele>
</rtept>
<rtept lat="56.176555" lon="-3.993762">
<ele>86.4</ele>
</rtept>
<rtept lat="56.176732" lon="-3.994224">
<ele>85.5</ele>
</rtept>
<rtept lat="56.176986" lon="-3.994888">
<ele>99.3</ele>
</rtept>
<rtept lat="56.177089" lon="-3.995171">
<ele>100.9</ele>
</rtept>
<rtept lat="56.177177" lon="-3.995433">
<ele>102.7</ele>
</rtept>
<rtept lat="56.177276" lon="-3.995734">
<ele>101.6</ele>
</rtept>
<rtept lat="56.177380" lon="-3.996095">
<ele>95.9</ele>
</rtept>
<rtept lat="56.177468" lon="-3.996433">
<ele>96.9</ele>
</rtept>
<rtept lat="56.177511" lon="-3.996623">
<ele>98.9</ele>
</rtept>
<rtept lat="56.177639" lon="-3.997327">
<ele>99.6</ele>
</rtept>
<rtept lat="56.177743" lon="-3.998038">
<ele>104.2</ele>
</rtept>
<rtept lat="56.177803" lon="-3.998569">
<ele>106.0</ele>
</rtept>
<rtept lat="56.177832" lon="-3.998868">
<ele>106.2</ele>
</rtept>
<rtept lat="56.177851" lon="-3.999058">
<ele>104.4</ele>
</rtept>
<rtept lat="56.178004" lon="-4.001197">
<ele>98.1</ele>
</rtept>
<rtept lat="56.178124" lon="-4.003230">
<ele>102.7</ele>
</rtept>
<rtept lat="56.178312" lon="-4.006273">
<ele>106.5</ele>
</rtept>
<rtept lat="56.178345" lon="-4.006640">
<ele>104.3</ele>
</rtept>
<rtept lat="56.178395" lon="-4.007085">
<ele>102.1</ele>
</rtept>
<rtept lat="56.178438" lon="-4.007417">
<ele>101.7</ele>
</rtept>
<rtept lat="56.178480" lon="-4.007716">
<ele>100.4</ele>
</rtept>
<rtept lat="56.178517" lon="-4.007936">
<ele>102.4</ele>
</rtept>
<rtept lat="56.178568" lon="-4.008188">
<ele>104.7</ele>
</rtept>
<rtept lat="56.178635" lon="-4.008495">
<ele>105.2</ele>
</rtept>
<rtept lat="56.178731" lon="-4.008883">
<ele>104.2</ele>
</rtept>
<rtept lat="56.178849" lon="-4.009357">
<ele>104.1</ele>
</rtept>
<rtept lat="56.178969" lon="-4.009881">
<ele>105.3</ele>
</rtept>
<rtept lat="56.179154" lon="-4.010752">
<ele>100.9</ele>
</rtept>
<rtept lat="56.179380" lon="-4.011815">
<ele>90.7</ele>
</rtept>
<rtept lat="56.179493" lon="-4.012437">
<ele>83.8</ele>
</rtept>
<rtept lat="56.179569" lon="-4.012951">
<ele>87.2</ele>
</rtept>
<rtept lat="56.180272" lon="-4.018247">
<ele>77.2</ele>
</rtept>
<rtept lat="56.180292" lon="-4.018392">
<ele>77.4</ele>
</rtept>
<rtept lat="56.180591" lon="-4.020654">
<ele>68.8</ele>
</rtept>
<rtept lat="56.180592" lon="-4.020654">
<ele>68.8</ele>
</rtept>
<rtept lat="56.180981" lon="-4.023590">
<ele>65.6</ele>
</rtept>
<rtept lat="56.182386" lon="-4.029826">
<ele>48.7</ele>
</rtept>
<rtept lat="56.182485" lon="-4.030222">
<ele>50.9</ele>
</rtept>
<rtept lat="56.182621" lon="-4.030518">
<ele>46.3</ele>
</rtept>
<rtept lat="56.183676" lon="-4.032272">
<ele>50.5</ele>
</rtept>
<rtept lat="56.183794" lon="-4.032538">
<ele>48.6</ele>
</rtept>
<rtept lat="56.183904" lon="-4.032852">
<ele>49.8</ele>
</rtept>
<rtept lat="56.184092" lon="-4.033558">
<ele>51.4</ele>
</rtept>
<rtept lat="56.184825" lon="-4.036180">
<ele>51.1</ele>
</rtept>
<rtept lat="56.184965" lon="-4.036729">
<ele>49.0</ele>
</rtept>
<rtept lat="56.185050" lon="-4.037156">
<ele>46.6</ele>
</rtept>
<rtept lat="56.185139" lon="-4.037628">
<ele>46.5</ele>
</rtept>
<rtept lat="56.185185" lon="-4.037874">
<ele>46.5</ele>
</rtept>
<rtept lat="56.185204" lon="-4.038033">
<ele>47.4</ele>
</rtept>
<rtept lat="56.185216" lon="-4.038207">
<ele>47.3</ele>
</rtept>
<rtept lat="56.185235" lon="-4.038481">
<ele>45.9</ele>
</rtept>
<rtept lat="56.185263" lon="-4.038704">
<ele>43.1</ele>
</rtept>
<rtept lat="56.185312" lon="-4.038900">
<ele>39.5</ele>
</rtept>
<rtept lat="56.185353" lon="-4.039039">
<ele>36.9</ele>
</rtept>
<rtept lat="56.185419" lon="-4.039161">
<ele>35.0</ele>
</rtept>
<rtept lat="56.185467" lon="-4.039229">
<ele>32.5</ele>
</rtept>
<rtept lat="56.185520" lon="-4.039274">
<ele>30.6</ele>
</rtept>
<rtept lat="56.185582" lon="-4.039306">
<ele>28.8</ele>
</rtept>
<rtept lat="56.185669" lon="-4.039331">
<ele>26.8</ele>
</rtept>
<rtept lat="56.185818" lon="-4.039362">
<ele>24.4</ele>
</rtept>
<rtept lat="56.186155" lon="-4.039400">
<ele>19.9</ele>
</rtept>
<rtept lat="56.186533" lon="-4.039452">
<ele>17.0</ele>
</rtept>
<rtept lat="56.186728" lon="-4.039487">
<ele>18.4</ele>
</rtept>
<rtept lat="56.186863" lon="-4.039514">
<ele>19.4</ele>
</rtept>
<rtept lat="56.186958" lon="-4.039544">
<ele>19.9</ele>
</rtept>
<rtept lat="56.187072" lon="-4.039584">
<ele>20.4</ele>
</rtept>
<rtept lat="56.187367" lon="-4.039731">
<ele>23.1</ele>
</rtept>
<rtept lat="56.187342" lon="-4.040113">
<ele>23.1</ele>
</rtept>
<rtept lat="56.187326" lon="-4.040455">
<ele>22.8</ele>
</rtept>
<rtept lat="56.187314" lon="-4.041212">
<ele>23.2</ele>
</rtept>
<rtept lat="56.187311" lon="-4.041572">
<ele>25.1</ele>
</rtept>
<rtept lat="56.187304" lon="-4.043193">
<ele>24.9</ele>
</rtept>
<rtept lat="56.187310" lon="-4.043646">
<ele>24.0</ele>
</rtept>
<rtept lat="56.187316" lon="-4.043992">
<ele>23.6</ele>
</rtept>
<rtept lat="56.187333" lon="-4.044464">
<ele>23.6</ele>
</rtept>
<rtept lat="56.187351" lon="-4.044907">
<ele>24.6</ele>
</rtept>
<rtept lat="56.187439" lon="-4.045782">
<ele>31.3</ele>
</rtept>
<rtept lat="56.187479" lon="-4.046132">
<ele>32.6</ele>
</rtept>
<rtept lat="56.187538" lon="-4.046447">
<ele>34.6</ele>
</rtept>
<rtept lat="56.187592" lon="-4.046641">
<ele>35.1</ele>
</rtept>
<rtept lat="56.187681" lon="-4.046952">
<ele>29.9</ele>
</rtept>
<rtept lat="56.187918" lon="-4.047563">
<ele>29.3</ele>
</rtept>
<rtept lat="56.188074" lon="-4.047929">
<ele>27.5</ele>
</rtept>
<rtept lat="56.188159" lon="-4.048129">
<ele>27.5</ele>
</rtept>
<rtept lat="56.188373" lon="-4.048459">
<ele>30.9</ele>
</rtept>
<rtept lat="56.188565" lon="-4.048705">
<ele>28.9</ele>
</rtept>
<rtept lat="56.188720" lon="-4.048921">
<ele>26.0</ele>
</rtept>
<rtept lat="56.188843" lon="-4.049142">
<ele>25.1</ele>
</rtept>
<rtept lat="56.188913" lon="-4.049339">
<ele>26.0</ele>
</rtept>
<rtept lat="56.188966" lon="-4.049542">
<ele>26.7</ele>
</rtept>
<rtept lat="56.189003" lon="-4.049689">
<ele>27.0</ele>
</rtept>
<rtept lat="56.189119" lon="-4.050225">
<ele>31.8</ele>
</rtept>
<rtept lat="56.189178" lon="-4.050458">
<ele>33.4</ele>
</rtept>
<rtept lat="56.189230" lon="-4.050697">
<ele>33.5</ele>
</rtept>
<rtept lat="56.189275" lon="-4.050880">
<ele>33.1</ele>
</rtept>
<rtept lat="56.189429" lon="-4.051829">
<ele>32.2</ele>
</rtept>
<rtept lat="56.189455" lon="-4.051975">
<ele>32.2</ele>
</rtept>
<rtept lat="56.189477" lon="-4.052089">
<ele>32.3</ele>
</rtept>
<rtept lat="56.189506" lon="-4.052236">
<ele>32.2</ele>
</rtept>
<rtept lat="56.189565" lon="-4.052481">
<ele>31.0</ele>
</rtept>
<rtept lat="56.189666" lon="-4.052634">
<ele>30.0</ele>
</rtept>
<rtept lat="56.189758" lon="-4.052731">
<ele>29.7</ele>
</rtept>
<rtept lat="56.190078" lon="-4.053041">
<ele>30.5</ele>
</rtept>
<rtept lat="56.190198" lon="-4.053212">
<ele>30.6</ele>
</rtept>
<rtept lat="56.190321" lon="-4.053582">
<ele>26.7</ele>
</rtept>
<rtept lat="56.190366" lon="-4.053715">
<ele>26.9</ele>
</rtept>
<rtept lat="56.190733" lon="-4.054735">
<ele>26.8</ele>
</rtept>
<rtept lat="56.190921" lon="-4.055229">
<ele>27.9</ele>
</rtept>
<rtept lat="56.191047" lon="-4.055595">
<ele>27.3</ele>
</rtept>
<rtept lat="56.191133" lon="-4.055960">
<ele>28.1</ele>
</rtept>
<rtept lat="56.191192" lon="-4.056280">
<ele>28.5</ele>
</rtept>
<rtept lat="56.191237" lon="-4.056604">
<ele>28.8</ele>
</rtept>
<rtept lat="56.191285" lon="-4.056925">
<ele>30.2</ele>
</rtept>
<rtept lat="56.191303" lon="-4.057296">
<ele>32.0</ele>
</rtept>
<rtept lat="56.191302" lon="-4.057728">
<ele>33.7</ele>
</rtept>
<rtept lat="56.191280" lon="-4.057899">
<ele>34.4</ele>
</rtept>
<rtept lat="56.191252" lon="-4.057993">
<ele>34.8</ele>
</rtept>
<rtept lat="56.191212" lon="-4.058056">
<ele>35.1</ele>
</rtept>
<rtept lat="56.191169" lon="-4.058102">
<ele>35.5</ele>
</rtept>
<rtept lat="56.191229" lon="-4.058279">
<ele>36.6</ele>
</rtept>
<rtept lat="56.191396" lon="-4.059152">
<ele>36.3</ele>
</rtept>
<rtept lat="56.191652" lon="-4.060392">
<ele>37.2</ele>
</rtept>
<rtept lat="56.191799" lon="-4.061025">
<ele>37.4</ele>
</rtept>
<rtept lat="56.191953" lon="-4.061460">
<ele>41.0</ele>
</rtept>
<rtept lat="56.192109" lon="-4.061726">
<ele>41.7</ele>
</rtept>
<rtept lat="56.192421" lon="-4.062282">
<ele>35.1</ele>
</rtept>
<rtept lat="56.192537" lon="-4.062487">
<ele>32.5</ele>
</rtept>
<rtept lat="56.192768" lon="-4.062898">
<ele>31.2</ele>
</rtept>
<rtept lat="56.193127" lon="-4.063550">
<ele>32.6</ele>
</rtept>
<rtept lat="56.193231" lon="-4.063738">
<ele>31.2</ele>
</rtept>
<rtept lat="56.193715" lon="-4.064617">
<ele>25.1</ele>
</rtept>
<rtept lat="56.193757" lon="-4.064693">
<ele>24.8</ele>
</rtept>
<rtept lat="56.193780" lon="-4.064736">
<ele>25.1</ele>
</rtept>
<rtept lat="56.194557" lon="-4.066210">
<ele>26.4</ele>
</rtept>
<rtept lat="56.195079" lon="-4.067163">
<ele>29.8</ele>
</rtept>
<rtept lat="56.195778" lon="-4.068416">
<ele>26.9</ele>
</rtept>
<rtept lat="56.196013" lon="-4.068804">
<ele>25.1</ele>
</rtept>
<rtept lat="56.196902" lon="-4.070112">
<ele>23.7</ele>
</rtept>
<rtept lat="56.197034" lon="-4.070301">
<ele>25.6</ele>
</rtept>
<rtept lat="56.197193" lon="-4.070529">
<ele>25.3</ele>
</rtept>
<rtept lat="56.197488" lon="-4.070941">
<ele>25.9</ele>
</rtept>
<rtept lat="56.197735" lon="-4.071311">
<ele>25.5</ele>
</rtept>
<rtept lat="56.197882" lon="-4.071563">
<ele>24.5</ele>
</rtept>
<rtept lat="56.198053" lon="-4.071866">
<ele>23.5</ele>
</rtept>
<rtept lat="56.198177" lon="-4.072085">
<ele>21.4</ele>
</rtept>
<rtept lat="56.198362" lon="-4.072419">
<ele>19.8</ele>
</rtept>
<rtept lat="56.198905" lon="-4.073409">
<ele>24.1</ele>
</rtept>
<rtept lat="56.199129" lon="-4.073804">
<ele>25.7</ele>
</rtept>
<rtept lat="56.199220" lon="-4.073991">
<ele>26.4</ele>
</rtept>
<rtept lat="56.199286" lon="-4.074174">
<ele>26.9</ele>
</rtept>
<rtept lat="56.199330" lon="-4.074335">
<ele>27.6</ele>
</rtept>
<rtept lat="56.199366" lon="-4.074495">
<ele>28.3</ele>
</rtept>
<rtept lat="56.199407" lon="-4.074756">
<ele>28.5</ele>
</rtept>
<rtept lat="56.199446" lon="-4.075047">
<ele>28.4</ele>
</rtept>
<rtept lat="56.199480" lon="-4.075360">
<ele>28.0</ele>
</rtept>
<rtept lat="56.199508" lon="-4.075732">
<ele>26.3</ele>
</rtept>
<rtept lat="56.199554" lon="-4.076225">
<ele>24.5</ele>
</rtept>
<rtept lat="56.199606" lon="-4.076542">
<ele>26.9</ele>
</rtept>
<rtept lat="56.199670" lon="-4.076807">
<ele>27.5</ele>
</rtept>
<rtept lat="56.199761" lon="-4.077069">
<ele>27.9</ele>
</rtept>
<rtept lat="56.199844" lon="-4.077277">
<ele>30.4</ele>
</rtept>
<rtept lat="56.199940" lon="-4.077477">
<ele>28.8</ele>
</rtept>
<rtept lat="56.200151" lon="-4.077904">
<ele>27.6</ele>
</rtept>
<rtept lat="56.200277" lon="-4.078229">
<ele>27.5</ele>
</rtept>
<rtept lat="56.200396" lon="-4.078575">
<ele>28.1</ele>
</rtept>
<rtept lat="56.200497" lon="-4.078868">
<ele>30.5</ele>
</rtept>
<rtept lat="56.200570" lon="-4.079134">
<ele>30.6</ele>
</rtept>
<rtept lat="56.200644" lon="-4.079475">
<ele>30.3</ele>
</rtept>
<rtept lat="56.200806" lon="-4.080273">
<ele>31.8</ele>
</rtept>
<rtept lat="56.200811" lon="-4.080295">
<ele>31.8</ele>
</rtept>
<rtept lat="56.200920" lon="-4.080723">
<ele>31.9</ele>
</rtept>
<rtept lat="56.201009" lon="-4.081032">
<ele>33.0</ele>
</rtept>
<rtept lat="56.201101" lon="-4.081377">
<ele>32.6</ele>
</rtept>
<rtept lat="56.202035" lon="-4.084679">
<ele>38.8</ele>
</rtept>
<rtept lat="56.202082" lon="-4.084900">
<ele>38.4</ele>
</rtept>
<rtept lat="56.202126" lon="-4.085172">
<ele>37.5</ele>
</rtept>
<rtept lat="56.202148" lon="-4.085338">
<ele>37.1</ele>
</rtept>
<rtept lat="56.202169" lon="-4.085521">
<ele>37.0</ele>
</rtept>
<rtept lat="56.202182" lon="-4.085681">
<ele>36.6</ele>
</rtept>
<rtept lat="56.202188" lon="-4.085852">
<ele>36.1</ele>
</rtept>
<rtept lat="56.202176" lon="-4.086191">
<ele>36.7</ele>
</rtept>
<rtept lat="56.202147" lon="-4.086572">
<ele>39.3</ele>
</rtept>
<rtept lat="56.202129" lon="-4.086737">
<ele>40.5</ele>
</rtept>
<rtept lat="56.202094" lon="-4.086976">
<ele>42.0</ele>
</rtept>
<rtept lat="56.202056" lon="-4.087315">
<ele>42.7</ele>
</rtept>
<rtept lat="56.202033" lon="-4.087539">
<ele>42.4</ele>
</rtept>
<rtept lat="56.202024" lon="-4.087806">
<ele>41.4</ele>
</rtept>
<rtept lat="56.202032" lon="-4.088072">
<ele>40.9</ele>
</rtept>
<rtept lat="56.202064" lon="-4.088353">
<ele>40.7</ele>
</rtept>
<rtept lat="56.202140" lon="-4.088752">
<ele>39.1</ele>
</rtept>
<rtept lat="56.202258" lon="-4.089254">
<ele>39.3</ele>
</rtept>
<rtept lat="56.202869" lon="-4.091124">
<ele>42.1</ele>
</rtept>
<rtept lat="56.202941" lon="-4.091406">
<ele>41.2</ele>
</rtept>
<rtept lat="56.202985" lon="-4.091636">
<ele>41.5</ele>
</rtept>
<rtept lat="56.203029" lon="-4.091967">
<ele>41.6</ele>
</rtept>
<rtept lat="56.203412" lon="-4.096886">
<ele>46.3</ele>
</rtept>
<rtept lat="56.203690" lon="-4.099934">
<ele>46.1</ele>
</rtept>
<rtept lat="56.203990" lon="-4.102627">
<ele>49.9</ele>
</rtept>
<rtept lat="56.204031" lon="-4.103131">
<ele>52.5</ele>
</rtept>
<rtept lat="56.204034" lon="-4.103505">
<ele>56.9</ele>
</rtept>
<rtept lat="56.204015" lon="-4.103828">
<ele>58.9</ele>
</rtept>
<rtept lat="56.203975" lon="-4.104227">
<ele>57.8</ele>
</rtept>
<rtept lat="56.203912" lon="-4.104874">
<ele>53.7</ele>
</rtept>
<rtept lat="56.203897" lon="-4.105119">
<ele>52.3</ele>
</rtept>
<rtept lat="56.203916" lon="-4.105567">
<ele>52.0</ele>
</rtept>
<rtept lat="56.203946" lon="-4.105979">
<ele>54.0</ele>
</rtept>
<rtept lat="56.204165" lon="-4.108107">
<ele>47.8</ele>
</rtept>
<rtept lat="56.204270" lon="-4.108963">
<ele>49.2</ele>
</rtept>
<rtept lat="56.204336" lon="-4.109357">
<ele>40.0</ele>
</rtept>
<rtept lat="56.204542" lon="-4.110406">
<ele>44.7</ele>
</rtept>
<rtept lat="56.204794" lon="-4.111692">
<ele>53.1</ele>
</rtept>
<rtept lat="56.204808" lon="-4.111850">
<ele>51.7</ele>
</rtept>
<rtept lat="56.204814" lon="-4.112007">
<ele>51.1</ele>
</rtept>
<rtept lat="56.204775" lon="-4.112522">
<ele>56.0</ele>
</rtept>
<rtept lat="56.204752" lon="-4.113180">
<ele>63.6</ele>
</rtept>
<rtept lat="56.204758" lon="-4.113499">
<ele>64.4</ele>
</rtept>
<rtept lat="56.204776" lon="-4.113774">
<ele>63.5</ele>
</rtept>
<rtept lat="56.204795" lon="-4.113948">
<ele>62.9</ele>
</rtept>
<rtept lat="56.204839" lon="-4.114133">
<ele>62.9</ele>
</rtept>
<rtept lat="56.205518" lon="-4.116027">
<ele>57.8</ele>
</rtept>
<rtept lat="56.205574" lon="-4.116283">
<ele>55.6</ele>
</rtept>
<rtept lat="56.205597" lon="-4.116538">
<ele>54.6</ele>
</rtept>
<rtept lat="56.205581" lon="-4.117188">
<ele>49.6</ele>
</rtept>
<rtept lat="56.205548" lon="-4.118419">
<ele>31.7</ele>
</rtept>
<rtept lat="56.205560" lon="-4.118737">
<ele>30.4</ele>
</rtept>
<rtept lat="56.205587" lon="-4.119030">
<ele>30.4</ele>
</rtept>
<rtept lat="56.205630" lon="-4.119342">
<ele>29.7</ele>
</rtept>
<rtept lat="56.205686" lon="-4.119626">
<ele>28.4</ele>
</rtept>
<rtept lat="56.205767" lon="-4.119940">
<ele>27.3</ele>
</rtept>
<rtept lat="56.205950" lon="-4.120477">
<ele>26.1</ele>
</rtept>
<rtept lat="56.206645" lon="-4.122247">
<ele>26.3</ele>
</rtept>
<rtept lat="56.206857" lon="-4.122863">
<ele>29.3</ele>
</rtept>
<rtept lat="56.207015" lon="-4.123388">
<ele>30.4</ele>
</rtept>
<rtept lat="56.207852" lon="-4.126362">
<ele>33.6</ele>
</rtept>
<rtept lat="56.208311" lon="-4.127949">
<ele>33.5</ele>
</rtept>
<rtept lat="56.208355" lon="-4.128104">
<ele>34.9</ele>
</rtept>
<rtept lat="56.208465" lon="-4.128498">
<ele>36.5</ele>
</rtept>
<rtept lat="56.208533" lon="-4.128807">
<ele>37.9</ele>
</rtept>
<rtept lat="56.209005" lon="-4.132082">
<ele>33.2</ele>
</rtept>
<rtept lat="56.209086" lon="-4.132577">
<ele>32.3</ele>
</rtept>
<rtept lat="56.209191" lon="-4.133080">
<ele>29.7</ele>
</rtept>
<rtept lat="56.209350" lon="-4.133669">
<ele>24.4</ele>
</rtept>
<rtept lat="56.209472" lon="-4.134035">
<ele>24.3</ele>
</rtept>
<rtept lat="56.209598" lon="-4.134336">
<ele>25.8</ele>
</rtept>
<rtept lat="56.209748" lon="-4.134648">
<ele>27.5</ele>
</rtept>
<rtept lat="56.209877" lon="-4.134874">
<ele>27.7</ele>
</rtept>
<rtept lat="56.210957" lon="-4.136678">
<ele>34.5</ele>
</rtept>
<rtept lat="56.211130" lon="-4.137000">
<ele>30.0</ele>
</rtept>
<rtept lat="56.211497" lon="-4.137784">
<ele>31.0</ele>
</rtept>
<rtept lat="56.212335" lon="-4.139576">
<ele>25.5</ele>
</rtept>
<rtept lat="56.212418" lon="-4.139736">
<ele>26.8</ele>
</rtept>
<rtept lat="56.212680" lon="-4.140240">
<ele>29.2</ele>
</rtept>
<rtept lat="56.212822" lon="-4.140480">
<ele>28.9</ele>
</rtept>
<rtept lat="56.213614" lon="-4.141773">
<ele>31.2</ele>
</rtept>
<rtept lat="56.213816" lon="-4.142149">
<ele>33.9</ele>
</rtept>
<rtept lat="56.214013" lon="-4.142609">
<ele>34.6</ele>
</rtept>
<rtept lat="56.214146" lon="-4.142982">
<ele>34.9</ele>
</rtept>
<rtept lat="56.214251" lon="-4.143328">
<ele>40.2</ele>
</rtept>
<rtept lat="56.214374" lon="-4.143815">
<ele>42.0</ele>
</rtept>
<rtept lat="56.214466" lon="-4.144280">
<ele>43.6</ele>
</rtept>
<rtept lat="56.214529" lon="-4.144757">
<ele>45.2</ele>
</rtept>
<rtept lat="56.214561" lon="-4.145252">
<ele>46.7</ele>
</rtept>
<rtept lat="56.214667" lon="-4.147424">
<ele>49.1</ele>
</rtept>
<rtept lat="56.214716" lon="-4.148216">
<ele>50.0</ele>
</rtept>
<rtept lat="56.214758" lon="-4.148826">
<ele>51.1</ele>
</rtept>
<rtept lat="56.214759" lon="-4.148854">
<ele>51.2</ele>
</rtept>
<rtept lat="56.214820" lon="-4.149549">
<ele>52.6</ele>
</rtept>
<rtept lat="56.214832" lon="-4.149688">
<ele>52.8</ele>
</rtept>
<rtept lat="56.214831" lon="-4.149688">
<ele>52.8</ele>
</rtept>
<rtept lat="56.214832" lon="-4.149688">
<ele>52.8</ele>
</rtept>
<rtept lat="56.214898" lon="-4.150447">
<ele>53.3</ele>
</rtept>
<rtept lat="56.214985" lon="-4.151190">
<ele>60.6</ele>
</rtept>
<rtept lat="56.215352" lon="-4.153676">
<ele>58.5</ele>
</rtept>
<rtept lat="56.215422" lon="-4.154079">
<ele>57.3</ele>
</rtept>
<rtept lat="56.215755" lon="-4.155735">
<ele>51.9</ele>
</rtept>
<rtept lat="56.215906" lon="-4.156380">
<ele>50.6</ele>
</rtept>
<rtept lat="56.216339" lon="-4.158047">
<ele>55.6</ele>
</rtept>
<rtept lat="56.216518" lon="-4.158649">
<ele>56.1</ele>
</rtept>
<rtept lat="56.216672" lon="-4.159089">
<ele>56.5</ele>
</rtept>
<rtept lat="56.216966" lon="-4.159790">
<ele>58.1</ele>
</rtept>
<rtept lat="56.217184" lon="-4.160243">
<ele>58.3</ele>
</rtept>
<rtept lat="56.217434" lon="-4.160680">
<ele>58.8</ele>
</rtept>
<rtept lat="56.217776" lon="-4.161198">
<ele>61.2</ele>
</rtept>
<rtept lat="56.218181" lon="-4.161727">
<ele>66.7</ele>
</rtept>
<rtept lat="56.218463" lon="-4.162051">
<ele>66.0</ele>
</rtept>
<rtept lat="56.218730" lon="-4.162310">
<ele>66.9</ele>
</rtept>
<rtept lat="56.219012" lon="-4.162509">
<ele>69.9</ele>
</rtept>
<rtept lat="56.219230" lon="-4.162672">
<ele>69.2</ele>
</rtept>
<rtept lat="56.219448" lon="-4.162822">
<ele>68.8</ele>
</rtept>
<rtept lat="56.219690" lon="-4.162955">
<ele>67.9</ele>
</rtept>
<rtept lat="56.219969" lon="-4.163093">
<ele>64.9</ele>
</rtept>
<rtept lat="56.220506" lon="-4.163343">
<ele>62.7</ele>
</rtept>
<rtept lat="56.220751" lon="-4.163474">
<ele>63.7</ele>
</rtept>
<rtept lat="56.220982" lon="-4.163604">
<ele>62.8</ele>
</rtept>
<rtept lat="56.221179" lon="-4.163738">
<ele>58.8</ele>
</rtept>
<rtept lat="56.221365" lon="-4.163877">
<ele>57.6</ele>
</rtept>
<rtept lat="56.221628" lon="-4.164089">
<ele>55.6</ele>
</rtept>
<rtept lat="56.221889" lon="-4.164341">
<ele>55.6</ele>
</rtept>
<rtept lat="56.222153" lon="-4.164617">
<ele>55.7</ele>
</rtept>
<rtept lat="56.222342" lon="-4.164844">
<ele>56.8</ele>
</rtept>
<rtept lat="56.222555" lon="-4.165113">
<ele>57.7</ele>
</rtept>
<rtept lat="56.222736" lon="-4.165378">
<ele>59.7</ele>
</rtept>
<rtept lat="56.222921" lon="-4.165653">
<ele>62.4</ele>
</rtept>
<rtept lat="56.223123" lon="-4.165985">
<ele>63.9</ele>
</rtept>
<rtept lat="56.223319" lon="-4.166330">
<ele>64.2</ele>
</rtept>
<rtept lat="56.223629" lon="-4.166866">
<ele>60.7</ele>
</rtept>
<rtept lat="56.224581" lon="-4.168540">
<ele>60.7</ele>
</rtept>
<rtept lat="56.225474" lon="-4.170111">
<ele>60.3</ele>
</rtept>
<rtept lat="56.225780" lon="-4.170636">
<ele>61.2</ele>
</rtept>
<rtept lat="56.226182" lon="-4.171272">
<ele>64.5</ele>
</rtept>
<rtept lat="56.226513" lon="-4.171792">
<ele>69.2</ele>
</rtept>
<rtept lat="56.226974" lon="-4.172439">
<ele>69.5</ele>
</rtept>
<rtept lat="56.227467" lon="-4.173083">
<ele>72.0</ele>
</rtept>
<rtept lat="56.227806" lon="-4.173496">
<ele>68.3</ele>
</rtept>
<rtept lat="56.228997" lon="-4.174852">
<ele>74.7</ele>
</rtept>
<rtept lat="56.229178" lon="-4.175024">
<ele>77.4</ele>
</rtept>
<rtept lat="56.229625" lon="-4.175390">
<ele>85.0</ele>
</rtept>
<rtept lat="56.231220" lon="-4.176914">
<ele>87.4</ele>
</rtept>
<rtept lat="56.231883" lon="-4.177587">
<ele>78.3</ele>
</rtept>
<rtept lat="56.232766" lon="-4.178392">
<ele>74.2</ele>
</rtept>
<rtept lat="56.232978" lon="-4.178607">
<ele>69.8</ele>
</rtept>
<rtept lat="56.233278" lon="-4.178961">
<ele>71.1</ele>
</rtept>
<rtept lat="56.233647" lon="-4.179462">
<ele>69.2</ele>
</rtept>
<rtept lat="56.233894" lon="-4.179835">
<ele>68.7</ele>
</rtept>
<rtept lat="56.234156" lon="-4.180281">
<ele>69.6</ele>
</rtept>
<rtept lat="56.234553" lon="-4.181080">
<ele>72.7</ele>
</rtept>
<rtept lat="56.234693" lon="-4.181397">
<ele>74.4</ele>
</rtept>
<rtept lat="56.234762" lon="-4.181568">
<ele>74.9</ele>
</rtept>
<rtept lat="56.234946" lon="-4.182043">
<ele>73.6</ele>
</rtept>
<rtept lat="56.235101" lon="-4.182504">
<ele>70.9</ele>
</rtept>
<rtept lat="56.235498" lon="-4.183798">
<ele>76.2</ele>
</rtept>
<rtept lat="56.235813" lon="-4.184914">
<ele>81.7</ele>
</rtept>
<rtept lat="56.235916" lon="-4.185285">
<ele>81.0</ele>
</rtept>
<rtept lat="56.236087" lon="-4.185940">
<ele>78.9</ele>
</rtept>
<rtept lat="56.236116" lon="-4.186052">
<ele>79.5</ele>
</rtept>
<rtept lat="56.236388" lon="-4.187218">
<ele>84.5</ele>
</rtept>
<rtept lat="56.236583" lon="-4.188102">
<ele>72.1</ele>
</rtept>
<rtept lat="56.236688" lon="-4.188625">
<ele>68.0</ele>
</rtept>
<rtept lat="56.236829" lon="-4.189346">
<ele>66.0</ele>
</rtept>
<rtept lat="56.236988" lon="-4.190172">
<ele>70.4</ele>
</rtept>
<rtept lat="56.237186" lon="-4.191155">
<ele>72.5</ele>
</rtept>
<rtept lat="56.237204" lon="-4.191246">
<ele>72.7</ele>
</rtept>
<rtept lat="56.237288" lon="-4.191665">
<ele>75.2</ele>
</rtept>
<rtept lat="56.237342" lon="-4.191936">
<ele>76.0</ele>
</rtept>
<rtept lat="56.237529" lon="-4.192883">
<ele>75.0</ele>
</rtept>
<rtept lat="56.237583" lon="-4.193140">
<ele>73.2</ele>
</rtept>
<rtept lat="56.237661" lon="-4.193405">
<ele>71.7</ele>
</rtept>
<rtept lat="56.237743" lon="-4.193685">
<ele>70.9</ele>
</rtept>
<rtept lat="56.237824" lon="-4.193925">
<ele>70.3</ele>
</rtept>
<rtept lat="56.238058" lon="-4.194595">
<ele>69.0</ele>
</rtept>
<rtept lat="56.238164" lon="-4.194917">
<ele>69.0</ele>
</rtept>
<rtept lat="56.238336" lon="-4.195405">
<ele>66.2</ele>
</rtept>
<rtept lat="56.238481" lon="-4.195817">
<ele>61.2</ele>
</rtept>
<rtept lat="56.238666" lon="-4.196341">
<ele>63.2</ele>
</rtept>
<rtept lat="56.238778" lon="-4.196653">
<ele>67.2</ele>
</rtept>
<rtept lat="56.238872" lon="-4.196916">
<ele>69.7</ele>
</rtept>
<rtept lat="56.238976" lon="-4.197224">
<ele>71.8</ele>
</rtept>
<rtept lat="56.239034" lon="-4.197401">
<ele>72.6</ele>
</rtept>
<rtept lat="56.239090" lon="-4.197566">
<ele>72.3</ele>
</rtept>
<rtept lat="56.239430" lon="-4.198560">
<ele>69.1</ele>
</rtept>
<rtept lat="56.239602" lon="-4.199068">
<ele>67.9</ele>
</rtept>
<rtept lat="56.240119" lon="-4.200620">
<ele>71.2</ele>
</rtept>
<rtept lat="56.240728" lon="-4.202510">
<ele>82.1</ele>
</rtept>
<rtept lat="56.240816" lon="-4.202741">
<ele>82.8</ele>
</rtept>
<rtept lat="56.240835" lon="-4.202817">
<ele>83.1</ele>
</rtept>
<rtept lat="56.241192" lon="-4.203956">
<ele>73.9</ele>
</rtept>
<rtept lat="56.241412" lon="-4.204716">
<ele>74.3</ele>
</rtept>
<rtept lat="56.241552" lon="-4.205229">
<ele>75.4</ele>
</rtept>
<rtept lat="56.241675" lon="-4.205721">
<ele>87.7</ele>
</rtept>
<rtept lat="56.241812" lon="-4.206412">
<ele>75.8</ele>
</rtept>
<rtept lat="56.241880" lon="-4.206779">
<ele>74.1</ele>
</rtept>
<rtept lat="56.242107" lon="-4.207997">
<ele>69.4</ele>
</rtept>
<rtept lat="56.242154" lon="-4.208271">
<ele>69.4</ele>
</rtept>
<rtept lat="56.242395" lon="-4.209354">
<ele>65.2</ele>
</rtept>
<rtept lat="56.242649" lon="-4.210422">
<ele>62.6</ele>
</rtept>
<rtept lat="56.242794" lon="-4.211047">
<ele>61.7</ele>
</rtept>
<rtept lat="56.243083" lon="-4.212243">
<ele>59.1</ele>
</rtept>
<rtept lat="56.243115" lon="-4.212370">
<ele>59.1</ele>
</rtept>
<rtept lat="56.243272" lon="-4.212999">
<ele>64.2</ele>
</rtept>
<rtept lat="56.243693" lon="-4.214547">
<ele>65.6</ele>
</rtept>
<rtept lat="56.243793" lon="-4.214921">
<ele>66.0</ele>
</rtept>
<rtept lat="56.244141" lon="-4.216217">
<ele>60.0</ele>
</rtept>
<rtept lat="56.244421" lon="-4.217304">
<ele>57.9</ele>
</rtept>
<rtept lat="56.244509" lon="-4.217670">
<ele>62.6</ele>
</rtept>
<rtept lat="56.244609" lon="-4.218049">
<ele>69.5</ele>
</rtept>
<rtept lat="56.244634" lon="-4.218185">
<ele>70.7</ele>
</rtept>
<rtept lat="56.244692" lon="-4.218838">
<ele>66.8</ele>
</rtept>
<rtept lat="56.244705" lon="-4.218978">
<ele>65.8</ele>
</rtept>
<rtept lat="56.244787" lon="-4.219775">
<ele>65.3</ele>
</rtept>
<rtept lat="56.244814" lon="-4.220055">
<ele>64.8</ele>
</rtept>
<rtept lat="56.244815" lon="-4.220129">
<ele>64.2</ele>
</rtept>
<rtept lat="56.244831" lon="-4.220720">
<ele>63.4</ele>
</rtept>
<rtept lat="56.244832" lon="-4.220852">
<ele>64.4</ele>
</rtept>
<rtept lat="56.244845" lon="-4.222969">
<ele>74.4</ele>
</rtept>
<rtept lat="56.244851" lon="-4.223339">
<ele>75.2</ele>
</rtept>
<rtept lat="56.244841" lon="-4.224079">
<ele>71.6</ele>
</rtept>
<rtept lat="56.244841" lon="-4.224191">
<ele>71.2</ele>
</rtept>
<rtept lat="56.244841" lon="-4.224448">
<ele>71.1</ele>
</rtept>
<rtept lat="56.244841" lon="-4.224801">
<ele>70.5</ele>
</rtept>
<rtept lat="56.244840" lon="-4.225428">
<ele>70.1</ele>
</rtept>
<rtept lat="56.244838" lon="-4.225988">
<ele>65.9</ele>
</rtept>
<rtept lat="56.244838" lon="-4.226181">
<ele>65.8</ele>
</rtept>
<rtept lat="56.244861" lon="-4.227049">
<ele>67.4</ele>
</rtept>
<rtept lat="56.244863" lon="-4.227104">
<ele>67.6</ele>
</rtept>
<rtept lat="56.244905" lon="-4.227587">
<ele>68.7</ele>
</rtept>
<rtept lat="56.244931" lon="-4.227832">
<ele>67.6</ele>
</rtept>
<rtept lat="56.244950" lon="-4.228007">
<ele>66.9</ele>
</rtept>
<rtept lat="56.244996" lon="-4.228296">
<ele>65.1</ele>
</rtept>
<rtept lat="56.245351" lon="-4.229294">
<ele>59.6</ele>
</rtept>
<rtept lat="56.245387" lon="-4.229459">
<ele>58.3</ele>
</rtept>
<rtept lat="56.245409" lon="-4.229638">
<ele>57.3</ele>
</rtept>
<rtept lat="56.245427" lon="-4.230050">
<ele>53.4</ele>
</rtept>
<rtept lat="56.245463" lon="-4.230850">
<ele>57.9</ele>
</rtept>
<rtept lat="56.245490" lon="-4.231129">
<ele>60.0</ele>
</rtept>
<rtept lat="56.245524" lon="-4.231706">
<ele>59.4</ele>
</rtept>
<rtept lat="56.245649" lon="-4.233442">
<ele>61.0</ele>
</rtept>
<rtept lat="56.245771" lon="-4.234985">
<ele>63.6</ele>
</rtept>
<rtept lat="56.245886" lon="-4.236326">
<ele>57.8</ele>
</rtept>
<rtept lat="56.245947" lon="-4.236768">
<ele>59.9</ele>
</rtept>
<rtept lat="56.245970" lon="-4.236934">
<ele>61.9</ele>
</rtept>
<rtept lat="56.246079" lon="-4.237702">
<ele>68.2</ele>
</rtept>
<rtept lat="56.246227" lon="-4.238635">
<ele>71.8</ele>
</rtept>
<rtept lat="56.246330" lon="-4.239376">
<ele>70.4</ele>
</rtept>
<rtept lat="56.246351" lon="-4.239774">
<ele>70.9</ele>
</rtept>
<rtept lat="56.246351" lon="-4.240073">
<ele>72.7</ele>
</rtept>
<rtept lat="56.246317" lon="-4.240663">
<ele>77.0</ele>
</rtept>
<rtept lat="56.246272" lon="-4.241578">
<ele>70.3</ele>
</rtept>
<rtept lat="56.246259" lon="-4.241679">
<ele>69.0</ele>
</rtept>
<rtept lat="56.246250" lon="-4.241856">
<ele>67.6</ele>
</rtept>
<rtept lat="56.246225" lon="-4.242229">
<ele>67.2</ele>
</rtept>
<rtept lat="56.246220" lon="-4.242807">
<ele>64.0</ele>
</rtept>
<rtept lat="56.246235" lon="-4.242975">
<ele>62.1</ele>
</rtept>
<rtept lat="56.246240" lon="-4.243028">
<ele>61.5</ele>
</rtept>
<rtept lat="56.246278" lon="-4.243272">
<ele>64.3</ele>
</rtept>
<rtept lat="56.246338" lon="-4.243475">
<ele>64.8</ele>
</rtept>
<rtept lat="56.246407" lon="-4.243649">
<ele>64.4</ele>
</rtept>
<rtept lat="56.246516" lon="-4.243850">
<ele>64.1</ele>
</rtept>
<rtept lat="56.246680" lon="-4.244125">
<ele>63.6</ele>
</rtept>
<rtept lat="56.246909" lon="-4.244428">
<ele>64.4</ele>
</rtept>
<rtept lat="56.246954" lon="-4.244481">
<ele>64.5</ele>
</rtept>
<rtept lat="56.247092" lon="-4.244643">
<ele>64.3</ele>
</rtept>
<rtept lat="56.247610" lon="-4.245090">
<ele>69.5</ele>
</rtept>
<rtept lat="56.247741" lon="-4.245243">
<ele>69.9</ele>
</rtept>
<rtept lat="56.247824" lon="-4.245399">
<ele>68.7</ele>
</rtept>
<rtept lat="56.247933" lon="-4.245716">
<ele>70.3</ele>
</rtept>
<rtept lat="56.248002" lon="-4.245956">
<ele>73.0</ele>
</rtept>
<rtept lat="56.248024" lon="-4.246162">
<ele>74.9</ele>
</rtept>
<rtept lat="56.248019" lon="-4.246380">
<ele>76.2</ele>
</rtept>
<rtept lat="56.247869" lon="-4.247546">
<ele>78.5</ele>
</rtept>
<rtept lat="56.247839" lon="-4.247917">
<ele>79.0</ele>
</rtept>
<rtept lat="56.247831" lon="-4.248439">
<ele>76.6</ele>
</rtept>
<rtept lat="56.247845" lon="-4.249014">
<ele>71.9</ele>
</rtept>
<rtept lat="56.247873" lon="-4.249391">
<ele>72.3</ele>
</rtept>
<rtept lat="56.247908" lon="-4.249551">
<ele>72.1</ele>
</rtept>
<rtept lat="56.247996" lon="-4.249795">
<ele>73.8</ele>
</rtept>
<rtept lat="56.248223" lon="-4.250309">
<ele>78.6</ele>
</rtept>
<rtept lat="56.248369" lon="-4.250639">
<ele>77.1</ele>
</rtept>
<rtept lat="56.248464" lon="-4.250920">
<ele>77.9</ele>
</rtept>
<rtept lat="56.248549" lon="-4.251272">
<ele>80.4</ele>
</rtept>
<rtept lat="56.248616" lon="-4.251665">
<ele>80.9</ele>
</rtept>
<rtept lat="56.248658" lon="-4.252155">
<ele>80.2</ele>
</rtept>
<rtept lat="56.248685" lon="-4.252813">
<ele>80.3</ele>
</rtept>
<rtept lat="56.248705" lon="-4.253123">
<ele>82.4</ele>
</rtept>
<rtept lat="56.248709" lon="-4.253186">
<ele>82.7</ele>
</rtept>
<rtept lat="56.248742" lon="-4.253384">
<ele>83.5</ele>
</rtept>
<rtept lat="56.248889" lon="-4.254127">
<ele>81.5</ele>
</rtept>
<rtept lat="56.249107" lon="-4.255287">
<ele>76.8</ele>
</rtept>
<rtept lat="56.249332" lon="-4.256571">
<ele>85.9</ele>
</rtept>
<rtept lat="56.249463" lon="-4.257216">
<ele>86.6</ele>
</rtept>
<rtept lat="56.249644" lon="-4.257872">
<ele>85.7</ele>
</rtept>
<rtept lat="56.249654" lon="-4.257905">
<ele>85.3</ele>
</rtept>
<rtept lat="56.250055" lon="-4.259160">
<ele>74.2</ele>
</rtept>
<rtept lat="56.250223" lon="-4.259610">
<ele>73.5</ele>
</rtept>
<rtept lat="56.250440" lon="-4.260110">
<ele>78.4</ele>
</rtept>
<rtept lat="56.250951" lon="-4.261291">
<ele>84.9</ele>
</rtept>
<rtept lat="56.251076" lon="-4.261606">
<ele>84.8</ele>
</rtept>
<rtept lat="56.251174" lon="-4.261954">
<ele>85.9</ele>
</rtept>
<rtept lat="56.251233" lon="-4.262235">
<ele>86.9</ele>
</rtept>
<rtept lat="56.251324" lon="-4.262879">
<ele>86.8</ele>
</rtept>
<rtept lat="56.251387" lon="-4.263175">
<ele>85.3</ele>
</rtept>
<rtept lat="56.251478" lon="-4.263500">
<ele>82.0</ele>
</rtept>
<rtept lat="56.252514" lon="-4.266421">
<ele>94.3</ele>
</rtept>
<rtept lat="56.252566" lon="-4.266674">
<ele>96.1</ele>
</rtept>
<rtept lat="56.252591" lon="-4.266934">
<ele>97.9</ele>
</rtept>
<rtept lat="56.252587" lon="-4.267188">
<ele>99.9</ele>
</rtept>
<rtept lat="56.252528" lon="-4.267794">
<ele>103.8</ele>
</rtept>
<rtept lat="56.252328" lon="-4.269099">
<ele>106.0</ele>
</rtept>
<rtept lat="56.252195" lon="-4.269965">
<ele>106.2</ele>
</rtept>
<rtept lat="56.251913" lon="-4.271519">
<ele>118.3</ele>
</rtept>
<rtept lat="56.251806" lon="-4.271889">
<ele>123.0</ele>
</rtept>
<rtept lat="56.251677" lon="-4.272303">
<ele>123.4</ele>
</rtept>
<rtept lat="56.251534" lon="-4.272802">
<ele>121.6</ele>
</rtept>
<rtept lat="56.251442" lon="-4.273054">
<ele>122.7</ele>
</rtept>
<rtept lat="56.251349" lon="-4.273255">
<ele>124.9</ele>
</rtept>
<rtept lat="56.251236" lon="-4.273440">
<ele>125.5</ele>
</rtept>
<rtept lat="56.251023" lon="-4.273764">
<ele>127.0</ele>
</rtept>
<rtept lat="56.250550" lon="-4.274483">
<ele>123.3</ele>
</rtept>
<rtept lat="56.250421" lon="-4.274698">
<ele>120.2</ele>
</rtept>
<rtept lat="56.250318" lon="-4.274906">
<ele>120.3</ele>
</rtept>
<rtept lat="56.250210" lon="-4.275212">
<ele>118.7</ele>
</rtept>
<rtept lat="56.250132" lon="-4.275590">
<ele>114.9</ele>
</rtept>
<rtept lat="56.250080" lon="-4.276007">
<ele>113.4</ele>
</rtept>
<rtept lat="56.250088" lon="-4.276483">
<ele>111.4</ele>
</rtept>
<rtept lat="56.250134" lon="-4.276990">
<ele>112.2</ele>
</rtept>
<rtept lat="56.250220" lon="-4.277569">
<ele>113.7</ele>
</rtept>
<rtept lat="56.250276" lon="-4.277856">
<ele>112.1</ele>
</rtept>
<rtept lat="56.250348" lon="-4.278098">
<ele>109.3</ele>
</rtept>
<rtept lat="56.250436" lon="-4.278310">
<ele>108.4</ele>
</rtept>
<rtept lat="56.250611" lon="-4.278596">
<ele>108.9</ele>
</rtept>
<rtept lat="56.250870" lon="-4.279015">
<ele>110.6</ele>
</rtept>
<rtept lat="56.250988" lon="-4.279247">
<ele>113.1</ele>
</rtept>
<rtept lat="56.251101" lon="-4.279516">
<ele>117.0</ele>
</rtept>
<rtept lat="56.251303" lon="-4.280138">
<ele>111.9</ele>
</rtept>
<rtept lat="56.251398" lon="-4.280359">
<ele>106.7</ele>
</rtept>
<rtept lat="56.251488" lon="-4.280522">
<ele>106.6</ele>
</rtept>
<rtept lat="56.251615" lon="-4.280656">
<ele>105.5</ele>
</rtept>
<rtept lat="56.251954" lon="-4.280900">
<ele>102.0</ele>
</rtept>
<rtept lat="56.252101" lon="-4.281005">
<ele>102.2</ele>
</rtept>
<rtept lat="56.252224" lon="-4.281069">
<ele>100.9</ele>
</rtept>
<rtept lat="56.252239" lon="-4.281076">
<ele>100.8</ele>
</rtept>
<rtept lat="56.252374" lon="-4.281096">
<ele>100.0</ele>
</rtept>
<rtept lat="56.252514" lon="-4.281065">
<ele>101.1</ele>
</rtept>
<rtept lat="56.253065" lon="-4.280922">
<ele>100.8</ele>
</rtept>
<rtept lat="56.253206" lon="-4.280903">
<ele>100.7</ele>
</rtept>
<rtept lat="56.253327" lon="-4.280899">
<ele>102.3</ele>
</rtept>
<rtept lat="56.253491" lon="-4.280933">
<ele>104.6</ele>
</rtept>
<rtept lat="56.253642" lon="-4.280987">
<ele>106.3</ele>
</rtept>
<rtept lat="56.253841" lon="-4.281081">
<ele>108.1</ele>
</rtept>
<rtept lat="56.254417" lon="-4.281356">
<ele>114.1</ele>
</rtept>
<rtept lat="56.254923" lon="-4.281535">
<ele>109.2</ele>
</rtept>
<rtept lat="56.255054" lon="-4.281594">
<ele>105.8</ele>
</rtept>
<rtept lat="56.255178" lon="-4.281673">
<ele>103.2</ele>
</rtept>
<rtept lat="56.255409" lon="-4.281849">
<ele>104.3</ele>
</rtept>
<rtept lat="56.256549" lon="-4.282775">
<ele>104.3</ele>
</rtept>
<rtept lat="56.258248" lon="-4.284167">
<ele>104.2</ele>
</rtept>
<rtept lat="56.258424" lon="-4.284299">
<ele>102.8</ele>
</rtept>
<rtept lat="56.260235" lon="-4.285810">
<ele>106.1</ele>
</rtept>
<rtept lat="56.260312" lon="-4.285851">
<ele>107.8</ele>
</rtept>
<rtept lat="56.260391" lon="-4.285853">
<ele>110.0</ele>
</rtept>
<rtept lat="56.260464" lon="-4.285812">
<ele>111.4</ele>
</rtept>
<rtept lat="56.260528" lon="-4.285743">
<ele>112.3</ele>
</rtept>
<rtept lat="56.260645" lon="-4.285601">
<ele>113.1</ele>
</rtept>
<rtept lat="56.260982" lon="-4.285144">
<ele>118.1</ele>
</rtept>
<rtept lat="56.261068" lon="-4.285061">
<ele>117.9</ele>
</rtept>
<rtept lat="56.261167" lon="-4.285030">
<ele>116.6</ele>
</rtept>
<rtept lat="56.261299" lon="-4.285056">
<ele>113.2</ele>
</rtept>
<rtept lat="56.261391" lon="-4.285101">
<ele>111.2</ele>
</rtept>
<rtept lat="56.261487" lon="-4.285167">
<ele>109.0</ele>
</rtept>
<rtept lat="56.261648" lon="-4.285334">
<ele>106.3</ele>
</rtept>
<rtept lat="56.261761" lon="-4.285505">
<ele>105.7</ele>
</rtept>
<rtept lat="56.261916" lon="-4.285794">
<ele>103.4</ele>
</rtept>
<rtept lat="56.262026" lon="-4.285986">
<ele>102.6</ele>
</rtept>
<rtept lat="56.262127" lon="-4.286108">
<ele>102.3</ele>
</rtept>
<rtept lat="56.262244" lon="-4.286231">
<ele>104.4</ele>
</rtept>
<rtept lat="56.262428" lon="-4.286377">
<ele>105.2</ele>
</rtept>
<rtept lat="56.262580" lon="-4.286479">
<ele>105.4</ele>
</rtept>
<rtept lat="56.262831" lon="-4.286587">
<ele>111.0</ele>
</rtept>
<rtept lat="56.263123" lon="-4.286653">
<ele>112.1</ele>
</rtept>
<rtept lat="56.263332" lon="-4.286676">
<ele>111.1</ele>
</rtept>
<rtept lat="56.264271" lon="-4.286642">
<ele>97.2</ele>
</rtept>
<rtept lat="56.264454" lon="-4.286621">
<ele>102.5</ele>
</rtept>
<rtept lat="56.264543" lon="-4.286590">
<ele>105.8</ele>
</rtept>
<rtept lat="56.264622" lon="-4.286537">
<ele>106.5</ele>
</rtept>
<rtept lat="56.264768" lon="-4.286409">
<ele>105.7</ele>
</rtept>
<rtept lat="56.265159" lon="-4.286051">
<ele>117.0</ele>
</rtept>
<rtept lat="56.266535" lon="-4.285018">
<ele>116.8</ele>
</rtept>
<rtept lat="56.266746" lon="-4.284890">
<ele>116.1</ele>
</rtept>
<rtept lat="56.266885" lon="-4.284817">
<ele>116.2</ele>
</rtept>
<rtept lat="56.267480" lon="-4.284590">
<ele>113.3</ele>
</rtept>
<rtept lat="56.267742" lon="-4.284499">
<ele>112.8</ele>
</rtept>
<rtept lat="56.268012" lon="-4.284406">
<ele>113.0</ele>
</rtept>
<rtept lat="56.268281" lon="-4.284353">
<ele>112.0</ele>
</rtept>
<rtept lat="56.268982" lon="-4.284291">
<ele>112.0</ele>
</rtept>
<rtept lat="56.269177" lon="-4.284242">
<ele>112.0</ele>
</rtept>
<rtept lat="56.269335" lon="-4.284170">
<ele>112.0</ele>
</rtept>
<rtept lat="56.270338" lon="-4.283512">
<ele>137.3</ele>
</rtept>
<rtept lat="56.270989" lon="-4.283186">
<ele>131.8</ele>
</rtept>
<rtept lat="56.271389" lon="-4.282961">
<ele>128.9</ele>
</rtept>
<rtept lat="56.271625" lon="-4.282840">
<ele>132.0</ele>
</rtept>
<rtept lat="56.271830" lon="-4.282785">
<ele>137.2</ele>
</rtept>
<rtept lat="56.272069" lon="-4.282779">
<ele>140.8</ele>
</rtept>
<rtept lat="56.272292" lon="-4.282769">
<ele>137.4</ele>
</rtept>
<rtept lat="56.272481" lon="-4.282714">
<ele>135.7</ele>
</rtept>
<rtept lat="56.272744" lon="-4.282617">
<ele>131.5</ele>
</rtept>
<rtept lat="56.272962" lon="-4.282576">
<ele>125.0</ele>
</rtept>
<rtept lat="56.273514" lon="-4.282501">
<ele>118.1</ele>
</rtept>
<rtept lat="56.273829" lon="-4.282494">
<ele>118.4</ele>
</rtept>
<rtept lat="56.274007" lon="-4.282479">
<ele>116.3</ele>
</rtept>
<rtept lat="56.274265" lon="-4.282375">
<ele>115.2</ele>
</rtept>
<rtept lat="56.274415" lon="-4.282331">
<ele>115.3</ele>
</rtept>
<rtept lat="56.274574" lon="-4.282312">
<ele>116.0</ele>
</rtept>
<rtept lat="56.274810" lon="-4.282347">
<ele>115.4</ele>
</rtept>
<rtept lat="56.275016" lon="-4.282342">
<ele>113.8</ele>
</rtept>
<rtept lat="56.275178" lon="-4.282305">
<ele>113.3</ele>
</rtept>
<rtept lat="56.275972" lon="-4.282097">
<ele>118.9</ele>
</rtept>
<rtept lat="56.276139" lon="-4.282063">
<ele>119.7</ele>
</rtept>
<rtept lat="56.276281" lon="-4.282052">
<ele>119.9</ele>
</rtept>
<rtept lat="56.276405" lon="-4.282070">
<ele>118.7</ele>
</rtept>
<rtept lat="56.276512" lon="-4.282116">
<ele>117.5</ele>
</rtept>
<rtept lat="56.276621" lon="-4.282199">
<ele>116.9</ele>
</rtept>
<rtept lat="56.276733" lon="-4.282292">
<ele>118.3</ele>
</rtept>
<rtept lat="56.277253" lon="-4.282794">
<ele>129.1</ele>
</rtept>
<rtept lat="56.277464" lon="-4.282988">
<ele>126.7</ele>
</rtept>
<rtept lat="56.277702" lon="-4.283182">
<ele>120.8</ele>
</rtept>
<rtept lat="56.278865" lon="-4.283757">
<ele>117.1</ele>
</rtept>
<rtept lat="56.279083" lon="-4.283836">
<ele>118.3</ele>
</rtept>
<rtept lat="56.279330" lon="-4.283872">
<ele>119.8</ele>
</rtept>
<rtept lat="56.279584" lon="-4.283893">
<ele>119.9</ele>
</rtept>
<rtept lat="56.279921" lon="-4.283902">
<ele>119.2</ele>
</rtept>
<rtept lat="56.281250" lon="-4.283855">
<ele>112.4</ele>
</rtept>
<rtept lat="56.281558" lon="-4.283875">
<ele>119.3</ele>
</rtept>
<rtept lat="56.281866" lon="-4.283919">
<ele>119.6</ele>
</rtept>
<rtept lat="56.282125" lon="-4.283985">
<ele>117.2</ele>
</rtept>
<rtept lat="56.282966" lon="-4.284326">
<ele>113.9</ele>
</rtept>
<rtept lat="56.283164" lon="-4.284380">
<ele>113.5</ele>
</rtept>
<rtept lat="56.283341" lon="-4.284409">
<ele>113.3</ele>
</rtept>
<rtept lat="56.283528" lon="-4.284407">
<ele>113.4</ele>
</rtept>
<rtept lat="56.283725" lon="-4.284382">
<ele>113.7</ele>
</rtept>
<rtept lat="56.283874" lon="-4.284345">
<ele>117.4</ele>
</rtept>
<rtept lat="56.284531" lon="-4.284114">
<ele>120.2</ele>
</rtept>
<rtept lat="56.284692" lon="-4.284069">
<ele>120.7</ele>
</rtept>
<rtept lat="56.284887" lon="-4.284044">
<ele>120.9</ele>
</rtept>
<rtept lat="56.285193" lon="-4.284037">
<ele>123.9</ele>
</rtept>
<rtept lat="56.285636" lon="-4.284066">
<ele>131.6</ele>
</rtept>
<rtept lat="56.285827" lon="-4.284061">
<ele>134.8</ele>
</rtept>
<rtept lat="56.286450" lon="-4.283961">
<ele>135.1</ele>
</rtept>
<rtept lat="56.287108" lon="-4.283935">
<ele>123.2</ele>
</rtept>
<rtept lat="56.287424" lon="-4.283929">
<ele>118.2</ele>
</rtept>
<rtept lat="56.287614" lon="-4.283950">
<ele>116.2</ele>
</rtept>
<rtept lat="56.287795" lon="-4.283984">
<ele>115.8</ele>
</rtept>
<rtept lat="56.288223" lon="-4.284120">
<ele>113.3</ele>
</rtept>
<rtept lat="56.288894" lon="-4.284355">
<ele>120.0</ele>
</rtept>
<rtept lat="56.289188" lon="-4.284492">
<ele>120.8</ele>
</rtept>
<rtept lat="56.289523" lon="-4.284731">
<ele>115.9</ele>
</rtept>
<rtept lat="56.290145" lon="-4.285168">
<ele>116.2</ele>
</rtept>
<rtept lat="56.290537" lon="-4.285401">
<ele>120.2</ele>
</rtept>
<rtept lat="56.290779" lon="-4.285579">
<ele>119.0</ele>
</rtept>
<rtept lat="56.290932" lon="-4.285708">
<ele>115.2</ele>
</rtept>
<rtept lat="56.291050" lon="-4.285830">
<ele>115.2</ele>
</rtept>
<rtept lat="56.291205" lon="-4.286007">
<ele>118.6</ele>
</rtept>
<rtept lat="56.291380" lon="-4.286237">
<ele>115.2</ele>
</rtept>
<rtept lat="56.291516" lon="-4.286441">
<ele>113.0</ele>
</rtept>
<rtept lat="56.292198" lon="-4.287513">
<ele>118.8</ele>
</rtept>
<rtept lat="56.292315" lon="-4.287694">
<ele>118.3</ele>
</rtept>
<rtept lat="56.292402" lon="-4.287864">
<ele>117.4</ele>
</rtept>
<rtept lat="56.292466" lon="-4.288022">
<ele>115.1</ele>
</rtept>
<rtept lat="56.292583" lon="-4.288328">
<ele>115.4</ele>
</rtept>
<rtept lat="56.292860" lon="-4.289140">
<ele>113.4</ele>
</rtept>
<rtept lat="56.293035" lon="-4.289631">
<ele>114.5</ele>
</rtept>
<rtept lat="56.293173" lon="-4.289968">
<ele>114.9</ele>
</rtept>
<rtept lat="56.293280" lon="-4.290169">
<ele>113.9</ele>
</rtept>
<rtept lat="56.293435" lon="-4.290379">
<ele>113.5</ele>
</rtept>
<rtept lat="56.293541" lon="-4.290502">
<ele>115.4</ele>
</rtept>
<rtept lat="56.293701" lon="-4.290637">
<ele>117.1</ele>
</rtept>
<rtept lat="56.294195" lon="-4.290983">
<ele>119.3</ele>
</rtept>
<rtept lat="56.294265" lon="-4.291037">
<ele>118.3</ele>
</rtept>
<rtept lat="56.294381" lon="-4.291135">
<ele>116.4</ele>
</rtept>
<rtept lat="56.294613" lon="-4.291331">
<ele>114.2</ele>
</rtept>
<rtept lat="56.294900" lon="-4.291643">
<ele>111.8</ele>
</rtept>
<rtept lat="56.295023" lon="-4.291790">
<ele>111.9</ele>
</rtept>
<rtept lat="56.295156" lon="-4.291979">
<ele>111.6</ele>
</rtept>
<rtept lat="56.295324" lon="-4.292263">
<ele>114.1</ele>
</rtept>
<rtept lat="56.295479" lon="-4.292555">
<ele>114.9</ele>
</rtept>
<rtept lat="56.295597" lon="-4.292826">
<ele>116.2</ele>
</rtept>
<rtept lat="56.295651" lon="-4.292976">
<ele>114.0</ele>
</rtept>
<rtept lat="56.295692" lon="-4.293126">
<ele>112.0</ele>
</rtept>
<rtept lat="56.295736" lon="-4.293318">
<ele>113.1</ele>
</rtept>
<rtept lat="56.295761" lon="-4.293480">
<ele>114.1</ele>
</rtept>
<rtept lat="56.295779" lon="-4.293651">
<ele>114.9</ele>
</rtept>
<rtept lat="56.295794" lon="-4.294121">
<ele>117.0</ele>
</rtept>
<rtept lat="56.295802" lon="-4.294522">
<ele>117.8</ele>
</rtept>
<rtept lat="56.295820" lon="-4.294839">
<ele>118.1</ele>
</rtept>
<rtept lat="56.295966" lon="-4.296671">
<ele>119.7</ele>
</rtept>
<rtept lat="56.296011" lon="-4.297133">
<ele>114.0</ele>
</rtept>
<rtept lat="56.296043" lon="-4.297406">
<ele>113.6</ele>
</rtept>
<rtept lat="56.296206" lon="-4.298322">
<ele>118.1</ele>
</rtept>
<rtept lat="56.296316" lon="-4.298870">
<ele>114.5</ele>
</rtept>
<rtept lat="56.296333" lon="-4.299028">
<ele>114.9</ele>
</rtept>
<rtept lat="56.296337" lon="-4.299138">
<ele>115.2</ele>
</rtept>
<rtept lat="56.296328" lon="-4.299294">
<ele>115.9</ele>
</rtept>
<rtept lat="56.296308" lon="-4.299483">
<ele>116.4</ele>
</rtept>
<rtept lat="56.296251" lon="-4.299790">
<ele>112.1</ele>
</rtept>
<rtept lat="56.296216" lon="-4.300035">
<ele>112.0</ele>
</rtept>
<rtept lat="56.296190" lon="-4.300286">
<ele>112.0</ele>
</rtept>
<rtept lat="56.296186" lon="-4.300464">
<ele>112.0</ele>
</rtept>
<rtept lat="56.296188" lon="-4.300661">
<ele>112.0</ele>
</rtept>
<rtept lat="56.296202" lon="-4.300861">
<ele>112.0</ele>
</rtept>
<rtept lat="56.296230" lon="-4.301043">
<ele>112.0</ele>
</rtept>
<rtept lat="56.296274" lon="-4.301203">
<ele>112.0</ele>
</rtept>
<rtept lat="56.296567" lon="-4.302097">
<ele>112.0</ele>
</rtept>
<rtept lat="56.296645" lon="-4.302274">
<ele>112.0</ele>
</rtept>
<rtept lat="56.296725" lon="-4.302418">
<ele>112.0</ele>
</rtept>
<rtept lat="56.296928" lon="-4.302715">
<ele>112.0</ele>
</rtept>
<rtept lat="56.298340" lon="-4.304561">
<ele>115.7</ele>
</rtept>
<rtept lat="56.298540" lon="-4.304851">
<ele>115.8</ele>
</rtept>
<rtept lat="56.298739" lon="-4.305176">
<ele>113.5</ele>
</rtept>
<rtept lat="56.299054" lon="-4.305755">
<ele>116.9</ele>
</rtept>
<rtept lat="56.299729" lon="-4.307153">
<ele>115.0</ele>
</rtept>
<rtept lat="56.299908" lon="-4.307545">
<ele>114.6</ele>
</rtept>
<rtept lat="56.300073" lon="-4.307963">
<ele>115.1</ele>
</rtept>
<rtept lat="56.301105" lon="-4.310836">
<ele>114.0</ele>
</rtept>
<rtept lat="56.301695" lon="-4.312557">
<ele>117.6</ele>
</rtept>
<rtept lat="56.301777" lon="-4.312821">
<ele>116.2</ele>
</rtept>
<rtept lat="56.302458" lon="-4.315401">
<ele>114.8</ele>
</rtept>
<rtept lat="56.302518" lon="-4.315682">
<ele>113.4</ele>
</rtept>
<rtept lat="56.302541" lon="-4.315889">
<ele>112.8</ele>
</rtept>
<rtept lat="56.302550" lon="-4.316243">
<ele>112.0</ele>
</rtept>
<rtept lat="56.302562" lon="-4.316477">
<ele>112.0</ele>
</rtept>
<rtept lat="56.302567" lon="-4.316566">
<ele>112.0</ele>
</rtept>
<rtept lat="56.302576" lon="-4.316640">
<ele>112.0</ele>
</rtept>
<rtept lat="56.302596" lon="-4.316699">
<ele>112.0</ele>
</rtept>
<rtept lat="56.302646" lon="-4.316793">
<ele>112.1</ele>
</rtept>
<rtept lat="56.302721" lon="-4.316905">
<ele>112.6</ele>
</rtept>
<rtept lat="56.303785" lon="-4.318201">
<ele>115.5</ele>
</rtept>
<rtept lat="56.303983" lon="-4.318452">
<ele>115.8</ele>
</rtept>
<rtept lat="56.304098" lon="-4.318662">
<ele>114.5</ele>
</rtept>
<rtept lat="56.304297" lon="-4.319073">
<ele>115.3</ele>
</rtept>
<rtept lat="56.304424" lon="-4.319282">
<ele>114.8</ele>
</rtept>
<rtept lat="56.304817" lon="-4.319783">
<ele>112.8</ele>
</rtept>
<rtept lat="56.305034" lon="-4.320130">
<ele>112.9</ele>
</rtept>
<rtept lat="56.305594" lon="-4.321111">
<ele>115.6</ele>
</rtept>
<rtept lat="56.305936" lon="-4.321610">
<ele>113.4</ele>
</rtept>
<rtept lat="56.306188" lon="-4.321926">
<ele>113.9</ele>
</rtept>
<rtept lat="56.306300" lon="-4.322047">
<ele>113.7</ele>
</rtept>
<rtept lat="56.306390" lon="-4.322142">
<ele>113.4</ele>
</rtept>
<rtept lat="56.306594" lon="-4.322345">
<ele>112.9</ele>
</rtept>
<rtept lat="56.306680" lon="-4.322411">
<ele>113.0</ele>
</rtept>
<rtept lat="56.306758" lon="-4.322467">
<ele>113.0</ele>
</rtept>
<rtept lat="56.307000" lon="-4.322628">
<ele>113.4</ele>
</rtept>
<rtept lat="56.307598" lon="-4.323050">
<ele>112.9</ele>
</rtept>
<rtept lat="56.308067" lon="-4.323383">
<ele>112.8</ele>
</rtept>
<rtept lat="56.308696" lon="-4.323822">
<ele>112.8</ele>
</rtept>
<rtept lat="56.309034" lon="-4.324071">
<ele>113.7</ele>
</rtept>
<rtept lat="56.309327" lon="-4.324298">
<ele>115.1</ele>
</rtept>
<rtept lat="56.309890" lon="-4.324810">
<ele>114.1</ele>
</rtept>
<rtept lat="56.310391" lon="-4.325308">
<ele>115.0</ele>
</rtept>
<rtept lat="56.310699" lon="-4.325655">
<ele>117.0</ele>
</rtept>
<rtept lat="56.311055" lon="-4.326044">
<ele>116.6</ele>
</rtept>
<rtept lat="56.311429" lon="-4.326420">
<ele>114.7</ele>
</rtept>
<rtept lat="56.312743" lon="-4.327502">
<ele>120.5</ele>
</rtept>
<rtept lat="56.313643" lon="-4.328208">
<ele>118.3</ele>
</rtept>
<rtept lat="56.313945" lon="-4.328407">
<ele>117.2</ele>
</rtept>
<rtept lat="56.314198" lon="-4.328553">
<ele>116.7</ele>
</rtept>
<rtept lat="56.314600" lon="-4.328750">
<ele>115.0</ele>
</rtept>
<rtept lat="56.314939" lon="-4.328900">
<ele>122.7</ele>
</rtept>
<rtept lat="56.315278" lon="-4.329035">
<ele>121.9</ele>
</rtept>
<rtept lat="56.315939" lon="-4.329297">
<ele>126.5</ele>
</rtept>
<rtept lat="56.316041" lon="-4.329334">
<ele>125.6</ele>
</rtept>
<rtept lat="56.316190" lon="-4.329368">
<ele>122.5</ele>
</rtept>
<rtept lat="56.316358" lon="-4.329394">
<ele>121.5</ele>
</rtept>
<rtept lat="56.316512" lon="-4.329405">
<ele>122.2</ele>
</rtept>
<rtept lat="56.316670" lon="-4.329404">
<ele>122.6</ele>
</rtept>
<rtept lat="56.317012" lon="-4.329380">
<ele>120.7</ele>
</rtept>
<rtept lat="56.317632" lon="-4.329342">
<ele>120.7</ele>
</rtept>
<rtept lat="56.318498" lon="-4.329279">
<ele>131.5</ele>
</rtept>
<rtept lat="56.318615" lon="-4.329261">
<ele>132.9</ele>
</rtept>
<rtept lat="56.318759" lon="-4.329233">
<ele>134.5</ele>
</rtept>
<rtept lat="56.318898" lon="-4.329195">
<ele>134.3</ele>
</rtept>
<rtept lat="56.318982" lon="-4.329164">
<ele>134.2</ele>
</rtept>
<rtept lat="56.319069" lon="-4.329118">
<ele>133.1</ele>
</rtept>
<rtept lat="56.319196" lon="-4.329031">
<ele>130.5</ele>
</rtept>
<rtept lat="56.319323" lon="-4.328929">
<ele>129.2</ele>
</rtept>
<rtept lat="56.319579" lon="-4.328701">
<ele>128.8</ele>
</rtept>
<rtept lat="56.319751" lon="-4.328575">
<ele>128.3</ele>
</rtept>
<rtept lat="56.319942" lon="-4.328455">
<ele>127.6</ele>
</rtept>
<rtept lat="56.320156" lon="-4.328340">
<ele>128.0</ele>
</rtept>
<rtept lat="56.320347" lon="-4.328282">
<ele>129.1</ele>
</rtept>
<rtept lat="56.320490" lon="-4.328258">
<ele>130.3</ele>
</rtept>
<rtept lat="56.320625" lon="-4.328261">
<ele>131.8</ele>
</rtept>
<rtept lat="56.321134" lon="-4.328315">
<ele>133.2</ele>
</rtept>
<rtept lat="56.321486" lon="-4.328352">
<ele>124.8</ele>
</rtept>
<rtept lat="56.321623" lon="-4.328361">
<ele>122.2</ele>
</rtept>
<rtept lat="56.321889" lon="-4.328420">
<ele>120.4</ele>
</rtept>
<rtept lat="56.322095" lon="-4.328450">
<ele>122.5</ele>
</rtept>
<rtept lat="56.323025" lon="-4.328569">
<ele>129.6</ele>
</rtept>
<rtept lat="56.323899" lon="-4.328681">
<ele>126.5</ele>
</rtept>
<rtept lat="56.324072" lon="-4.328700">
<ele>123.3</ele>
</rtept>
<rtept lat="56.324303" lon="-4.328727">
<ele>123.4</ele>
</rtept>
<rtept lat="56.324413" lon="-4.328730">
<ele>125.3</ele>
</rtept>
<rtept lat="56.324600" lon="-4.328746">
<ele>128.7</ele>
</rtept>
<rtept lat="56.324827" lon="-4.328745">
<ele>132.0</ele>
</rtept>
<rtept lat="56.325017" lon="-4.328734">
<ele>135.9</ele>
</rtept>
<rtept lat="56.325066" lon="-4.328724">
<ele>136.8</ele>
</rtept>
<rtept lat="56.325123" lon="-4.328713">
<ele>137.9</ele>
</rtept>
<rtept lat="56.325160" lon="-4.328706">
<ele>137.6</ele>
</rtept>
<rtept lat="56.325307" lon="-4.328648">
<ele>133.7</ele>
</rtept>
<rtept lat="56.325449" lon="-4.328577">
<ele>130.2</ele>
</rtept>
<rtept lat="56.325801" lon="-4.328346">
<ele>125.9</ele>
</rtept>
<rtept lat="56.326503" lon="-4.327881">
<ele>128.0</ele>
</rtept>
<rtept lat="56.326562" lon="-4.327838">
<ele>127.6</ele>
</rtept>
<rtept lat="56.326779" lon="-4.327672">
<ele>125.2</ele>
</rtept>
<rtept lat="56.326990" lon="-4.327492">
<ele>128.8</ele>
</rtept>
<rtept lat="56.327189" lon="-4.327306">
<ele>132.9</ele>
</rtept>
<rtept lat="56.327366" lon="-4.327125">
<ele>137.0</ele>
</rtept>
<rtept lat="56.328008" lon="-4.326447">
<ele>129.2</ele>
</rtept>
<rtept lat="56.328256" lon="-4.326176">
<ele>123.6</ele>
</rtept>
<rtept lat="56.328699" lon="-4.325693">
<ele>130.1</ele>
</rtept>
<rtept lat="56.328939" lon="-4.325457">
<ele>127.7</ele>
</rtept>
<rtept lat="56.329141" lon="-4.325312">
<ele>128.1</ele>
</rtept>
<rtept lat="56.329322" lon="-4.325207">
<ele>131.3</ele>
</rtept>
<rtept lat="56.329479" lon="-4.325138">
<ele>136.1</ele>
</rtept>
<rtept lat="56.329656" lon="-4.325072">
<ele>138.4</ele>
</rtept>
<rtept lat="56.329826" lon="-4.325024">
<ele>136.4</ele>
</rtept>
<rtept lat="56.330128" lon="-4.324954">
<ele>132.3</ele>
</rtept>
<rtept lat="56.330639" lon="-4.324837">
<ele>120.5</ele>
</rtept>
<rtept lat="56.331928" lon="-4.324476">
<ele>118.8</ele>
</rtept>
<rtept lat="56.333223" lon="-4.324096">
<ele>126.5</ele>
</rtept>
<rtept lat="56.333598" lon="-4.323969">
<ele>133.0</ele>
</rtept>
<rtept lat="56.333818" lon="-4.323921">
<ele>136.2</ele>
</rtept>
<rtept lat="56.334030" lon="-4.323898">
<ele>134.7</ele>
</rtept>
<rtept lat="56.334270" lon="-4.323911">
<ele>132.4</ele>
</rtept>
<rtept lat="56.334529" lon="-4.323944">
<ele>131.2</ele>
</rtept>
<rtept lat="56.334775" lon="-4.324014">
<ele>129.4</ele>
</rtept>
<rtept lat="56.335460" lon="-4.324293">
<ele>124.9</ele>
</rtept>
<rtept lat="56.336853" lon="-4.324791">
<ele>120.4</ele>
</rtept>
<rtept lat="56.337021" lon="-4.324861">
<ele>117.7</ele>
</rtept>
<rtept lat="56.337829" lon="-4.325233">
<ele>122.9</ele>
</rtept>
<rtept lat="56.338151" lon="-4.325368">
<ele>124.4</ele>
</rtept>
<rtept lat="56.338449" lon="-4.325437">
<ele>130.5</ele>
</rtept>
<rtept lat="56.339476" lon="-4.325605">
<ele>133.9</ele>
</rtept>
<rtept lat="56.341183" lon="-4.325907">
<ele>134.8</ele>
</rtept>
<rtept lat="56.341308" lon="-4.325941">
<ele>135.4</ele>
</rtept>
<rtept lat="56.341435" lon="-4.325998">
<ele>136.3</ele>
</rtept>
<rtept lat="56.341673" lon="-4.326135">
<ele>137.9</ele>
</rtept>
<rtept lat="56.342261" lon="-4.326435">
<ele>126.6</ele>
</rtept>
<rtept lat="56.342535" lon="-4.326548">
<ele>121.6</ele>
</rtept>
<rtept lat="56.342800" lon="-4.326623">
<ele>122.5</ele>
</rtept>
<rtept lat="56.342800" lon="-4.326623">
<ele>122.5</ele>
</rtept>
<rtept lat="56.342903" lon="-4.326646">
<ele>126.0</ele>
</rtept>
<rtept lat="56.342900" lon="-4.326646">
<ele>125.9</ele>
</rtept>
<rtept lat="56.343990" lon="-4.326895">
<ele>125.1</ele>
</rtept>
<rtept lat="56.344313" lon="-4.326965">
<ele>129.8</ele>
</rtept>
<rtept lat="56.344364" lon="-4.326977">
<ele>129.7</ele>
</rtept>
<rtept lat="56.344810" lon="-4.327093">
<ele>125.3</ele>
</rtept>
<rtept lat="56.345320" lon="-4.327243">
<ele>119.4</ele>
</rtept>
<rtept lat="56.345989" lon="-4.327454">
<ele>119.9</ele>
</rtept>
<rtept lat="56.347223" lon="-4.327793">
<ele>118.6</ele>
</rtept>
<rtept lat="56.348146" lon="-4.328030">
<ele>127.7</ele>
</rtept>
<rtept lat="56.349716" lon="-4.328375">
<ele>133.4</ele>
</rtept>
<rtept lat="56.350184" lon="-4.328468">
<ele>136.2</ele>
</rtept>
<rtept lat="56.350763" lon="-4.328530">
<ele>136.0</ele>
</rtept>
<rtept lat="56.351060" lon="-4.328519">
<ele>135.5</ele>
</rtept>
<rtept lat="56.351337" lon="-4.328481">
<ele>133.9</ele>
</rtept>
<rtept lat="56.351582" lon="-4.328419">
<ele>131.8</ele>
</rtept>
<rtept lat="56.351836" lon="-4.328320">
<ele>133.9</ele>
</rtept>
<rtept lat="56.352177" lon="-4.328141">
<ele>131.2</ele>
</rtept>
<rtept lat="56.352478" lon="-4.327921">
<ele>128.7</ele>
</rtept>
<rtept lat="56.352731" lon="-4.327689">
<ele>130.4</ele>
</rtept>
<rtept lat="56.353097" lon="-4.327247">
<ele>138.2</ele>
</rtept>
<rtept lat="56.353373" lon="-4.326817">
<ele>132.2</ele>
</rtept>
<rtept lat="56.353763" lon="-4.326177">
<ele>127.9</ele>
</rtept>
<rtept lat="56.353844" lon="-4.326043">
<ele>129.7</ele>
</rtept>
<rtept lat="56.354073" lon="-4.325724">
<ele>136.3</ele>
</rtept>
<rtept lat="56.354443" lon="-4.325059">
<ele>139.6</ele>
</rtept>
<rtept lat="56.354297" lon="-4.324771">
<ele>138.2</ele>
</rtept>
<rtept lat="56.354191" lon="-4.324708">
<ele>137.8</ele>
</rtept>
<rtept lat="56.354096" lon="-4.324727">
<ele>138.0</ele>
</rtept>
<rtept lat="56.353777" lon="-4.324946">
<ele>138.4</ele>
</rtept>
<rtept lat="56.353708" lon="-4.325002">
<ele>138.0</ele>
</rtept>
<rtept lat="56.353657" lon="-4.325097">
<ele>137.8</ele>
</rtept>
<rtept lat="56.353652" lon="-4.325219">
<ele>137.4</ele>
</rtept>
<rtept lat="56.353670" lon="-4.325357">
<ele>135.3</ele>
</rtept>
<rtept lat="56.353741" lon="-4.325742">
<ele>129.6</ele>
</rtept>
<rtept lat="56.353764" lon="-4.325869">
<ele>129.2</ele>
</rtept>
<rtept lat="56.353859" lon="-4.326364">
<ele>128.3</ele>
</rtept>
<rtept lat="56.353950" lon="-4.326843">
<ele>131.0</ele>
</rtept>
<rtept lat="56.353990" lon="-4.327021">
<ele>130.8</ele>
</rtept>
<rtept lat="56.354084" lon="-4.327308">
<ele>129.1</ele>
</rtept>
<rtept lat="56.354200" lon="-4.327575">
<ele>125.5</ele>
</rtept>
<rtept lat="56.354342" lon="-4.327821">
<ele>124.0</ele>
</rtept>
<rtept lat="56.354464" lon="-4.327984">
<ele>127.1</ele>
</rtept>
<rtept lat="56.355069" lon="-4.328634">
<ele>127.2</ele>
</rtept>
<rtept lat="56.355162" lon="-4.328782">
<ele>126.8</ele>
</rtept>
<rtept lat="56.355224" lon="-4.328912">
<ele>125.9</ele>
</rtept>
<rtept lat="56.355273" lon="-4.329015">
<ele>124.4</ele>
</rtept>
<rtept lat="56.355537" lon="-4.329663">
<ele>122.9</ele>
</rtept>
<rtept lat="56.355807" lon="-4.330135">
<ele>130.6</ele>
</rtept>
<rtept lat="56.355942" lon="-4.330348">
<ele>132.3</ele>
</rtept>
<rtept lat="56.356303" lon="-4.330780">
<ele>133.1</ele>
</rtept>
<rtept lat="56.356351" lon="-4.330891">
<ele>133.5</ele>
</rtept>
<rtept lat="56.356413" lon="-4.331124">
<ele>134.9</ele>
</rtept>
<rtept lat="56.356527" lon="-4.331834">
<ele>133.0</ele>
</rtept>
<rtept lat="56.356536" lon="-4.332073">
<ele>131.7</ele>
</rtept>
<rtept lat="56.356481" lon="-4.332685">
<ele>131.5</ele>
</rtept>
<rtept lat="56.356443" lon="-4.333320">
<ele>134.9</ele>
</rtept>
<rtept lat="56.356442" lon="-4.333534">
<ele>136.4</ele>
</rtept>
<rtept lat="56.356440" lon="-4.333774">
<ele>138.6</ele>
</rtept>
<rtept lat="56.356427" lon="-4.333930">
<ele>140.0</ele>
</rtept>
<rtept lat="56.356380" lon="-4.334183">
<ele>142.1</ele>
</rtept>
<rtept lat="56.356140" lon="-4.335081">
<ele>144.6</ele>
</rtept>
<rtept lat="56.356047" lon="-4.335622">
<ele>146.3</ele>
</rtept>
<rtept lat="56.356035" lon="-4.335843">
<ele>147.2</ele>
</rtept>
<rtept lat="56.356037" lon="-4.336574">
<ele>143.2</ele>
</rtept>
<rtept lat="56.356068" lon="-4.337196">
<ele>142.4</ele>
</rtept>
<rtept lat="56.356127" lon="-4.337836">
<ele>142.3</ele>
</rtept>
<rtept lat="56.356127" lon="-4.337836">
<ele>142.3</ele>
</rtept>
<rtept lat="56.356153" lon="-4.338064">
<ele>142.9</ele>
</rtept>
<rtept lat="56.356152" lon="-4.338064">
<ele>142.9</ele>
</rtept>
<rtept lat="56.356251" lon="-4.338932">
<ele>147.5</ele>
</rtept>
<rtept lat="56.356227" lon="-4.339458">
<ele>142.1</ele>
</rtept>
<rtept lat="56.356236" lon="-4.339576">
<ele>141.2</ele>
</rtept>
<rtept lat="56.356242" lon="-4.339664">
<ele>140.5</ele>
</rtept>
<rtept lat="56.356307" lon="-4.340126">
<ele>138.7</ele>
</rtept>
<rtept lat="56.356344" lon="-4.340322">
<ele>138.0</ele>
</rtept>
<rtept lat="56.356397" lon="-4.340607">
<ele>142.5</ele>
</rtept>
<rtept lat="56.356414" lon="-4.340783">
<ele>145.1</ele>
</rtept>
<rtept lat="56.356441" lon="-4.341060">
<ele>145.8</ele>
</rtept>
<rtept lat="56.356442" lon="-4.341487">
<ele>145.5</ele>
</rtept>
<rtept lat="56.356443" lon="-4.342115">
<ele>143.9</ele>
</rtept>
<rtept lat="56.356504" lon="-4.342987">
<ele>147.6</ele>
</rtept>
<rtept lat="56.356509" lon="-4.343051">
<ele>149.3</ele>
</rtept>
<rtept lat="56.356458" lon="-4.343880">
<ele>145.5</ele>
</rtept>
<rtept lat="56.356445" lon="-4.344239">
<ele>142.3</ele>
</rtept>
<rtept lat="56.356548" lon="-4.345087">
<ele>143.9</ele>
</rtept>
<rtept lat="56.356561" lon="-4.345277">
<ele>143.1</ele>
</rtept>
<rtept lat="56.356562" lon="-4.345385">
<ele>143.1</ele>
</rtept>
<rtept lat="56.356565" lon="-4.346005">
<ele>144.5</ele>
</rtept>
<rtept lat="56.356609" lon="-4.346622">
<ele>146.7</ele>
</rtept>
<rtept lat="56.356606" lon="-4.347060">
<ele>146.4</ele>
</rtept>
<rtept lat="56.356592" lon="-4.347232">
<ele>144.6</ele>
</rtept>
<rtept lat="56.356505" lon="-4.347759">
<ele>140.7</ele>
</rtept>
<rtept lat="56.356487" lon="-4.348010">
<ele>139.8</ele>
</rtept>
<rtept lat="56.356514" lon="-4.348258">
<ele>137.8</ele>
</rtept>
<rtept lat="56.356609" lon="-4.348654">
<ele>133.8</ele>
</rtept>
<rtept lat="56.356620" lon="-4.348731">
<ele>134.0</ele>
</rtept>
<rtept lat="56.356691" lon="-4.349220">
<ele>135.3</ele>
</rtept>
<rtept lat="56.356703" lon="-4.349492">
<ele>135.7</ele>
</rtept>
<rtept lat="56.356677" lon="-4.349906">
<ele>133.5</ele>
</rtept>
<rtept lat="56.356678" lon="-4.350328">
<ele>133.2</ele>
</rtept>
<rtept lat="56.356694" lon="-4.350565">
<ele>133.7</ele>
</rtept>
<rtept lat="56.356732" lon="-4.350793">
<ele>133.1</ele>
</rtept>
<rtept lat="56.356919" lon="-4.351519">
<ele>131.7</ele>
</rtept>
<rtept lat="56.356955" lon="-4.351747">
<ele>131.4</ele>
</rtept>
<rtept lat="56.356963" lon="-4.352083">
<ele>134.6</ele>
</rtept>
<rtept lat="56.356893" lon="-4.352653">
<ele>135.6</ele>
</rtept>
<rtept lat="56.356912" lon="-4.353017">
<ele>135.3</ele>
</rtept>
<rtept lat="56.357026" lon="-4.353678">
<ele>134.5</ele>
</rtept>
<rtept lat="56.357259" lon="-4.354432">
<ele>134.0</ele>
</rtept>
<rtept lat="56.357607" lon="-4.355933">
<ele>134.5</ele>
</rtept>
<rtept lat="56.357694" lon="-4.356919">
<ele>133.5</ele>
</rtept>
<rtept lat="56.357746" lon="-4.357219">
<ele>133.0</ele>
</rtept>
<rtept lat="56.357931" lon="-4.358285">
<ele>128.6</ele>
</rtept>
<rtept lat="56.357965" lon="-4.358741">
<ele>128.0</ele>
</rtept>
<rtept lat="56.357965" lon="-4.358891">
<ele>128.0</ele>
</rtept>
<rtept lat="56.357964" lon="-4.359374">
<ele>128.3</ele>
</rtept>
<rtept lat="56.357944" lon="-4.359766">
<ele>128.7</ele>
</rtept>
<rtept lat="56.357939" lon="-4.359852">
<ele>128.6</ele>
</rtept>
<rtept lat="56.357938" lon="-4.360809">
<ele>129.6</ele>
</rtept>
<rtept lat="56.357919" lon="-4.361080">
<ele>130.0</ele>
</rtept>
<rtept lat="56.357916" lon="-4.362296">
<ele>134.0</ele>
</rtept>
<rtept lat="56.357868" lon="-4.363266">
<ele>134.2</ele>
</rtept>
<rtept lat="56.357869" lon="-4.363785">
<ele>134.6</ele>
</rtept>
<rtept lat="56.357915" lon="-4.364841">
<ele>129.0</ele>
</rtept>
<rtept lat="56.357916" lon="-4.365181">
<ele>129.6</ele>
</rtept>
<rtept lat="56.357863" lon="-4.365710">
<ele>131.0</ele>
</rtept>
<rtept lat="56.357778" lon="-4.366183">
<ele>126.4</ele>
</rtept>
<rtept lat="56.357741" lon="-4.367172">
<ele>116.3</ele>
</rtept>
<rtept lat="56.357733" lon="-4.367386">
<ele>116.1</ele>
</rtept>
<rtept lat="56.357619" lon="-4.368244">
<ele>121.0</ele>
</rtept>
<rtept lat="56.357551" lon="-4.368970">
<ele>122.2</ele>
</rtept>
<rtept lat="56.357537" lon="-4.369118">
<ele>123.3</ele>
</rtept>
<rtept lat="56.357529" lon="-4.369391">
<ele>124.8</ele>
</rtept>
<rtept lat="56.357539" lon="-4.369602">
<ele>126.5</ele>
</rtept>
<rtept lat="56.357667" lon="-4.370416">
<ele>128.3</ele>
</rtept>
<rtept lat="56.357665" lon="-4.370599">
<ele>129.2</ele>
</rtept>
<rtept lat="56.357577" lon="-4.371244">
<ele>131.9</ele>
</rtept>
<rtept lat="56.357470" lon="-4.371680">
<ele>131.5</ele>
</rtept>
<rtept lat="56.357370" lon="-4.371983">
<ele>129.9</ele>
</rtept>
<rtept lat="56.357181" lon="-4.372412">
<ele>126.8</ele>
</rtept>
<rtept lat="56.357051" lon="-4.372756">
<ele>124.7</ele>
</rtept>
<rtept lat="56.356961" lon="-4.373035">
<ele>125.9</ele>
</rtept>
<rtept lat="56.356908" lon="-4.373265">
<ele>122.5</ele>
</rtept>
<rtept lat="56.356873" lon="-4.373432">
<ele>120.5</ele>
</rtept>
<rtept lat="56.356786" lon="-4.374188">
<ele>122.0</ele>
</rtept>
<rtept lat="56.356796" lon="-4.374510">
<ele>121.2</ele>
</rtept>
<rtept lat="56.356804" lon="-4.374792">
<ele>119.9</ele>
</rtept>
<rtept lat="56.356812" lon="-4.374847">
<ele>119.2</ele>
</rtept>
<rtept lat="56.356922" lon="-4.375614">
<ele>111.1</ele>
</rtept>
<rtept lat="56.356992" lon="-4.376102">
<ele>120.1</ele>
</rtept>
<rtept lat="56.357050" lon="-4.376672">
<ele>130.0</ele>
</rtept>
<rtept lat="56.357065" lon="-4.377273">
<ele>129.5</ele>
</rtept>
<rtept lat="56.357046" lon="-4.377668">
<ele>130.9</ele>
</rtept>
<rtept lat="56.357041" lon="-4.377765">
<ele>130.8</ele>
</rtept>
<rtept lat="56.357016" lon="-4.378279">
<ele>129.0</ele>
</rtept>
<rtept lat="56.356952" lon="-4.379171">
<ele>129.5</ele>
</rtept>
<rtept lat="56.356926" lon="-4.379339">
<ele>130.5</ele>
</rtept>
<rtept lat="56.356808" lon="-4.380120">
<ele>137.0</ele>
</rtept>
<rtept lat="56.356753" lon="-4.380759">
<ele>135.7</ele>
</rtept>
<rtept lat="56.356658" lon="-4.381200">
<ele>132.3</ele>
</rtept>
<rtept lat="56.356671" lon="-4.381784">
<ele>132.3</ele>
</rtept>
<rtept lat="56.356852" lon="-4.382211">
<ele>133.9</ele>
</rtept>
<rtept lat="56.356889" lon="-4.382474">
<ele>134.6</ele>
</rtept>
<rtept lat="56.356883" lon="-4.382921">
<ele>136.3</ele>
</rtept>
<rtept lat="56.356616" lon="-4.385273">
<ele>130.0</ele>
</rtept>
<rtept lat="56.356460" lon="-4.386456">
<ele>137.6</ele>
</rtept>
<rtept lat="56.356260" lon="-4.387515">
<ele>134.6</ele>
</rtept>
<rtept lat="56.356194" lon="-4.387726">
<ele>138.9</ele>
</rtept>
<rtept lat="56.355769" lon="-4.388557">
<ele>142.3</ele>
</rtept>
<rtept lat="56.355605" lon="-4.389121">
<ele>144.4</ele>
</rtept>
<rtept lat="56.355509" lon="-4.389721">
<ele>143.3</ele>
</rtept>
<rtept lat="56.355317" lon="-4.392097">
<ele>133.6</ele>
</rtept>
<rtept lat="56.355492" lon="-4.393798">
<ele>138.3</ele>
</rtept>
<rtept lat="56.355425" lon="-4.398619">
<ele>136.4</ele>
</rtept>
<rtept lat="56.355385" lon="-4.398870">
<ele>136.7</ele>
</rtept>
<rtept lat="56.355379" lon="-4.399687">
<ele>137.2</ele>
</rtept>
<rtept lat="56.355420" lon="-4.400138">
<ele>142.1</ele>
</rtept>
<rtept lat="56.355091" lon="-4.402241">
<ele>147.2</ele>
</rtept>
<rtept lat="56.354626" lon="-4.404346">
<ele>145.7</ele>
</rtept>
<rtept lat="56.354469" lon="-4.404917">
<ele>144.9</ele>
</rtept>
<rtept lat="56.354314" lon="-4.405403">
<ele>146.9</ele>
</rtept>
<rtept lat="56.354015" lon="-4.406043">
<ele>146.1</ele>
</rtept>
<rtept lat="56.353868" lon="-4.406232">
<ele>143.3</ele>
</rtept>
<rtept lat="56.353705" lon="-4.406588">
<ele>141.0</ele>
</rtept>
<rtept lat="56.353569" lon="-4.406973">
<ele>136.7</ele>
</rtept>
<rtept lat="56.353486" lon="-4.407262">
<ele>135.6</ele>
</rtept>
<rtept lat="56.353437" lon="-4.407554">
<ele>138.1</ele>
</rtept>
<rtept lat="56.353415" lon="-4.407861">
<ele>138.5</ele>
</rtept>
<rtept lat="56.353337" lon="-4.408504">
<ele>135.7</ele>
</rtept>
<rtept lat="56.353022" lon="-4.410267">
<ele>136.2</ele>
</rtept>
<rtept lat="56.352761" lon="-4.410739">
<ele>135.5</ele>
</rtept>
<rtept lat="56.352678" lon="-4.410939">
<ele>131.1</ele>
</rtept>
<rtept lat="56.352571" lon="-4.411336">
<ele>129.0</ele>
</rtept>
<rtept lat="56.352514" lon="-4.411596">
<ele>129.0</ele>
</rtept>
<rtept lat="56.352422" lon="-4.411815">
<ele>129.0</ele>
</rtept>
<rtept lat="56.352316" lon="-4.412065">
<ele>129.0</ele>
</rtept>
<rtept lat="56.352209" lon="-4.412447">
<ele>129.0</ele>
</rtept>
<rtept lat="56.352074" lon="-4.413340">
<ele>129.0</ele>
</rtept>
<rtept lat="56.352034" lon="-4.413565">
<ele>129.0</ele>
</rtept>
<rtept lat="56.351972" lon="-4.414861">
<ele>129.3</ele>
</rtept>
<rtept lat="56.351957" lon="-4.414976">
<ele>129.5</ele>
</rtept>
<rtept lat="56.351900" lon="-4.415140">
<ele>129.3</ele>
</rtept>
<rtept lat="56.351854" lon="-4.415376">
<ele>129.5</ele>
</rtept>
<rtept lat="56.351831" lon="-4.415635">
<ele>130.1</ele>
</rtept>
<rtept lat="56.351818" lon="-4.415914">
<ele>130.7</ele>
</rtept>
<rtept lat="56.351783" lon="-4.416095">
<ele>131.7</ele>
</rtept>
<rtept lat="56.351743" lon="-4.416299">
<ele>131.5</ele>
</rtept>
<rtept lat="56.351685" lon="-4.416452">
<ele>131.1</ele>
</rtept>
<rtept lat="56.351496" lon="-4.417186">
<ele>130.0</ele>
</rtept>
<rtept lat="56.351327" lon="-4.417820">
<ele>130.0</ele>
</rtept>
<rtept lat="56.351106" lon="-4.418459">
<ele>128.5</ele>
</rtept>
<rtept lat="56.351078" lon="-4.418610">
<ele>128.0</ele>
</rtept>
<rtept lat="56.351026" lon="-4.419078">
<ele>128.5</ele>
</rtept>
<rtept lat="56.351000" lon="-4.419253">
<ele>129.2</ele>
</rtept>
<rtept lat="56.350944" lon="-4.419575">
<ele>130.0</ele>
</rtept>
<rtept lat="56.350934" lon="-4.419637">
<ele>130.0</ele>
</rtept>
<rtept lat="56.350907" lon="-4.419795">
<ele>130.1</ele>
</rtept>
<rtept lat="56.350831" lon="-4.420280">
<ele>131.0</ele>
</rtept>
<rtept lat="56.350647" lon="-4.421243">
<ele>130.8</ele>
</rtept>
<rtept lat="56.350326" lon="-4.422748">
<ele>129.0</ele>
</rtept>
<rtept lat="56.350174" lon="-4.423023">
<ele>129.0</ele>
</rtept>
<rtept lat="56.350105" lon="-4.423180">
<ele>129.0</ele>
</rtept>
<rtept lat="56.350049" lon="-4.423381">
<ele>129.0</ele>
</rtept>
<rtept lat="56.350026" lon="-4.423626">
<ele>129.0</ele>
</rtept>
<rtept lat="56.349982" lon="-4.423798">
<ele>129.0</ele>
</rtept>
<rtept lat="56.349810" lon="-4.424244">
<ele>129.0</ele>
</rtept>
<rtept lat="56.349667" lon="-4.424546">
<ele>129.0</ele>
</rtept>
<rtept lat="56.349458" lon="-4.425145">
<ele>129.0</ele>
</rtept>
<rtept lat="56.349371" lon="-4.425612">
<ele>129.0</ele>
</rtept>
<rtept lat="56.349287" lon="-4.426183">
<ele>129.0</ele>
</rtept>
<rtept lat="56.349174" lon="-4.426892">
<ele>129.5</ele>
</rtept>
<rtept lat="56.349111" lon="-4.427271">
<ele>129.3</ele>
</rtept>
<rtept lat="56.348932" lon="-4.427776">
<ele>130.0</ele>
</rtept>
<rtept lat="56.348661" lon="-4.428365">
<ele>129.7</ele>
</rtept>
<rtept lat="56.348556" lon="-4.428994">
<ele>129.3</ele>
</rtept>
<rtept lat="56.348360" lon="-4.430090">
<ele>131.6</ele>
</rtept>
<rtept lat="56.348206" lon="-4.430341">
<ele>130.1</ele>
</rtept>
<rtept lat="56.347814" lon="-4.430737">
<ele>129.0</ele>
</rtept>
<rtept lat="56.347488" lon="-4.430995">
<ele>129.0</ele>
</rtept>
<rtept lat="56.347441" lon="-4.431218">
<ele>129.0</ele>
</rtept>
<rtept lat="56.347450" lon="-4.431544">
<ele>129.0</ele>
</rtept>
<rtept lat="56.347589" lon="-4.432539">
<ele>129.0</ele>
</rtept>
<rtept lat="56.347608" lon="-4.433345">
<ele>129.0</ele>
</rtept>
<rtept lat="56.347661" lon="-4.434059">
<ele>129.1</ele>
</rtept>
<rtept lat="56.347663" lon="-4.434502">
<ele>129.1</ele>
</rtept>
<rtept lat="56.347623" lon="-4.434798">
<ele>129.3</ele>
</rtept>
<rtept lat="56.347530" lon="-4.435179">
<ele>129.6</ele>
</rtept>
<rtept lat="56.347367" lon="-4.435739">
<ele>129.0</ele>
</rtept>
<rtept lat="56.347363" lon="-4.436445">
<ele>129.0</ele>
</rtept>
<rtept lat="56.347093" lon="-4.437597">
<ele>129.0</ele>
</rtept>
<rtept lat="56.347052" lon="-4.437871">
<ele>129.0</ele>
</rtept>
<rtept lat="56.346985" lon="-4.438490">
<ele>129.0</ele>
</rtept>
<rtept lat="56.346922" lon="-4.438822">
<ele>129.0</ele>
</rtept>
<rtept lat="56.346774" lon="-4.439234">
<ele>129.0</ele>
</rtept>
<rtept lat="56.346677" lon="-4.440164">
<ele>129.0</ele>
</rtept>
<rtept lat="56.346710" lon="-4.440969">
<ele>129.0</ele>
</rtept>
<rtept lat="56.346720" lon="-4.441766">
<ele>129.0</ele>
</rtept>
<rtept lat="56.346694" lon="-4.441920">
<ele>129.0</ele>
</rtept>
<rtept lat="56.346549" lon="-4.442234">
<ele>129.0</ele>
</rtept>
<rtept lat="56.346530" lon="-4.442925">
<ele>129.0</ele>
</rtept>
<rtept lat="56.346578" lon="-4.446230">
<ele>129.2</ele>
</rtept>
<rtept lat="56.346719" lon="-4.447566">
<ele>129.7</ele>
</rtept>
<rtept lat="56.346708" lon="-4.447915">
<ele>129.6</ele>
</rtept>
<rtept lat="56.346611" lon="-4.448242">
<ele>129.3</ele>
</rtept>
<rtept lat="56.346292" lon="-4.449105">
<ele>129.0</ele>
</rtept>
<rtept lat="56.346177" lon="-4.450066">
<ele>129.0</ele>
</rtept>
<rtept lat="56.346166" lon="-4.450727">
<ele>129.0</ele>
</rtept>
<rtept lat="56.346106" lon="-4.450907">
<ele>129.1</ele>
</rtept>
<rtept lat="56.345374" lon="-4.452223">
<ele>129.0</ele>
</rtept>
<rtept lat="56.345354" lon="-4.452712">
<ele>129.0</ele>
</rtept>
<rtept lat="56.345365" lon="-4.453354">
<ele>129.0</ele>
</rtept>
<rtept lat="56.345466" lon="-4.454034">
<ele>129.1</ele>
</rtept>
<rtept lat="56.345773" lon="-4.454994">
<ele>129.3</ele>
</rtept>
<rtept lat="56.345829" lon="-4.455213">
<ele>129.5</ele>
</rtept>
<rtept lat="56.345807" lon="-4.455500">
<ele>129.4</ele>
</rtept>
<rtept lat="56.345698" lon="-4.455800">
<ele>129.0</ele>
</rtept>
<rtept lat="56.345641" lon="-4.456272">
<ele>129.0</ele>
</rtept>
<rtept lat="56.345794" lon="-4.457055">
<ele>129.4</ele>
</rtept>
<rtept lat="56.345832" lon="-4.457481">
<ele>129.5</ele>
</rtept>
<rtept lat="56.345745" lon="-4.458145">
<ele>129.2</ele>
</rtept>
<rtept lat="56.345624" lon="-4.458909">
<ele>129.0</ele>
</rtept>
<rtept lat="56.345594" lon="-4.461134">
<ele>129.6</ele>
</rtept>
<rtept lat="56.345507" lon="-4.461894">
<ele>129.3</ele>
</rtept>
<rtept lat="56.345467" lon="-4.462173">
<ele>129.2</ele>
</rtept>
<rtept lat="56.345127" lon="-4.462937">
<ele>129.4</ele>
</rtept>
<rtept lat="56.345038" lon="-4.463288">
<ele>127.3</ele>
</rtept>
<rtept lat="56.344997" lon="-4.463799">
<ele>124.5</ele>
</rtept>
<rtept lat="56.344997" lon="-4.463799">
<ele>124.5</ele>
</rtept>
<rtept lat="56.344998" lon="-4.463849">
<ele>124.2</ele>
</rtept>
<rtept lat="56.345000" lon="-4.463849">
<ele>124.2</ele>
</rtept>
<rtept lat="56.345010" lon="-4.464554">
<ele>120.1</ele>
</rtept>
<rtept lat="56.345021" lon="-4.465554">
<ele>119.1</ele>
</rtept>
<rtept lat="56.344972" lon="-4.465744">
<ele>120.7</ele>
</rtept>
<rtept lat="56.344918" lon="-4.465898">
<ele>120.3</ele>
</rtept>
<rtept lat="56.344808" lon="-4.466241">
<ele>117.8</ele>
</rtept>
<rtept lat="56.344812" lon="-4.466716">
<ele>122.7</ele>
</rtept>
<rtept lat="56.344870" lon="-4.467811">
<ele>135.5</ele>
</rtept>
<rtept lat="56.344939" lon="-4.468037">
<ele>138.6</ele>
</rtept>
<rtept lat="56.345084" lon="-4.468384">
<ele>143.1</ele>
</rtept>
<rtept lat="56.345140" lon="-4.468590">
<ele>144.9</ele>
</rtept>
<rtept lat="56.345010" lon="-4.468751">
<ele>144.2</ele>
</rtept>
<rtept lat="56.344924" lon="-4.468948">
<ele>143.6</ele>
</rtept>
<rtept lat="56.344899" lon="-4.469132">
<ele>143.8</ele>
</rtept>
<rtept lat="56.344918" lon="-4.469271">
<ele>144.4</ele>
</rtept>
<rtept lat="56.344839" lon="-4.469398">
<ele>142.9</ele>
</rtept>
  </rte>
</gpx>