<?xml version="1.0" encoding="UTF-8"?>
<gpx xmlns="http://www.topografix.com/GPX/1/1" xmlns:xsi="http://www.w3.org/2001/XMLSchema-instance" xsi:schemaLocation="http://www.topografix.com/GPX/1/1 http://www.topografix.com/GPX/1/1/gpx.xsd" version="1.1" creator="gpx.py -- https://github.com/tkrajina/gpxpy">
  <metadata>
    <name>LO786_4153eb2e</name>
    <time>2026-08-24T11:42:54Z</time>
  </metadata>
  <trk>
    <name>LO786_4153eb2e</name>
    <cmt>2026-08-24</cmt>
    <type>Plane</type>
    <trkseg>
      <trkpt lat="59.415878" lon="24.800688">
        <ele>0.0</ele>
        <time>2026-08-24T11:42:54Z</time>
      </trkpt>
      <trkpt lat="59.415665" lon="24.800674">
        <ele>0.0</ele>
        <time>2026-08-24T11:42:54Z</time>
      </trkpt>
      <trkpt lat="59.415447" lon="24.800735">
        <ele>0.0</ele>
        <time>2026-08-24T11:42:54Z</time>
      </trkpt>
      <trkpt lat="59.415367" lon="24.800949">
        <ele>0.0</ele>
        <time>2026-08-24T11:42:54Z</time>
      </trkpt>
      <trkpt lat="59.415295" lon="24.801163">
        <ele>0.0</ele>
        <time>2026-08-24T11:42:54Z</time>
      </trkpt>
      <trkpt lat="59.415192" lon="24.801374">
        <ele>0.0</ele>
        <time>2026-08-24T11:42:54Z</time>
      </trkpt>
      <trkpt lat="59.414989" lon="24.801384">
        <ele>0.0</ele>
        <time>2026-08-24T11:42:54Z</time>
      </trkpt>
      <trkpt lat="59.415161" lon="24.80159">
        <ele>0.0</ele>
        <time>2026-08-24T11:42:54Z</time>
      </trkpt>
      <trkpt lat="59.41523" lon="24.801842">
        <ele>0.0</ele>
        <time>2026-08-24T11:42:54Z</time>
      </trkpt>
      <trkpt lat="59.41526" lon="24.802086">
        <ele>0.0</ele>
        <time>2026-08-24T11:42:54Z</time>
      </trkpt>
      <trkpt lat="59.415272" lon="24.802393">
        <ele>0.0</ele>
        <time>2026-08-24T11:42:54Z</time>
      </trkpt>
      <trkpt lat="59.415272" lon="24.802607">
        <ele>0.0</ele>
        <time>2026-08-24T11:42:54Z</time>
      </trkpt>
      <trkpt lat="59.415272" lon="24.802986">
        <ele>0.0</ele>
        <time>2026-08-24T11:42:54Z</time>
      </trkpt>
      <trkpt lat="59.415272" lon="24.803246">
        <ele>0.0</ele>
        <time>2026-08-24T11:42:54Z</time>
      </trkpt>
      <trkpt lat="59.415264" lon="24.803673">
        <ele>0.0</ele>
        <time>2026-08-24T11:42:54Z</time>
      </trkpt>
      <trkpt lat="59.415237" lon="24.804193">
        <ele>0.0</ele>
        <time>2026-08-24T11:42:54Z</time>
      </trkpt>
      <trkpt lat="59.415218" lon="24.804428">
        <ele>0.0</ele>
        <time>2026-08-24T11:42:54Z</time>
      </trkpt>
      <trkpt lat="59.41518" lon="24.804928">
        <ele>0.0</ele>
        <time>2026-08-24T11:42:54Z</time>
      </trkpt>
      <trkpt lat="59.415112" lon="24.80566">
        <ele>0.0</ele>
        <time>2026-08-24T11:42:54Z</time>
      </trkpt>
      <trkpt lat="59.4151" lon="24.805922">
        <ele>0.0</ele>
        <time>2026-08-24T11:42:54Z</time>
      </trkpt>
      <trkpt lat="59.415081" lon="24.806328">
        <ele>0.0</ele>
        <time>2026-08-24T11:42:54Z</time>
      </trkpt>
      <trkpt lat="59.41507" lon="24.80674">
        <ele>0.0</ele>
        <time>2026-08-24T11:42:54Z</time>
      </trkpt>
      <trkpt lat="59.415058" lon="24.807129">
        <ele>0.0</ele>
        <time>2026-08-24T11:42:54Z</time>
      </trkpt>
      <trkpt lat="59.415062" lon="24.807365">
        <ele>0.0</ele>
        <time>2026-08-24T11:42:54Z</time>
      </trkpt>
      <trkpt lat="59.415058" lon="24.807907">
        <ele>0.0</ele>
        <time>2026-08-24T11:42:54Z</time>
      </trkpt>
      <trkpt lat="59.415062" lon="24.808123">
        <ele>0.0</ele>
        <time>2026-08-24T11:42:54Z</time>
      </trkpt>
      <trkpt lat="59.415051" lon="24.808384">
        <ele>0.0</ele>
        <time>2026-08-24T11:42:54Z</time>
      </trkpt>
      <trkpt lat="59.415058" lon="24.808617">
        <ele>0.0</ele>
        <time>2026-08-24T11:42:54Z</time>
      </trkpt>
      <trkpt lat="59.415062" lon="24.808834">
        <ele>0.0</ele>
        <time>2026-08-24T11:42:54Z</time>
      </trkpt>
      <trkpt lat="59.415062" lon="24.809093">
        <ele>0.0</ele>
        <time>2026-08-24T11:42:54Z</time>
      </trkpt>
      <trkpt lat="59.415062" lon="24.809307">
        <ele>0.0</ele>
        <time>2026-08-24T11:42:54Z</time>
      </trkpt>
      <trkpt lat="59.415062" lon="24.809568">
        <ele>0.0</ele>
        <time>2026-08-24T11:42:54Z</time>
      </trkpt>
      <trkpt lat="59.415051" lon="24.809828">
        <ele>0.0</ele>
        <time>2026-08-24T11:42:54Z</time>
      </trkpt>
      <trkpt lat="59.415051" lon="24.810064">
        <ele>0.0</ele>
        <time>2026-08-24T11:42:54Z</time>
      </trkpt>
      <trkpt lat="59.415058" lon="24.810425">
        <ele>0.0</ele>
        <time>2026-08-24T11:42:54Z</time>
      </trkpt>
      <trkpt lat="59.415051" lon="24.812124">
        <ele>0.0</ele>
        <time>2026-08-24T11:42:54Z</time>
      </trkpt>
      <trkpt lat="59.415039" lon="24.814114">
        <ele>0.0</ele>
        <time>2026-08-24T11:42:54Z</time>
      </trkpt>
      <trkpt lat="59.415035" lon="24.815964">
        <ele>0.0</ele>
        <time>2026-08-24T11:42:54Z</time>
      </trkpt>
      <trkpt lat="59.415035" lon="24.817818">
        <ele>0.0</ele>
        <time>2026-08-24T11:42:54Z</time>
      </trkpt>
      <trkpt lat="59.415035" lon="24.819626">
        <ele>0.0</ele>
        <time>2026-08-24T11:42:54Z</time>
      </trkpt>
      <trkpt lat="59.415028" lon="24.821571">
        <ele>0.0</ele>
        <time>2026-08-24T11:42:54Z</time>
      </trkpt>
      <trkpt lat="59.415028" lon="24.823513">
        <ele>0.0</ele>
        <time>2026-08-24T11:42:54Z</time>
      </trkpt>
      <trkpt lat="59.415012" lon="24.825645">
        <ele>0.0</ele>
        <time>2026-08-24T11:42:54Z</time>
      </trkpt>
      <trkpt lat="59.415012" lon="24.827065">
        <ele>0.0</ele>
        <time>2026-08-24T11:42:54Z</time>
      </trkpt>
      <trkpt lat="59.415005" lon="24.829006">
        <ele>0.0</ele>
        <time>2026-08-24T11:42:54Z</time>
      </trkpt>
      <trkpt lat="59.415001" lon="24.830681">
        <ele>0.0</ele>
        <time>2026-08-24T11:42:54Z</time>
      </trkpt>
      <trkpt lat="59.414993" lon="24.832558">
        <ele>0.0</ele>
        <time>2026-08-24T11:42:54Z</time>
      </trkpt>
      <trkpt lat="59.414989" lon="24.834091">
        <ele>0.0</ele>
        <time>2026-08-24T11:42:54Z</time>
      </trkpt>
      <trkpt lat="59.414982" lon="24.835897">
        <ele>0.0</ele>
        <time>2026-08-24T11:42:54Z</time>
      </trkpt>
      <trkpt lat="59.414982" lon="24.837648">
        <ele>0.0</ele>
        <time>2026-08-24T11:42:54Z</time>
      </trkpt>
      <trkpt lat="59.414978" lon="24.839287">
        <ele>0.0</ele>
        <time>2026-08-24T11:42:54Z</time>
      </trkpt>
      <trkpt lat="59.414967" lon="24.841026">
        <ele>0.0</ele>
        <time>2026-08-24T11:42:54Z</time>
      </trkpt>
      <trkpt lat="59.414959" lon="24.842693">
        <ele>0.0</ele>
        <time>2026-08-24T11:42:54Z</time>
      </trkpt>
      <trkpt lat="59.41497" lon="24.844728">
        <ele>0.0</ele>
        <time>2026-08-24T11:42:54Z</time>
      </trkpt>
      <trkpt lat="59.414967" lon="24.845123">
        <ele>0.0</ele>
        <time>2026-08-24T11:42:54Z</time>
      </trkpt>
      <trkpt lat="59.41497" lon="24.84544">
        <ele>0.0</ele>
        <time>2026-08-24T11:42:54Z</time>
      </trkpt>
      <trkpt lat="59.414967" lon="24.845718">
        <ele>0.0</ele>
        <time>2026-08-24T11:42:54Z</time>
      </trkpt>
      <trkpt lat="59.414967" lon="24.84597">
        <ele>0.0</ele>
        <time>2026-08-24T11:42:54Z</time>
      </trkpt>
      <trkpt lat="59.414959" lon="24.846338">
        <ele>0.0</ele>
        <time>2026-08-24T11:42:54Z</time>
      </trkpt>
      <trkpt lat="59.414955" lon="24.846725">
        <ele>0.0</ele>
        <time>2026-08-24T11:42:54Z</time>
      </trkpt>
      <trkpt lat="59.414959" lon="24.846954">
        <ele>0.0</ele>
        <time>2026-08-24T11:42:54Z</time>
      </trkpt>
      <trkpt lat="59.414959" lon="24.847357">
        <ele>0.0</ele>
        <time>2026-08-24T11:42:54Z</time>
      </trkpt>
      <trkpt lat="59.414959" lon="24.847782">
        <ele>0.0</ele>
        <time>2026-08-24T11:42:54Z</time>
      </trkpt>
      <trkpt lat="59.414925" lon="24.848991">
        <ele>0.0</ele>
        <time>2026-08-24T11:42:54Z</time>
      </trkpt>
      <trkpt lat="59.414829" lon="24.849487">
        <ele>0.0</ele>
        <time>2026-08-24T11:42:54Z</time>
      </trkpt>
      <trkpt lat="59.414646" lon="24.849842">
        <ele>0.0</ele>
        <time>2026-08-24T11:42:54Z</time>
      </trkpt>
      <trkpt lat="59.414425" lon="24.850056">
        <ele>0.0</ele>
        <time>2026-08-24T11:42:54Z</time>
      </trkpt>
      <trkpt lat="59.414192" lon="24.850126">
        <ele>0.0</ele>
        <time>2026-08-24T11:42:54Z</time>
      </trkpt>
      <trkpt lat="59.4137" lon="24.850126">
        <ele>0.0</ele>
        <time>2026-08-24T11:42:54Z</time>
      </trkpt>
      <trkpt lat="59.413364" lon="24.849937">
        <ele>0.0</ele>
        <time>2026-08-24T11:42:54Z</time>
      </trkpt>
      <trkpt lat="59.413239" lon="24.848946">
        <ele>0.0</ele>
        <time>2026-08-24T11:42:54Z</time>
      </trkpt>
      <trkpt lat="59.413235" lon="24.84873">
        <ele>0.0</ele>
        <time>2026-08-24T11:42:54Z</time>
      </trkpt>
      <trkpt lat="59.413239" lon="24.848396">
        <ele>0.0</ele>
        <time>2026-08-24T11:42:54Z</time>
      </trkpt>
      <trkpt lat="59.413235" lon="24.847191">
        <ele>0.0</ele>
        <time>2026-08-24T11:42:54Z</time>
      </trkpt>
      <trkpt lat="59.413235" lon="24.846907">
        <ele>0.0</ele>
        <time>2026-08-24T11:42:54Z</time>
      </trkpt>
      <trkpt lat="59.413235" lon="24.845842">
        <ele>0.0</ele>
        <time>2026-08-24T11:42:54Z</time>
      </trkpt>
      <trkpt lat="59.413239" lon="24.845261">
        <ele>0.0</ele>
        <time>2026-08-24T11:42:54Z</time>
      </trkpt>
      <trkpt lat="59.413239" lon="24.84462">
        <ele>0.0</ele>
        <time>2026-08-24T11:42:54Z</time>
      </trkpt>
      <trkpt lat="59.413239" lon="24.842216">
        <ele>0.0</ele>
        <time>2026-08-24T11:42:54Z</time>
      </trkpt>
      <trkpt lat="59.413246" lon="24.841413">
        <ele>0.0</ele>
        <time>2026-08-24T11:42:54Z</time>
      </trkpt>
      <trkpt lat="59.413239" lon="24.839722">
        <ele>53.34</ele>
        <time>2026-08-24T11:42:54Z</time>
      </trkpt>
      <trkpt lat="59.413223" lon="24.837437">
        <ele>53.34</ele>
        <time>2026-08-24T11:42:54Z</time>
      </trkpt>
      <trkpt lat="59.413239" lon="24.835419">
        <ele>53.34</ele>
        <time>2026-08-24T11:42:54Z</time>
      </trkpt>
      <trkpt lat="59.413273" lon="24.828438">
        <ele>45.72</ele>
        <time>2026-08-24T11:42:54Z</time>
      </trkpt>
      <trkpt lat="59.41333" lon="24.818481">
        <ele>60.96</ele>
        <time>2026-08-24T11:42:54Z</time>
      </trkpt>
      <trkpt lat="59.413467" lon="24.806946">
        <ele>137.16</ele>
        <time>2026-08-24T11:42:54Z</time>
      </trkpt>
      <trkpt lat="59.413651" lon="24.79541">
        <ele>220.98000000000002</ele>
        <time>2026-08-24T11:42:54Z</time>
      </trkpt>
      <trkpt lat="59.413696" lon="24.783234">
        <ele>327.66</ele>
        <time>2026-08-24T11:42:54Z</time>
      </trkpt>
      <trkpt lat="59.413788" lon="24.770966">
        <ele>426.72</ele>
        <time>2026-08-24T11:42:54Z</time>
      </trkpt>
      <trkpt lat="59.413643" lon="24.76252">
        <ele>480.06</ele>
        <time>2026-08-24T11:42:54Z</time>
      </trkpt>
      <trkpt lat="59.413456" lon="24.75968">
        <ele>487.68</ele>
        <time>2026-08-24T11:42:54Z</time>
      </trkpt>
      <trkpt lat="59.413055" lon="24.756683">
        <ele>502.92</ele>
        <time>2026-08-24T11:42:54Z</time>
      </trkpt>
      <trkpt lat="59.412525" lon="24.753523">
        <ele>518.1600000000001</ele>
        <time>2026-08-24T11:42:54Z</time>
      </trkpt>
      <trkpt lat="59.411774" lon="24.750366">
        <ele>525.78</ele>
        <time>2026-08-24T11:42:54Z</time>
      </trkpt>
      <trkpt lat="59.410896" lon="24.747557">
        <ele>541.02</ele>
        <time>2026-08-24T11:42:54Z</time>
      </trkpt>
      <trkpt lat="59.409874" lon="24.744905">
        <ele>563.88</ele>
        <time>2026-08-24T11:42:54Z</time>
      </trkpt>
      <trkpt lat="59.408382" lon="24.741968">
        <ele>579.12</ele>
        <time>2026-08-24T11:42:54Z</time>
      </trkpt>
      <trkpt lat="59.407078" lon="24.73979">
        <ele>594.36</ele>
        <time>2026-08-24T11:42:54Z</time>
      </trkpt>
      <trkpt lat="59.405636" lon="24.737612">
        <ele>617.22</ele>
        <time>2026-08-24T11:42:54Z</time>
      </trkpt>
      <trkpt lat="59.403992" lon="24.735535">
        <ele>640.08</ele>
        <time>2026-08-24T11:42:54Z</time>
      </trkpt>
      <trkpt lat="59.402519" lon="24.734013">
        <ele>655.32</ele>
        <time>2026-08-24T11:42:54Z</time>
      </trkpt>
      <trkpt lat="59.400982" lon="24.732592">
        <ele>670.5600000000001</ele>
        <time>2026-08-24T11:42:54Z</time>
      </trkpt>
      <trkpt lat="59.399414" lon="24.731323">
        <ele>678.1800000000001</ele>
        <time>2026-08-24T11:42:54Z</time>
      </trkpt>
      <trkpt lat="59.397583" lon="24.730042">
        <ele>693.4200000000001</ele>
        <time>2026-08-24T11:42:54Z</time>
      </trkpt>
      <trkpt lat="59.395844" lon="24.728851">
        <ele>701.0400000000001</ele>
        <time>2026-08-24T11:42:54Z</time>
      </trkpt>
      <trkpt lat="59.393719" lon="24.727383">
        <ele>716.2800000000001</ele>
        <time>2026-08-24T11:42:54Z</time>
      </trkpt>
      <trkpt lat="59.392044" lon="24.726288">
        <ele>723.9000000000001</ele>
        <time>2026-08-24T11:42:54Z</time>
      </trkpt>
      <trkpt lat="59.39035" lon="24.725098">
        <ele>731.52</ele>
        <time>2026-08-24T11:42:54Z</time>
      </trkpt>
      <trkpt lat="59.388412" lon="24.723783">
        <ele>739.14</ele>
        <time>2026-08-24T11:42:54Z</time>
      </trkpt>
      <trkpt lat="59.38641" lon="24.722458">
        <ele>746.76</ele>
        <time>2026-08-24T11:42:54Z</time>
      </trkpt>
      <trkpt lat="59.384594" lon="24.721132">
        <ele>762.0</ele>
        <time>2026-08-24T11:42:54Z</time>
      </trkpt>
      <trkpt lat="59.382751" lon="24.719788">
        <ele>769.62</ele>
        <time>2026-08-24T11:42:54Z</time>
      </trkpt>
      <trkpt lat="59.380547" lon="24.718197">
        <ele>784.86</ele>
        <time>2026-08-24T11:42:54Z</time>
      </trkpt>
      <trkpt lat="59.37859" lon="24.716776">
        <ele>792.48</ele>
        <time>2026-08-24T11:42:54Z</time>
      </trkpt>
      <trkpt lat="59.376617" lon="24.715302">
        <ele>800.1</ele>
        <time>2026-08-24T11:42:54Z</time>
      </trkpt>
      <trkpt lat="59.374466" lon="24.713654">
        <ele>815.34</ele>
        <time>2026-08-24T11:42:54Z</time>
      </trkpt>
      <trkpt lat="59.372589" lon="24.71228">
        <ele>822.96</ele>
        <time>2026-08-24T11:42:54Z</time>
      </trkpt>
      <trkpt lat="59.370583" lon="24.71081">
        <ele>830.58</ele>
        <time>2026-08-24T11:42:54Z</time>
      </trkpt>
      <trkpt lat="59.368423" lon="24.709167">
        <ele>845.82</ele>
        <time>2026-08-24T11:42:54Z</time>
      </trkpt>
      <trkpt lat="59.366299" lon="24.707588">
        <ele>853.44</ele>
        <time>2026-08-24T11:42:54Z</time>
      </trkpt>
      <trkpt lat="59.364212" lon="24.705963">
        <ele>868.6800000000001</ele>
        <time>2026-08-24T11:42:54Z</time>
      </trkpt>
      <trkpt lat="59.362244" lon="24.704498">
        <ele>876.3000000000001</ele>
        <time>2026-08-24T11:42:54Z</time>
      </trkpt>
      <trkpt lat="59.359772" lon="24.702667">
        <ele>891.5400000000001</ele>
        <time>2026-08-24T11:42:54Z</time>
      </trkpt>
      <trkpt lat="59.357529" lon="24.701019">
        <ele>906.7800000000001</ele>
        <time>2026-08-24T11:42:54Z</time>
      </trkpt>
      <trkpt lat="59.355408" lon="24.699444">
        <ele>914.4000000000001</ele>
        <time>2026-08-24T11:42:54Z</time>
      </trkpt>
      <trkpt lat="59.353081" lon="24.697739">
        <ele>922.0200000000001</ele>
        <time>2026-08-24T11:42:54Z</time>
      </trkpt>
      <trkpt lat="59.343582" lon="24.690825">
        <ele>982.98</ele>
        <time>2026-08-24T11:42:54Z</time>
      </trkpt>
      <trkpt lat="59.334553" lon="24.684196">
        <ele>1089.66</ele>
        <time>2026-08-24T11:42:54Z</time>
      </trkpt>
      <trkpt lat="59.327335" lon="24.678892">
        <ele>1173.48</ele>
        <time>2026-08-24T11:42:54Z</time>
      </trkpt>
      <trkpt lat="59.317513" lon="24.671505">
        <ele>1287.78</ele>
        <time>2026-08-24T11:42:54Z</time>
      </trkpt>
      <trkpt lat="59.308296" lon="24.66478">
        <ele>1402.0800000000002</ele>
        <time>2026-08-24T11:42:54Z</time>
      </trkpt>
      <trkpt lat="59.299118" lon="24.658081">
        <ele>1508.76</ele>
        <time>2026-08-24T11:42:54Z</time>
      </trkpt>
      <trkpt lat="59.289459" lon="24.650848">
        <ele>1607.8200000000002</ele>
        <time>2026-08-24T11:42:54Z</time>
      </trkpt>
      <trkpt lat="59.274261" lon="24.639404">
        <ele>1775.46</ele>
        <time>2026-08-24T11:42:54Z</time>
      </trkpt>
      <trkpt lat="59.257133" lon="24.626423">
        <ele>1935.48</ele>
        <time>2026-08-24T11:42:54Z</time>
      </trkpt>
      <trkpt lat="59.242035" lon="24.61496">
        <ele>2095.5</ele>
        <time>2026-08-24T11:42:54Z</time>
      </trkpt>
      <trkpt lat="59.223663" lon="24.601135">
        <ele>2293.62</ele>
        <time>2026-08-24T11:42:54Z</time>
      </trkpt>
      <trkpt lat="59.208389" lon="24.589783">
        <ele>2461.26</ele>
        <time>2026-08-24T11:42:54Z</time>
      </trkpt>
      <trkpt lat="59.19252" lon="24.57793">
        <ele>2644.1400000000003</ele>
        <time>2026-08-24T11:42:54Z</time>
      </trkpt>
      <trkpt lat="59.173965" lon="24.563873">
        <ele>2872.7400000000002</ele>
        <time>2026-08-24T11:42:54Z</time>
      </trkpt>
      <trkpt lat="59.155231" lon="24.549707">
        <ele>3070.86</ele>
        <time>2026-08-24T11:42:54Z</time>
      </trkpt>
      <trkpt lat="59.136147" lon="24.535313">
        <ele>3169.92</ele>
        <time>2026-08-24T11:42:54Z</time>
      </trkpt>
      <trkpt lat="59.118221" lon="24.521769">
        <ele>3238.5</ele>
        <time>2026-08-24T11:42:54Z</time>
      </trkpt>
      <trkpt lat="59.097275" lon="24.505953">
        <ele>3307.0800000000004</ele>
        <time>2026-08-24T11:42:54Z</time>
      </trkpt>
      <trkpt lat="59.075211" lon="24.489378">
        <ele>3406.1400000000003</ele>
        <time>2026-08-24T11:42:54Z</time>
      </trkpt>
      <trkpt lat="59.051003" lon="24.471382">
        <ele>3604.26</ele>
        <time>2026-08-24T11:42:54Z</time>
      </trkpt>
      <trkpt lat="59.027912" lon="24.454241">
        <ele>3802.38</ele>
        <time>2026-08-24T11:42:54Z</time>
      </trkpt>
      <trkpt lat="58.979141" lon="24.418121">
        <ele>4221.4800000000005</ele>
        <time>2026-08-24T11:42:54Z</time>
      </trkpt>
      <trkpt lat="58.926895" lon="24.379515">
        <ele>4686.3</ele>
        <time>2026-08-24T11:42:54Z</time>
      </trkpt>
      <trkpt lat="58.873077" lon="24.339844">
        <ele>5151.12</ele>
        <time>2026-08-24T11:42:54Z</time>
      </trkpt>
      <trkpt lat="58.817867" lon="24.308624">
        <ele>5593.08</ele>
        <time>2026-08-24T11:42:54Z</time>
      </trkpt>
      <trkpt lat="58.761539" lon="24.283905">
        <ele>5951.22</ele>
        <time>2026-08-24T11:42:54Z</time>
      </trkpt>
      <trkpt lat="58.702976" lon="24.25827">
        <ele>6339.84</ele>
        <time>2026-08-24T11:42:54Z</time>
      </trkpt>
      <trkpt lat="58.644367" lon="24.232635">
        <ele>6675.12</ele>
        <time>2026-08-24T11:42:54Z</time>
      </trkpt>
      <trkpt lat="58.583862" lon="24.206247">
        <ele>6972.3</ele>
        <time>2026-08-24T11:42:54Z</time>
      </trkpt>
      <trkpt lat="58.522263" lon="24.179535">
        <ele>7277.1</ele>
        <time>2026-08-24T11:42:54Z</time>
      </trkpt>
      <trkpt lat="58.46022" lon="24.152645">
        <ele>7574.280000000001</ele>
        <time>2026-08-24T11:42:54Z</time>
      </trkpt>
      <trkpt lat="58.397278" lon="24.125534">
        <ele>7840.9800000000005</ele>
        <time>2026-08-24T11:42:54Z</time>
      </trkpt>
      <trkpt lat="58.333958" lon="24.098419">
        <ele>8122.92</ele>
        <time>2026-08-24T11:42:54Z</time>
      </trkpt>
      <trkpt lat="58.270229" lon="24.071228">
        <ele>8496.300000000001</ele>
        <time>2026-08-24T11:42:54Z</time>
      </trkpt>
      <trkpt lat="58.207947" lon="24.044819">
        <ele>8831.58</ele>
        <time>2026-08-24T11:42:54Z</time>
      </trkpt>
      <trkpt lat="58.146149" lon="24.018772">
        <ele>9128.76</ele>
        <time>2026-08-24T11:42:54Z</time>
      </trkpt>
      <trkpt lat="58.083042" lon="23.992218">
        <ele>9403.08</ele>
        <time>2026-08-24T11:42:54Z</time>
      </trkpt>
      <trkpt lat="58.021591" lon="23.96641">
        <ele>9646.92</ele>
        <time>2026-08-24T11:42:54Z</time>
      </trkpt>
      <trkpt lat="57.956818" lon="23.939209">
        <ele>9852.66</ele>
        <time>2026-08-24T11:42:54Z</time>
      </trkpt>
      <trkpt lat="57.893806" lon="23.913116">
        <ele>9989.82</ele>
        <time>2026-08-24T11:42:54Z</time>
      </trkpt>
      <trkpt lat="57.827591" lon="23.891455">
        <ele>10081.26</ele>
        <time>2026-08-24T11:42:54Z</time>
      </trkpt>
      <trkpt lat="57.759796" lon="23.86895">
        <ele>10195.560000000001</ele>
        <time>2026-08-24T11:42:54Z</time>
      </trkpt>
      <trkpt lat="57.690674" lon="23.846426">
        <ele>10363.2</ele>
        <time>2026-08-24T11:42:54Z</time>
      </trkpt>
      <trkpt lat="57.624454" lon="23.824562">
        <ele>10584.18</ele>
        <time>2026-08-24T11:42:54Z</time>
      </trkpt>
      <trkpt lat="57.555836" lon="23.802145">
        <ele>10805.16</ele>
        <time>2026-08-24T11:42:54Z</time>
      </trkpt>
      <trkpt lat="57.487499" lon="23.779995">
        <ele>10957.560000000001</ele>
        <time>2026-08-24T11:42:54Z</time>
      </trkpt>
      <trkpt lat="57.421066" lon="23.758467">
        <ele>10972.800000000001</ele>
        <time>2026-08-24T11:42:54Z</time>
      </trkpt>
      <trkpt lat="57.35585" lon="23.737202">
        <ele>10972.800000000001</ele>
        <time>2026-08-24T11:42:54Z</time>
      </trkpt>
      <trkpt lat="57.290676" lon="23.716471">
        <ele>10972.800000000001</ele>
        <time>2026-08-24T11:42:54Z</time>
      </trkpt>
      <trkpt lat="57.223827" lon="23.695206">
        <ele>10972.800000000001</ele>
        <time>2026-08-24T11:42:54Z</time>
      </trkpt>
      <trkpt lat="57.157722" lon="23.67412">
        <ele>10972.800000000001</ele>
        <time>2026-08-24T11:42:54Z</time>
      </trkpt>
      <trkpt lat="57.091232" lon="23.653135">
        <ele>10972.800000000001</ele>
        <time>2026-08-24T11:42:54Z</time>
      </trkpt>
      <trkpt lat="57.024445" lon="23.631947">
        <ele>10972.800000000001</ele>
        <time>2026-08-24T11:42:54Z</time>
      </trkpt>
      <trkpt lat="56.958664" lon="23.611078">
        <ele>10972.800000000001</ele>
        <time>2026-08-24T11:42:54Z</time>
      </trkpt>
      <trkpt lat="56.892334" lon="23.590136">
        <ele>10972.800000000001</ele>
        <time>2026-08-24T11:42:54Z</time>
      </trkpt>
      <trkpt lat="56.825806" lon="23.569395">
        <ele>10972.800000000001</ele>
        <time>2026-08-24T11:42:54Z</time>
      </trkpt>
      <trkpt lat="56.759445" lon="23.548679">
        <ele>10972.800000000001</ele>
        <time>2026-08-24T11:42:54Z</time>
      </trkpt>
      <trkpt lat="56.693317" lon="23.527576">
        <ele>10972.800000000001</ele>
        <time>2026-08-24T11:42:54Z</time>
      </trkpt>
      <trkpt lat="56.626793" lon="23.506933">
        <ele>10972.800000000001</ele>
        <time>2026-08-24T11:42:54Z</time>
      </trkpt>
      <trkpt lat="56.560364" lon="23.486523">
        <ele>10972.800000000001</ele>
        <time>2026-08-24T11:42:54Z</time>
      </trkpt>
      <trkpt lat="56.493423" lon="23.466196">
        <ele>10972.800000000001</ele>
        <time>2026-08-24T11:42:54Z</time>
      </trkpt>
      <trkpt lat="56.428486" lon="23.446348">
        <ele>10972.800000000001</ele>
        <time>2026-08-24T11:42:54Z</time>
      </trkpt>
      <trkpt lat="56.362579" lon="23.426525">
        <ele>10972.800000000001</ele>
        <time>2026-08-24T11:42:54Z</time>
      </trkpt>
      <trkpt lat="56.294922" lon="23.413795">
        <ele>10972.800000000001</ele>
        <time>2026-08-24T11:42:54Z</time>
      </trkpt>
      <trkpt lat="56.228733" lon="23.401508">
        <ele>10972.800000000001</ele>
        <time>2026-08-24T11:42:54Z</time>
      </trkpt>
      <trkpt lat="56.162209" lon="23.388939">
        <ele>10972.800000000001</ele>
        <time>2026-08-24T11:42:54Z</time>
      </trkpt>
      <trkpt lat="56.095921" lon="23.376562">
        <ele>10972.800000000001</ele>
        <time>2026-08-24T11:42:54Z</time>
      </trkpt>
      <trkpt lat="56.029671" lon="23.364262">
        <ele>10972.800000000001</ele>
        <time>2026-08-24T11:42:54Z</time>
      </trkpt>
      <trkpt lat="55.963394" lon="23.35187">
        <ele>10972.800000000001</ele>
        <time>2026-08-24T11:42:54Z</time>
      </trkpt>
      <trkpt lat="55.896397" lon="23.339809">
        <ele>10972.800000000001</ele>
        <time>2026-08-24T11:42:54Z</time>
      </trkpt>
      <trkpt lat="55.829235" lon="23.327398">
        <ele>10972.800000000001</ele>
        <time>2026-08-24T11:42:54Z</time>
      </trkpt>
      <trkpt lat="55.761642" lon="23.315163">
        <ele>10972.800000000001</ele>
        <time>2026-08-24T11:42:54Z</time>
      </trkpt>
      <trkpt lat="55.694473" lon="23.303129">
        <ele>10972.800000000001</ele>
        <time>2026-08-24T11:42:54Z</time>
      </trkpt>
      <trkpt lat="55.627331" lon="23.290638">
        <ele>10972.800000000001</ele>
        <time>2026-08-24T11:42:54Z</time>
      </trkpt>
      <trkpt lat="55.559322" lon="23.278131">
        <ele>10972.800000000001</ele>
        <time>2026-08-24T11:42:54Z</time>
      </trkpt>
      <trkpt lat="55.492252" lon="23.266071">
        <ele>10972.800000000001</ele>
        <time>2026-08-24T11:42:54Z</time>
      </trkpt>
      <trkpt lat="55.42432" lon="23.253777">
        <ele>10972.800000000001</ele>
        <time>2026-08-24T11:42:54Z</time>
      </trkpt>
      <trkpt lat="55.356655" lon="23.241453">
        <ele>10972.800000000001</ele>
        <time>2026-08-24T11:42:54Z</time>
      </trkpt>
      <trkpt lat="55.288982" lon="23.229362">
        <ele>10972.800000000001</ele>
        <time>2026-08-24T11:42:54Z</time>
      </trkpt>
      <trkpt lat="55.221287" lon="23.217766">
        <ele>10972.800000000001</ele>
        <time>2026-08-24T11:42:54Z</time>
      </trkpt>
      <trkpt lat="55.153172" lon="23.206165">
        <ele>10972.800000000001</ele>
        <time>2026-08-24T11:42:54Z</time>
      </trkpt>
      <trkpt lat="55.085533" lon="23.194504">
        <ele>10972.800000000001</ele>
        <time>2026-08-24T11:42:54Z</time>
      </trkpt>
      <trkpt lat="55.017956" lon="23.182657">
        <ele>10972.800000000001</ele>
        <time>2026-08-24T11:42:54Z</time>
      </trkpt>
      <trkpt lat="54.950348" lon="23.170612">
        <ele>10972.800000000001</ele>
        <time>2026-08-24T11:42:54Z</time>
      </trkpt>
      <trkpt lat="54.881927" lon="23.158791">
        <ele>10972.800000000001</ele>
        <time>2026-08-24T11:42:54Z</time>
      </trkpt>
      <trkpt lat="54.814053" lon="23.146709">
        <ele>10972.800000000001</ele>
        <time>2026-08-24T11:42:54Z</time>
      </trkpt>
      <trkpt lat="54.745941" lon="23.134386">
        <ele>10972.800000000001</ele>
        <time>2026-08-24T11:42:54Z</time>
      </trkpt>
      <trkpt lat="54.677933" lon="23.122614">
        <ele>10972.800000000001</ele>
        <time>2026-08-24T11:42:54Z</time>
      </trkpt>
      <trkpt lat="54.608776" lon="23.110489">
        <ele>10972.800000000001</ele>
        <time>2026-08-24T11:42:54Z</time>
      </trkpt>
      <trkpt lat="54.540138" lon="23.098803">
        <ele>10972.800000000001</ele>
        <time>2026-08-24T11:42:54Z</time>
      </trkpt>
      <trkpt lat="54.47279" lon="23.087633">
        <ele>10972.800000000001</ele>
        <time>2026-08-24T11:42:54Z</time>
      </trkpt>
      <trkpt lat="54.405304" lon="23.076061">
        <ele>10972.800000000001</ele>
        <time>2026-08-24T11:42:54Z</time>
      </trkpt>
      <trkpt lat="54.356457" lon="23.0602">
        <ele>10972.800000000001</ele>
        <time>2026-08-24T11:42:54Z</time>
      </trkpt>
      <trkpt lat="54.352055" lon="23.058006">
        <ele>10972.800000000001</ele>
        <time>2026-08-24T11:42:54Z</time>
      </trkpt>
      <trkpt lat="54.347546" lon="23.055597">
        <ele>10972.800000000001</ele>
        <time>2026-08-24T11:42:54Z</time>
      </trkpt>
      <trkpt lat="54.343361" lon="23.053207">
        <ele>10972.800000000001</ele>
        <time>2026-08-24T11:42:54Z</time>
      </trkpt>
      <trkpt lat="54.339264" lon="23.050798">
        <ele>10972.800000000001</ele>
        <time>2026-08-24T11:42:54Z</time>
      </trkpt>
      <trkpt lat="54.334785" lon="23.048067">
        <ele>10972.800000000001</ele>
        <time>2026-08-24T11:42:54Z</time>
      </trkpt>
      <trkpt lat="54.330673" lon="23.045382">
        <ele>10972.800000000001</ele>
        <time>2026-08-24T11:42:54Z</time>
      </trkpt>
      <trkpt lat="54.326317" lon="23.042421">
        <ele>10972.800000000001</ele>
        <time>2026-08-24T11:42:54Z</time>
      </trkpt>
      <trkpt lat="54.32243" lon="23.039665">
        <ele>10972.800000000001</ele>
        <time>2026-08-24T11:42:54Z</time>
      </trkpt>
      <trkpt lat="54.318138" lon="23.036537">
        <ele>10972.800000000001</ele>
        <time>2026-08-24T11:42:54Z</time>
      </trkpt>
      <trkpt lat="54.314106" lon="23.033365">
        <ele>10972.800000000001</ele>
        <time>2026-08-24T11:42:54Z</time>
      </trkpt>
      <trkpt lat="54.309669" lon="23.029839">
        <ele>10972.800000000001</ele>
        <time>2026-08-24T11:42:54Z</time>
      </trkpt>
      <trkpt lat="54.305691" lon="23.02659">
        <ele>10972.800000000001</ele>
        <time>2026-08-24T11:42:54Z</time>
      </trkpt>
      <trkpt lat="54.301636" lon="23.023184">
        <ele>10972.800000000001</ele>
        <time>2026-08-24T11:42:54Z</time>
      </trkpt>
      <trkpt lat="54.297115" lon="23.019176">
        <ele>10972.800000000001</ele>
        <time>2026-08-24T11:42:54Z</time>
      </trkpt>
      <trkpt lat="54.292912" lon="23.015537">
        <ele>10972.800000000001</ele>
        <time>2026-08-24T11:42:54Z</time>
      </trkpt>
      <trkpt lat="54.288639" lon="23.011765">
        <ele>10972.800000000001</ele>
        <time>2026-08-24T11:42:54Z</time>
      </trkpt>
      <trkpt lat="54.284683" lon="23.008341">
        <ele>10972.800000000001</ele>
        <time>2026-08-24T11:42:54Z</time>
      </trkpt>
      <trkpt lat="54.280746" lon="23.004974">
        <ele>10972.800000000001</ele>
        <time>2026-08-24T11:42:54Z</time>
      </trkpt>
      <trkpt lat="54.219791" lon="22.953058">
        <ele>10972.800000000001</ele>
        <time>2026-08-24T11:42:54Z</time>
      </trkpt>
      <trkpt lat="54.159313" lon="22.900663">
        <ele>10972.800000000001</ele>
        <time>2026-08-24T11:42:54Z</time>
      </trkpt>
      <trkpt lat="54.098591" lon="22.848513">
        <ele>10972.800000000001</ele>
        <time>2026-08-24T11:42:54Z</time>
      </trkpt>
      <trkpt lat="54.038727" lon="22.797222">
        <ele>10972.800000000001</ele>
        <time>2026-08-24T11:42:54Z</time>
      </trkpt>
      <trkpt lat="53.977459" lon="22.745346">
        <ele>10972.800000000001</ele>
        <time>2026-08-24T11:42:54Z</time>
      </trkpt>
      <trkpt lat="53.916264" lon="22.693651">
        <ele>10972.800000000001</ele>
        <time>2026-08-24T11:42:54Z</time>
      </trkpt>
      <trkpt lat="53.855297" lon="22.641914">
        <ele>10972.800000000001</ele>
        <time>2026-08-24T11:42:54Z</time>
      </trkpt>
      <trkpt lat="53.793598" lon="22.589722">
        <ele>10972.800000000001</ele>
        <time>2026-08-24T11:42:54Z</time>
      </trkpt>
      <trkpt lat="53.732124" lon="22.53805">
        <ele>10934.7</ele>
        <time>2026-08-24T11:42:54Z</time>
      </trkpt>
      <trkpt lat="53.670895" lon="22.48737">
        <ele>10767.060000000001</ele>
        <time>2026-08-24T11:42:54Z</time>
      </trkpt>
      <trkpt lat="53.609993" lon="22.437155">
        <ele>10515.6</ele>
        <time>2026-08-24T11:42:54Z</time>
      </trkpt>
      <trkpt lat="53.54958" lon="22.386398">
        <ele>10088.880000000001</ele>
        <time>2026-08-24T11:42:54Z</time>
      </trkpt>
      <trkpt lat="53.48716" lon="22.334017">
        <ele>9547.86</ele>
        <time>2026-08-24T11:42:54Z</time>
      </trkpt>
      <trkpt lat="53.425663" lon="22.283266">
        <ele>9128.76</ele>
        <time>2026-08-24T11:42:54Z</time>
      </trkpt>
      <trkpt lat="53.367702" lon="22.235868">
        <ele>8801.1</ele>
        <time>2026-08-24T11:42:54Z</time>
      </trkpt>
      <trkpt lat="53.307526" lon="22.187029">
        <ele>8465.82</ele>
        <time>2026-08-24T11:42:54Z</time>
      </trkpt>
      <trkpt lat="53.248043" lon="22.138975">
        <ele>8130.54</ele>
        <time>2026-08-24T11:42:54Z</time>
      </trkpt>
      <trkpt lat="53.189175" lon="22.091162">
        <ele>7833.360000000001</ele>
        <time>2026-08-24T11:42:54Z</time>
      </trkpt>
      <trkpt lat="53.133289" lon="22.045441">
        <ele>7551.42</ele>
        <time>2026-08-24T11:42:54Z</time>
      </trkpt>
      <trkpt lat="53.093365" lon="22.011276">
        <ele>7322.820000000001</ele>
        <time>2026-08-24T11:42:54Z</time>
      </trkpt>
      <trkpt lat="53.082829" lon="22.001125">
        <ele>7261.860000000001</ele>
        <time>2026-08-24T11:42:54Z</time>
      </trkpt>
      <trkpt lat="53.079247" lon="21.997726">
        <ele>7246.620000000001</ele>
        <time>2026-08-24T11:42:54Z</time>
      </trkpt>
      <trkpt lat="53.075546" lon="21.994154">
        <ele>7223.76</ele>
        <time>2026-08-24T11:42:54Z</time>
      </trkpt>
      <trkpt lat="53.072254" lon="21.990978">
        <ele>7200.900000000001</ele>
        <time>2026-08-24T11:42:54Z</time>
      </trkpt>
      <trkpt lat="53.068851" lon="21.987728">
        <ele>7178.04</ele>
        <time>2026-08-24T11:42:54Z</time>
      </trkpt>
      <trkpt lat="53.065151" lon="21.984133">
        <ele>7162.8</ele>
        <time>2026-08-24T11:42:54Z</time>
      </trkpt>
      <trkpt lat="53.061954" lon="21.981043">
        <ele>7139.9400000000005</ele>
        <time>2026-08-24T11:42:54Z</time>
      </trkpt>
      <trkpt lat="53.058483" lon="21.977657">
        <ele>7117.08</ele>
        <time>2026-08-24T11:42:54Z</time>
      </trkpt>
      <trkpt lat="53.007706" lon="21.928698">
        <ele>6797.04</ele>
        <time>2026-08-24T11:42:54Z</time>
      </trkpt>
      <trkpt lat="52.957199" lon="21.880358">
        <ele>6461.76</ele>
        <time>2026-08-24T11:42:54Z</time>
      </trkpt>
      <trkpt lat="52.907539" lon="21.833239">
        <ele>6172.200000000001</ele>
        <time>2026-08-24T11:42:54Z</time>
      </trkpt>
      <trkpt lat="52.85952" lon="21.787823">
        <ele>5928.360000000001</ele>
        <time>2026-08-24T11:42:54Z</time>
      </trkpt>
      <trkpt lat="52.813076" lon="21.744156">
        <ele>5737.860000000001</ele>
        <time>2026-08-24T11:42:54Z</time>
      </trkpt>
      <trkpt lat="52.76442" lon="21.698143">
        <ele>5417.820000000001</ele>
        <time>2026-08-24T11:42:54Z</time>
      </trkpt>
      <trkpt lat="52.716969" lon="21.653337">
        <ele>5105.400000000001</ele>
        <time>2026-08-24T11:42:54Z</time>
      </trkpt>
      <trkpt lat="52.66991" lon="21.609406">
        <ele>4800.6</ele>
        <time>2026-08-24T11:42:54Z</time>
      </trkpt>
      <trkpt lat="52.624268" lon="21.566751">
        <ele>4511.04</ele>
        <time>2026-08-24T11:42:54Z</time>
      </trkpt>
      <trkpt lat="52.579208" lon="21.524563">
        <ele>4213.860000000001</ele>
        <time>2026-08-24T11:42:54Z</time>
      </trkpt>
      <trkpt lat="52.536869" lon="21.485092">
        <ele>3947.1600000000003</ele>
        <time>2026-08-24T11:42:54Z</time>
      </trkpt>
      <trkpt lat="52.494556" lon="21.445898">
        <ele>3649.98</ele>
        <time>2026-08-24T11:42:54Z</time>
      </trkpt>
      <trkpt lat="52.477409" lon="21.429958">
        <ele>3520.44</ele>
        <time>2026-08-24T11:42:54Z</time>
      </trkpt>
      <trkpt lat="52.460163" lon="21.414005">
        <ele>3398.52</ele>
        <time>2026-08-24T11:42:54Z</time>
      </trkpt>
      <trkpt lat="52.440834" lon="21.396263">
        <ele>3268.98</ele>
        <time>2026-08-24T11:42:54Z</time>
      </trkpt>
      <trkpt lat="52.429153" lon="21.387407">
        <ele>3200.4</ele>
        <time>2026-08-24T11:42:54Z</time>
      </trkpt>
      <trkpt lat="52.426079" lon="21.38538">
        <ele>3192.78</ele>
        <time>2026-08-24T11:42:54Z</time>
      </trkpt>
      <trkpt lat="52.423397" lon="21.383675">
        <ele>3169.92</ele>
        <time>2026-08-24T11:42:54Z</time>
      </trkpt>
      <trkpt lat="52.42041" lon="21.381863">
        <ele>3154.6800000000003</ele>
        <time>2026-08-24T11:42:54Z</time>
      </trkpt>
      <trkpt lat="52.417339" lon="21.380215">
        <ele>3131.82</ele>
        <time>2026-08-24T11:42:54Z</time>
      </trkpt>
      <trkpt lat="52.414364" lon="21.378635">
        <ele>3108.96</ele>
        <time>2026-08-24T11:42:54Z</time>
      </trkpt>
      <trkpt lat="52.411282" lon="21.377161">
        <ele>3093.7200000000003</ele>
        <time>2026-08-24T11:42:54Z</time>
      </trkpt>
      <trkpt lat="52.408119" lon="21.375717">
        <ele>3078.48</ele>
        <time>2026-08-24T11:42:54Z</time>
      </trkpt>
      <trkpt lat="52.405319" lon="21.374523">
        <ele>3070.86</ele>
        <time>2026-08-24T11:42:54Z</time>
      </trkpt>
      <trkpt lat="52.402256" lon="21.373287">
        <ele>3048.0</ele>
        <time>2026-08-24T11:42:54Z</time>
      </trkpt>
      <trkpt lat="52.3992" lon="21.3722">
        <ele>3025.1400000000003</ele>
        <time>2026-08-24T11:42:54Z</time>
      </trkpt>
      <trkpt lat="52.395847" lon="21.371037">
        <ele>3009.9</ele>
        <time>2026-08-24T11:42:54Z</time>
      </trkpt>
      <trkpt lat="52.392826" lon="21.370113">
        <ele>2987.04</ele>
        <time>2026-08-24T11:42:54Z</time>
      </trkpt>
      <trkpt lat="52.389477" lon="21.369146">
        <ele>2964.1800000000003</ele>
        <time>2026-08-24T11:42:54Z</time>
      </trkpt>
      <trkpt lat="52.386631" lon="21.368361">
        <ele>2941.32</ele>
        <time>2026-08-24T11:42:54Z</time>
      </trkpt>
      <trkpt lat="52.38361" lon="21.367443">
        <ele>2926.08</ele>
        <time>2026-08-24T11:42:54Z</time>
      </trkpt>
      <trkpt lat="52.380527" lon="21.366503">
        <ele>2910.84</ele>
        <time>2026-08-24T11:42:54Z</time>
      </trkpt>
      <trkpt lat="52.377563" lon="21.365669">
        <ele>2895.6000000000004</ele>
        <time>2026-08-24T11:42:54Z</time>
      </trkpt>
      <trkpt lat="52.374393" lon="21.364607">
        <ele>2887.98</ele>
        <time>2026-08-24T11:42:54Z</time>
      </trkpt>
      <trkpt lat="52.371571" lon="21.363708">
        <ele>2872.7400000000002</ele>
        <time>2026-08-24T11:42:54Z</time>
      </trkpt>
      <trkpt lat="52.368412" lon="21.362835">
        <ele>2849.88</ele>
        <time>2026-08-24T11:42:54Z</time>
      </trkpt>
      <trkpt lat="52.365467" lon="21.362061">
        <ele>2827.02</ele>
        <time>2026-08-24T11:42:54Z</time>
      </trkpt>
      <trkpt lat="52.362339" lon="21.361061">
        <ele>2811.78</ele>
        <time>2026-08-24T11:42:54Z</time>
      </trkpt>
      <trkpt lat="52.358799" lon="21.359959">
        <ele>2788.92</ele>
        <time>2026-08-24T11:42:54Z</time>
      </trkpt>
      <trkpt lat="52.340195" lon="21.354311">
        <ele>2674.6200000000003</ele>
        <time>2026-08-24T11:42:54Z</time>
      </trkpt>
      <trkpt lat="52.321045" lon="21.348593">
        <ele>2552.7000000000003</ele>
        <time>2026-08-24T11:42:54Z</time>
      </trkpt>
      <trkpt lat="52.303112" lon="21.343241">
        <ele>2476.5</ele>
        <time>2026-08-24T11:42:54Z</time>
      </trkpt>
      <trkpt lat="52.282677" lon="21.337172">
        <ele>2385.06</ele>
        <time>2026-08-24T11:42:54Z</time>
      </trkpt>
      <trkpt lat="52.264809" lon="21.331928">
        <ele>2286.0</ele>
        <time>2026-08-24T11:42:54Z</time>
      </trkpt>
      <trkpt lat="52.244545" lon="21.325935">
        <ele>2179.32</ele>
        <time>2026-08-24T11:42:54Z</time>
      </trkpt>
      <trkpt lat="52.226871" lon="21.320704">
        <ele>2080.26</ele>
        <time>2026-08-24T11:42:54Z</time>
      </trkpt>
      <trkpt lat="52.207764" lon="21.314974">
        <ele>1996.44</ele>
        <time>2026-08-24T11:42:54Z</time>
      </trkpt>
      <trkpt lat="52.188114" lon="21.309193">
        <ele>1920.24</ele>
        <time>2026-08-24T11:42:54Z</time>
      </trkpt>
      <trkpt lat="52.171589" lon="21.304447">
        <ele>1882.14</ele>
        <time>2026-08-24T11:42:54Z</time>
      </trkpt>
      <trkpt lat="52.152943" lon="21.298813">
        <ele>1805.94</ele>
        <time>2026-08-24T11:42:54Z</time>
      </trkpt>
      <trkpt lat="52.136944" lon="21.293953">
        <ele>1737.3600000000001</ele>
        <time>2026-08-24T11:42:54Z</time>
      </trkpt>
      <trkpt lat="52.12104" lon="21.289009">
        <ele>1653.5400000000002</ele>
        <time>2026-08-24T11:42:54Z</time>
      </trkpt>
      <trkpt lat="52.103359" lon="21.283741">
        <ele>1554.48</ele>
        <time>2026-08-24T11:42:54Z</time>
      </trkpt>
      <trkpt lat="52.098404" lon="21.282343">
        <ele>1524.0</ele>
        <time>2026-08-24T11:42:54Z</time>
      </trkpt>
      <trkpt lat="52.096027" lon="21.281612">
        <ele>1508.76</ele>
        <time>2026-08-24T11:42:54Z</time>
      </trkpt>
      <trkpt lat="52.093212" lon="21.280766">
        <ele>1501.14</ele>
        <time>2026-08-24T11:42:54Z</time>
      </trkpt>
      <trkpt lat="52.090721" lon="21.280041">
        <ele>1485.9</ele>
        <time>2026-08-24T11:42:54Z</time>
      </trkpt>
      <trkpt lat="52.088371" lon="21.279408">
        <ele>1470.66</ele>
        <time>2026-08-24T11:42:54Z</time>
      </trkpt>
      <trkpt lat="52.085506" lon="21.278612">
        <ele>1455.42</ele>
        <time>2026-08-24T11:42:54Z</time>
      </trkpt>
      <trkpt lat="52.08308" lon="21.277769">
        <ele>1440.18</ele>
        <time>2026-08-24T11:42:54Z</time>
      </trkpt>
      <trkpt lat="52.080662" lon="21.276993">
        <ele>1424.94</ele>
        <time>2026-08-24T11:42:54Z</time>
      </trkpt>
      <trkpt lat="52.078072" lon="21.276258">
        <ele>1409.7</ele>
        <time>2026-08-24T11:42:54Z</time>
      </trkpt>
      <trkpt lat="52.07568" lon="21.275585">
        <ele>1394.46</ele>
        <time>2026-08-24T11:42:54Z</time>
      </trkpt>
      <trkpt lat="52.07325" lon="21.274851">
        <ele>1379.22</ele>
        <time>2026-08-24T11:42:54Z</time>
      </trkpt>
      <trkpt lat="52.070732" lon="21.274223">
        <ele>1363.98</ele>
        <time>2026-08-24T11:42:54Z</time>
      </trkpt>
      <trkpt lat="52.068237" lon="21.273474">
        <ele>1348.74</ele>
        <time>2026-08-24T11:42:54Z</time>
      </trkpt>
      <trkpt lat="52.065704" lon="21.272665">
        <ele>1333.5</ele>
        <time>2026-08-24T11:42:54Z</time>
      </trkpt>
      <trkpt lat="52.06311" lon="21.27199">
        <ele>1318.26</ele>
        <time>2026-08-24T11:42:54Z</time>
      </trkpt>
      <trkpt lat="52.060539" lon="21.271286">
        <ele>1303.02</ele>
        <time>2026-08-24T11:42:54Z</time>
      </trkpt>
      <trkpt lat="52.057884" lon="21.270573">
        <ele>1295.4</ele>
        <time>2026-08-24T11:42:54Z</time>
      </trkpt>
      <trkpt lat="52.05521" lon="21.269682">
        <ele>1272.54</ele>
        <time>2026-08-24T11:42:54Z</time>
      </trkpt>
      <trkpt lat="52.052902" lon="21.269035">
        <ele>1257.3</ele>
        <time>2026-08-24T11:42:54Z</time>
      </trkpt>
      <trkpt lat="52.0504" lon="21.268316">
        <ele>1249.68</ele>
        <time>2026-08-24T11:42:54Z</time>
      </trkpt>
      <trkpt lat="52.048023" lon="21.267643">
        <ele>1234.44</ele>
        <time>2026-08-24T11:42:54Z</time>
      </trkpt>
      <trkpt lat="52.045345" lon="21.266796">
        <ele>1219.2</ele>
        <time>2026-08-24T11:42:54Z</time>
      </trkpt>
      <trkpt lat="52.042782" lon="21.2661">
        <ele>1211.5800000000002</ele>
        <time>2026-08-24T11:42:54Z</time>
      </trkpt>
      <trkpt lat="52.040386" lon="21.265423">
        <ele>1196.3400000000001</ele>
        <time>2026-08-24T11:42:54Z</time>
      </trkpt>
      <trkpt lat="52.037907" lon="21.264767">
        <ele>1181.1000000000001</ele>
        <time>2026-08-24T11:42:54Z</time>
      </trkpt>
      <trkpt lat="52.030544" lon="21.262465">
        <ele>1135.38</ele>
        <time>2026-08-24T11:42:54Z</time>
      </trkpt>
      <trkpt lat="52.028099" lon="21.261465">
        <ele>1127.76</ele>
        <time>2026-08-24T11:42:54Z</time>
      </trkpt>
      <trkpt lat="52.025726" lon="21.26033">
        <ele>1120.14</ele>
        <time>2026-08-24T11:42:54Z</time>
      </trkpt>
      <trkpt lat="52.02343" lon="21.258823">
        <ele>1120.14</ele>
        <time>2026-08-24T11:42:54Z</time>
      </trkpt>
      <trkpt lat="52.021324" lon="21.257198">
        <ele>1112.52</ele>
        <time>2026-08-24T11:42:54Z</time>
      </trkpt>
      <trkpt lat="52.019279" lon="21.255123">
        <ele>1104.9</ele>
        <time>2026-08-24T11:42:54Z</time>
      </trkpt>
      <trkpt lat="52.017124" lon="21.252518">
        <ele>1104.9</ele>
        <time>2026-08-24T11:42:54Z</time>
      </trkpt>
      <trkpt lat="52.015205" lon="21.249516">
        <ele>1097.28</ele>
        <time>2026-08-24T11:42:54Z</time>
      </trkpt>
      <trkpt lat="52.013905" lon="21.24716">
        <ele>1089.66</ele>
        <time>2026-08-24T11:42:54Z</time>
      </trkpt>
      <trkpt lat="52.012478" lon="21.243874">
        <ele>1089.66</ele>
        <time>2026-08-24T11:42:54Z</time>
      </trkpt>
      <trkpt lat="52.011353" lon="21.240736">
        <ele>1082.04</ele>
        <time>2026-08-24T11:42:54Z</time>
      </trkpt>
      <trkpt lat="52.01033" lon="21.237492">
        <ele>1074.42</ele>
        <time>2026-08-24T11:42:54Z</time>
      </trkpt>
      <trkpt lat="52.00956" lon="21.233711">
        <ele>1074.42</ele>
        <time>2026-08-24T11:42:54Z</time>
      </trkpt>
      <trkpt lat="52.008907" lon="21.230173">
        <ele>1066.8</ele>
        <time>2026-08-24T11:42:54Z</time>
      </trkpt>
      <trkpt lat="52.008381" lon="21.22654">
        <ele>1059.18</ele>
        <time>2026-08-24T11:42:54Z</time>
      </trkpt>
      <trkpt lat="52.008003" lon="21.223038">
        <ele>1051.56</ele>
        <time>2026-08-24T11:42:54Z</time>
      </trkpt>
      <trkpt lat="52.007748" lon="21.219452">
        <ele>1051.56</ele>
        <time>2026-08-24T11:42:54Z</time>
      </trkpt>
      <trkpt lat="52.007618" lon="21.216074">
        <ele>1043.94</ele>
        <time>2026-08-24T11:42:54Z</time>
      </trkpt>
      <trkpt lat="52.007504" lon="21.212734">
        <ele>1036.3200000000002</ele>
        <time>2026-08-24T11:42:54Z</time>
      </trkpt>
      <trkpt lat="52.007431" lon="21.209396">
        <ele>1036.3200000000002</ele>
        <time>2026-08-24T11:42:54Z</time>
      </trkpt>
      <trkpt lat="52.007534" lon="21.205624">
        <ele>1028.7</ele>
        <time>2026-08-24T11:42:54Z</time>
      </trkpt>
      <trkpt lat="52.00771" lon="21.202299">
        <ele>1021.08</ele>
        <time>2026-08-24T11:42:54Z</time>
      </trkpt>
      <trkpt lat="52.007984" lon="21.198874">
        <ele>1013.46</ele>
        <time>2026-08-24T11:42:54Z</time>
      </trkpt>
      <trkpt lat="52.008232" lon="21.195288">
        <ele>1013.46</ele>
        <time>2026-08-24T11:42:54Z</time>
      </trkpt>
      <trkpt lat="52.008465" lon="21.192177">
        <ele>1005.84</ele>
        <time>2026-08-24T11:42:54Z</time>
      </trkpt>
      <trkpt lat="52.008675" lon="21.18902">
        <ele>998.22</ele>
        <time>2026-08-24T11:42:54Z</time>
      </trkpt>
      <trkpt lat="52.046452" lon="21.138714">
        <ele>998.22</ele>
        <time>2026-08-24T11:42:54Z</time>
      </trkpt>
      <trkpt lat="52.010319" lon="21.157892">
        <ele>960.12</ele>
        <time>2026-08-24T11:42:54Z</time>
      </trkpt>
      <trkpt lat="52.010479" lon="21.154612">
        <ele>952.5</ele>
        <time>2026-08-24T11:42:54Z</time>
      </trkpt>
      <trkpt lat="52.010635" lon="21.151512">
        <ele>952.5</ele>
        <time>2026-08-24T11:42:54Z</time>
      </trkpt>
      <trkpt lat="52.010761" lon="21.148438">
        <ele>944.88</ele>
        <time>2026-08-24T11:42:54Z</time>
      </trkpt>
      <trkpt lat="52.010914" lon="21.145206">
        <ele>944.88</ele>
        <time>2026-08-24T11:42:54Z</time>
      </trkpt>
      <trkpt lat="52.01104" lon="21.141785">
        <ele>937.26</ele>
        <time>2026-08-24T11:42:54Z</time>
      </trkpt>
      <trkpt lat="52.011414" lon="21.132906">
        <ele>922.0200000000001</ele>
        <time>2026-08-24T11:42:54Z</time>
      </trkpt>
      <trkpt lat="52.012074" lon="21.119585">
        <ele>899.1600000000001</ele>
        <time>2026-08-24T11:42:54Z</time>
      </trkpt>
      <trkpt lat="52.01284" lon="21.110443">
        <ele>868.6800000000001</ele>
        <time>2026-08-24T11:42:54Z</time>
      </trkpt>
      <trkpt lat="52.013245" lon="21.107447">
        <ele>861.0600000000001</ele>
        <time>2026-08-24T11:42:54Z</time>
      </trkpt>
      <trkpt lat="52.013973" lon="21.104259">
        <ele>861.0600000000001</ele>
        <time>2026-08-24T11:42:54Z</time>
      </trkpt>
      <trkpt lat="52.014786" lon="21.101351">
        <ele>861.0600000000001</ele>
        <time>2026-08-24T11:42:54Z</time>
      </trkpt>
      <trkpt lat="52.015648" lon="21.099134">
        <ele>861.0600000000001</ele>
        <time>2026-08-24T11:42:54Z</time>
      </trkpt>
      <trkpt lat="52.016911" lon="21.096519">
        <ele>861.0600000000001</ele>
        <time>2026-08-24T11:42:54Z</time>
      </trkpt>
      <trkpt lat="52.01823" lon="21.09444">
        <ele>868.6800000000001</ele>
        <time>2026-08-24T11:42:54Z</time>
      </trkpt>
      <trkpt lat="52.020008" lon="21.092325">
        <ele>868.6800000000001</ele>
        <time>2026-08-24T11:42:54Z</time>
      </trkpt>
      <trkpt lat="52.02169" lon="21.090651">
        <ele>861.0600000000001</ele>
        <time>2026-08-24T11:42:54Z</time>
      </trkpt>
      <trkpt lat="52.023438" lon="21.089224">
        <ele>861.0600000000001</ele>
        <time>2026-08-24T11:42:54Z</time>
      </trkpt>
      <trkpt lat="52.025227" lon="21.088097">
        <ele>853.44</ele>
        <time>2026-08-24T11:42:54Z</time>
      </trkpt>
      <trkpt lat="52.026928" lon="21.086866">
        <ele>861.0600000000001</ele>
        <time>2026-08-24T11:42:54Z</time>
      </trkpt>
      <trkpt lat="52.028786" lon="21.085732">
        <ele>861.0600000000001</ele>
        <time>2026-08-24T11:42:54Z</time>
      </trkpt>
      <trkpt lat="52.030571" lon="21.084635">
        <ele>861.0600000000001</ele>
        <time>2026-08-24T11:42:54Z</time>
      </trkpt>
      <trkpt lat="52.032494" lon="21.083345">
        <ele>853.44</ele>
        <time>2026-08-24T11:42:54Z</time>
      </trkpt>
      <trkpt lat="52.034073" lon="21.082296">
        <ele>845.82</ele>
        <time>2026-08-24T11:42:54Z</time>
      </trkpt>
      <trkpt lat="52.035728" lon="21.080992">
        <ele>838.2</ele>
        <time>2026-08-24T11:42:54Z</time>
      </trkpt>
      <trkpt lat="52.03727" lon="21.079775">
        <ele>830.58</ele>
        <time>2026-08-24T11:42:54Z</time>
      </trkpt>
      <trkpt lat="52.038799" lon="21.078459">
        <ele>822.96</ele>
        <time>2026-08-24T11:42:54Z</time>
      </trkpt>
      <trkpt lat="52.040325" lon="21.077188">
        <ele>815.34</ele>
        <time>2026-08-24T11:42:54Z</time>
      </trkpt>
      <trkpt lat="52.04192" lon="21.075714">
        <ele>800.1</ele>
        <time>2026-08-24T11:42:54Z</time>
      </trkpt>
      <trkpt lat="52.043484" lon="21.074312">
        <ele>792.48</ele>
        <time>2026-08-24T11:42:54Z</time>
      </trkpt>
      <trkpt lat="52.04512" lon="21.072721">
        <ele>784.86</ele>
        <time>2026-08-24T11:42:54Z</time>
      </trkpt>
      <trkpt lat="52.046608" lon="21.071474">
        <ele>769.62</ele>
        <time>2026-08-24T11:42:54Z</time>
      </trkpt>
      <trkpt lat="52.048046" lon="21.070272">
        <ele>762.0</ele>
        <time>2026-08-24T11:42:54Z</time>
      </trkpt>
      <trkpt lat="52.04948" lon="21.068953">
        <ele>746.76</ele>
        <time>2026-08-24T11:42:54Z</time>
      </trkpt>
      <trkpt lat="52.05093" lon="21.067621">
        <ele>739.14</ele>
        <time>2026-08-24T11:42:54Z</time>
      </trkpt>
      <trkpt lat="52.052376" lon="21.066347">
        <ele>731.52</ele>
        <time>2026-08-24T11:42:54Z</time>
      </trkpt>
      <trkpt lat="52.053841" lon="21.065035">
        <ele>723.9000000000001</ele>
        <time>2026-08-24T11:42:54Z</time>
      </trkpt>
      <trkpt lat="52.055191" lon="21.063892">
        <ele>716.2800000000001</ele>
        <time>2026-08-24T11:42:54Z</time>
      </trkpt>
      <trkpt lat="52.056507" lon="21.062674">
        <ele>701.0400000000001</ele>
        <time>2026-08-24T11:42:54Z</time>
      </trkpt>
      <trkpt lat="52.058033" lon="21.061304">
        <ele>693.4200000000001</ele>
        <time>2026-08-24T11:42:54Z</time>
      </trkpt>
      <trkpt lat="52.059662" lon="21.059866">
        <ele>685.8000000000001</ele>
        <time>2026-08-24T11:42:54Z</time>
      </trkpt>
      <trkpt lat="52.061378" lon="21.058376">
        <ele>678.1800000000001</ele>
        <time>2026-08-24T11:42:54Z</time>
      </trkpt>
      <trkpt lat="52.062691" lon="21.057289">
        <ele>670.5600000000001</ele>
        <time>2026-08-24T11:42:54Z</time>
      </trkpt>
      <trkpt lat="52.06406" lon="21.056038">
        <ele>655.32</ele>
        <time>2026-08-24T11:42:54Z</time>
      </trkpt>
      <trkpt lat="52.065502" lon="21.054754">
        <ele>647.7</ele>
        <time>2026-08-24T11:42:54Z</time>
      </trkpt>
      <trkpt lat="52.066902" lon="21.05356">
        <ele>640.08</ele>
        <time>2026-08-24T11:42:54Z</time>
      </trkpt>
      <trkpt lat="52.068325" lon="21.052351">
        <ele>632.46</ele>
        <time>2026-08-24T11:42:54Z</time>
      </trkpt>
      <trkpt lat="52.069679" lon="21.051201">
        <ele>617.22</ele>
        <time>2026-08-24T11:42:54Z</time>
      </trkpt>
      <trkpt lat="52.071114" lon="21.049841">
        <ele>609.6</ele>
        <time>2026-08-24T11:42:54Z</time>
      </trkpt>
      <trkpt lat="52.072433" lon="21.048683">
        <ele>601.98</ele>
        <time>2026-08-24T11:42:54Z</time>
      </trkpt>
      <trkpt lat="52.073803" lon="21.047592">
        <ele>594.36</ele>
        <time>2026-08-24T11:42:54Z</time>
      </trkpt>
      <trkpt lat="52.075287" lon="21.046276">
        <ele>586.74</ele>
        <time>2026-08-24T11:42:54Z</time>
      </trkpt>
      <trkpt lat="52.076832" lon="21.045019">
        <ele>571.5</ele>
        <time>2026-08-24T11:42:54Z</time>
      </trkpt>
      <trkpt lat="52.078094" lon="21.043909">
        <ele>563.88</ele>
        <time>2026-08-24T11:42:54Z</time>
      </trkpt>
      <trkpt lat="52.079441" lon="21.042765">
        <ele>556.26</ele>
        <time>2026-08-24T11:42:54Z</time>
      </trkpt>
      <trkpt lat="52.080841" lon="21.041452">
        <ele>548.64</ele>
        <time>2026-08-24T11:42:54Z</time>
      </trkpt>
      <trkpt lat="52.082306" lon="21.040136">
        <ele>541.02</ele>
        <time>2026-08-24T11:42:54Z</time>
      </trkpt>
      <trkpt lat="52.083771" lon="21.038837">
        <ele>533.4</ele>
        <time>2026-08-24T11:42:54Z</time>
      </trkpt>
      <trkpt lat="52.085285" lon="21.037544">
        <ele>518.1600000000001</ele>
        <time>2026-08-24T11:42:54Z</time>
      </trkpt>
      <trkpt lat="52.086613" lon="21.036331">
        <ele>510.54</ele>
        <time>2026-08-24T11:42:54Z</time>
      </trkpt>
      <trkpt lat="52.088089" lon="21.035109">
        <ele>502.92</ele>
        <time>2026-08-24T11:42:54Z</time>
      </trkpt>
      <trkpt lat="52.089638" lon="21.033831">
        <ele>487.68</ele>
        <time>2026-08-24T11:42:54Z</time>
      </trkpt>
      <trkpt lat="52.091095" lon="21.032578">
        <ele>480.06</ele>
        <time>2026-08-24T11:42:54Z</time>
      </trkpt>
      <trkpt lat="52.092403" lon="21.031427">
        <ele>472.44</ele>
        <time>2026-08-24T11:42:54Z</time>
      </trkpt>
      <trkpt lat="52.093983" lon="21.030083">
        <ele>464.82000000000005</ele>
        <time>2026-08-24T11:42:54Z</time>
      </trkpt>
      <trkpt lat="52.095165" lon="21.029047">
        <ele>449.58000000000004</ele>
        <time>2026-08-24T11:42:54Z</time>
      </trkpt>
      <trkpt lat="52.096733" lon="21.027647">
        <ele>441.96000000000004</ele>
        <time>2026-08-24T11:42:54Z</time>
      </trkpt>
      <trkpt lat="52.098011" lon="21.026579">
        <ele>434.34000000000003</ele>
        <time>2026-08-24T11:42:54Z</time>
      </trkpt>
      <trkpt lat="52.09935" lon="21.025423">
        <ele>419.1</ele>
        <time>2026-08-24T11:42:54Z</time>
      </trkpt>
      <trkpt lat="52.104771" lon="21.020592">
        <ele>388.62</ele>
        <time>2026-08-24T11:42:54Z</time>
      </trkpt>
      <trkpt lat="52.106201" lon="21.019419">
        <ele>381.0</ele>
        <time>2026-08-24T11:42:54Z</time>
      </trkpt>
      <trkpt lat="52.107441" lon="21.018288">
        <ele>373.38</ele>
        <time>2026-08-24T11:42:54Z</time>
      </trkpt>
      <trkpt lat="52.108795" lon="21.017155">
        <ele>365.76</ele>
        <time>2026-08-24T11:42:54Z</time>
      </trkpt>
      <trkpt lat="52.110023" lon="21.016052">
        <ele>358.14000000000004</ele>
        <time>2026-08-24T11:42:54Z</time>
      </trkpt>
      <trkpt lat="52.111385" lon="21.014822">
        <ele>350.52000000000004</ele>
        <time>2026-08-24T11:42:54Z</time>
      </trkpt>
      <trkpt lat="52.112572" lon="21.013775">
        <ele>335.28000000000003</ele>
        <time>2026-08-24T11:42:54Z</time>
      </trkpt>
      <trkpt lat="52.115276" lon="21.01149">
        <ele>320.04</ele>
        <time>2026-08-24T11:42:54Z</time>
      </trkpt>
      <trkpt lat="52.116531" lon="21.010391">
        <ele>312.42</ele>
        <time>2026-08-24T11:42:54Z</time>
      </trkpt>
      <trkpt lat="52.117775" lon="21.009308">
        <ele>304.8</ele>
        <time>2026-08-24T11:42:54Z</time>
      </trkpt>
      <trkpt lat="52.119083" lon="21.008215">
        <ele>297.18</ele>
        <time>2026-08-24T11:42:54Z</time>
      </trkpt>
      <trkpt lat="52.120235" lon="21.007113">
        <ele>289.56</ele>
        <time>2026-08-24T11:42:54Z</time>
      </trkpt>
      <trkpt lat="52.121563" lon="21.005936">
        <ele>274.32</ele>
        <time>2026-08-24T11:42:54Z</time>
      </trkpt>
      <trkpt lat="52.122784" lon="21.004818">
        <ele>266.7</ele>
        <time>2026-08-24T11:42:54Z</time>
      </trkpt>
      <trkpt lat="52.124062" lon="21.003643">
        <ele>259.08000000000004</ele>
        <time>2026-08-24T11:42:54Z</time>
      </trkpt>
      <trkpt lat="52.125526" lon="21.002485">
        <ele>251.46</ele>
        <time>2026-08-24T11:42:54Z</time>
      </trkpt>
      <trkpt lat="52.126926" lon="21.001307">
        <ele>243.84</ele>
        <time>2026-08-24T11:42:54Z</time>
      </trkpt>
      <trkpt lat="52.128365" lon="21.000164">
        <ele>228.60000000000002</ele>
        <time>2026-08-24T11:42:54Z</time>
      </trkpt>
      <trkpt lat="52.129539" lon="20.999079">
        <ele>220.98000000000002</ele>
        <time>2026-08-24T11:42:54Z</time>
      </trkpt>
      <trkpt lat="52.130772" lon="20.997961">
        <ele>213.36</ele>
        <time>2026-08-24T11:42:54Z</time>
      </trkpt>
      <trkpt lat="52.132042" lon="20.996918">
        <ele>205.74</ele>
        <time>2026-08-24T11:42:54Z</time>
      </trkpt>
      <trkpt lat="52.133358" lon="20.995739">
        <ele>198.12</ele>
        <time>2026-08-24T11:42:54Z</time>
      </trkpt>
      <trkpt lat="52.134289" lon="20.994585">
        <ele>190.5</ele>
        <time>2026-08-24T11:42:54Z</time>
      </trkpt>
      <trkpt lat="52.135445" lon="20.993418">
        <ele>182.88</ele>
        <time>2026-08-24T11:42:54Z</time>
      </trkpt>
      <trkpt lat="52.13657" lon="20.992498">
        <ele>175.26000000000002</ele>
        <time>2026-08-24T11:42:54Z</time>
      </trkpt>
      <trkpt lat="52.137836" lon="20.99143">
        <ele>167.64000000000001</ele>
        <time>2026-08-24T11:42:54Z</time>
      </trkpt>
      <trkpt lat="52.139118" lon="20.990274">
        <ele>152.4</ele>
        <time>2026-08-24T11:42:54Z</time>
      </trkpt>
      <trkpt lat="52.140663" lon="20.988831">
        <ele>144.78</ele>
        <time>2026-08-24T11:42:54Z</time>
      </trkpt>
      <trkpt lat="52.142078" lon="20.987494">
        <ele>137.16</ele>
        <time>2026-08-24T11:42:54Z</time>
      </trkpt>
      <trkpt lat="52.142933" lon="20.986723">
        <ele>129.54000000000002</ele>
        <time>2026-08-24T11:42:54Z</time>
      </trkpt>
      <trkpt lat="52.144215" lon="20.985594">
        <ele>121.92</ele>
        <time>2026-08-24T11:42:54Z</time>
      </trkpt>
    </trkseg>
  </trk>
</gpx>