<?xml version="1.0" encoding="UTF-8"?>
<gpx xmlns="http://www.topografix.com/GPX/1/1" xmlns:xsi="http://www.w3.org/2001/XMLSchema-instance" xsi:schemaLocation="http://www.topografix.com/GPX/1/1 http://www.topografix.com/GPX/1/1/gpx.xsd" version="1.1" creator="gpx.py -- https://github.com/tkrajina/gpxpy">
  <metadata>
    <name>U23292_418041e7</name>
    <time>2026-09-04T09:13:02Z</time>
  </metadata>
  <trk>
    <name>U23292_418041e7</name>
    <cmt>2026-09-04</cmt>
    <type>Plane</type>
    <trkseg>
      <trkpt lat="46.233501" lon="6.109772">
        <ele>0.1</ele>
        <time>2026-09-04T09:13:02Z</time>
      </trkpt>
      <trkpt lat="46.233696" lon="6.109504">
        <ele>0.0</ele>
        <time>2026-09-04T09:13:02Z</time>
      </trkpt>
      <trkpt lat="46.233971" lon="6.109236">
        <ele>0.0</ele>
        <time>2026-09-04T09:13:02Z</time>
      </trkpt>
      <trkpt lat="46.234253" lon="6.109463">
        <ele>0.0</ele>
        <time>2026-09-04T09:13:02Z</time>
      </trkpt>
      <trkpt lat="46.234417" lon="6.109705">
        <ele>0.0</ele>
        <time>2026-09-04T09:13:02Z</time>
      </trkpt>
      <trkpt lat="46.234692" lon="6.110106">
        <ele>0.0</ele>
        <time>2026-09-04T09:13:02Z</time>
      </trkpt>
      <trkpt lat="46.234951" lon="6.110476">
        <ele>0.0</ele>
        <time>2026-09-04T09:13:02Z</time>
      </trkpt>
      <trkpt lat="46.235287" lon="6.110978">
        <ele>0.0</ele>
        <time>2026-09-04T09:13:02Z</time>
      </trkpt>
      <trkpt lat="46.235584" lon="6.11143">
        <ele>0.0</ele>
        <time>2026-09-04T09:13:02Z</time>
      </trkpt>
      <trkpt lat="46.235939" lon="6.11166">
        <ele>0.0</ele>
        <time>2026-09-04T09:13:02Z</time>
      </trkpt>
      <trkpt lat="46.236252" lon="6.111334">
        <ele>0.0</ele>
        <time>2026-09-04T09:13:02Z</time>
      </trkpt>
      <trkpt lat="46.236397" lon="6.111095">
        <ele>0.0</ele>
        <time>2026-09-04T09:13:02Z</time>
      </trkpt>
      <trkpt lat="46.236568" lon="6.11086">
        <ele>0.0</ele>
        <time>2026-09-04T09:13:02Z</time>
      </trkpt>
      <trkpt lat="46.236774" lon="6.110693">
        <ele>0.0</ele>
        <time>2026-09-04T09:13:02Z</time>
      </trkpt>
      <trkpt lat="46.237022" lon="6.110767">
        <ele>0.0</ele>
        <time>2026-09-04T09:13:02Z</time>
      </trkpt>
      <trkpt lat="46.237198" lon="6.111011">
        <ele>0.0</ele>
        <time>2026-09-04T09:13:02Z</time>
      </trkpt>
      <trkpt lat="46.237358" lon="6.111248">
        <ele>0.0</ele>
        <time>2026-09-04T09:13:02Z</time>
      </trkpt>
      <trkpt lat="46.237522" lon="6.111488">
        <ele>0.0</ele>
        <time>2026-09-04T09:13:02Z</time>
      </trkpt>
      <trkpt lat="46.237671" lon="6.111712">
        <ele>0.0</ele>
        <time>2026-09-04T09:13:02Z</time>
      </trkpt>
      <trkpt lat="46.237823" lon="6.111935">
        <ele>0.0</ele>
        <time>2026-09-04T09:13:02Z</time>
      </trkpt>
      <trkpt lat="46.237988" lon="6.112184">
        <ele>0.0</ele>
        <time>2026-09-04T09:13:02Z</time>
      </trkpt>
      <trkpt lat="46.238255" lon="6.11257">
        <ele>0.0</ele>
        <time>2026-09-04T09:13:02Z</time>
      </trkpt>
      <trkpt lat="46.238567" lon="6.113033">
        <ele>0.0</ele>
        <time>2026-09-04T09:13:02Z</time>
      </trkpt>
      <trkpt lat="46.238953" lon="6.1136">
        <ele>0.0</ele>
        <time>2026-09-04T09:13:02Z</time>
      </trkpt>
      <trkpt lat="46.239372" lon="6.114193">
        <ele>0.0</ele>
        <time>2026-09-04T09:13:02Z</time>
      </trkpt>
      <trkpt lat="46.239853" lon="6.114913">
        <ele>0.0</ele>
        <time>2026-09-04T09:13:02Z</time>
      </trkpt>
      <trkpt lat="46.240379" lon="6.115684">
        <ele>0.0</ele>
        <time>2026-09-04T09:13:02Z</time>
      </trkpt>
      <trkpt lat="46.240849" lon="6.11637">
        <ele>0.0</ele>
        <time>2026-09-04T09:13:02Z</time>
      </trkpt>
      <trkpt lat="46.241707" lon="6.117643">
        <ele>0.0</ele>
        <time>2026-09-04T09:13:02Z</time>
      </trkpt>
      <trkpt lat="46.242329" lon="6.118544">
        <ele>0.0</ele>
        <time>2026-09-04T09:13:02Z</time>
      </trkpt>
      <trkpt lat="46.243061" lon="6.119625">
        <ele>0.0</ele>
        <time>2026-09-04T09:13:02Z</time>
      </trkpt>
      <trkpt lat="46.243572" lon="6.12038">
        <ele>0.0</ele>
        <time>2026-09-04T09:13:02Z</time>
      </trkpt>
      <trkpt lat="46.244492" lon="6.121719">
        <ele>0.0</ele>
        <time>2026-09-04T09:13:02Z</time>
      </trkpt>
      <trkpt lat="46.244957" lon="6.122399">
        <ele>0.0</ele>
        <time>2026-09-04T09:13:02Z</time>
      </trkpt>
      <trkpt lat="46.246056" lon="6.124007">
        <ele>0.0</ele>
        <time>2026-09-04T09:13:02Z</time>
      </trkpt>
      <trkpt lat="46.246365" lon="6.124476">
        <ele>0.0</ele>
        <time>2026-09-04T09:13:02Z</time>
      </trkpt>
      <trkpt lat="46.247726" lon="6.126469">
        <ele>0.0</ele>
        <time>2026-09-04T09:13:02Z</time>
      </trkpt>
      <trkpt lat="46.248077" lon="6.126715">
        <ele>0.0</ele>
        <time>2026-09-04T09:13:02Z</time>
      </trkpt>
      <trkpt lat="46.248367" lon="6.126837">
        <ele>0.0</ele>
        <time>2026-09-04T09:13:02Z</time>
      </trkpt>
      <trkpt lat="46.248608" lon="6.126955">
        <ele>0.0</ele>
        <time>2026-09-04T09:13:02Z</time>
      </trkpt>
      <trkpt lat="46.249146" lon="6.127189">
        <ele>0.0</ele>
        <time>2026-09-04T09:13:02Z</time>
      </trkpt>
      <trkpt lat="46.249489" lon="6.127357">
        <ele>0.0</ele>
        <time>2026-09-04T09:13:02Z</time>
      </trkpt>
      <trkpt lat="46.249729" lon="6.127424">
        <ele>0.0</ele>
        <time>2026-09-04T09:13:02Z</time>
      </trkpt>
      <trkpt lat="46.250107" lon="6.127223">
        <ele>0.0</ele>
        <time>2026-09-04T09:13:02Z</time>
      </trkpt>
      <trkpt lat="46.250278" lon="6.126972">
        <ele>0.0</ele>
        <time>2026-09-04T09:13:02Z</time>
      </trkpt>
      <trkpt lat="46.250324" lon="6.12677">
        <ele>0.0</ele>
        <time>2026-09-04T09:13:02Z</time>
      </trkpt>
      <trkpt lat="46.250095" lon="6.126603">
        <ele>0.0</ele>
        <time>2026-09-04T09:13:02Z</time>
      </trkpt>
      <trkpt lat="46.249866" lon="6.126285">
        <ele>0.0</ele>
        <time>2026-09-04T09:13:02Z</time>
      </trkpt>
      <trkpt lat="46.248665" lon="6.124526">
        <ele>0.0</ele>
        <time>2026-09-04T09:13:02Z</time>
      </trkpt>
      <trkpt lat="46.243595" lon="6.117119">
        <ele>358.14000000000004</ele>
        <time>2026-09-04T09:13:02Z</time>
      </trkpt>
      <trkpt lat="46.239487" lon="6.111011">
        <ele>350.52000000000004</ele>
        <time>2026-09-04T09:13:02Z</time>
      </trkpt>
      <trkpt lat="46.234589" lon="6.10391">
        <ele>464.82000000000005</ele>
        <time>2026-09-04T09:13:02Z</time>
      </trkpt>
      <trkpt lat="46.230743" lon="6.098417">
        <ele>571.5</ele>
        <time>2026-09-04T09:13:02Z</time>
      </trkpt>
      <trkpt lat="46.226139" lon="6.091919">
        <ele>701.0400000000001</ele>
        <time>2026-09-04T09:13:02Z</time>
      </trkpt>
      <trkpt lat="46.221313" lon="6.085287">
        <ele>822.96</ele>
        <time>2026-09-04T09:13:02Z</time>
      </trkpt>
      <trkpt lat="46.217331" lon="6.079928">
        <ele>922.0200000000001</ele>
        <time>2026-09-04T09:13:02Z</time>
      </trkpt>
      <trkpt lat="46.212387" lon="6.073564">
        <ele>1043.94</ele>
        <time>2026-09-04T09:13:02Z</time>
      </trkpt>
      <trkpt lat="46.207214" lon="6.067066">
        <ele>1165.8600000000001</ele>
        <time>2026-09-04T09:13:02Z</time>
      </trkpt>
      <trkpt lat="46.203461" lon="6.062175">
        <ele>1257.3</ele>
        <time>2026-09-04T09:13:02Z</time>
      </trkpt>
      <trkpt lat="46.198608" lon="6.055543">
        <ele>1363.98</ele>
        <time>2026-09-04T09:13:02Z</time>
      </trkpt>
      <trkpt lat="46.193619" lon="6.048376">
        <ele>1432.5600000000002</ele>
        <time>2026-09-04T09:13:02Z</time>
      </trkpt>
      <trkpt lat="46.192429" lon="6.046567">
        <ele>1447.8000000000002</ele>
        <time>2026-09-04T09:13:02Z</time>
      </trkpt>
      <trkpt lat="46.191273" lon="6.044815">
        <ele>1463.04</ele>
        <time>2026-09-04T09:13:02Z</time>
      </trkpt>
      <trkpt lat="46.189968" lon="6.042824">
        <ele>1478.28</ele>
        <time>2026-09-04T09:13:02Z</time>
      </trkpt>
      <trkpt lat="46.188812" lon="6.041007">
        <ele>1493.52</ele>
        <time>2026-09-04T09:13:02Z</time>
      </trkpt>
      <trkpt lat="46.187485" lon="6.038997">
        <ele>1508.76</ele>
        <time>2026-09-04T09:13:02Z</time>
      </trkpt>
      <trkpt lat="46.186203" lon="6.036921">
        <ele>1524.0</ele>
        <time>2026-09-04T09:13:02Z</time>
      </trkpt>
      <trkpt lat="46.176727" lon="6.021646">
        <ele>1623.0600000000002</ele>
        <time>2026-09-04T09:13:02Z</time>
      </trkpt>
      <trkpt lat="46.167709" lon="6.006842">
        <ele>1714.5</ele>
        <time>2026-09-04T09:13:02Z</time>
      </trkpt>
      <trkpt lat="46.156998" lon="5.989425">
        <ele>1889.76</ele>
        <time>2026-09-04T09:13:02Z</time>
      </trkpt>
      <trkpt lat="46.147095" lon="5.973404">
        <ele>2080.26</ele>
        <time>2026-09-04T09:13:02Z</time>
      </trkpt>
      <trkpt lat="46.135502" lon="5.954796">
        <ele>2316.48</ele>
        <time>2026-09-04T09:13:02Z</time>
      </trkpt>
      <trkpt lat="46.125542" lon="5.938797">
        <ele>2506.98</ele>
        <time>2026-09-04T09:13:02Z</time>
      </trkpt>
      <trkpt lat="46.121567" lon="5.930809">
        <ele>2590.8</ele>
        <time>2026-09-04T09:13:02Z</time>
      </trkpt>
      <trkpt lat="46.120377" lon="5.927727">
        <ele>2621.28</ele>
        <time>2026-09-04T09:13:02Z</time>
      </trkpt>
      <trkpt lat="46.119141" lon="5.923707">
        <ele>2659.38</ele>
        <time>2026-09-04T09:13:02Z</time>
      </trkpt>
      <trkpt lat="46.118362" lon="5.920693">
        <ele>2689.86</ele>
        <time>2026-09-04T09:13:02Z</time>
      </trkpt>
      <trkpt lat="46.11758" lon="5.916756">
        <ele>2720.34</ele>
        <time>2026-09-04T09:13:02Z</time>
      </trkpt>
      <trkpt lat="46.117172" lon="5.913525">
        <ele>2750.82</ele>
        <time>2026-09-04T09:13:02Z</time>
      </trkpt>
      <trkpt lat="46.116837" lon="5.910095">
        <ele>2781.3</ele>
        <time>2026-09-04T09:13:02Z</time>
      </trkpt>
      <trkpt lat="46.116714" lon="5.906558">
        <ele>2811.78</ele>
        <time>2026-09-04T09:13:02Z</time>
      </trkpt>
      <trkpt lat="46.116787" lon="5.903229">
        <ele>2842.26</ele>
        <time>2026-09-04T09:13:02Z</time>
      </trkpt>
      <trkpt lat="46.11702" lon="5.899727">
        <ele>2880.36</ele>
        <time>2026-09-04T09:13:02Z</time>
      </trkpt>
      <trkpt lat="46.117401" lon="5.89651">
        <ele>2903.2200000000003</ele>
        <time>2026-09-04T09:13:02Z</time>
      </trkpt>
      <trkpt lat="46.11795" lon="5.893227">
        <ele>2933.7000000000003</ele>
        <time>2026-09-04T09:13:02Z</time>
      </trkpt>
      <trkpt lat="46.118698" lon="5.889633">
        <ele>2964.1800000000003</ele>
        <time>2026-09-04T09:13:02Z</time>
      </trkpt>
      <trkpt lat="46.119736" lon="5.886126">
        <ele>3002.28</ele>
        <time>2026-09-04T09:13:02Z</time>
      </trkpt>
      <trkpt lat="46.120747" lon="5.88311">
        <ele>3025.1400000000003</ele>
        <time>2026-09-04T09:13:02Z</time>
      </trkpt>
      <trkpt lat="46.122234" lon="5.879471">
        <ele>3063.2400000000002</ele>
        <time>2026-09-04T09:13:02Z</time>
      </trkpt>
      <trkpt lat="46.123627" lon="5.876547">
        <ele>3093.7200000000003</ele>
        <time>2026-09-04T09:13:02Z</time>
      </trkpt>
      <trkpt lat="46.125168" lon="5.873772">
        <ele>3124.2000000000003</ele>
        <time>2026-09-04T09:13:02Z</time>
      </trkpt>
      <trkpt lat="46.126694" lon="5.871254">
        <ele>3147.06</ele>
        <time>2026-09-04T09:13:02Z</time>
      </trkpt>
      <trkpt lat="46.128006" lon="5.869102">
        <ele>3169.92</ele>
        <time>2026-09-04T09:13:02Z</time>
      </trkpt>
      <trkpt lat="46.129898" lon="5.86623">
        <ele>3192.78</ele>
        <time>2026-09-04T09:13:02Z</time>
      </trkpt>
      <trkpt lat="46.131733" lon="5.863541">
        <ele>3215.6400000000003</ele>
        <time>2026-09-04T09:13:02Z</time>
      </trkpt>
      <trkpt lat="46.133453" lon="5.861">
        <ele>3230.88</ele>
        <time>2026-09-04T09:13:02Z</time>
      </trkpt>
      <trkpt lat="46.135315" lon="5.858322">
        <ele>3246.1200000000003</ele>
        <time>2026-09-04T09:13:02Z</time>
      </trkpt>
      <trkpt lat="46.137177" lon="5.855713">
        <ele>3261.36</ele>
        <time>2026-09-04T09:13:02Z</time>
      </trkpt>
      <trkpt lat="46.139088" lon="5.852966">
        <ele>3276.6000000000004</ele>
        <time>2026-09-04T09:13:02Z</time>
      </trkpt>
      <trkpt lat="46.140854" lon="5.850494">
        <ele>3291.84</ele>
        <time>2026-09-04T09:13:02Z</time>
      </trkpt>
      <trkpt lat="46.143082" lon="5.847272">
        <ele>3307.0800000000004</ele>
        <time>2026-09-04T09:13:02Z</time>
      </trkpt>
      <trkpt lat="46.144905" lon="5.844658">
        <ele>3322.32</ele>
        <time>2026-09-04T09:13:02Z</time>
      </trkpt>
      <trkpt lat="46.146767" lon="5.84198">
        <ele>3329.94</ele>
        <time>2026-09-04T09:13:02Z</time>
      </trkpt>
      <trkpt lat="46.148582" lon="5.839439">
        <ele>3345.1800000000003</ele>
        <time>2026-09-04T09:13:02Z</time>
      </trkpt>
      <trkpt lat="46.161339" lon="5.821106">
        <ele>3421.38</ele>
        <time>2026-09-04T09:13:02Z</time>
      </trkpt>
      <trkpt lat="46.175861" lon="5.799957">
        <ele>3543.3</ele>
        <time>2026-09-04T09:13:02Z</time>
      </trkpt>
      <trkpt lat="46.188805" lon="5.781006">
        <ele>3703.32</ele>
        <time>2026-09-04T09:13:02Z</time>
      </trkpt>
      <trkpt lat="46.212498" lon="5.750175">
        <ele>3977.6400000000003</ele>
        <time>2026-09-04T09:13:02Z</time>
      </trkpt>
      <trkpt lat="46.21492" lon="5.747841">
        <ele>4008.1200000000003</ele>
        <time>2026-09-04T09:13:02Z</time>
      </trkpt>
      <trkpt lat="46.217342" lon="5.745506">
        <ele>4030.98</ele>
        <time>2026-09-04T09:13:02Z</time>
      </trkpt>
      <trkpt lat="46.220135" lon="5.743103">
        <ele>4053.84</ele>
        <time>2026-09-04T09:13:02Z</time>
      </trkpt>
      <trkpt lat="46.223068" lon="5.7407">
        <ele>4084.32</ele>
        <time>2026-09-04T09:13:02Z</time>
      </trkpt>
      <trkpt lat="46.226372" lon="5.738228">
        <ele>4122.42</ele>
        <time>2026-09-04T09:13:02Z</time>
      </trkpt>
      <trkpt lat="46.228466" lon="5.736717">
        <ele>4137.66</ele>
        <time>2026-09-04T09:13:02Z</time>
      </trkpt>
      <trkpt lat="46.231796" lon="5.734461">
        <ele>4175.76</ele>
        <time>2026-09-04T09:13:02Z</time>
      </trkpt>
      <trkpt lat="46.234657" lon="5.732597">
        <ele>4206.24</ele>
        <time>2026-09-04T09:13:02Z</time>
      </trkpt>
      <trkpt lat="46.237564" lon="5.730643">
        <ele>4236.72</ele>
        <time>2026-09-04T09:13:02Z</time>
      </trkpt>
      <trkpt lat="46.240677" lon="5.728566">
        <ele>4274.820000000001</ele>
        <time>2026-09-04T09:13:02Z</time>
      </trkpt>
      <trkpt lat="46.243378" lon="5.726824">
        <ele>4305.3</ele>
        <time>2026-09-04T09:13:02Z</time>
      </trkpt>
      <trkpt lat="46.246948" lon="5.724426">
        <ele>4343.400000000001</ele>
        <time>2026-09-04T09:13:02Z</time>
      </trkpt>
      <trkpt lat="46.249928" lon="5.722366">
        <ele>4381.5</ele>
        <time>2026-09-04T09:13:02Z</time>
      </trkpt>
      <trkpt lat="46.252075" lon="5.72093">
        <ele>4404.360000000001</ele>
        <time>2026-09-04T09:13:02Z</time>
      </trkpt>
      <trkpt lat="46.255512" lon="5.718521">
        <ele>4442.46</ele>
        <time>2026-09-04T09:13:02Z</time>
      </trkpt>
      <trkpt lat="46.258209" lon="5.716575">
        <ele>4472.9400000000005</ele>
        <time>2026-09-04T09:13:02Z</time>
      </trkpt>
      <trkpt lat="46.301559" lon="5.685224">
        <ele>4914.900000000001</ele>
        <time>2026-09-04T09:13:02Z</time>
      </trkpt>
      <trkpt lat="46.346478" lon="5.652878">
        <ele>5334.0</ele>
        <time>2026-09-04T09:13:02Z</time>
      </trkpt>
      <trkpt lat="46.391308" lon="5.621429">
        <ele>5707.38</ele>
        <time>2026-09-04T09:13:02Z</time>
      </trkpt>
      <trkpt lat="46.436554" lon="5.589696">
        <ele>6096.0</ele>
        <time>2026-09-04T09:13:02Z</time>
      </trkpt>
      <trkpt lat="46.45665" lon="5.57181">
        <ele>6263.64</ele>
        <time>2026-09-04T09:13:02Z</time>
      </trkpt>
      <trkpt lat="46.459225" lon="5.569038">
        <ele>6286.5</ele>
        <time>2026-09-04T09:13:02Z</time>
      </trkpt>
      <trkpt lat="46.462006" lon="5.565982">
        <ele>6309.360000000001</ele>
        <time>2026-09-04T09:13:02Z</time>
      </trkpt>
      <trkpt lat="46.465027" lon="5.562699">
        <ele>6339.84</ele>
        <time>2026-09-04T09:13:02Z</time>
      </trkpt>
      <trkpt lat="46.467773" lon="5.559685">
        <ele>6362.700000000001</ele>
        <time>2026-09-04T09:13:02Z</time>
      </trkpt>
      <trkpt lat="46.469833" lon="5.55734">
        <ele>6385.56</ele>
        <time>2026-09-04T09:13:02Z</time>
      </trkpt>
      <trkpt lat="46.473221" lon="5.553589">
        <ele>6416.04</ele>
        <time>2026-09-04T09:13:02Z</time>
      </trkpt>
      <trkpt lat="46.475739" lon="5.550842">
        <ele>6438.900000000001</ele>
        <time>2026-09-04T09:13:02Z</time>
      </trkpt>
      <trkpt lat="46.516846" lon="5.506696">
        <ele>6766.56</ele>
        <time>2026-09-04T09:13:02Z</time>
      </trkpt>
      <trkpt lat="46.559315" lon="5.461784">
        <ele>7101.84</ele>
        <time>2026-09-04T09:13:02Z</time>
      </trkpt>
      <trkpt lat="46.602036" lon="5.416327">
        <ele>7437.120000000001</ele>
        <time>2026-09-04T09:13:02Z</time>
      </trkpt>
      <trkpt lat="46.646164" lon="5.369099">
        <ele>7696.200000000001</ele>
        <time>2026-09-04T09:13:02Z</time>
      </trkpt>
      <trkpt lat="46.689987" lon="5.322052">
        <ele>7978.14</ele>
        <time>2026-09-04T09:13:02Z</time>
      </trkpt>
      <trkpt lat="46.734329" lon="5.274375">
        <ele>8214.36</ele>
        <time>2026-09-04T09:13:02Z</time>
      </trkpt>
      <trkpt lat="46.780334" lon="5.224736">
        <ele>8420.1</ele>
        <time>2026-09-04T09:13:02Z</time>
      </trkpt>
      <trkpt lat="46.826614" lon="5.174761">
        <ele>8663.94</ele>
        <time>2026-09-04T09:13:02Z</time>
      </trkpt>
      <trkpt lat="46.873306" lon="5.124229">
        <ele>8907.78</ele>
        <time>2026-09-04T09:13:02Z</time>
      </trkpt>
      <trkpt lat="46.921097" lon="5.072319">
        <ele>9121.140000000001</ele>
        <time>2026-09-04T09:13:02Z</time>
      </trkpt>
      <trkpt lat="46.970604" lon="5.018498">
        <ele>9319.26</ele>
        <time>2026-09-04T09:13:02Z</time>
      </trkpt>
      <trkpt lat="47.018646" lon="4.966232">
        <ele>9479.28</ele>
        <time>2026-09-04T09:13:02Z</time>
      </trkpt>
      <trkpt lat="47.067856" lon="4.912674">
        <ele>9654.54</ele>
        <time>2026-09-04T09:13:02Z</time>
      </trkpt>
      <trkpt lat="47.117428" lon="4.858422">
        <ele>9799.32</ele>
        <time>2026-09-04T09:13:02Z</time>
      </trkpt>
      <trkpt lat="47.166595" lon="4.804527">
        <ele>9982.2</ele>
        <time>2026-09-04T09:13:02Z</time>
      </trkpt>
      <trkpt lat="47.216675" lon="4.749321">
        <ele>10134.6</ele>
        <time>2026-09-04T09:13:02Z</time>
      </trkpt>
      <trkpt lat="47.266815" lon="4.694049">
        <ele>10248.9</ele>
        <time>2026-09-04T09:13:02Z</time>
      </trkpt>
      <trkpt lat="47.317337" lon="4.638222">
        <ele>10370.82</ele>
        <time>2026-09-04T09:13:02Z</time>
      </trkpt>
      <trkpt lat="47.367599" lon="4.582672">
        <ele>10546.08</ele>
        <time>2026-09-04T09:13:02Z</time>
      </trkpt>
      <trkpt lat="47.418247" lon="4.526227">
        <ele>10706.1</ele>
        <time>2026-09-04T09:13:02Z</time>
      </trkpt>
      <trkpt lat="47.468014" lon="4.470872">
        <ele>10858.5</ele>
        <time>2026-09-04T09:13:02Z</time>
      </trkpt>
      <trkpt lat="47.520172" lon="4.418221">
        <ele>10965.18</ele>
        <time>2026-09-04T09:13:02Z</time>
      </trkpt>
      <trkpt lat="47.527412" lon="4.412631">
        <ele>10965.18</ele>
        <time>2026-09-04T09:13:02Z</time>
      </trkpt>
      <trkpt lat="47.531139" lon="4.409743">
        <ele>10965.18</ele>
        <time>2026-09-04T09:13:02Z</time>
      </trkpt>
      <trkpt lat="47.534821" lon="4.40696">
        <ele>10972.800000000001</ele>
        <time>2026-09-04T09:13:02Z</time>
      </trkpt>
      <trkpt lat="47.590027" lon="4.36453">
        <ele>10972.800000000001</ele>
        <time>2026-09-04T09:13:02Z</time>
      </trkpt>
      <trkpt lat="47.645325" lon="4.320992">
        <ele>10972.800000000001</ele>
        <time>2026-09-04T09:13:02Z</time>
      </trkpt>
      <trkpt lat="47.700401" lon="4.277273">
        <ele>10972.800000000001</ele>
        <time>2026-09-04T09:13:02Z</time>
      </trkpt>
      <trkpt lat="47.756218" lon="4.232976">
        <ele>10972.800000000001</ele>
        <time>2026-09-04T09:13:02Z</time>
      </trkpt>
      <trkpt lat="47.812363" lon="4.188469">
        <ele>10972.800000000001</ele>
        <time>2026-09-04T09:13:02Z</time>
      </trkpt>
      <trkpt lat="47.868027" lon="4.144043">
        <ele>10980.42</ele>
        <time>2026-09-04T09:13:02Z</time>
      </trkpt>
      <trkpt lat="47.923203" lon="4.099943">
        <ele>10980.42</ele>
        <time>2026-09-04T09:13:02Z</time>
      </trkpt>
      <trkpt lat="47.978943" lon="4.05526">
        <ele>10980.42</ele>
        <time>2026-09-04T09:13:02Z</time>
      </trkpt>
      <trkpt lat="48.034195" lon="4.010902">
        <ele>10972.800000000001</ele>
        <time>2026-09-04T09:13:02Z</time>
      </trkpt>
      <trkpt lat="48.089447" lon="3.966476">
        <ele>10972.800000000001</ele>
        <time>2026-09-04T09:13:02Z</time>
      </trkpt>
      <trkpt lat="48.145248" lon="3.921295">
        <ele>10972.800000000001</ele>
        <time>2026-09-04T09:13:02Z</time>
      </trkpt>
      <trkpt lat="48.203121" lon="3.874488">
        <ele>10972.800000000001</ele>
        <time>2026-09-04T09:13:02Z</time>
      </trkpt>
      <trkpt lat="48.255909" lon="3.831699">
        <ele>10972.800000000001</ele>
        <time>2026-09-04T09:13:02Z</time>
      </trkpt>
      <trkpt lat="48.311539" lon="3.786597">
        <ele>10972.800000000001</ele>
        <time>2026-09-04T09:13:02Z</time>
      </trkpt>
      <trkpt lat="48.366611" lon="3.741784">
        <ele>10972.800000000001</ele>
        <time>2026-09-04T09:13:02Z</time>
      </trkpt>
      <trkpt lat="48.421326" lon="3.69704">
        <ele>10972.800000000001</ele>
        <time>2026-09-04T09:13:02Z</time>
      </trkpt>
      <trkpt lat="48.476707" lon="3.651653">
        <ele>10972.800000000001</ele>
        <time>2026-09-04T09:13:02Z</time>
      </trkpt>
      <trkpt lat="48.533295" lon="3.605135">
        <ele>10972.800000000001</ele>
        <time>2026-09-04T09:13:02Z</time>
      </trkpt>
      <trkpt lat="48.588154" lon="3.559932">
        <ele>10972.800000000001</ele>
        <time>2026-09-04T09:13:02Z</time>
      </trkpt>
      <trkpt lat="48.643524" lon="3.514216">
        <ele>10972.800000000001</ele>
        <time>2026-09-04T09:13:02Z</time>
      </trkpt>
      <trkpt lat="48.698181" lon="3.468933">
        <ele>10980.42</ele>
        <time>2026-09-04T09:13:02Z</time>
      </trkpt>
      <trkpt lat="48.752975" lon="3.423579">
        <ele>10972.800000000001</ele>
        <time>2026-09-04T09:13:02Z</time>
      </trkpt>
      <trkpt lat="48.808533" lon="3.377429">
        <ele>10972.800000000001</ele>
        <time>2026-09-04T09:13:02Z</time>
      </trkpt>
      <trkpt lat="48.863419" lon="3.331748">
        <ele>10972.800000000001</ele>
        <time>2026-09-04T09:13:02Z</time>
      </trkpt>
      <trkpt lat="48.917603" lon="3.286647">
        <ele>10972.800000000001</ele>
        <time>2026-09-04T09:13:02Z</time>
      </trkpt>
      <trkpt lat="48.971466" lon="3.24153">
        <ele>10972.800000000001</ele>
        <time>2026-09-04T09:13:02Z</time>
      </trkpt>
      <trkpt lat="49.026581" lon="3.195287">
        <ele>10972.800000000001</ele>
        <time>2026-09-04T09:13:02Z</time>
      </trkpt>
      <trkpt lat="49.081047" lon="3.149318">
        <ele>10972.800000000001</ele>
        <time>2026-09-04T09:13:02Z</time>
      </trkpt>
      <trkpt lat="49.136353" lon="3.102511">
        <ele>10972.800000000001</ele>
        <time>2026-09-04T09:13:02Z</time>
      </trkpt>
      <trkpt lat="49.190918" lon="3.056312">
        <ele>10972.800000000001</ele>
        <time>2026-09-04T09:13:02Z</time>
      </trkpt>
      <trkpt lat="49.245575" lon="3.009902">
        <ele>10972.800000000001</ele>
        <time>2026-09-04T09:13:02Z</time>
      </trkpt>
      <trkpt lat="49.301006" lon="2.962189">
        <ele>10972.800000000001</ele>
        <time>2026-09-04T09:13:02Z</time>
      </trkpt>
      <trkpt lat="49.355427" lon="2.915063">
        <ele>10972.800000000001</ele>
        <time>2026-09-04T09:13:02Z</time>
      </trkpt>
      <trkpt lat="49.410172" lon="2.868371">
        <ele>10972.800000000001</ele>
        <time>2026-09-04T09:13:02Z</time>
      </trkpt>
      <trkpt lat="49.46394" lon="2.82267">
        <ele>10980.42</ele>
        <time>2026-09-04T09:13:02Z</time>
      </trkpt>
      <trkpt lat="49.519012" lon="2.775607">
        <ele>10972.800000000001</ele>
        <time>2026-09-04T09:13:02Z</time>
      </trkpt>
      <trkpt lat="49.573059" lon="2.729063">
        <ele>10972.800000000001</ele>
        <time>2026-09-04T09:13:02Z</time>
      </trkpt>
      <trkpt lat="49.627716" lon="2.681965">
        <ele>10972.800000000001</ele>
        <time>2026-09-04T09:13:02Z</time>
      </trkpt>
      <trkpt lat="49.682877" lon="2.634189">
        <ele>10972.800000000001</ele>
        <time>2026-09-04T09:13:02Z</time>
      </trkpt>
      <trkpt lat="49.736736" lon="2.587354">
        <ele>10972.800000000001</ele>
        <time>2026-09-04T09:13:02Z</time>
      </trkpt>
      <trkpt lat="49.791061" lon="2.540143">
        <ele>10972.800000000001</ele>
        <time>2026-09-04T09:13:02Z</time>
      </trkpt>
      <trkpt lat="49.843964" lon="2.49433">
        <ele>10972.800000000001</ele>
        <time>2026-09-04T09:13:02Z</time>
      </trkpt>
      <trkpt lat="49.899811" lon="2.445646">
        <ele>10972.800000000001</ele>
        <time>2026-09-04T09:13:02Z</time>
      </trkpt>
      <trkpt lat="49.952366" lon="2.399548">
        <ele>10972.800000000001</ele>
        <time>2026-09-04T09:13:02Z</time>
      </trkpt>
      <trkpt lat="50.005436" lon="2.352782">
        <ele>10965.18</ele>
        <time>2026-09-04T09:13:02Z</time>
      </trkpt>
      <trkpt lat="50.059483" lon="2.304976">
        <ele>10965.18</ele>
        <time>2026-09-04T09:13:02Z</time>
      </trkpt>
      <trkpt lat="50.112972" lon="2.257616">
        <ele>10972.800000000001</ele>
        <time>2026-09-04T09:13:02Z</time>
      </trkpt>
      <trkpt lat="50.164124" lon="2.202903">
        <ele>10972.800000000001</ele>
        <time>2026-09-04T09:13:02Z</time>
      </trkpt>
      <trkpt lat="50.213287" lon="2.146671">
        <ele>10972.800000000001</ele>
        <time>2026-09-04T09:13:02Z</time>
      </trkpt>
      <trkpt lat="50.263184" lon="2.090149">
        <ele>10972.800000000001</ele>
        <time>2026-09-04T09:13:02Z</time>
      </trkpt>
      <trkpt lat="50.312912" lon="2.033436">
        <ele>10972.800000000001</ele>
        <time>2026-09-04T09:13:02Z</time>
      </trkpt>
      <trkpt lat="50.362061" lon="1.977178">
        <ele>10980.42</ele>
        <time>2026-09-04T09:13:02Z</time>
      </trkpt>
      <trkpt lat="50.412582" lon="1.919044">
        <ele>10980.42</ele>
        <time>2026-09-04T09:13:02Z</time>
      </trkpt>
      <trkpt lat="50.462036" lon="1.862255">
        <ele>10972.800000000001</ele>
        <time>2026-09-04T09:13:02Z</time>
      </trkpt>
      <trkpt lat="50.511429" lon="1.805444">
        <ele>10980.42</ele>
        <time>2026-09-04T09:13:02Z</time>
      </trkpt>
      <trkpt lat="50.561085" lon="1.748088">
        <ele>10980.42</ele>
        <time>2026-09-04T09:13:02Z</time>
      </trkpt>
      <trkpt lat="50.609482" lon="1.691822">
        <ele>10980.42</ele>
        <time>2026-09-04T09:13:02Z</time>
      </trkpt>
      <trkpt lat="50.658283" lon="1.634736">
        <ele>10972.800000000001</ele>
        <time>2026-09-04T09:13:02Z</time>
      </trkpt>
      <trkpt lat="50.706482" lon="1.578394">
        <ele>10972.800000000001</ele>
        <time>2026-09-04T09:13:02Z</time>
      </trkpt>
      <trkpt lat="50.754646" lon="1.521912">
        <ele>10972.800000000001</ele>
        <time>2026-09-04T09:13:02Z</time>
      </trkpt>
      <trkpt lat="50.80188" lon="1.465487">
        <ele>10980.42</ele>
        <time>2026-09-04T09:13:02Z</time>
      </trkpt>
      <trkpt lat="50.850128" lon="1.408691">
        <ele>10980.42</ele>
        <time>2026-09-04T09:13:02Z</time>
      </trkpt>
      <trkpt lat="50.897919" lon="1.352729">
        <ele>10972.800000000001</ele>
        <time>2026-09-04T09:13:02Z</time>
      </trkpt>
      <trkpt lat="50.945698" lon="1.296616">
        <ele>10972.800000000001</ele>
        <time>2026-09-04T09:13:02Z</time>
      </trkpt>
      <trkpt lat="50.993591" lon="1.239896">
        <ele>10972.800000000001</ele>
        <time>2026-09-04T09:13:02Z</time>
      </trkpt>
      <trkpt lat="51.040649" lon="1.184">
        <ele>10965.18</ele>
        <time>2026-09-04T09:13:02Z</time>
      </trkpt>
      <trkpt lat="51.087917" lon="1.12793">
        <ele>10965.18</ele>
        <time>2026-09-04T09:13:02Z</time>
      </trkpt>
      <trkpt lat="51.135269" lon="1.071538">
        <ele>10965.18</ele>
        <time>2026-09-04T09:13:02Z</time>
      </trkpt>
      <trkpt lat="51.18219" lon="1.015345">
        <ele>10965.18</ele>
        <time>2026-09-04T09:13:02Z</time>
      </trkpt>
      <trkpt lat="51.229992" lon="0.95787">
        <ele>10972.800000000001</ele>
        <time>2026-09-04T09:13:02Z</time>
      </trkpt>
      <trkpt lat="51.277084" lon="0.90125">
        <ele>10980.42</ele>
        <time>2026-09-04T09:13:02Z</time>
      </trkpt>
      <trkpt lat="51.323608" lon="0.845642">
        <ele>10980.42</ele>
        <time>2026-09-04T09:13:02Z</time>
      </trkpt>
      <trkpt lat="51.370926" lon="0.789011">
        <ele>10980.42</ele>
        <time>2026-09-04T09:13:02Z</time>
      </trkpt>
      <trkpt lat="51.417366" lon="0.732727">
        <ele>10980.42</ele>
        <time>2026-09-04T09:13:02Z</time>
      </trkpt>
      <trkpt lat="51.463451" lon="0.676498">
        <ele>10972.800000000001</ele>
        <time>2026-09-04T09:13:02Z</time>
      </trkpt>
      <trkpt lat="51.509308" lon="0.620356">
        <ele>10965.18</ele>
        <time>2026-09-04T09:13:02Z</time>
      </trkpt>
      <trkpt lat="51.555176" lon="0.563866">
        <ele>10965.18</ele>
        <time>2026-09-04T09:13:02Z</time>
      </trkpt>
      <trkpt lat="51.601456" lon="0.506782">
        <ele>10965.18</ele>
        <time>2026-09-04T09:13:02Z</time>
      </trkpt>
      <trkpt lat="51.646683" lon="0.450134">
        <ele>10965.18</ele>
        <time>2026-09-04T09:13:02Z</time>
      </trkpt>
      <trkpt lat="51.69278" lon="0.393058">
        <ele>10965.18</ele>
        <time>2026-09-04T09:13:02Z</time>
      </trkpt>
      <trkpt lat="51.739834" lon="0.335388">
        <ele>10972.800000000001</ele>
        <time>2026-09-04T09:13:02Z</time>
      </trkpt>
      <trkpt lat="51.786026" lon="0.278518">
        <ele>10980.42</ele>
        <time>2026-09-04T09:13:02Z</time>
      </trkpt>
      <trkpt lat="51.832077" lon="0.221508">
        <ele>10988.04</ele>
        <time>2026-09-04T09:13:02Z</time>
      </trkpt>
      <trkpt lat="51.878403" lon="0.16383">
        <ele>10988.04</ele>
        <time>2026-09-04T09:13:02Z</time>
      </trkpt>
      <trkpt lat="51.925644" lon="0.10498">
        <ele>10980.42</ele>
        <time>2026-09-04T09:13:02Z</time>
      </trkpt>
      <trkpt lat="51.971569" lon="0.047634">
        <ele>10980.42</ele>
        <time>2026-09-04T09:13:02Z</time>
      </trkpt>
      <trkpt lat="52.016922" lon="-0.007858">
        <ele>10972.800000000001</ele>
        <time>2026-09-04T09:13:02Z</time>
      </trkpt>
      <trkpt lat="52.067562" lon="-0.05705">
        <ele>10965.18</ele>
        <time>2026-09-04T09:13:02Z</time>
      </trkpt>
      <trkpt lat="52.120815" lon="-0.102722">
        <ele>10965.18</ele>
        <time>2026-09-04T09:13:02Z</time>
      </trkpt>
      <trkpt lat="52.173523" lon="-0.149002">
        <ele>10972.800000000001</ele>
        <time>2026-09-04T09:13:02Z</time>
      </trkpt>
      <trkpt lat="52.225891" lon="-0.195084">
        <ele>10972.800000000001</ele>
        <time>2026-09-04T09:13:02Z</time>
      </trkpt>
      <trkpt lat="52.277847" lon="-0.241013">
        <ele>10965.18</ele>
        <time>2026-09-04T09:13:02Z</time>
      </trkpt>
      <trkpt lat="52.329697" lon="-0.287136">
        <ele>10972.800000000001</ele>
        <time>2026-09-04T09:13:02Z</time>
      </trkpt>
      <trkpt lat="52.384583" lon="-0.336417">
        <ele>10980.42</ele>
        <time>2026-09-04T09:13:02Z</time>
      </trkpt>
      <trkpt lat="52.436325" lon="-0.382233">
        <ele>10980.42</ele>
        <time>2026-09-04T09:13:02Z</time>
      </trkpt>
      <trkpt lat="52.491604" lon="-0.431292">
        <ele>10972.800000000001</ele>
        <time>2026-09-04T09:13:02Z</time>
      </trkpt>
      <trkpt lat="52.546143" lon="-0.480118">
        <ele>10972.800000000001</ele>
        <time>2026-09-04T09:13:02Z</time>
      </trkpt>
      <trkpt lat="52.597183" lon="-0.525665">
        <ele>10972.800000000001</ele>
        <time>2026-09-04T09:13:02Z</time>
      </trkpt>
      <trkpt lat="52.650192" lon="-0.572739">
        <ele>10972.800000000001</ele>
        <time>2026-09-04T09:13:02Z</time>
      </trkpt>
      <trkpt lat="52.699459" lon="-0.617353">
        <ele>10972.800000000001</ele>
        <time>2026-09-04T09:13:02Z</time>
      </trkpt>
      <trkpt lat="52.748898" lon="-0.662633">
        <ele>10972.800000000001</ele>
        <time>2026-09-04T09:13:02Z</time>
      </trkpt>
      <trkpt lat="52.798874" lon="-0.708237">
        <ele>10972.800000000001</ele>
        <time>2026-09-04T09:13:02Z</time>
      </trkpt>
      <trkpt lat="52.848103" lon="-0.753427">
        <ele>10965.18</ele>
        <time>2026-09-04T09:13:02Z</time>
      </trkpt>
      <trkpt lat="52.898148" lon="-0.806475">
        <ele>10965.18</ele>
        <time>2026-09-04T09:13:02Z</time>
      </trkpt>
      <trkpt lat="52.944077" lon="-0.856247">
        <ele>10957.560000000001</ele>
        <time>2026-09-04T09:13:02Z</time>
      </trkpt>
      <trkpt lat="52.991821" lon="-0.906601">
        <ele>10965.18</ele>
        <time>2026-09-04T09:13:02Z</time>
      </trkpt>
      <trkpt lat="53.038788" lon="-0.955887">
        <ele>10965.18</ele>
        <time>2026-09-04T09:13:02Z</time>
      </trkpt>
      <trkpt lat="53.086823" lon="-1.00674">
        <ele>10972.800000000001</ele>
        <time>2026-09-04T09:13:02Z</time>
      </trkpt>
      <trkpt lat="53.134865" lon="-1.057838">
        <ele>10972.800000000001</ele>
        <time>2026-09-04T09:13:02Z</time>
      </trkpt>
      <trkpt lat="53.183418" lon="-1.109296">
        <ele>10980.42</ele>
        <time>2026-09-04T09:13:02Z</time>
      </trkpt>
      <trkpt lat="53.233181" lon="-1.162208">
        <ele>10988.04</ele>
        <time>2026-09-04T09:13:02Z</time>
      </trkpt>
      <trkpt lat="53.2836" lon="-1.215847">
        <ele>10988.04</ele>
        <time>2026-09-04T09:13:02Z</time>
      </trkpt>
      <trkpt lat="53.332123" lon="-1.26743">
        <ele>10972.800000000001</ele>
        <time>2026-09-04T09:13:02Z</time>
      </trkpt>
      <trkpt lat="53.380054" lon="-1.318683">
        <ele>10972.800000000001</ele>
        <time>2026-09-04T09:13:02Z</time>
      </trkpt>
      <trkpt lat="53.426697" lon="-1.36921">
        <ele>10972.800000000001</ele>
        <time>2026-09-04T09:13:02Z</time>
      </trkpt>
      <trkpt lat="53.478001" lon="-1.424668">
        <ele>10972.800000000001</ele>
        <time>2026-09-04T09:13:02Z</time>
      </trkpt>
      <trkpt lat="53.52837" lon="-1.479196">
        <ele>10972.800000000001</ele>
        <time>2026-09-04T09:13:02Z</time>
      </trkpt>
      <trkpt lat="53.575153" lon="-1.530412">
        <ele>10965.18</ele>
        <time>2026-09-04T09:13:02Z</time>
      </trkpt>
      <trkpt lat="53.622482" lon="-1.581717">
        <ele>10972.800000000001</ele>
        <time>2026-09-04T09:13:02Z</time>
      </trkpt>
      <trkpt lat="53.67012" lon="-1.633247">
        <ele>10980.42</ele>
        <time>2026-09-04T09:13:02Z</time>
      </trkpt>
      <trkpt lat="53.71756" lon="-1.684867">
        <ele>10988.04</ele>
        <time>2026-09-04T09:13:02Z</time>
      </trkpt>
      <trkpt lat="53.766357" lon="-1.738586">
        <ele>10980.42</ele>
        <time>2026-09-04T09:13:02Z</time>
      </trkpt>
      <trkpt lat="53.813782" lon="-1.791175">
        <ele>10972.800000000001</ele>
        <time>2026-09-04T09:13:02Z</time>
      </trkpt>
      <trkpt lat="53.861496" lon="-1.843764">
        <ele>10972.800000000001</ele>
        <time>2026-09-04T09:13:02Z</time>
      </trkpt>
      <trkpt lat="53.909546" lon="-1.89679">
        <ele>10980.42</ele>
        <time>2026-09-04T09:13:02Z</time>
      </trkpt>
      <trkpt lat="53.956833" lon="-1.949053">
        <ele>10988.04</ele>
        <time>2026-09-04T09:13:02Z</time>
      </trkpt>
      <trkpt lat="54.004532" lon="-2.002337">
        <ele>10980.42</ele>
        <time>2026-09-04T09:13:02Z</time>
      </trkpt>
      <trkpt lat="54.052876" lon="-2.056221">
        <ele>10965.18</ele>
        <time>2026-09-04T09:13:02Z</time>
      </trkpt>
      <trkpt lat="54.100296" lon="-2.109375">
        <ele>10980.42</ele>
        <time>2026-09-04T09:13:02Z</time>
      </trkpt>
      <trkpt lat="54.146538" lon="-2.160752">
        <ele>10988.04</ele>
        <time>2026-09-04T09:13:02Z</time>
      </trkpt>
      <trkpt lat="54.194092" lon="-2.213274">
        <ele>10980.42</ele>
        <time>2026-09-04T09:13:02Z</time>
      </trkpt>
      <trkpt lat="54.240463" lon="-2.264439">
        <ele>10972.800000000001</ele>
        <time>2026-09-04T09:13:02Z</time>
      </trkpt>
      <trkpt lat="54.290451" lon="-2.319892">
        <ele>10957.560000000001</ele>
        <time>2026-09-04T09:13:02Z</time>
      </trkpt>
      <trkpt lat="54.336143" lon="-2.370467">
        <ele>10957.560000000001</ele>
        <time>2026-09-04T09:13:02Z</time>
      </trkpt>
      <trkpt lat="54.383209" lon="-2.422319">
        <ele>10896.6</ele>
        <time>2026-09-04T09:13:02Z</time>
      </trkpt>
      <trkpt lat="54.428925" lon="-2.47152">
        <ele>10698.480000000001</ele>
        <time>2026-09-04T09:13:02Z</time>
      </trkpt>
      <trkpt lat="54.473694" lon="-2.516273">
        <ele>10439.4</ele>
        <time>2026-09-04T09:13:02Z</time>
      </trkpt>
      <trkpt lat="54.518829" lon="-2.55828">
        <ele>10104.12</ele>
        <time>2026-09-04T09:13:02Z</time>
      </trkpt>
      <trkpt lat="54.566113" lon="-2.600847">
        <ele>9745.980000000001</ele>
        <time>2026-09-04T09:13:02Z</time>
      </trkpt>
      <trkpt lat="54.610428" lon="-2.639627">
        <ele>9433.560000000001</ele>
        <time>2026-09-04T09:13:02Z</time>
      </trkpt>
      <trkpt lat="54.653679" lon="-2.677002">
        <ele>9136.380000000001</ele>
        <time>2026-09-04T09:13:02Z</time>
      </trkpt>
      <trkpt lat="54.695755" lon="-2.713865">
        <ele>8816.34</ele>
        <time>2026-09-04T09:13:02Z</time>
      </trkpt>
      <trkpt lat="54.734726" lon="-2.754905">
        <ele>8404.86</ele>
        <time>2026-09-04T09:13:02Z</time>
      </trkpt>
      <trkpt lat="54.771652" lon="-2.801837">
        <ele>8168.64</ele>
        <time>2026-09-04T09:13:02Z</time>
      </trkpt>
      <trkpt lat="54.808136" lon="-2.850306">
        <ele>7993.38</ele>
        <time>2026-09-04T09:13:02Z</time>
      </trkpt>
      <trkpt lat="54.844208" lon="-2.899906">
        <ele>7848.6</ele>
        <time>2026-09-04T09:13:02Z</time>
      </trkpt>
      <trkpt lat="54.880478" lon="-2.9465">
        <ele>7688.580000000001</ele>
        <time>2026-09-04T09:13:02Z</time>
      </trkpt>
      <trkpt lat="54.886002" lon="-2.952091">
        <ele>7665.72</ele>
        <time>2026-09-04T09:13:02Z</time>
      </trkpt>
      <trkpt lat="54.888199" lon="-2.954191">
        <ele>7658.1</ele>
        <time>2026-09-04T09:13:02Z</time>
      </trkpt>
      <trkpt lat="54.890953" lon="-2.956904">
        <ele>7650.4800000000005</ele>
        <time>2026-09-04T09:13:02Z</time>
      </trkpt>
      <trkpt lat="54.931046" lon="-2.995794">
        <ele>7498.08</ele>
        <time>2026-09-04T09:13:02Z</time>
      </trkpt>
      <trkpt lat="54.970558" lon="-3.03514">
        <ele>7216.14</ele>
        <time>2026-09-04T09:13:02Z</time>
      </trkpt>
      <trkpt lat="55.009476" lon="-3.074757">
        <ele>6934.200000000001</ele>
        <time>2026-09-04T09:13:02Z</time>
      </trkpt>
      <trkpt lat="55.047836" lon="-3.115373">
        <ele>6576.06</ele>
        <time>2026-09-04T09:13:02Z</time>
      </trkpt>
      <trkpt lat="55.085175" lon="-3.155581">
        <ele>6316.9800000000005</ele>
        <time>2026-09-04T09:13:02Z</time>
      </trkpt>
      <trkpt lat="55.111267" lon="-3.179976">
        <ele>6126.4800000000005</ele>
        <time>2026-09-04T09:13:02Z</time>
      </trkpt>
      <trkpt lat="55.113892" lon="-3.181374">
        <ele>6103.62</ele>
        <time>2026-09-04T09:13:02Z</time>
      </trkpt>
      <trkpt lat="55.116734" lon="-3.182539">
        <ele>6080.76</ele>
        <time>2026-09-04T09:13:02Z</time>
      </trkpt>
      <trkpt lat="55.119919" lon="-3.183531">
        <ele>6057.900000000001</ele>
        <time>2026-09-04T09:13:02Z</time>
      </trkpt>
      <trkpt lat="55.123016" lon="-3.184204">
        <ele>6035.04</ele>
        <time>2026-09-04T09:13:02Z</time>
      </trkpt>
      <trkpt lat="55.126144" lon="-3.184581">
        <ele>6019.8</ele>
        <time>2026-09-04T09:13:02Z</time>
      </trkpt>
      <trkpt lat="55.129211" lon="-3.184662">
        <ele>5996.9400000000005</ele>
        <time>2026-09-04T09:13:02Z</time>
      </trkpt>
      <trkpt lat="55.133102" lon="-3.184581">
        <ele>5974.08</ele>
        <time>2026-09-04T09:13:02Z</time>
      </trkpt>
      <trkpt lat="55.135757" lon="-3.18442">
        <ele>5958.84</ele>
        <time>2026-09-04T09:13:02Z</time>
      </trkpt>
      <trkpt lat="55.139404" lon="-3.184038">
        <ele>5943.6</ele>
        <time>2026-09-04T09:13:02Z</time>
      </trkpt>
      <trkpt lat="55.142338" lon="-3.183705">
        <ele>5928.360000000001</ele>
        <time>2026-09-04T09:13:02Z</time>
      </trkpt>
      <trkpt lat="55.145317" lon="-3.183372">
        <ele>5913.12</ele>
        <time>2026-09-04T09:13:02Z</time>
      </trkpt>
      <trkpt lat="55.148529" lon="-3.182956">
        <ele>5897.88</ele>
        <time>2026-09-04T09:13:02Z</time>
      </trkpt>
      <trkpt lat="55.152466" lon="-3.182481">
        <ele>5882.64</ele>
        <time>2026-09-04T09:13:02Z</time>
      </trkpt>
      <trkpt lat="55.155651" lon="-3.18204">
        <ele>5867.400000000001</ele>
        <time>2026-09-04T09:13:02Z</time>
      </trkpt>
      <trkpt lat="55.158863" lon="-3.181624">
        <ele>5859.780000000001</ele>
        <time>2026-09-04T09:13:02Z</time>
      </trkpt>
      <trkpt lat="55.162212" lon="-3.181208">
        <ele>5836.92</ele>
        <time>2026-09-04T09:13:02Z</time>
      </trkpt>
      <trkpt lat="55.165565" lon="-3.180792">
        <ele>5821.68</ele>
        <time>2026-09-04T09:13:02Z</time>
      </trkpt>
      <trkpt lat="55.168636" lon="-3.180459">
        <ele>5806.4400000000005</ele>
        <time>2026-09-04T09:13:02Z</time>
      </trkpt>
      <trkpt lat="55.215748" lon="-3.175964">
        <ele>5524.5</ele>
        <time>2026-09-04T09:13:02Z</time>
      </trkpt>
      <trkpt lat="55.261696" lon="-3.173135">
        <ele>5242.56</ele>
        <time>2026-09-04T09:13:02Z</time>
      </trkpt>
      <trkpt lat="55.308201" lon="-3.169972">
        <ele>4937.76</ele>
        <time>2026-09-04T09:13:02Z</time>
      </trkpt>
      <trkpt lat="55.35289" lon="-3.166559">
        <ele>4693.92</ele>
        <time>2026-09-04T09:13:02Z</time>
      </trkpt>
      <trkpt lat="55.397068" lon="-3.163313">
        <ele>4419.6</ele>
        <time>2026-09-04T09:13:02Z</time>
      </trkpt>
      <trkpt lat="55.441269" lon="-3.1597">
        <ele>4213.860000000001</ele>
        <time>2026-09-04T09:13:02Z</time>
      </trkpt>
      <trkpt lat="55.484802" lon="-3.156156">
        <ele>3954.78</ele>
        <time>2026-09-04T09:13:02Z</time>
      </trkpt>
      <trkpt lat="55.526962" lon="-3.153076">
        <ele>3718.5600000000004</ele>
        <time>2026-09-04T09:13:02Z</time>
      </trkpt>
      <trkpt lat="55.568985" lon="-3.149914">
        <ele>3451.86</ele>
        <time>2026-09-04T09:13:02Z</time>
      </trkpt>
      <trkpt lat="55.585373" lon="-3.148582">
        <ele>3375.6600000000003</ele>
        <time>2026-09-04T09:13:02Z</time>
      </trkpt>
      <trkpt lat="55.604507" lon="-3.147">
        <ele>3352.8</ele>
        <time>2026-09-04T09:13:02Z</time>
      </trkpt>
      <trkpt lat="55.621399" lon="-3.145835">
        <ele>3291.84</ele>
        <time>2026-09-04T09:13:02Z</time>
      </trkpt>
      <trkpt lat="55.638069" lon="-3.144751">
        <ele>3208.02</ele>
        <time>2026-09-04T09:13:02Z</time>
      </trkpt>
      <trkpt lat="55.656967" lon="-3.141341">
        <ele>3048.0</ele>
        <time>2026-09-04T09:13:02Z</time>
      </trkpt>
      <trkpt lat="55.659531" lon="-3.14003">
        <ele>3025.1400000000003</ele>
        <time>2026-09-04T09:13:02Z</time>
      </trkpt>
      <trkpt lat="55.662231" lon="-3.138428">
        <ele>3002.28</ele>
        <time>2026-09-04T09:13:02Z</time>
      </trkpt>
      <trkpt lat="55.66507" lon="-3.136425">
        <ele>2987.04</ele>
        <time>2026-09-04T09:13:02Z</time>
      </trkpt>
      <trkpt lat="55.667587" lon="-3.134516">
        <ele>2971.8</ele>
        <time>2026-09-04T09:13:02Z</time>
      </trkpt>
      <trkpt lat="55.670883" lon="-3.131686">
        <ele>2956.56</ele>
        <time>2026-09-04T09:13:02Z</time>
      </trkpt>
      <trkpt lat="55.673359" lon="-3.129559">
        <ele>2941.32</ele>
        <time>2026-09-04T09:13:02Z</time>
      </trkpt>
      <trkpt lat="55.675964" lon="-3.127275">
        <ele>2926.08</ele>
        <time>2026-09-04T09:13:02Z</time>
      </trkpt>
      <trkpt lat="55.678665" lon="-3.124838">
        <ele>2910.84</ele>
        <time>2026-09-04T09:13:02Z</time>
      </trkpt>
      <trkpt lat="55.680946" lon="-3.122778">
        <ele>2895.6000000000004</ele>
        <time>2026-09-04T09:13:02Z</time>
      </trkpt>
      <trkpt lat="55.683926" lon="-3.119946">
        <ele>2880.36</ele>
        <time>2026-09-04T09:13:02Z</time>
      </trkpt>
      <trkpt lat="55.686493" lon="-3.11762">
        <ele>2857.5</ele>
        <time>2026-09-04T09:13:02Z</time>
      </trkpt>
      <trkpt lat="55.689606" lon="-3.11471">
        <ele>2842.26</ele>
        <time>2026-09-04T09:13:02Z</time>
      </trkpt>
      <trkpt lat="55.692211" lon="-3.112307">
        <ele>2827.02</ele>
        <time>2026-09-04T09:13:02Z</time>
      </trkpt>
      <trkpt lat="55.694725" lon="-3.109989">
        <ele>2811.78</ele>
        <time>2026-09-04T09:13:02Z</time>
      </trkpt>
      <trkpt lat="55.69733" lon="-3.107586">
        <ele>2796.54</ele>
        <time>2026-09-04T09:13:02Z</time>
      </trkpt>
      <trkpt lat="55.715626" lon="-3.090849">
        <ele>2651.76</ele>
        <time>2026-09-04T09:13:02Z</time>
      </trkpt>
      <trkpt lat="55.733784" lon="-3.074284">
        <ele>2545.08</ele>
        <time>2026-09-04T09:13:02Z</time>
      </trkpt>
      <trkpt lat="55.749657" lon="-3.059778">
        <ele>2476.5</ele>
        <time>2026-09-04T09:13:02Z</time>
      </trkpt>
      <trkpt lat="55.767441" lon="-3.044071">
        <ele>2354.58</ele>
        <time>2026-09-04T09:13:02Z</time>
      </trkpt>
      <trkpt lat="55.782486" lon="-3.030895">
        <ele>2278.38</ele>
        <time>2026-09-04T09:13:02Z</time>
      </trkpt>
      <trkpt lat="55.797653" lon="-3.017292">
        <ele>2232.6600000000003</ele>
        <time>2026-09-04T09:13:02Z</time>
      </trkpt>
      <trkpt lat="55.814785" lon="-3.002014">
        <ele>2194.56</ele>
        <time>2026-09-04T09:13:02Z</time>
      </trkpt>
      <trkpt lat="55.828934" lon="-2.989225">
        <ele>2125.98</ele>
        <time>2026-09-04T09:13:02Z</time>
      </trkpt>
      <trkpt lat="55.842636" lon="-2.976546">
        <ele>2049.78</ele>
        <time>2026-09-04T09:13:02Z</time>
      </trkpt>
      <trkpt lat="55.856354" lon="-2.963734">
        <ele>1988.8200000000002</ele>
        <time>2026-09-04T09:13:02Z</time>
      </trkpt>
      <trkpt lat="55.871979" lon="-2.94933">
        <ele>1920.24</ele>
        <time>2026-09-04T09:13:02Z</time>
      </trkpt>
      <trkpt lat="55.885757" lon="-2.936263">
        <ele>1851.66</ele>
        <time>2026-09-04T09:13:02Z</time>
      </trkpt>
      <trkpt lat="55.901463" lon="-2.921076">
        <ele>1775.46</ele>
        <time>2026-09-04T09:13:02Z</time>
      </trkpt>
      <trkpt lat="55.916977" lon="-2.906383">
        <ele>1737.3600000000001</ele>
        <time>2026-09-04T09:13:02Z</time>
      </trkpt>
      <trkpt lat="55.930557" lon="-2.893696">
        <ele>1714.5</ele>
        <time>2026-09-04T09:13:02Z</time>
      </trkpt>
      <trkpt lat="55.943638" lon="-2.881336">
        <ele>1699.26</ele>
        <time>2026-09-04T09:13:02Z</time>
      </trkpt>
      <trkpt lat="55.957397" lon="-2.86843">
        <ele>1691.64</ele>
        <time>2026-09-04T09:13:02Z</time>
      </trkpt>
      <trkpt lat="55.971909" lon="-2.85503">
        <ele>1676.4</ele>
        <time>2026-09-04T09:13:02Z</time>
      </trkpt>
      <trkpt lat="55.985275" lon="-2.842629">
        <ele>1661.16</ele>
        <time>2026-09-04T09:13:02Z</time>
      </trkpt>
      <trkpt lat="55.998596" lon="-2.829978">
        <ele>1645.92</ele>
        <time>2026-09-04T09:13:02Z</time>
      </trkpt>
      <trkpt lat="56.014206" lon="-2.815912">
        <ele>1630.68</ele>
        <time>2026-09-04T09:13:02Z</time>
      </trkpt>
      <trkpt lat="56.016449" lon="-2.814474">
        <ele>1630.68</ele>
        <time>2026-09-04T09:13:02Z</time>
      </trkpt>
      <trkpt lat="56.019104" lon="-2.813083">
        <ele>1623.0600000000002</ele>
        <time>2026-09-04T09:13:02Z</time>
      </trkpt>
      <trkpt lat="56.021244" lon="-2.812243">
        <ele>1623.0600000000002</ele>
        <time>2026-09-04T09:13:02Z</time>
      </trkpt>
      <trkpt lat="56.023499" lon="-2.811668">
        <ele>1623.0600000000002</ele>
        <time>2026-09-04T09:13:02Z</time>
      </trkpt>
      <trkpt lat="56.026337" lon="-2.811335">
        <ele>1615.44</ele>
        <time>2026-09-04T09:13:02Z</time>
      </trkpt>
      <trkpt lat="56.028316" lon="-2.811384">
        <ele>1615.44</ele>
        <time>2026-09-04T09:13:02Z</time>
      </trkpt>
      <trkpt lat="56.030457" lon="-2.811668">
        <ele>1615.44</ele>
        <time>2026-09-04T09:13:02Z</time>
      </trkpt>
      <trkpt lat="56.032974" lon="-2.812414">
        <ele>1607.8200000000002</ele>
        <time>2026-09-04T09:13:02Z</time>
      </trkpt>
      <trkpt lat="56.035069" lon="-2.813358">
        <ele>1607.8200000000002</ele>
        <time>2026-09-04T09:13:02Z</time>
      </trkpt>
      <trkpt lat="56.03714" lon="-2.814664">
        <ele>1600.2</ele>
        <time>2026-09-04T09:13:02Z</time>
      </trkpt>
      <trkpt lat="56.038979" lon="-2.816019">
        <ele>1600.2</ele>
        <time>2026-09-04T09:13:02Z</time>
      </trkpt>
      <trkpt lat="56.040802" lon="-2.81766">
        <ele>1600.2</ele>
        <time>2026-09-04T09:13:02Z</time>
      </trkpt>
      <trkpt lat="56.042633" lon="-2.819408">
        <ele>1600.2</ele>
        <time>2026-09-04T09:13:02Z</time>
      </trkpt>
      <trkpt lat="56.044426" lon="-2.821341">
        <ele>1600.2</ele>
        <time>2026-09-04T09:13:02Z</time>
      </trkpt>
      <trkpt lat="56.046566" lon="-2.82383">
        <ele>1600.2</ele>
        <time>2026-09-04T09:13:02Z</time>
      </trkpt>
      <trkpt lat="56.04829" lon="-2.825804">
        <ele>1600.2</ele>
        <time>2026-09-04T09:13:02Z</time>
      </trkpt>
      <trkpt lat="56.049591" lon="-2.827263">
        <ele>1592.5800000000002</ele>
        <time>2026-09-04T09:13:02Z</time>
      </trkpt>
      <trkpt lat="56.051559" lon="-2.829645">
        <ele>1592.5800000000002</ele>
        <time>2026-09-04T09:13:02Z</time>
      </trkpt>
      <trkpt lat="56.053299" lon="-2.831643">
        <ele>1592.5800000000002</ele>
        <time>2026-09-04T09:13:02Z</time>
      </trkpt>
      <trkpt lat="56.054947" lon="-2.833614">
        <ele>1592.5800000000002</ele>
        <time>2026-09-04T09:13:02Z</time>
      </trkpt>
      <trkpt lat="56.056808" lon="-2.835846">
        <ele>1584.96</ele>
        <time>2026-09-04T09:13:02Z</time>
      </trkpt>
      <trkpt lat="56.05867" lon="-2.838078">
        <ele>1584.96</ele>
        <time>2026-09-04T09:13:02Z</time>
      </trkpt>
      <trkpt lat="56.060349" lon="-2.839966">
        <ele>1584.96</ele>
        <time>2026-09-04T09:13:02Z</time>
      </trkpt>
      <trkpt lat="56.062042" lon="-2.841963">
        <ele>1577.3400000000001</ele>
        <time>2026-09-04T09:13:02Z</time>
      </trkpt>
      <trkpt lat="56.072662" lon="-2.854365">
        <ele>1569.72</ele>
        <time>2026-09-04T09:13:02Z</time>
      </trkpt>
      <trkpt lat="56.082878" lon="-2.866402">
        <ele>1554.48</ele>
        <time>2026-09-04T09:13:02Z</time>
      </trkpt>
      <trkpt lat="56.089024" lon="-2.875071">
        <ele>1546.8600000000001</ele>
        <time>2026-09-04T09:13:02Z</time>
      </trkpt>
      <trkpt lat="56.090515" lon="-2.878168">
        <ele>1539.24</ele>
        <time>2026-09-04T09:13:02Z</time>
      </trkpt>
      <trkpt lat="56.091888" lon="-2.881331">
        <ele>1539.24</ele>
        <time>2026-09-04T09:13:02Z</time>
      </trkpt>
      <trkpt lat="56.092747" lon="-2.883911">
        <ele>1531.6200000000001</ele>
        <time>2026-09-04T09:13:02Z</time>
      </trkpt>
      <trkpt lat="56.093632" lon="-2.887001">
        <ele>1531.6200000000001</ele>
        <time>2026-09-04T09:13:02Z</time>
      </trkpt>
      <trkpt lat="56.09433" lon="-2.890005">
        <ele>1531.6200000000001</ele>
        <time>2026-09-04T09:13:02Z</time>
      </trkpt>
      <trkpt lat="56.094982" lon="-2.894039">
        <ele>1524.0</ele>
        <time>2026-09-04T09:13:02Z</time>
      </trkpt>
      <trkpt lat="56.095306" lon="-2.897387">
        <ele>1524.0</ele>
        <time>2026-09-04T09:13:02Z</time>
      </trkpt>
      <trkpt lat="56.095596" lon="-2.900973">
        <ele>1524.0</ele>
        <time>2026-09-04T09:13:02Z</time>
      </trkpt>
      <trkpt lat="56.095688" lon="-2.904552">
        <ele>1524.0</ele>
        <time>2026-09-04T09:13:02Z</time>
      </trkpt>
      <trkpt lat="56.095734" lon="-2.907715">
        <ele>1524.0</ele>
        <time>2026-09-04T09:13:02Z</time>
      </trkpt>
      <trkpt lat="56.095585" lon="-2.911892">
        <ele>1524.0</ele>
        <time>2026-09-04T09:13:02Z</time>
      </trkpt>
      <trkpt lat="56.095448" lon="-2.914467">
        <ele>1524.0</ele>
        <time>2026-09-04T09:13:02Z</time>
      </trkpt>
      <trkpt lat="56.095169" lon="-2.917814">
        <ele>1516.38</ele>
        <time>2026-09-04T09:13:02Z</time>
      </trkpt>
      <trkpt lat="56.094795" lon="-2.921591">
        <ele>1516.38</ele>
        <time>2026-09-04T09:13:02Z</time>
      </trkpt>
      <trkpt lat="56.094406" lon="-2.924694">
        <ele>1516.38</ele>
        <time>2026-09-04T09:13:02Z</time>
      </trkpt>
      <trkpt lat="56.093956" lon="-2.927771">
        <ele>1508.76</ele>
        <time>2026-09-04T09:13:02Z</time>
      </trkpt>
      <trkpt lat="56.093445" lon="-2.930861">
        <ele>1508.76</ele>
        <time>2026-09-04T09:13:02Z</time>
      </trkpt>
      <trkpt lat="56.092758" lon="-2.934598">
        <ele>1508.76</ele>
        <time>2026-09-04T09:13:02Z</time>
      </trkpt>
      <trkpt lat="56.092163" lon="-2.937678">
        <ele>1508.76</ele>
        <time>2026-09-04T09:13:02Z</time>
      </trkpt>
      <trkpt lat="56.091488" lon="-2.940817">
        <ele>1508.76</ele>
        <time>2026-09-04T09:13:02Z</time>
      </trkpt>
      <trkpt lat="56.090836" lon="-2.94392">
        <ele>1508.76</ele>
        <time>2026-09-04T09:13:02Z</time>
      </trkpt>
      <trkpt lat="56.09" lon="-2.947598">
        <ele>1501.14</ele>
        <time>2026-09-04T09:13:02Z</time>
      </trkpt>
      <trkpt lat="56.089325" lon="-2.950495">
        <ele>1501.14</ele>
        <time>2026-09-04T09:13:02Z</time>
      </trkpt>
      <trkpt lat="56.088558" lon="-2.953606">
        <ele>1501.14</ele>
        <time>2026-09-04T09:13:02Z</time>
      </trkpt>
      <trkpt lat="56.087765" lon="-2.956781">
        <ele>1493.52</ele>
        <time>2026-09-04T09:13:02Z</time>
      </trkpt>
      <trkpt lat="56.086899" lon="-2.960233">
        <ele>1493.52</ele>
        <time>2026-09-04T09:13:02Z</time>
      </trkpt>
      <trkpt lat="56.08609" lon="-2.963305">
        <ele>1485.9</ele>
        <time>2026-09-04T09:13:02Z</time>
      </trkpt>
      <trkpt lat="56.085346" lon="-2.966223">
        <ele>1485.9</ele>
        <time>2026-09-04T09:13:02Z</time>
      </trkpt>
      <trkpt lat="56.084518" lon="-2.969222">
        <ele>1485.9</ele>
        <time>2026-09-04T09:13:02Z</time>
      </trkpt>
      <trkpt lat="56.083668" lon="-2.972231">
        <ele>1478.28</ele>
        <time>2026-09-04T09:13:02Z</time>
      </trkpt>
      <trkpt lat="56.082825" lon="-2.975297">
        <ele>1478.28</ele>
        <time>2026-09-04T09:13:02Z</time>
      </trkpt>
      <trkpt lat="56.082001" lon="-2.978044">
        <ele>1470.66</ele>
        <time>2026-09-04T09:13:02Z</time>
      </trkpt>
      <trkpt lat="56.081154" lon="-2.9809">
        <ele>1470.66</ele>
        <time>2026-09-04T09:13:02Z</time>
      </trkpt>
      <trkpt lat="56.080318" lon="-2.983732">
        <ele>1470.66</ele>
        <time>2026-09-04T09:13:02Z</time>
      </trkpt>
      <trkpt lat="56.079433" lon="-2.98665">
        <ele>1463.04</ele>
        <time>2026-09-04T09:13:02Z</time>
      </trkpt>
      <trkpt lat="56.078339" lon="-2.990029">
        <ele>1463.04</ele>
        <time>2026-09-04T09:13:02Z</time>
      </trkpt>
      <trkpt lat="56.077698" lon="-2.99211">
        <ele>1463.04</ele>
        <time>2026-09-04T09:13:02Z</time>
      </trkpt>
      <trkpt lat="56.076591" lon="-2.995491">
        <ele>1463.04</ele>
        <time>2026-09-04T09:13:02Z</time>
      </trkpt>
      <trkpt lat="56.075729" lon="-2.998102">
        <ele>1463.04</ele>
        <time>2026-09-04T09:13:02Z</time>
      </trkpt>
      <trkpt lat="56.074917" lon="-3.000641">
        <ele>1455.42</ele>
        <time>2026-09-04T09:13:02Z</time>
      </trkpt>
      <trkpt lat="56.073853" lon="-3.003762">
        <ele>1455.42</ele>
        <time>2026-09-04T09:13:02Z</time>
      </trkpt>
      <trkpt lat="56.073074" lon="-3.006092">
        <ele>1455.42</ele>
        <time>2026-09-04T09:13:02Z</time>
      </trkpt>
      <trkpt lat="56.069458" lon="-3.016995">
        <ele>1432.5600000000002</ele>
        <time>2026-09-04T09:13:02Z</time>
      </trkpt>
      <trkpt lat="56.06612" lon="-3.027077">
        <ele>1402.0800000000002</ele>
        <time>2026-09-04T09:13:02Z</time>
      </trkpt>
      <trkpt lat="56.063232" lon="-3.035805">
        <ele>1371.6000000000001</ele>
        <time>2026-09-04T09:13:02Z</time>
      </trkpt>
      <trkpt lat="56.059788" lon="-3.046303">
        <ele>1333.5</ele>
        <time>2026-09-04T09:13:02Z</time>
      </trkpt>
      <trkpt lat="56.056412" lon="-3.056363">
        <ele>1295.4</ele>
        <time>2026-09-04T09:13:02Z</time>
      </trkpt>
      <trkpt lat="56.05394" lon="-3.063854">
        <ele>1264.92</ele>
        <time>2026-09-04T09:13:02Z</time>
      </trkpt>
      <trkpt lat="56.05069" lon="-3.073592">
        <ele>1226.8200000000002</ele>
        <time>2026-09-04T09:13:02Z</time>
      </trkpt>
      <trkpt lat="56.048103" lon="-3.081322">
        <ele>1196.3400000000001</ele>
        <time>2026-09-04T09:13:02Z</time>
      </trkpt>
      <trkpt lat="56.044693" lon="-3.091403">
        <ele>1150.6200000000001</ele>
        <time>2026-09-04T09:13:02Z</time>
      </trkpt>
      <trkpt lat="56.041397" lon="-3.101307">
        <ele>1112.52</ele>
        <time>2026-09-04T09:13:02Z</time>
      </trkpt>
      <trkpt lat="56.038048" lon="-3.111277">
        <ele>1074.42</ele>
        <time>2026-09-04T09:13:02Z</time>
      </trkpt>
      <trkpt lat="56.034603" lon="-3.121319">
        <ele>1043.94</ele>
        <time>2026-09-04T09:13:02Z</time>
      </trkpt>
      <trkpt lat="56.031158" lon="-3.131618">
        <ele>1005.84</ele>
        <time>2026-09-04T09:13:02Z</time>
      </trkpt>
      <trkpt lat="56.028599" lon="-3.139257">
        <ele>990.6</ele>
        <time>2026-09-04T09:13:02Z</time>
      </trkpt>
      <trkpt lat="56.02557" lon="-3.14827">
        <ele>952.5</ele>
        <time>2026-09-04T09:13:02Z</time>
      </trkpt>
      <trkpt lat="56.023041" lon="-3.155823">
        <ele>914.4000000000001</ele>
        <time>2026-09-04T09:13:02Z</time>
      </trkpt>
      <trkpt lat="56.019939" lon="-3.164921">
        <ele>868.6800000000001</ele>
        <time>2026-09-04T09:13:02Z</time>
      </trkpt>
      <trkpt lat="56.019054" lon="-3.167582">
        <ele>861.0600000000001</ele>
        <time>2026-09-04T09:13:02Z</time>
      </trkpt>
      <trkpt lat="56.018402" lon="-3.169641">
        <ele>853.44</ele>
        <time>2026-09-04T09:13:02Z</time>
      </trkpt>
      <trkpt lat="56.017593" lon="-3.172053">
        <ele>838.2</ele>
        <time>2026-09-04T09:13:02Z</time>
      </trkpt>
      <trkpt lat="56.016907" lon="-3.174133">
        <ele>830.58</ele>
        <time>2026-09-04T09:13:02Z</time>
      </trkpt>
      <trkpt lat="56.016174" lon="-3.176214">
        <ele>822.96</ele>
        <time>2026-09-04T09:13:02Z</time>
      </trkpt>
      <trkpt lat="56.015488" lon="-3.178378">
        <ele>815.34</ele>
        <time>2026-09-04T09:13:02Z</time>
      </trkpt>
      <trkpt lat="56.014816" lon="-3.18037">
        <ele>807.72</ele>
        <time>2026-09-04T09:13:02Z</time>
      </trkpt>
      <trkpt lat="56.014114" lon="-3.182373">
        <ele>800.1</ele>
        <time>2026-09-04T09:13:02Z</time>
      </trkpt>
      <trkpt lat="56.013382" lon="-3.184704">
        <ele>792.48</ele>
        <time>2026-09-04T09:13:02Z</time>
      </trkpt>
      <trkpt lat="56.012695" lon="-3.186701">
        <ele>784.86</ele>
        <time>2026-09-04T09:13:02Z</time>
      </trkpt>
      <trkpt lat="56.011978" lon="-3.188868">
        <ele>777.24</ele>
        <time>2026-09-04T09:13:02Z</time>
      </trkpt>
      <trkpt lat="56.011276" lon="-3.190946">
        <ele>762.0</ele>
        <time>2026-09-04T09:13:02Z</time>
      </trkpt>
      <trkpt lat="56.010536" lon="-3.193073">
        <ele>762.0</ele>
        <time>2026-09-04T09:13:02Z</time>
      </trkpt>
      <trkpt lat="56.00972" lon="-3.195606">
        <ele>746.76</ele>
        <time>2026-09-04T09:13:02Z</time>
      </trkpt>
      <trkpt lat="56.008999" lon="-3.197622">
        <ele>739.14</ele>
        <time>2026-09-04T09:13:02Z</time>
      </trkpt>
      <trkpt lat="56.006672" lon="-3.20466">
        <ele>716.2800000000001</ele>
        <time>2026-09-04T09:13:02Z</time>
      </trkpt>
      <trkpt lat="56.00388" lon="-3.2129">
        <ele>685.8000000000001</ele>
        <time>2026-09-04T09:13:02Z</time>
      </trkpt>
      <trkpt lat="56.003128" lon="-3.215082">
        <ele>678.1800000000001</ele>
        <time>2026-09-04T09:13:02Z</time>
      </trkpt>
      <trkpt lat="56.002441" lon="-3.217163">
        <ele>670.5600000000001</ele>
        <time>2026-09-04T09:13:02Z</time>
      </trkpt>
      <trkpt lat="56.000427" lon="-3.222989">
        <ele>647.7</ele>
        <time>2026-09-04T09:13:02Z</time>
      </trkpt>
      <trkpt lat="55.998337" lon="-3.229208">
        <ele>624.84</ele>
        <time>2026-09-04T09:13:02Z</time>
      </trkpt>
      <trkpt lat="55.997688" lon="-3.23101">
        <ele>617.22</ele>
        <time>2026-09-04T09:13:02Z</time>
      </trkpt>
      <trkpt lat="55.996994" lon="-3.233143">
        <ele>609.6</ele>
        <time>2026-09-04T09:13:02Z</time>
      </trkpt>
      <trkpt lat="55.996384" lon="-3.235044">
        <ele>601.98</ele>
        <time>2026-09-04T09:13:02Z</time>
      </trkpt>
      <trkpt lat="55.995823" lon="-3.236675">
        <ele>601.98</ele>
        <time>2026-09-04T09:13:02Z</time>
      </trkpt>
      <trkpt lat="55.993961" lon="-3.242426">
        <ele>579.12</ele>
        <time>2026-09-04T09:13:02Z</time>
      </trkpt>
      <trkpt lat="55.991402" lon="-3.250065">
        <ele>556.26</ele>
        <time>2026-09-04T09:13:02Z</time>
      </trkpt>
      <trkpt lat="55.989441" lon="-3.255782">
        <ele>533.4</ele>
        <time>2026-09-04T09:13:02Z</time>
      </trkpt>
      <trkpt lat="55.986923" lon="-3.263272">
        <ele>495.3</ele>
        <time>2026-09-04T09:13:02Z</time>
      </trkpt>
      <trkpt lat="55.985676" lon="-3.266973">
        <ele>480.06</ele>
        <time>2026-09-04T09:13:02Z</time>
      </trkpt>
      <trkpt lat="55.985023" lon="-3.268776">
        <ele>472.44</ele>
        <time>2026-09-04T09:13:02Z</time>
      </trkpt>
      <trkpt lat="55.984451" lon="-3.270513">
        <ele>472.44</ele>
        <time>2026-09-04T09:13:02Z</time>
      </trkpt>
      <trkpt lat="55.98386" lon="-3.272381">
        <ele>464.82000000000005</ele>
        <time>2026-09-04T09:13:02Z</time>
      </trkpt>
      <trkpt lat="55.983124" lon="-3.274508">
        <ele>457.20000000000005</ele>
        <time>2026-09-04T09:13:02Z</time>
      </trkpt>
      <trkpt lat="55.982666" lon="-3.275923">
        <ele>449.58000000000004</ele>
        <time>2026-09-04T09:13:02Z</time>
      </trkpt>
      <trkpt lat="55.981907" lon="-3.278131">
        <ele>441.96000000000004</ele>
        <time>2026-09-04T09:13:02Z</time>
      </trkpt>
      <trkpt lat="55.981384" lon="-3.279752">
        <ele>441.96000000000004</ele>
        <time>2026-09-04T09:13:02Z</time>
      </trkpt>
      <trkpt lat="55.980698" lon="-3.281749">
        <ele>426.72</ele>
        <time>2026-09-04T09:13:02Z</time>
      </trkpt>
      <trkpt lat="55.980137" lon="-3.283367">
        <ele>426.72</ele>
        <time>2026-09-04T09:13:02Z</time>
      </trkpt>
      <trkpt lat="55.979507" lon="-3.285245">
        <ele>419.1</ele>
        <time>2026-09-04T09:13:02Z</time>
      </trkpt>
      <trkpt lat="55.978878" lon="-3.287144">
        <ele>411.48</ele>
        <time>2026-09-04T09:13:02Z</time>
      </trkpt>
      <trkpt lat="55.978363" lon="-3.288741">
        <ele>403.86</ele>
        <time>2026-09-04T09:13:02Z</time>
      </trkpt>
      <trkpt lat="55.977715" lon="-3.290577">
        <ele>396.24</ele>
        <time>2026-09-04T09:13:02Z</time>
      </trkpt>
      <trkpt lat="55.977066" lon="-3.292637">
        <ele>396.24</ele>
        <time>2026-09-04T09:13:02Z</time>
      </trkpt>
      <trkpt lat="55.97644" lon="-3.2944">
        <ele>388.62</ele>
        <time>2026-09-04T09:13:02Z</time>
      </trkpt>
      <trkpt lat="55.975761" lon="-3.296328">
        <ele>381.0</ele>
        <time>2026-09-04T09:13:02Z</time>
      </trkpt>
      <trkpt lat="55.975155" lon="-3.29813">
        <ele>373.38</ele>
        <time>2026-09-04T09:13:02Z</time>
      </trkpt>
      <trkpt lat="55.974426" lon="-3.30031">
        <ele>365.76</ele>
        <time>2026-09-04T09:13:02Z</time>
      </trkpt>
      <trkpt lat="55.972641" lon="-3.305511">
        <ele>350.52000000000004</ele>
        <time>2026-09-04T09:13:02Z</time>
      </trkpt>
      <trkpt lat="55.970078" lon="-3.313293">
        <ele>320.04</ele>
        <time>2026-09-04T09:13:02Z</time>
      </trkpt>
      <trkpt lat="55.96756" lon="-3.320701">
        <ele>289.56</ele>
        <time>2026-09-04T09:13:02Z</time>
      </trkpt>
      <trkpt lat="55.964996" lon="-3.328192">
        <ele>259.08000000000004</ele>
        <time>2026-09-04T09:13:02Z</time>
      </trkpt>
      <trkpt lat="55.962585" lon="-3.335295">
        <ele>228.60000000000002</ele>
        <time>2026-09-04T09:13:02Z</time>
      </trkpt>
      <trkpt lat="55.960678" lon="-3.341045">
        <ele>205.74</ele>
        <time>2026-09-04T09:13:02Z</time>
      </trkpt>
      <trkpt lat="55.958164" lon="-3.348427">
        <ele>175.26000000000002</ele>
        <time>2026-09-04T09:13:02Z</time>
      </trkpt>
      <trkpt lat="55.956116" lon="-3.354409">
        <ele>152.4</ele>
        <time>2026-09-04T09:13:02Z</time>
      </trkpt>
      <trkpt lat="55.953598" lon="-3.3619">
        <ele>121.92</ele>
        <time>2026-09-04T09:13:02Z</time>
      </trkpt>
      <trkpt lat="55.951366" lon="-3.368425">
        <ele>121.92</ele>
        <time>2026-09-04T09:13:02Z</time>
      </trkpt>
      <trkpt lat="55.94939" lon="-3.37424">
        <ele>0.0</ele>
        <time>2026-09-04T09:13:02Z</time>
      </trkpt>
      <trkpt lat="55.948196" lon="-3.377776">
        <ele>0.0</ele>
        <time>2026-09-04T09:13:02Z</time>
      </trkpt>
      <trkpt lat="55.947609" lon="-3.379562">
        <ele>0.0</ele>
        <time>2026-09-04T09:13:02Z</time>
      </trkpt>
      <trkpt lat="55.947201" lon="-3.380613">
        <ele>0.0</ele>
        <time>2026-09-04T09:13:02Z</time>
      </trkpt>
      <trkpt lat="55.946949" lon="-3.380605">
        <ele>0.0</ele>
        <time>2026-09-04T09:13:02Z</time>
      </trkpt>
      <trkpt lat="55.94677" lon="-3.380399">
        <ele>0.0</ele>
        <time>2026-09-04T09:13:02Z</time>
      </trkpt>
      <trkpt lat="55.94648" lon="-3.380085">
        <ele>0.0</ele>
        <time>2026-09-04T09:13:02Z</time>
      </trkpt>
      <trkpt lat="55.946281" lon="-3.379862">
        <ele>0.0</ele>
        <time>2026-09-04T09:13:02Z</time>
      </trkpt>
      <trkpt lat="55.94606" lon="-3.379648">
        <ele>0.0</ele>
        <time>2026-09-04T09:13:02Z</time>
      </trkpt>
      <trkpt lat="55.945873" lon="-3.379369">
        <ele>0.0</ele>
        <time>2026-09-04T09:13:02Z</time>
      </trkpt>
      <trkpt lat="55.945839" lon="-3.379086">
        <ele>0.0</ele>
        <time>2026-09-04T09:13:02Z</time>
      </trkpt>
      <trkpt lat="55.945885" lon="-3.378858">
        <ele>0.0</ele>
        <time>2026-09-04T09:13:02Z</time>
      </trkpt>
      <trkpt lat="55.945976" lon="-3.378587">
        <ele>0.0</ele>
        <time>2026-09-04T09:13:02Z</time>
      </trkpt>
      <trkpt lat="55.94606" lon="-3.37836">
        <ele>0.0</ele>
        <time>2026-09-04T09:13:02Z</time>
      </trkpt>
      <trkpt lat="55.946152" lon="-3.378124">
        <ele>0.0</ele>
        <time>2026-09-04T09:13:02Z</time>
      </trkpt>
      <trkpt lat="55.946247" lon="-3.377867">
        <ele>0.0</ele>
        <time>2026-09-04T09:13:02Z</time>
      </trkpt>
      <trkpt lat="55.94632" lon="-3.37763">
        <ele>0.0</ele>
        <time>2026-09-04T09:13:02Z</time>
      </trkpt>
      <trkpt lat="55.946423" lon="-3.37733">
        <ele>0.0</ele>
        <time>2026-09-04T09:13:02Z</time>
      </trkpt>
      <trkpt lat="55.946514" lon="-3.377073">
        <ele>0.0</ele>
        <time>2026-09-04T09:13:02Z</time>
      </trkpt>
      <trkpt lat="55.946777" lon="-3.376298">
        <ele>0.0</ele>
        <time>2026-09-04T09:13:02Z</time>
      </trkpt>
      <trkpt lat="55.947037" lon="-3.375506">
        <ele>0.0</ele>
        <time>2026-09-04T09:13:02Z</time>
      </trkpt>
      <trkpt lat="55.947327" lon="-3.374655">
        <ele>0.0</ele>
        <time>2026-09-04T09:13:02Z</time>
      </trkpt>
      <trkpt lat="55.947693" lon="-3.373573">
        <ele>0.0</ele>
        <time>2026-09-04T09:13:02Z</time>
      </trkpt>
      <trkpt lat="55.948082" lon="-3.372428">
        <ele>0.0</ele>
        <time>2026-09-04T09:13:02Z</time>
      </trkpt>
      <trkpt lat="55.948437" lon="-3.371409">
        <ele>0.0</ele>
        <time>2026-09-04T09:13:02Z</time>
      </trkpt>
      <trkpt lat="55.948914" lon="-3.369992">
        <ele>0.0</ele>
        <time>2026-09-04T09:13:02Z</time>
      </trkpt>
      <trkpt lat="55.949306" lon="-3.368833">
        <ele>0.0</ele>
        <time>2026-09-04T09:13:02Z</time>
      </trkpt>
      <trkpt lat="55.949806" lon="-3.367352">
        <ele>0.0</ele>
        <time>2026-09-04T09:13:02Z</time>
      </trkpt>
      <trkpt lat="55.950165" lon="-3.36629">
        <ele>0.0</ele>
        <time>2026-09-04T09:13:02Z</time>
      </trkpt>
      <trkpt lat="55.95052" lon="-3.36525">
        <ele>0.0</ele>
        <time>2026-09-04T09:13:02Z</time>
      </trkpt>
      <trkpt lat="55.950634" lon="-3.364885">
        <ele>0.0</ele>
        <time>2026-09-04T09:13:02Z</time>
      </trkpt>
      <trkpt lat="55.950714" lon="-3.364563">
        <ele>0.0</ele>
        <time>2026-09-04T09:13:02Z</time>
      </trkpt>
      <trkpt lat="55.950703" lon="-3.364272">
        <ele>0.0</ele>
        <time>2026-09-04T09:13:02Z</time>
      </trkpt>
      <trkpt lat="55.9506" lon="-3.363984">
        <ele>0.0</ele>
        <time>2026-09-04T09:13:02Z</time>
      </trkpt>
      <trkpt lat="55.950401" lon="-3.363748">
        <ele>0.0</ele>
        <time>2026-09-04T09:13:02Z</time>
      </trkpt>
      <trkpt lat="55.950291" lon="-3.363523">
        <ele>0.0</ele>
        <time>2026-09-04T09:13:02Z</time>
      </trkpt>
      <trkpt lat="55.950199" lon="-3.363231">
        <ele>0.0</ele>
        <time>2026-09-04T09:13:02Z</time>
      </trkpt>
      <trkpt lat="55.950146" lon="-3.363018">
        <ele>0.0</ele>
        <time>2026-09-04T09:13:02Z</time>
      </trkpt>
      <trkpt lat="55.950089" lon="-3.362803">
        <ele>0.0</ele>
        <time>2026-09-04T09:13:02Z</time>
      </trkpt>
      <trkpt lat="55.950016" lon="-3.362524">
        <ele>0.0</ele>
        <time>2026-09-04T09:13:02Z</time>
      </trkpt>
      <trkpt lat="55.949947" lon="-3.362288">
        <ele>0.0</ele>
        <time>2026-09-04T09:13:02Z</time>
      </trkpt>
    </trkseg>
  </trk>
</gpx>
