<?xml version="1.0" encoding="UTF-8"?>
<gpx xmlns="http://www.topografix.com/GPX/1/1" xmlns:xsi="http://www.w3.org/2001/XMLSchema-instance" xsi:schemaLocation="http://www.topografix.com/GPX/1/1 http://www.topografix.com/GPX/1/1/gpx.xsd" version="1.1" creator="gpx.py -- https://github.com/tkrajina/gpxpy">
  <metadata>
    <name>VN7626_40e79f81</name>
    <time>2026-07-29T07:31:07Z</time>
  </metadata>
  <trk>
    <name>VN7626_40e79f81</name>
    <cmt>2026-07-29</cmt>
    <type>Plane</type>
    <trkseg>
      <trkpt lat="13.952625" lon="109.048065">
        <ele>0.0</ele>
        <time>2026-07-29T07:31:07Z</time>
      </trkpt>
      <trkpt lat="14.054167" lon="109.009674">
        <ele>1440.18</ele>
        <time>2026-07-29T07:31:07Z</time>
      </trkpt>
      <trkpt lat="14.063324" lon="109.011559">
        <ele>1554.48</ele>
        <time>2026-07-29T07:31:07Z</time>
      </trkpt>
      <trkpt lat="14.074743" lon="109.012856">
        <ele>1684.02</ele>
        <time>2026-07-29T07:31:07Z</time>
      </trkpt>
      <trkpt lat="14.077629" lon="109.013">
        <ele>1714.5</ele>
        <time>2026-07-29T07:31:07Z</time>
      </trkpt>
      <trkpt lat="14.080444" lon="109.013023">
        <ele>1737.3600000000001</ele>
        <time>2026-07-29T07:31:07Z</time>
      </trkpt>
      <trkpt lat="14.083169" lon="109.013">
        <ele>1767.8400000000001</ele>
        <time>2026-07-29T07:31:07Z</time>
      </trkpt>
      <trkpt lat="14.0858" lon="109.012932">
        <ele>1790.7</ele>
        <time>2026-07-29T07:31:07Z</time>
      </trkpt>
      <trkpt lat="14.088942" lon="109.012756">
        <ele>1821.18</ele>
        <time>2026-07-29T07:31:07Z</time>
      </trkpt>
      <trkpt lat="14.091202" lon="109.012596">
        <ele>1844.0400000000002</ele>
        <time>2026-07-29T07:31:07Z</time>
      </trkpt>
      <trkpt lat="14.094063" lon="109.012367">
        <ele>1882.14</ele>
        <time>2026-07-29T07:31:07Z</time>
      </trkpt>
      <trkpt lat="14.096622" lon="109.012085">
        <ele>1912.6200000000001</ele>
        <time>2026-07-29T07:31:07Z</time>
      </trkpt>
      <trkpt lat="14.10022" lon="109.011604">
        <ele>1950.72</ele>
        <time>2026-07-29T07:31:07Z</time>
      </trkpt>
      <trkpt lat="14.102489" lon="109.011261">
        <ele>1988.8200000000002</ele>
        <time>2026-07-29T07:31:07Z</time>
      </trkpt>
      <trkpt lat="14.106213" lon="109.010635">
        <ele>2034.5400000000002</ele>
        <time>2026-07-29T07:31:07Z</time>
      </trkpt>
      <trkpt lat="14.107635" lon="109.010376">
        <ele>2049.78</ele>
        <time>2026-07-29T07:31:07Z</time>
      </trkpt>
      <trkpt lat="14.110519" lon="109.00985">
        <ele>2087.88</ele>
        <time>2026-07-29T07:31:07Z</time>
      </trkpt>
      <trkpt lat="14.113495" lon="109.009239">
        <ele>2125.98</ele>
        <time>2026-07-29T07:31:07Z</time>
      </trkpt>
      <trkpt lat="14.116241" lon="109.008667">
        <ele>2164.08</ele>
        <time>2026-07-29T07:31:07Z</time>
      </trkpt>
      <trkpt lat="14.119015" lon="109.00808">
        <ele>2202.1800000000003</ele>
        <time>2026-07-29T07:31:07Z</time>
      </trkpt>
      <trkpt lat="14.122559" lon="109.007294">
        <ele>2247.9</ele>
        <time>2026-07-29T07:31:07Z</time>
      </trkpt>
      <trkpt lat="14.137482" lon="109.003601">
        <ele>2453.6400000000003</ele>
        <time>2026-07-29T07:31:07Z</time>
      </trkpt>
      <trkpt lat="14.154161" lon="108.999313">
        <ele>2682.2400000000002</ele>
        <time>2026-07-29T07:31:07Z</time>
      </trkpt>
      <trkpt lat="14.17092" lon="108.994972">
        <ele>2811.78</ele>
        <time>2026-07-29T07:31:07Z</time>
      </trkpt>
      <trkpt lat="14.187912" lon="108.990685">
        <ele>2872.7400000000002</ele>
        <time>2026-07-29T07:31:07Z</time>
      </trkpt>
      <trkpt lat="14.206998" lon="108.985962">
        <ele>3025.1400000000003</ele>
        <time>2026-07-29T07:31:07Z</time>
      </trkpt>
      <trkpt lat="14.227993" lon="108.981003">
        <ele>3208.02</ele>
        <time>2026-07-29T07:31:07Z</time>
      </trkpt>
      <trkpt lat="14.247528" lon="108.976418">
        <ele>3284.2200000000003</ele>
        <time>2026-07-29T07:31:07Z</time>
      </trkpt>
      <trkpt lat="14.267075" lon="108.971825">
        <ele>3337.56</ele>
        <time>2026-07-29T07:31:07Z</time>
      </trkpt>
      <trkpt lat="14.289047" lon="108.966667">
        <ele>3459.48</ele>
        <time>2026-07-29T07:31:07Z</time>
      </trkpt>
      <trkpt lat="14.309739" lon="108.961967">
        <ele>3619.5</ele>
        <time>2026-07-29T07:31:07Z</time>
      </trkpt>
      <trkpt lat="14.332214" lon="108.957809">
        <ele>3779.52</ele>
        <time>2026-07-29T07:31:07Z</time>
      </trkpt>
      <trkpt lat="14.384501" lon="108.94838">
        <ele>4198.62</ele>
        <time>2026-07-29T07:31:07Z</time>
      </trkpt>
      <trkpt lat="14.437134" lon="108.939201">
        <ele>4549.14</ele>
        <time>2026-07-29T07:31:07Z</time>
      </trkpt>
      <trkpt lat="14.493713" lon="108.928574">
        <ele>4922.52</ele>
        <time>2026-07-29T07:31:07Z</time>
      </trkpt>
      <trkpt lat="14.548784" lon="108.918312">
        <ele>5303.52</ele>
        <time>2026-07-29T07:31:07Z</time>
      </trkpt>
      <trkpt lat="14.607147" lon="108.907707">
        <ele>5669.280000000001</ele>
        <time>2026-07-29T07:31:07Z</time>
      </trkpt>
      <trkpt lat="14.664322" lon="108.896248">
        <ele>5935.9800000000005</ele>
        <time>2026-07-29T07:31:07Z</time>
      </trkpt>
      <trkpt lat="14.722366" lon="108.885071">
        <ele>6309.360000000001</ele>
        <time>2026-07-29T07:31:07Z</time>
      </trkpt>
      <trkpt lat="14.77739" lon="108.874748">
        <ele>6675.12</ele>
        <time>2026-07-29T07:31:07Z</time>
      </trkpt>
      <trkpt lat="14.838293" lon="108.860779">
        <ele>6804.660000000001</ele>
        <time>2026-07-29T07:31:07Z</time>
      </trkpt>
      <trkpt lat="14.858185" lon="108.853554">
        <ele>6873.240000000001</ele>
        <time>2026-07-29T07:31:07Z</time>
      </trkpt>
      <trkpt lat="14.86203" lon="108.852104">
        <ele>6888.4800000000005</ele>
        <time>2026-07-29T07:31:07Z</time>
      </trkpt>
      <trkpt lat="14.920486" lon="108.829506">
        <ele>6995.160000000001</ele>
        <time>2026-07-29T07:31:07Z</time>
      </trkpt>
      <trkpt lat="14.980603" lon="108.80619">
        <ele>7078.9800000000005</ele>
        <time>2026-07-29T07:31:07Z</time>
      </trkpt>
      <trkpt lat="15.040741" lon="108.782524">
        <ele>7330.4400000000005</ele>
        <time>2026-07-29T07:31:07Z</time>
      </trkpt>
      <trkpt lat="15.105503" lon="108.756508">
        <ele>7559.04</ele>
        <time>2026-07-29T07:31:07Z</time>
      </trkpt>
      <trkpt lat="15.166397" lon="108.731644">
        <ele>7711.4400000000005</ele>
        <time>2026-07-29T07:31:07Z</time>
      </trkpt>
      <trkpt lat="15.231491" lon="108.703064">
        <ele>7932.42</ele>
        <time>2026-07-29T07:31:07Z</time>
      </trkpt>
      <trkpt lat="15.290408" lon="108.667145">
        <ele>8046.72</ele>
        <time>2026-07-29T07:31:07Z</time>
      </trkpt>
      <trkpt lat="15.351857" lon="108.627663">
        <ele>8176.26</ele>
        <time>2026-07-29T07:31:07Z</time>
      </trkpt>
      <trkpt lat="15.414284" lon="108.587639">
        <ele>8229.6</ele>
        <time>2026-07-29T07:31:07Z</time>
      </trkpt>
      <trkpt lat="15.47941" lon="108.545952">
        <ele>8229.6</ele>
        <time>2026-07-29T07:31:07Z</time>
      </trkpt>
      <trkpt lat="15.540999" lon="108.506371">
        <ele>8229.6</ele>
        <time>2026-07-29T07:31:07Z</time>
      </trkpt>
      <trkpt lat="15.605804" lon="108.464455">
        <ele>8229.6</ele>
        <time>2026-07-29T07:31:07Z</time>
      </trkpt>
      <trkpt lat="15.671066" lon="108.422256">
        <ele>8229.6</ele>
        <time>2026-07-29T07:31:07Z</time>
      </trkpt>
      <trkpt lat="15.736938" lon="108.379829">
        <ele>8229.6</ele>
        <time>2026-07-29T07:31:07Z</time>
      </trkpt>
      <trkpt lat="15.797653" lon="108.341003">
        <ele>8252.460000000001</ele>
        <time>2026-07-29T07:31:07Z</time>
      </trkpt>
      <trkpt lat="15.861832" lon="108.300041">
        <ele>8473.44</ele>
        <time>2026-07-29T07:31:07Z</time>
      </trkpt>
      <trkpt lat="15.922668" lon="108.261543">
        <ele>8656.32</ele>
        <time>2026-07-29T07:31:07Z</time>
      </trkpt>
      <trkpt lat="15.983002" lon="108.223763">
        <ele>8831.58</ele>
        <time>2026-07-29T07:31:07Z</time>
      </trkpt>
      <trkpt lat="16.046511" lon="108.183792">
        <ele>8839.2</ele>
        <time>2026-07-29T07:31:07Z</time>
      </trkpt>
      <trkpt lat="16.107239" lon="108.144981">
        <ele>8839.2</ele>
        <time>2026-07-29T07:31:07Z</time>
      </trkpt>
      <trkpt lat="16.172836" lon="108.10022">
        <ele>8839.2</ele>
        <time>2026-07-29T07:31:07Z</time>
      </trkpt>
      <trkpt lat="16.235184" lon="108.057281">
        <ele>8839.2</ele>
        <time>2026-07-29T07:31:07Z</time>
      </trkpt>
      <trkpt lat="16.297714" lon="108.014641">
        <ele>8839.2</ele>
        <time>2026-07-29T07:31:07Z</time>
      </trkpt>
      <trkpt lat="16.359787" lon="107.972618">
        <ele>8839.2</ele>
        <time>2026-07-29T07:31:07Z</time>
      </trkpt>
      <trkpt lat="16.422884" lon="107.929832">
        <ele>8831.58</ele>
        <time>2026-07-29T07:31:07Z</time>
      </trkpt>
      <trkpt lat="16.486288" lon="107.886772">
        <ele>8823.960000000001</ele>
        <time>2026-07-29T07:31:07Z</time>
      </trkpt>
      <trkpt lat="16.547878" lon="107.844986">
        <ele>8823.960000000001</ele>
        <time>2026-07-29T07:31:07Z</time>
      </trkpt>
      <trkpt lat="16.61105" lon="107.802071">
        <ele>8846.82</ele>
        <time>2026-07-29T07:31:07Z</time>
      </trkpt>
      <trkpt lat="16.672943" lon="107.75988">
        <ele>8846.82</ele>
        <time>2026-07-29T07:31:07Z</time>
      </trkpt>
      <trkpt lat="16.733667" lon="107.718498">
        <ele>8846.82</ele>
        <time>2026-07-29T07:31:07Z</time>
      </trkpt>
      <trkpt lat="16.795166" lon="107.676567">
        <ele>8839.2</ele>
        <time>2026-07-29T07:31:07Z</time>
      </trkpt>
      <trkpt lat="16.853354" lon="107.636879">
        <ele>8839.2</ele>
        <time>2026-07-29T07:31:07Z</time>
      </trkpt>
      <trkpt lat="16.916565" lon="107.59388">
        <ele>8839.2</ele>
        <time>2026-07-29T07:31:07Z</time>
      </trkpt>
      <trkpt lat="16.978958" lon="107.551384">
        <ele>8839.2</ele>
        <time>2026-07-29T07:31:07Z</time>
      </trkpt>
      <trkpt lat="17.040028" lon="107.50946">
        <ele>8839.2</ele>
        <time>2026-07-29T07:31:07Z</time>
      </trkpt>
      <trkpt lat="17.100906" lon="107.467682">
        <ele>8846.82</ele>
        <time>2026-07-29T07:31:07Z</time>
      </trkpt>
      <trkpt lat="17.163298" lon="107.425049">
        <ele>8846.82</ele>
        <time>2026-07-29T07:31:07Z</time>
      </trkpt>
      <trkpt lat="17.225166" lon="107.382729">
        <ele>8839.2</ele>
        <time>2026-07-29T07:31:07Z</time>
      </trkpt>
      <trkpt lat="17.283216" lon="107.342903">
        <ele>8839.2</ele>
        <time>2026-07-29T07:31:07Z</time>
      </trkpt>
      <trkpt lat="17.344433" lon="107.300865">
        <ele>8839.2</ele>
        <time>2026-07-29T07:31:07Z</time>
      </trkpt>
      <trkpt lat="17.404903" lon="107.259377">
        <ele>8839.2</ele>
        <time>2026-07-29T07:31:07Z</time>
      </trkpt>
      <trkpt lat="17.467703" lon="107.216263">
        <ele>8839.2</ele>
        <time>2026-07-29T07:31:07Z</time>
      </trkpt>
      <trkpt lat="17.52594" lon="107.176308">
        <ele>8846.82</ele>
        <time>2026-07-29T07:31:07Z</time>
      </trkpt>
      <trkpt lat="17.584084" lon="107.136314">
        <ele>8839.2</ele>
        <time>2026-07-29T07:31:07Z</time>
      </trkpt>
      <trkpt lat="17.644508" lon="107.094627">
        <ele>8839.2</ele>
        <time>2026-07-29T07:31:07Z</time>
      </trkpt>
      <trkpt lat="17.705166" lon="107.052696">
        <ele>8831.58</ele>
        <time>2026-07-29T07:31:07Z</time>
      </trkpt>
      <trkpt lat="17.764801" lon="107.011559">
        <ele>8839.2</ele>
        <time>2026-07-29T07:31:07Z</time>
      </trkpt>
      <trkpt lat="17.824339" lon="106.970444">
        <ele>8839.2</ele>
        <time>2026-07-29T07:31:07Z</time>
      </trkpt>
      <trkpt lat="17.885044" lon="106.930275">
        <ele>8839.2</ele>
        <time>2026-07-29T07:31:07Z</time>
      </trkpt>
      <trkpt lat="17.95079" lon="106.895531">
        <ele>8846.82</ele>
        <time>2026-07-29T07:31:07Z</time>
      </trkpt>
      <trkpt lat="18.017485" lon="106.862053">
        <ele>8854.44</ele>
        <time>2026-07-29T07:31:07Z</time>
      </trkpt>
      <trkpt lat="18.084686" lon="106.827972">
        <ele>8846.82</ele>
        <time>2026-07-29T07:31:07Z</time>
      </trkpt>
      <trkpt lat="18.149872" lon="106.795013">
        <ele>8839.2</ele>
        <time>2026-07-29T07:31:07Z</time>
      </trkpt>
      <trkpt lat="18.211441" lon="106.763908">
        <ele>8831.58</ele>
        <time>2026-07-29T07:31:07Z</time>
      </trkpt>
      <trkpt lat="18.279556" lon="106.729431">
        <ele>8770.62</ele>
        <time>2026-07-29T07:31:07Z</time>
      </trkpt>
      <trkpt lat="18.345026" lon="106.696274">
        <ele>8686.800000000001</ele>
        <time>2026-07-29T07:31:07Z</time>
      </trkpt>
      <trkpt lat="18.408463" lon="106.664154">
        <ele>8610.6</ele>
        <time>2026-07-29T07:31:07Z</time>
      </trkpt>
      <trkpt lat="18.473831" lon="106.630997">
        <ele>8534.4</ele>
        <time>2026-07-29T07:31:07Z</time>
      </trkpt>
      <trkpt lat="18.536915" lon="106.598991">
        <ele>8450.58</ele>
        <time>2026-07-29T07:31:07Z</time>
      </trkpt>
      <trkpt lat="18.603111" lon="106.565437">
        <ele>8366.76</ele>
        <time>2026-07-29T07:31:07Z</time>
      </trkpt>
      <trkpt lat="18.669682" lon="106.53183">
        <ele>8290.560000000001</ele>
        <time>2026-07-29T07:31:07Z</time>
      </trkpt>
      <trkpt lat="18.736252" lon="106.498322">
        <ele>8229.6</ele>
        <time>2026-07-29T07:31:07Z</time>
      </trkpt>
      <trkpt lat="18.800858" lon="106.465759">
        <ele>8229.6</ele>
        <time>2026-07-29T07:31:07Z</time>
      </trkpt>
      <trkpt lat="18.861477" lon="106.435097">
        <ele>8229.6</ele>
        <time>2026-07-29T07:31:07Z</time>
      </trkpt>
      <trkpt lat="18.922415" lon="106.404236">
        <ele>8229.6</ele>
        <time>2026-07-29T07:31:07Z</time>
      </trkpt>
      <trkpt lat="18.987076" lon="106.371674">
        <ele>8229.6</ele>
        <time>2026-07-29T07:31:07Z</time>
      </trkpt>
      <trkpt lat="19.046677" lon="106.341675">
        <ele>8229.6</ele>
        <time>2026-07-29T07:31:07Z</time>
      </trkpt>
      <trkpt lat="19.083672" lon="106.318489">
        <ele>8229.6</ele>
        <time>2026-07-29T07:31:07Z</time>
      </trkpt>
      <trkpt lat="19.087006" lon="106.316025">
        <ele>8229.6</ele>
        <time>2026-07-29T07:31:07Z</time>
      </trkpt>
      <trkpt lat="19.089769" lon="106.313896">
        <ele>8229.6</ele>
        <time>2026-07-29T07:31:07Z</time>
      </trkpt>
      <trkpt lat="19.094009" lon="106.310623">
        <ele>8229.6</ele>
        <time>2026-07-29T07:31:07Z</time>
      </trkpt>
      <trkpt lat="19.097946" lon="106.307587">
        <ele>8229.6</ele>
        <time>2026-07-29T07:31:07Z</time>
      </trkpt>
      <trkpt lat="19.101379" lon="106.304939">
        <ele>8229.6</ele>
        <time>2026-07-29T07:31:07Z</time>
      </trkpt>
      <trkpt lat="19.150473" lon="106.26651">
        <ele>8229.6</ele>
        <time>2026-07-29T07:31:07Z</time>
      </trkpt>
      <trkpt lat="19.200165" lon="106.227448">
        <ele>8229.6</ele>
        <time>2026-07-29T07:31:07Z</time>
      </trkpt>
      <trkpt lat="19.247772" lon="106.189926">
        <ele>8229.6</ele>
        <time>2026-07-29T07:31:07Z</time>
      </trkpt>
      <trkpt lat="19.296524" lon="106.151421">
        <ele>8229.6</ele>
        <time>2026-07-29T07:31:07Z</time>
      </trkpt>
      <trkpt lat="19.34334" lon="106.115494">
        <ele>8229.6</ele>
        <time>2026-07-29T07:31:07Z</time>
      </trkpt>
      <trkpt lat="19.372248" lon="106.092674">
        <ele>8229.6</ele>
        <time>2026-07-29T07:31:07Z</time>
      </trkpt>
      <trkpt lat="19.375275" lon="106.089424">
        <ele>8229.6</ele>
        <time>2026-07-29T07:31:07Z</time>
      </trkpt>
      <trkpt lat="19.377686" lon="106.086632">
        <ele>8229.6</ele>
        <time>2026-07-29T07:31:07Z</time>
      </trkpt>
      <trkpt lat="19.38007" lon="106.083588">
        <ele>8229.6</ele>
        <time>2026-07-29T07:31:07Z</time>
      </trkpt>
      <trkpt lat="19.382446" lon="106.080307">
        <ele>8229.6</ele>
        <time>2026-07-29T07:31:07Z</time>
      </trkpt>
      <trkpt lat="19.384918" lon="106.076576">
        <ele>8229.6</ele>
        <time>2026-07-29T07:31:07Z</time>
      </trkpt>
      <trkpt lat="19.386911" lon="106.073196">
        <ele>8229.6</ele>
        <time>2026-07-29T07:31:07Z</time>
      </trkpt>
      <trkpt lat="19.389267" lon="106.068924">
        <ele>8229.6</ele>
        <time>2026-07-29T07:31:07Z</time>
      </trkpt>
      <trkpt lat="19.391008" lon="106.065407">
        <ele>8229.6</ele>
        <time>2026-07-29T07:31:07Z</time>
      </trkpt>
      <trkpt lat="19.3927" lon="106.061867">
        <ele>8229.6</ele>
        <time>2026-07-29T07:31:07Z</time>
      </trkpt>
      <trkpt lat="19.394623" lon="106.057594">
        <ele>8229.6</ele>
        <time>2026-07-29T07:31:07Z</time>
      </trkpt>
      <trkpt lat="19.396456" lon="106.053474">
        <ele>8229.6</ele>
        <time>2026-07-29T07:31:07Z</time>
      </trkpt>
      <trkpt lat="19.398514" lon="106.048767">
        <ele>8229.6</ele>
        <time>2026-07-29T07:31:07Z</time>
      </trkpt>
      <trkpt lat="19.40004" lon="106.045181">
        <ele>8229.6</ele>
        <time>2026-07-29T07:31:07Z</time>
      </trkpt>
      <trkpt lat="19.401993" lon="106.04068">
        <ele>8229.6</ele>
        <time>2026-07-29T07:31:07Z</time>
      </trkpt>
      <trkpt lat="19.40387" lon="106.036118">
        <ele>8229.6</ele>
        <time>2026-07-29T07:31:07Z</time>
      </trkpt>
      <trkpt lat="19.405487" lon="106.032349">
        <ele>8229.6</ele>
        <time>2026-07-29T07:31:07Z</time>
      </trkpt>
      <trkpt lat="19.407166" lon="106.028366">
        <ele>8229.6</ele>
        <time>2026-07-29T07:31:07Z</time>
      </trkpt>
      <trkpt lat="19.408356" lon="106.025421">
        <ele>8229.6</ele>
        <time>2026-07-29T07:31:07Z</time>
      </trkpt>
      <trkpt lat="19.433533" lon="105.966225">
        <ele>8229.6</ele>
        <time>2026-07-29T07:31:07Z</time>
      </trkpt>
      <trkpt lat="19.454269" lon="105.906975">
        <ele>8229.6</ele>
        <time>2026-07-29T07:31:07Z</time>
      </trkpt>
      <trkpt lat="19.455276" lon="105.902954">
        <ele>8229.6</ele>
        <time>2026-07-29T07:31:07Z</time>
      </trkpt>
      <trkpt lat="19.456322" lon="105.898712">
        <ele>8229.6</ele>
        <time>2026-07-29T07:31:07Z</time>
      </trkpt>
      <trkpt lat="19.471218" lon="105.83654">
        <ele>8229.6</ele>
        <time>2026-07-29T07:31:07Z</time>
      </trkpt>
      <trkpt lat="19.486084" lon="105.775436">
        <ele>8229.6</ele>
        <time>2026-07-29T07:31:07Z</time>
      </trkpt>
      <trkpt lat="19.501198" lon="105.715744">
        <ele>8229.6</ele>
        <time>2026-07-29T07:31:07Z</time>
      </trkpt>
      <trkpt lat="19.515768" lon="105.657715">
        <ele>8229.6</ele>
        <time>2026-07-29T07:31:07Z</time>
      </trkpt>
      <trkpt lat="19.530014" lon="105.607674">
        <ele>8229.6</ele>
        <time>2026-07-29T07:31:07Z</time>
      </trkpt>
      <trkpt lat="19.534058" lon="105.599556">
        <ele>8221.98</ele>
        <time>2026-07-29T07:31:07Z</time>
      </trkpt>
      <trkpt lat="19.536251" lon="105.59584">
        <ele>8221.98</ele>
        <time>2026-07-29T07:31:07Z</time>
      </trkpt>
      <trkpt lat="19.538486" lon="105.5924">
        <ele>8214.36</ele>
        <time>2026-07-29T07:31:07Z</time>
      </trkpt>
      <trkpt lat="19.541061" lon="105.588715">
        <ele>8206.74</ele>
        <time>2026-07-29T07:31:07Z</time>
      </trkpt>
      <trkpt lat="19.54398" lon="105.585052">
        <ele>8199.12</ele>
        <time>2026-07-29T07:31:07Z</time>
      </trkpt>
      <trkpt lat="19.54533" lon="105.583405">
        <ele>8199.12</ele>
        <time>2026-07-29T07:31:07Z</time>
      </trkpt>
      <trkpt lat="19.552406" lon="105.576019">
        <ele>8176.26</ele>
        <time>2026-07-29T07:31:07Z</time>
      </trkpt>
      <trkpt lat="19.555893" lon="105.572975">
        <ele>8161.02</ele>
        <time>2026-07-29T07:31:07Z</time>
      </trkpt>
      <trkpt lat="19.558689" lon="105.570671">
        <ele>8153.400000000001</ele>
        <time>2026-07-29T07:31:07Z</time>
      </trkpt>
      <trkpt lat="19.562714" lon="105.567726">
        <ele>8145.780000000001</ele>
        <time>2026-07-29T07:31:07Z</time>
      </trkpt>
      <trkpt lat="19.565813" lon="105.565529">
        <ele>8138.160000000001</ele>
        <time>2026-07-29T07:31:07Z</time>
      </trkpt>
      <trkpt lat="19.569397" lon="105.563065">
        <ele>8130.54</ele>
        <time>2026-07-29T07:31:07Z</time>
      </trkpt>
      <trkpt lat="19.572739" lon="105.560806">
        <ele>8130.54</ele>
        <time>2026-07-29T07:31:07Z</time>
      </trkpt>
      <trkpt lat="19.575897" lon="105.558746">
        <ele>8122.92</ele>
        <time>2026-07-29T07:31:07Z</time>
      </trkpt>
      <trkpt lat="19.581314" lon="105.55529">
        <ele>8115.3</ele>
        <time>2026-07-29T07:31:07Z</time>
      </trkpt>
      <trkpt lat="19.593138" lon="105.548203">
        <ele>8092.4400000000005</ele>
        <time>2026-07-29T07:31:07Z</time>
      </trkpt>
      <trkpt lat="19.597549" lon="105.5457">
        <ele>8084.820000000001</ele>
        <time>2026-07-29T07:31:07Z</time>
      </trkpt>
      <trkpt lat="19.602867" lon="105.542908">
        <ele>8069.580000000001</ele>
        <time>2026-07-29T07:31:07Z</time>
      </trkpt>
      <trkpt lat="19.605881" lon="105.541336">
        <ele>8061.96</ele>
        <time>2026-07-29T07:31:07Z</time>
      </trkpt>
      <trkpt lat="19.610962" lon="105.538834">
        <ele>8046.72</ele>
        <time>2026-07-29T07:31:07Z</time>
      </trkpt>
      <trkpt lat="19.623917" lon="105.532906">
        <ele>8016.240000000001</ele>
        <time>2026-07-29T07:31:07Z</time>
      </trkpt>
      <trkpt lat="19.631516" lon="105.529716">
        <ele>8001.0</ele>
        <time>2026-07-29T07:31:07Z</time>
      </trkpt>
      <trkpt lat="19.68782" lon="105.506561">
        <ele>7863.84</ele>
        <time>2026-07-29T07:31:07Z</time>
      </trkpt>
      <trkpt lat="19.742432" lon="105.483185">
        <ele>7726.68</ele>
        <time>2026-07-29T07:31:07Z</time>
      </trkpt>
      <trkpt lat="19.796814" lon="105.459869">
        <ele>7604.76</ele>
        <time>2026-07-29T07:31:07Z</time>
      </trkpt>
      <trkpt lat="19.852249" lon="105.43618">
        <ele>7459.9800000000005</ele>
        <time>2026-07-29T07:31:07Z</time>
      </trkpt>
      <trkpt lat="19.906481" lon="105.412819">
        <ele>7338.06</ele>
        <time>2026-07-29T07:31:07Z</time>
      </trkpt>
      <trkpt lat="19.956894" lon="105.390862">
        <ele>7193.280000000001</ele>
        <time>2026-07-29T07:31:07Z</time>
      </trkpt>
      <trkpt lat="20.008804" lon="105.367828">
        <ele>7033.26</ele>
        <time>2026-07-29T07:31:07Z</time>
      </trkpt>
      <trkpt lat="20.058792" lon="105.345543">
        <ele>6873.240000000001</ele>
        <time>2026-07-29T07:31:07Z</time>
      </trkpt>
      <trkpt lat="20.117363" lon="105.319939">
        <ele>6697.9800000000005</ele>
        <time>2026-07-29T07:31:07Z</time>
      </trkpt>
      <trkpt lat="20.158422" lon="105.305351">
        <ele>6560.820000000001</ele>
        <time>2026-07-29T07:31:07Z</time>
      </trkpt>
      <trkpt lat="20.170712" lon="105.304703">
        <ele>6515.1</ele>
        <time>2026-07-29T07:31:07Z</time>
      </trkpt>
      <trkpt lat="20.17602" lon="105.304802">
        <ele>6499.860000000001</ele>
        <time>2026-07-29T07:31:07Z</time>
      </trkpt>
      <trkpt lat="20.179596" lon="105.304939">
        <ele>6492.240000000001</ele>
        <time>2026-07-29T07:31:07Z</time>
      </trkpt>
      <trkpt lat="20.183329" lon="105.305054">
        <ele>6484.62</ele>
        <time>2026-07-29T07:31:07Z</time>
      </trkpt>
      <trkpt lat="20.186737" lon="105.305183">
        <ele>6477.0</ele>
        <time>2026-07-29T07:31:07Z</time>
      </trkpt>
      <trkpt lat="20.190311" lon="105.305351">
        <ele>6469.38</ele>
        <time>2026-07-29T07:31:07Z</time>
      </trkpt>
      <trkpt lat="20.195198" lon="105.305504">
        <ele>6454.14</ele>
        <time>2026-07-29T07:31:07Z</time>
      </trkpt>
      <trkpt lat="20.198593" lon="105.305672">
        <ele>6446.52</ele>
        <time>2026-07-29T07:31:07Z</time>
      </trkpt>
      <trkpt lat="20.202181" lon="105.305801">
        <ele>6438.900000000001</ele>
        <time>2026-07-29T07:31:07Z</time>
      </trkpt>
      <trkpt lat="20.207245" lon="105.305969">
        <ele>6423.660000000001</ele>
        <time>2026-07-29T07:31:07Z</time>
      </trkpt>
      <trkpt lat="20.210979" lon="105.306099">
        <ele>6408.42</ele>
        <time>2026-07-29T07:31:07Z</time>
      </trkpt>
      <trkpt lat="20.261349" lon="105.307602">
        <ele>6233.160000000001</ele>
        <time>2026-07-29T07:31:07Z</time>
      </trkpt>
      <trkpt lat="20.312696" lon="105.308846">
        <ele>6065.52</ele>
        <time>2026-07-29T07:31:07Z</time>
      </trkpt>
      <trkpt lat="20.332249" lon="105.311592">
        <ele>5996.9400000000005</ele>
        <time>2026-07-29T07:31:07Z</time>
      </trkpt>
      <trkpt lat="20.335098" lon="105.312393">
        <ele>5981.700000000001</ele>
        <time>2026-07-29T07:31:07Z</time>
      </trkpt>
      <trkpt lat="20.33951" lon="105.313789">
        <ele>5966.46</ele>
        <time>2026-07-29T07:31:07Z</time>
      </trkpt>
      <trkpt lat="20.342377" lon="105.314796">
        <ele>5958.84</ele>
        <time>2026-07-29T07:31:07Z</time>
      </trkpt>
      <trkpt lat="20.345144" lon="105.315842">
        <ele>5951.22</ele>
        <time>2026-07-29T07:31:07Z</time>
      </trkpt>
      <trkpt lat="20.348557" lon="105.317146">
        <ele>5943.6</ele>
        <time>2026-07-29T07:31:07Z</time>
      </trkpt>
      <trkpt lat="20.351986" lon="105.318436">
        <ele>5928.360000000001</ele>
        <time>2026-07-29T07:31:07Z</time>
      </trkpt>
      <trkpt lat="20.35556" lon="105.319794">
        <ele>5920.740000000001</ele>
        <time>2026-07-29T07:31:07Z</time>
      </trkpt>
      <trkpt lat="20.358261" lon="105.320824">
        <ele>5913.12</ele>
        <time>2026-07-29T07:31:07Z</time>
      </trkpt>
      <trkpt lat="20.36125" lon="105.32193">
        <ele>5905.5</ele>
        <time>2026-07-29T07:31:07Z</time>
      </trkpt>
      <trkpt lat="20.363937" lon="105.322937">
        <ele>5897.88</ele>
        <time>2026-07-29T07:31:07Z</time>
      </trkpt>
      <trkpt lat="20.366791" lon="105.324028">
        <ele>5882.64</ele>
        <time>2026-07-29T07:31:07Z</time>
      </trkpt>
      <trkpt lat="20.41041" lon="105.340111">
        <ele>5737.860000000001</ele>
        <time>2026-07-29T07:31:07Z</time>
      </trkpt>
      <trkpt lat="20.454391" lon="105.356186">
        <ele>5577.84</ele>
        <time>2026-07-29T07:31:07Z</time>
      </trkpt>
      <trkpt lat="20.496185" lon="105.371689">
        <ele>5425.4400000000005</ele>
        <time>2026-07-29T07:31:07Z</time>
      </trkpt>
      <trkpt lat="20.541267" lon="105.388496">
        <ele>5242.56</ele>
        <time>2026-07-29T07:31:07Z</time>
      </trkpt>
      <trkpt lat="20.583618" lon="105.404251">
        <ele>5074.92</ele>
        <time>2026-07-29T07:31:07Z</time>
      </trkpt>
      <trkpt lat="20.622828" lon="105.418961">
        <ele>4922.52</ele>
        <time>2026-07-29T07:31:07Z</time>
      </trkpt>
      <trkpt lat="20.661255" lon="105.433243">
        <ele>4823.46</ele>
        <time>2026-07-29T07:31:07Z</time>
      </trkpt>
      <trkpt lat="20.701904" lon="105.448296">
        <ele>4739.64</ele>
        <time>2026-07-29T07:31:07Z</time>
      </trkpt>
      <trkpt lat="20.715546" lon="105.450943">
        <ele>4701.54</ele>
        <time>2026-07-29T07:31:07Z</time>
      </trkpt>
      <trkpt lat="20.71826" lon="105.45092">
        <ele>4701.54</ele>
        <time>2026-07-29T07:31:07Z</time>
      </trkpt>
      <trkpt lat="20.72068" lon="105.450775">
        <ele>4693.92</ele>
        <time>2026-07-29T07:31:07Z</time>
      </trkpt>
      <trkpt lat="20.724871" lon="105.450172">
        <ele>4678.68</ele>
        <time>2026-07-29T07:31:07Z</time>
      </trkpt>
      <trkpt lat="20.728035" lon="105.449425">
        <ele>4671.06</ele>
        <time>2026-07-29T07:31:07Z</time>
      </trkpt>
      <trkpt lat="20.730829" lon="105.448578">
        <ele>4671.06</ele>
        <time>2026-07-29T07:31:07Z</time>
      </trkpt>
      <trkpt lat="20.732758" lon="105.447807">
        <ele>4663.4400000000005</ele>
        <time>2026-07-29T07:31:07Z</time>
      </trkpt>
      <trkpt lat="20.735996" lon="105.446281">
        <ele>4655.820000000001</ele>
        <time>2026-07-29T07:31:07Z</time>
      </trkpt>
      <trkpt lat="20.738342" lon="105.444962">
        <ele>4655.820000000001</ele>
        <time>2026-07-29T07:31:07Z</time>
      </trkpt>
      <trkpt lat="20.741117" lon="105.44313">
        <ele>4648.2</ele>
        <time>2026-07-29T07:31:07Z</time>
      </trkpt>
      <trkpt lat="20.743835" lon="105.44104">
        <ele>4640.58</ele>
        <time>2026-07-29T07:31:07Z</time>
      </trkpt>
      <trkpt lat="20.745941" lon="105.439178">
        <ele>4632.96</ele>
        <time>2026-07-29T07:31:07Z</time>
      </trkpt>
      <trkpt lat="20.748688" lon="105.436478">
        <ele>4632.96</ele>
        <time>2026-07-29T07:31:07Z</time>
      </trkpt>
      <trkpt lat="20.751068" lon="105.43383">
        <ele>4625.34</ele>
        <time>2026-07-29T07:31:07Z</time>
      </trkpt>
      <trkpt lat="20.752991" lon="105.431671">
        <ele>4625.34</ele>
        <time>2026-07-29T07:31:07Z</time>
      </trkpt>
      <trkpt lat="20.75485" lon="105.429497">
        <ele>4625.34</ele>
        <time>2026-07-29T07:31:07Z</time>
      </trkpt>
      <trkpt lat="20.757019" lon="105.42701">
        <ele>4617.72</ele>
        <time>2026-07-29T07:31:07Z</time>
      </trkpt>
      <trkpt lat="20.758713" lon="105.425102">
        <ele>4617.72</ele>
        <time>2026-07-29T07:31:07Z</time>
      </trkpt>
      <trkpt lat="20.761181" lon="105.422256">
        <ele>4617.72</ele>
        <time>2026-07-29T07:31:07Z</time>
      </trkpt>
      <trkpt lat="20.763062" lon="105.420097">
        <ele>4610.1</ele>
        <time>2026-07-29T07:31:07Z</time>
      </trkpt>
      <trkpt lat="20.765121" lon="105.41774">
        <ele>4610.1</ele>
        <time>2026-07-29T07:31:07Z</time>
      </trkpt>
      <trkpt lat="20.767" lon="105.415565">
        <ele>4602.4800000000005</ele>
        <time>2026-07-29T07:31:07Z</time>
      </trkpt>
      <trkpt lat="20.769375" lon="105.412872">
        <ele>4594.860000000001</ele>
        <time>2026-07-29T07:31:07Z</time>
      </trkpt>
      <trkpt lat="20.771469" lon="105.410522">
        <ele>4587.24</ele>
        <time>2026-07-29T07:31:07Z</time>
      </trkpt>
      <trkpt lat="20.802429" lon="105.376495">
        <ele>4495.8</ele>
        <time>2026-07-29T07:31:07Z</time>
      </trkpt>
      <trkpt lat="20.831755" lon="105.344955">
        <ele>4427.22</ele>
        <time>2026-07-29T07:31:07Z</time>
      </trkpt>
      <trkpt lat="20.845734" lon="105.331375">
        <ele>4381.5</ele>
        <time>2026-07-29T07:31:07Z</time>
      </trkpt>
      <trkpt lat="20.847794" lon="105.329903">
        <ele>4373.88</ele>
        <time>2026-07-29T07:31:07Z</time>
      </trkpt>
      <trkpt lat="20.849396" lon="105.328918">
        <ele>4366.26</ele>
        <time>2026-07-29T07:31:07Z</time>
      </trkpt>
      <trkpt lat="20.852509" lon="105.327255">
        <ele>4358.64</ele>
        <time>2026-07-29T07:31:07Z</time>
      </trkpt>
      <trkpt lat="20.854889" lon="105.326126">
        <ele>4351.02</ele>
        <time>2026-07-29T07:31:07Z</time>
      </trkpt>
      <trkpt lat="20.85791" lon="105.324799">
        <ele>4351.02</ele>
        <time>2026-07-29T07:31:07Z</time>
      </trkpt>
      <trkpt lat="20.860477" lon="105.323784">
        <ele>4343.400000000001</ele>
        <time>2026-07-29T07:31:07Z</time>
      </trkpt>
      <trkpt lat="20.862572" lon="105.322929">
        <ele>4343.400000000001</ele>
        <time>2026-07-29T07:31:07Z</time>
      </trkpt>
      <trkpt lat="20.865505" lon="105.321831">
        <ele>4343.400000000001</ele>
        <time>2026-07-29T07:31:07Z</time>
      </trkpt>
      <trkpt lat="20.868111" lon="105.320885">
        <ele>4335.780000000001</ele>
        <time>2026-07-29T07:31:07Z</time>
      </trkpt>
      <trkpt lat="20.869949" lon="105.32019">
        <ele>4335.780000000001</ele>
        <time>2026-07-29T07:31:07Z</time>
      </trkpt>
      <trkpt lat="20.873795" lon="105.318817">
        <ele>4328.16</ele>
        <time>2026-07-29T07:31:07Z</time>
      </trkpt>
      <trkpt lat="20.876259" lon="105.31794">
        <ele>4328.16</ele>
        <time>2026-07-29T07:31:07Z</time>
      </trkpt>
      <trkpt lat="20.878027" lon="105.317337">
        <ele>4320.54</ele>
        <time>2026-07-29T07:31:07Z</time>
      </trkpt>
      <trkpt lat="20.881844" lon="105.315987">
        <ele>4312.92</ele>
        <time>2026-07-29T07:31:07Z</time>
      </trkpt>
      <trkpt lat="20.884369" lon="105.31514">
        <ele>4305.3</ele>
        <time>2026-07-29T07:31:07Z</time>
      </trkpt>
      <trkpt lat="20.886841" lon="105.314255">
        <ele>4305.3</ele>
        <time>2026-07-29T07:31:07Z</time>
      </trkpt>
      <trkpt lat="20.924789" lon="105.301506">
        <ele>4221.4800000000005</ele>
        <time>2026-07-29T07:31:07Z</time>
      </trkpt>
      <trkpt lat="20.963104" lon="105.290268">
        <ele>4145.280000000001</ele>
        <time>2026-07-29T07:31:07Z</time>
      </trkpt>
      <trkpt lat="20.977137" lon="105.287971">
        <ele>4107.18</ele>
        <time>2026-07-29T07:31:07Z</time>
      </trkpt>
      <trkpt lat="20.979172" lon="105.288063">
        <ele>4099.56</ele>
        <time>2026-07-29T07:31:07Z</time>
      </trkpt>
      <trkpt lat="20.982304" lon="105.288422">
        <ele>4091.94</ele>
        <time>2026-07-29T07:31:07Z</time>
      </trkpt>
      <trkpt lat="20.985189" lon="105.288971">
        <ele>4084.32</ele>
        <time>2026-07-29T07:31:07Z</time>
      </trkpt>
      <trkpt lat="20.989426" lon="105.290268">
        <ele>4076.7000000000003</ele>
        <time>2026-07-29T07:31:07Z</time>
      </trkpt>
      <trkpt lat="20.991394" lon="105.291107">
        <ele>4069.0800000000004</ele>
        <time>2026-07-29T07:31:07Z</time>
      </trkpt>
      <trkpt lat="20.994232" lon="105.29248">
        <ele>4061.46</ele>
        <time>2026-07-29T07:31:07Z</time>
      </trkpt>
      <trkpt lat="20.996317" lon="105.293716">
        <ele>4061.46</ele>
        <time>2026-07-29T07:31:07Z</time>
      </trkpt>
      <trkpt lat="20.998993" lon="105.295616">
        <ele>4053.84</ele>
        <time>2026-07-29T07:31:07Z</time>
      </trkpt>
      <trkpt lat="21.001436" lon="105.297661">
        <ele>4046.2200000000003</ele>
        <time>2026-07-29T07:31:07Z</time>
      </trkpt>
      <trkpt lat="21.003479" lon="105.299591">
        <ele>4046.2200000000003</ele>
        <time>2026-07-29T07:31:07Z</time>
      </trkpt>
      <trkpt lat="21.005905" lon="105.302361">
        <ele>4038.6000000000004</ele>
        <time>2026-07-29T07:31:07Z</time>
      </trkpt>
      <trkpt lat="21.007416" lon="105.304398">
        <ele>4030.98</ele>
        <time>2026-07-29T07:31:07Z</time>
      </trkpt>
      <trkpt lat="21.008978" lon="105.306755">
        <ele>4030.98</ele>
        <time>2026-07-29T07:31:07Z</time>
      </trkpt>
      <trkpt lat="21.010162" lon="105.308861">
        <ele>4023.36</ele>
        <time>2026-07-29T07:31:07Z</time>
      </trkpt>
      <trkpt lat="21.011585" lon="105.311844">
        <ele>4023.36</ele>
        <time>2026-07-29T07:31:07Z</time>
      </trkpt>
      <trkpt lat="21.012634" lon="105.314453">
        <ele>4015.7400000000002</ele>
        <time>2026-07-29T07:31:07Z</time>
      </trkpt>
      <trkpt lat="21.013401" lon="105.316742">
        <ele>4015.7400000000002</ele>
        <time>2026-07-29T07:31:07Z</time>
      </trkpt>
      <trkpt lat="21.014145" lon="105.319588">
        <ele>4008.1200000000003</ele>
        <time>2026-07-29T07:31:07Z</time>
      </trkpt>
      <trkpt lat="21.014704" lon="105.322334">
        <ele>4000.5</ele>
        <time>2026-07-29T07:31:07Z</time>
      </trkpt>
      <trkpt lat="21.015078" lon="105.324982">
        <ele>3992.88</ele>
        <time>2026-07-29T07:31:07Z</time>
      </trkpt>
      <trkpt lat="21.015263" lon="105.327728">
        <ele>3985.26</ele>
        <time>2026-07-29T07:31:07Z</time>
      </trkpt>
      <trkpt lat="21.015402" lon="105.330376">
        <ele>3985.26</ele>
        <time>2026-07-29T07:31:07Z</time>
      </trkpt>
      <trkpt lat="21.01545" lon="105.334068">
        <ele>3977.6400000000003</ele>
        <time>2026-07-29T07:31:07Z</time>
      </trkpt>
      <trkpt lat="21.015472" lon="105.336327">
        <ele>3970.02</ele>
        <time>2026-07-29T07:31:07Z</time>
      </trkpt>
      <trkpt lat="21.015495" lon="105.33976">
        <ele>3962.4</ele>
        <time>2026-07-29T07:31:07Z</time>
      </trkpt>
      <trkpt lat="21.015472" lon="105.342308">
        <ele>3954.78</ele>
        <time>2026-07-29T07:31:07Z</time>
      </trkpt>
      <trkpt lat="21.015518" lon="105.345352">
        <ele>3939.5400000000004</ele>
        <time>2026-07-29T07:31:07Z</time>
      </trkpt>
      <trkpt lat="21.015495" lon="105.348152">
        <ele>3931.92</ele>
        <time>2026-07-29T07:31:07Z</time>
      </trkpt>
      <trkpt lat="21.015543" lon="105.3508">
        <ele>3924.3</ele>
        <time>2026-07-29T07:31:07Z</time>
      </trkpt>
      <trkpt lat="21.015589" lon="105.35334">
        <ele>3909.0600000000004</ele>
        <time>2026-07-29T07:31:07Z</time>
      </trkpt>
      <trkpt lat="21.01561" lon="105.35614">
        <ele>3901.44</ele>
        <time>2026-07-29T07:31:07Z</time>
      </trkpt>
      <trkpt lat="21.015656" lon="105.3582">
        <ele>3893.82</ele>
        <time>2026-07-29T07:31:07Z</time>
      </trkpt>
      <trkpt lat="21.015728" lon="105.361481">
        <ele>3878.5800000000004</ele>
        <time>2026-07-29T07:31:07Z</time>
      </trkpt>
      <trkpt lat="21.0168" lon="105.40126">
        <ele>3710.94</ele>
        <time>2026-07-29T07:31:07Z</time>
      </trkpt>
      <trkpt lat="21.018057" lon="105.442184">
        <ele>3550.92</ele>
        <time>2026-07-29T07:31:07Z</time>
      </trkpt>
      <trkpt lat="21.018539" lon="105.457809">
        <ele>3482.34</ele>
        <time>2026-07-29T07:31:07Z</time>
      </trkpt>
      <trkpt lat="21.018951" lon="105.473656">
        <ele>3421.38</ele>
        <time>2026-07-29T07:31:07Z</time>
      </trkpt>
      <trkpt lat="21.01936" lon="105.489571">
        <ele>3352.8</ele>
        <time>2026-07-29T07:31:07Z</time>
      </trkpt>
      <trkpt lat="21.019821" lon="105.505096">
        <ele>3299.46</ele>
        <time>2026-07-29T07:31:07Z</time>
      </trkpt>
      <trkpt lat="21.020233" lon="105.520889">
        <ele>3253.7400000000002</ele>
        <time>2026-07-29T07:31:07Z</time>
      </trkpt>
      <trkpt lat="21.020662" lon="105.537018">
        <ele>3208.02</ele>
        <time>2026-07-29T07:31:07Z</time>
      </trkpt>
      <trkpt lat="21.021103" lon="105.552475">
        <ele>3162.3</ele>
        <time>2026-07-29T07:31:07Z</time>
      </trkpt>
      <trkpt lat="21.021502" lon="105.567627">
        <ele>3108.96</ele>
        <time>2026-07-29T07:31:07Z</time>
      </trkpt>
      <trkpt lat="21.021927" lon="105.584152">
        <ele>3070.86</ele>
        <time>2026-07-29T07:31:07Z</time>
      </trkpt>
      <trkpt lat="21.023392" lon="105.597298">
        <ele>3025.1400000000003</ele>
        <time>2026-07-29T07:31:07Z</time>
      </trkpt>
      <trkpt lat="21.024124" lon="105.599701">
        <ele>3017.52</ele>
        <time>2026-07-29T07:31:07Z</time>
      </trkpt>
      <trkpt lat="21.024994" lon="105.602058">
        <ele>3009.9</ele>
        <time>2026-07-29T07:31:07Z</time>
      </trkpt>
      <trkpt lat="21.025784" lon="105.603935">
        <ele>3002.28</ele>
        <time>2026-07-29T07:31:07Z</time>
      </trkpt>
      <trkpt lat="21.026947" lon="105.606133">
        <ele>2987.04</ele>
        <time>2026-07-29T07:31:07Z</time>
      </trkpt>
      <trkpt lat="21.028763" lon="105.609077">
        <ele>2979.42</ele>
        <time>2026-07-29T07:31:07Z</time>
      </trkpt>
      <trkpt lat="21.030121" lon="105.610924">
        <ele>2971.8</ele>
        <time>2026-07-29T07:31:07Z</time>
      </trkpt>
      <trkpt lat="21.032488" lon="105.613609">
        <ele>2964.1800000000003</ele>
        <time>2026-07-29T07:31:07Z</time>
      </trkpt>
      <trkpt lat="21.034163" lon="105.615181">
        <ele>2956.56</ele>
        <time>2026-07-29T07:31:07Z</time>
      </trkpt>
      <trkpt lat="21.037033" lon="105.617516">
        <ele>2948.94</ele>
        <time>2026-07-29T07:31:07Z</time>
      </trkpt>
      <trkpt lat="21.03891" lon="105.618767">
        <ele>2948.94</ele>
        <time>2026-07-29T07:31:07Z</time>
      </trkpt>
      <trkpt lat="21.041977" lon="105.620461">
        <ele>2941.32</ele>
        <time>2026-07-29T07:31:07Z</time>
      </trkpt>
      <trkpt lat="21.044033" lon="105.621437">
        <ele>2941.32</ele>
        <time>2026-07-29T07:31:07Z</time>
      </trkpt>
      <trkpt lat="21.048843" lon="105.623108">
        <ele>2933.7000000000003</ele>
        <time>2026-07-29T07:31:07Z</time>
      </trkpt>
      <trkpt lat="21.051201" lon="105.623627">
        <ele>2926.08</ele>
        <time>2026-07-29T07:31:07Z</time>
      </trkpt>
      <trkpt lat="21.054703" lon="105.624107">
        <ele>2918.46</ele>
        <time>2026-07-29T07:31:07Z</time>
      </trkpt>
      <trkpt lat="21.058273" lon="105.62426">
        <ele>2910.84</ele>
        <time>2026-07-29T07:31:07Z</time>
      </trkpt>
      <trkpt lat="21.060837" lon="105.624107">
        <ele>2903.2200000000003</ele>
        <time>2026-07-29T07:31:07Z</time>
      </trkpt>
      <trkpt lat="21.063766" lon="105.623711">
        <ele>2895.6000000000004</ele>
        <time>2026-07-29T07:31:07Z</time>
      </trkpt>
      <trkpt lat="21.066513" lon="105.623108">
        <ele>2887.98</ele>
        <time>2026-07-29T07:31:07Z</time>
      </trkpt>
      <trkpt lat="21.069717" lon="105.622162">
        <ele>2887.98</ele>
        <time>2026-07-29T07:31:07Z</time>
      </trkpt>
      <trkpt lat="21.072052" lon="105.621407">
        <ele>2880.36</ele>
        <time>2026-07-29T07:31:07Z</time>
      </trkpt>
      <trkpt lat="21.07402" lon="105.620712">
        <ele>2880.36</ele>
        <time>2026-07-29T07:31:07Z</time>
      </trkpt>
      <trkpt lat="21.076712" lon="105.619759">
        <ele>2872.7400000000002</ele>
        <time>2026-07-29T07:31:07Z</time>
      </trkpt>
      <trkpt lat="21.080383" lon="105.618462">
        <ele>2872.7400000000002</ele>
        <time>2026-07-29T07:31:07Z</time>
      </trkpt>
      <trkpt lat="21.082718" lon="105.617622">
        <ele>2865.1200000000003</ele>
        <time>2026-07-29T07:31:07Z</time>
      </trkpt>
      <trkpt lat="21.085556" lon="105.616608">
        <ele>2857.5</ele>
        <time>2026-07-29T07:31:07Z</time>
      </trkpt>
      <trkpt lat="21.088211" lon="105.615669">
        <ele>2857.5</ele>
        <time>2026-07-29T07:31:07Z</time>
      </trkpt>
      <trkpt lat="21.090637" lon="105.614815">
        <ele>2849.88</ele>
        <time>2026-07-29T07:31:07Z</time>
      </trkpt>
      <trkpt lat="21.092697" lon="105.614067">
        <ele>2849.88</ele>
        <time>2026-07-29T07:31:07Z</time>
      </trkpt>
      <trkpt lat="21.095123" lon="105.613274">
        <ele>2842.26</ele>
        <time>2026-07-29T07:31:07Z</time>
      </trkpt>
      <trkpt lat="21.097567" lon="105.612434">
        <ele>2834.6400000000003</ele>
        <time>2026-07-29T07:31:07Z</time>
      </trkpt>
      <trkpt lat="21.113159" lon="105.607277">
        <ele>2811.78</ele>
        <time>2026-07-29T07:31:07Z</time>
      </trkpt>
      <trkpt lat="21.126896" lon="105.602928">
        <ele>2811.78</ele>
        <time>2026-07-29T07:31:07Z</time>
      </trkpt>
      <trkpt lat="21.144882" lon="105.597389">
        <ele>2811.78</ele>
        <time>2026-07-29T07:31:07Z</time>
      </trkpt>
      <trkpt lat="21.159988" lon="105.592644">
        <ele>2804.1600000000003</ele>
        <time>2026-07-29T07:31:07Z</time>
      </trkpt>
      <trkpt lat="21.168182" lon="105.588699">
        <ele>2773.6800000000003</ele>
        <time>2026-07-29T07:31:07Z</time>
      </trkpt>
      <trkpt lat="21.170746" lon="105.586952">
        <ele>2766.06</ele>
        <time>2026-07-29T07:31:07Z</time>
      </trkpt>
      <trkpt lat="21.172749" lon="105.585274">
        <ele>2758.44</ele>
        <time>2026-07-29T07:31:07Z</time>
      </trkpt>
      <trkpt lat="21.174658" lon="105.583397">
        <ele>2743.2000000000003</ele>
        <time>2026-07-29T07:31:07Z</time>
      </trkpt>
      <trkpt lat="21.176422" lon="105.581413">
        <ele>2735.58</ele>
        <time>2026-07-29T07:31:07Z</time>
      </trkpt>
      <trkpt lat="21.177916" lon="105.57943">
        <ele>2727.96</ele>
        <time>2026-07-29T07:31:07Z</time>
      </trkpt>
      <trkpt lat="21.179592" lon="105.576836">
        <ele>2720.34</ele>
        <time>2026-07-29T07:31:07Z</time>
      </trkpt>
      <trkpt lat="21.180849" lon="105.574493">
        <ele>2712.7200000000003</ele>
        <time>2026-07-29T07:31:07Z</time>
      </trkpt>
      <trkpt lat="21.181967" lon="105.572052">
        <ele>2705.1</ele>
        <time>2026-07-29T07:31:07Z</time>
      </trkpt>
      <trkpt lat="21.18313" lon="105.568695">
        <ele>2705.1</ele>
        <time>2026-07-29T07:31:07Z</time>
      </trkpt>
      <trkpt lat="21.183701" lon="105.566727">
        <ele>2697.48</ele>
        <time>2026-07-29T07:31:07Z</time>
      </trkpt>
      <trkpt lat="21.18462" lon="105.563255">
        <ele>2697.48</ele>
        <time>2026-07-29T07:31:07Z</time>
      </trkpt>
      <trkpt lat="21.185366" lon="105.560303">
        <ele>2697.48</ele>
        <time>2026-07-29T07:31:07Z</time>
      </trkpt>
      <trkpt lat="21.185989" lon="105.557793">
        <ele>2689.86</ele>
        <time>2026-07-29T07:31:07Z</time>
      </trkpt>
      <trkpt lat="21.186722" lon="105.554695">
        <ele>2682.2400000000002</ele>
        <time>2026-07-29T07:31:07Z</time>
      </trkpt>
      <trkpt lat="21.187412" lon="105.551811">
        <ele>2682.2400000000002</ele>
        <time>2026-07-29T07:31:07Z</time>
      </trkpt>
      <trkpt lat="21.188187" lon="105.548851">
        <ele>2674.6200000000003</ele>
        <time>2026-07-29T07:31:07Z</time>
      </trkpt>
      <trkpt lat="21.188902" lon="105.545959">
        <ele>2667.0</ele>
        <time>2026-07-29T07:31:07Z</time>
      </trkpt>
      <trkpt lat="21.189606" lon="105.543259">
        <ele>2659.38</ele>
        <time>2026-07-29T07:31:07Z</time>
      </trkpt>
      <trkpt lat="21.190207" lon="105.540771">
        <ele>2651.76</ele>
        <time>2026-07-29T07:31:07Z</time>
      </trkpt>
      <trkpt lat="21.191025" lon="105.537712">
        <ele>2644.1400000000003</ele>
        <time>2026-07-29T07:31:07Z</time>
      </trkpt>
      <trkpt lat="21.191711" lon="105.535118">
        <ele>2636.52</ele>
        <time>2026-07-29T07:31:07Z</time>
      </trkpt>
      <trkpt lat="21.196026" lon="105.519562">
        <ele>2598.42</ele>
        <time>2026-07-29T07:31:07Z</time>
      </trkpt>
      <trkpt lat="21.200592" lon="105.503754">
        <ele>2560.32</ele>
        <time>2026-07-29T07:31:07Z</time>
      </trkpt>
      <trkpt lat="21.205523" lon="105.486855">
        <ele>2522.2200000000003</ele>
        <time>2026-07-29T07:31:07Z</time>
      </trkpt>
      <trkpt lat="21.210114" lon="105.4711">
        <ele>2484.1200000000003</ele>
        <time>2026-07-29T07:31:07Z</time>
      </trkpt>
      <trkpt lat="21.214462" lon="105.456314">
        <ele>2453.6400000000003</ele>
        <time>2026-07-29T07:31:07Z</time>
      </trkpt>
      <trkpt lat="21.218325" lon="105.443062">
        <ele>2423.1600000000003</ele>
        <time>2026-07-29T07:31:07Z</time>
      </trkpt>
      <trkpt lat="21.227215" lon="105.412041">
        <ele>2362.2000000000003</ele>
        <time>2026-07-29T07:31:07Z</time>
      </trkpt>
      <trkpt lat="21.235062" lon="105.389153">
        <ele>2301.2400000000002</ele>
        <time>2026-07-29T07:31:07Z</time>
      </trkpt>
      <trkpt lat="21.242577" lon="105.379944">
        <ele>2270.76</ele>
        <time>2026-07-29T07:31:07Z</time>
      </trkpt>
      <trkpt lat="21.245323" lon="105.377754">
        <ele>2263.1400000000003</ele>
        <time>2026-07-29T07:31:07Z</time>
      </trkpt>
      <trkpt lat="21.247187" lon="105.376587">
        <ele>2255.52</ele>
        <time>2026-07-29T07:31:07Z</time>
      </trkpt>
      <trkpt lat="21.25145" lon="105.37442">
        <ele>2247.9</ele>
        <time>2026-07-29T07:31:07Z</time>
      </trkpt>
      <trkpt lat="21.255753" lon="105.373024">
        <ele>2240.28</ele>
        <time>2026-07-29T07:31:07Z</time>
      </trkpt>
      <trkpt lat="21.259104" lon="105.372368">
        <ele>2232.6600000000003</ele>
        <time>2026-07-29T07:31:07Z</time>
      </trkpt>
      <trkpt lat="21.261198" lon="105.372108">
        <ele>2225.04</ele>
        <time>2026-07-29T07:31:07Z</time>
      </trkpt>
      <trkpt lat="21.264364" lon="105.372009">
        <ele>2225.04</ele>
        <time>2026-07-29T07:31:07Z</time>
      </trkpt>
      <trkpt lat="21.267197" lon="105.372169">
        <ele>2217.42</ele>
        <time>2026-07-29T07:31:07Z</time>
      </trkpt>
      <trkpt lat="21.272278" lon="105.373077">
        <ele>2209.8</ele>
        <time>2026-07-29T07:31:07Z</time>
      </trkpt>
      <trkpt lat="21.276352" lon="105.374069">
        <ele>2209.8</ele>
        <time>2026-07-29T07:31:07Z</time>
      </trkpt>
      <trkpt lat="21.281309" lon="105.37542">
        <ele>2202.1800000000003</ele>
        <time>2026-07-29T07:31:07Z</time>
      </trkpt>
      <trkpt lat="21.308167" lon="105.382355">
        <ele>2148.84</ele>
        <time>2026-07-29T07:31:07Z</time>
      </trkpt>
      <trkpt lat="21.309265" lon="105.382759">
        <ele>2141.2200000000003</ele>
        <time>2026-07-29T07:31:07Z</time>
      </trkpt>
      <trkpt lat="21.327896" lon="105.399338">
        <ele>2042.16</ele>
        <time>2026-07-29T07:31:07Z</time>
      </trkpt>
      <trkpt lat="21.329636" lon="105.403984">
        <ele>2019.3000000000002</ele>
        <time>2026-07-29T07:31:07Z</time>
      </trkpt>
      <trkpt lat="21.330322" lon="105.407524">
        <ele>2011.68</ele>
        <time>2026-07-29T07:31:07Z</time>
      </trkpt>
      <trkpt lat="21.330551" lon="105.409676">
        <ele>2004.0600000000002</ele>
        <time>2026-07-29T07:31:07Z</time>
      </trkpt>
      <trkpt lat="21.330597" lon="105.413872">
        <ele>1988.8200000000002</ele>
        <time>2026-07-29T07:31:07Z</time>
      </trkpt>
      <trkpt lat="21.33046" lon="105.416267">
        <ele>1988.8200000000002</ele>
        <time>2026-07-29T07:31:07Z</time>
      </trkpt>
      <trkpt lat="21.329956" lon="105.421242">
        <ele>1973.5800000000002</ele>
        <time>2026-07-29T07:31:07Z</time>
      </trkpt>
      <trkpt lat="21.329224" lon="105.426399">
        <ele>1965.96</ele>
        <time>2026-07-29T07:31:07Z</time>
      </trkpt>
      <trkpt lat="21.328886" lon="105.428261">
        <ele>1958.3400000000001</ele>
        <time>2026-07-29T07:31:07Z</time>
      </trkpt>
      <trkpt lat="21.328421" lon="105.430962">
        <ele>1950.72</ele>
        <time>2026-07-29T07:31:07Z</time>
      </trkpt>
      <trkpt lat="21.327988" lon="105.433098">
        <ele>1943.1000000000001</ele>
        <time>2026-07-29T07:31:07Z</time>
      </trkpt>
      <trkpt lat="21.327581" lon="105.434929">
        <ele>1935.48</ele>
        <time>2026-07-29T07:31:07Z</time>
      </trkpt>
      <trkpt lat="21.325928" lon="105.442032">
        <ele>1920.24</ele>
        <time>2026-07-29T07:31:07Z</time>
      </trkpt>
      <trkpt lat="21.325487" lon="105.443878">
        <ele>1912.6200000000001</ele>
        <time>2026-07-29T07:31:07Z</time>
      </trkpt>
      <trkpt lat="21.32373" lon="105.450371">
        <ele>1882.14</ele>
        <time>2026-07-29T07:31:07Z</time>
      </trkpt>
      <trkpt lat="21.320068" lon="105.46331">
        <ele>1805.94</ele>
        <time>2026-07-29T07:31:07Z</time>
      </trkpt>
      <trkpt lat="21.316595" lon="105.47541">
        <ele>1744.98</ele>
        <time>2026-07-29T07:31:07Z</time>
      </trkpt>
      <trkpt lat="21.312918" lon="105.48838">
        <ele>1684.02</ele>
        <time>2026-07-29T07:31:07Z</time>
      </trkpt>
      <trkpt lat="21.30924" lon="105.501305">
        <ele>1645.92</ele>
        <time>2026-07-29T07:31:07Z</time>
      </trkpt>
      <trkpt lat="21.302629" lon="105.524086">
        <ele>1562.1000000000001</ele>
        <time>2026-07-29T07:31:07Z</time>
      </trkpt>
      <trkpt lat="21.298004" lon="105.540215">
        <ele>1493.52</ele>
        <time>2026-07-29T07:31:07Z</time>
      </trkpt>
      <trkpt lat="21.296251" lon="105.546364">
        <ele>1463.04</ele>
        <time>2026-07-29T07:31:07Z</time>
      </trkpt>
      <trkpt lat="21.293598" lon="105.55542">
        <ele>1417.3200000000002</ele>
        <time>2026-07-29T07:31:07Z</time>
      </trkpt>
      <trkpt lat="21.291321" lon="105.563431">
        <ele>1363.98</ele>
        <time>2026-07-29T07:31:07Z</time>
      </trkpt>
      <trkpt lat="21.285545" lon="105.583649">
        <ele>1242.0600000000002</ele>
        <time>2026-07-29T07:31:07Z</time>
      </trkpt>
      <trkpt lat="21.283264" lon="105.591644">
        <ele>1196.3400000000001</ele>
        <time>2026-07-29T07:31:07Z</time>
      </trkpt>
      <trkpt lat="21.278641" lon="105.607628">
        <ele>1104.9</ele>
        <time>2026-07-29T07:31:07Z</time>
      </trkpt>
      <trkpt lat="21.276581" lon="105.614616">
        <ele>1066.8</ele>
        <time>2026-07-29T07:31:07Z</time>
      </trkpt>
      <trkpt lat="21.274513" lon="105.621849">
        <ele>1028.7</ele>
        <time>2026-07-29T07:31:07Z</time>
      </trkpt>
      <trkpt lat="21.272552" lon="105.628548">
        <ele>990.6</ele>
        <time>2026-07-29T07:31:07Z</time>
      </trkpt>
      <trkpt lat="21.270136" lon="105.637108">
        <ele>937.26</ele>
        <time>2026-07-29T07:31:07Z</time>
      </trkpt>
      <trkpt lat="21.267929" lon="105.644783">
        <ele>906.7800000000001</ele>
        <time>2026-07-29T07:31:07Z</time>
      </trkpt>
      <trkpt lat="21.261978" lon="105.665405">
        <ele>792.48</ele>
        <time>2026-07-29T07:31:07Z</time>
      </trkpt>
      <trkpt lat="21.261612" lon="105.666656">
        <ele>784.86</ele>
        <time>2026-07-29T07:31:07Z</time>
      </trkpt>
      <trkpt lat="21.25914" lon="105.675446">
        <ele>739.14</ele>
        <time>2026-07-29T07:31:07Z</time>
      </trkpt>
      <trkpt lat="21.254215" lon="105.692444">
        <ele>640.08</ele>
        <time>2026-07-29T07:31:07Z</time>
      </trkpt>
      <trkpt lat="21.252819" lon="105.697227">
        <ele>609.6</ele>
        <time>2026-07-29T07:31:07Z</time>
      </trkpt>
      <trkpt lat="21.251221" lon="105.70266">
        <ele>586.74</ele>
        <time>2026-07-29T07:31:07Z</time>
      </trkpt>
      <trkpt lat="21.249985" lon="105.706955">
        <ele>563.88</ele>
        <time>2026-07-29T07:31:07Z</time>
      </trkpt>
      <trkpt lat="21.24678" lon="105.718193">
        <ele>502.92</ele>
        <time>2026-07-29T07:31:07Z</time>
      </trkpt>
      <trkpt lat="21.245316" lon="105.723381">
        <ele>472.44</ele>
        <time>2026-07-29T07:31:07Z</time>
      </trkpt>
      <trkpt lat="21.24416" lon="105.72718">
        <ele>449.58000000000004</ele>
        <time>2026-07-29T07:31:07Z</time>
      </trkpt>
      <trkpt lat="21.242857" lon="105.731606">
        <ele>426.72</ele>
        <time>2026-07-29T07:31:07Z</time>
      </trkpt>
      <trkpt lat="21.241791" lon="105.735321">
        <ele>403.86</ele>
        <time>2026-07-29T07:31:07Z</time>
      </trkpt>
      <trkpt lat="21.24011" lon="105.741325">
        <ele>373.38</ele>
        <time>2026-07-29T07:31:07Z</time>
      </trkpt>
      <trkpt lat="21.238947" lon="105.745186">
        <ele>350.52000000000004</ele>
        <time>2026-07-29T07:31:07Z</time>
      </trkpt>
      <trkpt lat="21.237625" lon="105.749847">
        <ele>327.66</ele>
        <time>2026-07-29T07:31:07Z</time>
      </trkpt>
      <trkpt lat="21.236069" lon="105.755241">
        <ele>297.18</ele>
        <time>2026-07-29T07:31:07Z</time>
      </trkpt>
      <trkpt lat="21.234663" lon="105.760094">
        <ele>274.32</ele>
        <time>2026-07-29T07:31:07Z</time>
      </trkpt>
      <trkpt lat="21.227417" lon="105.785156">
        <ele>144.78</ele>
        <time>2026-07-29T07:31:07Z</time>
      </trkpt>
      <trkpt lat="21.225677" lon="105.791145">
        <ele>99.06</ele>
        <time>2026-07-29T07:31:07Z</time>
      </trkpt>
    </trkseg>
  </trk>
</gpx>