<?xml version="1.0" encoding="UTF-8"?>
<gpx xmlns="http://www.topografix.com/GPX/1/1" xmlns:xsi="http://www.w3.org/2001/XMLSchema-instance" xsi:schemaLocation="http://www.topografix.com/GPX/1/1 http://www.topografix.com/GPX/1/1/gpx.xsd" version="1.1" creator="gpx.py -- https://github.com/tkrajina/gpxpy">
  <metadata>
    <name>U28495_412c82cf</name>
    <time>2026-08-14T17:05:58Z</time>
  </metadata>
  <trk>
    <name>U28495_412c82cf</name>
    <cmt>2026-08-14</cmt>
    <type>Plane</type>
    <trkseg>
      <trkpt lat="51.156277" lon="-0.177841">
        <ele>0.0</ele>
        <time>2026-08-14T17:05:58Z</time>
      </trkpt>
      <trkpt lat="51.156281" lon="-0.177841">
        <ele>0.0</ele>
        <time>2026-08-14T17:05:58Z</time>
      </trkpt>
      <trkpt lat="51.156487" lon="-0.177878">
        <ele>0.0</ele>
        <time>2026-08-14T17:05:58Z</time>
      </trkpt>
      <trkpt lat="51.156719" lon="-0.177975">
        <ele>0.0</ele>
        <time>2026-08-14T17:05:58Z</time>
      </trkpt>
      <trkpt lat="51.156921" lon="-0.178008">
        <ele>0.0</ele>
        <time>2026-08-14T17:05:58Z</time>
      </trkpt>
      <trkpt lat="51.157127" lon="-0.17807">
        <ele>0.0</ele>
        <time>2026-08-14T17:05:58Z</time>
      </trkpt>
      <trkpt lat="51.15715" lon="-0.178342">
        <ele>0.0</ele>
        <time>2026-08-14T17:05:58Z</time>
      </trkpt>
      <trkpt lat="51.157185" lon="-0.178138">
        <ele>0.0</ele>
        <time>2026-08-14T17:05:58Z</time>
      </trkpt>
      <trkpt lat="51.157196" lon="-0.17786">
        <ele>0.0</ele>
        <time>2026-08-14T17:05:58Z</time>
      </trkpt>
      <trkpt lat="51.157291" lon="-0.17746">
        <ele>0.0</ele>
        <time>2026-08-14T17:05:58Z</time>
      </trkpt>
      <trkpt lat="51.157372" lon="-0.176983">
        <ele>0.0</ele>
        <time>2026-08-14T17:05:58Z</time>
      </trkpt>
      <trkpt lat="51.157436" lon="-0.176486">
        <ele>0.0</ele>
        <time>2026-08-14T17:05:58Z</time>
      </trkpt>
      <trkpt lat="51.157486" lon="-0.175991">
        <ele>0.0</ele>
        <time>2026-08-14T17:05:58Z</time>
      </trkpt>
      <trkpt lat="51.157536" lon="-0.175552">
        <ele>0.0</ele>
        <time>2026-08-14T17:05:58Z</time>
      </trkpt>
      <trkpt lat="51.157501" lon="-0.175323">
        <ele>0.0</ele>
        <time>2026-08-14T17:05:58Z</time>
      </trkpt>
      <trkpt lat="51.157383" lon="-0.175095">
        <ele>0.0</ele>
        <time>2026-08-14T17:05:58Z</time>
      </trkpt>
      <trkpt lat="51.156895" lon="-0.174885">
        <ele>0.0</ele>
        <time>2026-08-14T17:05:58Z</time>
      </trkpt>
      <trkpt lat="51.156593" lon="-0.174789">
        <ele>0.0</ele>
        <time>2026-08-14T17:05:58Z</time>
      </trkpt>
      <trkpt lat="51.156361" lon="-0.174705">
        <ele>0.0</ele>
        <time>2026-08-14T17:05:58Z</time>
      </trkpt>
      <trkpt lat="51.15604" lon="-0.174594">
        <ele>0.0</ele>
        <time>2026-08-14T17:05:58Z</time>
      </trkpt>
      <trkpt lat="51.155788" lon="-0.174503">
        <ele>0.0</ele>
        <time>2026-08-14T17:05:58Z</time>
      </trkpt>
      <trkpt lat="51.155556" lon="-0.174427">
        <ele>0.0</ele>
        <time>2026-08-14T17:05:58Z</time>
      </trkpt>
      <trkpt lat="51.155067" lon="-0.174259">
        <ele>0.0</ele>
        <time>2026-08-14T17:05:58Z</time>
      </trkpt>
      <trkpt lat="51.154724" lon="-0.17413">
        <ele>0.0</ele>
        <time>2026-08-14T17:05:58Z</time>
      </trkpt>
      <trkpt lat="51.154381" lon="-0.174007">
        <ele>0.0</ele>
        <time>2026-08-14T17:05:58Z</time>
      </trkpt>
      <trkpt lat="51.154053" lon="-0.173893">
        <ele>0.0</ele>
        <time>2026-08-14T17:05:58Z</time>
      </trkpt>
      <trkpt lat="51.153786" lon="-0.173798">
        <ele>0.0</ele>
        <time>2026-08-14T17:05:58Z</time>
      </trkpt>
      <trkpt lat="51.153419" lon="-0.173684">
        <ele>0.0</ele>
        <time>2026-08-14T17:05:58Z</time>
      </trkpt>
      <trkpt lat="51.153149" lon="-0.173588">
        <ele>0.0</ele>
        <time>2026-08-14T17:05:58Z</time>
      </trkpt>
      <trkpt lat="51.152916" lon="-0.173499">
        <ele>0.0</ele>
        <time>2026-08-14T17:05:58Z</time>
      </trkpt>
      <trkpt lat="51.152706" lon="-0.173416">
        <ele>0.0</ele>
        <time>2026-08-14T17:05:58Z</time>
      </trkpt>
      <trkpt lat="51.152435" lon="-0.173149">
        <ele>0.0</ele>
        <time>2026-08-14T17:05:58Z</time>
      </trkpt>
      <trkpt lat="51.152241" lon="-0.17292">
        <ele>0.0</ele>
        <time>2026-08-14T17:05:58Z</time>
      </trkpt>
      <trkpt lat="51.152042" lon="-0.17271">
        <ele>0.0</ele>
        <time>2026-08-14T17:05:58Z</time>
      </trkpt>
      <trkpt lat="51.151878" lon="-0.172501">
        <ele>0.0</ele>
        <time>2026-08-14T17:05:58Z</time>
      </trkpt>
      <trkpt lat="51.15181" lon="-0.172272">
        <ele>0.0</ele>
        <time>2026-08-14T17:05:58Z</time>
      </trkpt>
      <trkpt lat="51.151798" lon="-0.172062">
        <ele>0.0</ele>
        <time>2026-08-14T17:05:58Z</time>
      </trkpt>
      <trkpt lat="51.151821" lon="-0.171795">
        <ele>0.0</ele>
        <time>2026-08-14T17:05:58Z</time>
      </trkpt>
      <trkpt lat="51.151863" lon="-0.171531">
        <ele>0.0</ele>
        <time>2026-08-14T17:05:58Z</time>
      </trkpt>
      <trkpt lat="51.151901" lon="-0.17128">
        <ele>0.0</ele>
        <time>2026-08-14T17:05:58Z</time>
      </trkpt>
      <trkpt lat="51.151932" lon="-0.171049">
        <ele>0.0</ele>
        <time>2026-08-14T17:05:58Z</time>
      </trkpt>
      <trkpt lat="51.151955" lon="-0.170845">
        <ele>0.0</ele>
        <time>2026-08-14T17:05:58Z</time>
      </trkpt>
      <trkpt lat="51.152" lon="-0.170566">
        <ele>0.0</ele>
        <time>2026-08-14T17:05:58Z</time>
      </trkpt>
      <trkpt lat="51.152023" lon="-0.170362">
        <ele>0.0</ele>
        <time>2026-08-14T17:05:58Z</time>
      </trkpt>
      <trkpt lat="51.152058" lon="-0.17014">
        <ele>0.0</ele>
        <time>2026-08-14T17:05:58Z</time>
      </trkpt>
      <trkpt lat="51.152088" lon="-0.169868">
        <ele>0.0</ele>
        <time>2026-08-14T17:05:58Z</time>
      </trkpt>
      <trkpt lat="51.152126" lon="-0.169601">
        <ele>0.0</ele>
        <time>2026-08-14T17:05:58Z</time>
      </trkpt>
      <trkpt lat="51.152161" lon="-0.169397">
        <ele>0.0</ele>
        <time>2026-08-14T17:05:58Z</time>
      </trkpt>
      <trkpt lat="51.15218" lon="-0.169182">
        <ele>0.0</ele>
        <time>2026-08-14T17:05:58Z</time>
      </trkpt>
      <trkpt lat="51.152214" lon="-0.168953">
        <ele>0.0</ele>
        <time>2026-08-14T17:05:58Z</time>
      </trkpt>
      <trkpt lat="51.152225" lon="-0.168686">
        <ele>0.0</ele>
        <time>2026-08-14T17:05:58Z</time>
      </trkpt>
      <trkpt lat="51.15218" lon="-0.168419">
        <ele>0.0</ele>
        <time>2026-08-14T17:05:58Z</time>
      </trkpt>
      <trkpt lat="51.152077" lon="-0.168171">
        <ele>0.0</ele>
        <time>2026-08-14T17:05:58Z</time>
      </trkpt>
      <trkpt lat="51.151901" lon="-0.167961">
        <ele>0.0</ele>
        <time>2026-08-14T17:05:58Z</time>
      </trkpt>
      <trkpt lat="51.15168" lon="-0.167866">
        <ele>0.0</ele>
        <time>2026-08-14T17:05:58Z</time>
      </trkpt>
      <trkpt lat="51.151463" lon="-0.167876">
        <ele>0.0</ele>
        <time>2026-08-14T17:05:58Z</time>
      </trkpt>
      <trkpt lat="51.151257" lon="-0.16808">
        <ele>0.0</ele>
        <time>2026-08-14T17:05:58Z</time>
      </trkpt>
      <trkpt lat="51.151176" lon="-0.168339">
        <ele>0.0</ele>
        <time>2026-08-14T17:05:58Z</time>
      </trkpt>
      <trkpt lat="51.151154" lon="-0.168599">
        <ele>0.0</ele>
        <time>2026-08-14T17:05:58Z</time>
      </trkpt>
      <trkpt lat="51.151108" lon="-0.168915">
        <ele>0.0</ele>
        <time>2026-08-14T17:05:58Z</time>
      </trkpt>
      <trkpt lat="51.150852" lon="-0.170727">
        <ele>0.0</ele>
        <time>2026-08-14T17:05:58Z</time>
      </trkpt>
      <trkpt lat="51.150436" lon="-0.173626">
        <ele>0.0</ele>
        <time>2026-08-14T17:05:58Z</time>
      </trkpt>
      <trkpt lat="51.150352" lon="-0.174236">
        <ele>0.0</ele>
        <time>2026-08-14T17:05:58Z</time>
      </trkpt>
      <trkpt lat="51.150192" lon="-0.175559">
        <ele>60.96</ele>
        <time>2026-08-14T17:05:58Z</time>
      </trkpt>
      <trkpt lat="51.149971" lon="-0.177002">
        <ele>60.96</ele>
        <time>2026-08-14T17:05:58Z</time>
      </trkpt>
      <trkpt lat="51.149784" lon="-0.178452">
        <ele>60.96</ele>
        <time>2026-08-14T17:05:58Z</time>
      </trkpt>
      <trkpt lat="51.149551" lon="-0.180087">
        <ele>60.96</ele>
        <time>2026-08-14T17:05:58Z</time>
      </trkpt>
      <trkpt lat="51.149223" lon="-0.182419">
        <ele>60.96</ele>
        <time>2026-08-14T17:05:58Z</time>
      </trkpt>
      <trkpt lat="51.148956" lon="-0.184466">
        <ele>60.96</ele>
        <time>2026-08-14T17:05:58Z</time>
      </trkpt>
      <trkpt lat="51.14772" lon="-0.193523">
        <ele>45.72</ele>
        <time>2026-08-14T17:05:58Z</time>
      </trkpt>
      <trkpt lat="51.147362" lon="-0.195999">
        <ele>53.34</ele>
        <time>2026-08-14T17:05:58Z</time>
      </trkpt>
      <trkpt lat="51.147034" lon="-0.198496">
        <ele>76.2</ele>
        <time>2026-08-14T17:05:58Z</time>
      </trkpt>
      <trkpt lat="51.146622" lon="-0.20154">
        <ele>99.06</ele>
        <time>2026-08-14T17:05:58Z</time>
      </trkpt>
      <trkpt lat="51.145081" lon="-0.211868">
        <ele>213.36</ele>
        <time>2026-08-14T17:05:58Z</time>
      </trkpt>
      <trkpt lat="51.143917" lon="-0.219193">
        <ele>304.8</ele>
        <time>2026-08-14T17:05:58Z</time>
      </trkpt>
      <trkpt lat="51.143497" lon="-0.222168">
        <ele>350.52000000000004</ele>
        <time>2026-08-14T17:05:58Z</time>
      </trkpt>
      <trkpt lat="51.143127" lon="-0.224609">
        <ele>381.0</ele>
        <time>2026-08-14T17:05:58Z</time>
      </trkpt>
      <trkpt lat="51.142822" lon="-0.226927">
        <ele>403.86</ele>
        <time>2026-08-14T17:05:58Z</time>
      </trkpt>
      <trkpt lat="51.142456" lon="-0.229525">
        <ele>426.72</ele>
        <time>2026-08-14T17:05:58Z</time>
      </trkpt>
      <trkpt lat="51.142181" lon="-0.231752">
        <ele>449.58000000000004</ele>
        <time>2026-08-14T17:05:58Z</time>
      </trkpt>
      <trkpt lat="51.141823" lon="-0.234299">
        <ele>457.20000000000005</ele>
        <time>2026-08-14T17:05:58Z</time>
      </trkpt>
      <trkpt lat="51.141495" lon="-0.2368">
        <ele>472.44</ele>
        <time>2026-08-14T17:05:58Z</time>
      </trkpt>
      <trkpt lat="51.141174" lon="-0.239472">
        <ele>487.68</ele>
        <time>2026-08-14T17:05:58Z</time>
      </trkpt>
      <trkpt lat="51.140488" lon="-0.244965">
        <ele>510.54</ele>
        <time>2026-08-14T17:05:58Z</time>
      </trkpt>
      <trkpt lat="51.139217" lon="-0.256119">
        <ele>548.64</ele>
        <time>2026-08-14T17:05:58Z</time>
      </trkpt>
      <trkpt lat="51.137634" lon="-0.268402">
        <ele>586.74</ele>
        <time>2026-08-14T17:05:58Z</time>
      </trkpt>
      <trkpt lat="51.136002" lon="-0.280745">
        <ele>609.6</ele>
        <time>2026-08-14T17:05:58Z</time>
      </trkpt>
      <trkpt lat="51.134701" lon="-0.290451">
        <ele>640.08</ele>
        <time>2026-08-14T17:05:58Z</time>
      </trkpt>
      <trkpt lat="51.132751" lon="-0.304871">
        <ele>746.76</ele>
        <time>2026-08-14T17:05:58Z</time>
      </trkpt>
      <trkpt lat="51.130737" lon="-0.319569">
        <ele>891.5400000000001</ele>
        <time>2026-08-14T17:05:58Z</time>
      </trkpt>
      <trkpt lat="51.128769" lon="-0.333895">
        <ele>1036.3200000000002</ele>
        <time>2026-08-14T17:05:58Z</time>
      </trkpt>
      <trkpt lat="51.126938" lon="-0.347331">
        <ele>1173.48</ele>
        <time>2026-08-14T17:05:58Z</time>
      </trkpt>
      <trkpt lat="51.124924" lon="-0.361658">
        <ele>1303.02</ele>
        <time>2026-08-14T17:05:58Z</time>
      </trkpt>
      <trkpt lat="51.123047" lon="-0.375094">
        <ele>1402.0800000000002</ele>
        <time>2026-08-14T17:05:58Z</time>
      </trkpt>
      <trkpt lat="51.121216" lon="-0.385561">
        <ele>1485.9</ele>
        <time>2026-08-14T17:05:58Z</time>
      </trkpt>
      <trkpt lat="51.120255" lon="-0.389569">
        <ele>1516.38</ele>
        <time>2026-08-14T17:05:58Z</time>
      </trkpt>
      <trkpt lat="51.119247" lon="-0.392761">
        <ele>1546.8600000000001</ele>
        <time>2026-08-14T17:05:58Z</time>
      </trkpt>
      <trkpt lat="51.118195" lon="-0.395805">
        <ele>1569.72</ele>
        <time>2026-08-14T17:05:58Z</time>
      </trkpt>
      <trkpt lat="51.116592" lon="-0.399591">
        <ele>1607.8200000000002</ele>
        <time>2026-08-14T17:05:58Z</time>
      </trkpt>
      <trkpt lat="51.115173" lon="-0.402486">
        <ele>1630.68</ele>
        <time>2026-08-14T17:05:58Z</time>
      </trkpt>
      <trkpt lat="51.113571" lon="-0.405232">
        <ele>1661.16</ele>
        <time>2026-08-14T17:05:58Z</time>
      </trkpt>
      <trkpt lat="51.112263" lon="-0.407181">
        <ele>1684.02</ele>
        <time>2026-08-14T17:05:58Z</time>
      </trkpt>
      <trkpt lat="51.110306" lon="-0.409775">
        <ele>1722.1200000000001</ele>
        <time>2026-08-14T17:05:58Z</time>
      </trkpt>
      <trkpt lat="51.108353" lon="-0.411911">
        <ele>1752.6000000000001</ele>
        <time>2026-08-14T17:05:58Z</time>
      </trkpt>
      <trkpt lat="51.106304" lon="-0.413818">
        <ele>1783.0800000000002</ele>
        <time>2026-08-14T17:05:58Z</time>
      </trkpt>
      <trkpt lat="51.104095" lon="-0.41555">
        <ele>1813.5600000000002</ele>
        <time>2026-08-14T17:05:58Z</time>
      </trkpt>
      <trkpt lat="51.101696" lon="-0.417099">
        <ele>1851.66</ele>
        <time>2026-08-14T17:05:58Z</time>
      </trkpt>
      <trkpt lat="51.099289" lon="-0.418297">
        <ele>1889.76</ele>
        <time>2026-08-14T17:05:58Z</time>
      </trkpt>
      <trkpt lat="51.096954" lon="-0.419188">
        <ele>1920.24</ele>
        <time>2026-08-14T17:05:58Z</time>
      </trkpt>
      <trkpt lat="51.094757" lon="-0.419769">
        <ele>1950.72</ele>
        <time>2026-08-14T17:05:58Z</time>
      </trkpt>
      <trkpt lat="51.091965" lon="-0.420376">
        <ele>1981.2</ele>
        <time>2026-08-14T17:05:58Z</time>
      </trkpt>
      <trkpt lat="51.089447" lon="-0.420598">
        <ele>2004.0600000000002</ele>
        <time>2026-08-14T17:05:58Z</time>
      </trkpt>
      <trkpt lat="51.087021" lon="-0.420672">
        <ele>2019.3000000000002</ele>
        <time>2026-08-14T17:05:58Z</time>
      </trkpt>
      <trkpt lat="51.084641" lon="-0.42045">
        <ele>2042.16</ele>
        <time>2026-08-14T17:05:58Z</time>
      </trkpt>
      <trkpt lat="51.082123" lon="-0.420079">
        <ele>2065.02</ele>
        <time>2026-08-14T17:05:58Z</time>
      </trkpt>
      <trkpt lat="51.079559" lon="-0.41941">
        <ele>2080.26</ele>
        <time>2026-08-14T17:05:58Z</time>
      </trkpt>
      <trkpt lat="51.077179" lon="-0.41852">
        <ele>2095.5</ele>
        <time>2026-08-14T17:05:58Z</time>
      </trkpt>
      <trkpt lat="51.074696" lon="-0.417252">
        <ele>2118.36</ele>
        <time>2026-08-14T17:05:58Z</time>
      </trkpt>
      <trkpt lat="51.072372" lon="-0.41607">
        <ele>2141.2200000000003</ele>
        <time>2026-08-14T17:05:58Z</time>
      </trkpt>
      <trkpt lat="51.069855" lon="-0.414585">
        <ele>2164.08</ele>
        <time>2026-08-14T17:05:58Z</time>
      </trkpt>
      <trkpt lat="51.067017" lon="-0.412804">
        <ele>2194.56</ele>
        <time>2026-08-14T17:05:58Z</time>
      </trkpt>
      <trkpt lat="51.064636" lon="-0.411319">
        <ele>2217.42</ele>
        <time>2026-08-14T17:05:58Z</time>
      </trkpt>
      <trkpt lat="51.062393" lon="-0.409909">
        <ele>2240.28</ele>
        <time>2026-08-14T17:05:58Z</time>
      </trkpt>
      <trkpt lat="51.059784" lon="-0.408201">
        <ele>2270.76</ele>
        <time>2026-08-14T17:05:58Z</time>
      </trkpt>
      <trkpt lat="51.057678" lon="-0.406865">
        <ele>2301.2400000000002</ele>
        <time>2026-08-14T17:05:58Z</time>
      </trkpt>
      <trkpt lat="51.054863" lon="-0.405045">
        <ele>2339.34</ele>
        <time>2026-08-14T17:05:58Z</time>
      </trkpt>
      <trkpt lat="51.053101" lon="-0.403822">
        <ele>2362.2000000000003</ele>
        <time>2026-08-14T17:05:58Z</time>
      </trkpt>
      <trkpt lat="51.049988" lon="-0.401743">
        <ele>2407.92</ele>
        <time>2026-08-14T17:05:58Z</time>
      </trkpt>
      <trkpt lat="51.047653" lon="-0.400259">
        <ele>2430.78</ele>
        <time>2026-08-14T17:05:58Z</time>
      </trkpt>
      <trkpt lat="51.045181" lon="-0.39856">
        <ele>2461.26</ele>
        <time>2026-08-14T17:05:58Z</time>
      </trkpt>
      <trkpt lat="51.030716" lon="-0.388678">
        <ele>2628.9</ele>
        <time>2026-08-14T17:05:58Z</time>
      </trkpt>
      <trkpt lat="51.01329" lon="-0.376663">
        <ele>2819.4</ele>
        <time>2026-08-14T17:05:58Z</time>
      </trkpt>
      <trkpt lat="50.997513" lon="-0.365601">
        <ele>3017.52</ele>
        <time>2026-08-14T17:05:58Z</time>
      </trkpt>
      <trkpt lat="50.979813" lon="-0.353121">
        <ele>3208.02</ele>
        <time>2026-08-14T17:05:58Z</time>
      </trkpt>
      <trkpt lat="50.961201" lon="-0.340118">
        <ele>3299.46</ele>
        <time>2026-08-14T17:05:58Z</time>
      </trkpt>
      <trkpt lat="50.944675" lon="-0.327911">
        <ele>3368.04</ele>
        <time>2026-08-14T17:05:58Z</time>
      </trkpt>
      <trkpt lat="50.92503" lon="-0.310516">
        <ele>3505.2000000000003</ele>
        <time>2026-08-14T17:05:58Z</time>
      </trkpt>
      <trkpt lat="50.905746" lon="-0.292993">
        <ele>3665.2200000000003</ele>
        <time>2026-08-14T17:05:58Z</time>
      </trkpt>
      <trkpt lat="50.862511" lon="-0.253906">
        <ele>4038.6000000000004</ele>
        <time>2026-08-14T17:05:58Z</time>
      </trkpt>
      <trkpt lat="50.817627" lon="-0.213862">
        <ele>4450.08</ele>
        <time>2026-08-14T17:05:58Z</time>
      </trkpt>
      <trkpt lat="50.772583" lon="-0.173925">
        <ele>4831.08</ele>
        <time>2026-08-14T17:05:58Z</time>
      </trkpt>
      <trkpt lat="50.726578" lon="-0.133209">
        <ele>5204.46</ele>
        <time>2026-08-14T17:05:58Z</time>
      </trkpt>
      <trkpt lat="50.679108" lon="-0.091231">
        <ele>5539.740000000001</ele>
        <time>2026-08-14T17:05:58Z</time>
      </trkpt>
      <trkpt lat="50.630726" lon="-0.048696">
        <ele>5844.54</ele>
        <time>2026-08-14T17:05:58Z</time>
      </trkpt>
      <trkpt lat="50.580032" lon="-0.004009">
        <ele>6217.92</ele>
        <time>2026-08-14T17:05:58Z</time>
      </trkpt>
      <trkpt lat="50.530838" lon="0.039103">
        <ele>6499.860000000001</ele>
        <time>2026-08-14T17:05:58Z</time>
      </trkpt>
      <trkpt lat="50.480621" lon="0.082903">
        <ele>6774.18</ele>
        <time>2026-08-14T17:05:58Z</time>
      </trkpt>
      <trkpt lat="50.428268" lon="0.129461">
        <ele>7071.360000000001</ele>
        <time>2026-08-14T17:05:58Z</time>
      </trkpt>
      <trkpt lat="50.408905" lon="0.151953">
        <ele>7132.320000000001</ele>
        <time>2026-08-14T17:05:58Z</time>
      </trkpt>
      <trkpt lat="50.406006" lon="0.155688">
        <ele>7139.9400000000005</ele>
        <time>2026-08-14T17:05:58Z</time>
      </trkpt>
      <trkpt lat="50.402939" lon="0.159735">
        <ele>7147.56</ele>
        <time>2026-08-14T17:05:58Z</time>
      </trkpt>
      <trkpt lat="50.399967" lon="0.163681">
        <ele>7155.18</ele>
        <time>2026-08-14T17:05:58Z</time>
      </trkpt>
      <trkpt lat="50.396427" lon="0.168358">
        <ele>7162.8</ele>
        <time>2026-08-14T17:05:58Z</time>
      </trkpt>
      <trkpt lat="50.3936" lon="0.172167">
        <ele>7170.42</ele>
        <time>2026-08-14T17:05:58Z</time>
      </trkpt>
      <trkpt lat="50.390533" lon="0.176215">
        <ele>7185.660000000001</ele>
        <time>2026-08-14T17:05:58Z</time>
      </trkpt>
      <trkpt lat="50.343498" lon="0.239472">
        <ele>7383.780000000001</ele>
        <time>2026-08-14T17:05:58Z</time>
      </trkpt>
      <trkpt lat="50.295456" lon="0.30357">
        <ele>7604.76</ele>
        <time>2026-08-14T17:05:58Z</time>
      </trkpt>
      <trkpt lat="50.246521" lon="0.368259">
        <ele>7810.5</ele>
        <time>2026-08-14T17:05:58Z</time>
      </trkpt>
      <trkpt lat="50.196533" lon="0.43396">
        <ele>8039.1</ele>
        <time>2026-08-14T17:05:58Z</time>
      </trkpt>
      <trkpt lat="50.145512" lon="0.500769">
        <ele>8229.6</ele>
        <time>2026-08-14T17:05:58Z</time>
      </trkpt>
      <trkpt lat="50.095367" lon="0.566302">
        <ele>8427.720000000001</ele>
        <time>2026-08-14T17:05:58Z</time>
      </trkpt>
      <trkpt lat="50.043049" lon="0.634386">
        <ele>8580.12</ele>
        <time>2026-08-14T17:05:58Z</time>
      </trkpt>
      <trkpt lat="49.990311" lon="0.702764">
        <ele>8770.62</ele>
        <time>2026-08-14T17:05:58Z</time>
      </trkpt>
      <trkpt lat="49.937515" lon="0.771121">
        <ele>8923.02</ele>
        <time>2026-08-14T17:05:58Z</time>
      </trkpt>
      <trkpt lat="49.884075" lon="0.840083">
        <ele>9052.560000000001</ele>
        <time>2026-08-14T17:05:58Z</time>
      </trkpt>
      <trkpt lat="49.832062" lon="0.907095">
        <ele>9204.960000000001</ele>
        <time>2026-08-14T17:05:58Z</time>
      </trkpt>
      <trkpt lat="49.779099" lon="0.975037">
        <ele>9555.480000000001</ele>
        <time>2026-08-14T17:05:58Z</time>
      </trkpt>
      <trkpt lat="49.728775" lon="1.039618">
        <ele>9989.82</ele>
        <time>2026-08-14T17:05:58Z</time>
      </trkpt>
      <trkpt lat="49.680038" lon="1.101885">
        <ele>10066.02</ele>
        <time>2026-08-14T17:05:58Z</time>
      </trkpt>
      <trkpt lat="49.631248" lon="1.163883">
        <ele>10066.02</ele>
        <time>2026-08-14T17:05:58Z</time>
      </trkpt>
      <trkpt lat="49.583908" lon="1.223819">
        <ele>10058.4</ele>
        <time>2026-08-14T17:05:58Z</time>
      </trkpt>
      <trkpt lat="49.535614" lon="1.285039">
        <ele>10058.4</ele>
        <time>2026-08-14T17:05:58Z</time>
      </trkpt>
      <trkpt lat="49.488705" lon="1.344192">
        <ele>10058.4</ele>
        <time>2026-08-14T17:05:58Z</time>
      </trkpt>
      <trkpt lat="49.439316" lon="1.406473">
        <ele>10066.02</ele>
        <time>2026-08-14T17:05:58Z</time>
      </trkpt>
      <trkpt lat="49.391327" lon="1.466956">
        <ele>10066.02</ele>
        <time>2026-08-14T17:05:58Z</time>
      </trkpt>
      <trkpt lat="49.342766" lon="1.527678">
        <ele>10058.4</ele>
        <time>2026-08-14T17:05:58Z</time>
      </trkpt>
      <trkpt lat="49.295933" lon="1.586079">
        <ele>10066.02</ele>
        <time>2026-08-14T17:05:58Z</time>
      </trkpt>
      <trkpt lat="49.248077" lon="1.645709">
        <ele>10058.4</ele>
        <time>2026-08-14T17:05:58Z</time>
      </trkpt>
      <trkpt lat="49.200211" lon="1.705275">
        <ele>10058.4</ele>
        <time>2026-08-14T17:05:58Z</time>
      </trkpt>
      <trkpt lat="49.152878" lon="1.763884">
        <ele>10058.4</ele>
        <time>2026-08-14T17:05:58Z</time>
      </trkpt>
      <trkpt lat="49.105774" lon="1.822252">
        <ele>10050.78</ele>
        <time>2026-08-14T17:05:58Z</time>
      </trkpt>
      <trkpt lat="49.057957" lon="1.881264">
        <ele>10058.4</ele>
        <time>2026-08-14T17:05:58Z</time>
      </trkpt>
      <trkpt lat="49.010422" lon="1.939721">
        <ele>10058.4</ele>
        <time>2026-08-14T17:05:58Z</time>
      </trkpt>
      <trkpt lat="48.962296" lon="1.998861">
        <ele>10058.4</ele>
        <time>2026-08-14T17:05:58Z</time>
      </trkpt>
      <trkpt lat="48.914154" lon="2.057824">
        <ele>10058.4</ele>
        <time>2026-08-14T17:05:58Z</time>
      </trkpt>
      <trkpt lat="48.866272" lon="2.116277">
        <ele>10058.4</ele>
        <time>2026-08-14T17:05:58Z</time>
      </trkpt>
      <trkpt lat="48.81926" lon="2.173532">
        <ele>10058.4</ele>
        <time>2026-08-14T17:05:58Z</time>
      </trkpt>
      <trkpt lat="48.771057" lon="2.232197">
        <ele>10058.4</ele>
        <time>2026-08-14T17:05:58Z</time>
      </trkpt>
      <trkpt lat="48.7229" lon="2.290509">
        <ele>10058.4</ele>
        <time>2026-08-14T17:05:58Z</time>
      </trkpt>
      <trkpt lat="48.674274" lon="2.349267">
        <ele>10058.4</ele>
        <time>2026-08-14T17:05:58Z</time>
      </trkpt>
      <trkpt lat="48.625999" lon="2.407524">
        <ele>10058.4</ele>
        <time>2026-08-14T17:05:58Z</time>
      </trkpt>
      <trkpt lat="48.577911" lon="2.465491">
        <ele>10058.4</ele>
        <time>2026-08-14T17:05:58Z</time>
      </trkpt>
      <trkpt lat="48.529034" lon="2.524109">
        <ele>10058.4</ele>
        <time>2026-08-14T17:05:58Z</time>
      </trkpt>
      <trkpt lat="48.48085" lon="2.581715">
        <ele>10066.02</ele>
        <time>2026-08-14T17:05:58Z</time>
      </trkpt>
      <trkpt lat="48.431717" lon="2.640451">
        <ele>10073.640000000001</ele>
        <time>2026-08-14T17:05:58Z</time>
      </trkpt>
      <trkpt lat="48.383556" lon="2.697649">
        <ele>10066.02</ele>
        <time>2026-08-14T17:05:58Z</time>
      </trkpt>
      <trkpt lat="48.336025" lon="2.754099">
        <ele>10058.4</ele>
        <time>2026-08-14T17:05:58Z</time>
      </trkpt>
      <trkpt lat="48.287384" lon="2.811796">
        <ele>10058.4</ele>
        <time>2026-08-14T17:05:58Z</time>
      </trkpt>
      <trkpt lat="48.238918" lon="2.868949">
        <ele>10050.78</ele>
        <time>2026-08-14T17:05:58Z</time>
      </trkpt>
      <trkpt lat="48.190155" lon="2.925251">
        <ele>10050.78</ele>
        <time>2026-08-14T17:05:58Z</time>
      </trkpt>
      <trkpt lat="48.145981" lon="2.98938">
        <ele>10058.4</ele>
        <time>2026-08-14T17:05:58Z</time>
      </trkpt>
      <trkpt lat="48.102905" lon="3.056808">
        <ele>10058.4</ele>
        <time>2026-08-14T17:05:58Z</time>
      </trkpt>
      <trkpt lat="48.059505" lon="3.123638">
        <ele>10058.4</ele>
        <time>2026-08-14T17:05:58Z</time>
      </trkpt>
      <trkpt lat="48.016068" lon="3.190361">
        <ele>10066.02</ele>
        <time>2026-08-14T17:05:58Z</time>
      </trkpt>
      <trkpt lat="47.973804" lon="3.254982">
        <ele>10058.4</ele>
        <time>2026-08-14T17:05:58Z</time>
      </trkpt>
      <trkpt lat="47.930145" lon="3.321648">
        <ele>10058.4</ele>
        <time>2026-08-14T17:05:58Z</time>
      </trkpt>
      <trkpt lat="47.886978" lon="3.387428">
        <ele>10058.4</ele>
        <time>2026-08-14T17:05:58Z</time>
      </trkpt>
      <trkpt lat="47.842991" lon="3.454285">
        <ele>10058.4</ele>
        <time>2026-08-14T17:05:58Z</time>
      </trkpt>
      <trkpt lat="47.799179" lon="3.519745">
        <ele>10058.4</ele>
        <time>2026-08-14T17:05:58Z</time>
      </trkpt>
      <trkpt lat="47.755009" lon="3.585839">
        <ele>10066.02</ele>
        <time>2026-08-14T17:05:58Z</time>
      </trkpt>
      <trkpt lat="47.711807" lon="3.650419">
        <ele>10058.4</ele>
        <time>2026-08-14T17:05:58Z</time>
      </trkpt>
      <trkpt lat="47.667953" lon="3.716619">
        <ele>10058.4</ele>
        <time>2026-08-14T17:05:58Z</time>
      </trkpt>
      <trkpt lat="47.624542" lon="3.781769">
        <ele>10058.4</ele>
        <time>2026-08-14T17:05:58Z</time>
      </trkpt>
      <trkpt lat="47.580532" lon="3.847539">
        <ele>10058.4</ele>
        <time>2026-08-14T17:05:58Z</time>
      </trkpt>
      <trkpt lat="47.536514" lon="3.913193">
        <ele>10058.4</ele>
        <time>2026-08-14T17:05:58Z</time>
      </trkpt>
      <trkpt lat="47.492359" lon="3.978882">
        <ele>10058.4</ele>
        <time>2026-08-14T17:05:58Z</time>
      </trkpt>
      <trkpt lat="47.449219" lon="4.042282">
        <ele>10058.4</ele>
        <time>2026-08-14T17:05:58Z</time>
      </trkpt>
      <trkpt lat="47.404907" lon="4.106689">
        <ele>10058.4</ele>
        <time>2026-08-14T17:05:58Z</time>
      </trkpt>
      <trkpt lat="47.360962" lon="4.170204">
        <ele>10058.4</ele>
        <time>2026-08-14T17:05:58Z</time>
      </trkpt>
      <trkpt lat="47.316532" lon="4.233539">
        <ele>10050.78</ele>
        <time>2026-08-14T17:05:58Z</time>
      </trkpt>
      <trkpt lat="47.272446" lon="4.296288">
        <ele>10050.78</ele>
        <time>2026-08-14T17:05:58Z</time>
      </trkpt>
      <trkpt lat="47.228165" lon="4.359718">
        <ele>10050.78</ele>
        <time>2026-08-14T17:05:58Z</time>
      </trkpt>
      <trkpt lat="47.184082" lon="4.422821">
        <ele>10058.4</ele>
        <time>2026-08-14T17:05:58Z</time>
      </trkpt>
      <trkpt lat="47.139359" lon="4.486885">
        <ele>10058.4</ele>
        <time>2026-08-14T17:05:58Z</time>
      </trkpt>
      <trkpt lat="47.095779" lon="4.550125">
        <ele>9989.82</ele>
        <time>2026-08-14T17:05:58Z</time>
      </trkpt>
      <trkpt lat="47.051834" lon="4.616249">
        <ele>9837.42</ele>
        <time>2026-08-14T17:05:58Z</time>
      </trkpt>
      <trkpt lat="47.009033" lon="4.68045">
        <ele>9692.640000000001</ele>
        <time>2026-08-14T17:05:58Z</time>
      </trkpt>
      <trkpt lat="46.965111" lon="4.745671">
        <ele>9395.460000000001</ele>
        <time>2026-08-14T17:05:58Z</time>
      </trkpt>
      <trkpt lat="46.919209" lon="4.813491">
        <ele>8961.12</ele>
        <time>2026-08-14T17:05:58Z</time>
      </trkpt>
      <trkpt lat="46.875549" lon="4.877655">
        <ele>8702.04</ele>
        <time>2026-08-14T17:05:58Z</time>
      </trkpt>
      <trkpt lat="46.831833" lon="4.941771">
        <ele>8244.84</ele>
        <time>2026-08-14T17:05:58Z</time>
      </trkpt>
      <trkpt lat="46.786652" lon="5.008024">
        <ele>7886.700000000001</ele>
        <time>2026-08-14T17:05:58Z</time>
      </trkpt>
      <trkpt lat="46.743439" lon="5.071262">
        <ele>7566.660000000001</ele>
        <time>2026-08-14T17:05:58Z</time>
      </trkpt>
      <trkpt lat="46.70224" lon="5.131352">
        <ele>7254.240000000001</ele>
        <time>2026-08-14T17:05:58Z</time>
      </trkpt>
      <trkpt lat="46.678673" lon="5.169136">
        <ele>7063.740000000001</ele>
        <time>2026-08-14T17:05:58Z</time>
      </trkpt>
      <trkpt lat="46.676651" lon="5.173489">
        <ele>7048.5</ele>
        <time>2026-08-14T17:05:58Z</time>
      </trkpt>
      <trkpt lat="46.674637" lon="5.178312">
        <ele>7033.26</ele>
        <time>2026-08-14T17:05:58Z</time>
      </trkpt>
      <trkpt lat="46.67276" lon="5.183212">
        <ele>7010.400000000001</ele>
        <time>2026-08-14T17:05:58Z</time>
      </trkpt>
      <trkpt lat="46.6707" lon="5.189164">
        <ele>6987.54</ele>
        <time>2026-08-14T17:05:58Z</time>
      </trkpt>
      <trkpt lat="46.669235" lon="5.19372">
        <ele>6972.3</ele>
        <time>2026-08-14T17:05:58Z</time>
      </trkpt>
      <trkpt lat="46.667816" lon="5.19861">
        <ele>6941.820000000001</ele>
        <time>2026-08-14T17:05:58Z</time>
      </trkpt>
      <trkpt lat="46.666569" lon="5.203468">
        <ele>6911.34</ele>
        <time>2026-08-14T17:05:58Z</time>
      </trkpt>
      <trkpt lat="46.665173" lon="5.209373">
        <ele>6873.240000000001</ele>
        <time>2026-08-14T17:05:58Z</time>
      </trkpt>
      <trkpt lat="46.664108" lon="5.214621">
        <ele>6827.52</ele>
        <time>2026-08-14T17:05:58Z</time>
      </trkpt>
      <trkpt lat="46.663078" lon="5.220154">
        <ele>6781.8</ele>
        <time>2026-08-14T17:05:58Z</time>
      </trkpt>
      <trkpt lat="46.66214" lon="5.225875">
        <ele>6736.08</ele>
        <time>2026-08-14T17:05:58Z</time>
      </trkpt>
      <trkpt lat="46.661179" lon="5.232239">
        <ele>6675.12</ele>
        <time>2026-08-14T17:05:58Z</time>
      </trkpt>
      <trkpt lat="46.660332" lon="5.237938">
        <ele>6629.400000000001</ele>
        <time>2026-08-14T17:05:58Z</time>
      </trkpt>
      <trkpt lat="46.659588" lon="5.24295">
        <ele>6591.3</ele>
        <time>2026-08-14T17:05:58Z</time>
      </trkpt>
      <trkpt lat="46.658752" lon="5.248718">
        <ele>6545.58</ele>
        <time>2026-08-14T17:05:58Z</time>
      </trkpt>
      <trkpt lat="46.657928" lon="5.254613">
        <ele>6499.860000000001</ele>
        <time>2026-08-14T17:05:58Z</time>
      </trkpt>
      <trkpt lat="46.657104" lon="5.260173">
        <ele>6454.14</ele>
        <time>2026-08-14T17:05:58Z</time>
      </trkpt>
      <trkpt lat="46.656235" lon="5.265666">
        <ele>6416.04</ele>
        <time>2026-08-14T17:05:58Z</time>
      </trkpt>
      <trkpt lat="46.655319" lon="5.270959">
        <ele>6377.9400000000005</ele>
        <time>2026-08-14T17:05:58Z</time>
      </trkpt>
      <trkpt lat="46.654266" lon="5.276117">
        <ele>6339.84</ele>
        <time>2026-08-14T17:05:58Z</time>
      </trkpt>
      <trkpt lat="46.653023" lon="5.281197">
        <ele>6294.12</ele>
        <time>2026-08-14T17:05:58Z</time>
      </trkpt>
      <trkpt lat="46.651627" lon="5.286484">
        <ele>6256.02</ele>
        <time>2026-08-14T17:05:58Z</time>
      </trkpt>
      <trkpt lat="46.649998" lon="5.291702">
        <ele>6210.3</ele>
        <time>2026-08-14T17:05:58Z</time>
      </trkpt>
      <trkpt lat="46.648228" lon="5.296921">
        <ele>6172.200000000001</ele>
        <time>2026-08-14T17:05:58Z</time>
      </trkpt>
      <trkpt lat="46.646225" lon="5.302071">
        <ele>6126.4800000000005</ele>
        <time>2026-08-14T17:05:58Z</time>
      </trkpt>
      <trkpt lat="46.644333" lon="5.30653">
        <ele>6088.38</ele>
        <time>2026-08-14T17:05:58Z</time>
      </trkpt>
      <trkpt lat="46.64241" lon="5.310751">
        <ele>6050.280000000001</ele>
        <time>2026-08-14T17:05:58Z</time>
      </trkpt>
      <trkpt lat="46.640221" lon="5.315117">
        <ele>6012.18</ele>
        <time>2026-08-14T17:05:58Z</time>
      </trkpt>
      <trkpt lat="46.637604" lon="5.319727">
        <ele>5966.46</ele>
        <time>2026-08-14T17:05:58Z</time>
      </trkpt>
      <trkpt lat="46.634869" lon="5.324249">
        <ele>5920.740000000001</ele>
        <time>2026-08-14T17:05:58Z</time>
      </trkpt>
      <trkpt lat="46.632168" lon="5.328369">
        <ele>5882.64</ele>
        <time>2026-08-14T17:05:58Z</time>
      </trkpt>
      <trkpt lat="46.628998" lon="5.33259">
        <ele>5829.3</ele>
        <time>2026-08-14T17:05:58Z</time>
      </trkpt>
      <trkpt lat="46.625977" lon="5.336334">
        <ele>5791.200000000001</ele>
        <time>2026-08-14T17:05:58Z</time>
      </trkpt>
      <trkpt lat="46.62355" lon="5.339155">
        <ele>5753.1</ele>
        <time>2026-08-14T17:05:58Z</time>
      </trkpt>
      <trkpt lat="46.620071" lon="5.34304">
        <ele>5707.38</ele>
        <time>2026-08-14T17:05:58Z</time>
      </trkpt>
      <trkpt lat="46.61713" lon="5.346153">
        <ele>5669.280000000001</ele>
        <time>2026-08-14T17:05:58Z</time>
      </trkpt>
      <trkpt lat="46.613548" lon="5.34993">
        <ele>5623.56</ele>
        <time>2026-08-14T17:05:58Z</time>
      </trkpt>
      <trkpt lat="46.611053" lon="5.352418">
        <ele>5593.08</ele>
        <time>2026-08-14T17:05:58Z</time>
      </trkpt>
      <trkpt lat="46.608078" lon="5.355433">
        <ele>5554.9800000000005</ele>
        <time>2026-08-14T17:05:58Z</time>
      </trkpt>
      <trkpt lat="46.604935" lon="5.358513">
        <ele>5509.26</ele>
        <time>2026-08-14T17:05:58Z</time>
      </trkpt>
      <trkpt lat="46.600418" lon="5.362976">
        <ele>5455.92</ele>
        <time>2026-08-14T17:05:58Z</time>
      </trkpt>
      <trkpt lat="46.597301" lon="5.366066">
        <ele>5417.820000000001</ele>
        <time>2026-08-14T17:05:58Z</time>
      </trkpt>
      <trkpt lat="46.594254" lon="5.368965">
        <ele>5379.72</ele>
        <time>2026-08-14T17:05:58Z</time>
      </trkpt>
      <trkpt lat="46.590454" lon="5.372716">
        <ele>5326.38</ele>
        <time>2026-08-14T17:05:58Z</time>
      </trkpt>
      <trkpt lat="46.58757" lon="5.375463">
        <ele>5288.280000000001</ele>
        <time>2026-08-14T17:05:58Z</time>
      </trkpt>
      <trkpt lat="46.539505" lon="5.422222">
        <ele>4914.900000000001</ele>
        <time>2026-08-14T17:05:58Z</time>
      </trkpt>
      <trkpt lat="46.491852" lon="5.462483">
        <ele>4762.5</ele>
        <time>2026-08-14T17:05:58Z</time>
      </trkpt>
      <trkpt lat="46.481552" lon="5.469182">
        <ele>4732.02</ele>
        <time>2026-08-14T17:05:58Z</time>
      </trkpt>
      <trkpt lat="46.478989" lon="5.470857">
        <ele>4724.400000000001</ele>
        <time>2026-08-14T17:05:58Z</time>
      </trkpt>
      <trkpt lat="46.431992" lon="5.50106">
        <ele>4495.8</ele>
        <time>2026-08-14T17:05:58Z</time>
      </trkpt>
      <trkpt lat="46.386093" lon="5.53093">
        <ele>4145.280000000001</ele>
        <time>2026-08-14T17:05:58Z</time>
      </trkpt>
      <trkpt lat="46.341385" lon="5.559484">
        <ele>3779.52</ele>
        <time>2026-08-14T17:05:58Z</time>
      </trkpt>
      <trkpt lat="46.296387" lon="5.587486">
        <ele>3413.76</ele>
        <time>2026-08-14T17:05:58Z</time>
      </trkpt>
      <trkpt lat="46.275578" lon="5.600143">
        <ele>3291.84</ele>
        <time>2026-08-14T17:05:58Z</time>
      </trkpt>
      <trkpt lat="46.255188" lon="5.612572">
        <ele>3230.88</ele>
        <time>2026-08-14T17:05:58Z</time>
      </trkpt>
      <trkpt lat="46.23801" lon="5.623077">
        <ele>3185.1600000000003</ele>
        <time>2026-08-14T17:05:58Z</time>
      </trkpt>
      <trkpt lat="46.218597" lon="5.635025">
        <ele>3139.44</ele>
        <time>2026-08-14T17:05:58Z</time>
      </trkpt>
      <trkpt lat="46.200069" lon="5.646423">
        <ele>3101.34</ele>
        <time>2026-08-14T17:05:58Z</time>
      </trkpt>
      <trkpt lat="46.184509" lon="5.656016">
        <ele>3063.2400000000002</ele>
        <time>2026-08-14T17:05:58Z</time>
      </trkpt>
      <trkpt lat="46.167068" lon="5.666735">
        <ele>3017.52</ele>
        <time>2026-08-14T17:05:58Z</time>
      </trkpt>
      <trkpt lat="46.15274" lon="5.675577">
        <ele>2971.8</ele>
        <time>2026-08-14T17:05:58Z</time>
      </trkpt>
      <trkpt lat="46.137314" lon="5.685023">
        <ele>2887.98</ele>
        <time>2026-08-14T17:05:58Z</time>
      </trkpt>
      <trkpt lat="46.122978" lon="5.693802">
        <ele>2811.78</ele>
        <time>2026-08-14T17:05:58Z</time>
      </trkpt>
      <trkpt lat="46.108429" lon="5.702708">
        <ele>2743.2000000000003</ele>
        <time>2026-08-14T17:05:58Z</time>
      </trkpt>
      <trkpt lat="46.092628" lon="5.712341">
        <ele>2697.48</ele>
        <time>2026-08-14T17:05:58Z</time>
      </trkpt>
      <trkpt lat="46.076984" lon="5.721817">
        <ele>2651.76</ele>
        <time>2026-08-14T17:05:58Z</time>
      </trkpt>
      <trkpt lat="46.063934" lon="5.729705">
        <ele>2613.6600000000003</ele>
        <time>2026-08-14T17:05:58Z</time>
      </trkpt>
      <trkpt lat="46.056549" lon="5.736099">
        <ele>2583.1800000000003</ele>
        <time>2026-08-14T17:05:58Z</time>
      </trkpt>
      <trkpt lat="46.054871" lon="5.738146">
        <ele>2575.56</ele>
        <time>2026-08-14T17:05:58Z</time>
      </trkpt>
      <trkpt lat="46.053268" lon="5.74049">
        <ele>2575.56</ele>
        <time>2026-08-14T17:05:58Z</time>
      </trkpt>
      <trkpt lat="46.052032" lon="5.742554">
        <ele>2567.94</ele>
        <time>2026-08-14T17:05:58Z</time>
      </trkpt>
      <trkpt lat="46.050823" lon="5.745026">
        <ele>2560.32</ele>
        <time>2026-08-14T17:05:58Z</time>
      </trkpt>
      <trkpt lat="46.049427" lon="5.748184">
        <ele>2552.7000000000003</ele>
        <time>2026-08-14T17:05:58Z</time>
      </trkpt>
      <trkpt lat="46.048588" lon="5.750587">
        <ele>2552.7000000000003</ele>
        <time>2026-08-14T17:05:58Z</time>
      </trkpt>
      <trkpt lat="46.047729" lon="5.753755">
        <ele>2545.08</ele>
        <time>2026-08-14T17:05:58Z</time>
      </trkpt>
      <trkpt lat="46.047134" lon="5.7563">
        <ele>2537.46</ele>
        <time>2026-08-14T17:05:58Z</time>
      </trkpt>
      <trkpt lat="46.046631" lon="5.759516">
        <ele>2522.2200000000003</ele>
        <time>2026-08-14T17:05:58Z</time>
      </trkpt>
      <trkpt lat="46.04631" lon="5.762329">
        <ele>2514.6</ele>
        <time>2026-08-14T17:05:58Z</time>
      </trkpt>
      <trkpt lat="46.046169" lon="5.765213">
        <ele>2514.6</ele>
        <time>2026-08-14T17:05:58Z</time>
      </trkpt>
      <trkpt lat="46.046082" lon="5.76809">
        <ele>2514.6</ele>
        <time>2026-08-14T17:05:58Z</time>
      </trkpt>
      <trkpt lat="46.046036" lon="5.770636">
        <ele>2514.6</ele>
        <time>2026-08-14T17:05:58Z</time>
      </trkpt>
      <trkpt lat="46.046074" lon="5.773178">
        <ele>2506.98</ele>
        <time>2026-08-14T17:05:58Z</time>
      </trkpt>
      <trkpt lat="46.046127" lon="5.776732">
        <ele>2499.36</ele>
        <time>2026-08-14T17:05:58Z</time>
      </trkpt>
      <trkpt lat="46.046173" lon="5.779277">
        <ele>2484.1200000000003</ele>
        <time>2026-08-14T17:05:58Z</time>
      </trkpt>
      <trkpt lat="46.046265" lon="5.782359">
        <ele>2468.88</ele>
        <time>2026-08-14T17:05:58Z</time>
      </trkpt>
      <trkpt lat="46.046356" lon="5.784645">
        <ele>2453.6400000000003</ele>
        <time>2026-08-14T17:05:58Z</time>
      </trkpt>
      <trkpt lat="46.046448" lon="5.787718">
        <ele>2430.78</ele>
        <time>2026-08-14T17:05:58Z</time>
      </trkpt>
      <trkpt lat="46.046539" lon="5.790599">
        <ele>2415.54</ele>
        <time>2026-08-14T17:05:58Z</time>
      </trkpt>
      <trkpt lat="46.046589" lon="5.793365">
        <ele>2392.6800000000003</ele>
        <time>2026-08-14T17:05:58Z</time>
      </trkpt>
      <trkpt lat="46.046677" lon="5.796159">
        <ele>2377.44</ele>
        <time>2026-08-14T17:05:58Z</time>
      </trkpt>
      <trkpt lat="46.046768" lon="5.798973">
        <ele>2354.58</ele>
        <time>2026-08-14T17:05:58Z</time>
      </trkpt>
      <trkpt lat="46.04686" lon="5.80192">
        <ele>2339.34</ele>
        <time>2026-08-14T17:05:58Z</time>
      </trkpt>
      <trkpt lat="46.04752" lon="5.818909">
        <ele>2217.42</ele>
        <time>2026-08-14T17:05:58Z</time>
      </trkpt>
      <trkpt lat="46.048309" lon="5.824196">
        <ele>2179.32</ele>
        <time>2026-08-14T17:05:58Z</time>
      </trkpt>
      <trkpt lat="46.048962" lon="5.826736">
        <ele>2156.46</ele>
        <time>2026-08-14T17:05:58Z</time>
      </trkpt>
      <trkpt lat="46.049698" lon="5.829051">
        <ele>2141.2200000000003</ele>
        <time>2026-08-14T17:05:58Z</time>
      </trkpt>
      <trkpt lat="46.050613" lon="5.831462">
        <ele>2118.36</ele>
        <time>2026-08-14T17:05:58Z</time>
      </trkpt>
      <trkpt lat="46.051666" lon="5.83374">
        <ele>2095.5</ele>
        <time>2026-08-14T17:05:58Z</time>
      </trkpt>
      <trkpt lat="46.053131" lon="5.836554">
        <ele>2072.6400000000003</ele>
        <time>2026-08-14T17:05:58Z</time>
      </trkpt>
      <trkpt lat="46.054363" lon="5.838615">
        <ele>2049.78</ele>
        <time>2026-08-14T17:05:58Z</time>
      </trkpt>
      <trkpt lat="46.055649" lon="5.840774">
        <ele>2026.92</ele>
        <time>2026-08-14T17:05:58Z</time>
      </trkpt>
      <trkpt lat="46.056969" lon="5.842804">
        <ele>2004.0600000000002</ele>
        <time>2026-08-14T17:05:58Z</time>
      </trkpt>
      <trkpt lat="46.058178" lon="5.844658">
        <ele>1988.8200000000002</ele>
        <time>2026-08-14T17:05:58Z</time>
      </trkpt>
      <trkpt lat="46.059631" lon="5.84687">
        <ele>1973.5800000000002</ele>
        <time>2026-08-14T17:05:58Z</time>
      </trkpt>
      <trkpt lat="46.060822" lon="5.848679">
        <ele>1958.3400000000001</ele>
        <time>2026-08-14T17:05:58Z</time>
      </trkpt>
      <trkpt lat="46.062508" lon="5.851181">
        <ele>1935.48</ele>
        <time>2026-08-14T17:05:58Z</time>
      </trkpt>
      <trkpt lat="46.063843" lon="5.853234">
        <ele>1912.6200000000001</ele>
        <time>2026-08-14T17:05:58Z</time>
      </trkpt>
      <trkpt lat="46.065033" lon="5.854976">
        <ele>1897.38</ele>
        <time>2026-08-14T17:05:58Z</time>
      </trkpt>
      <trkpt lat="46.066513" lon="5.857224">
        <ele>1882.14</ele>
        <time>2026-08-14T17:05:58Z</time>
      </trkpt>
      <trkpt lat="46.068054" lon="5.859531">
        <ele>1859.2800000000002</ele>
        <time>2026-08-14T17:05:58Z</time>
      </trkpt>
      <trkpt lat="46.06929" lon="5.86134">
        <ele>1844.0400000000002</ele>
        <time>2026-08-14T17:05:58Z</time>
      </trkpt>
      <trkpt lat="46.078629" lon="5.875341">
        <ele>1699.26</ele>
        <time>2026-08-14T17:05:58Z</time>
      </trkpt>
      <trkpt lat="46.086857" lon="5.887436">
        <ele>1577.3400000000001</ele>
        <time>2026-08-14T17:05:58Z</time>
      </trkpt>
      <trkpt lat="46.095745" lon="5.900414">
        <ele>1470.66</ele>
        <time>2026-08-14T17:05:58Z</time>
      </trkpt>
      <trkpt lat="46.099731" lon="5.906156">
        <ele>1432.5600000000002</ele>
        <time>2026-08-14T17:05:58Z</time>
      </trkpt>
      <trkpt lat="46.105148" lon="5.914078">
        <ele>1386.8400000000001</ele>
        <time>2026-08-14T17:05:58Z</time>
      </trkpt>
      <trkpt lat="46.108875" lon="5.919571">
        <ele>1348.74</ele>
        <time>2026-08-14T17:05:58Z</time>
      </trkpt>
      <trkpt lat="46.114243" lon="5.927392">
        <ele>1310.64</ele>
        <time>2026-08-14T17:05:58Z</time>
      </trkpt>
      <trkpt lat="46.118317" lon="5.933354">
        <ele>1280.16</ele>
        <time>2026-08-14T17:05:58Z</time>
      </trkpt>
      <trkpt lat="46.123585" lon="5.941132">
        <ele>1234.44</ele>
        <time>2026-08-14T17:05:58Z</time>
      </trkpt>
      <trkpt lat="46.127216" lon="5.94635">
        <ele>1211.5800000000002</ele>
        <time>2026-08-14T17:05:58Z</time>
      </trkpt>
      <trkpt lat="46.132507" lon="5.954121">
        <ele>1165.8600000000001</ele>
        <time>2026-08-14T17:05:58Z</time>
      </trkpt>
      <trkpt lat="46.136478" lon="5.959877">
        <ele>1135.38</ele>
        <time>2026-08-14T17:05:58Z</time>
      </trkpt>
      <trkpt lat="46.141602" lon="5.967499">
        <ele>1089.66</ele>
        <time>2026-08-14T17:05:58Z</time>
      </trkpt>
      <trkpt lat="46.14658" lon="5.974709">
        <ele>1043.94</ele>
        <time>2026-08-14T17:05:58Z</time>
      </trkpt>
      <trkpt lat="46.15036" lon="5.980314">
        <ele>1013.46</ele>
        <time>2026-08-14T17:05:58Z</time>
      </trkpt>
      <trkpt lat="46.154217" lon="5.98597">
        <ele>982.98</ele>
        <time>2026-08-14T17:05:58Z</time>
      </trkpt>
      <trkpt lat="46.158825" lon="5.99263">
        <ele>944.88</ele>
        <time>2026-08-14T17:05:58Z</time>
      </trkpt>
      <trkpt lat="46.1632" lon="5.999084">
        <ele>914.4000000000001</ele>
        <time>2026-08-14T17:05:58Z</time>
      </trkpt>
      <trkpt lat="46.166428" lon="6.003828">
        <ele>891.5400000000001</ele>
        <time>2026-08-14T17:05:58Z</time>
      </trkpt>
      <trkpt lat="46.170273" lon="6.009455">
        <ele>853.44</ele>
        <time>2026-08-14T17:05:58Z</time>
      </trkpt>
      <trkpt lat="46.174187" lon="6.015152">
        <ele>815.34</ele>
        <time>2026-08-14T17:05:58Z</time>
      </trkpt>
      <trkpt lat="46.177048" lon="6.019436">
        <ele>800.1</ele>
        <time>2026-08-14T17:05:58Z</time>
      </trkpt>
      <trkpt lat="46.180115" lon="6.023857">
        <ele>784.86</ele>
        <time>2026-08-14T17:05:58Z</time>
      </trkpt>
      <trkpt lat="46.183823" lon="6.029297">
        <ele>754.38</ele>
        <time>2026-08-14T17:05:58Z</time>
      </trkpt>
      <trkpt lat="46.186615" lon="6.033417">
        <ele>731.52</ele>
        <time>2026-08-14T17:05:58Z</time>
      </trkpt>
      <trkpt lat="46.190414" lon="6.03893">
        <ele>701.0400000000001</ele>
        <time>2026-08-14T17:05:58Z</time>
      </trkpt>
      <trkpt lat="46.194344" lon="6.044746">
        <ele>670.5600000000001</ele>
        <time>2026-08-14T17:05:58Z</time>
      </trkpt>
      <trkpt lat="46.197098" lon="6.048778">
        <ele>647.7</ele>
        <time>2026-08-14T17:05:58Z</time>
      </trkpt>
      <trkpt lat="46.200909" lon="6.054291">
        <ele>617.22</ele>
        <time>2026-08-14T17:05:58Z</time>
      </trkpt>
      <trkpt lat="46.203827" lon="6.058625">
        <ele>601.98</ele>
        <time>2026-08-14T17:05:58Z</time>
      </trkpt>
      <trkpt lat="46.207474" lon="6.064041">
        <ele>571.5</ele>
        <time>2026-08-14T17:05:58Z</time>
      </trkpt>
      <trkpt lat="46.210312" lon="6.06823">
        <ele>548.64</ele>
        <time>2026-08-14T17:05:58Z</time>
      </trkpt>
      <trkpt lat="46.213757" lon="6.073311">
        <ele>518.1600000000001</ele>
        <time>2026-08-14T17:05:58Z</time>
      </trkpt>
      <trkpt lat="46.217697" lon="6.079057">
        <ele>487.68</ele>
        <time>2026-08-14T17:05:58Z</time>
      </trkpt>
      <trkpt lat="46.220413" lon="6.083061">
        <ele>464.82000000000005</ele>
        <time>2026-08-14T17:05:58Z</time>
      </trkpt>
      <trkpt lat="46.223923" lon="6.088302">
        <ele>434.34000000000003</ele>
        <time>2026-08-14T17:05:58Z</time>
      </trkpt>
      <trkpt lat="46.227024" lon="6.092812">
        <ele>403.86</ele>
        <time>2026-08-14T17:05:58Z</time>
      </trkpt>
      <trkpt lat="46.230469" lon="6.097824">
        <ele>381.0</ele>
        <time>2026-08-14T17:05:58Z</time>
      </trkpt>
      <trkpt lat="46.233772" lon="6.102631">
        <ele>381.0</ele>
        <time>2026-08-14T17:05:58Z</time>
      </trkpt>
      <trkpt lat="46.235519" lon="6.105188">
        <ele>0.0</ele>
        <time>2026-08-14T17:05:58Z</time>
      </trkpt>
      <trkpt lat="46.236683" lon="6.106888">
        <ele>0.0</ele>
        <time>2026-08-14T17:05:58Z</time>
      </trkpt>
      <trkpt lat="46.237701" lon="6.108415">
        <ele>0.0</ele>
        <time>2026-08-14T17:05:58Z</time>
      </trkpt>
      <trkpt lat="46.238522" lon="6.109617">
        <ele>0.0</ele>
        <time>2026-08-14T17:05:58Z</time>
      </trkpt>
      <trkpt lat="46.238628" lon="6.109822">
        <ele>0.0</ele>
        <time>2026-08-14T17:05:58Z</time>
      </trkpt>
      <trkpt lat="46.238663" lon="6.110098">
        <ele>0.0</ele>
        <time>2026-08-14T17:05:58Z</time>
      </trkpt>
      <trkpt lat="46.238617" lon="6.110355">
        <ele>0.0</ele>
        <time>2026-08-14T17:05:58Z</time>
      </trkpt>
      <trkpt lat="46.238422" lon="6.110592">
        <ele>0.0</ele>
        <time>2026-08-14T17:05:58Z</time>
      </trkpt>
      <trkpt lat="46.238159" lon="6.110726">
        <ele>0.0</ele>
        <time>2026-08-14T17:05:58Z</time>
      </trkpt>
      <trkpt lat="46.237942" lon="6.110785">
        <ele>0.0</ele>
        <time>2026-08-14T17:05:58Z</time>
      </trkpt>
      <trkpt lat="46.237656" lon="6.11086">
        <ele>0.0</ele>
        <time>2026-08-14T17:05:58Z</time>
      </trkpt>
      <trkpt lat="46.237415" lon="6.11091">
        <ele>0.0</ele>
        <time>2026-08-14T17:05:58Z</time>
      </trkpt>
      <trkpt lat="46.237186" lon="6.110927">
        <ele>0.0</ele>
        <time>2026-08-14T17:05:58Z</time>
      </trkpt>
      <trkpt lat="46.236961" lon="6.110682">
        <ele>0.0</ele>
        <time>2026-08-14T17:05:58Z</time>
      </trkpt>
      <trkpt lat="46.23674" lon="6.110676">
        <ele>0.0</ele>
        <time>2026-08-14T17:05:58Z</time>
      </trkpt>
      <trkpt lat="46.236546" lon="6.11091">
        <ele>0.0</ele>
        <time>2026-08-14T17:05:58Z</time>
      </trkpt>
      <trkpt lat="46.236404" lon="6.111111">
        <ele>0.0</ele>
        <time>2026-08-14T17:05:58Z</time>
      </trkpt>
      <trkpt lat="46.236263" lon="6.111317">
        <ele>0.0</ele>
        <time>2026-08-14T17:05:58Z</time>
      </trkpt>
      <trkpt lat="46.236088" lon="6.111547">
        <ele>0.0</ele>
        <time>2026-08-14T17:05:58Z</time>
      </trkpt>
      <trkpt lat="46.235729" lon="6.111609">
        <ele>0.0</ele>
        <time>2026-08-14T17:05:58Z</time>
      </trkpt>
      <trkpt lat="46.235554" lon="6.111368">
        <ele>0.0</ele>
        <time>2026-08-14T17:05:58Z</time>
      </trkpt>
      <trkpt lat="46.235413" lon="6.111145">
        <ele>0.0</ele>
        <time>2026-08-14T17:05:58Z</time>
      </trkpt>
      <trkpt lat="46.235184" lon="6.110827">
        <ele>0.0</ele>
        <time>2026-08-14T17:05:58Z</time>
      </trkpt>
      <trkpt lat="46.234955" lon="6.110475">
        <ele>0.0</ele>
        <time>2026-08-14T17:05:58Z</time>
      </trkpt>
      <trkpt lat="46.234821" lon="6.11027">
        <ele>0.0</ele>
        <time>2026-08-14T17:05:58Z</time>
      </trkpt>
      <trkpt lat="46.234531" lon="6.10984">
        <ele>0.0</ele>
        <time>2026-08-14T17:05:58Z</time>
      </trkpt>
      <trkpt lat="46.234291" lon="6.109504">
        <ele>0.0</ele>
        <time>2026-08-14T17:05:58Z</time>
      </trkpt>
      <trkpt lat="46.234097" lon="6.109219">
        <ele>0.0</ele>
        <time>2026-08-14T17:05:58Z</time>
      </trkpt>
      <trkpt lat="46.233891" lon="6.109202">
        <ele>0.0</ele>
        <time>2026-08-14T17:05:58Z</time>
      </trkpt>
      <trkpt lat="46.233772" lon="6.109411">
        <ele>0.0</ele>
        <time>2026-08-14T17:05:58Z</time>
      </trkpt>
      <trkpt lat="46.233616" lon="6.109621">
        <ele>0.0</ele>
        <time>2026-08-14T17:05:58Z</time>
      </trkpt>
    </trkseg>
  </trk>
</gpx>