<?xml version="1.0" encoding="UTF-8"?>
<gpx xmlns="http://www.topografix.com/GPX/1/1" xmlns:xsi="http://www.w3.org/2001/XMLSchema-instance" xsi:schemaLocation="http://www.topografix.com/GPX/1/1 http://www.topografix.com/GPX/1/1/gpx.xsd" version="1.1" creator="gpx.py -- https://github.com/tkrajina/gpxpy">
  <metadata>
    <name>SN2721_3fed89a4</name>
    <time>2026-05-29T13:06:35Z</time>
  </metadata>
  <trk>
    <name>SN2721_3fed89a4</name>
    <cmt>2026-05-29</cmt>
    <type>Plane</type>
    <trkseg>
      <trkpt lat="50.902042" lon="4.486389">
        <ele>0.0</ele>
        <time>2026-05-29T13:06:35Z</time>
      </trkpt>
      <trkpt lat="50.902096" lon="4.486598">
        <ele>0.0</ele>
        <time>2026-05-29T13:06:35Z</time>
      </trkpt>
      <trkpt lat="50.902199" lon="4.486969">
        <ele>0.0</ele>
        <time>2026-05-29T13:06:35Z</time>
      </trkpt>
      <trkpt lat="50.90237" lon="4.487563">
        <ele>0.0</ele>
        <time>2026-05-29T13:06:35Z</time>
      </trkpt>
      <trkpt lat="50.902439" lon="4.487801">
        <ele>0.0</ele>
        <time>2026-05-29T13:06:35Z</time>
      </trkpt>
      <trkpt lat="50.902893" lon="4.489403">
        <ele>0.0</ele>
        <time>2026-05-29T13:06:35Z</time>
      </trkpt>
      <trkpt lat="50.903194" lon="4.490439">
        <ele>0.0</ele>
        <time>2026-05-29T13:06:35Z</time>
      </trkpt>
      <trkpt lat="50.90329" lon="4.490757">
        <ele>0.0</ele>
        <time>2026-05-29T13:06:35Z</time>
      </trkpt>
      <trkpt lat="50.903511" lon="4.49152">
        <ele>0.0</ele>
        <time>2026-05-29T13:06:35Z</time>
      </trkpt>
      <trkpt lat="50.903755" lon="4.49234">
        <ele>0.0</ele>
        <time>2026-05-29T13:06:35Z</time>
      </trkpt>
      <trkpt lat="50.903824" lon="4.492607">
        <ele>0.0</ele>
        <time>2026-05-29T13:06:35Z</time>
      </trkpt>
      <trkpt lat="50.90395" lon="4.493056">
        <ele>0.0</ele>
        <time>2026-05-29T13:06:35Z</time>
      </trkpt>
      <trkpt lat="50.904041" lon="4.493334">
        <ele>0.0</ele>
        <time>2026-05-29T13:06:35Z</time>
      </trkpt>
      <trkpt lat="50.904102" lon="4.49358">
        <ele>0.0</ele>
        <time>2026-05-29T13:06:35Z</time>
      </trkpt>
      <trkpt lat="50.904442" lon="4.494726">
        <ele>0.0</ele>
        <time>2026-05-29T13:06:35Z</time>
      </trkpt>
      <trkpt lat="50.90451" lon="4.494972">
        <ele>0.0</ele>
        <time>2026-05-29T13:06:35Z</time>
      </trkpt>
      <trkpt lat="50.904778" lon="4.495869">
        <ele>0.0</ele>
        <time>2026-05-29T13:06:35Z</time>
      </trkpt>
      <trkpt lat="50.905048" lon="4.496155">
        <ele>0.0</ele>
        <time>2026-05-29T13:06:35Z</time>
      </trkpt>
      <trkpt lat="50.905769" lon="4.496452">
        <ele>0.0</ele>
        <time>2026-05-29T13:06:35Z</time>
      </trkpt>
      <trkpt lat="50.9062" lon="4.496613">
        <ele>0.0</ele>
        <time>2026-05-29T13:06:35Z</time>
      </trkpt>
      <trkpt lat="50.90641" lon="4.496712">
        <ele>0.0</ele>
        <time>2026-05-29T13:06:35Z</time>
      </trkpt>
      <trkpt lat="50.906673" lon="4.496804">
        <ele>0.0</ele>
        <time>2026-05-29T13:06:35Z</time>
      </trkpt>
      <trkpt lat="50.907223" lon="4.497027">
        <ele>0.0</ele>
        <time>2026-05-29T13:06:35Z</time>
      </trkpt>
      <trkpt lat="50.907768" lon="4.497242">
        <ele>0.0</ele>
        <time>2026-05-29T13:06:35Z</time>
      </trkpt>
      <trkpt lat="50.908619" lon="4.497602">
        <ele>0.0</ele>
        <time>2026-05-29T13:06:35Z</time>
      </trkpt>
      <trkpt lat="50.909096" lon="4.497814">
        <ele>0.0</ele>
        <time>2026-05-29T13:06:35Z</time>
      </trkpt>
      <trkpt lat="50.90934" lon="4.498011">
        <ele>0.0</ele>
        <time>2026-05-29T13:06:35Z</time>
      </trkpt>
      <trkpt lat="50.9095" lon="4.498233">
        <ele>0.0</ele>
        <time>2026-05-29T13:06:35Z</time>
      </trkpt>
      <trkpt lat="50.909946" lon="4.498808">
        <ele>0.0</ele>
        <time>2026-05-29T13:06:35Z</time>
      </trkpt>
      <trkpt lat="50.910179" lon="4.498997">
        <ele>0.0</ele>
        <time>2026-05-29T13:06:35Z</time>
      </trkpt>
      <trkpt lat="50.910542" lon="4.499236">
        <ele>0.0</ele>
        <time>2026-05-29T13:06:35Z</time>
      </trkpt>
      <trkpt lat="50.910828" lon="4.49944">
        <ele>0.0</ele>
        <time>2026-05-29T13:06:35Z</time>
      </trkpt>
      <trkpt lat="50.911171" lon="4.499476">
        <ele>0.0</ele>
        <time>2026-05-29T13:06:35Z</time>
      </trkpt>
      <trkpt lat="50.91148" lon="4.499328">
        <ele>0.0</ele>
        <time>2026-05-29T13:06:35Z</time>
      </trkpt>
      <trkpt lat="50.911507" lon="4.499111">
        <ele>0.0</ele>
        <time>2026-05-29T13:06:35Z</time>
      </trkpt>
      <trkpt lat="50.911377" lon="4.498825">
        <ele>0.0</ele>
        <time>2026-05-29T13:06:35Z</time>
      </trkpt>
      <trkpt lat="50.910995" lon="4.49749">
        <ele>0.0</ele>
        <time>2026-05-29T13:06:35Z</time>
      </trkpt>
      <trkpt lat="50.909912" lon="4.493742">
        <ele>0.0</ele>
        <time>2026-05-29T13:06:35Z</time>
      </trkpt>
      <trkpt lat="50.907574" lon="4.485626">
        <ele>0.0</ele>
        <time>2026-05-29T13:06:35Z</time>
      </trkpt>
      <trkpt lat="50.904408" lon="4.474716">
        <ele>0.0</ele>
        <time>2026-05-29T13:06:35Z</time>
      </trkpt>
      <trkpt lat="50.901581" lon="4.464606">
        <ele>106.68</ele>
        <time>2026-05-29T13:06:35Z</time>
      </trkpt>
      <trkpt lat="50.899845" lon="4.458694">
        <ele>190.5</ele>
        <time>2026-05-29T13:06:35Z</time>
      </trkpt>
      <trkpt lat="50.897736" lon="4.451616">
        <ele>281.94</ele>
        <time>2026-05-29T13:06:35Z</time>
      </trkpt>
      <trkpt lat="50.895035" lon="4.442782">
        <ele>373.38</ele>
        <time>2026-05-29T13:06:35Z</time>
      </trkpt>
      <trkpt lat="50.892395" lon="4.434052">
        <ele>487.68</ele>
        <time>2026-05-29T13:06:35Z</time>
      </trkpt>
      <trkpt lat="50.890228" lon="4.427119">
        <ele>579.12</ele>
        <time>2026-05-29T13:06:35Z</time>
      </trkpt>
      <trkpt lat="50.889633" lon="4.425412">
        <ele>601.98</ele>
        <time>2026-05-29T13:06:35Z</time>
      </trkpt>
      <trkpt lat="50.888855" lon="4.423482">
        <ele>632.46</ele>
        <time>2026-05-29T13:06:35Z</time>
      </trkpt>
      <trkpt lat="50.887787" lon="4.421387">
        <ele>662.94</ele>
        <time>2026-05-29T13:06:35Z</time>
      </trkpt>
      <trkpt lat="50.886856" lon="4.419785">
        <ele>693.4200000000001</ele>
        <time>2026-05-29T13:06:35Z</time>
      </trkpt>
      <trkpt lat="50.885834" lon="4.418335">
        <ele>716.2800000000001</ele>
        <time>2026-05-29T13:06:35Z</time>
      </trkpt>
      <trkpt lat="50.884689" lon="4.417024">
        <ele>739.14</ele>
        <time>2026-05-29T13:06:35Z</time>
      </trkpt>
      <trkpt lat="50.883362" lon="4.415836">
        <ele>762.0</ele>
        <time>2026-05-29T13:06:35Z</time>
      </trkpt>
      <trkpt lat="50.881851" lon="4.414796">
        <ele>784.86</ele>
        <time>2026-05-29T13:06:35Z</time>
      </trkpt>
      <trkpt lat="50.880341" lon="4.414139">
        <ele>800.1</ele>
        <time>2026-05-29T13:06:35Z</time>
      </trkpt>
      <trkpt lat="50.878922" lon="4.413757">
        <ele>822.96</ele>
        <time>2026-05-29T13:06:35Z</time>
      </trkpt>
      <trkpt lat="50.877453" lon="4.413681">
        <ele>838.2</ele>
        <time>2026-05-29T13:06:35Z</time>
      </trkpt>
      <trkpt lat="50.87587" lon="4.413757">
        <ele>861.0600000000001</ele>
        <time>2026-05-29T13:06:35Z</time>
      </trkpt>
      <trkpt lat="50.874573" lon="4.414054">
        <ele>876.3000000000001</ele>
        <time>2026-05-29T13:06:35Z</time>
      </trkpt>
      <trkpt lat="50.872787" lon="4.414796">
        <ele>906.7800000000001</ele>
        <time>2026-05-29T13:06:35Z</time>
      </trkpt>
      <trkpt lat="50.871368" lon="4.415613">
        <ele>929.6400000000001</ele>
        <time>2026-05-29T13:06:35Z</time>
      </trkpt>
      <trkpt lat="50.869995" lon="4.416727">
        <ele>952.5</ele>
        <time>2026-05-29T13:06:35Z</time>
      </trkpt>
      <trkpt lat="50.868301" lon="4.418434">
        <ele>967.74</ele>
        <time>2026-05-29T13:06:35Z</time>
      </trkpt>
      <trkpt lat="50.867023" lon="4.419937">
        <ele>982.98</ele>
        <time>2026-05-29T13:06:35Z</time>
      </trkpt>
      <trkpt lat="50.866013" lon="4.421329">
        <ele>990.6</ele>
        <time>2026-05-29T13:06:35Z</time>
      </trkpt>
      <trkpt lat="50.864731" lon="4.423259">
        <ele>1005.84</ele>
        <time>2026-05-29T13:06:35Z</time>
      </trkpt>
      <trkpt lat="50.863174" lon="4.425709">
        <ele>1021.08</ele>
        <time>2026-05-29T13:06:35Z</time>
      </trkpt>
      <trkpt lat="50.862091" lon="4.427338">
        <ele>1028.7</ele>
        <time>2026-05-29T13:06:35Z</time>
      </trkpt>
      <trkpt lat="50.860565" lon="4.429791">
        <ele>1043.94</ele>
        <time>2026-05-29T13:06:35Z</time>
      </trkpt>
      <trkpt lat="50.859604" lon="4.431425">
        <ele>1051.56</ele>
        <time>2026-05-29T13:06:35Z</time>
      </trkpt>
      <trkpt lat="50.858047" lon="4.434022">
        <ele>1059.18</ele>
        <time>2026-05-29T13:06:35Z</time>
      </trkpt>
      <trkpt lat="50.856857" lon="4.436101">
        <ele>1074.42</ele>
        <time>2026-05-29T13:06:35Z</time>
      </trkpt>
      <trkpt lat="50.855667" lon="4.438248">
        <ele>1089.66</ele>
        <time>2026-05-29T13:06:35Z</time>
      </trkpt>
      <trkpt lat="50.854202" lon="4.440926">
        <ele>1097.28</ele>
        <time>2026-05-29T13:06:35Z</time>
      </trkpt>
      <trkpt lat="50.852875" lon="4.443376">
        <ele>1112.52</ele>
        <time>2026-05-29T13:06:35Z</time>
      </trkpt>
      <trkpt lat="50.851711" lon="4.445724">
        <ele>1120.14</ele>
        <time>2026-05-29T13:06:35Z</time>
      </trkpt>
      <trkpt lat="50.850449" lon="4.448127">
        <ele>1127.76</ele>
        <time>2026-05-29T13:06:35Z</time>
      </trkpt>
      <trkpt lat="50.848824" lon="4.45137">
        <ele>1143.0</ele>
        <time>2026-05-29T13:06:35Z</time>
      </trkpt>
      <trkpt lat="50.847519" lon="4.454041">
        <ele>1150.6200000000001</ele>
        <time>2026-05-29T13:06:35Z</time>
      </trkpt>
      <trkpt lat="50.846355" lon="4.456329">
        <ele>1158.24</ele>
        <time>2026-05-29T13:06:35Z</time>
      </trkpt>
      <trkpt lat="50.845051" lon="4.459076">
        <ele>1165.8600000000001</ele>
        <time>2026-05-29T13:06:35Z</time>
      </trkpt>
      <trkpt lat="50.843719" lon="4.461711">
        <ele>1181.1000000000001</ele>
        <time>2026-05-29T13:06:35Z</time>
      </trkpt>
      <trkpt lat="50.842304" lon="4.464645">
        <ele>1196.3400000000001</ele>
        <time>2026-05-29T13:06:35Z</time>
      </trkpt>
      <trkpt lat="50.841095" lon="4.467239">
        <ele>1203.96</ele>
        <time>2026-05-29T13:06:35Z</time>
      </trkpt>
      <trkpt lat="50.839371" lon="4.470767">
        <ele>1219.2</ele>
        <time>2026-05-29T13:06:35Z</time>
      </trkpt>
      <trkpt lat="50.836533" lon="4.476852">
        <ele>1249.68</ele>
        <time>2026-05-29T13:06:35Z</time>
      </trkpt>
      <trkpt lat="50.83049" lon="4.4894">
        <ele>1318.26</ele>
        <time>2026-05-29T13:06:35Z</time>
      </trkpt>
      <trkpt lat="50.825687" lon="4.499207">
        <ele>1371.6000000000001</ele>
        <time>2026-05-29T13:06:35Z</time>
      </trkpt>
      <trkpt lat="50.818798" lon="4.513092">
        <ele>1478.28</ele>
        <time>2026-05-29T13:06:35Z</time>
      </trkpt>
      <trkpt lat="50.813828" lon="4.522804">
        <ele>1569.72</ele>
        <time>2026-05-29T13:06:35Z</time>
      </trkpt>
      <trkpt lat="50.801247" lon="4.546432">
        <ele>1836.42</ele>
        <time>2026-05-29T13:06:35Z</time>
      </trkpt>
      <trkpt lat="50.788864" lon="4.569016">
        <ele>2065.02</ele>
        <time>2026-05-29T13:06:35Z</time>
      </trkpt>
      <trkpt lat="50.777115" lon="4.589761">
        <ele>2186.94</ele>
        <time>2026-05-29T13:06:35Z</time>
      </trkpt>
      <trkpt lat="50.767963" lon="4.603043">
        <ele>2232.6600000000003</ele>
        <time>2026-05-29T13:06:35Z</time>
      </trkpt>
      <trkpt lat="50.765762" lon="4.60587">
        <ele>2240.28</ele>
        <time>2026-05-29T13:06:35Z</time>
      </trkpt>
      <trkpt lat="50.763214" lon="4.608917">
        <ele>2255.52</ele>
        <time>2026-05-29T13:06:35Z</time>
      </trkpt>
      <trkpt lat="50.760498" lon="4.612105">
        <ele>2263.1400000000003</ele>
        <time>2026-05-29T13:06:35Z</time>
      </trkpt>
      <trkpt lat="50.757935" lon="4.615149">
        <ele>2278.38</ele>
        <time>2026-05-29T13:06:35Z</time>
      </trkpt>
      <trkpt lat="50.755417" lon="4.618043">
        <ele>2293.62</ele>
        <time>2026-05-29T13:06:35Z</time>
      </trkpt>
      <trkpt lat="50.752834" lon="4.621048">
        <ele>2308.86</ele>
        <time>2026-05-29T13:06:35Z</time>
      </trkpt>
      <trkpt lat="50.750458" lon="4.623795">
        <ele>2324.1</ele>
        <time>2026-05-29T13:06:35Z</time>
      </trkpt>
      <trkpt lat="50.74799" lon="4.626617">
        <ele>2346.96</ele>
        <time>2026-05-29T13:06:35Z</time>
      </trkpt>
      <trkpt lat="50.744797" lon="4.630218">
        <ele>2369.82</ele>
        <time>2026-05-29T13:06:35Z</time>
      </trkpt>
      <trkpt lat="50.72644" lon="4.651374">
        <ele>2575.56</ele>
        <time>2026-05-29T13:06:35Z</time>
      </trkpt>
      <trkpt lat="50.710693" lon="4.669858">
        <ele>2788.92</ele>
        <time>2026-05-29T13:06:35Z</time>
      </trkpt>
      <trkpt lat="50.691833" lon="4.69235">
        <ele>3009.9</ele>
        <time>2026-05-29T13:06:35Z</time>
      </trkpt>
      <trkpt lat="50.672607" lon="4.71551">
        <ele>3215.6400000000003</ele>
        <time>2026-05-29T13:06:35Z</time>
      </trkpt>
      <trkpt lat="50.653015" lon="4.7393">
        <ele>3398.52</ele>
        <time>2026-05-29T13:06:35Z</time>
      </trkpt>
      <trkpt lat="50.636311" lon="4.759456">
        <ele>3581.4</ele>
        <time>2026-05-29T13:06:35Z</time>
      </trkpt>
      <trkpt lat="50.616623" lon="4.78339">
        <ele>3794.76</ele>
        <time>2026-05-29T13:06:35Z</time>
      </trkpt>
      <trkpt lat="50.574234" lon="4.834635">
        <ele>4198.62</ele>
        <time>2026-05-29T13:06:35Z</time>
      </trkpt>
      <trkpt lat="50.53006" lon="4.887832">
        <ele>4671.06</ele>
        <time>2026-05-29T13:06:35Z</time>
      </trkpt>
      <trkpt lat="50.486179" lon="4.940359">
        <ele>5074.92</ele>
        <time>2026-05-29T13:06:35Z</time>
      </trkpt>
      <trkpt lat="50.44162" lon="4.993503">
        <ele>5455.92</ele>
        <time>2026-05-29T13:06:35Z</time>
      </trkpt>
      <trkpt lat="50.396347" lon="5.04735">
        <ele>5821.68</ele>
        <time>2026-05-29T13:06:35Z</time>
      </trkpt>
      <trkpt lat="50.349831" lon="5.102481">
        <ele>6156.96</ele>
        <time>2026-05-29T13:06:35Z</time>
      </trkpt>
      <trkpt lat="50.304302" lon="5.156522">
        <ele>6461.76</ele>
        <time>2026-05-29T13:06:35Z</time>
      </trkpt>
      <trkpt lat="50.256958" lon="5.212493">
        <ele>6774.18</ele>
        <time>2026-05-29T13:06:35Z</time>
      </trkpt>
      <trkpt lat="50.208618" lon="5.26939">
        <ele>7124.700000000001</ele>
        <time>2026-05-29T13:06:35Z</time>
      </trkpt>
      <trkpt lat="50.161057" lon="5.325189">
        <ele>7421.88</ele>
        <time>2026-05-29T13:06:35Z</time>
      </trkpt>
      <trkpt lat="50.112274" lon="5.382262">
        <ele>7650.4800000000005</ele>
        <time>2026-05-29T13:06:35Z</time>
      </trkpt>
      <trkpt lat="50.05925" lon="5.444245">
        <ele>7886.700000000001</ele>
        <time>2026-05-29T13:06:35Z</time>
      </trkpt>
      <trkpt lat="50.009113" lon="5.502592">
        <ele>8107.68</ele>
        <time>2026-05-29T13:06:35Z</time>
      </trkpt>
      <trkpt lat="49.958092" lon="5.561903">
        <ele>8321.04</ele>
        <time>2026-05-29T13:06:35Z</time>
      </trkpt>
      <trkpt lat="49.903152" lon="5.62565">
        <ele>8633.460000000001</ele>
        <time>2026-05-29T13:06:35Z</time>
      </trkpt>
      <trkpt lat="49.851116" lon="5.685796">
        <ele>8831.58</ele>
        <time>2026-05-29T13:06:35Z</time>
      </trkpt>
      <trkpt lat="49.798508" lon="5.746283">
        <ele>9121.140000000001</ele>
        <time>2026-05-29T13:06:35Z</time>
      </trkpt>
      <trkpt lat="49.745861" lon="5.806868">
        <ele>9418.32</ele>
        <time>2026-05-29T13:06:35Z</time>
      </trkpt>
      <trkpt lat="49.694733" lon="5.865543">
        <ele>9677.4</ele>
        <time>2026-05-29T13:06:35Z</time>
      </trkpt>
      <trkpt lat="49.642563" lon="5.925194">
        <ele>9890.76</ele>
        <time>2026-05-29T13:06:35Z</time>
      </trkpt>
      <trkpt lat="49.590363" lon="5.984658">
        <ele>10035.54</ele>
        <time>2026-05-29T13:06:35Z</time>
      </trkpt>
      <trkpt lat="49.539028" lon="6.045895">
        <ele>10058.4</ele>
        <time>2026-05-29T13:06:35Z</time>
      </trkpt>
      <trkpt lat="49.48938" lon="6.107604">
        <ele>10058.4</ele>
        <time>2026-05-29T13:06:35Z</time>
      </trkpt>
      <trkpt lat="49.43964" lon="6.169046">
        <ele>10058.4</ele>
        <time>2026-05-29T13:06:35Z</time>
      </trkpt>
      <trkpt lat="49.38969" lon="6.229971">
        <ele>10058.4</ele>
        <time>2026-05-29T13:06:35Z</time>
      </trkpt>
      <trkpt lat="49.339741" lon="6.290613">
        <ele>10058.4</ele>
        <time>2026-05-29T13:06:35Z</time>
      </trkpt>
      <trkpt lat="49.290253" lon="6.350604">
        <ele>10058.4</ele>
        <time>2026-05-29T13:06:35Z</time>
      </trkpt>
      <trkpt lat="49.239395" lon="6.412142">
        <ele>10058.4</ele>
        <time>2026-05-29T13:06:35Z</time>
      </trkpt>
      <trkpt lat="49.188904" lon="6.47306">
        <ele>10066.02</ele>
        <time>2026-05-29T13:06:35Z</time>
      </trkpt>
      <trkpt lat="49.139008" lon="6.533133">
        <ele>10058.4</ele>
        <time>2026-05-29T13:06:35Z</time>
      </trkpt>
      <trkpt lat="49.085953" lon="6.58898">
        <ele>10058.4</ele>
        <time>2026-05-29T13:06:35Z</time>
      </trkpt>
      <trkpt lat="49.02887" lon="6.634334">
        <ele>10058.4</ele>
        <time>2026-05-29T13:06:35Z</time>
      </trkpt>
      <trkpt lat="48.969322" lon="6.66899">
        <ele>10058.4</ele>
        <time>2026-05-29T13:06:35Z</time>
      </trkpt>
      <trkpt lat="48.906052" lon="6.69335">
        <ele>10005.060000000001</ele>
        <time>2026-05-29T13:06:35Z</time>
      </trkpt>
      <trkpt lat="48.881664" lon="6.698263">
        <ele>9951.720000000001</ele>
        <time>2026-05-29T13:06:35Z</time>
      </trkpt>
      <trkpt lat="48.876709" lon="6.698702">
        <ele>9936.480000000001</ele>
        <time>2026-05-29T13:06:35Z</time>
      </trkpt>
      <trkpt lat="48.872635" lon="6.698986">
        <ele>9928.86</ele>
        <time>2026-05-29T13:06:35Z</time>
      </trkpt>
      <trkpt lat="48.868561" lon="6.699195">
        <ele>9921.24</ele>
        <time>2026-05-29T13:06:35Z</time>
      </trkpt>
      <trkpt lat="48.86412" lon="6.699195">
        <ele>9906.0</ele>
        <time>2026-05-29T13:06:35Z</time>
      </trkpt>
      <trkpt lat="48.859692" lon="6.699131">
        <ele>9898.380000000001</ele>
        <time>2026-05-29T13:06:35Z</time>
      </trkpt>
      <trkpt lat="48.854618" lon="6.698914">
        <ele>9890.76</ele>
        <time>2026-05-29T13:06:35Z</time>
      </trkpt>
      <trkpt lat="48.851669" lon="6.698843">
        <ele>9883.140000000001</ele>
        <time>2026-05-29T13:06:35Z</time>
      </trkpt>
      <trkpt lat="48.847355" lon="6.698625">
        <ele>9875.52</ele>
        <time>2026-05-29T13:06:35Z</time>
      </trkpt>
      <trkpt lat="48.842926" lon="6.698421">
        <ele>9867.9</ele>
        <time>2026-05-29T13:06:35Z</time>
      </trkpt>
      <trkpt lat="48.838745" lon="6.698263">
        <ele>9852.66</ele>
        <time>2026-05-29T13:06:35Z</time>
      </trkpt>
      <trkpt lat="48.776875" lon="6.696311">
        <ele>9707.880000000001</ele>
        <time>2026-05-29T13:06:35Z</time>
      </trkpt>
      <trkpt lat="48.714401" lon="6.694649">
        <ele>9555.480000000001</ele>
        <time>2026-05-29T13:06:35Z</time>
      </trkpt>
      <trkpt lat="48.651993" lon="6.692857">
        <ele>9456.42</ele>
        <time>2026-05-29T13:06:35Z</time>
      </trkpt>
      <trkpt lat="48.590652" lon="6.690814">
        <ele>9448.800000000001</ele>
        <time>2026-05-29T13:06:35Z</time>
      </trkpt>
      <trkpt lat="48.528286" lon="6.688867">
        <ele>9448.800000000001</ele>
        <time>2026-05-29T13:06:35Z</time>
      </trkpt>
      <trkpt lat="48.466736" lon="6.687012">
        <ele>9448.800000000001</ele>
        <time>2026-05-29T13:06:35Z</time>
      </trkpt>
      <trkpt lat="48.405304" lon="6.68504">
        <ele>9448.800000000001</ele>
        <time>2026-05-29T13:06:35Z</time>
      </trkpt>
      <trkpt lat="48.343597" lon="6.683209">
        <ele>9448.800000000001</ele>
        <time>2026-05-29T13:06:35Z</time>
      </trkpt>
      <trkpt lat="48.282211" lon="6.681278">
        <ele>9433.560000000001</ele>
        <time>2026-05-29T13:06:35Z</time>
      </trkpt>
      <trkpt lat="48.220871" lon="6.679406">
        <ele>9433.560000000001</ele>
        <time>2026-05-29T13:06:35Z</time>
      </trkpt>
      <trkpt lat="48.158756" lon="6.677434">
        <ele>9441.18</ele>
        <time>2026-05-29T13:06:35Z</time>
      </trkpt>
      <trkpt lat="48.096981" lon="6.675462">
        <ele>9448.800000000001</ele>
        <time>2026-05-29T13:06:35Z</time>
      </trkpt>
      <trkpt lat="48.036976" lon="6.673561">
        <ele>9448.800000000001</ele>
        <time>2026-05-29T13:06:35Z</time>
      </trkpt>
      <trkpt lat="47.975601" lon="6.671722">
        <ele>9456.42</ele>
        <time>2026-05-29T13:06:35Z</time>
      </trkpt>
      <trkpt lat="47.913483" lon="6.6698">
        <ele>9448.800000000001</ele>
        <time>2026-05-29T13:06:35Z</time>
      </trkpt>
      <trkpt lat="47.849091" lon="6.667786">
        <ele>9448.800000000001</ele>
        <time>2026-05-29T13:06:35Z</time>
      </trkpt>
      <trkpt lat="47.787964" lon="6.665886">
        <ele>9456.42</ele>
        <time>2026-05-29T13:06:35Z</time>
      </trkpt>
      <trkpt lat="47.7258" lon="6.664032">
        <ele>9334.5</ele>
        <time>2026-05-29T13:06:35Z</time>
      </trkpt>
      <trkpt lat="47.664791" lon="6.662152">
        <ele>9189.720000000001</ele>
        <time>2026-05-29T13:06:35Z</time>
      </trkpt>
      <trkpt lat="47.60289" lon="6.660187">
        <ele>9029.7</ele>
        <time>2026-05-29T13:06:35Z</time>
      </trkpt>
      <trkpt lat="47.539581" lon="6.658195">
        <ele>8869.68</ele>
        <time>2026-05-29T13:06:35Z</time>
      </trkpt>
      <trkpt lat="47.477325" lon="6.656306">
        <ele>8534.4</ele>
        <time>2026-05-29T13:06:35Z</time>
      </trkpt>
      <trkpt lat="47.415527" lon="6.654419">
        <ele>8183.88</ele>
        <time>2026-05-29T13:06:35Z</time>
      </trkpt>
      <trkpt lat="47.353271" lon="6.652565">
        <ele>7825.740000000001</ele>
        <time>2026-05-29T13:06:35Z</time>
      </trkpt>
      <trkpt lat="47.292839" lon="6.650743">
        <ele>7574.280000000001</ele>
        <time>2026-05-29T13:06:35Z</time>
      </trkpt>
      <trkpt lat="47.236324" lon="6.64856">
        <ele>7399.02</ele>
        <time>2026-05-29T13:06:35Z</time>
      </trkpt>
      <trkpt lat="47.225662" lon="6.646095">
        <ele>7345.68</ele>
        <time>2026-05-29T13:06:35Z</time>
      </trkpt>
      <trkpt lat="47.221893" lon="6.644737">
        <ele>7322.820000000001</ele>
        <time>2026-05-29T13:06:35Z</time>
      </trkpt>
      <trkpt lat="47.218029" lon="6.643066">
        <ele>7292.34</ele>
        <time>2026-05-29T13:06:35Z</time>
      </trkpt>
      <trkpt lat="47.214752" lon="6.641373">
        <ele>7277.1</ele>
        <time>2026-05-29T13:06:35Z</time>
      </trkpt>
      <trkpt lat="47.21151" lon="6.639404">
        <ele>7254.240000000001</ele>
        <time>2026-05-29T13:06:35Z</time>
      </trkpt>
      <trkpt lat="47.207413" lon="6.636658">
        <ele>7231.38</ele>
        <time>2026-05-29T13:06:35Z</time>
      </trkpt>
      <trkpt lat="47.204178" lon="6.634094">
        <ele>7208.52</ele>
        <time>2026-05-29T13:06:35Z</time>
      </trkpt>
      <trkpt lat="47.201248" lon="6.631554">
        <ele>7193.280000000001</ele>
        <time>2026-05-29T13:06:35Z</time>
      </trkpt>
      <trkpt lat="47.198105" lon="6.628489">
        <ele>7178.04</ele>
        <time>2026-05-29T13:06:35Z</time>
      </trkpt>
      <trkpt lat="47.195076" lon="6.625249">
        <ele>7155.18</ele>
        <time>2026-05-29T13:06:35Z</time>
      </trkpt>
      <trkpt lat="47.19154" lon="6.621094">
        <ele>7139.9400000000005</ele>
        <time>2026-05-29T13:06:35Z</time>
      </trkpt>
      <trkpt lat="47.188606" lon="6.617432">
        <ele>7117.08</ele>
        <time>2026-05-29T13:06:35Z</time>
      </trkpt>
      <trkpt lat="47.1866" lon="6.614868">
        <ele>7101.84</ele>
        <time>2026-05-29T13:06:35Z</time>
      </trkpt>
      <trkpt lat="47.183857" lon="6.611375">
        <ele>7086.6</ele>
        <time>2026-05-29T13:06:35Z</time>
      </trkpt>
      <trkpt lat="47.180599" lon="6.607079">
        <ele>7071.360000000001</ele>
        <time>2026-05-29T13:06:35Z</time>
      </trkpt>
      <trkpt lat="47.178085" lon="6.603839">
        <ele>7063.740000000001</ele>
        <time>2026-05-29T13:06:35Z</time>
      </trkpt>
      <trkpt lat="47.174881" lon="6.599487">
        <ele>7048.5</ele>
        <time>2026-05-29T13:06:35Z</time>
      </trkpt>
      <trkpt lat="47.172501" lon="6.596375">
        <ele>7040.88</ele>
        <time>2026-05-29T13:06:35Z</time>
      </trkpt>
      <trkpt lat="47.169846" lon="6.592853">
        <ele>7033.26</ele>
        <time>2026-05-29T13:06:35Z</time>
      </trkpt>
      <trkpt lat="47.167374" lon="6.589531">
        <ele>7033.26</ele>
        <time>2026-05-29T13:06:35Z</time>
      </trkpt>
      <trkpt lat="47.164818" lon="6.586092">
        <ele>7025.64</ele>
        <time>2026-05-29T13:06:35Z</time>
      </trkpt>
      <trkpt lat="47.161514" lon="6.581635">
        <ele>7018.02</ele>
        <time>2026-05-29T13:06:35Z</time>
      </trkpt>
      <trkpt lat="47.121964" lon="6.528557">
        <ele>6918.96</ele>
        <time>2026-05-29T13:06:35Z</time>
      </trkpt>
      <trkpt lat="47.082321" lon="6.476303">
        <ele>6675.12</ele>
        <time>2026-05-29T13:06:35Z</time>
      </trkpt>
      <trkpt lat="47.044556" lon="6.427002">
        <ele>6400.8</ele>
        <time>2026-05-29T13:06:35Z</time>
      </trkpt>
      <trkpt lat="47.005657" lon="6.376507">
        <ele>6126.4800000000005</ele>
        <time>2026-05-29T13:06:35Z</time>
      </trkpt>
      <trkpt lat="46.967808" lon="6.327421">
        <ele>5951.22</ele>
        <time>2026-05-29T13:06:35Z</time>
      </trkpt>
      <trkpt lat="46.930069" lon="6.278549">
        <ele>5791.200000000001</ele>
        <time>2026-05-29T13:06:35Z</time>
      </trkpt>
      <trkpt lat="46.892532" lon="6.229935">
        <ele>5631.18</ele>
        <time>2026-05-29T13:06:35Z</time>
      </trkpt>
      <trkpt lat="46.855362" lon="6.181618">
        <ele>5471.16</ele>
        <time>2026-05-29T13:06:35Z</time>
      </trkpt>
      <trkpt lat="46.818512" lon="6.133452">
        <ele>5311.14</ele>
        <time>2026-05-29T13:06:35Z</time>
      </trkpt>
      <trkpt lat="46.781204" lon="6.085086">
        <ele>5151.12</ele>
        <time>2026-05-29T13:06:35Z</time>
      </trkpt>
      <trkpt lat="46.74408" lon="6.037125">
        <ele>4991.1</ele>
        <time>2026-05-29T13:06:35Z</time>
      </trkpt>
      <trkpt lat="46.707458" lon="5.989693">
        <ele>4831.08</ele>
        <time>2026-05-29T13:06:35Z</time>
      </trkpt>
      <trkpt lat="46.670712" lon="5.94223">
        <ele>4678.68</ele>
        <time>2026-05-29T13:06:35Z</time>
      </trkpt>
      <trkpt lat="46.63496" lon="5.896088">
        <ele>4518.66</ele>
        <time>2026-05-29T13:06:35Z</time>
      </trkpt>
      <trkpt lat="46.598923" lon="5.850688">
        <ele>4366.26</ele>
        <time>2026-05-29T13:06:35Z</time>
      </trkpt>
      <trkpt lat="46.593063" lon="5.845463">
        <ele>4343.400000000001</ele>
        <time>2026-05-29T13:06:35Z</time>
      </trkpt>
      <trkpt lat="46.589905" lon="5.843119">
        <ele>4328.16</ele>
        <time>2026-05-29T13:06:35Z</time>
      </trkpt>
      <trkpt lat="46.586929" lon="5.841243">
        <ele>4320.54</ele>
        <time>2026-05-29T13:06:35Z</time>
      </trkpt>
      <trkpt lat="46.584171" lon="5.839851">
        <ele>4305.3</ele>
        <time>2026-05-29T13:06:35Z</time>
      </trkpt>
      <trkpt lat="46.5811" lon="5.838478">
        <ele>4297.68</ele>
        <time>2026-05-29T13:06:35Z</time>
      </trkpt>
      <trkpt lat="46.578186" lon="5.837492">
        <ele>4290.06</ele>
        <time>2026-05-29T13:06:35Z</time>
      </trkpt>
      <trkpt lat="46.574387" lon="5.836554">
        <ele>4274.820000000001</ele>
        <time>2026-05-29T13:06:35Z</time>
      </trkpt>
      <trkpt lat="46.571823" lon="5.836152">
        <ele>4267.2</ele>
        <time>2026-05-29T13:06:35Z</time>
      </trkpt>
      <trkpt lat="46.568577" lon="5.835938">
        <ele>4259.58</ele>
        <time>2026-05-29T13:06:35Z</time>
      </trkpt>
      <trkpt lat="46.565273" lon="5.835938">
        <ele>4251.96</ele>
        <time>2026-05-29T13:06:35Z</time>
      </trkpt>
      <trkpt lat="46.562199" lon="5.836212">
        <ele>4244.34</ele>
        <time>2026-05-29T13:06:35Z</time>
      </trkpt>
      <trkpt lat="46.559872" lon="5.836555">
        <ele>4236.72</ele>
        <time>2026-05-29T13:06:35Z</time>
      </trkpt>
      <trkpt lat="46.556103" lon="5.837448">
        <ele>4221.4800000000005</ele>
        <time>2026-05-29T13:06:35Z</time>
      </trkpt>
      <trkpt lat="46.55331" lon="5.838341">
        <ele>4213.860000000001</ele>
        <time>2026-05-29T13:06:35Z</time>
      </trkpt>
      <trkpt lat="46.550537" lon="5.839434">
        <ele>4206.24</ele>
        <time>2026-05-29T13:06:35Z</time>
      </trkpt>
      <trkpt lat="46.547115" lon="5.841087">
        <ele>4191.0</ele>
        <time>2026-05-29T13:06:35Z</time>
      </trkpt>
      <trkpt lat="46.544231" lon="5.842804">
        <ele>4183.38</ele>
        <time>2026-05-29T13:06:35Z</time>
      </trkpt>
      <trkpt lat="46.541656" lon="5.844526">
        <ele>4168.14</ele>
        <time>2026-05-29T13:06:35Z</time>
      </trkpt>
      <trkpt lat="46.539017" lon="5.846512">
        <ele>4160.52</ele>
        <time>2026-05-29T13:06:35Z</time>
      </trkpt>
      <trkpt lat="46.536503" lon="5.848709">
        <ele>4152.900000000001</ele>
        <time>2026-05-29T13:06:35Z</time>
      </trkpt>
      <trkpt lat="46.533966" lon="5.85109">
        <ele>4145.280000000001</ele>
        <time>2026-05-29T13:06:35Z</time>
      </trkpt>
      <trkpt lat="46.531128" lon="5.853971">
        <ele>4130.04</ele>
        <time>2026-05-29T13:06:35Z</time>
      </trkpt>
      <trkpt lat="46.528748" lon="5.85645">
        <ele>4122.42</ele>
        <time>2026-05-29T13:06:35Z</time>
      </trkpt>
      <trkpt lat="46.526356" lon="5.858871">
        <ele>4114.8</ele>
        <time>2026-05-29T13:06:35Z</time>
      </trkpt>
      <trkpt lat="46.523895" lon="5.861474">
        <ele>4107.18</ele>
        <time>2026-05-29T13:06:35Z</time>
      </trkpt>
      <trkpt lat="46.521744" lon="5.863752">
        <ele>4091.94</ele>
        <time>2026-05-29T13:06:35Z</time>
      </trkpt>
      <trkpt lat="46.518814" lon="5.866837">
        <ele>4084.32</ele>
        <time>2026-05-29T13:06:35Z</time>
      </trkpt>
      <trkpt lat="46.516438" lon="5.86924">
        <ele>4076.7000000000003</ele>
        <time>2026-05-29T13:06:35Z</time>
      </trkpt>
      <trkpt lat="46.513962" lon="5.871858">
        <ele>4061.46</ele>
        <time>2026-05-29T13:06:35Z</time>
      </trkpt>
      <trkpt lat="46.511459" lon="5.874458">
        <ele>4053.84</ele>
        <time>2026-05-29T13:06:35Z</time>
      </trkpt>
      <trkpt lat="46.509037" lon="5.87693">
        <ele>4046.2200000000003</ele>
        <time>2026-05-29T13:06:35Z</time>
      </trkpt>
      <trkpt lat="46.506664" lon="5.879333">
        <ele>4038.6000000000004</ele>
        <time>2026-05-29T13:06:35Z</time>
      </trkpt>
      <trkpt lat="46.504196" lon="5.881874">
        <ele>4030.98</ele>
        <time>2026-05-29T13:06:35Z</time>
      </trkpt>
      <trkpt lat="46.466862" lon="5.919434">
        <ele>3962.4</ele>
        <time>2026-05-29T13:06:35Z</time>
      </trkpt>
      <trkpt lat="46.429573" lon="5.956306">
        <ele>3962.4</ele>
        <time>2026-05-29T13:06:35Z</time>
      </trkpt>
      <trkpt lat="46.392376" lon="5.993179">
        <ele>3962.4</ele>
        <time>2026-05-29T13:06:35Z</time>
      </trkpt>
      <trkpt lat="46.364632" lon="6.019066">
        <ele>3954.78</ele>
        <time>2026-05-29T13:06:35Z</time>
      </trkpt>
      <trkpt lat="46.361187" lon="6.021126">
        <ele>3954.78</ele>
        <time>2026-05-29T13:06:35Z</time>
      </trkpt>
      <trkpt lat="46.358303" lon="6.022568">
        <ele>3954.78</ele>
        <time>2026-05-29T13:06:35Z</time>
      </trkpt>
      <trkpt lat="46.35537" lon="6.023735">
        <ele>3954.78</ele>
        <time>2026-05-29T13:06:35Z</time>
      </trkpt>
      <trkpt lat="46.352623" lon="6.024628">
        <ele>3962.4</ele>
        <time>2026-05-29T13:06:35Z</time>
      </trkpt>
      <trkpt lat="46.349781" lon="6.025383">
        <ele>3962.4</ele>
        <time>2026-05-29T13:06:35Z</time>
      </trkpt>
      <trkpt lat="46.347641" lon="6.025726">
        <ele>3962.4</ele>
        <time>2026-05-29T13:06:35Z</time>
      </trkpt>
      <trkpt lat="46.344589" lon="6.026001">
        <ele>3962.4</ele>
        <time>2026-05-29T13:06:35Z</time>
      </trkpt>
      <trkpt lat="46.341682" lon="6.02607">
        <ele>3962.4</ele>
        <time>2026-05-29T13:06:35Z</time>
      </trkpt>
      <trkpt lat="46.338795" lon="6.025864">
        <ele>3962.4</ele>
        <time>2026-05-29T13:06:35Z</time>
      </trkpt>
      <trkpt lat="46.33535" lon="6.025314">
        <ele>3962.4</ele>
        <time>2026-05-29T13:06:35Z</time>
      </trkpt>
      <trkpt lat="46.332558" lon="6.024559">
        <ele>3962.4</ele>
        <time>2026-05-29T13:06:35Z</time>
      </trkpt>
      <trkpt lat="46.330444" lon="6.02379">
        <ele>3962.4</ele>
        <time>2026-05-29T13:06:35Z</time>
      </trkpt>
      <trkpt lat="46.327332" lon="6.022518">
        <ele>3962.4</ele>
        <time>2026-05-29T13:06:35Z</time>
      </trkpt>
      <trkpt lat="46.324875" lon="6.021194">
        <ele>3962.4</ele>
        <time>2026-05-29T13:06:35Z</time>
      </trkpt>
      <trkpt lat="46.32185" lon="6.019341">
        <ele>3962.4</ele>
        <time>2026-05-29T13:06:35Z</time>
      </trkpt>
      <trkpt lat="46.319458" lon="6.017627">
        <ele>3962.4</ele>
        <time>2026-05-29T13:06:35Z</time>
      </trkpt>
      <trkpt lat="46.316849" lon="6.015551">
        <ele>3962.4</ele>
        <time>2026-05-29T13:06:35Z</time>
      </trkpt>
      <trkpt lat="46.31456" lon="6.013407">
        <ele>3962.4</ele>
        <time>2026-05-29T13:06:35Z</time>
      </trkpt>
      <trkpt lat="46.312355" lon="6.011032">
        <ele>3962.4</ele>
        <time>2026-05-29T13:06:35Z</time>
      </trkpt>
      <trkpt lat="46.310444" lon="6.008766">
        <ele>3954.78</ele>
        <time>2026-05-29T13:06:35Z</time>
      </trkpt>
      <trkpt lat="46.30806" lon="6.005636">
        <ele>3947.1600000000003</ele>
        <time>2026-05-29T13:06:35Z</time>
      </trkpt>
      <trkpt lat="46.306068" lon="6.002724">
        <ele>3939.5400000000004</ele>
        <time>2026-05-29T13:06:35Z</time>
      </trkpt>
      <trkpt lat="46.304581" lon="6.000458">
        <ele>3931.92</ele>
        <time>2026-05-29T13:06:35Z</time>
      </trkpt>
      <trkpt lat="46.302299" lon="5.996819">
        <ele>3916.6800000000003</ele>
        <time>2026-05-29T13:06:35Z</time>
      </trkpt>
      <trkpt lat="46.300598" lon="5.993913">
        <ele>3909.0600000000004</ele>
        <time>2026-05-29T13:06:35Z</time>
      </trkpt>
      <trkpt lat="46.298992" lon="5.991119">
        <ele>3893.82</ele>
        <time>2026-05-29T13:06:35Z</time>
      </trkpt>
      <trkpt lat="46.296806" lon="5.987274">
        <ele>3870.96</ele>
        <time>2026-05-29T13:06:35Z</time>
      </trkpt>
      <trkpt lat="46.295105" lon="5.9842">
        <ele>3855.7200000000003</ele>
        <time>2026-05-29T13:06:35Z</time>
      </trkpt>
      <trkpt lat="46.293686" lon="5.981644">
        <ele>3840.48</ele>
        <time>2026-05-29T13:06:35Z</time>
      </trkpt>
      <trkpt lat="46.291672" lon="5.977902">
        <ele>3817.6200000000003</ele>
        <time>2026-05-29T13:06:35Z</time>
      </trkpt>
      <trkpt lat="46.289963" lon="5.974846">
        <ele>3802.38</ele>
        <time>2026-05-29T13:06:35Z</time>
      </trkpt>
      <trkpt lat="46.288704" lon="5.972443">
        <ele>3787.1400000000003</ele>
        <time>2026-05-29T13:06:35Z</time>
      </trkpt>
      <trkpt lat="46.287003" lon="5.969327">
        <ele>3771.9</ele>
        <time>2026-05-29T13:06:35Z</time>
      </trkpt>
      <trkpt lat="46.284851" lon="5.965241">
        <ele>3756.6600000000003</ele>
        <time>2026-05-29T13:06:35Z</time>
      </trkpt>
      <trkpt lat="46.283295" lon="5.962428">
        <ele>3741.42</ele>
        <time>2026-05-29T13:06:35Z</time>
      </trkpt>
      <trkpt lat="46.257793" lon="5.914627">
        <ele>3528.0600000000004</ele>
        <time>2026-05-29T13:06:35Z</time>
      </trkpt>
      <trkpt lat="46.247635" lon="5.895773">
        <ele>3444.2400000000002</ele>
        <time>2026-05-29T13:06:35Z</time>
      </trkpt>
      <trkpt lat="46.235825" lon="5.873934">
        <ele>3368.04</ele>
        <time>2026-05-29T13:06:35Z</time>
      </trkpt>
      <trkpt lat="46.225571" lon="5.855244">
        <ele>3322.32</ele>
        <time>2026-05-29T13:06:35Z</time>
      </trkpt>
      <trkpt lat="46.214874" lon="5.8358">
        <ele>3261.36</ele>
        <time>2026-05-29T13:06:35Z</time>
      </trkpt>
      <trkpt lat="46.203327" lon="5.815063">
        <ele>3208.02</ele>
        <time>2026-05-29T13:06:35Z</time>
      </trkpt>
      <trkpt lat="46.193413" lon="5.797417">
        <ele>3177.54</ele>
        <time>2026-05-29T13:06:35Z</time>
      </trkpt>
      <trkpt lat="46.182148" lon="5.777985">
        <ele>3154.6800000000003</ele>
        <time>2026-05-29T13:06:35Z</time>
      </trkpt>
      <trkpt lat="46.172371" lon="5.761368">
        <ele>3131.82</ele>
        <time>2026-05-29T13:06:35Z</time>
      </trkpt>
      <trkpt lat="46.161575" lon="5.742835">
        <ele>3116.5800000000004</ele>
        <time>2026-05-29T13:06:35Z</time>
      </trkpt>
      <trkpt lat="46.152237" lon="5.726423">
        <ele>3063.2400000000002</ele>
        <time>2026-05-29T13:06:35Z</time>
      </trkpt>
      <trkpt lat="46.14323" lon="5.709732">
        <ele>2971.8</ele>
        <time>2026-05-29T13:06:35Z</time>
      </trkpt>
      <trkpt lat="46.133549" lon="5.688995">
        <ele>2865.1200000000003</ele>
        <time>2026-05-29T13:06:35Z</time>
      </trkpt>
      <trkpt lat="46.123352" lon="5.668259">
        <ele>2781.3</ele>
        <time>2026-05-29T13:06:35Z</time>
      </trkpt>
      <trkpt lat="46.112778" lon="5.648781">
        <ele>2712.7200000000003</ele>
        <time>2026-05-29T13:06:35Z</time>
      </trkpt>
      <trkpt lat="46.103851" lon="5.632436">
        <ele>2674.6200000000003</ele>
        <time>2026-05-29T13:06:35Z</time>
      </trkpt>
      <trkpt lat="46.096161" lon="5.619909">
        <ele>2636.52</ele>
        <time>2026-05-29T13:06:35Z</time>
      </trkpt>
      <trkpt lat="46.093826" lon="5.617229">
        <ele>2621.28</ele>
        <time>2026-05-29T13:06:35Z</time>
      </trkpt>
      <trkpt lat="46.091976" lon="5.615387">
        <ele>2613.6600000000003</ele>
        <time>2026-05-29T13:06:35Z</time>
      </trkpt>
      <trkpt lat="46.089973" lon="5.61367">
        <ele>2606.04</ele>
        <time>2026-05-29T13:06:35Z</time>
      </trkpt>
      <trkpt lat="46.087692" lon="5.612004">
        <ele>2598.42</ele>
        <time>2026-05-29T13:06:35Z</time>
      </trkpt>
      <trkpt lat="46.08532" lon="5.61058">
        <ele>2590.8</ele>
        <time>2026-05-29T13:06:35Z</time>
      </trkpt>
      <trkpt lat="46.08316" lon="5.609525">
        <ele>2583.1800000000003</ele>
        <time>2026-05-29T13:06:35Z</time>
      </trkpt>
      <trkpt lat="46.08099" lon="5.608727">
        <ele>2575.56</ele>
        <time>2026-05-29T13:06:35Z</time>
      </trkpt>
      <trkpt lat="46.078152" lon="5.607903">
        <ele>2567.94</ele>
        <time>2026-05-29T13:06:35Z</time>
      </trkpt>
      <trkpt lat="46.076477" lon="5.607516">
        <ele>2567.94</ele>
        <time>2026-05-29T13:06:35Z</time>
      </trkpt>
      <trkpt lat="46.073639" lon="5.606913">
        <ele>2560.32</ele>
        <time>2026-05-29T13:06:35Z</time>
      </trkpt>
      <trkpt lat="46.071819" lon="5.606667">
        <ele>2552.7000000000003</ele>
        <time>2026-05-29T13:06:35Z</time>
      </trkpt>
      <trkpt lat="46.069305" lon="5.606255">
        <ele>2545.08</ele>
        <time>2026-05-29T13:06:35Z</time>
      </trkpt>
      <trkpt lat="46.066864" lon="5.605975">
        <ele>2537.46</ele>
        <time>2026-05-29T13:06:35Z</time>
      </trkpt>
      <trkpt lat="46.064621" lon="5.605707">
        <ele>2529.84</ele>
        <time>2026-05-29T13:06:35Z</time>
      </trkpt>
      <trkpt lat="46.062286" lon="5.605439">
        <ele>2522.2200000000003</ele>
        <time>2026-05-29T13:06:35Z</time>
      </trkpt>
      <trkpt lat="46.059948" lon="5.605225">
        <ele>2514.6</ele>
        <time>2026-05-29T13:06:35Z</time>
      </trkpt>
      <trkpt lat="46.057575" lon="5.60495">
        <ele>2506.98</ele>
        <time>2026-05-29T13:06:35Z</time>
      </trkpt>
      <trkpt lat="46.055466" lon="5.604769">
        <ele>2499.36</ele>
        <time>2026-05-29T13:06:35Z</time>
      </trkpt>
      <trkpt lat="46.052811" lon="5.604501">
        <ele>2491.7400000000002</ele>
        <time>2026-05-29T13:06:35Z</time>
      </trkpt>
      <trkpt lat="46.050686" lon="5.604263">
        <ele>2491.7400000000002</ele>
        <time>2026-05-29T13:06:35Z</time>
      </trkpt>
      <trkpt lat="46.048553" lon="5.604099">
        <ele>2484.1200000000003</ele>
        <time>2026-05-29T13:06:35Z</time>
      </trkpt>
      <trkpt lat="46.035183" lon="5.60289">
        <ele>2468.88</ele>
        <time>2026-05-29T13:06:35Z</time>
      </trkpt>
      <trkpt lat="46.026478" lon="5.603371">
        <ele>2446.02</ele>
        <time>2026-05-29T13:06:35Z</time>
      </trkpt>
      <trkpt lat="46.024429" lon="5.603965">
        <ele>2446.02</ele>
        <time>2026-05-29T13:06:35Z</time>
      </trkpt>
      <trkpt lat="46.022472" lon="5.604813">
        <ele>2446.02</ele>
        <time>2026-05-29T13:06:35Z</time>
      </trkpt>
      <trkpt lat="46.020424" lon="5.605911">
        <ele>2430.78</ele>
        <time>2026-05-29T13:06:35Z</time>
      </trkpt>
      <trkpt lat="46.018433" lon="5.607248">
        <ele>2430.78</ele>
        <time>2026-05-29T13:06:35Z</time>
      </trkpt>
      <trkpt lat="46.016693" lon="5.608521">
        <ele>2430.78</ele>
        <time>2026-05-29T13:06:35Z</time>
      </trkpt>
      <trkpt lat="46.01498" lon="5.610031">
        <ele>2423.1600000000003</ele>
        <time>2026-05-29T13:06:35Z</time>
      </trkpt>
      <trkpt lat="46.013214" lon="5.611602">
        <ele>2423.1600000000003</ele>
        <time>2026-05-29T13:06:35Z</time>
      </trkpt>
      <trkpt lat="46.01144" lon="5.613327">
        <ele>2423.1600000000003</ele>
        <time>2026-05-29T13:06:35Z</time>
      </trkpt>
      <trkpt lat="46.009735" lon="5.614952">
        <ele>2415.54</ele>
        <time>2026-05-29T13:06:35Z</time>
      </trkpt>
      <trkpt lat="46.008087" lon="5.616626">
        <ele>2407.92</ele>
        <time>2026-05-29T13:06:35Z</time>
      </trkpt>
      <trkpt lat="46.006439" lon="5.618368">
        <ele>2407.92</ele>
        <time>2026-05-29T13:06:35Z</time>
      </trkpt>
      <trkpt lat="46.004929" lon="5.619976">
        <ele>2400.3</ele>
        <time>2026-05-29T13:06:35Z</time>
      </trkpt>
      <trkpt lat="46.003342" lon="5.621635">
        <ele>2392.6800000000003</ele>
        <time>2026-05-29T13:06:35Z</time>
      </trkpt>
      <trkpt lat="46.001526" lon="5.623558">
        <ele>2392.6800000000003</ele>
        <time>2026-05-29T13:06:35Z</time>
      </trkpt>
      <trkpt lat="46.000076" lon="5.625134">
        <ele>2385.06</ele>
        <time>2026-05-29T13:06:35Z</time>
      </trkpt>
      <trkpt lat="45.998199" lon="5.627144">
        <ele>2377.44</ele>
        <time>2026-05-29T13:06:35Z</time>
      </trkpt>
      <trkpt lat="45.996777" lon="5.628845">
        <ele>2362.2000000000003</ele>
        <time>2026-05-29T13:06:35Z</time>
      </trkpt>
      <trkpt lat="45.995193" lon="5.630768">
        <ele>2354.58</ele>
        <time>2026-05-29T13:06:35Z</time>
      </trkpt>
      <trkpt lat="45.99353" lon="5.633307">
        <ele>2346.96</ele>
        <time>2026-05-29T13:06:35Z</time>
      </trkpt>
      <trkpt lat="45.992386" lon="5.635316">
        <ele>2331.7200000000003</ele>
        <time>2026-05-29T13:06:35Z</time>
      </trkpt>
      <trkpt lat="45.991329" lon="5.637428">
        <ele>2324.1</ele>
        <time>2026-05-29T13:06:35Z</time>
      </trkpt>
      <trkpt lat="45.990143" lon="5.640341">
        <ele>2308.86</ele>
        <time>2026-05-29T13:06:35Z</time>
      </trkpt>
      <trkpt lat="45.989548" lon="5.642216">
        <ele>2301.2400000000002</ele>
        <time>2026-05-29T13:06:35Z</time>
      </trkpt>
      <trkpt lat="45.988815" lon="5.644963">
        <ele>2286.0</ele>
        <time>2026-05-29T13:06:35Z</time>
      </trkpt>
      <trkpt lat="45.98822" lon="5.648111">
        <ele>2278.38</ele>
        <time>2026-05-29T13:06:35Z</time>
      </trkpt>
      <trkpt lat="45.9879" lon="5.650925">
        <ele>2270.76</ele>
        <time>2026-05-29T13:06:35Z</time>
      </trkpt>
      <trkpt lat="45.987698" lon="5.653908">
        <ele>2263.1400000000003</ele>
        <time>2026-05-29T13:06:35Z</time>
      </trkpt>
      <trkpt lat="45.987698" lon="5.656654">
        <ele>2255.52</ele>
        <time>2026-05-29T13:06:35Z</time>
      </trkpt>
      <trkpt lat="45.987762" lon="5.6595">
        <ele>2255.52</ele>
        <time>2026-05-29T13:06:35Z</time>
      </trkpt>
      <trkpt lat="45.987885" lon="5.662216">
        <ele>2247.9</ele>
        <time>2026-05-29T13:06:35Z</time>
      </trkpt>
      <trkpt lat="45.988071" lon="5.665031">
        <ele>2240.28</ele>
        <time>2026-05-29T13:06:35Z</time>
      </trkpt>
      <trkpt lat="45.988266" lon="5.667605">
        <ele>2232.6600000000003</ele>
        <time>2026-05-29T13:06:35Z</time>
      </trkpt>
      <trkpt lat="45.988537" lon="5.670387">
        <ele>2232.6600000000003</ele>
        <time>2026-05-29T13:06:35Z</time>
      </trkpt>
      <trkpt lat="45.98877" lon="5.673065">
        <ele>2232.6600000000003</ele>
        <time>2026-05-29T13:06:35Z</time>
      </trkpt>
      <trkpt lat="45.989048" lon="5.675468">
        <ele>2240.28</ele>
        <time>2026-05-29T13:06:35Z</time>
      </trkpt>
      <trkpt lat="45.989365" lon="5.678525">
        <ele>2240.28</ele>
        <time>2026-05-29T13:06:35Z</time>
      </trkpt>
      <trkpt lat="45.989639" lon="5.68087">
        <ele>2247.9</ele>
        <time>2026-05-29T13:06:35Z</time>
      </trkpt>
      <trkpt lat="45.98996" lon="5.683482">
        <ele>2247.9</ele>
        <time>2026-05-29T13:06:35Z</time>
      </trkpt>
      <trkpt lat="45.990234" lon="5.685961">
        <ele>2240.28</ele>
        <time>2026-05-29T13:06:35Z</time>
      </trkpt>
      <trkpt lat="45.990601" lon="5.689176">
        <ele>2240.28</ele>
        <time>2026-05-29T13:06:35Z</time>
      </trkpt>
      <trkpt lat="45.990875" lon="5.691789">
        <ele>2240.28</ele>
        <time>2026-05-29T13:06:35Z</time>
      </trkpt>
      <trkpt lat="45.992477" lon="5.707397">
        <ele>2209.8</ele>
        <time>2026-05-29T13:06:35Z</time>
      </trkpt>
      <trkpt lat="45.993805" lon="5.722805">
        <ele>2194.56</ele>
        <time>2026-05-29T13:06:35Z</time>
      </trkpt>
      <trkpt lat="45.995453" lon="5.740156">
        <ele>2171.7000000000003</ele>
        <time>2026-05-29T13:06:35Z</time>
      </trkpt>
      <trkpt lat="45.995865" lon="5.742433">
        <ele>2171.7000000000003</ele>
        <time>2026-05-29T13:06:35Z</time>
      </trkpt>
      <trkpt lat="45.99646" lon="5.745314">
        <ele>2164.08</ele>
        <time>2026-05-29T13:06:35Z</time>
      </trkpt>
      <trkpt lat="45.997055" lon="5.747635">
        <ele>2164.08</ele>
        <time>2026-05-29T13:06:35Z</time>
      </trkpt>
      <trkpt lat="45.997707" lon="5.750038">
        <ele>2164.08</ele>
        <time>2026-05-29T13:06:35Z</time>
      </trkpt>
      <trkpt lat="45.998314" lon="5.751823">
        <ele>2156.46</ele>
        <time>2026-05-29T13:06:35Z</time>
      </trkpt>
      <trkpt lat="45.999245" lon="5.754433">
        <ele>2156.46</ele>
        <time>2026-05-29T13:06:35Z</time>
      </trkpt>
      <trkpt lat="46.00013" lon="5.756561">
        <ele>2148.84</ele>
        <time>2026-05-29T13:06:35Z</time>
      </trkpt>
      <trkpt lat="46.001038" lon="5.758645">
        <ele>2148.84</ele>
        <time>2026-05-29T13:06:35Z</time>
      </trkpt>
      <trkpt lat="46.002045" lon="5.760788">
        <ele>2148.84</ele>
        <time>2026-05-29T13:06:35Z</time>
      </trkpt>
      <trkpt lat="46.003052" lon="5.762798">
        <ele>2141.2200000000003</ele>
        <time>2026-05-29T13:06:35Z</time>
      </trkpt>
      <trkpt lat="46.003853" lon="5.764252">
        <ele>2141.2200000000003</ele>
        <time>2026-05-29T13:06:35Z</time>
      </trkpt>
      <trkpt lat="46.005108" lon="5.766586">
        <ele>2133.6</ele>
        <time>2026-05-29T13:06:35Z</time>
      </trkpt>
      <trkpt lat="46.00618" lon="5.76844">
        <ele>2133.6</ele>
        <time>2026-05-29T13:06:35Z</time>
      </trkpt>
      <trkpt lat="46.007298" lon="5.770294">
        <ele>2125.98</ele>
        <time>2026-05-29T13:06:35Z</time>
      </trkpt>
      <trkpt lat="46.00827" lon="5.771909">
        <ele>2125.98</ele>
        <time>2026-05-29T13:06:35Z</time>
      </trkpt>
      <trkpt lat="46.0093" lon="5.77359">
        <ele>2118.36</ele>
        <time>2026-05-29T13:06:35Z</time>
      </trkpt>
      <trkpt lat="46.010651" lon="5.775719">
        <ele>2118.36</ele>
        <time>2026-05-29T13:06:35Z</time>
      </trkpt>
      <trkpt lat="46.011703" lon="5.777402">
        <ele>2110.7400000000002</ele>
        <time>2026-05-29T13:06:35Z</time>
      </trkpt>
      <trkpt lat="46.012939" lon="5.779277">
        <ele>2103.12</ele>
        <time>2026-05-29T13:06:35Z</time>
      </trkpt>
      <trkpt lat="46.014084" lon="5.781019">
        <ele>2095.5</ele>
        <time>2026-05-29T13:06:35Z</time>
      </trkpt>
      <trkpt lat="46.015213" lon="5.782722">
        <ele>2087.88</ele>
        <time>2026-05-29T13:06:35Z</time>
      </trkpt>
      <trkpt lat="46.01651" lon="5.784704">
        <ele>2072.6400000000003</ele>
        <time>2026-05-29T13:06:35Z</time>
      </trkpt>
      <trkpt lat="46.023743" lon="5.795489">
        <ele>2034.5400000000002</ele>
        <time>2026-05-29T13:06:35Z</time>
      </trkpt>
      <trkpt lat="46.030945" lon="5.806">
        <ele>1981.2</ele>
        <time>2026-05-29T13:06:35Z</time>
      </trkpt>
      <trkpt lat="46.037933" lon="5.816189">
        <ele>1920.24</ele>
        <time>2026-05-29T13:06:35Z</time>
      </trkpt>
      <trkpt lat="46.046261" lon="5.828316">
        <ele>1844.0400000000002</ele>
        <time>2026-05-29T13:06:35Z</time>
      </trkpt>
      <trkpt lat="46.054688" lon="5.840607">
        <ele>1760.22</ele>
        <time>2026-05-29T13:06:35Z</time>
      </trkpt>
      <trkpt lat="46.062057" lon="5.851292">
        <ele>1699.26</ele>
        <time>2026-05-29T13:06:35Z</time>
      </trkpt>
      <trkpt lat="46.069073" lon="5.861618">
        <ele>1645.92</ele>
        <time>2026-05-29T13:06:35Z</time>
      </trkpt>
      <trkpt lat="46.077126" lon="5.873291">
        <ele>1592.5800000000002</ele>
        <time>2026-05-29T13:06:35Z</time>
      </trkpt>
      <trkpt lat="46.08411" lon="5.883522">
        <ele>1539.24</ele>
        <time>2026-05-29T13:06:35Z</time>
      </trkpt>
      <trkpt lat="46.090897" lon="5.893428">
        <ele>1478.28</ele>
        <time>2026-05-29T13:06:35Z</time>
      </trkpt>
      <trkpt lat="46.094421" lon="5.89852">
        <ele>1447.8000000000002</ele>
        <time>2026-05-29T13:06:35Z</time>
      </trkpt>
      <trkpt lat="46.098866" lon="5.905014">
        <ele>1409.7</ele>
        <time>2026-05-29T13:06:35Z</time>
      </trkpt>
      <trkpt lat="46.103104" lon="5.911263">
        <ele>1371.6000000000001</ele>
        <time>2026-05-29T13:06:35Z</time>
      </trkpt>
      <trkpt lat="46.107422" lon="5.917544">
        <ele>1333.5</ele>
        <time>2026-05-29T13:06:35Z</time>
      </trkpt>
      <trkpt lat="46.111809" lon="5.923965">
        <ele>1295.4</ele>
        <time>2026-05-29T13:06:35Z</time>
      </trkpt>
      <trkpt lat="46.116074" lon="5.930205">
        <ele>1264.92</ele>
        <time>2026-05-29T13:06:35Z</time>
      </trkpt>
      <trkpt lat="46.120789" lon="5.937038">
        <ele>1226.8200000000002</ele>
        <time>2026-05-29T13:06:35Z</time>
      </trkpt>
      <trkpt lat="46.125092" lon="5.943336">
        <ele>1188.72</ele>
        <time>2026-05-29T13:06:35Z</time>
      </trkpt>
      <trkpt lat="46.129578" lon="5.949967">
        <ele>1158.24</ele>
        <time>2026-05-29T13:06:35Z</time>
      </trkpt>
      <trkpt lat="46.134109" lon="5.956532">
        <ele>1112.52</ele>
        <time>2026-05-29T13:06:35Z</time>
      </trkpt>
      <trkpt lat="46.137497" lon="5.96149">
        <ele>1089.66</ele>
        <time>2026-05-29T13:06:35Z</time>
      </trkpt>
      <trkpt lat="46.142021" lon="5.968117">
        <ele>1051.56</ele>
        <time>2026-05-29T13:06:35Z</time>
      </trkpt>
      <trkpt lat="46.146397" lon="5.974571">
        <ele>1013.46</ele>
        <time>2026-05-29T13:06:35Z</time>
      </trkpt>
      <trkpt lat="46.149933" lon="5.97979">
        <ele>990.6</ele>
        <time>2026-05-29T13:06:35Z</time>
      </trkpt>
      <trkpt lat="46.15416" lon="5.986008">
        <ele>952.5</ele>
        <time>2026-05-29T13:06:35Z</time>
      </trkpt>
      <trkpt lat="46.158733" lon="5.99263">
        <ele>906.7800000000001</ele>
        <time>2026-05-29T13:06:35Z</time>
      </trkpt>
      <trkpt lat="46.163086" lon="5.998937">
        <ele>868.6800000000001</ele>
        <time>2026-05-29T13:06:35Z</time>
      </trkpt>
      <trkpt lat="46.16748" lon="6.005368">
        <ele>845.82</ele>
        <time>2026-05-29T13:06:35Z</time>
      </trkpt>
      <trkpt lat="46.171394" lon="6.011169">
        <ele>815.34</ele>
        <time>2026-05-29T13:06:35Z</time>
      </trkpt>
      <trkpt lat="46.174606" lon="6.015839">
        <ele>784.86</ele>
        <time>2026-05-29T13:06:35Z</time>
      </trkpt>
      <trkpt lat="46.178741" lon="6.021848">
        <ele>754.38</ele>
        <time>2026-05-29T13:06:35Z</time>
      </trkpt>
      <trkpt lat="46.181396" lon="6.0258">
        <ele>739.14</ele>
        <time>2026-05-29T13:06:35Z</time>
      </trkpt>
      <trkpt lat="46.185242" lon="6.031427">
        <ele>708.6600000000001</ele>
        <time>2026-05-29T13:06:35Z</time>
      </trkpt>
      <trkpt lat="46.189083" lon="6.037056">
        <ele>678.1800000000001</ele>
        <time>2026-05-29T13:06:35Z</time>
      </trkpt>
      <trkpt lat="46.192932" lon="6.042748">
        <ele>647.7</ele>
        <time>2026-05-29T13:06:35Z</time>
      </trkpt>
      <trkpt lat="46.196579" lon="6.048111">
        <ele>609.6</ele>
        <time>2026-05-29T13:06:35Z</time>
      </trkpt>
      <trkpt lat="46.200348" lon="6.053601">
        <ele>579.12</ele>
        <time>2026-05-29T13:06:35Z</time>
      </trkpt>
      <trkpt lat="46.203049" lon="6.057587">
        <ele>563.88</ele>
        <time>2026-05-29T13:06:35Z</time>
      </trkpt>
      <trkpt lat="46.206711" lon="6.062979">
        <ele>541.02</ele>
        <time>2026-05-29T13:06:35Z</time>
      </trkpt>
      <trkpt lat="46.210373" lon="6.068406">
        <ele>510.54</ele>
        <time>2026-05-29T13:06:35Z</time>
      </trkpt>
      <trkpt lat="46.213013" lon="6.072212">
        <ele>487.68</ele>
        <time>2026-05-29T13:06:35Z</time>
      </trkpt>
      <trkpt lat="46.216782" lon="6.077851">
        <ele>457.20000000000005</ele>
        <time>2026-05-29T13:06:35Z</time>
      </trkpt>
      <trkpt lat="46.219482" lon="6.081737">
        <ele>434.34000000000003</ele>
        <time>2026-05-29T13:06:35Z</time>
      </trkpt>
      <trkpt lat="46.223236" lon="6.08723">
        <ele>403.86</ele>
        <time>2026-05-29T13:06:35Z</time>
      </trkpt>
      <trkpt lat="46.226883" lon="6.092606">
        <ele>373.38</ele>
        <time>2026-05-29T13:06:35Z</time>
      </trkpt>
      <trkpt lat="46.230328" lon="6.097549">
        <ele>342.90000000000003</ele>
        <time>2026-05-29T13:06:35Z</time>
      </trkpt>
      <trkpt lat="46.233074" lon="6.101601">
        <ele>342.90000000000003</ele>
        <time>2026-05-29T13:06:35Z</time>
      </trkpt>
      <trkpt lat="46.235687" lon="6.105451">
        <ele>342.90000000000003</ele>
        <time>2026-05-29T13:06:35Z</time>
      </trkpt>
      <trkpt lat="46.240349" lon="6.112329">
        <ele>0.0</ele>
        <time>2026-05-29T13:06:35Z</time>
      </trkpt>
      <trkpt lat="46.242359" lon="6.115315">
        <ele>0.0</ele>
        <time>2026-05-29T13:06:35Z</time>
      </trkpt>
      <trkpt lat="46.242817" lon="6.11627">
        <ele>0.0</ele>
        <time>2026-05-29T13:06:35Z</time>
      </trkpt>
      <trkpt lat="46.243259" lon="6.117857">
        <ele>0.0</ele>
        <time>2026-05-29T13:06:35Z</time>
      </trkpt>
      <trkpt lat="46.242565" lon="6.118933">
        <ele>0.0</ele>
        <time>2026-05-29T13:06:35Z</time>
      </trkpt>
      <trkpt lat="46.24213" lon="6.118246">
        <ele>0.0</ele>
        <time>2026-05-29T13:06:35Z</time>
      </trkpt>
      <trkpt lat="46.241707" lon="6.117626">
        <ele>0.0</ele>
        <time>2026-05-29T13:06:35Z</time>
      </trkpt>
      <trkpt lat="46.241364" lon="6.117141">
        <ele>0.0</ele>
        <time>2026-05-29T13:06:35Z</time>
      </trkpt>
      <trkpt lat="46.24091" lon="6.116467">
        <ele>0.0</ele>
        <time>2026-05-29T13:06:35Z</time>
      </trkpt>
      <trkpt lat="46.240383" lon="6.115694">
        <ele>0.0</ele>
        <time>2026-05-29T13:06:35Z</time>
      </trkpt>
      <trkpt lat="46.239899" lon="6.114964">
        <ele>0.0</ele>
        <time>2026-05-29T13:06:35Z</time>
      </trkpt>
      <trkpt lat="46.239265" lon="6.114063">
        <ele>0.0</ele>
        <time>2026-05-29T13:06:35Z</time>
      </trkpt>
      <trkpt lat="46.238823" lon="6.113389">
        <ele>0.0</ele>
        <time>2026-05-29T13:06:35Z</time>
      </trkpt>
      <trkpt lat="46.238342" lon="6.112702">
        <ele>0.0</ele>
        <time>2026-05-29T13:06:35Z</time>
      </trkpt>
      <trkpt lat="46.237919" lon="6.112066">
        <ele>0.0</ele>
        <time>2026-05-29T13:06:35Z</time>
      </trkpt>
      <trkpt lat="46.237255" lon="6.111095">
        <ele>0.0</ele>
        <time>2026-05-29T13:06:35Z</time>
      </trkpt>
      <trkpt lat="46.236717" lon="6.110308">
        <ele>0.0</ele>
        <time>2026-05-29T13:06:35Z</time>
      </trkpt>
      <trkpt lat="46.236263" lon="6.109652">
        <ele>0.0</ele>
        <time>2026-05-29T13:06:35Z</time>
      </trkpt>
      <trkpt lat="46.235695" lon="6.108793">
        <ele>0.0</ele>
        <time>2026-05-29T13:06:35Z</time>
      </trkpt>
      <trkpt lat="46.235126" lon="6.10798">
        <ele>0.0</ele>
        <time>2026-05-29T13:06:35Z</time>
      </trkpt>
      <trkpt lat="46.2346" lon="6.10718">
        <ele>0.0</ele>
        <time>2026-05-29T13:06:35Z</time>
      </trkpt>
      <trkpt lat="46.233925" lon="6.106305">
        <ele>0.0</ele>
        <time>2026-05-29T13:06:35Z</time>
      </trkpt>
      <trkpt lat="46.233616" lon="6.10587">
        <ele>0.0</ele>
        <time>2026-05-29T13:06:35Z</time>
      </trkpt>
      <trkpt lat="46.233402" lon="6.105549">
        <ele>0.0</ele>
        <time>2026-05-29T13:06:35Z</time>
      </trkpt>
      <trkpt lat="46.233238" lon="6.1053">
        <ele>0.0</ele>
        <time>2026-05-29T13:06:35Z</time>
      </trkpt>
      <trkpt lat="46.233032" lon="6.105166">
        <ele>0.0</ele>
        <time>2026-05-29T13:06:35Z</time>
      </trkpt>
      <trkpt lat="46.23278" lon="6.105267">
        <ele>0.0</ele>
        <time>2026-05-29T13:06:35Z</time>
      </trkpt>
      <trkpt lat="46.232658" lon="6.105497">
        <ele>0.0</ele>
        <time>2026-05-29T13:06:35Z</time>
      </trkpt>
      <trkpt lat="46.232449" lon="6.105769">
        <ele>0.0</ele>
        <time>2026-05-29T13:06:35Z</time>
      </trkpt>
      <trkpt lat="46.232311" lon="6.10597">
        <ele>0.0</ele>
        <time>2026-05-29T13:06:35Z</time>
      </trkpt>
      <trkpt lat="46.232094" lon="6.106288">
        <ele>0.0</ele>
        <time>2026-05-29T13:06:35Z</time>
      </trkpt>
      <trkpt lat="46.231716" lon="6.106523">
        <ele>0.0</ele>
        <time>2026-05-29T13:06:35Z</time>
      </trkpt>
      <trkpt lat="46.23151" lon="6.106322">
        <ele>0.0</ele>
        <time>2026-05-29T13:06:35Z</time>
      </trkpt>
      <trkpt lat="46.231224" lon="6.106373">
        <ele>0.0</ele>
        <time>2026-05-29T13:06:35Z</time>
      </trkpt>
      <trkpt lat="46.231087" lon="6.106579">
        <ele>0.0</ele>
        <time>2026-05-29T13:06:35Z</time>
      </trkpt>
      <trkpt lat="46.230946" lon="6.106785">
        <ele>0.0</ele>
        <time>2026-05-29T13:06:35Z</time>
      </trkpt>
    </trkseg>
  </trk>
</gpx>