<?xml version="1.0" encoding="UTF-8"?>
<gpx xmlns="http://www.topografix.com/GPX/1/1" xmlns:xsi="http://www.w3.org/2001/XMLSchema-instance" xsi:schemaLocation="http://www.topografix.com/GPX/1/1 http://www.topografix.com/GPX/1/1/gpx.xsd" version="1.1" creator="gpx.py -- https://github.com/tkrajina/gpxpy">
  <metadata>
    <name>AY1019_413feeae</name>
    <time>2026-08-19T13:44:27Z</time>
  </metadata>
  <trk>
    <name>AY1019_413feeae</name>
    <cmt>2026-08-19</cmt>
    <type>Plane</type>
    <trkseg>
      <trkpt lat="60.313404" lon="24.975454">
        <ele>0.0</ele>
        <time>2026-08-19T13:44:27Z</time>
      </trkpt>
      <trkpt lat="60.313477" lon="24.975798">
        <ele>0.0</ele>
        <time>2026-08-19T13:44:27Z</time>
      </trkpt>
      <trkpt lat="60.313534" lon="24.976021">
        <ele>0.0</ele>
        <time>2026-08-19T13:44:27Z</time>
      </trkpt>
      <trkpt lat="60.313602" lon="24.976265">
        <ele>0.0</ele>
        <time>2026-08-19T13:44:27Z</time>
      </trkpt>
      <trkpt lat="60.31366" lon="24.976494">
        <ele>0.0</ele>
        <time>2026-08-19T13:44:27Z</time>
      </trkpt>
      <trkpt lat="60.313904" lon="24.976265">
        <ele>0.0</ele>
        <time>2026-08-19T13:44:27Z</time>
      </trkpt>
      <trkpt lat="60.314163" lon="24.976191">
        <ele>0.0</ele>
        <time>2026-08-19T13:44:27Z</time>
      </trkpt>
      <trkpt lat="60.314449" lon="24.975973">
        <ele>0.0</ele>
        <time>2026-08-19T13:44:27Z</time>
      </trkpt>
      <trkpt lat="60.314735" lon="24.975664">
        <ele>0.0</ele>
        <time>2026-08-19T13:44:27Z</time>
      </trkpt>
      <trkpt lat="60.314976" lon="24.975475">
        <ele>0.0</ele>
        <time>2026-08-19T13:44:27Z</time>
      </trkpt>
      <trkpt lat="60.315182" lon="24.975689">
        <ele>0.0</ele>
        <time>2026-08-19T13:44:27Z</time>
      </trkpt>
      <trkpt lat="60.315292" lon="24.975897">
        <ele>0.0</ele>
        <time>2026-08-19T13:44:27Z</time>
      </trkpt>
      <trkpt lat="60.31551" lon="24.976093">
        <ele>0.0</ele>
        <time>2026-08-19T13:44:27Z</time>
      </trkpt>
      <trkpt lat="60.315788" lon="24.975996">
        <ele>0.0</ele>
        <time>2026-08-19T13:44:27Z</time>
      </trkpt>
      <trkpt lat="60.316013" lon="24.975775">
        <ele>0.0</ele>
        <time>2026-08-19T13:44:27Z</time>
      </trkpt>
      <trkpt lat="60.316223" lon="24.975554">
        <ele>0.0</ele>
        <time>2026-08-19T13:44:27Z</time>
      </trkpt>
      <trkpt lat="60.316463" lon="24.975309">
        <ele>0.0</ele>
        <time>2026-08-19T13:44:27Z</time>
      </trkpt>
      <trkpt lat="60.316772" lon="24.974977">
        <ele>0.0</ele>
        <time>2026-08-19T13:44:27Z</time>
      </trkpt>
      <trkpt lat="60.317211" lon="24.974524">
        <ele>0.0</ele>
        <time>2026-08-19T13:44:27Z</time>
      </trkpt>
      <trkpt lat="60.317467" lon="24.974253">
        <ele>0.0</ele>
        <time>2026-08-19T13:44:27Z</time>
      </trkpt>
      <trkpt lat="60.317837" lon="24.973888">
        <ele>0.0</ele>
        <time>2026-08-19T13:44:27Z</time>
      </trkpt>
      <trkpt lat="60.318108" lon="24.973616">
        <ele>0.0</ele>
        <time>2026-08-19T13:44:27Z</time>
      </trkpt>
      <trkpt lat="60.31855" lon="24.97315">
        <ele>0.0</ele>
        <time>2026-08-19T13:44:27Z</time>
      </trkpt>
      <trkpt lat="60.318867" lon="24.972824">
        <ele>0.0</ele>
        <time>2026-08-19T13:44:27Z</time>
      </trkpt>
      <trkpt lat="60.31918" lon="24.972513">
        <ele>0.0</ele>
        <time>2026-08-19T13:44:27Z</time>
      </trkpt>
      <trkpt lat="60.320114" lon="24.971521">
        <ele>0.0</ele>
        <time>2026-08-19T13:44:27Z</time>
      </trkpt>
      <trkpt lat="60.320679" lon="24.970943">
        <ele>0.0</ele>
        <time>2026-08-19T13:44:27Z</time>
      </trkpt>
      <trkpt lat="60.320938" lon="24.970692">
        <ele>0.0</ele>
        <time>2026-08-19T13:44:27Z</time>
      </trkpt>
      <trkpt lat="60.321167" lon="24.970453">
        <ele>0.0</ele>
        <time>2026-08-19T13:44:27Z</time>
      </trkpt>
      <trkpt lat="60.321472" lon="24.970133">
        <ele>0.0</ele>
        <time>2026-08-19T13:44:27Z</time>
      </trkpt>
      <trkpt lat="60.321739" lon="24.969864">
        <ele>0.0</ele>
        <time>2026-08-19T13:44:27Z</time>
      </trkpt>
      <trkpt lat="60.322002" lon="24.96958">
        <ele>0.0</ele>
        <time>2026-08-19T13:44:27Z</time>
      </trkpt>
      <trkpt lat="60.322205" lon="24.969374">
        <ele>0.0</ele>
        <time>2026-08-19T13:44:27Z</time>
      </trkpt>
      <trkpt lat="60.322414" lon="24.969154">
        <ele>0.0</ele>
        <time>2026-08-19T13:44:27Z</time>
      </trkpt>
      <trkpt lat="60.32262" lon="24.968941">
        <ele>0.0</ele>
        <time>2026-08-19T13:44:27Z</time>
      </trkpt>
      <trkpt lat="60.322857" lon="24.968712">
        <ele>0.0</ele>
        <time>2026-08-19T13:44:27Z</time>
      </trkpt>
      <trkpt lat="60.32309" lon="24.96854">
        <ele>0.0</ele>
        <time>2026-08-19T13:44:27Z</time>
      </trkpt>
      <trkpt lat="60.323341" lon="24.968657">
        <ele>0.0</ele>
        <time>2026-08-19T13:44:27Z</time>
      </trkpt>
      <trkpt lat="60.323502" lon="24.968916">
        <ele>0.0</ele>
        <time>2026-08-19T13:44:27Z</time>
      </trkpt>
      <trkpt lat="60.323605" lon="24.96913">
        <ele>0.0</ele>
        <time>2026-08-19T13:44:27Z</time>
      </trkpt>
      <trkpt lat="60.323704" lon="24.969374">
        <ele>0.0</ele>
        <time>2026-08-19T13:44:27Z</time>
      </trkpt>
      <trkpt lat="60.324032" lon="24.97011">
        <ele>0.0</ele>
        <time>2026-08-19T13:44:27Z</time>
      </trkpt>
      <trkpt lat="60.324089" lon="24.970354">
        <ele>0.0</ele>
        <time>2026-08-19T13:44:27Z</time>
      </trkpt>
      <trkpt lat="60.324097" lon="24.970598">
        <ele>0.0</ele>
        <time>2026-08-19T13:44:27Z</time>
      </trkpt>
      <trkpt lat="60.324009" lon="24.970919">
        <ele>0.0</ele>
        <time>2026-08-19T13:44:27Z</time>
      </trkpt>
      <trkpt lat="60.323776" lon="24.971163">
        <ele>0.0</ele>
        <time>2026-08-19T13:44:27Z</time>
      </trkpt>
      <trkpt lat="60.323547" lon="24.971403">
        <ele>0.0</ele>
        <time>2026-08-19T13:44:27Z</time>
      </trkpt>
      <trkpt lat="60.323006" lon="24.971949">
        <ele>0.0</ele>
        <time>2026-08-19T13:44:27Z</time>
      </trkpt>
      <trkpt lat="60.322796" lon="24.97217">
        <ele>0.0</ele>
        <time>2026-08-19T13:44:27Z</time>
      </trkpt>
      <trkpt lat="60.322426" lon="24.972563">
        <ele>0.0</ele>
        <time>2026-08-19T13:44:27Z</time>
      </trkpt>
      <trkpt lat="60.32214" lon="24.972847">
        <ele>0.0</ele>
        <time>2026-08-19T13:44:27Z</time>
      </trkpt>
      <trkpt lat="60.321842" lon="24.97315">
        <ele>0.0</ele>
        <time>2026-08-19T13:44:27Z</time>
      </trkpt>
      <trkpt lat="60.321522" lon="24.973486">
        <ele>0.0</ele>
        <time>2026-08-19T13:44:27Z</time>
      </trkpt>
      <trkpt lat="60.320866" lon="24.974155">
        <ele>0.0</ele>
        <time>2026-08-19T13:44:27Z</time>
      </trkpt>
      <trkpt lat="60.32048" lon="24.974552">
        <ele>0.0</ele>
        <time>2026-08-19T13:44:27Z</time>
      </trkpt>
      <trkpt lat="60.320084" lon="24.974964">
        <ele>0.0</ele>
        <time>2026-08-19T13:44:27Z</time>
      </trkpt>
      <trkpt lat="60.319702" lon="24.975334">
        <ele>0.0</ele>
        <time>2026-08-19T13:44:27Z</time>
      </trkpt>
      <trkpt lat="60.318695" lon="24.976376">
        <ele>160.02</ele>
        <time>2026-08-19T13:44:27Z</time>
      </trkpt>
      <trkpt lat="60.31778" lon="24.97732">
        <ele>167.64000000000001</ele>
        <time>2026-08-19T13:44:27Z</time>
      </trkpt>
      <trkpt lat="60.316525" lon="24.978594">
        <ele>167.64000000000001</ele>
        <time>2026-08-19T13:44:27Z</time>
      </trkpt>
      <trkpt lat="60.315536" lon="24.979691">
        <ele>167.64000000000001</ele>
        <time>2026-08-19T13:44:27Z</time>
      </trkpt>
      <trkpt lat="60.314198" lon="24.981047">
        <ele>175.26000000000002</ele>
        <time>2026-08-19T13:44:27Z</time>
      </trkpt>
      <trkpt lat="60.313313" lon="24.98193">
        <ele>182.88</ele>
        <time>2026-08-19T13:44:27Z</time>
      </trkpt>
      <trkpt lat="60.311966" lon="24.983383">
        <ele>213.36</ele>
        <time>2026-08-19T13:44:27Z</time>
      </trkpt>
      <trkpt lat="60.31094" lon="24.984577">
        <ele>228.60000000000002</ele>
        <time>2026-08-19T13:44:27Z</time>
      </trkpt>
      <trkpt lat="60.309906" lon="24.985752">
        <ele>251.46</ele>
        <time>2026-08-19T13:44:27Z</time>
      </trkpt>
      <trkpt lat="60.308891" lon="24.986933">
        <ele>266.7</ele>
        <time>2026-08-19T13:44:27Z</time>
      </trkpt>
      <trkpt lat="60.307678" lon="24.988403">
        <ele>289.56</ele>
        <time>2026-08-19T13:44:27Z</time>
      </trkpt>
      <trkpt lat="60.306564" lon="24.989729">
        <ele>312.42</ele>
        <time>2026-08-19T13:44:27Z</time>
      </trkpt>
      <trkpt lat="60.305305" lon="24.991247">
        <ele>327.66</ele>
        <time>2026-08-19T13:44:27Z</time>
      </trkpt>
      <trkpt lat="60.304276" lon="24.992571">
        <ele>350.52000000000004</ele>
        <time>2026-08-19T13:44:27Z</time>
      </trkpt>
      <trkpt lat="60.303223" lon="24.993896">
        <ele>381.0</ele>
        <time>2026-08-19T13:44:27Z</time>
      </trkpt>
      <trkpt lat="60.30135" lon="24.99625">
        <ele>411.48</ele>
        <time>2026-08-19T13:44:27Z</time>
      </trkpt>
      <trkpt lat="60.300018" lon="24.998064">
        <ele>426.72</ele>
        <time>2026-08-19T13:44:27Z</time>
      </trkpt>
      <trkpt lat="60.29892" lon="24.999485">
        <ele>441.96000000000004</ele>
        <time>2026-08-19T13:44:27Z</time>
      </trkpt>
      <trkpt lat="60.297905" lon="25.00086">
        <ele>449.58000000000004</ele>
        <time>2026-08-19T13:44:27Z</time>
      </trkpt>
      <trkpt lat="60.296787" lon="25.002333">
        <ele>457.20000000000005</ele>
        <time>2026-08-19T13:44:27Z</time>
      </trkpt>
      <trkpt lat="60.295761" lon="25.003706">
        <ele>472.44</ele>
        <time>2026-08-19T13:44:27Z</time>
      </trkpt>
      <trkpt lat="60.292007" lon="25.008577">
        <ele>495.3</ele>
        <time>2026-08-19T13:44:27Z</time>
      </trkpt>
      <trkpt lat="60.291061" lon="25.009787">
        <ele>502.92</ele>
        <time>2026-08-19T13:44:27Z</time>
      </trkpt>
      <trkpt lat="60.289536" lon="25.011702">
        <ele>502.92</ele>
        <time>2026-08-19T13:44:27Z</time>
      </trkpt>
      <trkpt lat="60.285645" lon="25.016438">
        <ele>518.1600000000001</ele>
        <time>2026-08-19T13:44:27Z</time>
      </trkpt>
      <trkpt lat="60.281113" lon="25.021835">
        <ele>525.78</ele>
        <time>2026-08-19T13:44:27Z</time>
      </trkpt>
      <trkpt lat="60.278118" lon="25.025679">
        <ele>533.4</ele>
        <time>2026-08-19T13:44:27Z</time>
      </trkpt>
      <trkpt lat="60.276722" lon="25.027445">
        <ele>541.02</ele>
        <time>2026-08-19T13:44:27Z</time>
      </trkpt>
      <trkpt lat="60.275162" lon="25.029318">
        <ele>548.64</ele>
        <time>2026-08-19T13:44:27Z</time>
      </trkpt>
      <trkpt lat="60.270401" lon="25.035379">
        <ele>594.36</ele>
        <time>2026-08-19T13:44:27Z</time>
      </trkpt>
      <trkpt lat="60.264248" lon="25.043041">
        <ele>678.1800000000001</ele>
        <time>2026-08-19T13:44:27Z</time>
      </trkpt>
      <trkpt lat="60.25959" lon="25.049025">
        <ele>746.76</ele>
        <time>2026-08-19T13:44:27Z</time>
      </trkpt>
      <trkpt lat="60.253464" lon="25.057447">
        <ele>830.58</ele>
        <time>2026-08-19T13:44:27Z</time>
      </trkpt>
      <trkpt lat="60.247513" lon="25.065592">
        <ele>868.6800000000001</ele>
        <time>2026-08-19T13:44:27Z</time>
      </trkpt>
      <trkpt lat="60.246048" lon="25.067297">
        <ele>876.3000000000001</ele>
        <time>2026-08-19T13:44:27Z</time>
      </trkpt>
      <trkpt lat="60.244087" lon="25.069231">
        <ele>899.1600000000001</ele>
        <time>2026-08-19T13:44:27Z</time>
      </trkpt>
      <trkpt lat="60.242226" lon="25.070604">
        <ele>914.4000000000001</ele>
        <time>2026-08-19T13:44:27Z</time>
      </trkpt>
      <trkpt lat="60.240459" lon="25.071585">
        <ele>929.6400000000001</ele>
        <time>2026-08-19T13:44:27Z</time>
      </trkpt>
      <trkpt lat="60.238861" lon="25.072315">
        <ele>952.5</ele>
        <time>2026-08-19T13:44:27Z</time>
      </trkpt>
      <trkpt lat="60.236801" lon="25.073074">
        <ele>975.36</ele>
        <time>2026-08-19T13:44:27Z</time>
      </trkpt>
      <trkpt lat="60.235474" lon="25.073547">
        <ele>982.98</ele>
        <time>2026-08-19T13:44:27Z</time>
      </trkpt>
      <trkpt lat="60.233368" lon="25.074211">
        <ele>998.22</ele>
        <time>2026-08-19T13:44:27Z</time>
      </trkpt>
      <trkpt lat="60.231754" lon="25.074627">
        <ele>1005.84</ele>
        <time>2026-08-19T13:44:27Z</time>
      </trkpt>
      <trkpt lat="60.22966" lon="25.075062">
        <ele>1021.08</ele>
        <time>2026-08-19T13:44:27Z</time>
      </trkpt>
      <trkpt lat="60.22784" lon="25.075411">
        <ele>1043.94</ele>
        <time>2026-08-19T13:44:27Z</time>
      </trkpt>
      <trkpt lat="60.226261" lon="25.075607">
        <ele>1059.18</ele>
        <time>2026-08-19T13:44:27Z</time>
      </trkpt>
      <trkpt lat="60.22467" lon="25.075821">
        <ele>1082.04</ele>
        <time>2026-08-19T13:44:27Z</time>
      </trkpt>
      <trkpt lat="60.223049" lon="25.076">
        <ele>1104.9</ele>
        <time>2026-08-19T13:44:27Z</time>
      </trkpt>
      <trkpt lat="60.220963" lon="25.076199">
        <ele>1120.14</ele>
        <time>2026-08-19T13:44:27Z</time>
      </trkpt>
      <trkpt lat="60.219131" lon="25.076389">
        <ele>1143.0</ele>
        <time>2026-08-19T13:44:27Z</time>
      </trkpt>
      <trkpt lat="60.217369" lon="25.07649">
        <ele>1150.6200000000001</ele>
        <time>2026-08-19T13:44:27Z</time>
      </trkpt>
      <trkpt lat="60.215744" lon="25.076674">
        <ele>1165.8600000000001</ele>
        <time>2026-08-19T13:44:27Z</time>
      </trkpt>
      <trkpt lat="60.214016" lon="25.076784">
        <ele>1181.1000000000001</ele>
        <time>2026-08-19T13:44:27Z</time>
      </trkpt>
      <trkpt lat="60.212246" lon="25.076883">
        <ele>1196.3400000000001</ele>
        <time>2026-08-19T13:44:27Z</time>
      </trkpt>
      <trkpt lat="60.210342" lon="25.077051">
        <ele>1211.5800000000002</ele>
        <time>2026-08-19T13:44:27Z</time>
      </trkpt>
      <trkpt lat="60.208614" lon="25.077177">
        <ele>1226.8200000000002</ele>
        <time>2026-08-19T13:44:27Z</time>
      </trkpt>
      <trkpt lat="60.20636" lon="25.077335">
        <ele>1234.44</ele>
        <time>2026-08-19T13:44:27Z</time>
      </trkpt>
      <trkpt lat="60.204704" lon="25.077471">
        <ele>1242.0600000000002</ele>
        <time>2026-08-19T13:44:27Z</time>
      </trkpt>
      <trkpt lat="60.197163" lon="25.07806">
        <ele>1234.44</ele>
        <time>2026-08-19T13:44:27Z</time>
      </trkpt>
      <trkpt lat="60.191532" lon="25.078747">
        <ele>1234.44</ele>
        <time>2026-08-19T13:44:27Z</time>
      </trkpt>
      <trkpt lat="60.182873" lon="25.08012">
        <ele>1242.0600000000002</ele>
        <time>2026-08-19T13:44:27Z</time>
      </trkpt>
      <trkpt lat="60.174541" lon="25.08169">
        <ele>1280.16</ele>
        <time>2026-08-19T13:44:27Z</time>
      </trkpt>
      <trkpt lat="60.168118" lon="25.08316">
        <ele>1325.88</ele>
        <time>2026-08-19T13:44:27Z</time>
      </trkpt>
      <trkpt lat="60.15955" lon="25.08522">
        <ele>1379.22</ele>
        <time>2026-08-19T13:44:27Z</time>
      </trkpt>
      <trkpt lat="60.153076" lon="25.086807">
        <ele>1417.3200000000002</ele>
        <time>2026-08-19T13:44:27Z</time>
      </trkpt>
      <trkpt lat="60.144421" lon="25.088947">
        <ele>1447.8000000000002</ele>
        <time>2026-08-19T13:44:27Z</time>
      </trkpt>
      <trkpt lat="60.13739" lon="25.090811">
        <ele>1478.28</ele>
        <time>2026-08-19T13:44:27Z</time>
      </trkpt>
      <trkpt lat="60.128826" lon="25.09297">
        <ele>1531.6200000000001</ele>
        <time>2026-08-19T13:44:27Z</time>
      </trkpt>
      <trkpt lat="60.115185" lon="25.0965">
        <ele>1592.5800000000002</ele>
        <time>2026-08-19T13:44:27Z</time>
      </trkpt>
      <trkpt lat="60.101761" lon="25.099972">
        <ele>1668.78</ele>
        <time>2026-08-19T13:44:27Z</time>
      </trkpt>
      <trkpt lat="60.088558" lon="25.10327">
        <ele>1760.22</ele>
        <time>2026-08-19T13:44:27Z</time>
      </trkpt>
      <trkpt lat="60.075291" lon="25.106604">
        <ele>1828.8000000000002</ele>
        <time>2026-08-19T13:44:27Z</time>
      </trkpt>
      <trkpt lat="60.06179" lon="25.110037">
        <ele>1912.6200000000001</ele>
        <time>2026-08-19T13:44:27Z</time>
      </trkpt>
      <trkpt lat="60.047516" lon="25.113514">
        <ele>1973.5800000000002</ele>
        <time>2026-08-19T13:44:27Z</time>
      </trkpt>
      <trkpt lat="60.033718" lon="25.116903">
        <ele>2049.78</ele>
        <time>2026-08-19T13:44:27Z</time>
      </trkpt>
      <trkpt lat="60.020451" lon="25.120043">
        <ele>2110.7400000000002</ele>
        <time>2026-08-19T13:44:27Z</time>
      </trkpt>
      <trkpt lat="60.004669" lon="25.12377">
        <ele>2148.84</ele>
        <time>2026-08-19T13:44:27Z</time>
      </trkpt>
      <trkpt lat="59.991077" lon="25.127106">
        <ele>2164.08</ele>
        <time>2026-08-19T13:44:27Z</time>
      </trkpt>
      <trkpt lat="59.977936" lon="25.130468">
        <ele>2217.42</ele>
        <time>2026-08-19T13:44:27Z</time>
      </trkpt>
      <trkpt lat="59.963928" lon="25.133972">
        <ele>2278.38</ele>
        <time>2026-08-19T13:44:27Z</time>
      </trkpt>
      <trkpt lat="59.949738" lon="25.13615">
        <ele>2324.1</ele>
        <time>2026-08-19T13:44:27Z</time>
      </trkpt>
      <trkpt lat="59.932934" lon="25.137192">
        <ele>2369.82</ele>
        <time>2026-08-19T13:44:27Z</time>
      </trkpt>
      <trkpt lat="59.916176" lon="25.137667">
        <ele>2423.1600000000003</ele>
        <time>2026-08-19T13:44:27Z</time>
      </trkpt>
      <trkpt lat="59.899979" lon="25.138092">
        <ele>2468.88</ele>
        <time>2026-08-19T13:44:27Z</time>
      </trkpt>
      <trkpt lat="59.883636" lon="25.13855">
        <ele>2529.84</ele>
        <time>2026-08-19T13:44:27Z</time>
      </trkpt>
      <trkpt lat="59.869171" lon="25.139191">
        <ele>2575.56</ele>
        <time>2026-08-19T13:44:27Z</time>
      </trkpt>
      <trkpt lat="59.854401" lon="25.139938">
        <ele>2628.9</ele>
        <time>2026-08-19T13:44:27Z</time>
      </trkpt>
      <trkpt lat="59.840195" lon="25.140747">
        <ele>2697.48</ele>
        <time>2026-08-19T13:44:27Z</time>
      </trkpt>
      <trkpt lat="59.826462" lon="25.141571">
        <ele>2743.2000000000003</ele>
        <time>2026-08-19T13:44:27Z</time>
      </trkpt>
      <trkpt lat="59.81213" lon="25.142307">
        <ele>2750.82</ele>
        <time>2026-08-19T13:44:27Z</time>
      </trkpt>
      <trkpt lat="59.795013" lon="25.143127">
        <ele>2750.82</ele>
        <time>2026-08-19T13:44:27Z</time>
      </trkpt>
      <trkpt lat="59.780102" lon="25.143822">
        <ele>2750.82</ele>
        <time>2026-08-19T13:44:27Z</time>
      </trkpt>
      <trkpt lat="59.764835" lon="25.143726">
        <ele>2750.82</ele>
        <time>2026-08-19T13:44:27Z</time>
      </trkpt>
      <trkpt lat="59.749611" lon="25.141171">
        <ele>2720.34</ele>
        <time>2026-08-19T13:44:27Z</time>
      </trkpt>
      <trkpt lat="59.734249" lon="25.137287">
        <ele>2651.76</ele>
        <time>2026-08-19T13:44:27Z</time>
      </trkpt>
      <trkpt lat="59.716324" lon="25.132507">
        <ele>2583.1800000000003</ele>
        <time>2026-08-19T13:44:27Z</time>
      </trkpt>
      <trkpt lat="59.700127" lon="25.12829">
        <ele>2514.6</ele>
        <time>2026-08-19T13:44:27Z</time>
      </trkpt>
      <trkpt lat="59.684532" lon="25.124407">
        <ele>2453.6400000000003</ele>
        <time>2026-08-19T13:44:27Z</time>
      </trkpt>
      <trkpt lat="59.669128" lon="25.120972">
        <ele>2385.06</ele>
        <time>2026-08-19T13:44:27Z</time>
      </trkpt>
      <trkpt lat="59.653976" lon="25.117859">
        <ele>2324.1</ele>
        <time>2026-08-19T13:44:27Z</time>
      </trkpt>
      <trkpt lat="59.637745" lon="25.114178">
        <ele>2247.9</ele>
        <time>2026-08-19T13:44:27Z</time>
      </trkpt>
      <trkpt lat="59.620285" lon="25.109344">
        <ele>2148.84</ele>
        <time>2026-08-19T13:44:27Z</time>
      </trkpt>
      <trkpt lat="59.605225" lon="25.104858">
        <ele>2042.16</ele>
        <time>2026-08-19T13:44:27Z</time>
      </trkpt>
      <trkpt lat="59.589661" lon="25.099731">
        <ele>1897.38</ele>
        <time>2026-08-19T13:44:27Z</time>
      </trkpt>
      <trkpt lat="59.572632" lon="25.092957">
        <ele>1714.5</ele>
        <time>2026-08-19T13:44:27Z</time>
      </trkpt>
      <trkpt lat="59.558075" lon="25.086182">
        <ele>1554.48</ele>
        <time>2026-08-19T13:44:27Z</time>
      </trkpt>
      <trkpt lat="59.543571" lon="25.078661">
        <ele>1424.94</ele>
        <time>2026-08-19T13:44:27Z</time>
      </trkpt>
      <trkpt lat="59.533997" lon="25.073181">
        <ele>1325.88</ele>
        <time>2026-08-19T13:44:27Z</time>
      </trkpt>
      <trkpt lat="59.526718" lon="25.068695">
        <ele>1257.3</ele>
        <time>2026-08-19T13:44:27Z</time>
      </trkpt>
      <trkpt lat="59.517548" lon="25.06275">
        <ele>1181.1000000000001</ele>
        <time>2026-08-19T13:44:27Z</time>
      </trkpt>
      <trkpt lat="59.510376" lon="25.057983">
        <ele>1127.76</ele>
        <time>2026-08-19T13:44:27Z</time>
      </trkpt>
      <trkpt lat="59.501629" lon="25.052238">
        <ele>1059.18</ele>
        <time>2026-08-19T13:44:27Z</time>
      </trkpt>
      <trkpt lat="59.493896" lon="25.047363">
        <ele>1013.46</ele>
        <time>2026-08-19T13:44:27Z</time>
      </trkpt>
      <trkpt lat="59.485428" lon="25.041962">
        <ele>952.5</ele>
        <time>2026-08-19T13:44:27Z</time>
      </trkpt>
      <trkpt lat="59.477509" lon="25.036652">
        <ele>899.1600000000001</ele>
        <time>2026-08-19T13:44:27Z</time>
      </trkpt>
      <trkpt lat="59.469223" lon="25.031067">
        <ele>853.44</ele>
        <time>2026-08-19T13:44:27Z</time>
      </trkpt>
      <trkpt lat="59.463921" lon="25.027519">
        <ele>800.1</ele>
        <time>2026-08-19T13:44:27Z</time>
      </trkpt>
      <trkpt lat="59.455765" lon="25.022186">
        <ele>746.76</ele>
        <time>2026-08-19T13:44:27Z</time>
      </trkpt>
      <trkpt lat="59.450653" lon="25.019089">
        <ele>731.52</ele>
        <time>2026-08-19T13:44:27Z</time>
      </trkpt>
      <trkpt lat="59.443668" lon="25.014828">
        <ele>701.0400000000001</ele>
        <time>2026-08-19T13:44:27Z</time>
      </trkpt>
      <trkpt lat="59.437042" lon="25.011017">
        <ele>678.1800000000001</ele>
        <time>2026-08-19T13:44:27Z</time>
      </trkpt>
      <trkpt lat="59.432732" lon="25.008671">
        <ele>685.8000000000001</ele>
        <time>2026-08-19T13:44:27Z</time>
      </trkpt>
      <trkpt lat="59.428116" lon="25.005798">
        <ele>670.5600000000001</ele>
        <time>2026-08-19T13:44:27Z</time>
      </trkpt>
      <trkpt lat="59.426926" lon="25.0047">
        <ele>655.32</ele>
        <time>2026-08-19T13:44:27Z</time>
      </trkpt>
      <trkpt lat="59.425747" lon="25.003462">
        <ele>640.08</ele>
        <time>2026-08-19T13:44:27Z</time>
      </trkpt>
      <trkpt lat="59.424583" lon="25.002136">
        <ele>624.84</ele>
        <time>2026-08-19T13:44:27Z</time>
      </trkpt>
      <trkpt lat="59.423512" lon="25.000622">
        <ele>609.6</ele>
        <time>2026-08-19T13:44:27Z</time>
      </trkpt>
      <trkpt lat="59.422161" lon="24.998537">
        <ele>586.74</ele>
        <time>2026-08-19T13:44:27Z</time>
      </trkpt>
      <trkpt lat="59.421204" lon="24.996826">
        <ele>571.5</ele>
        <time>2026-08-19T13:44:27Z</time>
      </trkpt>
      <trkpt lat="59.4203" lon="24.995033">
        <ele>548.64</ele>
        <time>2026-08-19T13:44:27Z</time>
      </trkpt>
      <trkpt lat="59.419327" lon="24.992523">
        <ele>525.78</ele>
        <time>2026-08-19T13:44:27Z</time>
      </trkpt>
      <trkpt lat="59.418732" lon="24.990875">
        <ele>518.1600000000001</ele>
        <time>2026-08-19T13:44:27Z</time>
      </trkpt>
      <trkpt lat="59.417973" lon="24.988214">
        <ele>510.54</ele>
        <time>2026-08-19T13:44:27Z</time>
      </trkpt>
      <trkpt lat="59.41745" lon="24.986115">
        <ele>502.92</ele>
        <time>2026-08-19T13:44:27Z</time>
      </trkpt>
      <trkpt lat="59.417042" lon="24.983952">
        <ele>495.3</ele>
        <time>2026-08-19T13:44:27Z</time>
      </trkpt>
      <trkpt lat="59.416622" lon="24.981773">
        <ele>480.06</ele>
        <time>2026-08-19T13:44:27Z</time>
      </trkpt>
      <trkpt lat="59.416214" lon="24.97934">
        <ele>472.44</ele>
        <time>2026-08-19T13:44:27Z</time>
      </trkpt>
      <trkpt lat="59.415878" lon="24.977133">
        <ele>464.82000000000005</ele>
        <time>2026-08-19T13:44:27Z</time>
      </trkpt>
      <trkpt lat="59.415619" lon="24.975037">
        <ele>457.20000000000005</ele>
        <time>2026-08-19T13:44:27Z</time>
      </trkpt>
      <trkpt lat="59.415318" lon="24.972492">
        <ele>449.58000000000004</ele>
        <time>2026-08-19T13:44:27Z</time>
      </trkpt>
      <trkpt lat="59.415085" lon="24.970787">
        <ele>441.96000000000004</ele>
        <time>2026-08-19T13:44:27Z</time>
      </trkpt>
      <trkpt lat="59.414886" lon="24.968536">
        <ele>434.34000000000003</ele>
        <time>2026-08-19T13:44:27Z</time>
      </trkpt>
      <trkpt lat="59.414669" lon="24.966431">
        <ele>426.72</ele>
        <time>2026-08-19T13:44:27Z</time>
      </trkpt>
      <trkpt lat="59.414436" lon="24.964348">
        <ele>419.1</ele>
        <time>2026-08-19T13:44:27Z</time>
      </trkpt>
      <trkpt lat="59.414246" lon="24.962128">
        <ele>419.1</ele>
        <time>2026-08-19T13:44:27Z</time>
      </trkpt>
      <trkpt lat="59.414062" lon="24.960205">
        <ele>411.48</ele>
        <time>2026-08-19T13:44:27Z</time>
      </trkpt>
      <trkpt lat="59.413876" lon="24.958191">
        <ele>411.48</ele>
        <time>2026-08-19T13:44:27Z</time>
      </trkpt>
      <trkpt lat="59.413643" lon="24.955633">
        <ele>403.86</ele>
        <time>2026-08-19T13:44:27Z</time>
      </trkpt>
      <trkpt lat="59.413559" lon="24.953796">
        <ele>403.86</ele>
        <time>2026-08-19T13:44:27Z</time>
      </trkpt>
      <trkpt lat="59.413456" lon="24.951845">
        <ele>403.86</ele>
        <time>2026-08-19T13:44:27Z</time>
      </trkpt>
      <trkpt lat="59.413364" lon="24.949194">
        <ele>396.24</ele>
        <time>2026-08-19T13:44:27Z</time>
      </trkpt>
      <trkpt lat="59.413273" lon="24.946447">
        <ele>388.62</ele>
        <time>2026-08-19T13:44:27Z</time>
      </trkpt>
      <trkpt lat="59.413177" lon="24.944363">
        <ele>388.62</ele>
        <time>2026-08-19T13:44:27Z</time>
      </trkpt>
      <trkpt lat="59.413101" lon="24.942169">
        <ele>381.0</ele>
        <time>2026-08-19T13:44:27Z</time>
      </trkpt>
      <trkpt lat="59.41301" lon="24.939697">
        <ele>373.38</ele>
        <time>2026-08-19T13:44:27Z</time>
      </trkpt>
      <trkpt lat="59.412964" lon="24.937683">
        <ele>373.38</ele>
        <time>2026-08-19T13:44:27Z</time>
      </trkpt>
      <trkpt lat="59.412899" lon="24.935461">
        <ele>365.76</ele>
        <time>2026-08-19T13:44:27Z</time>
      </trkpt>
      <trkpt lat="59.412899" lon="24.933187">
        <ele>358.14000000000004</ele>
        <time>2026-08-19T13:44:27Z</time>
      </trkpt>
      <trkpt lat="59.412853" lon="24.930725">
        <ele>358.14000000000004</ele>
        <time>2026-08-19T13:44:27Z</time>
      </trkpt>
      <trkpt lat="59.412853" lon="24.928547">
        <ele>350.52000000000004</ele>
        <time>2026-08-19T13:44:27Z</time>
      </trkpt>
      <trkpt lat="59.412872" lon="24.926697">
        <ele>342.90000000000003</ele>
        <time>2026-08-19T13:44:27Z</time>
      </trkpt>
      <trkpt lat="59.412899" lon="24.924">
        <ele>335.28000000000003</ele>
        <time>2026-08-19T13:44:27Z</time>
      </trkpt>
      <trkpt lat="59.412899" lon="24.921822">
        <ele>327.66</ele>
        <time>2026-08-19T13:44:27Z</time>
      </trkpt>
      <trkpt lat="59.412918" lon="24.919647">
        <ele>320.04</ele>
        <time>2026-08-19T13:44:27Z</time>
      </trkpt>
      <trkpt lat="59.412918" lon="24.917358">
        <ele>312.42</ele>
        <time>2026-08-19T13:44:27Z</time>
      </trkpt>
      <trkpt lat="59.412945" lon="24.915382">
        <ele>304.8</ele>
        <time>2026-08-19T13:44:27Z</time>
      </trkpt>
      <trkpt lat="59.412964" lon="24.913147">
        <ele>289.56</ele>
        <time>2026-08-19T13:44:27Z</time>
      </trkpt>
      <trkpt lat="59.41301" lon="24.908569">
        <ele>274.32</ele>
        <time>2026-08-19T13:44:27Z</time>
      </trkpt>
      <trkpt lat="59.413086" lon="24.900417">
        <ele>259.08000000000004</ele>
        <time>2026-08-19T13:44:27Z</time>
      </trkpt>
      <trkpt lat="59.413086" lon="24.890947">
        <ele>228.60000000000002</ele>
        <time>2026-08-19T13:44:27Z</time>
      </trkpt>
      <trkpt lat="59.413101" lon="24.884216">
        <ele>205.74</ele>
        <time>2026-08-19T13:44:27Z</time>
      </trkpt>
      <trkpt lat="59.413132" lon="24.882044">
        <ele>205.74</ele>
        <time>2026-08-19T13:44:27Z</time>
      </trkpt>
      <trkpt lat="59.413147" lon="24.880096">
        <ele>198.12</ele>
        <time>2026-08-19T13:44:27Z</time>
      </trkpt>
      <trkpt lat="59.413147" lon="24.877625">
        <ele>190.5</ele>
        <time>2026-08-19T13:44:27Z</time>
      </trkpt>
      <trkpt lat="59.413177" lon="24.875605">
        <ele>182.88</ele>
        <time>2026-08-19T13:44:27Z</time>
      </trkpt>
      <trkpt lat="59.413177" lon="24.873426">
        <ele>175.26000000000002</ele>
        <time>2026-08-19T13:44:27Z</time>
      </trkpt>
      <trkpt lat="59.413147" lon="24.87149">
        <ele>175.26000000000002</ele>
        <time>2026-08-19T13:44:27Z</time>
      </trkpt>
      <trkpt lat="59.413177" lon="24.869543">
        <ele>167.64000000000001</ele>
        <time>2026-08-19T13:44:27Z</time>
      </trkpt>
      <trkpt lat="59.413147" lon="24.867554">
        <ele>160.02</ele>
        <time>2026-08-19T13:44:27Z</time>
      </trkpt>
      <trkpt lat="59.413193" lon="24.864899">
        <ele>152.4</ele>
        <time>2026-08-19T13:44:27Z</time>
      </trkpt>
      <trkpt lat="59.413177" lon="24.861492">
        <ele>144.78</ele>
        <time>2026-08-19T13:44:27Z</time>
      </trkpt>
      <trkpt lat="59.413177" lon="24.85903">
        <ele>137.16</ele>
        <time>2026-08-19T13:44:27Z</time>
      </trkpt>
      <trkpt lat="59.413223" lon="24.853821">
        <ele>129.54000000000002</ele>
        <time>2026-08-19T13:44:27Z</time>
      </trkpt>
      <trkpt lat="59.413204" lon="24.850639">
        <ele>0.0</ele>
        <time>2026-08-19T13:44:27Z</time>
      </trkpt>
      <trkpt lat="59.413204" lon="24.849541">
        <ele>0.0</ele>
        <time>2026-08-19T13:44:27Z</time>
      </trkpt>
      <trkpt lat="59.413204" lon="24.849152">
        <ele>0.0</ele>
        <time>2026-08-19T13:44:27Z</time>
      </trkpt>
      <trkpt lat="59.413216" lon="24.847984">
        <ele>0.0</ele>
        <time>2026-08-19T13:44:27Z</time>
      </trkpt>
      <trkpt lat="59.413216" lon="24.846039">
        <ele>0.0</ele>
        <time>2026-08-19T13:44:27Z</time>
      </trkpt>
      <trkpt lat="59.413216" lon="24.845215">
        <ele>0.0</ele>
        <time>2026-08-19T13:44:27Z</time>
      </trkpt>
      <trkpt lat="59.413227" lon="24.843132">
        <ele>0.0</ele>
        <time>2026-08-19T13:44:27Z</time>
      </trkpt>
      <trkpt lat="59.413223" lon="24.842739">
        <ele>0.0</ele>
        <time>2026-08-19T13:44:27Z</time>
      </trkpt>
      <trkpt lat="59.413227" lon="24.840843">
        <ele>0.0</ele>
        <time>2026-08-19T13:44:27Z</time>
      </trkpt>
      <trkpt lat="59.413235" lon="24.838833">
        <ele>0.0</ele>
        <time>2026-08-19T13:44:27Z</time>
      </trkpt>
      <trkpt lat="59.413239" lon="24.838074">
        <ele>0.0</ele>
        <time>2026-08-19T13:44:27Z</time>
      </trkpt>
      <trkpt lat="59.413239" lon="24.837685">
        <ele>0.0</ele>
        <time>2026-08-19T13:44:27Z</time>
      </trkpt>
      <trkpt lat="59.413239" lon="24.837044">
        <ele>0.0</ele>
        <time>2026-08-19T13:44:27Z</time>
      </trkpt>
      <trkpt lat="59.41325" lon="24.83638">
        <ele>0.0</ele>
        <time>2026-08-19T13:44:27Z</time>
      </trkpt>
      <trkpt lat="59.413258" lon="24.831232">
        <ele>0.0</ele>
        <time>2026-08-19T13:44:27Z</time>
      </trkpt>
      <trkpt lat="59.413273" lon="24.827587">
        <ele>0.0</ele>
        <time>2026-08-19T13:44:27Z</time>
      </trkpt>
      <trkpt lat="59.413284" lon="24.827303">
        <ele>0.0</ele>
        <time>2026-08-19T13:44:27Z</time>
      </trkpt>
      <trkpt lat="59.413284" lon="24.826469">
        <ele>0.0</ele>
        <time>2026-08-19T13:44:27Z</time>
      </trkpt>
      <trkpt lat="59.413284" lon="24.825527">
        <ele>0.0</ele>
        <time>2026-08-19T13:44:27Z</time>
      </trkpt>
      <trkpt lat="59.413284" lon="24.824675">
        <ele>0.0</ele>
        <time>2026-08-19T13:44:27Z</time>
      </trkpt>
      <trkpt lat="59.413284" lon="24.823774">
        <ele>0.0</ele>
        <time>2026-08-19T13:44:27Z</time>
      </trkpt>
      <trkpt lat="59.413284" lon="24.823288">
        <ele>0.0</ele>
        <time>2026-08-19T13:44:27Z</time>
      </trkpt>
      <trkpt lat="59.413284" lon="24.822472">
        <ele>0.0</ele>
        <time>2026-08-19T13:44:27Z</time>
      </trkpt>
      <trkpt lat="59.413284" lon="24.821938">
        <ele>0.0</ele>
        <time>2026-08-19T13:44:27Z</time>
      </trkpt>
      <trkpt lat="59.413284" lon="24.82143">
        <ele>0.0</ele>
        <time>2026-08-19T13:44:27Z</time>
      </trkpt>
      <trkpt lat="59.413284" lon="24.820885">
        <ele>0.0</ele>
        <time>2026-08-19T13:44:27Z</time>
      </trkpt>
      <trkpt lat="59.413284" lon="24.819992">
        <ele>0.0</ele>
        <time>2026-08-19T13:44:27Z</time>
      </trkpt>
      <trkpt lat="59.413284" lon="24.819418">
        <ele>0.0</ele>
        <time>2026-08-19T13:44:27Z</time>
      </trkpt>
      <trkpt lat="59.413284" lon="24.818962">
        <ele>0.0</ele>
        <time>2026-08-19T13:44:27Z</time>
      </trkpt>
      <trkpt lat="59.413284" lon="24.817524">
        <ele>0.0</ele>
        <time>2026-08-19T13:44:27Z</time>
      </trkpt>
      <trkpt lat="59.413296" lon="24.815866">
        <ele>0.0</ele>
        <time>2026-08-19T13:44:27Z</time>
      </trkpt>
      <trkpt lat="59.413296" lon="24.814634">
        <ele>0.0</ele>
        <time>2026-08-19T13:44:27Z</time>
      </trkpt>
      <trkpt lat="59.413296" lon="24.811867">
        <ele>0.0</ele>
        <time>2026-08-19T13:44:27Z</time>
      </trkpt>
      <trkpt lat="59.413319" lon="24.809473">
        <ele>0.0</ele>
        <time>2026-08-19T13:44:27Z</time>
      </trkpt>
      <trkpt lat="59.413364" lon="24.807531">
        <ele>0.0</ele>
        <time>2026-08-19T13:44:27Z</time>
      </trkpt>
      <trkpt lat="59.413399" lon="24.807224">
        <ele>0.0</ele>
        <time>2026-08-19T13:44:27Z</time>
      </trkpt>
      <trkpt lat="59.413445" lon="24.80694">
        <ele>0.0</ele>
        <time>2026-08-19T13:44:27Z</time>
      </trkpt>
      <trkpt lat="59.413631" lon="24.806301">
        <ele>0.0</ele>
        <time>2026-08-19T13:44:27Z</time>
      </trkpt>
      <trkpt lat="59.413784" lon="24.805969">
        <ele>0.0</ele>
        <time>2026-08-19T13:44:27Z</time>
      </trkpt>
      <trkpt lat="59.413933" lon="24.80566">
        <ele>0.0</ele>
        <time>2026-08-19T13:44:27Z</time>
      </trkpt>
      <trkpt lat="59.414074" lon="24.805424">
        <ele>0.0</ele>
        <time>2026-08-19T13:44:27Z</time>
      </trkpt>
      <trkpt lat="59.414215" lon="24.805164">
        <ele>0.0</ele>
        <time>2026-08-19T13:44:27Z</time>
      </trkpt>
      <trkpt lat="59.414394" lon="24.804932">
        <ele>0.0</ele>
        <time>2026-08-19T13:44:27Z</time>
      </trkpt>
      <trkpt lat="59.414646" lon="24.80484">
        <ele>0.0</ele>
        <time>2026-08-19T13:44:27Z</time>
      </trkpt>
      <trkpt lat="59.414913" lon="24.804928">
        <ele>0.0</ele>
        <time>2026-08-19T13:44:27Z</time>
      </trkpt>
      <trkpt lat="59.415367" lon="24.805092">
        <ele>0.0</ele>
        <time>2026-08-19T13:44:27Z</time>
      </trkpt>
      <trkpt lat="59.415588" lon="24.80514">
        <ele>0.0</ele>
        <time>2026-08-19T13:44:27Z</time>
      </trkpt>
      <trkpt lat="59.415825" lon="24.805161">
        <ele>0.0</ele>
        <time>2026-08-19T13:44:27Z</time>
      </trkpt>
      <trkpt lat="59.4161" lon="24.805164">
        <ele>0.0</ele>
        <time>2026-08-19T13:44:27Z</time>
      </trkpt>
      <trkpt lat="59.416485" lon="24.805164">
        <ele>0.0</ele>
        <time>2026-08-19T13:44:27Z</time>
      </trkpt>
      <trkpt lat="59.41674" lon="24.80514">
        <ele>0.0</ele>
        <time>2026-08-19T13:44:27Z</time>
      </trkpt>
      <trkpt lat="59.417007" lon="24.804951">
        <ele>0.0</ele>
        <time>2026-08-19T13:44:27Z</time>
      </trkpt>
      <trkpt lat="59.417194" lon="24.804714">
        <ele>0.0</ele>
        <time>2026-08-19T13:44:27Z</time>
      </trkpt>
      <trkpt lat="59.417297" lon="24.804453">
        <ele>0.0</ele>
        <time>2026-08-19T13:44:27Z</time>
      </trkpt>
      <trkpt lat="59.417336" lon="24.804176">
        <ele>0.0</ele>
        <time>2026-08-19T13:44:27Z</time>
      </trkpt>
      <trkpt lat="59.417381" lon="24.803741">
        <ele>0.0</ele>
        <time>2026-08-19T13:44:27Z</time>
      </trkpt>
      <trkpt lat="59.417416" lon="24.803421">
        <ele>0.0</ele>
        <time>2026-08-19T13:44:27Z</time>
      </trkpt>
      <trkpt lat="59.417439" lon="24.803198">
        <ele>0.0</ele>
        <time>2026-08-19T13:44:27Z</time>
      </trkpt>
      <trkpt lat="59.417461" lon="24.802917">
        <ele>0.0</ele>
        <time>2026-08-19T13:44:27Z</time>
      </trkpt>
      <trkpt lat="59.417473" lon="24.802584">
        <ele>0.0</ele>
        <time>2026-08-19T13:44:27Z</time>
      </trkpt>
      <trkpt lat="59.417473" lon="24.802252">
        <ele>0.0</ele>
        <time>2026-08-19T13:44:27Z</time>
      </trkpt>
      <trkpt lat="59.417473" lon="24.802015">
        <ele>0.0</ele>
        <time>2026-08-19T13:44:27Z</time>
      </trkpt>
      <trkpt lat="59.417473" lon="24.801567">
        <ele>0.0</ele>
        <time>2026-08-19T13:44:27Z</time>
      </trkpt>
      <trkpt lat="59.417484" lon="24.801256">
        <ele>0.0</ele>
        <time>2026-08-19T13:44:27Z</time>
      </trkpt>
      <trkpt lat="59.417484" lon="24.80088">
        <ele>0.0</ele>
        <time>2026-08-19T13:44:27Z</time>
      </trkpt>
      <trkpt lat="59.417461" lon="24.800652">
        <ele>0.0</ele>
        <time>2026-08-19T13:44:27Z</time>
      </trkpt>
      <trkpt lat="59.417141" lon="24.800537">
        <ele>0.0</ele>
        <time>2026-08-19T13:44:27Z</time>
      </trkpt>
      <trkpt lat="59.416924" lon="24.800537">
        <ele>0.0</ele>
        <time>2026-08-19T13:44:27Z</time>
      </trkpt>
    </trkseg>
  </trk>
</gpx>