<?xml version="1.0" encoding="UTF-8"?>
<gpx xmlns="http://www.topografix.com/GPX/1/1" xmlns:xsi="http://www.w3.org/2001/XMLSchema-instance" xsi:schemaLocation="http://www.topografix.com/GPX/1/1 http://www.topografix.com/GPX/1/1/gpx.xsd" version="1.1" creator="gpx.py -- https://github.com/tkrajina/gpxpy">
  <metadata>
    <name>AF1643_40d7950f</name>
    <time>2026-07-25T08:40:51Z</time>
  </metadata>
  <trk>
    <name>AF1643_40d7950f</name>
    <cmt>2026-07-25</cmt>
    <type>Plane</type>
    <trkseg>
      <trkpt lat="46.231701" lon="6.108072">
        <ele>0.0</ele>
        <time>2026-07-25T08:40:51Z</time>
      </trkpt>
      <trkpt lat="46.231865" lon="6.107862">
        <ele>0.0</ele>
        <time>2026-07-25T08:40:51Z</time>
      </trkpt>
      <trkpt lat="46.231983" lon="6.107643">
        <ele>0.0</ele>
        <time>2026-07-25T08:40:51Z</time>
      </trkpt>
      <trkpt lat="46.232002" lon="6.107427">
        <ele>0.0</ele>
        <time>2026-07-25T08:40:51Z</time>
      </trkpt>
      <trkpt lat="46.231991" lon="6.107226">
        <ele>0.0</ele>
        <time>2026-07-25T08:40:51Z</time>
      </trkpt>
      <trkpt lat="46.231945" lon="6.107025">
        <ele>0.0</ele>
        <time>2026-07-25T08:40:51Z</time>
      </trkpt>
      <trkpt lat="46.232094" lon="6.107226">
        <ele>0.0</ele>
        <time>2026-07-25T08:40:51Z</time>
      </trkpt>
      <trkpt lat="46.232239" lon="6.107437">
        <ele>0.0</ele>
        <time>2026-07-25T08:40:51Z</time>
      </trkpt>
      <trkpt lat="46.232426" lon="6.107662">
        <ele>0.0</ele>
        <time>2026-07-25T08:40:51Z</time>
      </trkpt>
      <trkpt lat="46.232632" lon="6.107798">
        <ele>0.0</ele>
        <time>2026-07-25T08:40:51Z</time>
      </trkpt>
      <trkpt lat="46.233032" lon="6.107946">
        <ele>0.0</ele>
        <time>2026-07-25T08:40:51Z</time>
      </trkpt>
      <trkpt lat="46.233345" lon="6.108141">
        <ele>0.0</ele>
        <time>2026-07-25T08:40:51Z</time>
      </trkpt>
      <trkpt lat="46.233627" lon="6.108566">
        <ele>0.0</ele>
        <time>2026-07-25T08:40:51Z</time>
      </trkpt>
      <trkpt lat="46.233788" lon="6.108784">
        <ele>0.0</ele>
        <time>2026-07-25T08:40:51Z</time>
      </trkpt>
      <trkpt lat="46.233994" lon="6.109085">
        <ele>0.0</ele>
        <time>2026-07-25T08:40:51Z</time>
      </trkpt>
      <trkpt lat="46.234169" lon="6.109343">
        <ele>0.0</ele>
        <time>2026-07-25T08:40:51Z</time>
      </trkpt>
      <trkpt lat="46.23447" lon="6.109806">
        <ele>0.0</ele>
        <time>2026-07-25T08:40:51Z</time>
      </trkpt>
      <trkpt lat="46.235001" lon="6.110576">
        <ele>0.0</ele>
        <time>2026-07-25T08:40:51Z</time>
      </trkpt>
      <trkpt lat="46.235401" lon="6.111178">
        <ele>0.0</ele>
        <time>2026-07-25T08:40:51Z</time>
      </trkpt>
      <trkpt lat="46.236065" lon="6.111614">
        <ele>0.0</ele>
        <time>2026-07-25T08:40:51Z</time>
      </trkpt>
      <trkpt lat="46.236263" lon="6.111317">
        <ele>0.0</ele>
        <time>2026-07-25T08:40:51Z</time>
      </trkpt>
      <trkpt lat="46.236427" lon="6.111059">
        <ele>0.0</ele>
        <time>2026-07-25T08:40:51Z</time>
      </trkpt>
      <trkpt lat="46.236603" lon="6.110819">
        <ele>0.0</ele>
        <time>2026-07-25T08:40:51Z</time>
      </trkpt>
      <trkpt lat="46.236843" lon="6.110693">
        <ele>0.0</ele>
        <time>2026-07-25T08:40:51Z</time>
      </trkpt>
      <trkpt lat="46.23708" lon="6.110836">
        <ele>0.0</ele>
        <time>2026-07-25T08:40:51Z</time>
      </trkpt>
      <trkpt lat="46.237232" lon="6.111076">
        <ele>0.0</ele>
        <time>2026-07-25T08:40:51Z</time>
      </trkpt>
      <trkpt lat="46.237392" lon="6.111317">
        <ele>0.0</ele>
        <time>2026-07-25T08:40:51Z</time>
      </trkpt>
      <trkpt lat="46.237564" lon="6.111564">
        <ele>0.0</ele>
        <time>2026-07-25T08:40:51Z</time>
      </trkpt>
      <trkpt lat="46.237759" lon="6.111848">
        <ele>0.0</ele>
        <time>2026-07-25T08:40:51Z</time>
      </trkpt>
      <trkpt lat="46.237907" lon="6.112083">
        <ele>0.0</ele>
        <time>2026-07-25T08:40:51Z</time>
      </trkpt>
      <trkpt lat="46.238182" lon="6.112468">
        <ele>0.0</ele>
        <time>2026-07-25T08:40:51Z</time>
      </trkpt>
      <trkpt lat="46.238457" lon="6.11287">
        <ele>0.0</ele>
        <time>2026-07-25T08:40:51Z</time>
      </trkpt>
      <trkpt lat="46.23885" lon="6.113445">
        <ele>0.0</ele>
        <time>2026-07-25T08:40:51Z</time>
      </trkpt>
      <trkpt lat="46.239185" lon="6.113943">
        <ele>0.0</ele>
        <time>2026-07-25T08:40:51Z</time>
      </trkpt>
      <trkpt lat="46.239532" lon="6.114461">
        <ele>0.0</ele>
        <time>2026-07-25T08:40:51Z</time>
      </trkpt>
      <trkpt lat="46.239952" lon="6.115059">
        <ele>0.0</ele>
        <time>2026-07-25T08:40:51Z</time>
      </trkpt>
      <trkpt lat="46.240372" lon="6.115694">
        <ele>0.0</ele>
        <time>2026-07-25T08:40:51Z</time>
      </trkpt>
      <trkpt lat="46.240814" lon="6.11632">
        <ele>0.0</ele>
        <time>2026-07-25T08:40:51Z</time>
      </trkpt>
      <trkpt lat="46.241249" lon="6.116973">
        <ele>0.0</ele>
        <time>2026-07-25T08:40:51Z</time>
      </trkpt>
      <trkpt lat="46.241817" lon="6.117823">
        <ele>0.0</ele>
        <time>2026-07-25T08:40:51Z</time>
      </trkpt>
      <trkpt lat="46.242268" lon="6.118464">
        <ele>0.0</ele>
        <time>2026-07-25T08:40:51Z</time>
      </trkpt>
      <trkpt lat="46.242737" lon="6.119144">
        <ele>0.0</ele>
        <time>2026-07-25T08:40:51Z</time>
      </trkpt>
      <trkpt lat="46.243183" lon="6.119803">
        <ele>0.0</ele>
        <time>2026-07-25T08:40:51Z</time>
      </trkpt>
      <trkpt lat="46.243656" lon="6.120483">
        <ele>0.0</ele>
        <time>2026-07-25T08:40:51Z</time>
      </trkpt>
      <trkpt lat="46.243996" lon="6.121009">
        <ele>0.0</ele>
        <time>2026-07-25T08:40:51Z</time>
      </trkpt>
      <trkpt lat="46.244503" lon="6.121771">
        <ele>0.0</ele>
        <time>2026-07-25T08:40:51Z</time>
      </trkpt>
      <trkpt lat="46.244705" lon="6.122047">
        <ele>0.0</ele>
        <time>2026-07-25T08:40:51Z</time>
      </trkpt>
      <trkpt lat="46.245052" lon="6.122561">
        <ele>0.0</ele>
        <time>2026-07-25T08:40:51Z</time>
      </trkpt>
      <trkpt lat="46.245358" lon="6.123019">
        <ele>0.0</ele>
        <time>2026-07-25T08:40:51Z</time>
      </trkpt>
      <trkpt lat="46.245644" lon="6.123421">
        <ele>0.0</ele>
        <time>2026-07-25T08:40:51Z</time>
      </trkpt>
      <trkpt lat="46.245998" lon="6.12394">
        <ele>0.0</ele>
        <time>2026-07-25T08:40:51Z</time>
      </trkpt>
      <trkpt lat="46.246319" lon="6.124426">
        <ele>0.0</ele>
        <time>2026-07-25T08:40:51Z</time>
      </trkpt>
      <trkpt lat="46.246857" lon="6.125204">
        <ele>0.0</ele>
        <time>2026-07-25T08:40:51Z</time>
      </trkpt>
      <trkpt lat="46.24696" lon="6.125359">
        <ele>0.0</ele>
        <time>2026-07-25T08:40:51Z</time>
      </trkpt>
      <trkpt lat="46.2472" lon="6.125699">
        <ele>0.0</ele>
        <time>2026-07-25T08:40:51Z</time>
      </trkpt>
      <trkpt lat="46.247887" lon="6.126603">
        <ele>0.0</ele>
        <time>2026-07-25T08:40:51Z</time>
      </trkpt>
      <trkpt lat="46.248508" lon="6.126921">
        <ele>0.0</ele>
        <time>2026-07-25T08:40:51Z</time>
      </trkpt>
      <trkpt lat="46.248837" lon="6.127055">
        <ele>0.0</ele>
        <time>2026-07-25T08:40:51Z</time>
      </trkpt>
      <trkpt lat="46.249184" lon="6.127213">
        <ele>0.0</ele>
        <time>2026-07-25T08:40:51Z</time>
      </trkpt>
      <trkpt lat="46.249531" lon="6.12735">
        <ele>0.0</ele>
        <time>2026-07-25T08:40:51Z</time>
      </trkpt>
      <trkpt lat="46.249763" lon="6.127401">
        <ele>0.0</ele>
        <time>2026-07-25T08:40:51Z</time>
      </trkpt>
      <trkpt lat="46.250008" lon="6.127316">
        <ele>0.0</ele>
        <time>2026-07-25T08:40:51Z</time>
      </trkpt>
      <trkpt lat="46.250229" lon="6.127007">
        <ele>0.0</ele>
        <time>2026-07-25T08:40:51Z</time>
      </trkpt>
      <trkpt lat="46.250183" lon="6.126663">
        <ele>0.0</ele>
        <time>2026-07-25T08:40:51Z</time>
      </trkpt>
      <trkpt lat="46.249706" lon="6.126062">
        <ele>0.0</ele>
        <time>2026-07-25T08:40:51Z</time>
      </trkpt>
      <trkpt lat="46.248203" lon="6.123848">
        <ele>0.0</ele>
        <time>2026-07-25T08:40:51Z</time>
      </trkpt>
      <trkpt lat="46.244797" lon="6.118849">
        <ele>441.96000000000004</ele>
        <time>2026-07-25T08:40:51Z</time>
      </trkpt>
      <trkpt lat="46.240265" lon="6.112217">
        <ele>449.58000000000004</ele>
        <time>2026-07-25T08:40:51Z</time>
      </trkpt>
      <trkpt lat="46.236191" lon="6.106188">
        <ele>457.20000000000005</ele>
        <time>2026-07-25T08:40:51Z</time>
      </trkpt>
      <trkpt lat="46.231308" lon="6.098991">
        <ele>556.26</ele>
        <time>2026-07-25T08:40:51Z</time>
      </trkpt>
      <trkpt lat="46.226807" lon="6.092522">
        <ele>662.94</ele>
        <time>2026-07-25T08:40:51Z</time>
      </trkpt>
      <trkpt lat="46.22319" lon="6.08743">
        <ele>746.76</ele>
        <time>2026-07-25T08:40:51Z</time>
      </trkpt>
      <trkpt lat="46.219761" lon="6.082649">
        <ele>830.58</ele>
        <time>2026-07-25T08:40:51Z</time>
      </trkpt>
      <trkpt lat="46.218613" lon="6.081067">
        <ele>861.0600000000001</ele>
        <time>2026-07-25T08:40:51Z</time>
      </trkpt>
      <trkpt lat="46.21756" lon="6.079593">
        <ele>891.5400000000001</ele>
        <time>2026-07-25T08:40:51Z</time>
      </trkpt>
      <trkpt lat="46.214035" lon="6.074703">
        <ele>975.36</ele>
        <time>2026-07-25T08:40:51Z</time>
      </trkpt>
      <trkpt lat="46.211746" lon="6.071554">
        <ele>1036.3200000000002</ele>
        <time>2026-07-25T08:40:51Z</time>
      </trkpt>
      <trkpt lat="46.20726" lon="6.065257">
        <ele>1158.24</ele>
        <time>2026-07-25T08:40:51Z</time>
      </trkpt>
      <trkpt lat="46.203094" lon="6.059228">
        <ele>1226.8200000000002</ele>
        <time>2026-07-25T08:40:51Z</time>
      </trkpt>
      <trkpt lat="46.19957" lon="6.053936">
        <ele>1287.78</ele>
        <time>2026-07-25T08:40:51Z</time>
      </trkpt>
      <trkpt lat="46.19537" lon="6.047562">
        <ele>1371.6000000000001</ele>
        <time>2026-07-25T08:40:51Z</time>
      </trkpt>
      <trkpt lat="46.190826" lon="6.040806">
        <ele>1447.8000000000002</ele>
        <time>2026-07-25T08:40:51Z</time>
      </trkpt>
      <trkpt lat="46.186386" lon="6.034307">
        <ele>1478.28</ele>
        <time>2026-07-25T08:40:51Z</time>
      </trkpt>
      <trkpt lat="46.181637" lon="6.027443">
        <ele>1485.9</ele>
        <time>2026-07-25T08:40:51Z</time>
      </trkpt>
      <trkpt lat="46.17754" lon="6.021538">
        <ele>1501.14</ele>
        <time>2026-07-25T08:40:51Z</time>
      </trkpt>
      <trkpt lat="46.172195" lon="6.013809">
        <ele>1516.38</ele>
        <time>2026-07-25T08:40:51Z</time>
      </trkpt>
      <trkpt lat="46.167572" lon="6.007043">
        <ele>1554.48</ele>
        <time>2026-07-25T08:40:51Z</time>
      </trkpt>
      <trkpt lat="46.157181" lon="5.991166">
        <ele>1729.74</ele>
        <time>2026-07-25T08:40:51Z</time>
      </trkpt>
      <trkpt lat="46.148026" lon="5.97718">
        <ele>1874.52</ele>
        <time>2026-07-25T08:40:51Z</time>
      </trkpt>
      <trkpt lat="46.13876" lon="5.963379">
        <ele>2004.0600000000002</ele>
        <time>2026-07-25T08:40:51Z</time>
      </trkpt>
      <trkpt lat="46.129166" lon="5.949231">
        <ele>2156.46</ele>
        <time>2026-07-25T08:40:51Z</time>
      </trkpt>
      <trkpt lat="46.12326" lon="5.939415">
        <ele>2247.9</ele>
        <time>2026-07-25T08:40:51Z</time>
      </trkpt>
      <trkpt lat="46.121979" lon="5.936636">
        <ele>2270.76</ele>
        <time>2026-07-25T08:40:51Z</time>
      </trkpt>
      <trkpt lat="46.120651" lon="5.933421">
        <ele>2293.62</ele>
        <time>2026-07-25T08:40:51Z</time>
      </trkpt>
      <trkpt lat="46.119507" lon="5.930473">
        <ele>2316.48</ele>
        <time>2026-07-25T08:40:51Z</time>
      </trkpt>
      <trkpt lat="46.11837" lon="5.926918">
        <ele>2339.34</ele>
        <time>2026-07-25T08:40:51Z</time>
      </trkpt>
      <trkpt lat="46.117538" lon="5.924109">
        <ele>2362.2000000000003</ele>
        <time>2026-07-25T08:40:51Z</time>
      </trkpt>
      <trkpt lat="46.116669" lon="5.920559">
        <ele>2385.06</ele>
        <time>2026-07-25T08:40:51Z</time>
      </trkpt>
      <trkpt lat="46.116043" lon="5.91758">
        <ele>2407.92</ele>
        <time>2026-07-25T08:40:51Z</time>
      </trkpt>
      <trkpt lat="46.115433" lon="5.914396">
        <ele>2430.78</ele>
        <time>2026-07-25T08:40:51Z</time>
      </trkpt>
      <trkpt lat="46.114838" lon="5.910377">
        <ele>2461.26</ele>
        <time>2026-07-25T08:40:51Z</time>
      </trkpt>
      <trkpt lat="46.114517" lon="5.906893">
        <ele>2484.1200000000003</ele>
        <time>2026-07-25T08:40:51Z</time>
      </trkpt>
      <trkpt lat="46.114323" lon="5.903435">
        <ele>2506.98</ele>
        <time>2026-07-25T08:40:51Z</time>
      </trkpt>
      <trkpt lat="46.114273" lon="5.900276">
        <ele>2529.84</ele>
        <time>2026-07-25T08:40:51Z</time>
      </trkpt>
      <trkpt lat="46.11438" lon="5.896577">
        <ele>2560.32</ele>
        <time>2026-07-25T08:40:51Z</time>
      </trkpt>
      <trkpt lat="46.114693" lon="5.892586">
        <ele>2590.8</ele>
        <time>2026-07-25T08:40:51Z</time>
      </trkpt>
      <trkpt lat="46.115112" lon="5.88929">
        <ele>2613.6600000000003</ele>
        <time>2026-07-25T08:40:51Z</time>
      </trkpt>
      <trkpt lat="46.115707" lon="5.885725">
        <ele>2644.1400000000003</ele>
        <time>2026-07-25T08:40:51Z</time>
      </trkpt>
      <trkpt lat="46.11623" lon="5.883316">
        <ele>2667.0</ele>
        <time>2026-07-25T08:40:51Z</time>
      </trkpt>
      <trkpt lat="46.117172" lon="5.879561">
        <ele>2697.48</ele>
        <time>2026-07-25T08:40:51Z</time>
      </trkpt>
      <trkpt lat="46.118324" lon="5.8759">
        <ele>2727.96</ele>
        <time>2026-07-25T08:40:51Z</time>
      </trkpt>
      <trkpt lat="46.11937" lon="5.872929">
        <ele>2758.44</ele>
        <time>2026-07-25T08:40:51Z</time>
      </trkpt>
      <trkpt lat="46.120514" lon="5.870132">
        <ele>2781.3</ele>
        <time>2026-07-25T08:40:51Z</time>
      </trkpt>
      <trkpt lat="46.121861" lon="5.867249">
        <ele>2811.78</ele>
        <time>2026-07-25T08:40:51Z</time>
      </trkpt>
      <trkpt lat="46.123398" lon="5.864433">
        <ele>2842.26</ele>
        <time>2026-07-25T08:40:51Z</time>
      </trkpt>
      <trkpt lat="46.125214" lon="5.861343">
        <ele>2872.7400000000002</ele>
        <time>2026-07-25T08:40:51Z</time>
      </trkpt>
      <trkpt lat="46.126831" lon="5.858861">
        <ele>2895.6000000000004</ele>
        <time>2026-07-25T08:40:51Z</time>
      </trkpt>
      <trkpt lat="46.128616" lon="5.856383">
        <ele>2918.46</ele>
        <time>2026-07-25T08:40:51Z</time>
      </trkpt>
      <trkpt lat="46.130585" lon="5.853904">
        <ele>2941.32</ele>
        <time>2026-07-25T08:40:51Z</time>
      </trkpt>
      <trkpt lat="46.132599" lon="5.851694">
        <ele>2964.1800000000003</ele>
        <time>2026-07-25T08:40:51Z</time>
      </trkpt>
      <trkpt lat="46.134758" lon="5.849533">
        <ele>2987.04</ele>
        <time>2026-07-25T08:40:51Z</time>
      </trkpt>
      <trkpt lat="46.13681" lon="5.847741">
        <ele>3009.9</ele>
        <time>2026-07-25T08:40:51Z</time>
      </trkpt>
      <trkpt lat="46.139282" lon="5.845865">
        <ele>3025.1400000000003</ele>
        <time>2026-07-25T08:40:51Z</time>
      </trkpt>
      <trkpt lat="46.141182" lon="5.844589">
        <ele>3048.0</ele>
        <time>2026-07-25T08:40:51Z</time>
      </trkpt>
      <trkpt lat="46.14402" lon="5.84301">
        <ele>3070.86</ele>
        <time>2026-07-25T08:40:51Z</time>
      </trkpt>
      <trkpt lat="46.146114" lon="5.84198">
        <ele>3093.7200000000003</ele>
        <time>2026-07-25T08:40:51Z</time>
      </trkpt>
      <trkpt lat="46.14798" lon="5.841109">
        <ele>3108.96</ele>
        <time>2026-07-25T08:40:51Z</time>
      </trkpt>
      <trkpt lat="46.150955" lon="5.839702">
        <ele>3124.2000000000003</ele>
        <time>2026-07-25T08:40:51Z</time>
      </trkpt>
      <trkpt lat="46.15361" lon="5.838563">
        <ele>3139.44</ele>
        <time>2026-07-25T08:40:51Z</time>
      </trkpt>
      <trkpt lat="46.156033" lon="5.837585">
        <ele>3154.6800000000003</ele>
        <time>2026-07-25T08:40:51Z</time>
      </trkpt>
      <trkpt lat="46.158966" lon="5.836353">
        <ele>3177.54</ele>
        <time>2026-07-25T08:40:51Z</time>
      </trkpt>
      <trkpt lat="46.16143" lon="5.835388">
        <ele>3185.1600000000003</ele>
        <time>2026-07-25T08:40:51Z</time>
      </trkpt>
      <trkpt lat="46.164131" lon="5.83429">
        <ele>3200.4</ele>
        <time>2026-07-25T08:40:51Z</time>
      </trkpt>
      <trkpt lat="46.166553" lon="5.833397">
        <ele>3215.6400000000003</ele>
        <time>2026-07-25T08:40:51Z</time>
      </trkpt>
      <trkpt lat="46.168926" lon="5.832504">
        <ele>3223.26</ele>
        <time>2026-07-25T08:40:51Z</time>
      </trkpt>
      <trkpt lat="46.171719" lon="5.831406">
        <ele>3238.5</ele>
        <time>2026-07-25T08:40:51Z</time>
      </trkpt>
      <trkpt lat="46.174419" lon="5.830376">
        <ele>3253.7400000000002</ele>
        <time>2026-07-25T08:40:51Z</time>
      </trkpt>
      <trkpt lat="46.190964" lon="5.824295">
        <ele>3322.32</ele>
        <time>2026-07-25T08:40:51Z</time>
      </trkpt>
      <trkpt lat="46.211426" lon="5.816926">
        <ele>3459.48</ele>
        <time>2026-07-25T08:40:51Z</time>
      </trkpt>
      <trkpt lat="46.2285" lon="5.810696">
        <ele>3589.02</ele>
        <time>2026-07-25T08:40:51Z</time>
      </trkpt>
      <trkpt lat="46.249508" lon="5.802979">
        <ele>3756.6600000000003</ele>
        <time>2026-07-25T08:40:51Z</time>
      </trkpt>
      <trkpt lat="46.295082" lon="5.786018">
        <ele>4206.24</ele>
        <time>2026-07-25T08:40:51Z</time>
      </trkpt>
      <trkpt lat="46.340054" lon="5.768921">
        <ele>4488.18</ele>
        <time>2026-07-25T08:40:51Z</time>
      </trkpt>
      <trkpt lat="46.386791" lon="5.751205">
        <ele>4800.6</ele>
        <time>2026-07-25T08:40:51Z</time>
      </trkpt>
      <trkpt lat="46.434769" lon="5.732853">
        <ele>5189.22</ele>
        <time>2026-07-25T08:40:51Z</time>
      </trkpt>
      <trkpt lat="46.483246" lon="5.714097">
        <ele>5501.64</ele>
        <time>2026-07-25T08:40:51Z</time>
      </trkpt>
      <trkpt lat="46.530266" lon="5.695862">
        <ele>5829.3</ele>
        <time>2026-07-25T08:40:51Z</time>
      </trkpt>
      <trkpt lat="46.558731" lon="5.682477">
        <ele>6012.18</ele>
        <time>2026-07-25T08:40:51Z</time>
      </trkpt>
      <trkpt lat="46.561432" lon="5.680668">
        <ele>6027.42</ele>
        <time>2026-07-25T08:40:51Z</time>
      </trkpt>
      <trkpt lat="46.564808" lon="5.678215">
        <ele>6057.900000000001</ele>
        <time>2026-07-25T08:40:51Z</time>
      </trkpt>
      <trkpt lat="46.56802" lon="5.675812">
        <ele>6080.76</ele>
        <time>2026-07-25T08:40:51Z</time>
      </trkpt>
      <trkpt lat="46.571045" lon="5.673367">
        <ele>6103.62</ele>
        <time>2026-07-25T08:40:51Z</time>
      </trkpt>
      <trkpt lat="46.573093" lon="5.671761">
        <ele>6118.860000000001</ele>
        <time>2026-07-25T08:40:51Z</time>
      </trkpt>
      <trkpt lat="46.576492" lon="5.669014">
        <ele>6149.34</ele>
        <time>2026-07-25T08:40:51Z</time>
      </trkpt>
      <trkpt lat="46.579193" lon="5.666801">
        <ele>6164.58</ele>
        <time>2026-07-25T08:40:51Z</time>
      </trkpt>
      <trkpt lat="46.582352" lon="5.664256">
        <ele>6195.06</ele>
        <time>2026-07-25T08:40:51Z</time>
      </trkpt>
      <trkpt lat="46.585052" lon="5.662045">
        <ele>6210.3</ele>
        <time>2026-07-25T08:40:51Z</time>
      </trkpt>
      <trkpt lat="46.587891" lon="5.659701">
        <ele>6233.160000000001</ele>
        <time>2026-07-25T08:40:51Z</time>
      </trkpt>
      <trkpt lat="46.590225" lon="5.657825">
        <ele>6248.400000000001</ele>
        <time>2026-07-25T08:40:51Z</time>
      </trkpt>
      <trkpt lat="46.632889" lon="5.623325">
        <ele>6583.68</ele>
        <time>2026-07-25T08:40:51Z</time>
      </trkpt>
      <trkpt lat="46.675835" lon="5.588402">
        <ele>6880.860000000001</ele>
        <time>2026-07-25T08:40:51Z</time>
      </trkpt>
      <trkpt lat="46.71978" lon="5.552971">
        <ele>7010.400000000001</ele>
        <time>2026-07-25T08:40:51Z</time>
      </trkpt>
      <trkpt lat="46.765961" lon="5.515539">
        <ele>7216.14</ele>
        <time>2026-07-25T08:40:51Z</time>
      </trkpt>
      <trkpt lat="46.811783" lon="5.476819">
        <ele>7315.200000000001</ele>
        <time>2026-07-25T08:40:51Z</time>
      </trkpt>
      <trkpt lat="46.859203" lon="5.43679">
        <ele>7315.200000000001</ele>
        <time>2026-07-25T08:40:51Z</time>
      </trkpt>
      <trkpt lat="46.904938" lon="5.398613">
        <ele>7315.200000000001</ele>
        <time>2026-07-25T08:40:51Z</time>
      </trkpt>
      <trkpt lat="46.927727" lon="5.382174">
        <ele>7307.58</ele>
        <time>2026-07-25T08:40:51Z</time>
      </trkpt>
      <trkpt lat="46.931671" lon="5.380417">
        <ele>7307.58</ele>
        <time>2026-07-25T08:40:51Z</time>
      </trkpt>
      <trkpt lat="46.93515" lon="5.379112">
        <ele>7307.58</ele>
        <time>2026-07-25T08:40:51Z</time>
      </trkpt>
      <trkpt lat="46.938343" lon="5.37816">
        <ele>7307.58</ele>
        <time>2026-07-25T08:40:51Z</time>
      </trkpt>
      <trkpt lat="46.941555" lon="5.377385">
        <ele>7307.58</ele>
        <time>2026-07-25T08:40:51Z</time>
      </trkpt>
      <trkpt lat="46.945312" lon="5.376778">
        <ele>7307.58</ele>
        <time>2026-07-25T08:40:51Z</time>
      </trkpt>
      <trkpt lat="46.9487" lon="5.376503">
        <ele>7315.200000000001</ele>
        <time>2026-07-25T08:40:51Z</time>
      </trkpt>
      <trkpt lat="46.952774" lon="5.376399">
        <ele>7315.200000000001</ele>
        <time>2026-07-25T08:40:51Z</time>
      </trkpt>
      <trkpt lat="46.955704" lon="5.376572">
        <ele>7315.200000000001</ele>
        <time>2026-07-25T08:40:51Z</time>
      </trkpt>
      <trkpt lat="46.959057" lon="5.376963">
        <ele>7322.820000000001</ele>
        <time>2026-07-25T08:40:51Z</time>
      </trkpt>
      <trkpt lat="46.963295" lon="5.377667">
        <ele>7330.4400000000005</ele>
        <time>2026-07-25T08:40:51Z</time>
      </trkpt>
      <trkpt lat="46.966644" lon="5.378288">
        <ele>7338.06</ele>
        <time>2026-07-25T08:40:51Z</time>
      </trkpt>
      <trkpt lat="46.969986" lon="5.378975">
        <ele>7345.68</ele>
        <time>2026-07-25T08:40:51Z</time>
      </trkpt>
      <trkpt lat="46.973629" lon="5.379779">
        <ele>7360.92</ele>
        <time>2026-07-25T08:40:51Z</time>
      </trkpt>
      <trkpt lat="46.976807" lon="5.380486">
        <ele>7376.160000000001</ele>
        <time>2026-07-25T08:40:51Z</time>
      </trkpt>
      <trkpt lat="46.980099" lon="5.381258">
        <ele>7383.780000000001</ele>
        <time>2026-07-25T08:40:51Z</time>
      </trkpt>
      <trkpt lat="46.983219" lon="5.382033">
        <ele>7399.02</ele>
        <time>2026-07-25T08:40:51Z</time>
      </trkpt>
      <trkpt lat="46.986694" lon="5.38282">
        <ele>7406.64</ele>
        <time>2026-07-25T08:40:51Z</time>
      </trkpt>
      <trkpt lat="46.990665" lon="5.383794">
        <ele>7421.88</ele>
        <time>2026-07-25T08:40:51Z</time>
      </trkpt>
      <trkpt lat="46.993786" lon="5.384568">
        <ele>7437.120000000001</ele>
        <time>2026-07-25T08:40:51Z</time>
      </trkpt>
      <trkpt lat="46.997742" lon="5.385554">
        <ele>7452.360000000001</ele>
        <time>2026-07-25T08:40:51Z</time>
      </trkpt>
      <trkpt lat="47.000336" lon="5.386185">
        <ele>7459.9800000000005</ele>
        <time>2026-07-25T08:40:51Z</time>
      </trkpt>
      <trkpt lat="47.052719" lon="5.398794">
        <ele>7612.38</ele>
        <time>2026-07-25T08:40:51Z</time>
      </trkpt>
      <trkpt lat="47.104431" lon="5.410698">
        <ele>7620.0</ele>
        <time>2026-07-25T08:40:51Z</time>
      </trkpt>
      <trkpt lat="47.155647" lon="5.422528">
        <ele>7620.0</ele>
        <time>2026-07-25T08:40:51Z</time>
      </trkpt>
      <trkpt lat="47.206329" lon="5.433701">
        <ele>7620.0</ele>
        <time>2026-07-25T08:40:51Z</time>
      </trkpt>
      <trkpt lat="47.258015" lon="5.444359">
        <ele>7620.0</ele>
        <time>2026-07-25T08:40:51Z</time>
      </trkpt>
      <trkpt lat="47.309784" lon="5.454369">
        <ele>7620.0</ele>
        <time>2026-07-25T08:40:51Z</time>
      </trkpt>
      <trkpt lat="47.362015" lon="5.462471">
        <ele>7620.0</ele>
        <time>2026-07-25T08:40:51Z</time>
      </trkpt>
      <trkpt lat="47.414433" lon="5.465909">
        <ele>7620.0</ele>
        <time>2026-07-25T08:40:51Z</time>
      </trkpt>
      <trkpt lat="47.465733" lon="5.467881">
        <ele>7620.0</ele>
        <time>2026-07-25T08:40:51Z</time>
      </trkpt>
      <trkpt lat="47.469269" lon="5.467209">
        <ele>7620.0</ele>
        <time>2026-07-25T08:40:51Z</time>
      </trkpt>
      <trkpt lat="47.472931" lon="5.466248">
        <ele>7620.0</ele>
        <time>2026-07-25T08:40:51Z</time>
      </trkpt>
      <trkpt lat="47.476089" lon="5.465218">
        <ele>7620.0</ele>
        <time>2026-07-25T08:40:51Z</time>
      </trkpt>
      <trkpt lat="47.479706" lon="5.463913">
        <ele>7620.0</ele>
        <time>2026-07-25T08:40:51Z</time>
      </trkpt>
      <trkpt lat="47.482956" lon="5.462471">
        <ele>7620.0</ele>
        <time>2026-07-25T08:40:51Z</time>
      </trkpt>
      <trkpt lat="47.486481" lon="5.460686">
        <ele>7620.0</ele>
        <time>2026-07-25T08:40:51Z</time>
      </trkpt>
      <trkpt lat="47.489334" lon="5.459008">
        <ele>7620.0</ele>
        <time>2026-07-25T08:40:51Z</time>
      </trkpt>
      <trkpt lat="47.492294" lon="5.457115">
        <ele>7627.620000000001</ele>
        <time>2026-07-25T08:40:51Z</time>
      </trkpt>
      <trkpt lat="47.496086" lon="5.45436">
        <ele>7627.620000000001</ele>
        <time>2026-07-25T08:40:51Z</time>
      </trkpt>
      <trkpt lat="47.49897" lon="5.452106">
        <ele>7627.620000000001</ele>
        <time>2026-07-25T08:40:51Z</time>
      </trkpt>
      <trkpt lat="47.501347" lon="5.449994">
        <ele>7627.620000000001</ele>
        <time>2026-07-25T08:40:51Z</time>
      </trkpt>
      <trkpt lat="47.503811" lon="5.447599">
        <ele>7627.620000000001</ele>
        <time>2026-07-25T08:40:51Z</time>
      </trkpt>
      <trkpt lat="47.507034" lon="5.444275">
        <ele>7620.0</ele>
        <time>2026-07-25T08:40:51Z</time>
      </trkpt>
      <trkpt lat="47.509781" lon="5.441185">
        <ele>7620.0</ele>
        <time>2026-07-25T08:40:51Z</time>
      </trkpt>
      <trkpt lat="47.512939" lon="5.437202">
        <ele>7620.0</ele>
        <time>2026-07-25T08:40:51Z</time>
      </trkpt>
      <trkpt lat="47.515137" lon="5.43425">
        <ele>7620.0</ele>
        <time>2026-07-25T08:40:51Z</time>
      </trkpt>
      <trkpt lat="47.518112" lon="5.429855">
        <ele>7620.0</ele>
        <time>2026-07-25T08:40:51Z</time>
      </trkpt>
      <trkpt lat="47.520538" lon="5.426147">
        <ele>7620.0</ele>
        <time>2026-07-25T08:40:51Z</time>
      </trkpt>
      <trkpt lat="47.523102" lon="5.422234">
        <ele>7620.0</ele>
        <time>2026-07-25T08:40:51Z</time>
      </trkpt>
      <trkpt lat="47.525757" lon="5.418045">
        <ele>7620.0</ele>
        <time>2026-07-25T08:40:51Z</time>
      </trkpt>
      <trkpt lat="47.52774" lon="5.414922">
        <ele>7620.0</ele>
        <time>2026-07-25T08:40:51Z</time>
      </trkpt>
      <trkpt lat="47.530518" lon="5.410492">
        <ele>7620.0</ele>
        <time>2026-07-25T08:40:51Z</time>
      </trkpt>
      <trkpt lat="47.532715" lon="5.40699">
        <ele>7620.0</ele>
        <time>2026-07-25T08:40:51Z</time>
      </trkpt>
      <trkpt lat="47.535282" lon="5.402879">
        <ele>7620.0</ele>
        <time>2026-07-25T08:40:51Z</time>
      </trkpt>
      <trkpt lat="47.537933" lon="5.398613">
        <ele>7620.0</ele>
        <time>2026-07-25T08:40:51Z</time>
      </trkpt>
      <trkpt lat="47.540359" lon="5.394699">
        <ele>7620.0</ele>
        <time>2026-07-25T08:40:51Z</time>
      </trkpt>
      <trkpt lat="47.542545" lon="5.391118">
        <ele>7620.0</ele>
        <time>2026-07-25T08:40:51Z</time>
      </trkpt>
      <trkpt lat="47.54501" lon="5.387174">
        <ele>7620.0</ele>
        <time>2026-07-25T08:40:51Z</time>
      </trkpt>
      <trkpt lat="47.582439" lon="5.32689">
        <ele>7620.0</ele>
        <time>2026-07-25T08:40:51Z</time>
      </trkpt>
      <trkpt lat="47.618469" lon="5.268719">
        <ele>7620.0</ele>
        <time>2026-07-25T08:40:51Z</time>
      </trkpt>
      <trkpt lat="47.654663" lon="5.21006">
        <ele>7620.0</ele>
        <time>2026-07-25T08:40:51Z</time>
      </trkpt>
      <trkpt lat="47.691742" lon="5.149773">
        <ele>7620.0</ele>
        <time>2026-07-25T08:40:51Z</time>
      </trkpt>
      <trkpt lat="47.729263" lon="5.088783">
        <ele>7620.0</ele>
        <time>2026-07-25T08:40:51Z</time>
      </trkpt>
      <trkpt lat="47.765808" lon="5.028992">
        <ele>7620.0</ele>
        <time>2026-07-25T08:40:51Z</time>
      </trkpt>
      <trkpt lat="47.803436" lon="4.967194">
        <ele>7620.0</ele>
        <time>2026-07-25T08:40:51Z</time>
      </trkpt>
      <trkpt lat="47.841385" lon="4.905052">
        <ele>7620.0</ele>
        <time>2026-07-25T08:40:51Z</time>
      </trkpt>
      <trkpt lat="47.877914" lon="4.844833">
        <ele>7612.38</ele>
        <time>2026-07-25T08:40:51Z</time>
      </trkpt>
      <trkpt lat="47.912201" lon="4.788391">
        <ele>7467.6</ele>
        <time>2026-07-25T08:40:51Z</time>
      </trkpt>
      <trkpt lat="47.948105" lon="4.729121">
        <ele>7315.200000000001</ele>
        <time>2026-07-25T08:40:51Z</time>
      </trkpt>
      <trkpt lat="47.984436" lon="4.668915">
        <ele>7147.56</ele>
        <time>2026-07-25T08:40:51Z</time>
      </trkpt>
      <trkpt lat="48.020096" lon="4.609863">
        <ele>6979.92</ele>
        <time>2026-07-25T08:40:51Z</time>
      </trkpt>
      <trkpt lat="48.054703" lon="4.552116">
        <ele>6835.14</ele>
        <time>2026-07-25T08:40:51Z</time>
      </trkpt>
      <trkpt lat="48.089172" lon="4.494576">
        <ele>6667.5</ele>
        <time>2026-07-25T08:40:51Z</time>
      </trkpt>
      <trkpt lat="48.124329" lon="4.435936">
        <ele>6499.860000000001</ele>
        <time>2026-07-25T08:40:51Z</time>
      </trkpt>
      <trkpt lat="48.157883" lon="4.379837">
        <ele>6347.46</ele>
        <time>2026-07-25T08:40:51Z</time>
      </trkpt>
      <trkpt lat="48.189468" lon="4.326642">
        <ele>6195.06</ele>
        <time>2026-07-25T08:40:51Z</time>
      </trkpt>
      <trkpt lat="48.223137" lon="4.269923">
        <ele>6035.04</ele>
        <time>2026-07-25T08:40:51Z</time>
      </trkpt>
      <trkpt lat="48.255341" lon="4.215863">
        <ele>5882.64</ele>
        <time>2026-07-25T08:40:51Z</time>
      </trkpt>
      <trkpt lat="48.288078" lon="4.160638">
        <ele>5715.0</ele>
        <time>2026-07-25T08:40:51Z</time>
      </trkpt>
      <trkpt lat="48.320389" lon="4.105365">
        <ele>5554.9800000000005</ele>
        <time>2026-07-25T08:40:51Z</time>
      </trkpt>
      <trkpt lat="48.35083" lon="4.053955">
        <ele>5303.52</ele>
        <time>2026-07-25T08:40:51Z</time>
      </trkpt>
      <trkpt lat="48.383137" lon="3.999096">
        <ele>5021.58</ele>
        <time>2026-07-25T08:40:51Z</time>
      </trkpt>
      <trkpt lat="48.414978" lon="3.944959">
        <ele>4739.64</ele>
        <time>2026-07-25T08:40:51Z</time>
      </trkpt>
      <trkpt lat="48.44577" lon="3.892329">
        <ele>4472.9400000000005</ele>
        <time>2026-07-25T08:40:51Z</time>
      </trkpt>
      <trkpt lat="48.475681" lon="3.841384">
        <ele>4290.06</ele>
        <time>2026-07-25T08:40:51Z</time>
      </trkpt>
      <trkpt lat="48.504963" lon="3.791151">
        <ele>4145.280000000001</ele>
        <time>2026-07-25T08:40:51Z</time>
      </trkpt>
      <trkpt lat="48.534664" lon="3.739977">
        <ele>3977.6400000000003</ele>
        <time>2026-07-25T08:40:51Z</time>
      </trkpt>
      <trkpt lat="48.558472" lon="3.687392">
        <ele>3825.2400000000002</ele>
        <time>2026-07-25T08:40:51Z</time>
      </trkpt>
      <trkpt lat="48.583099" lon="3.630136">
        <ele>3657.6000000000004</ele>
        <time>2026-07-25T08:40:51Z</time>
      </trkpt>
      <trkpt lat="48.60878" lon="3.572529">
        <ele>3421.38</ele>
        <time>2026-07-25T08:40:51Z</time>
      </trkpt>
      <trkpt lat="48.610638" lon="3.569545">
        <ele>3406.1400000000003</ele>
        <time>2026-07-25T08:40:51Z</time>
      </trkpt>
      <trkpt lat="48.612808" lon="3.566331">
        <ele>3390.9</ele>
        <time>2026-07-25T08:40:51Z</time>
      </trkpt>
      <trkpt lat="48.614914" lon="3.563655">
        <ele>3375.6600000000003</ele>
        <time>2026-07-25T08:40:51Z</time>
      </trkpt>
      <trkpt lat="48.617798" lon="3.560134">
        <ele>3360.42</ele>
        <time>2026-07-25T08:40:51Z</time>
      </trkpt>
      <trkpt lat="48.620319" lon="3.557619">
        <ele>3345.1800000000003</ele>
        <time>2026-07-25T08:40:51Z</time>
      </trkpt>
      <trkpt lat="48.622601" lon="3.555378">
        <ele>3329.94</ele>
        <time>2026-07-25T08:40:51Z</time>
      </trkpt>
      <trkpt lat="48.625069" lon="3.553065">
        <ele>3314.7000000000003</ele>
        <time>2026-07-25T08:40:51Z</time>
      </trkpt>
      <trkpt lat="48.627163" lon="3.551114">
        <ele>3307.0800000000004</ele>
        <time>2026-07-25T08:40:51Z</time>
      </trkpt>
      <trkpt lat="48.630203" lon="3.548373">
        <ele>3291.84</ele>
        <time>2026-07-25T08:40:51Z</time>
      </trkpt>
      <trkpt lat="48.632538" lon="3.54626">
        <ele>3276.6000000000004</ele>
        <time>2026-07-25T08:40:51Z</time>
      </trkpt>
      <trkpt lat="48.63501" lon="3.544077">
        <ele>3261.36</ele>
        <time>2026-07-25T08:40:51Z</time>
      </trkpt>
      <trkpt lat="48.637344" lon="3.541964">
        <ele>3246.1200000000003</ele>
        <time>2026-07-25T08:40:51Z</time>
      </trkpt>
      <trkpt lat="48.640198" lon="3.539477">
        <ele>3230.88</ele>
        <time>2026-07-25T08:40:51Z</time>
      </trkpt>
      <trkpt lat="48.642899" lon="3.537164">
        <ele>3215.6400000000003</ele>
        <time>2026-07-25T08:40:51Z</time>
      </trkpt>
      <trkpt lat="48.645226" lon="3.535068">
        <ele>3200.4</ele>
        <time>2026-07-25T08:40:51Z</time>
      </trkpt>
      <trkpt lat="48.648056" lon="3.532598">
        <ele>3185.1600000000003</ele>
        <time>2026-07-25T08:40:51Z</time>
      </trkpt>
      <trkpt lat="48.663254" lon="3.519357">
        <ele>3101.34</ele>
        <time>2026-07-25T08:40:51Z</time>
      </trkpt>
      <trkpt lat="48.678314" lon="3.506188">
        <ele>3025.1400000000003</ele>
        <time>2026-07-25T08:40:51Z</time>
      </trkpt>
      <trkpt lat="48.693878" lon="3.492596">
        <ele>2956.56</ele>
        <time>2026-07-25T08:40:51Z</time>
      </trkpt>
      <trkpt lat="48.708984" lon="3.479426">
        <ele>2910.84</ele>
        <time>2026-07-25T08:40:51Z</time>
      </trkpt>
      <trkpt lat="48.723953" lon="3.466327">
        <ele>2880.36</ele>
        <time>2026-07-25T08:40:51Z</time>
      </trkpt>
      <trkpt lat="48.737366" lon="3.454707">
        <ele>2849.88</ele>
        <time>2026-07-25T08:40:51Z</time>
      </trkpt>
      <trkpt lat="48.750961" lon="3.443017">
        <ele>2811.78</ele>
        <time>2026-07-25T08:40:51Z</time>
      </trkpt>
      <trkpt lat="48.766251" lon="3.429918">
        <ele>2750.82</ele>
        <time>2026-07-25T08:40:51Z</time>
      </trkpt>
      <trkpt lat="48.779156" lon="3.418916">
        <ele>2689.86</ele>
        <time>2026-07-25T08:40:51Z</time>
      </trkpt>
      <trkpt lat="48.793636" lon="3.406485">
        <ele>2621.28</ele>
        <time>2026-07-25T08:40:51Z</time>
      </trkpt>
      <trkpt lat="48.806904" lon="3.395137">
        <ele>2560.32</ele>
        <time>2026-07-25T08:40:51Z</time>
      </trkpt>
      <trkpt lat="48.819984" lon="3.383934">
        <ele>2491.7400000000002</ele>
        <time>2026-07-25T08:40:51Z</time>
      </trkpt>
      <trkpt lat="48.834972" lon="3.37114">
        <ele>2423.1600000000003</ele>
        <time>2026-07-25T08:40:51Z</time>
      </trkpt>
      <trkpt lat="48.848602" lon="3.359633">
        <ele>2354.58</ele>
        <time>2026-07-25T08:40:51Z</time>
      </trkpt>
      <trkpt lat="48.861603" lon="3.348577">
        <ele>2286.0</ele>
        <time>2026-07-25T08:40:51Z</time>
      </trkpt>
      <trkpt lat="48.875198" lon="3.336886">
        <ele>2217.42</ele>
        <time>2026-07-25T08:40:51Z</time>
      </trkpt>
      <trkpt lat="48.889767" lon="3.324304">
        <ele>2148.84</ele>
        <time>2026-07-25T08:40:51Z</time>
      </trkpt>
      <trkpt lat="48.902382" lon="3.3118">
        <ele>2080.26</ele>
        <time>2026-07-25T08:40:51Z</time>
      </trkpt>
      <trkpt lat="48.903351" lon="3.310547">
        <ele>2072.6400000000003</ele>
        <time>2026-07-25T08:40:51Z</time>
      </trkpt>
      <trkpt lat="48.905914" lon="3.306955">
        <ele>2057.4</ele>
        <time>2026-07-25T08:40:51Z</time>
      </trkpt>
      <trkpt lat="48.907223" lon="3.305006">
        <ele>2049.78</ele>
        <time>2026-07-25T08:40:51Z</time>
      </trkpt>
      <trkpt lat="48.908943" lon="3.302331">
        <ele>2042.16</ele>
        <time>2026-07-25T08:40:51Z</time>
      </trkpt>
      <trkpt lat="48.910812" lon="3.299349">
        <ele>2026.92</ele>
        <time>2026-07-25T08:40:51Z</time>
      </trkpt>
      <trkpt lat="48.912762" lon="3.296043">
        <ele>2019.3000000000002</ele>
        <time>2026-07-25T08:40:51Z</time>
      </trkpt>
      <trkpt lat="48.914429" lon="3.293222">
        <ele>2004.0600000000002</ele>
        <time>2026-07-25T08:40:51Z</time>
      </trkpt>
      <trkpt lat="48.915882" lon="3.290839">
        <ele>1996.44</ele>
        <time>2026-07-25T08:40:51Z</time>
      </trkpt>
      <trkpt lat="48.917416" lon="3.288165">
        <ele>1988.8200000000002</ele>
        <time>2026-07-25T08:40:51Z</time>
      </trkpt>
      <trkpt lat="48.918594" lon="3.286109">
        <ele>1981.2</ele>
        <time>2026-07-25T08:40:51Z</time>
      </trkpt>
      <trkpt lat="48.920837" lon="3.282236">
        <ele>1958.3400000000001</ele>
        <time>2026-07-25T08:40:51Z</time>
      </trkpt>
      <trkpt lat="48.922306" lon="3.279708">
        <ele>1950.72</ele>
        <time>2026-07-25T08:40:51Z</time>
      </trkpt>
      <trkpt lat="48.933014" lon="3.261038">
        <ele>1874.52</ele>
        <time>2026-07-25T08:40:51Z</time>
      </trkpt>
      <trkpt lat="48.942696" lon="3.244436">
        <ele>1813.5600000000002</ele>
        <time>2026-07-25T08:40:51Z</time>
      </trkpt>
      <trkpt lat="48.952332" lon="3.227938">
        <ele>1744.98</ele>
        <time>2026-07-25T08:40:51Z</time>
      </trkpt>
      <trkpt lat="48.961594" lon="3.211694">
        <ele>1676.4</ele>
        <time>2026-07-25T08:40:51Z</time>
      </trkpt>
      <trkpt lat="48.972862" lon="3.191818">
        <ele>1600.2</ele>
        <time>2026-07-25T08:40:51Z</time>
      </trkpt>
      <trkpt lat="48.983799" lon="3.172013">
        <ele>1524.0</ele>
        <time>2026-07-25T08:40:51Z</time>
      </trkpt>
      <trkpt lat="48.988083" lon="3.163412">
        <ele>1493.52</ele>
        <time>2026-07-25T08:40:51Z</time>
      </trkpt>
      <trkpt lat="48.989273" lon="3.160682">
        <ele>1485.9</ele>
        <time>2026-07-25T08:40:51Z</time>
      </trkpt>
      <trkpt lat="48.990829" lon="3.15709">
        <ele>1470.66</ele>
        <time>2026-07-25T08:40:51Z</time>
      </trkpt>
      <trkpt lat="48.992039" lon="3.154088">
        <ele>1463.04</ele>
        <time>2026-07-25T08:40:51Z</time>
      </trkpt>
      <trkpt lat="48.993343" lon="3.150836">
        <ele>1447.8000000000002</ele>
        <time>2026-07-25T08:40:51Z</time>
      </trkpt>
      <trkpt lat="48.994492" lon="3.147865">
        <ele>1440.18</ele>
        <time>2026-07-25T08:40:51Z</time>
      </trkpt>
      <trkpt lat="48.995911" lon="3.144132">
        <ele>1424.94</ele>
        <time>2026-07-25T08:40:51Z</time>
      </trkpt>
      <trkpt lat="48.997009" lon="3.141104">
        <ele>1417.3200000000002</ele>
        <time>2026-07-25T08:40:51Z</time>
      </trkpt>
      <trkpt lat="48.998047" lon="3.138404">
        <ele>1409.7</ele>
        <time>2026-07-25T08:40:51Z</time>
      </trkpt>
      <trkpt lat="48.99939" lon="3.134836">
        <ele>1394.46</ele>
        <time>2026-07-25T08:40:51Z</time>
      </trkpt>
      <trkpt lat="49.000465" lon="3.131971">
        <ele>1386.8400000000001</ele>
        <time>2026-07-25T08:40:51Z</time>
      </trkpt>
      <trkpt lat="49.001629" lon="3.128863">
        <ele>1379.22</ele>
        <time>2026-07-25T08:40:51Z</time>
      </trkpt>
      <trkpt lat="49.00351" lon="3.123709">
        <ele>1363.98</ele>
        <time>2026-07-25T08:40:51Z</time>
      </trkpt>
      <trkpt lat="49.004749" lon="3.120479">
        <ele>1348.74</ele>
        <time>2026-07-25T08:40:51Z</time>
      </trkpt>
      <trkpt lat="49.005753" lon="3.117582">
        <ele>1341.1200000000001</ele>
        <time>2026-07-25T08:40:51Z</time>
      </trkpt>
      <trkpt lat="49.006844" lon="3.114624">
        <ele>1333.5</ele>
        <time>2026-07-25T08:40:51Z</time>
      </trkpt>
      <trkpt lat="49.010475" lon="3.104577">
        <ele>1310.64</ele>
        <time>2026-07-25T08:40:51Z</time>
      </trkpt>
      <trkpt lat="49.014496" lon="3.092863">
        <ele>1303.02</ele>
        <time>2026-07-25T08:40:51Z</time>
      </trkpt>
      <trkpt lat="49.015362" lon="3.089833">
        <ele>1303.02</ele>
        <time>2026-07-25T08:40:51Z</time>
      </trkpt>
      <trkpt lat="49.016052" lon="3.086876">
        <ele>1295.4</ele>
        <time>2026-07-25T08:40:51Z</time>
      </trkpt>
      <trkpt lat="49.016785" lon="3.082933">
        <ele>1295.4</ele>
        <time>2026-07-25T08:40:51Z</time>
      </trkpt>
      <trkpt lat="49.017151" lon="3.079975">
        <ele>1287.78</ele>
        <time>2026-07-25T08:40:51Z</time>
      </trkpt>
      <trkpt lat="49.01746" lon="3.07581">
        <ele>1287.78</ele>
        <time>2026-07-25T08:40:51Z</time>
      </trkpt>
      <trkpt lat="49.017563" lon="3.072792">
        <ele>1287.78</ele>
        <time>2026-07-25T08:40:51Z</time>
      </trkpt>
      <trkpt lat="49.017609" lon="3.069481">
        <ele>1287.78</ele>
        <time>2026-07-25T08:40:51Z</time>
      </trkpt>
      <trkpt lat="49.017643" lon="3.066559">
        <ele>1287.78</ele>
        <time>2026-07-25T08:40:51Z</time>
      </trkpt>
      <trkpt lat="49.017563" lon="3.061594">
        <ele>1280.16</ele>
        <time>2026-07-25T08:40:51Z</time>
      </trkpt>
      <trkpt lat="49.017506" lon="3.058536">
        <ele>1280.16</ele>
        <time>2026-07-25T08:40:51Z</time>
      </trkpt>
      <trkpt lat="49.01746" lon="3.05644">
        <ele>1280.16</ele>
        <time>2026-07-25T08:40:51Z</time>
      </trkpt>
      <trkpt lat="49.017365" lon="3.05326">
        <ele>1280.16</ele>
        <time>2026-07-25T08:40:51Z</time>
      </trkpt>
      <trkpt lat="49.017227" lon="3.048923">
        <ele>1280.16</ele>
        <time>2026-07-25T08:40:51Z</time>
      </trkpt>
      <trkpt lat="49.017059" lon="3.045537">
        <ele>1280.16</ele>
        <time>2026-07-25T08:40:51Z</time>
      </trkpt>
      <trkpt lat="49.016994" lon="3.042707">
        <ele>1280.16</ele>
        <time>2026-07-25T08:40:51Z</time>
      </trkpt>
      <trkpt lat="49.016899" lon="3.039382">
        <ele>1280.16</ele>
        <time>2026-07-25T08:40:51Z</time>
      </trkpt>
      <trkpt lat="49.016808" lon="3.036708">
        <ele>1280.16</ele>
        <time>2026-07-25T08:40:51Z</time>
      </trkpt>
      <trkpt lat="49.016712" lon="3.033961">
        <ele>1280.16</ele>
        <time>2026-07-25T08:40:51Z</time>
      </trkpt>
      <trkpt lat="49.016647" lon="3.03117">
        <ele>1280.16</ele>
        <time>2026-07-25T08:40:51Z</time>
      </trkpt>
      <trkpt lat="49.016556" lon="3.02779">
        <ele>1280.16</ele>
        <time>2026-07-25T08:40:51Z</time>
      </trkpt>
      <trkpt lat="49.016434" lon="3.025216">
        <ele>1280.16</ele>
        <time>2026-07-25T08:40:51Z</time>
      </trkpt>
      <trkpt lat="49.016109" lon="3.016109">
        <ele>1272.54</ele>
        <time>2026-07-25T08:40:51Z</time>
      </trkpt>
      <trkpt lat="49.015644" lon="3.00599">
        <ele>1272.54</ele>
        <time>2026-07-25T08:40:51Z</time>
      </trkpt>
      <trkpt lat="49.015224" lon="2.997822">
        <ele>1257.3</ele>
        <time>2026-07-25T08:40:51Z</time>
      </trkpt>
      <trkpt lat="49.014759" lon="2.987775">
        <ele>1257.3</ele>
        <time>2026-07-25T08:40:51Z</time>
      </trkpt>
      <trkpt lat="49.014431" lon="2.979825">
        <ele>1257.3</ele>
        <time>2026-07-25T08:40:51Z</time>
      </trkpt>
      <trkpt lat="49.014061" lon="2.970212">
        <ele>1257.3</ele>
        <time>2026-07-25T08:40:51Z</time>
      </trkpt>
      <trkpt lat="49.013687" lon="2.96255">
        <ele>1257.3</ele>
        <time>2026-07-25T08:40:51Z</time>
      </trkpt>
      <trkpt lat="49.01326" lon="2.953139">
        <ele>1264.92</ele>
        <time>2026-07-25T08:40:51Z</time>
      </trkpt>
      <trkpt lat="49.012711" lon="2.943541">
        <ele>1264.92</ele>
        <time>2026-07-25T08:40:51Z</time>
      </trkpt>
      <trkpt lat="49.012245" lon="2.935735">
        <ele>1249.68</ele>
        <time>2026-07-25T08:40:51Z</time>
      </trkpt>
      <trkpt lat="49.011734" lon="2.926411">
        <ele>1249.68</ele>
        <time>2026-07-25T08:40:51Z</time>
      </trkpt>
      <trkpt lat="49.011154" lon="2.916377">
        <ele>1249.68</ele>
        <time>2026-07-25T08:40:51Z</time>
      </trkpt>
      <trkpt lat="49.010742" lon="2.909405">
        <ele>1249.68</ele>
        <time>2026-07-25T08:40:51Z</time>
      </trkpt>
      <trkpt lat="49.010193" lon="2.899475">
        <ele>1249.68</ele>
        <time>2026-07-25T08:40:51Z</time>
      </trkpt>
      <trkpt lat="49.009735" lon="2.889545">
        <ele>1211.5800000000002</ele>
        <time>2026-07-25T08:40:51Z</time>
      </trkpt>
      <trkpt lat="49.009369" lon="2.881587">
        <ele>1181.1000000000001</ele>
        <time>2026-07-25T08:40:51Z</time>
      </trkpt>
      <trkpt lat="49.008846" lon="2.871479">
        <ele>1143.0</ele>
        <time>2026-07-25T08:40:51Z</time>
      </trkpt>
      <trkpt lat="49.008472" lon="2.864324">
        <ele>1120.14</ele>
        <time>2026-07-25T08:40:51Z</time>
      </trkpt>
      <trkpt lat="49.00787" lon="2.853843">
        <ele>1089.66</ele>
        <time>2026-07-25T08:40:51Z</time>
      </trkpt>
      <trkpt lat="49.007446" lon="2.846656">
        <ele>1066.8</ele>
        <time>2026-07-25T08:40:51Z</time>
      </trkpt>
      <trkpt lat="49.006943" lon="2.836726">
        <ele>1028.7</ele>
        <time>2026-07-25T08:40:51Z</time>
      </trkpt>
      <trkpt lat="49.006485" lon="2.826796">
        <ele>998.22</ele>
        <time>2026-07-25T08:40:51Z</time>
      </trkpt>
      <trkpt lat="49.006027" lon="2.817148">
        <ele>960.12</ele>
        <time>2026-07-25T08:40:51Z</time>
      </trkpt>
      <trkpt lat="49.005539" lon="2.807224">
        <ele>906.7800000000001</ele>
        <time>2026-07-25T08:40:51Z</time>
      </trkpt>
      <trkpt lat="49.00502" lon="2.797429">
        <ele>861.0600000000001</ele>
        <time>2026-07-25T08:40:51Z</time>
      </trkpt>
      <trkpt lat="49.004654" lon="2.789753">
        <ele>830.58</ele>
        <time>2026-07-25T08:40:51Z</time>
      </trkpt>
      <trkpt lat="49.004196" lon="2.779682">
        <ele>792.48</ele>
        <time>2026-07-25T08:40:51Z</time>
      </trkpt>
      <trkpt lat="49.003727" lon="2.769783">
        <ele>762.0</ele>
        <time>2026-07-25T08:40:51Z</time>
      </trkpt>
      <trkpt lat="49.003212" lon="2.759809">
        <ele>723.9000000000001</ele>
        <time>2026-07-25T08:40:51Z</time>
      </trkpt>
      <trkpt lat="49.002701" lon="2.750124">
        <ele>693.4200000000001</ele>
        <time>2026-07-25T08:40:51Z</time>
      </trkpt>
      <trkpt lat="49.002281" lon="2.742751">
        <ele>670.5600000000001</ele>
        <time>2026-07-25T08:40:51Z</time>
      </trkpt>
      <trkpt lat="49.001724" lon="2.732708">
        <ele>632.46</ele>
        <time>2026-07-25T08:40:51Z</time>
      </trkpt>
      <trkpt lat="49.001129" lon="2.722778">
        <ele>586.74</ele>
        <time>2026-07-25T08:40:51Z</time>
      </trkpt>
      <trkpt lat="49.000793" lon="2.715791">
        <ele>556.26</ele>
        <time>2026-07-25T08:40:51Z</time>
      </trkpt>
      <trkpt lat="49.000305" lon="2.705665">
        <ele>518.1600000000001</ele>
        <time>2026-07-25T08:40:51Z</time>
      </trkpt>
      <trkpt lat="48.999863" lon="2.696348">
        <ele>487.68</ele>
        <time>2026-07-25T08:40:51Z</time>
      </trkpt>
      <trkpt lat="48.999527" lon="2.689678">
        <ele>464.82000000000005</ele>
        <time>2026-07-25T08:40:51Z</time>
      </trkpt>
      <trkpt lat="48.999069" lon="2.680809">
        <ele>426.72</ele>
        <time>2026-07-25T08:40:51Z</time>
      </trkpt>
      <trkpt lat="48.99852" lon="2.672002">
        <ele>388.62</ele>
        <time>2026-07-25T08:40:51Z</time>
      </trkpt>
      <trkpt lat="48.998001" lon="2.6631">
        <ele>358.14000000000004</ele>
        <time>2026-07-25T08:40:51Z</time>
      </trkpt>
      <trkpt lat="48.997604" lon="2.654959">
        <ele>327.66</ele>
        <time>2026-07-25T08:40:51Z</time>
      </trkpt>
      <trkpt lat="48.997192" lon="2.646156">
        <ele>304.8</ele>
        <time>2026-07-25T08:40:51Z</time>
      </trkpt>
      <trkpt lat="48.996918" lon="2.641367">
        <ele>281.94</ele>
        <time>2026-07-25T08:40:51Z</time>
      </trkpt>
      <trkpt lat="48.996788" lon="2.639176">
        <ele>274.32</ele>
        <time>2026-07-25T08:40:51Z</time>
      </trkpt>
      <trkpt lat="48.996696" lon="2.637008">
        <ele>266.7</ele>
        <time>2026-07-25T08:40:51Z</time>
      </trkpt>
      <trkpt lat="48.996555" lon="2.634695">
        <ele>251.46</ele>
        <time>2026-07-25T08:40:51Z</time>
      </trkpt>
      <trkpt lat="48.996231" lon="2.628338">
        <ele>228.60000000000002</ele>
        <time>2026-07-25T08:40:51Z</time>
      </trkpt>
      <trkpt lat="48.99609" lon="2.625877">
        <ele>220.98000000000002</ele>
        <time>2026-07-25T08:40:51Z</time>
      </trkpt>
      <trkpt lat="48.995956" lon="2.623972">
        <ele>213.36</ele>
        <time>2026-07-25T08:40:51Z</time>
      </trkpt>
      <trkpt lat="48.995903" lon="2.621902">
        <ele>205.74</ele>
        <time>2026-07-25T08:40:51Z</time>
      </trkpt>
      <trkpt lat="48.995773" lon="2.619817">
        <ele>198.12</ele>
        <time>2026-07-25T08:40:51Z</time>
      </trkpt>
      <trkpt lat="48.99567" lon="2.61742">
        <ele>182.88</ele>
        <time>2026-07-25T08:40:51Z</time>
      </trkpt>
      <trkpt lat="48.995579" lon="2.615252">
        <ele>175.26000000000002</ele>
        <time>2026-07-25T08:40:51Z</time>
      </trkpt>
      <trkpt lat="48.995438" lon="2.61265">
        <ele>167.64000000000001</ele>
        <time>2026-07-25T08:40:51Z</time>
      </trkpt>
      <trkpt lat="48.9953" lon="2.610265">
        <ele>160.02</ele>
        <time>2026-07-25T08:40:51Z</time>
      </trkpt>
      <trkpt lat="48.995205" lon="2.608241">
        <ele>152.4</ele>
        <time>2026-07-25T08:40:51Z</time>
      </trkpt>
      <trkpt lat="48.995087" lon="2.606225">
        <ele>144.78</ele>
        <time>2026-07-25T08:40:51Z</time>
      </trkpt>
      <trkpt lat="48.994949" lon="2.60383">
        <ele>137.16</ele>
        <time>2026-07-25T08:40:51Z</time>
      </trkpt>
      <trkpt lat="48.99474" lon="2.600001">
        <ele>114.30000000000001</ele>
        <time>2026-07-25T08:40:51Z</time>
      </trkpt>
      <trkpt lat="48.994553" lon="2.596315">
        <ele>114.30000000000001</ele>
        <time>2026-07-25T08:40:51Z</time>
      </trkpt>
      <trkpt lat="48.994228" lon="2.590171">
        <ele>114.30000000000001</ele>
        <time>2026-07-25T08:40:51Z</time>
      </trkpt>
      <trkpt lat="48.99395" lon="2.584967">
        <ele>121.92</ele>
        <time>2026-07-25T08:40:51Z</time>
      </trkpt>
      <trkpt lat="48.993885" lon="2.583601">
        <ele>0.0</ele>
        <time>2026-07-25T08:40:51Z</time>
      </trkpt>
      <trkpt lat="48.993565" lon="2.577685">
        <ele>0.0</ele>
        <time>2026-07-25T08:40:51Z</time>
      </trkpt>
      <trkpt lat="48.993752" lon="2.573493">
        <ele>0.0</ele>
        <time>2026-07-25T08:40:51Z</time>
      </trkpt>
      <trkpt lat="48.993977" lon="2.572297">
        <ele>0.0</ele>
        <time>2026-07-25T08:40:51Z</time>
      </trkpt>
      <trkpt lat="48.994007" lon="2.572066">
        <ele>0.0</ele>
        <time>2026-07-25T08:40:51Z</time>
      </trkpt>
      <trkpt lat="48.994148" lon="2.571343">
        <ele>0.0</ele>
        <time>2026-07-25T08:40:51Z</time>
      </trkpt>
      <trkpt lat="48.99474" lon="2.567476">
        <ele>0.0</ele>
        <time>2026-07-25T08:40:51Z</time>
      </trkpt>
      <trkpt lat="48.99773" lon="2.560255">
        <ele>0.0</ele>
        <time>2026-07-25T08:40:51Z</time>
      </trkpt>
      <trkpt lat="49.007927" lon="2.562139">
        <ele>0.0</ele>
        <time>2026-07-25T08:40:51Z</time>
      </trkpt>
      <trkpt lat="49.008041" lon="2.581206">
        <ele>0.0</ele>
        <time>2026-07-25T08:40:51Z</time>
      </trkpt>
    </trkseg>
  </trk>
</gpx>