<?xml version="1.0" encoding="UTF-8"?>
<gpx xmlns="http://www.topografix.com/GPX/1/1" xmlns:xsi="http://www.w3.org/2001/XMLSchema-instance" xsi:schemaLocation="http://www.topografix.com/GPX/1/1 http://www.topografix.com/GPX/1/1/gpx.xsd" version="1.1" creator="GaiaGPS">
  <trk>
    <name>PLANE_Nairobi_Malindi</name>
    <cmt>1994-08-15</cmt>
    <desc>1.0</desc>
    <type>Plane</type>
    <trkseg>
      <trkpt lat="-1.313629" lon="36.925453">
        <ele>1620</ele>
      </trkpt>
      <trkpt lat="-3.230718" lon="40.098304">
        <ele>28</ele>
      </trkpt>
    </trkseg>
  </trk>
</gpx>
