<?xml version="1.0" encoding="UTF-8"?>
<gpx xmlns="http://www.topografix.com/GPX/1/1" xmlns:xsi="http://www.w3.org/2001/XMLSchema-instance" xsi:schemaLocation="http://www.topografix.com/GPX/1/1 http://www.topografix.com/GPX/1/1/gpx.xsd" version="1.1" creator="gpx.py -- https://github.com/tkrajina/gpxpy">
  <metadata>
    <name>LO415_4154b493</name>
    <time>2026-08-24T15:06:07Z</time>
  </metadata>
  <trk>
    <name>LO415_4154b493</name>
    <cmt>2026-08-24</cmt>
    <type>Plane</type>
    <trkseg>
      <trkpt lat="52.174759" lon="20.969507">
        <ele>0.0</ele>
        <time>2026-08-24T15:06:07Z</time>
      </trkpt>
      <trkpt lat="52.174839" lon="20.969742">
        <ele>0.0</ele>
        <time>2026-08-24T15:06:07Z</time>
      </trkpt>
      <trkpt lat="52.174923" lon="20.969976">
        <ele>0.0</ele>
        <time>2026-08-24T15:06:07Z</time>
      </trkpt>
      <trkpt lat="52.174992" lon="20.970194">
        <ele>0.0</ele>
        <time>2026-08-24T15:06:07Z</time>
      </trkpt>
      <trkpt lat="52.175011" lon="20.970402">
        <ele>0.0</ele>
        <time>2026-08-24T15:06:07Z</time>
      </trkpt>
      <trkpt lat="52.174957" lon="20.970606">
        <ele>0.0</ele>
        <time>2026-08-24T15:06:07Z</time>
      </trkpt>
      <trkpt lat="52.175201" lon="20.970409">
        <ele>0.0</ele>
        <time>2026-08-24T15:06:07Z</time>
      </trkpt>
      <trkpt lat="52.175457" lon="20.970173">
        <ele>0.0</ele>
        <time>2026-08-24T15:06:07Z</time>
      </trkpt>
      <trkpt lat="52.175758" lon="20.969919">
        <ele>0.0</ele>
        <time>2026-08-24T15:06:07Z</time>
      </trkpt>
      <trkpt lat="52.176014" lon="20.969664">
        <ele>0.0</ele>
        <time>2026-08-24T15:06:07Z</time>
      </trkpt>
      <trkpt lat="52.176098" lon="20.969448">
        <ele>0.0</ele>
        <time>2026-08-24T15:06:07Z</time>
      </trkpt>
      <trkpt lat="52.176098" lon="20.969219">
        <ele>0.0</ele>
        <time>2026-08-24T15:06:07Z</time>
      </trkpt>
      <trkpt lat="52.176029" lon="20.968971">
        <ele>0.0</ele>
        <time>2026-08-24T15:06:07Z</time>
      </trkpt>
      <trkpt lat="52.175934" lon="20.968702">
        <ele>0.0</ele>
        <time>2026-08-24T15:06:07Z</time>
      </trkpt>
      <trkpt lat="52.175819" lon="20.968409">
        <ele>0.0</ele>
        <time>2026-08-24T15:06:07Z</time>
      </trkpt>
      <trkpt lat="52.175743" lon="20.968189">
        <ele>0.0</ele>
        <time>2026-08-24T15:06:07Z</time>
      </trkpt>
      <trkpt lat="52.175663" lon="20.967979">
        <ele>0.0</ele>
        <time>2026-08-24T15:06:07Z</time>
      </trkpt>
      <trkpt lat="52.175549" lon="20.967674">
        <ele>0.0</ele>
        <time>2026-08-24T15:06:07Z</time>
      </trkpt>
      <trkpt lat="52.175457" lon="20.967407">
        <ele>0.0</ele>
        <time>2026-08-24T15:06:07Z</time>
      </trkpt>
      <trkpt lat="52.175354" lon="20.967133">
        <ele>0.0</ele>
        <time>2026-08-24T15:06:07Z</time>
      </trkpt>
      <trkpt lat="52.175259" lon="20.966898">
        <ele>0.0</ele>
        <time>2026-08-24T15:06:07Z</time>
      </trkpt>
      <trkpt lat="52.175014" lon="20.966249">
        <ele>0.0</ele>
        <time>2026-08-24T15:06:07Z</time>
      </trkpt>
      <trkpt lat="52.174896" lon="20.966015">
        <ele>0.0</ele>
        <time>2026-08-24T15:06:07Z</time>
      </trkpt>
      <trkpt lat="52.174725" lon="20.96571">
        <ele>0.0</ele>
        <time>2026-08-24T15:06:07Z</time>
      </trkpt>
      <trkpt lat="52.17461" lon="20.965481">
        <ele>0.0</ele>
        <time>2026-08-24T15:06:07Z</time>
      </trkpt>
      <trkpt lat="52.174496" lon="20.965176">
        <ele>0.0</ele>
        <time>2026-08-24T15:06:07Z</time>
      </trkpt>
      <trkpt lat="52.174385" lon="20.964838">
        <ele>0.0</ele>
        <time>2026-08-24T15:06:07Z</time>
      </trkpt>
      <trkpt lat="52.17429" lon="20.964546">
        <ele>0.0</ele>
        <time>2026-08-24T15:06:07Z</time>
      </trkpt>
      <trkpt lat="52.174202" lon="20.964289">
        <ele>0.0</ele>
        <time>2026-08-24T15:06:07Z</time>
      </trkpt>
      <trkpt lat="52.174026" lon="20.964088">
        <ele>0.0</ele>
        <time>2026-08-24T15:06:07Z</time>
      </trkpt>
      <trkpt lat="52.173817" lon="20.964111">
        <ele>0.0</ele>
        <time>2026-08-24T15:06:07Z</time>
      </trkpt>
      <trkpt lat="52.173584" lon="20.964289">
        <ele>0.0</ele>
        <time>2026-08-24T15:06:07Z</time>
      </trkpt>
      <trkpt lat="52.173351" lon="20.964489">
        <ele>0.0</ele>
        <time>2026-08-24T15:06:07Z</time>
      </trkpt>
      <trkpt lat="52.17313" lon="20.96468">
        <ele>0.0</ele>
        <time>2026-08-24T15:06:07Z</time>
      </trkpt>
      <trkpt lat="52.172897" lon="20.964876">
        <ele>0.0</ele>
        <time>2026-08-24T15:06:07Z</time>
      </trkpt>
      <trkpt lat="52.172665" lon="20.965073">
        <ele>0.0</ele>
        <time>2026-08-24T15:06:07Z</time>
      </trkpt>
      <trkpt lat="52.172115" lon="20.965563">
        <ele>0.0</ele>
        <time>2026-08-24T15:06:07Z</time>
      </trkpt>
      <trkpt lat="52.171616" lon="20.965994">
        <ele>0.0</ele>
        <time>2026-08-24T15:06:07Z</time>
      </trkpt>
      <trkpt lat="52.170883" lon="20.966642">
        <ele>0.0</ele>
        <time>2026-08-24T15:06:07Z</time>
      </trkpt>
      <trkpt lat="52.170181" lon="20.967255">
        <ele>0.0</ele>
        <time>2026-08-24T15:06:07Z</time>
      </trkpt>
      <trkpt lat="52.16943" lon="20.967897">
        <ele>0.0</ele>
        <time>2026-08-24T15:06:07Z</time>
      </trkpt>
      <trkpt lat="52.168709" lon="20.968525">
        <ele>0.0</ele>
        <time>2026-08-24T15:06:07Z</time>
      </trkpt>
      <trkpt lat="52.167824" lon="20.969315">
        <ele>0.0</ele>
        <time>2026-08-24T15:06:07Z</time>
      </trkpt>
      <trkpt lat="52.167091" lon="20.969944">
        <ele>0.0</ele>
        <time>2026-08-24T15:06:07Z</time>
      </trkpt>
      <trkpt lat="52.166782" lon="20.970287">
        <ele>0.0</ele>
        <time>2026-08-24T15:06:07Z</time>
      </trkpt>
      <trkpt lat="52.166611" lon="20.970644">
        <ele>0.0</ele>
        <time>2026-08-24T15:06:07Z</time>
      </trkpt>
      <trkpt lat="52.166542" lon="20.9709">
        <ele>0.0</ele>
        <time>2026-08-24T15:06:07Z</time>
      </trkpt>
      <trkpt lat="52.166473" lon="20.971107">
        <ele>0.0</ele>
        <time>2026-08-24T15:06:07Z</time>
      </trkpt>
      <trkpt lat="52.166393" lon="20.971413">
        <ele>0.0</ele>
        <time>2026-08-24T15:06:07Z</time>
      </trkpt>
      <trkpt lat="52.166325" lon="20.971661">
        <ele>0.0</ele>
        <time>2026-08-24T15:06:07Z</time>
      </trkpt>
      <trkpt lat="52.166233" lon="20.971985">
        <ele>0.0</ele>
        <time>2026-08-24T15:06:07Z</time>
      </trkpt>
      <trkpt lat="52.166157" lon="20.972273">
        <ele>0.0</ele>
        <time>2026-08-24T15:06:07Z</time>
      </trkpt>
      <trkpt lat="52.166088" lon="20.972507">
        <ele>0.0</ele>
        <time>2026-08-24T15:06:07Z</time>
      </trkpt>
      <trkpt lat="52.165997" lon="20.972822">
        <ele>0.0</ele>
        <time>2026-08-24T15:06:07Z</time>
      </trkpt>
      <trkpt lat="52.165924" lon="20.973057">
        <ele>0.0</ele>
        <time>2026-08-24T15:06:07Z</time>
      </trkpt>
      <trkpt lat="52.165627" lon="20.97414">
        <ele>0.0</ele>
        <time>2026-08-24T15:06:07Z</time>
      </trkpt>
      <trkpt lat="52.165443" lon="20.974827">
        <ele>0.0</ele>
        <time>2026-08-24T15:06:07Z</time>
      </trkpt>
      <trkpt lat="52.165352" lon="20.975132">
        <ele>0.0</ele>
        <time>2026-08-24T15:06:07Z</time>
      </trkpt>
      <trkpt lat="52.165272" lon="20.975399">
        <ele>0.0</ele>
        <time>2026-08-24T15:06:07Z</time>
      </trkpt>
      <trkpt lat="52.165192" lon="20.975687">
        <ele>0.0</ele>
        <time>2026-08-24T15:06:07Z</time>
      </trkpt>
      <trkpt lat="52.165123" lon="20.975941">
        <ele>0.0</ele>
        <time>2026-08-24T15:06:07Z</time>
      </trkpt>
      <trkpt lat="52.165043" lon="20.976238">
        <ele>0.0</ele>
        <time>2026-08-24T15:06:07Z</time>
      </trkpt>
      <trkpt lat="52.16494" lon="20.976563">
        <ele>0.0</ele>
        <time>2026-08-24T15:06:07Z</time>
      </trkpt>
      <trkpt lat="52.164883" lon="20.976772">
        <ele>0.0</ele>
        <time>2026-08-24T15:06:07Z</time>
      </trkpt>
      <trkpt lat="52.164551" lon="20.977982">
        <ele>0.0</ele>
        <time>2026-08-24T15:06:07Z</time>
      </trkpt>
      <trkpt lat="52.164448" lon="20.978334">
        <ele>0.0</ele>
        <time>2026-08-24T15:06:07Z</time>
      </trkpt>
      <trkpt lat="52.164276" lon="20.978966">
        <ele>0.0</ele>
        <time>2026-08-24T15:06:07Z</time>
      </trkpt>
      <trkpt lat="52.164135" lon="20.979433">
        <ele>0.0</ele>
        <time>2026-08-24T15:06:07Z</time>
      </trkpt>
      <trkpt lat="52.164082" lon="20.979633">
        <ele>0.0</ele>
        <time>2026-08-24T15:06:07Z</time>
      </trkpt>
      <trkpt lat="52.164024" lon="20.979862">
        <ele>0.0</ele>
        <time>2026-08-24T15:06:07Z</time>
      </trkpt>
      <trkpt lat="52.16391" lon="20.980225">
        <ele>0.0</ele>
        <time>2026-08-24T15:06:07Z</time>
      </trkpt>
      <trkpt lat="52.16383" lon="20.98053">
        <ele>0.0</ele>
        <time>2026-08-24T15:06:07Z</time>
      </trkpt>
      <trkpt lat="52.163761" lon="20.980787">
        <ele>0.0</ele>
        <time>2026-08-24T15:06:07Z</time>
      </trkpt>
      <trkpt lat="52.163422" lon="20.982004">
        <ele>0.0</ele>
        <time>2026-08-24T15:06:07Z</time>
      </trkpt>
      <trkpt lat="52.163303" lon="20.982418">
        <ele>0.0</ele>
        <time>2026-08-24T15:06:07Z</time>
      </trkpt>
      <trkpt lat="52.1632" lon="20.9828">
        <ele>0.0</ele>
        <time>2026-08-24T15:06:07Z</time>
      </trkpt>
      <trkpt lat="52.163097" lon="20.983162">
        <ele>0.0</ele>
        <time>2026-08-24T15:06:07Z</time>
      </trkpt>
      <trkpt lat="52.163029" lon="20.983391">
        <ele>0.0</ele>
        <time>2026-08-24T15:06:07Z</time>
      </trkpt>
      <trkpt lat="52.16296" lon="20.983658">
        <ele>0.0</ele>
        <time>2026-08-24T15:06:07Z</time>
      </trkpt>
      <trkpt lat="52.162865" lon="20.983984">
        <ele>0.0</ele>
        <time>2026-08-24T15:06:07Z</time>
      </trkpt>
      <trkpt lat="52.162796" lon="20.984221">
        <ele>0.0</ele>
        <time>2026-08-24T15:06:07Z</time>
      </trkpt>
      <trkpt lat="52.162689" lon="20.984476">
        <ele>0.0</ele>
        <time>2026-08-24T15:06:07Z</time>
      </trkpt>
      <trkpt lat="52.162376" lon="20.984688">
        <ele>0.0</ele>
        <time>2026-08-24T15:06:07Z</time>
      </trkpt>
      <trkpt lat="52.162121" lon="20.984592">
        <ele>0.0</ele>
        <time>2026-08-24T15:06:07Z</time>
      </trkpt>
      <trkpt lat="52.1619" lon="20.984417">
        <ele>0.0</ele>
        <time>2026-08-24T15:06:07Z</time>
      </trkpt>
      <trkpt lat="52.161667" lon="20.98424">
        <ele>0.0</ele>
        <time>2026-08-24T15:06:07Z</time>
      </trkpt>
      <trkpt lat="52.161427" lon="20.984058">
        <ele>0.0</ele>
        <time>2026-08-24T15:06:07Z</time>
      </trkpt>
      <trkpt lat="52.161232" lon="20.98381">
        <ele>0.0</ele>
        <time>2026-08-24T15:06:07Z</time>
      </trkpt>
      <trkpt lat="52.161186" lon="20.983524">
        <ele>0.0</ele>
        <time>2026-08-24T15:06:07Z</time>
      </trkpt>
      <trkpt lat="52.161232" lon="20.983276">
        <ele>0.0</ele>
        <time>2026-08-24T15:06:07Z</time>
      </trkpt>
      <trkpt lat="52.161293" lon="20.983044">
        <ele>0.0</ele>
        <time>2026-08-24T15:06:07Z</time>
      </trkpt>
      <trkpt lat="52.161369" lon="20.98278">
        <ele>0.0</ele>
        <time>2026-08-24T15:06:07Z</time>
      </trkpt>
      <trkpt lat="52.161434" lon="20.982553">
        <ele>0.0</ele>
        <time>2026-08-24T15:06:07Z</time>
      </trkpt>
      <trkpt lat="52.161503" lon="20.982298">
        <ele>0.0</ele>
        <time>2026-08-24T15:06:07Z</time>
      </trkpt>
      <trkpt lat="52.161564" lon="20.982056">
        <ele>0.0</ele>
        <time>2026-08-24T15:06:07Z</time>
      </trkpt>
      <trkpt lat="52.162014" lon="20.980513">
        <ele>0.0</ele>
        <time>2026-08-24T15:06:07Z</time>
      </trkpt>
      <trkpt lat="52.162155" lon="20.979885">
        <ele>0.0</ele>
        <time>2026-08-24T15:06:07Z</time>
      </trkpt>
      <trkpt lat="52.162354" lon="20.979309">
        <ele>0.0</ele>
        <time>2026-08-24T15:06:07Z</time>
      </trkpt>
      <trkpt lat="52.162762" lon="20.977844">
        <ele>45.72</ele>
        <time>2026-08-24T15:06:07Z</time>
      </trkpt>
      <trkpt lat="52.163818" lon="20.974045">
        <ele>45.72</ele>
        <time>2026-08-24T15:06:07Z</time>
      </trkpt>
      <trkpt lat="52.165787" lon="20.967026">
        <ele>45.72</ele>
        <time>2026-08-24T15:06:07Z</time>
      </trkpt>
      <trkpt lat="52.168392" lon="20.957754">
        <ele>53.34</ele>
        <time>2026-08-24T15:06:07Z</time>
      </trkpt>
      <trkpt lat="52.170868" lon="20.948944">
        <ele>152.4</ele>
        <time>2026-08-24T15:06:07Z</time>
      </trkpt>
      <trkpt lat="52.17247" lon="20.942841">
        <ele>220.98000000000002</ele>
        <time>2026-08-24T15:06:07Z</time>
      </trkpt>
      <trkpt lat="52.17485" lon="20.933456">
        <ele>320.04</ele>
        <time>2026-08-24T15:06:07Z</time>
      </trkpt>
      <trkpt lat="52.176544" lon="20.927429">
        <ele>388.62</ele>
        <time>2026-08-24T15:06:07Z</time>
      </trkpt>
      <trkpt lat="52.177277" lon="20.924988">
        <ele>411.48</ele>
        <time>2026-08-24T15:06:07Z</time>
      </trkpt>
      <trkpt lat="52.177872" lon="20.923004">
        <ele>434.34000000000003</ele>
        <time>2026-08-24T15:06:07Z</time>
      </trkpt>
      <trkpt lat="52.179192" lon="20.918362">
        <ele>480.06</ele>
        <time>2026-08-24T15:06:07Z</time>
      </trkpt>
      <trkpt lat="52.179749" lon="20.916519">
        <ele>502.92</ele>
        <time>2026-08-24T15:06:07Z</time>
      </trkpt>
      <trkpt lat="52.180893" lon="20.912476">
        <ele>548.64</ele>
        <time>2026-08-24T15:06:07Z</time>
      </trkpt>
      <trkpt lat="52.181442" lon="20.910416">
        <ele>563.88</ele>
        <time>2026-08-24T15:06:07Z</time>
      </trkpt>
      <trkpt lat="52.181892" lon="20.908865">
        <ele>579.12</ele>
        <time>2026-08-24T15:06:07Z</time>
      </trkpt>
      <trkpt lat="52.182541" lon="20.906296">
        <ele>601.98</ele>
        <time>2026-08-24T15:06:07Z</time>
      </trkpt>
      <trkpt lat="52.183044" lon="20.903702">
        <ele>624.84</ele>
        <time>2026-08-24T15:06:07Z</time>
      </trkpt>
      <trkpt lat="52.183365" lon="20.901413">
        <ele>640.08</ele>
        <time>2026-08-24T15:06:07Z</time>
      </trkpt>
      <trkpt lat="52.183548" lon="20.899124">
        <ele>662.94</ele>
        <time>2026-08-24T15:06:07Z</time>
      </trkpt>
      <trkpt lat="52.183567" lon="20.896231">
        <ele>685.8000000000001</ele>
        <time>2026-08-24T15:06:07Z</time>
      </trkpt>
      <trkpt lat="52.183456" lon="20.894165">
        <ele>701.0400000000001</ele>
        <time>2026-08-24T15:06:07Z</time>
      </trkpt>
      <trkpt lat="52.183273" lon="20.8918">
        <ele>716.2800000000001</ele>
        <time>2026-08-24T15:06:07Z</time>
      </trkpt>
      <trkpt lat="52.182999" lon="20.889435">
        <ele>731.52</ele>
        <time>2026-08-24T15:06:07Z</time>
      </trkpt>
      <trkpt lat="52.182636" lon="20.886501">
        <ele>762.0</ele>
        <time>2026-08-24T15:06:07Z</time>
      </trkpt>
      <trkpt lat="52.182404" lon="20.884617">
        <ele>777.24</ele>
        <time>2026-08-24T15:06:07Z</time>
      </trkpt>
      <trkpt lat="52.182034" lon="20.881792">
        <ele>800.1</ele>
        <time>2026-08-24T15:06:07Z</time>
      </trkpt>
      <trkpt lat="52.181717" lon="20.87883">
        <ele>822.96</ele>
        <time>2026-08-24T15:06:07Z</time>
      </trkpt>
      <trkpt lat="52.181488" lon="20.876541">
        <ele>845.82</ele>
        <time>2026-08-24T15:06:07Z</time>
      </trkpt>
      <trkpt lat="52.181259" lon="20.874176">
        <ele>861.0600000000001</ele>
        <time>2026-08-24T15:06:07Z</time>
      </trkpt>
      <trkpt lat="52.181103" lon="20.871983">
        <ele>883.9200000000001</ele>
        <time>2026-08-24T15:06:07Z</time>
      </trkpt>
      <trkpt lat="52.180962" lon="20.869785">
        <ele>906.7800000000001</ele>
        <time>2026-08-24T15:06:07Z</time>
      </trkpt>
      <trkpt lat="52.180847" lon="20.867157">
        <ele>922.0200000000001</ele>
        <time>2026-08-24T15:06:07Z</time>
      </trkpt>
      <trkpt lat="52.180729" lon="20.864607">
        <ele>944.88</ele>
        <time>2026-08-24T15:06:07Z</time>
      </trkpt>
      <trkpt lat="52.180588" lon="20.861782">
        <ele>967.74</ele>
        <time>2026-08-24T15:06:07Z</time>
      </trkpt>
      <trkpt lat="52.180435" lon="20.858765">
        <ele>990.6</ele>
        <time>2026-08-24T15:06:07Z</time>
      </trkpt>
      <trkpt lat="52.180264" lon="20.856602">
        <ele>1005.84</ele>
        <time>2026-08-24T15:06:07Z</time>
      </trkpt>
      <trkpt lat="52.180077" lon="20.854326">
        <ele>1028.7</ele>
        <time>2026-08-24T15:06:07Z</time>
      </trkpt>
      <trkpt lat="52.179794" lon="20.851746">
        <ele>1043.94</ele>
        <time>2026-08-24T15:06:07Z</time>
      </trkpt>
      <trkpt lat="52.179424" lon="20.84907">
        <ele>1066.8</ele>
        <time>2026-08-24T15:06:07Z</time>
      </trkpt>
      <trkpt lat="52.1791" lon="20.846792">
        <ele>1082.04</ele>
        <time>2026-08-24T15:06:07Z</time>
      </trkpt>
      <trkpt lat="52.17865" lon="20.844193">
        <ele>1089.66</ele>
        <time>2026-08-24T15:06:07Z</time>
      </trkpt>
      <trkpt lat="52.178028" lon="20.840986">
        <ele>1097.28</ele>
        <time>2026-08-24T15:06:07Z</time>
      </trkpt>
      <trkpt lat="52.177517" lon="20.838633">
        <ele>1104.9</ele>
        <time>2026-08-24T15:06:07Z</time>
      </trkpt>
      <trkpt lat="52.177048" lon="20.836334">
        <ele>1104.9</ele>
        <time>2026-08-24T15:06:07Z</time>
      </trkpt>
      <trkpt lat="52.176495" lon="20.833609">
        <ele>1104.9</ele>
        <time>2026-08-24T15:06:07Z</time>
      </trkpt>
      <trkpt lat="52.175995" lon="20.831146">
        <ele>1104.9</ele>
        <time>2026-08-24T15:06:07Z</time>
      </trkpt>
      <trkpt lat="52.175377" lon="20.827724">
        <ele>1112.52</ele>
        <time>2026-08-24T15:06:07Z</time>
      </trkpt>
      <trkpt lat="52.174862" lon="20.824978">
        <ele>1112.52</ele>
        <time>2026-08-24T15:06:07Z</time>
      </trkpt>
      <trkpt lat="52.174351" lon="20.822153">
        <ele>1120.14</ele>
        <time>2026-08-24T15:06:07Z</time>
      </trkpt>
      <trkpt lat="52.173889" lon="20.81955">
        <ele>1127.76</ele>
        <time>2026-08-24T15:06:07Z</time>
      </trkpt>
      <trkpt lat="52.173386" lon="20.816727">
        <ele>1143.0</ele>
        <time>2026-08-24T15:06:07Z</time>
      </trkpt>
      <trkpt lat="52.172722" lon="20.812971">
        <ele>1150.6200000000001</ele>
        <time>2026-08-24T15:06:07Z</time>
      </trkpt>
      <trkpt lat="52.172165" lon="20.809988">
        <ele>1158.24</ele>
        <time>2026-08-24T15:06:07Z</time>
      </trkpt>
      <trkpt lat="52.171604" lon="20.80685">
        <ele>1165.8600000000001</ele>
        <time>2026-08-24T15:06:07Z</time>
      </trkpt>
      <trkpt lat="52.169834" lon="20.797197">
        <ele>1211.5800000000002</ele>
        <time>2026-08-24T15:06:07Z</time>
      </trkpt>
      <trkpt lat="52.16748" lon="20.784302">
        <ele>1303.02</ele>
        <time>2026-08-24T15:06:07Z</time>
      </trkpt>
      <trkpt lat="52.165554" lon="20.774126">
        <ele>1379.22</ele>
        <time>2026-08-24T15:06:07Z</time>
      </trkpt>
      <trkpt lat="52.163132" lon="20.761179">
        <ele>1455.42</ele>
        <time>2026-08-24T15:06:07Z</time>
      </trkpt>
      <trkpt lat="52.16048" lon="20.746738">
        <ele>1524.0</ele>
        <time>2026-08-24T15:06:07Z</time>
      </trkpt>
      <trkpt lat="52.156357" lon="20.724564">
        <ele>1661.16</ele>
        <time>2026-08-24T15:06:07Z</time>
      </trkpt>
      <trkpt lat="52.152287" lon="20.702637">
        <ele>1805.94</ele>
        <time>2026-08-24T15:06:07Z</time>
      </trkpt>
      <trkpt lat="52.148254" lon="20.681152">
        <ele>1973.5800000000002</ele>
        <time>2026-08-24T15:06:07Z</time>
      </trkpt>
      <trkpt lat="52.144047" lon="20.658377">
        <ele>2141.2200000000003</ele>
        <time>2026-08-24T15:06:07Z</time>
      </trkpt>
      <trkpt lat="52.138924" lon="20.630991">
        <ele>2354.58</ele>
        <time>2026-08-24T15:06:07Z</time>
      </trkpt>
      <trkpt lat="52.13483" lon="20.608938">
        <ele>2491.7400000000002</ele>
        <time>2026-08-24T15:06:07Z</time>
      </trkpt>
      <trkpt lat="52.129761" lon="20.581894">
        <ele>2667.0</ele>
        <time>2026-08-24T15:06:07Z</time>
      </trkpt>
      <trkpt lat="52.124634" lon="20.554581">
        <ele>2819.4</ele>
        <time>2026-08-24T15:06:07Z</time>
      </trkpt>
      <trkpt lat="52.120148" lon="20.530624">
        <ele>2941.32</ele>
        <time>2026-08-24T15:06:07Z</time>
      </trkpt>
      <trkpt lat="52.115417" lon="20.505354">
        <ele>3040.38</ele>
        <time>2026-08-24T15:06:07Z</time>
      </trkpt>
      <trkpt lat="52.109879" lon="20.476004">
        <ele>3093.7200000000003</ele>
        <time>2026-08-24T15:06:07Z</time>
      </trkpt>
      <trkpt lat="52.104858" lon="20.449295">
        <ele>3177.54</ele>
        <time>2026-08-24T15:06:07Z</time>
      </trkpt>
      <trkpt lat="52.099777" lon="20.42244">
        <ele>3322.32</ele>
        <time>2026-08-24T15:06:07Z</time>
      </trkpt>
      <trkpt lat="52.094563" lon="20.394785">
        <ele>3482.34</ele>
        <time>2026-08-24T15:06:07Z</time>
      </trkpt>
      <trkpt lat="52.089294" lon="20.367126">
        <ele>3627.1200000000003</ele>
        <time>2026-08-24T15:06:07Z</time>
      </trkpt>
      <trkpt lat="52.083023" lon="20.334015">
        <ele>3703.32</ele>
        <time>2026-08-24T15:06:07Z</time>
      </trkpt>
      <trkpt lat="52.068558" lon="20.257797">
        <ele>3878.5800000000004</ele>
        <time>2026-08-24T15:06:07Z</time>
      </trkpt>
      <trkpt lat="52.053406" lon="20.178223">
        <ele>4091.94</ele>
        <time>2026-08-24T15:06:07Z</time>
      </trkpt>
      <trkpt lat="52.037815" lon="20.096741">
        <ele>4366.26</ele>
        <time>2026-08-24T15:06:07Z</time>
      </trkpt>
      <trkpt lat="52.022461" lon="20.01709">
        <ele>4655.820000000001</ele>
        <time>2026-08-24T15:06:07Z</time>
      </trkpt>
      <trkpt lat="52.00676" lon="19.935837">
        <ele>4869.18</ele>
        <time>2026-08-24T15:06:07Z</time>
      </trkpt>
      <trkpt lat="51.989868" lon="19.848633">
        <ele>5105.400000000001</ele>
        <time>2026-08-24T15:06:07Z</time>
      </trkpt>
      <trkpt lat="51.973114" lon="19.762878">
        <ele>5379.72</ele>
        <time>2026-08-24T15:06:07Z</time>
      </trkpt>
      <trkpt lat="51.955975" lon="19.67518">
        <ele>5562.6</ele>
        <time>2026-08-24T15:06:07Z</time>
      </trkpt>
      <trkpt lat="51.938461" lon="19.586334">
        <ele>5753.1</ele>
        <time>2026-08-24T15:06:07Z</time>
      </trkpt>
      <trkpt lat="51.921062" lon="19.498379">
        <ele>5981.700000000001</ele>
        <time>2026-08-24T15:06:07Z</time>
      </trkpt>
      <trkpt lat="51.903717" lon="19.411011">
        <ele>6240.780000000001</ele>
        <time>2026-08-24T15:06:07Z</time>
      </trkpt>
      <trkpt lat="51.886379" lon="19.324112">
        <ele>6492.240000000001</ele>
        <time>2026-08-24T15:06:07Z</time>
      </trkpt>
      <trkpt lat="51.868378" lon="19.234314">
        <ele>6644.64</ele>
        <time>2026-08-24T15:06:07Z</time>
      </trkpt>
      <trkpt lat="51.850159" lon="19.143974">
        <ele>6812.280000000001</ele>
        <time>2026-08-24T15:06:07Z</time>
      </trkpt>
      <trkpt lat="51.832054" lon="19.054337">
        <ele>7010.400000000001</ele>
        <time>2026-08-24T15:06:07Z</time>
      </trkpt>
      <trkpt lat="51.814911" lon="18.970049">
        <ele>7239.0</ele>
        <time>2026-08-24T15:06:07Z</time>
      </trkpt>
      <trkpt lat="51.796463" lon="18.879633">
        <ele>7376.160000000001</ele>
        <time>2026-08-24T15:06:07Z</time>
      </trkpt>
      <trkpt lat="51.77774" lon="18.788179">
        <ele>7536.18</ele>
        <time>2026-08-24T15:06:07Z</time>
      </trkpt>
      <trkpt lat="51.758919" lon="18.696823">
        <ele>7642.860000000001</ele>
        <time>2026-08-24T15:06:07Z</time>
      </trkpt>
      <trkpt lat="51.739838" lon="18.60453">
        <ele>7795.26</ele>
        <time>2026-08-24T15:06:07Z</time>
      </trkpt>
      <trkpt lat="51.72028" lon="18.510437">
        <ele>7940.04</ele>
        <time>2026-08-24T15:06:07Z</time>
      </trkpt>
      <trkpt lat="51.700928" lon="18.417837">
        <ele>8054.34</ele>
        <time>2026-08-24T15:06:07Z</time>
      </trkpt>
      <trkpt lat="51.681519" lon="18.32527">
        <ele>8145.780000000001</ele>
        <time>2026-08-24T15:06:07Z</time>
      </trkpt>
      <trkpt lat="51.661652" lon="18.231144">
        <ele>8260.08</ele>
        <time>2026-08-24T15:06:07Z</time>
      </trkpt>
      <trkpt lat="51.642025" lon="18.138428">
        <ele>8343.9</ele>
        <time>2026-08-24T15:06:07Z</time>
      </trkpt>
      <trkpt lat="51.622467" lon="18.046307">
        <ele>8427.720000000001</ele>
        <time>2026-08-24T15:06:07Z</time>
      </trkpt>
      <trkpt lat="51.602505" lon="17.95311">
        <ele>8519.16</ele>
        <time>2026-08-24T15:06:07Z</time>
      </trkpt>
      <trkpt lat="51.581772" lon="17.856718">
        <ele>8602.98</ele>
        <time>2026-08-24T15:06:07Z</time>
      </trkpt>
      <trkpt lat="51.559708" lon="17.762369">
        <ele>8732.52</ele>
        <time>2026-08-24T15:06:07Z</time>
      </trkpt>
      <trkpt lat="51.538193" lon="17.670172">
        <ele>8801.1</ele>
        <time>2026-08-24T15:06:07Z</time>
      </trkpt>
      <trkpt lat="51.516083" lon="17.575527">
        <ele>8907.78</ele>
        <time>2026-08-24T15:06:07Z</time>
      </trkpt>
      <trkpt lat="51.493881" lon="17.48103">
        <ele>9022.08</ele>
        <time>2026-08-24T15:06:07Z</time>
      </trkpt>
      <trkpt lat="51.472183" lon="17.38876">
        <ele>9182.1</ele>
        <time>2026-08-24T15:06:07Z</time>
      </trkpt>
      <trkpt lat="51.450531" lon="17.297306">
        <ele>9288.78</ele>
        <time>2026-08-24T15:06:07Z</time>
      </trkpt>
      <trkpt lat="51.428631" lon="17.205048">
        <ele>9380.220000000001</ele>
        <time>2026-08-24T15:06:07Z</time>
      </trkpt>
      <trkpt lat="51.406567" lon="17.112427">
        <ele>9479.28</ele>
        <time>2026-08-24T15:06:07Z</time>
      </trkpt>
      <trkpt lat="51.384476" lon="17.02042">
        <ele>9570.720000000001</ele>
        <time>2026-08-24T15:06:07Z</time>
      </trkpt>
      <trkpt lat="51.362778" lon="16.930304">
        <ele>9677.4</ele>
        <time>2026-08-24T15:06:07Z</time>
      </trkpt>
      <trkpt lat="51.340805" lon="16.839294">
        <ele>9768.84</ele>
        <time>2026-08-24T15:06:07Z</time>
      </trkpt>
      <trkpt lat="51.318302" lon="16.746445">
        <ele>9860.28</ele>
        <time>2026-08-24T15:06:07Z</time>
      </trkpt>
      <trkpt lat="51.296471" lon="16.656876">
        <ele>9966.960000000001</ele>
        <time>2026-08-24T15:06:07Z</time>
      </trkpt>
      <trkpt lat="51.274265" lon="16.566086">
        <ele>10027.92</ele>
        <time>2026-08-24T15:06:07Z</time>
      </trkpt>
      <trkpt lat="51.252293" lon="16.476593">
        <ele>10172.7</ele>
        <time>2026-08-24T15:06:07Z</time>
      </trkpt>
      <trkpt lat="51.231155" lon="16.391068">
        <ele>10454.640000000001</ele>
        <time>2026-08-24T15:06:07Z</time>
      </trkpt>
      <trkpt lat="51.209881" lon="16.305237">
        <ele>10561.32</ele>
        <time>2026-08-24T15:06:07Z</time>
      </trkpt>
      <trkpt lat="51.188469" lon="16.218948">
        <ele>10629.9</ele>
        <time>2026-08-24T15:06:07Z</time>
      </trkpt>
      <trkpt lat="51.167358" lon="16.134388">
        <ele>10706.1</ele>
        <time>2026-08-24T15:06:07Z</time>
      </trkpt>
      <trkpt lat="51.146244" lon="16.050034">
        <ele>10789.92</ele>
        <time>2026-08-24T15:06:07Z</time>
      </trkpt>
      <trkpt lat="51.124924" lon="15.965065">
        <ele>10866.12</ele>
        <time>2026-08-24T15:06:07Z</time>
      </trkpt>
      <trkpt lat="51.103371" lon="15.879669">
        <ele>10949.94</ele>
        <time>2026-08-24T15:06:07Z</time>
      </trkpt>
      <trkpt lat="51.082096" lon="15.795822">
        <ele>10972.800000000001</ele>
        <time>2026-08-24T15:06:07Z</time>
      </trkpt>
      <trkpt lat="51.060635" lon="15.711365">
        <ele>10972.800000000001</ele>
        <time>2026-08-24T15:06:07Z</time>
      </trkpt>
      <trkpt lat="51.038818" lon="15.625899">
        <ele>10972.800000000001</ele>
        <time>2026-08-24T15:06:07Z</time>
      </trkpt>
      <trkpt lat="51.017075" lon="15.540977">
        <ele>10972.800000000001</ele>
        <time>2026-08-24T15:06:07Z</time>
      </trkpt>
      <trkpt lat="50.994717" lon="15.454025">
        <ele>10972.800000000001</ele>
        <time>2026-08-24T15:06:07Z</time>
      </trkpt>
      <trkpt lat="50.972534" lon="15.368314">
        <ele>10972.800000000001</ele>
        <time>2026-08-24T15:06:07Z</time>
      </trkpt>
      <trkpt lat="50.951565" lon="15.283813">
        <ele>10972.800000000001</ele>
        <time>2026-08-24T15:06:07Z</time>
      </trkpt>
      <trkpt lat="50.933304" lon="15.19617">
        <ele>10972.800000000001</ele>
        <time>2026-08-24T15:06:07Z</time>
      </trkpt>
      <trkpt lat="50.915863" lon="15.110507">
        <ele>10972.800000000001</ele>
        <time>2026-08-24T15:06:07Z</time>
      </trkpt>
      <trkpt lat="50.898285" lon="15.024323">
        <ele>10972.800000000001</ele>
        <time>2026-08-24T15:06:07Z</time>
      </trkpt>
      <trkpt lat="50.880203" lon="14.936582">
        <ele>10972.800000000001</ele>
        <time>2026-08-24T15:06:07Z</time>
      </trkpt>
      <trkpt lat="50.860367" lon="14.850388">
        <ele>10972.800000000001</ele>
        <time>2026-08-24T15:06:07Z</time>
      </trkpt>
      <trkpt lat="50.8358" lon="14.76852">
        <ele>10972.800000000001</ele>
        <time>2026-08-24T15:06:07Z</time>
      </trkpt>
      <trkpt lat="50.810696" lon="14.687653">
        <ele>10972.800000000001</ele>
        <time>2026-08-24T15:06:07Z</time>
      </trkpt>
      <trkpt lat="50.785278" lon="14.606247">
        <ele>10972.800000000001</ele>
        <time>2026-08-24T15:06:07Z</time>
      </trkpt>
      <trkpt lat="50.75972" lon="14.524668">
        <ele>10972.800000000001</ele>
        <time>2026-08-24T15:06:07Z</time>
      </trkpt>
      <trkpt lat="50.733746" lon="14.442062">
        <ele>10972.800000000001</ele>
        <time>2026-08-24T15:06:07Z</time>
      </trkpt>
      <trkpt lat="50.708469" lon="14.36203">
        <ele>10972.800000000001</ele>
        <time>2026-08-24T15:06:07Z</time>
      </trkpt>
      <trkpt lat="50.682537" lon="14.280014">
        <ele>10972.800000000001</ele>
        <time>2026-08-24T15:06:07Z</time>
      </trkpt>
      <trkpt lat="50.656815" lon="14.199106">
        <ele>10972.800000000001</ele>
        <time>2026-08-24T15:06:07Z</time>
      </trkpt>
      <trkpt lat="50.630814" lon="14.117648">
        <ele>10972.800000000001</ele>
        <time>2026-08-24T15:06:07Z</time>
      </trkpt>
      <trkpt lat="50.604492" lon="14.035179">
        <ele>10972.800000000001</ele>
        <time>2026-08-24T15:06:07Z</time>
      </trkpt>
      <trkpt lat="50.578217" lon="13.953231">
        <ele>10972.800000000001</ele>
        <time>2026-08-24T15:06:07Z</time>
      </trkpt>
      <trkpt lat="50.55196" lon="13.871946">
        <ele>10972.800000000001</ele>
        <time>2026-08-24T15:06:07Z</time>
      </trkpt>
      <trkpt lat="50.525333" lon="13.789994">
        <ele>10972.800000000001</ele>
        <time>2026-08-24T15:06:07Z</time>
      </trkpt>
      <trkpt lat="50.4967" lon="13.710418">
        <ele>10972.800000000001</ele>
        <time>2026-08-24T15:06:07Z</time>
      </trkpt>
      <trkpt lat="50.468166" lon="13.630692">
        <ele>10972.800000000001</ele>
        <time>2026-08-24T15:06:07Z</time>
      </trkpt>
      <trkpt lat="50.439861" lon="13.551487">
        <ele>10972.800000000001</ele>
        <time>2026-08-24T15:06:07Z</time>
      </trkpt>
      <trkpt lat="50.411556" lon="13.472356">
        <ele>10972.800000000001</ele>
        <time>2026-08-24T15:06:07Z</time>
      </trkpt>
      <trkpt lat="50.383392" lon="13.393893">
        <ele>10972.800000000001</ele>
        <time>2026-08-24T15:06:07Z</time>
      </trkpt>
      <trkpt lat="50.354904" lon="13.314613">
        <ele>10972.800000000001</ele>
        <time>2026-08-24T15:06:07Z</time>
      </trkpt>
      <trkpt lat="50.326447" lon="13.235851">
        <ele>10972.800000000001</ele>
        <time>2026-08-24T15:06:07Z</time>
      </trkpt>
      <trkpt lat="50.297691" lon="13.156351">
        <ele>10972.800000000001</ele>
        <time>2026-08-24T15:06:07Z</time>
      </trkpt>
      <trkpt lat="50.269016" lon="13.077517">
        <ele>10972.800000000001</ele>
        <time>2026-08-24T15:06:07Z</time>
      </trkpt>
      <trkpt lat="50.239922" lon="12.997643">
        <ele>10972.800000000001</ele>
        <time>2026-08-24T15:06:07Z</time>
      </trkpt>
      <trkpt lat="50.21143" lon="12.919699">
        <ele>10972.800000000001</ele>
        <time>2026-08-24T15:06:07Z</time>
      </trkpt>
      <trkpt lat="50.182846" lon="12.841681">
        <ele>10972.800000000001</ele>
        <time>2026-08-24T15:06:07Z</time>
      </trkpt>
      <trkpt lat="50.154602" lon="12.764885">
        <ele>10972.800000000001</ele>
        <time>2026-08-24T15:06:07Z</time>
      </trkpt>
      <trkpt lat="50.125446" lon="12.685794">
        <ele>10972.800000000001</ele>
        <time>2026-08-24T15:06:07Z</time>
      </trkpt>
      <trkpt lat="50.097191" lon="12.609409">
        <ele>10972.800000000001</ele>
        <time>2026-08-24T15:06:07Z</time>
      </trkpt>
      <trkpt lat="50.068588" lon="12.532292">
        <ele>10972.800000000001</ele>
        <time>2026-08-24T15:06:07Z</time>
      </trkpt>
      <trkpt lat="50.039291" lon="12.453653">
        <ele>10972.800000000001</ele>
        <time>2026-08-24T15:06:07Z</time>
      </trkpt>
      <trkpt lat="50.010086" lon="12.375376">
        <ele>10972.800000000001</ele>
        <time>2026-08-24T15:06:07Z</time>
      </trkpt>
      <trkpt lat="49.980949" lon="12.297635">
        <ele>10972.800000000001</ele>
        <time>2026-08-24T15:06:07Z</time>
      </trkpt>
      <trkpt lat="49.951763" lon="12.219914">
        <ele>10972.800000000001</ele>
        <time>2026-08-24T15:06:07Z</time>
      </trkpt>
      <trkpt lat="49.922573" lon="12.142416">
        <ele>10972.800000000001</ele>
        <time>2026-08-24T15:06:07Z</time>
      </trkpt>
      <trkpt lat="49.893944" lon="12.066551">
        <ele>10972.800000000001</ele>
        <time>2026-08-24T15:06:07Z</time>
      </trkpt>
      <trkpt lat="49.865845" lon="11.992373">
        <ele>10972.800000000001</ele>
        <time>2026-08-24T15:06:07Z</time>
      </trkpt>
      <trkpt lat="49.83728" lon="11.917274">
        <ele>10972.800000000001</ele>
        <time>2026-08-24T15:06:07Z</time>
      </trkpt>
      <trkpt lat="49.809731" lon="11.844894">
        <ele>10972.800000000001</ele>
        <time>2026-08-24T15:06:07Z</time>
      </trkpt>
      <trkpt lat="49.781567" lon="11.771182">
        <ele>10972.800000000001</ele>
        <time>2026-08-24T15:06:07Z</time>
      </trkpt>
      <trkpt lat="49.752983" lon="11.696579">
        <ele>10972.800000000001</ele>
        <time>2026-08-24T15:06:07Z</time>
      </trkpt>
      <trkpt lat="49.724121" lon="11.621511">
        <ele>10972.800000000001</ele>
        <time>2026-08-24T15:06:07Z</time>
      </trkpt>
      <trkpt lat="49.6954" lon="11.547002">
        <ele>10972.800000000001</ele>
        <time>2026-08-24T15:06:07Z</time>
      </trkpt>
      <trkpt lat="49.667187" lon="11.473884">
        <ele>10972.800000000001</ele>
        <time>2026-08-24T15:06:07Z</time>
      </trkpt>
      <trkpt lat="49.638" lon="11.398686">
        <ele>10972.800000000001</ele>
        <time>2026-08-24T15:06:07Z</time>
      </trkpt>
      <trkpt lat="49.609451" lon="11.325242">
        <ele>10972.800000000001</ele>
        <time>2026-08-24T15:06:07Z</time>
      </trkpt>
      <trkpt lat="49.581112" lon="11.252523">
        <ele>10972.800000000001</ele>
        <time>2026-08-24T15:06:07Z</time>
      </trkpt>
      <trkpt lat="49.552368" lon="11.178878">
        <ele>10972.800000000001</ele>
        <time>2026-08-24T15:06:07Z</time>
      </trkpt>
      <trkpt lat="49.523899" lon="11.106287">
        <ele>10972.800000000001</ele>
        <time>2026-08-24T15:06:07Z</time>
      </trkpt>
      <trkpt lat="49.495457" lon="11.033911">
        <ele>10972.800000000001</ele>
        <time>2026-08-24T15:06:07Z</time>
      </trkpt>
      <trkpt lat="49.466812" lon="10.961247">
        <ele>10972.800000000001</ele>
        <time>2026-08-24T15:06:07Z</time>
      </trkpt>
      <trkpt lat="49.438103" lon="10.888565">
        <ele>10972.800000000001</ele>
        <time>2026-08-24T15:06:07Z</time>
      </trkpt>
      <trkpt lat="49.409706" lon="10.816835">
        <ele>10972.800000000001</ele>
        <time>2026-08-24T15:06:07Z</time>
      </trkpt>
      <trkpt lat="49.38121" lon="10.745122">
        <ele>10972.800000000001</ele>
        <time>2026-08-24T15:06:07Z</time>
      </trkpt>
      <trkpt lat="49.352371" lon="10.672725">
        <ele>10972.800000000001</ele>
        <time>2026-08-24T15:06:07Z</time>
      </trkpt>
      <trkpt lat="49.323395" lon="10.600257">
        <ele>10972.800000000001</ele>
        <time>2026-08-24T15:06:07Z</time>
      </trkpt>
      <trkpt lat="49.293732" lon="10.52624">
        <ele>10972.800000000001</ele>
        <time>2026-08-24T15:06:07Z</time>
      </trkpt>
      <trkpt lat="49.264511" lon="10.453419">
        <ele>10972.800000000001</ele>
        <time>2026-08-24T15:06:07Z</time>
      </trkpt>
      <trkpt lat="49.232716" lon="10.381574">
        <ele>10972.800000000001</ele>
        <time>2026-08-24T15:06:07Z</time>
      </trkpt>
      <trkpt lat="49.222893" lon="10.363721">
        <ele>10972.800000000001</ele>
        <time>2026-08-24T15:06:07Z</time>
      </trkpt>
      <trkpt lat="49.218201" lon="10.355671">
        <ele>10972.800000000001</ele>
        <time>2026-08-24T15:06:07Z</time>
      </trkpt>
      <trkpt lat="49.214981" lon="10.350422">
        <ele>10972.800000000001</ele>
        <time>2026-08-24T15:06:07Z</time>
      </trkpt>
      <trkpt lat="49.174896" lon="10.288133">
        <ele>10972.800000000001</ele>
        <time>2026-08-24T15:06:07Z</time>
      </trkpt>
      <trkpt lat="49.136494" lon="10.22567">
        <ele>10972.800000000001</ele>
        <time>2026-08-24T15:06:07Z</time>
      </trkpt>
      <trkpt lat="49.100647" lon="10.158668">
        <ele>10972.800000000001</ele>
        <time>2026-08-24T15:06:07Z</time>
      </trkpt>
      <trkpt lat="49.065582" lon="10.09221">
        <ele>10972.800000000001</ele>
        <time>2026-08-24T15:06:07Z</time>
      </trkpt>
      <trkpt lat="49.030445" lon="10.02582">
        <ele>10972.800000000001</ele>
        <time>2026-08-24T15:06:07Z</time>
      </trkpt>
      <trkpt lat="48.996231" lon="9.961219">
        <ele>10972.800000000001</ele>
        <time>2026-08-24T15:06:07Z</time>
      </trkpt>
      <trkpt lat="48.959381" lon="9.891992">
        <ele>10972.800000000001</ele>
        <time>2026-08-24T15:06:07Z</time>
      </trkpt>
      <trkpt lat="48.924866" lon="9.827126">
        <ele>10957.560000000001</ele>
        <time>2026-08-24T15:06:07Z</time>
      </trkpt>
      <trkpt lat="48.890045" lon="9.762003">
        <ele>10805.16</ele>
        <time>2026-08-24T15:06:07Z</time>
      </trkpt>
      <trkpt lat="48.854897" lon="9.696374">
        <ele>10645.140000000001</ele>
        <time>2026-08-24T15:06:07Z</time>
      </trkpt>
      <trkpt lat="48.819763" lon="9.630925">
        <ele>10492.74</ele>
        <time>2026-08-24T15:06:07Z</time>
      </trkpt>
      <trkpt lat="48.783394" lon="9.563382">
        <ele>10332.720000000001</ele>
        <time>2026-08-24T15:06:07Z</time>
      </trkpt>
      <trkpt lat="48.747456" lon="9.496885">
        <ele>10180.32</ele>
        <time>2026-08-24T15:06:07Z</time>
      </trkpt>
      <trkpt lat="48.710445" lon="9.428438">
        <ele>10050.78</ele>
        <time>2026-08-24T15:06:07Z</time>
      </trkpt>
      <trkpt lat="48.673325" lon="9.36">
        <ele>10058.4</ele>
        <time>2026-08-24T15:06:07Z</time>
      </trkpt>
      <trkpt lat="48.636662" lon="9.292482">
        <ele>10058.4</ele>
        <time>2026-08-24T15:06:07Z</time>
      </trkpt>
      <trkpt lat="48.600723" lon="9.222248">
        <ele>10058.4</ele>
        <time>2026-08-24T15:06:07Z</time>
      </trkpt>
      <trkpt lat="48.567352" lon="9.151118">
        <ele>10058.4</ele>
        <time>2026-08-24T15:06:07Z</time>
      </trkpt>
      <trkpt lat="48.528149" lon="9.083236">
        <ele>10058.4</ele>
        <time>2026-08-24T15:06:07Z</time>
      </trkpt>
      <trkpt lat="48.525867" lon="9.079911">
        <ele>10058.4</ele>
        <time>2026-08-24T15:06:07Z</time>
      </trkpt>
      <trkpt lat="48.522354" lon="9.075059">
        <ele>10058.4</ele>
        <time>2026-08-24T15:06:07Z</time>
      </trkpt>
      <trkpt lat="48.478409" lon="9.017592">
        <ele>10058.4</ele>
        <time>2026-08-24T15:06:07Z</time>
      </trkpt>
      <trkpt lat="48.434017" lon="8.960001">
        <ele>10058.4</ele>
        <time>2026-08-24T15:06:07Z</time>
      </trkpt>
      <trkpt lat="48.389889" lon="8.902901">
        <ele>10058.4</ele>
        <time>2026-08-24T15:06:07Z</time>
      </trkpt>
      <trkpt lat="48.346455" lon="8.846886">
        <ele>10035.54</ele>
        <time>2026-08-24T15:06:07Z</time>
      </trkpt>
      <trkpt lat="48.302078" lon="8.789766">
        <ele>9959.34</ele>
        <time>2026-08-24T15:06:07Z</time>
      </trkpt>
      <trkpt lat="48.257401" lon="8.732396">
        <ele>9875.52</ele>
        <time>2026-08-24T15:06:07Z</time>
      </trkpt>
      <trkpt lat="48.213409" lon="8.676019">
        <ele>9806.94</ele>
        <time>2026-08-24T15:06:07Z</time>
      </trkpt>
      <trkpt lat="48.16909" lon="8.619425">
        <ele>9723.12</ele>
        <time>2026-08-24T15:06:07Z</time>
      </trkpt>
      <trkpt lat="48.125469" lon="8.563772">
        <ele>9646.92</ele>
        <time>2026-08-24T15:06:07Z</time>
      </trkpt>
      <trkpt lat="48.081806" lon="8.508137">
        <ele>9563.1</ele>
        <time>2026-08-24T15:06:07Z</time>
      </trkpt>
      <trkpt lat="48.036255" lon="8.45034">
        <ele>9486.9</ele>
        <time>2026-08-24T15:06:07Z</time>
      </trkpt>
      <trkpt lat="47.993168" lon="8.395808">
        <ele>9448.800000000001</ele>
        <time>2026-08-24T15:06:07Z</time>
      </trkpt>
      <trkpt lat="47.948757" lon="8.33968">
        <ele>9448.800000000001</ele>
        <time>2026-08-24T15:06:07Z</time>
      </trkpt>
      <trkpt lat="47.90419" lon="8.283554">
        <ele>9448.800000000001</ele>
        <time>2026-08-24T15:06:07Z</time>
      </trkpt>
      <trkpt lat="47.859612" lon="8.227492">
        <ele>9448.800000000001</ele>
        <time>2026-08-24T15:06:07Z</time>
      </trkpt>
      <trkpt lat="47.814827" lon="8.171223">
        <ele>9448.800000000001</ele>
        <time>2026-08-24T15:06:07Z</time>
      </trkpt>
      <trkpt lat="47.771347" lon="8.116905">
        <ele>9448.800000000001</ele>
        <time>2026-08-24T15:06:07Z</time>
      </trkpt>
      <trkpt lat="47.726936" lon="8.06143">
        <ele>9448.800000000001</ele>
        <time>2026-08-24T15:06:07Z</time>
      </trkpt>
      <trkpt lat="47.682632" lon="8.006218">
        <ele>9448.800000000001</ele>
        <time>2026-08-24T15:06:07Z</time>
      </trkpt>
      <trkpt lat="47.638767" lon="7.951707">
        <ele>9448.800000000001</ele>
        <time>2026-08-24T15:06:07Z</time>
      </trkpt>
      <trkpt lat="47.594913" lon="7.897268">
        <ele>9448.800000000001</ele>
        <time>2026-08-24T15:06:07Z</time>
      </trkpt>
      <trkpt lat="47.550598" lon="7.842478">
        <ele>9448.800000000001</ele>
        <time>2026-08-24T15:06:07Z</time>
      </trkpt>
      <trkpt lat="47.506119" lon="7.787521">
        <ele>9448.800000000001</ele>
        <time>2026-08-24T15:06:07Z</time>
      </trkpt>
      <trkpt lat="47.462036" lon="7.733208">
        <ele>9448.800000000001</ele>
        <time>2026-08-24T15:06:07Z</time>
      </trkpt>
      <trkpt lat="47.418823" lon="7.68013">
        <ele>9304.02</ele>
        <time>2026-08-24T15:06:07Z</time>
      </trkpt>
      <trkpt lat="47.375153" lon="7.626572">
        <ele>8945.880000000001</ele>
        <time>2026-08-24T15:06:07Z</time>
      </trkpt>
      <trkpt lat="47.334549" lon="7.574087">
        <ele>8610.6</ele>
        <time>2026-08-24T15:06:07Z</time>
      </trkpt>
      <trkpt lat="47.297771" lon="7.516973">
        <ele>8275.32</ele>
        <time>2026-08-24T15:06:07Z</time>
      </trkpt>
      <trkpt lat="47.26062" lon="7.45752">
        <ele>7932.42</ele>
        <time>2026-08-24T15:06:07Z</time>
      </trkpt>
      <trkpt lat="47.224457" lon="7.399841">
        <ele>7719.06</ele>
        <time>2026-08-24T15:06:07Z</time>
      </trkpt>
      <trkpt lat="47.187927" lon="7.341682">
        <ele>7559.04</ele>
        <time>2026-08-24T15:06:07Z</time>
      </trkpt>
      <trkpt lat="47.151691" lon="7.284076">
        <ele>7399.02</ele>
        <time>2026-08-24T15:06:07Z</time>
      </trkpt>
      <trkpt lat="47.115646" lon="7.227013">
        <ele>7246.620000000001</ele>
        <time>2026-08-24T15:06:07Z</time>
      </trkpt>
      <trkpt lat="47.079666" lon="7.170158">
        <ele>7086.6</ele>
        <time>2026-08-24T15:06:07Z</time>
      </trkpt>
      <trkpt lat="47.043503" lon="7.113014">
        <ele>6896.1</ele>
        <time>2026-08-24T15:06:07Z</time>
      </trkpt>
      <trkpt lat="47.007286" lon="7.055969">
        <ele>6697.9800000000005</ele>
        <time>2026-08-24T15:06:07Z</time>
      </trkpt>
      <trkpt lat="46.971394" lon="6.999629">
        <ele>6507.4800000000005</ele>
        <time>2026-08-24T15:06:07Z</time>
      </trkpt>
      <trkpt lat="46.935131" lon="6.942796">
        <ele>6309.360000000001</ele>
        <time>2026-08-24T15:06:07Z</time>
      </trkpt>
      <trkpt lat="46.918369" lon="6.919133">
        <ele>6225.54</ele>
        <time>2026-08-24T15:06:07Z</time>
      </trkpt>
      <trkpt lat="46.91581" lon="6.916175">
        <ele>6210.3</ele>
        <time>2026-08-24T15:06:07Z</time>
      </trkpt>
      <trkpt lat="46.912445" lon="6.912598">
        <ele>6195.06</ele>
        <time>2026-08-24T15:06:07Z</time>
      </trkpt>
      <trkpt lat="46.910294" lon="6.9104">
        <ele>6187.4400000000005</ele>
        <time>2026-08-24T15:06:07Z</time>
      </trkpt>
      <trkpt lat="46.90678" lon="6.90702">
        <ele>6172.200000000001</ele>
        <time>2026-08-24T15:06:07Z</time>
      </trkpt>
      <trkpt lat="46.904034" lon="6.904485">
        <ele>6156.96</ele>
        <time>2026-08-24T15:06:07Z</time>
      </trkpt>
      <trkpt lat="46.902264" lon="6.902936">
        <ele>6149.34</ele>
        <time>2026-08-24T15:06:07Z</time>
      </trkpt>
      <trkpt lat="46.898712" lon="6.900032">
        <ele>6134.1</ele>
        <time>2026-08-24T15:06:07Z</time>
      </trkpt>
      <trkpt lat="46.895" lon="6.89709">
        <ele>6118.860000000001</ele>
        <time>2026-08-24T15:06:07Z</time>
      </trkpt>
      <trkpt lat="46.892395" lon="6.895157">
        <ele>6111.240000000001</ele>
        <time>2026-08-24T15:06:07Z</time>
      </trkpt>
      <trkpt lat="46.889374" lon="6.893028">
        <ele>6096.0</ele>
        <time>2026-08-24T15:06:07Z</time>
      </trkpt>
      <trkpt lat="46.886536" lon="6.891174">
        <ele>6080.76</ele>
        <time>2026-08-24T15:06:07Z</time>
      </trkpt>
      <trkpt lat="46.882965" lon="6.888908">
        <ele>6065.52</ele>
        <time>2026-08-24T15:06:07Z</time>
      </trkpt>
      <trkpt lat="46.879852" lon="6.886986">
        <ele>6057.900000000001</ele>
        <time>2026-08-24T15:06:07Z</time>
      </trkpt>
      <trkpt lat="46.876831" lon="6.885132">
        <ele>6042.66</ele>
        <time>2026-08-24T15:06:07Z</time>
      </trkpt>
      <trkpt lat="46.873634" lon="6.883216">
        <ele>6027.42</ele>
        <time>2026-08-24T15:06:07Z</time>
      </trkpt>
      <trkpt lat="46.870655" lon="6.881385">
        <ele>6019.8</ele>
        <time>2026-08-24T15:06:07Z</time>
      </trkpt>
      <trkpt lat="46.867069" lon="6.879227">
        <ele>6004.56</ele>
        <time>2026-08-24T15:06:07Z</time>
      </trkpt>
      <trkpt lat="46.864975" lon="6.877977">
        <ele>5989.320000000001</ele>
        <time>2026-08-24T15:06:07Z</time>
      </trkpt>
      <trkpt lat="46.816635" lon="6.849038">
        <ele>5798.820000000001</ele>
        <time>2026-08-24T15:06:07Z</time>
      </trkpt>
      <trkpt lat="46.76976" lon="6.820902">
        <ele>5608.320000000001</ele>
        <time>2026-08-24T15:06:07Z</time>
      </trkpt>
      <trkpt lat="46.723526" lon="6.793302">
        <ele>5417.820000000001</ele>
        <time>2026-08-24T15:06:07Z</time>
      </trkpt>
      <trkpt lat="46.677322" lon="6.765656">
        <ele>5219.7</ele>
        <time>2026-08-24T15:06:07Z</time>
      </trkpt>
      <trkpt lat="46.633484" lon="6.735021">
        <ele>5029.2</ele>
        <time>2026-08-24T15:06:07Z</time>
      </trkpt>
      <trkpt lat="46.591995" lon="6.702072">
        <ele>4831.08</ele>
        <time>2026-08-24T15:06:07Z</time>
      </trkpt>
      <trkpt lat="46.55233" lon="6.67083">
        <ele>4632.96</ele>
        <time>2026-08-24T15:06:07Z</time>
      </trkpt>
      <trkpt lat="46.512901" lon="6.639862">
        <ele>4442.46</ele>
        <time>2026-08-24T15:06:07Z</time>
      </trkpt>
      <trkpt lat="46.475189" lon="6.610152">
        <ele>4244.34</ele>
        <time>2026-08-24T15:06:07Z</time>
      </trkpt>
      <trkpt lat="46.437515" lon="6.58061">
        <ele>4053.84</ele>
        <time>2026-08-24T15:06:07Z</time>
      </trkpt>
      <trkpt lat="46.401123" lon="6.550665">
        <ele>3863.34</ele>
        <time>2026-08-24T15:06:07Z</time>
      </trkpt>
      <trkpt lat="46.394611" lon="6.543457">
        <ele>3825.2400000000002</ele>
        <time>2026-08-24T15:06:07Z</time>
      </trkpt>
      <trkpt lat="46.392746" lon="6.541152">
        <ele>3810.0</ele>
        <time>2026-08-24T15:06:07Z</time>
      </trkpt>
      <trkpt lat="46.39056" lon="6.538445">
        <ele>3794.76</ele>
        <time>2026-08-24T15:06:07Z</time>
      </trkpt>
      <trkpt lat="46.388607" lon="6.535835">
        <ele>3787.1400000000003</ele>
        <time>2026-08-24T15:06:07Z</time>
      </trkpt>
      <trkpt lat="46.38628" lon="6.532745">
        <ele>3771.9</ele>
        <time>2026-08-24T15:06:07Z</time>
      </trkpt>
      <trkpt lat="46.384418" lon="6.530067">
        <ele>3756.6600000000003</ele>
        <time>2026-08-24T15:06:07Z</time>
      </trkpt>
      <trkpt lat="46.382927" lon="6.52787">
        <ele>3749.04</ele>
        <time>2026-08-24T15:06:07Z</time>
      </trkpt>
      <trkpt lat="46.380432" lon="6.524204">
        <ele>3733.8</ele>
        <time>2026-08-24T15:06:07Z</time>
      </trkpt>
      <trkpt lat="46.37846" lon="6.521278">
        <ele>3718.5600000000004</ele>
        <time>2026-08-24T15:06:07Z</time>
      </trkpt>
      <trkpt lat="46.376644" lon="6.518532">
        <ele>3710.94</ele>
        <time>2026-08-24T15:06:07Z</time>
      </trkpt>
      <trkpt lat="46.374985" lon="6.516031">
        <ele>3695.7000000000003</ele>
        <time>2026-08-24T15:06:07Z</time>
      </trkpt>
      <trkpt lat="46.345268" lon="6.472046">
        <ele>3497.5800000000004</ele>
        <time>2026-08-24T15:06:07Z</time>
      </trkpt>
      <trkpt lat="46.333694" lon="6.454937">
        <ele>3429.0</ele>
        <time>2026-08-24T15:06:07Z</time>
      </trkpt>
      <trkpt lat="46.322128" lon="6.437851">
        <ele>3375.6600000000003</ele>
        <time>2026-08-24T15:06:07Z</time>
      </trkpt>
      <trkpt lat="46.30838" lon="6.417556">
        <ele>3307.0800000000004</ele>
        <time>2026-08-24T15:06:07Z</time>
      </trkpt>
      <trkpt lat="46.296761" lon="6.40036">
        <ele>3238.5</ele>
        <time>2026-08-24T15:06:07Z</time>
      </trkpt>
      <trkpt lat="46.285309" lon="6.383537">
        <ele>3162.3</ele>
        <time>2026-08-24T15:06:07Z</time>
      </trkpt>
      <trkpt lat="46.273453" lon="6.365974">
        <ele>3025.1400000000003</ele>
        <time>2026-08-24T15:06:07Z</time>
      </trkpt>
      <trkpt lat="46.260075" lon="6.346252">
        <ele>2880.36</ele>
        <time>2026-08-24T15:06:07Z</time>
      </trkpt>
      <trkpt lat="46.248184" lon="6.328795">
        <ele>2758.44</ele>
        <time>2026-08-24T15:06:07Z</time>
      </trkpt>
      <trkpt lat="46.236473" lon="6.311508">
        <ele>2659.38</ele>
        <time>2026-08-24T15:06:07Z</time>
      </trkpt>
      <trkpt lat="46.2253" lon="6.295097">
        <ele>2560.32</ele>
        <time>2026-08-24T15:06:07Z</time>
      </trkpt>
      <trkpt lat="46.213623" lon="6.27795">
        <ele>2430.78</ele>
        <time>2026-08-24T15:06:07Z</time>
      </trkpt>
      <trkpt lat="46.20076" lon="6.258992">
        <ele>2385.06</ele>
        <time>2026-08-24T15:06:07Z</time>
      </trkpt>
      <trkpt lat="46.189178" lon="6.241976">
        <ele>2362.2000000000003</ele>
        <time>2026-08-24T15:06:07Z</time>
      </trkpt>
      <trkpt lat="46.178192" lon="6.225698">
        <ele>2339.34</ele>
        <time>2026-08-24T15:06:07Z</time>
      </trkpt>
      <trkpt lat="46.165157" lon="6.206245">
        <ele>2316.48</ele>
        <time>2026-08-24T15:06:07Z</time>
      </trkpt>
      <trkpt lat="46.152512" lon="6.187447">
        <ele>2293.62</ele>
        <time>2026-08-24T15:06:07Z</time>
      </trkpt>
      <trkpt lat="46.141647" lon="6.171364">
        <ele>2278.38</ele>
        <time>2026-08-24T15:06:07Z</time>
      </trkpt>
      <trkpt lat="46.12912" lon="6.152812">
        <ele>2255.52</ele>
        <time>2026-08-24T15:06:07Z</time>
      </trkpt>
      <trkpt lat="46.117718" lon="6.135933">
        <ele>2232.6600000000003</ele>
        <time>2026-08-24T15:06:07Z</time>
      </trkpt>
      <trkpt lat="46.10527" lon="6.117509">
        <ele>2209.8</ele>
        <time>2026-08-24T15:06:07Z</time>
      </trkpt>
      <trkpt lat="46.092953" lon="6.099335">
        <ele>2186.94</ele>
        <time>2026-08-24T15:06:07Z</time>
      </trkpt>
      <trkpt lat="46.082016" lon="6.083344">
        <ele>2171.7000000000003</ele>
        <time>2026-08-24T15:06:07Z</time>
      </trkpt>
      <trkpt lat="46.070934" lon="6.067406">
        <ele>2148.84</ele>
        <time>2026-08-24T15:06:07Z</time>
      </trkpt>
      <trkpt lat="46.058365" lon="6.049347">
        <ele>2148.84</ele>
        <time>2026-08-24T15:06:07Z</time>
      </trkpt>
      <trkpt lat="46.046036" lon="6.031561">
        <ele>2148.84</ele>
        <time>2026-08-24T15:06:07Z</time>
      </trkpt>
      <trkpt lat="46.039948" lon="6.020977">
        <ele>2148.84</ele>
        <time>2026-08-24T15:06:07Z</time>
      </trkpt>
      <trkpt lat="46.038574" lon="6.017627">
        <ele>2148.84</ele>
        <time>2026-08-24T15:06:07Z</time>
      </trkpt>
      <trkpt lat="46.037521" lon="6.014814">
        <ele>2148.84</ele>
        <time>2026-08-24T15:06:07Z</time>
      </trkpt>
      <trkpt lat="46.03656" lon="6.012">
        <ele>2148.84</ele>
        <time>2026-08-24T15:06:07Z</time>
      </trkpt>
      <trkpt lat="46.03569" lon="6.00912">
        <ele>2148.84</ele>
        <time>2026-08-24T15:06:07Z</time>
      </trkpt>
      <trkpt lat="46.034821" lon="6.006239">
        <ele>2148.84</ele>
        <time>2026-08-24T15:06:07Z</time>
      </trkpt>
      <trkpt lat="46.033878" lon="6.003136">
        <ele>2148.84</ele>
        <time>2026-08-24T15:06:07Z</time>
      </trkpt>
      <trkpt lat="46.032902" lon="5.999634">
        <ele>2148.84</ele>
        <time>2026-08-24T15:06:07Z</time>
      </trkpt>
      <trkpt lat="46.032108" lon="5.996819">
        <ele>2148.84</ele>
        <time>2026-08-24T15:06:07Z</time>
      </trkpt>
      <trkpt lat="46.031273" lon="5.993797">
        <ele>2148.84</ele>
        <time>2026-08-24T15:06:07Z</time>
      </trkpt>
      <trkpt lat="46.030525" lon="5.991051">
        <ele>2148.84</ele>
        <time>2026-08-24T15:06:07Z</time>
      </trkpt>
      <trkpt lat="46.029465" lon="5.987281">
        <ele>2148.84</ele>
        <time>2026-08-24T15:06:07Z</time>
      </trkpt>
      <trkpt lat="46.028687" lon="5.9844">
        <ele>2148.84</ele>
        <time>2026-08-24T15:06:07Z</time>
      </trkpt>
      <trkpt lat="46.027828" lon="5.981163">
        <ele>2148.84</ele>
        <time>2026-08-24T15:06:07Z</time>
      </trkpt>
      <trkpt lat="46.026897" lon="5.977661">
        <ele>2148.84</ele>
        <time>2026-08-24T15:06:07Z</time>
      </trkpt>
      <trkpt lat="46.021133" lon="5.956198">
        <ele>2148.84</ele>
        <time>2026-08-24T15:06:07Z</time>
      </trkpt>
      <trkpt lat="46.015678" lon="5.934883">
        <ele>2148.84</ele>
        <time>2026-08-24T15:06:07Z</time>
      </trkpt>
      <trkpt lat="46.011063" lon="5.91654">
        <ele>2148.84</ele>
        <time>2026-08-24T15:06:07Z</time>
      </trkpt>
      <trkpt lat="46.005482" lon="5.894714">
        <ele>2148.84</ele>
        <time>2026-08-24T15:06:07Z</time>
      </trkpt>
      <trkpt lat="46.000362" lon="5.874596">
        <ele>2148.84</ele>
        <time>2026-08-24T15:06:07Z</time>
      </trkpt>
      <trkpt lat="45.997101" lon="5.860335">
        <ele>2148.84</ele>
        <time>2026-08-24T15:06:07Z</time>
      </trkpt>
      <trkpt lat="45.996685" lon="5.856674">
        <ele>2148.84</ele>
        <time>2026-08-24T15:06:07Z</time>
      </trkpt>
      <trkpt lat="45.996597" lon="5.853971">
        <ele>2148.84</ele>
        <time>2026-08-24T15:06:07Z</time>
      </trkpt>
      <trkpt lat="45.996685" lon="5.850288">
        <ele>2148.84</ele>
        <time>2026-08-24T15:06:07Z</time>
      </trkpt>
      <trkpt lat="45.996918" lon="5.847954">
        <ele>2148.84</ele>
        <time>2026-08-24T15:06:07Z</time>
      </trkpt>
      <trkpt lat="45.997375" lon="5.844793">
        <ele>2156.46</ele>
        <time>2026-08-24T15:06:07Z</time>
      </trkpt>
      <trkpt lat="45.998173" lon="5.841087">
        <ele>2156.46</ele>
        <time>2026-08-24T15:06:07Z</time>
      </trkpt>
      <trkpt lat="45.999069" lon="5.837961">
        <ele>2156.46</ele>
        <time>2026-08-24T15:06:07Z</time>
      </trkpt>
      <trkpt lat="46.000076" lon="5.835214">
        <ele>2156.46</ele>
        <time>2026-08-24T15:06:07Z</time>
      </trkpt>
      <trkpt lat="46.001221" lon="5.832602">
        <ele>2148.84</ele>
        <time>2026-08-24T15:06:07Z</time>
      </trkpt>
      <trkpt lat="46.002502" lon="5.830123">
        <ele>2148.84</ele>
        <time>2026-08-24T15:06:07Z</time>
      </trkpt>
      <trkpt lat="46.003967" lon="5.827711">
        <ele>2148.84</ele>
        <time>2026-08-24T15:06:07Z</time>
      </trkpt>
      <trkpt lat="46.005844" lon="5.824965">
        <ele>2133.6</ele>
        <time>2026-08-24T15:06:07Z</time>
      </trkpt>
      <trkpt lat="46.007904" lon="5.822486">
        <ele>2125.98</ele>
        <time>2026-08-24T15:06:07Z</time>
      </trkpt>
      <trkpt lat="46.009735" lon="5.82061">
        <ele>2118.36</ele>
        <time>2026-08-24T15:06:07Z</time>
      </trkpt>
      <trkpt lat="46.011703" lon="5.818935">
        <ele>2110.7400000000002</ele>
        <time>2026-08-24T15:06:07Z</time>
      </trkpt>
      <trkpt lat="46.013763" lon="5.817529">
        <ele>2103.12</ele>
        <time>2026-08-24T15:06:07Z</time>
      </trkpt>
      <trkpt lat="46.015915" lon="5.816256">
        <ele>2087.88</ele>
        <time>2026-08-24T15:06:07Z</time>
      </trkpt>
      <trkpt lat="46.018112" lon="5.815251">
        <ele>2080.26</ele>
        <time>2026-08-24T15:06:07Z</time>
      </trkpt>
      <trkpt lat="46.020905" lon="5.814313">
        <ele>2072.6400000000003</ele>
        <time>2026-08-24T15:06:07Z</time>
      </trkpt>
      <trkpt lat="46.023148" lon="5.813844">
        <ele>2065.02</ele>
        <time>2026-08-24T15:06:07Z</time>
      </trkpt>
      <trkpt lat="46.025684" lon="5.813622">
        <ele>2049.78</ele>
        <time>2026-08-24T15:06:07Z</time>
      </trkpt>
      <trkpt lat="46.028107" lon="5.81369">
        <ele>2042.16</ele>
        <time>2026-08-24T15:06:07Z</time>
      </trkpt>
      <trkpt lat="46.029922" lon="5.813828">
        <ele>2034.5400000000002</ele>
        <time>2026-08-24T15:06:07Z</time>
      </trkpt>
      <trkpt lat="46.032578" lon="5.814112">
        <ele>2026.92</ele>
        <time>2026-08-24T15:06:07Z</time>
      </trkpt>
      <trkpt lat="46.035507" lon="5.814651">
        <ele>2004.0600000000002</ele>
        <time>2026-08-24T15:06:07Z</time>
      </trkpt>
      <trkpt lat="46.037788" lon="5.815407">
        <ele>1988.8200000000002</ele>
        <time>2026-08-24T15:06:07Z</time>
      </trkpt>
      <trkpt lat="46.039764" lon="5.81639">
        <ele>1981.2</ele>
        <time>2026-08-24T15:06:07Z</time>
      </trkpt>
      <trkpt lat="46.042072" lon="5.817879">
        <ele>1973.5800000000002</ele>
        <time>2026-08-24T15:06:07Z</time>
      </trkpt>
      <trkpt lat="46.044445" lon="5.819939">
        <ele>1958.3400000000001</ele>
        <time>2026-08-24T15:06:07Z</time>
      </trkpt>
      <trkpt lat="46.046127" lon="5.821816">
        <ele>1950.72</ele>
        <time>2026-08-24T15:06:07Z</time>
      </trkpt>
      <trkpt lat="46.04789" lon="5.824265">
        <ele>1943.1000000000001</ele>
        <time>2026-08-24T15:06:07Z</time>
      </trkpt>
      <trkpt lat="46.049381" lon="5.826668">
        <ele>1927.8600000000001</ele>
        <time>2026-08-24T15:06:07Z</time>
      </trkpt>
      <trkpt lat="46.050732" lon="5.829277">
        <ele>1920.24</ele>
        <time>2026-08-24T15:06:07Z</time>
      </trkpt>
      <trkpt lat="46.052078" lon="5.8322">
        <ele>1905.0</ele>
        <time>2026-08-24T15:06:07Z</time>
      </trkpt>
      <trkpt lat="46.053314" lon="5.834879">
        <ele>1897.38</ele>
        <time>2026-08-24T15:06:07Z</time>
      </trkpt>
      <trkpt lat="46.05455" lon="5.837693">
        <ele>1882.14</ele>
        <time>2026-08-24T15:06:07Z</time>
      </trkpt>
      <trkpt lat="46.056015" lon="5.840841">
        <ele>1866.9</ele>
        <time>2026-08-24T15:06:07Z</time>
      </trkpt>
      <trkpt lat="46.057251" lon="5.843454">
        <ele>1851.66</ele>
        <time>2026-08-24T15:06:07Z</time>
      </trkpt>
      <trkpt lat="46.058739" lon="5.846375">
        <ele>1836.42</ele>
        <time>2026-08-24T15:06:07Z</time>
      </trkpt>
      <trkpt lat="46.060089" lon="5.848915">
        <ele>1828.8000000000002</ele>
        <time>2026-08-24T15:06:07Z</time>
      </trkpt>
      <trkpt lat="46.06181" lon="5.851936">
        <ele>1813.5600000000002</ele>
        <time>2026-08-24T15:06:07Z</time>
      </trkpt>
      <trkpt lat="46.063301" lon="5.854408">
        <ele>1798.3200000000002</ele>
        <time>2026-08-24T15:06:07Z</time>
      </trkpt>
      <trkpt lat="46.064987" lon="5.857053">
        <ele>1783.0800000000002</ele>
        <time>2026-08-24T15:06:07Z</time>
      </trkpt>
      <trkpt lat="46.066589" lon="5.859464">
        <ele>1775.46</ele>
        <time>2026-08-24T15:06:07Z</time>
      </trkpt>
      <trkpt lat="46.068558" lon="5.862345">
        <ele>1760.22</ele>
        <time>2026-08-24T15:06:07Z</time>
      </trkpt>
      <trkpt lat="46.070114" lon="5.864555">
        <ele>1744.98</ele>
        <time>2026-08-24T15:06:07Z</time>
      </trkpt>
      <trkpt lat="46.071762" lon="5.866833">
        <ele>1729.74</ele>
        <time>2026-08-24T15:06:07Z</time>
      </trkpt>
      <trkpt lat="46.07373" lon="5.86958">
        <ele>1714.5</ele>
        <time>2026-08-24T15:06:07Z</time>
      </trkpt>
      <trkpt lat="46.075378" lon="5.871858">
        <ele>1706.88</ele>
        <time>2026-08-24T15:06:07Z</time>
      </trkpt>
      <trkpt lat="46.077026" lon="5.874135">
        <ele>1691.64</ele>
        <time>2026-08-24T15:06:07Z</time>
      </trkpt>
      <trkpt lat="46.078995" lon="5.876882">
        <ele>1676.4</ele>
        <time>2026-08-24T15:06:07Z</time>
      </trkpt>
      <trkpt lat="46.080429" lon="5.878922">
        <ele>1661.16</ele>
        <time>2026-08-24T15:06:07Z</time>
      </trkpt>
      <trkpt lat="46.082153" lon="5.881325">
        <ele>1653.5400000000002</ele>
        <time>2026-08-24T15:06:07Z</time>
      </trkpt>
      <trkpt lat="46.083691" lon="5.883522">
        <ele>1638.3000000000002</ele>
        <time>2026-08-24T15:06:07Z</time>
      </trkpt>
      <trkpt lat="46.093964" lon="5.898252">
        <ele>1554.48</ele>
        <time>2026-08-24T15:06:07Z</time>
      </trkpt>
      <trkpt lat="46.104401" lon="5.913391">
        <ele>1463.04</ele>
        <time>2026-08-24T15:06:07Z</time>
      </trkpt>
      <trkpt lat="46.110809" lon="5.922636">
        <ele>1409.7</ele>
        <time>2026-08-24T15:06:07Z</time>
      </trkpt>
      <trkpt lat="46.115479" lon="5.929469">
        <ele>1371.6000000000001</ele>
        <time>2026-08-24T15:06:07Z</time>
      </trkpt>
      <trkpt lat="46.121162" lon="5.937767">
        <ele>1325.88</ele>
        <time>2026-08-24T15:06:07Z</time>
      </trkpt>
      <trkpt lat="46.126694" lon="5.945814">
        <ele>1272.54</ele>
        <time>2026-08-24T15:06:07Z</time>
      </trkpt>
      <trkpt lat="46.131218" lon="5.95253">
        <ele>1242.0600000000002</ele>
        <time>2026-08-24T15:06:07Z</time>
      </trkpt>
      <trkpt lat="46.136528" lon="5.960289">
        <ele>1196.3400000000001</ele>
        <time>2026-08-24T15:06:07Z</time>
      </trkpt>
      <trkpt lat="46.141506" lon="5.967636">
        <ele>1158.24</ele>
        <time>2026-08-24T15:06:07Z</time>
      </trkpt>
      <trkpt lat="46.146954" lon="5.975533">
        <ele>1112.52</ele>
        <time>2026-08-24T15:06:07Z</time>
      </trkpt>
      <trkpt lat="46.150909" lon="5.9813">
        <ele>1082.04</ele>
        <time>2026-08-24T15:06:07Z</time>
      </trkpt>
      <trkpt lat="46.155945" lon="5.988621">
        <ele>1036.3200000000002</ele>
        <time>2026-08-24T15:06:07Z</time>
      </trkpt>
      <trkpt lat="46.161026" lon="5.995989">
        <ele>990.6</ele>
        <time>2026-08-24T15:06:07Z</time>
      </trkpt>
      <trkpt lat="46.166245" lon="6.00356">
        <ele>944.88</ele>
        <time>2026-08-24T15:06:07Z</time>
      </trkpt>
      <trkpt lat="46.169952" lon="6.008972">
        <ele>914.4000000000001</ele>
        <time>2026-08-24T15:06:07Z</time>
      </trkpt>
      <trkpt lat="46.17453" lon="6.015751">
        <ele>883.9200000000001</ele>
        <time>2026-08-24T15:06:07Z</time>
      </trkpt>
      <trkpt lat="46.178741" lon="6.021982">
        <ele>845.82</ele>
        <time>2026-08-24T15:06:07Z</time>
      </trkpt>
      <trkpt lat="46.181774" lon="6.026413">
        <ele>822.96</ele>
        <time>2026-08-24T15:06:07Z</time>
      </trkpt>
      <trkpt lat="46.185883" lon="6.032432">
        <ele>792.48</ele>
        <time>2026-08-24T15:06:07Z</time>
      </trkpt>
      <trkpt lat="46.189819" lon="6.03826">
        <ele>762.0</ele>
        <time>2026-08-24T15:06:07Z</time>
      </trkpt>
      <trkpt lat="46.193974" lon="6.044197">
        <ele>731.52</ele>
        <time>2026-08-24T15:06:07Z</time>
      </trkpt>
      <trkpt lat="46.197788" lon="6.049759">
        <ele>701.0400000000001</ele>
        <time>2026-08-24T15:06:07Z</time>
      </trkpt>
      <trkpt lat="46.202072" lon="6.056076">
        <ele>670.5600000000001</ele>
        <time>2026-08-24T15:06:07Z</time>
      </trkpt>
      <trkpt lat="46.205933" lon="6.061773">
        <ele>640.08</ele>
        <time>2026-08-24T15:06:07Z</time>
      </trkpt>
      <trkpt lat="46.209751" lon="6.067406">
        <ele>609.6</ele>
        <time>2026-08-24T15:06:07Z</time>
      </trkpt>
      <trkpt lat="46.212685" lon="6.071732">
        <ele>586.74</ele>
        <time>2026-08-24T15:06:07Z</time>
      </trkpt>
      <trkpt lat="46.216782" lon="6.077705">
        <ele>548.64</ele>
        <time>2026-08-24T15:06:07Z</time>
      </trkpt>
      <trkpt lat="46.219666" lon="6.081871">
        <ele>525.78</ele>
        <time>2026-08-24T15:06:07Z</time>
      </trkpt>
      <trkpt lat="46.223373" lon="6.087364">
        <ele>495.3</ele>
        <time>2026-08-24T15:06:07Z</time>
      </trkpt>
      <trkpt lat="46.226303" lon="6.091651">
        <ele>472.44</ele>
        <time>2026-08-24T15:06:07Z</time>
      </trkpt>
      <trkpt lat="46.230095" lon="6.097206">
        <ele>449.58000000000004</ele>
        <time>2026-08-24T15:06:07Z</time>
      </trkpt>
      <trkpt lat="46.233822" lon="6.102699">
        <ele>441.96000000000004</ele>
        <time>2026-08-24T15:06:07Z</time>
      </trkpt>
      <trkpt lat="46.235497" lon="6.105171">
        <ele>434.34000000000003</ele>
        <time>2026-08-24T15:06:07Z</time>
      </trkpt>
      <trkpt lat="46.236347" lon="6.106441">
        <ele>0.0</ele>
        <time>2026-08-24T15:06:07Z</time>
      </trkpt>
      <trkpt lat="46.236443" lon="6.106724">
        <ele>0.0</ele>
        <time>2026-08-24T15:06:07Z</time>
      </trkpt>
      <trkpt lat="46.23642" lon="6.107075">
        <ele>0.0</ele>
        <time>2026-08-24T15:06:07Z</time>
      </trkpt>
      <trkpt lat="46.236053" lon="6.107276">
        <ele>0.0</ele>
        <time>2026-08-24T15:06:07Z</time>
      </trkpt>
      <trkpt lat="46.235821" lon="6.107214">
        <ele>0.0</ele>
        <time>2026-08-24T15:06:07Z</time>
      </trkpt>
      <trkpt lat="46.235611" lon="6.107128">
        <ele>0.0</ele>
        <time>2026-08-24T15:06:07Z</time>
      </trkpt>
      <trkpt lat="46.235401" lon="6.107042">
        <ele>0.0</ele>
        <time>2026-08-24T15:06:07Z</time>
      </trkpt>
      <trkpt lat="46.235172" lon="6.106939">
        <ele>0.0</ele>
        <time>2026-08-24T15:06:07Z</time>
      </trkpt>
      <trkpt lat="46.234913" lon="6.106836">
        <ele>0.0</ele>
        <time>2026-08-24T15:06:07Z</time>
      </trkpt>
      <trkpt lat="46.234612" lon="6.106724">
        <ele>0.0</ele>
        <time>2026-08-24T15:06:07Z</time>
      </trkpt>
      <trkpt lat="46.234299" lon="6.106562">
        <ele>0.0</ele>
        <time>2026-08-24T15:06:07Z</time>
      </trkpt>
      <trkpt lat="46.234066" lon="6.106407">
        <ele>0.0</ele>
        <time>2026-08-24T15:06:07Z</time>
      </trkpt>
      <trkpt lat="46.233856" lon="6.106184">
        <ele>0.0</ele>
        <time>2026-08-24T15:06:07Z</time>
      </trkpt>
      <trkpt lat="46.233704" lon="6.105978">
        <ele>0.0</ele>
        <time>2026-08-24T15:06:07Z</time>
      </trkpt>
      <trkpt lat="46.233513" lon="6.105702">
        <ele>0.0</ele>
        <time>2026-08-24T15:06:07Z</time>
      </trkpt>
      <trkpt lat="46.23333" lon="6.105434">
        <ele>0.0</ele>
        <time>2026-08-24T15:06:07Z</time>
      </trkpt>
      <trkpt lat="46.233181" lon="6.105223">
        <ele>0.0</ele>
        <time>2026-08-24T15:06:07Z</time>
      </trkpt>
      <trkpt lat="46.232948" lon="6.104879">
        <ele>0.0</ele>
        <time>2026-08-24T15:06:07Z</time>
      </trkpt>
      <trkpt lat="46.232666" lon="6.104463">
        <ele>0.0</ele>
        <time>2026-08-24T15:06:07Z</time>
      </trkpt>
      <trkpt lat="46.232365" lon="6.104021">
        <ele>0.0</ele>
        <time>2026-08-24T15:06:07Z</time>
      </trkpt>
      <trkpt lat="46.232155" lon="6.103712">
        <ele>0.0</ele>
        <time>2026-08-24T15:06:07Z</time>
      </trkpt>
      <trkpt lat="46.231995" lon="6.103506">
        <ele>0.0</ele>
        <time>2026-08-24T15:06:07Z</time>
      </trkpt>
      <trkpt lat="46.231739" lon="6.103475">
        <ele>0.0</ele>
        <time>2026-08-24T15:06:07Z</time>
      </trkpt>
      <trkpt lat="46.23151" lon="6.103726">
        <ele>0.0</ele>
        <time>2026-08-24T15:06:07Z</time>
      </trkpt>
      <trkpt lat="46.231327" lon="6.103994">
        <ele>0.0</ele>
        <time>2026-08-24T15:06:07Z</time>
      </trkpt>
      <trkpt lat="46.231285" lon="6.104296">
        <ele>0.0</ele>
        <time>2026-08-24T15:06:07Z</time>
      </trkpt>
      <trkpt lat="46.23127" lon="6.10458">
        <ele>0.0</ele>
        <time>2026-08-24T15:06:07Z</time>
      </trkpt>
      <trkpt lat="46.23127" lon="6.104798">
        <ele>0.0</ele>
        <time>2026-08-24T15:06:07Z</time>
      </trkpt>
      <trkpt lat="46.231274" lon="6.105">
        <ele>0.0</ele>
        <time>2026-08-24T15:06:07Z</time>
      </trkpt>
    </trkseg>
  </trk>
</gpx>