{"type": "FeatureCollection", "name": "TrackSet", "crs": {"type": "name", "properties": {"name": "urn:ogc:def:crs:OGC:1.3:CRS84"}}, "bbox": [6.177872, 46.331363, 6.338334, 46.55998], "features": [{"type": "Feature", "bbox": [6.177872, 46.331363, 6.338334, 46.55998], "geometry": {"type": "LineString", "coordinates": [[6.222719, 46.460837], [6.222729, 46.460858], [6.222808, 46.460803], [6.222921, 46.460805], [6.223568, 46.46109], [6.223776, 46.461205], [6.223838, 46.461211], [6.223888, 46.461185], [6.223907, 46.46104], [6.2237, 46.460739], [6.223656, 46.460599], [6.223515, 46.460377], [6.223554, 46.460293], [6.223643, 46.460287], [6.223732, 46.46035], [6.224655, 46.461771], [6.224725, 46.461951], [6.224663, 46.462335], [6.224674, 46.462527], [6.224738, 46.462616], [6.225041, 46.462819], [6.225094, 46.4629], [6.225099, 46.462993], [6.224972, 46.463169], [6.2248, 46.46333], [6.224617, 46.463696], [6.224434, 46.463842], [6.22437, 46.463932], [6.224364, 46.464038], [6.224463, 46.464325], [6.224438, 46.46442], [6.224313, 46.464595], [6.223782, 46.464939], [6.223701, 46.46502], [6.223563, 46.465284], [6.223491, 46.465362], [6.223148, 46.46553], [6.22284, 46.465723], [6.222591, 46.465805], [6.222021, 46.465865], [6.221138, 46.466202], [6.221, 46.466225], [6.220855, 46.466213], [6.22033, 46.466078], [6.220081, 46.466037], [6.219838, 46.466072], [6.219737, 46.466133], [6.219671, 46.466211], [6.219648, 46.466302], [6.219665, 46.466469], [6.219782, 46.466616], [6.220801, 46.467222], [6.221075, 46.46736], [6.221228, 46.46742], [6.221599, 46.467506], [6.221944, 46.467526], [6.222814, 46.46737], [6.223868, 46.467272], [6.224209, 46.467296], [6.224753, 46.46739], [6.225026, 46.467374], [6.225149, 46.467331], [6.225247, 46.467264], [6.225525, 46.466986], [6.225671, 46.466893], [6.225894, 46.466842], [6.226434, 46.466811], [6.226783, 46.466691], [6.22689, 46.466607], [6.227026, 46.46641], [6.227142, 46.466297], [6.227313, 46.466205], [6.227544, 46.466132], [6.227846, 46.466073], [6.22824, 46.466038], [6.229781, 46.466015], [6.230102, 46.465949], [6.230174, 46.465902], [6.230321, 46.465725], [6.230766, 46.464764], [6.231074, 46.464275], [6.231267, 46.464085], [6.231351, 46.464035], [6.231429, 46.464026], [6.231503, 46.464051], [6.231534, 46.464124], [6.231444, 46.46434], [6.231474, 46.464588], [6.231428, 46.464937], [6.231538, 46.46583], [6.231513, 46.46633], [6.231465, 46.466522], [6.231495, 46.466897], [6.231352, 46.467081], [6.230509, 46.467694], [6.230225, 46.467995], [6.229843, 46.468318], [6.229117, 46.46875], [6.228874, 46.468946], [6.228682, 46.469192], [6.228393, 46.470091], [6.227939, 46.470863], [6.227781, 46.471057], [6.227524, 46.471283], [6.22716, 46.471531], [6.226589, 46.47185], [6.226212, 46.471985], [6.225835, 46.472078], [6.225494, 46.472092], [6.224228, 46.47206], [6.223822, 46.472029], [6.223527, 46.472038], [6.223466, 46.472063], [6.223249, 46.472035], [6.222636, 46.472021], [6.222024, 46.471854], [6.221562, 46.471794], [6.221289, 46.471801], [6.217075, 46.472954], [6.216741, 46.473079], [6.21654, 46.473207], [6.216223, 46.473513], [6.215992, 46.473682], [6.215989, 46.473723], [6.215657, 46.474098], [6.215563, 46.474355], [6.215566, 46.474539], [6.215675, 46.474779], [6.215975, 46.475026], [6.216107, 46.475098], [6.216229, 46.475116], [6.216268, 46.475146], [6.216815, 46.475886], [6.217715, 46.47663], [6.217743, 46.47677], [6.217664, 46.476861], [6.217555, 46.476896], [6.217346, 46.476873], [6.216845, 46.47665], [6.216337, 46.476505], [6.216115, 46.47649], [6.215855, 46.476504], [6.215389, 46.476455], [6.215078, 46.476317], [6.214594, 46.476162], [6.214238, 46.476168], [6.213896, 46.476266], [6.213513, 46.476576], [6.213164, 46.476757], [6.213159, 46.476802], [6.213044, 46.476864], [6.212178, 46.477143], [6.211823, 46.477208], [6.211723, 46.477206], [6.211575, 46.477251], [6.211246, 46.477357], [6.211024, 46.477492], [6.210953, 46.477609], [6.210935, 46.477708], [6.21095, 46.478582], [6.210892, 46.478939], [6.210822, 46.479081], [6.210284, 46.479854], [6.208771, 46.48194], [6.208622, 46.482261], [6.208578, 46.482901], [6.208614, 46.483466], [6.208737, 46.483856], [6.20894, 46.484318], [6.209065, 46.484801], [6.209082, 46.485243], [6.209029, 46.485619], [6.209085, 46.485771], [6.209296, 46.48594], [6.210008, 46.486257], [6.210412, 46.486388], [6.210927, 46.486493], [6.211069, 46.486633], [6.211072, 46.486704], [6.211024, 46.486769], [6.210926, 46.486838], [6.210807, 46.486854], [6.210594, 46.486846], [6.210452, 46.486796], [6.210196, 46.48678], [6.210003, 46.486806], [6.209794, 46.48688], [6.20962, 46.48689], [6.209433, 46.486864], [6.209015, 46.486751], [6.208811, 46.486741], [6.208386, 46.486801], [6.207805, 46.48694], [6.207631, 46.486939], [6.207472, 46.4869], [6.207356, 46.48672], [6.207399, 46.486319], [6.207367, 46.486125], [6.207246, 46.485962], [6.207047, 46.485817], [6.206526, 46.485556], [6.206157, 46.485451], [6.205201, 46.485234], [6.20344, 46.484688], [6.20323, 46.484584], [6.202872, 46.484309], [6.202682, 46.48421], [6.20252, 46.484064], [6.202299, 46.483955], [6.202147, 46.483816], [6.201869, 46.483714], [6.201299, 46.483603], [6.201117, 46.483539], [6.200805, 46.483367], [6.200681, 46.483236], [6.200561, 46.483042], [6.200467, 46.482968], [6.20039, 46.482787], [6.200201, 46.48252], [6.200031, 46.482385], [6.199948, 46.482272], [6.19969, 46.482083], [6.199291, 46.481898], [6.199092, 46.481717], [6.199054, 46.481584], [6.199063, 46.481304], [6.19909, 46.481174], [6.199244, 46.480905], [6.199213, 46.480697], [6.198824, 46.480455], [6.19851, 46.480187], [6.198362, 46.480141], [6.197724, 46.480067], [6.196625, 46.479755], [6.196338, 46.479721], [6.196135, 46.479766], [6.195876, 46.479905], [6.195352, 46.48035], [6.19501, 46.480512], [6.194726, 46.480706], [6.194179, 46.480954], [6.193992, 46.481025], [6.193615, 46.481107], [6.193458, 46.481195], [6.193275, 46.481409], [6.192908, 46.482033], [6.192842, 46.482309], [6.19291, 46.482689], [6.192877, 46.482985], [6.192665, 46.483269], [6.192557, 46.483329], [6.192398, 46.483488], [6.192217, 46.483609], [6.191951, 46.483895], [6.192077, 46.484322], [6.192233, 46.484552], [6.19253, 46.485239], [6.193706, 46.486564], [6.193793, 46.486767], [6.193813, 46.486979], [6.193703, 46.487263], [6.193364, 46.487797], [6.193013, 46.488161], [6.192658, 46.488432], [6.192502, 46.488606], [6.192478, 46.488703], [6.192609, 46.489263], [6.192551, 46.489361], [6.19241, 46.489478], [6.192195, 46.489586], [6.192083, 46.489756], [6.192007, 46.490239], [6.192057, 46.49041], [6.19205, 46.490517], [6.191968, 46.490706], [6.191837, 46.490837], [6.191637, 46.490894], [6.191291, 46.490872], [6.191086, 46.490926], [6.191047, 46.490988], [6.190998, 46.491303], [6.190897, 46.491477], [6.190642, 46.491535], [6.19053, 46.491503], [6.190394, 46.491515], [6.190349, 46.491542], [6.190229, 46.491815], [6.190028, 46.49192], [6.189757, 46.491997], [6.189653, 46.492052], [6.189628, 46.492093], [6.189597, 46.492226], [6.18969, 46.492399], [6.189932, 46.492556], [6.190214, 46.492677], [6.190256, 46.492722], [6.19041, 46.493145], [6.190531, 46.493243], [6.190514, 46.49328], [6.190548, 46.493295], [6.190596, 46.49325], [6.190556, 46.493248], [6.190538, 46.493201], [6.190484, 46.49321], [6.190527, 46.493247], [6.190491, 46.493216], [6.190494, 46.493239], [6.190536, 46.493205], [6.190574, 46.493239], [6.190587, 46.493183], [6.190543, 46.493222], [6.190591, 46.493213], [6.190551, 46.493228], [6.190557, 46.493204], [6.190533, 46.493249], [6.190497, 46.493231], [6.190488, 46.493279], [6.19046, 46.49327], [6.19049, 46.493256], [6.190467, 46.493272], [6.190484, 46.493313], [6.190599, 46.493493], [6.190521, 46.493655], [6.190348, 46.493793], [6.190031, 46.493977], [6.189237, 46.494278], [6.187978, 46.494828], [6.187144, 46.495161], [6.186762, 46.495341], [6.186155, 46.495699], [6.184839, 46.496627], [6.184536, 46.496866], [6.184144, 46.497243], [6.182455, 46.498542], [6.182193, 46.498697], [6.182038, 46.498738], [6.18095, 46.498847], [6.18036, 46.498934], [6.180142, 46.499014], [6.179755, 46.49922], [6.17947, 46.499433], [6.178846, 46.499987], [6.178104, 46.500735], [6.178019, 46.500867], [6.177923, 46.501139], [6.177872, 46.501404], [6.177887, 46.501536], [6.178081, 46.502039], [6.178205, 46.502214], [6.178365, 46.502372], [6.179915, 46.503346], [6.18018, 46.503569], [6.180348, 46.503802], [6.180482, 46.503929], [6.180927, 46.504164], [6.181456, 46.504356], [6.181661, 46.504459], [6.181932, 46.504682], [6.182383, 46.505173], [6.184639, 46.507122], [6.185382, 46.50771], [6.185721, 46.508073], [6.186264, 46.508377], [6.186831, 46.50881], [6.187229, 46.50917], [6.187286, 46.509274], [6.187874, 46.509865], [6.188317, 46.510189], [6.189126, 46.510709], [6.189569, 46.511113], [6.190624, 46.511863], [6.191308, 46.512411], [6.191971, 46.51305], [6.192057, 46.513242], [6.192206, 46.51343], [6.192626, 46.513754], [6.193241, 46.514737], [6.193577, 46.515349], [6.194249, 46.515955], [6.194733, 46.516342], [6.195708, 46.517085], [6.195811, 46.517147], [6.195911, 46.517135], [6.195916, 46.517188], [6.196101, 46.517296], [6.196423, 46.51741], [6.196976, 46.517445], [6.19713, 46.517491], [6.198028, 46.518019], [6.198356, 46.518188], [6.198893, 46.518397], [6.199387, 46.518739], [6.199908, 46.518986], [6.200487, 46.519375], [6.200829, 46.519658], [6.201014, 46.519868], [6.201279, 46.520247], [6.20147, 46.52043], [6.202544, 46.521133], [6.202739, 46.521221], [6.202879, 46.52125], [6.203891, 46.521327], [6.204088, 46.521408], [6.204311, 46.521541], [6.204414, 46.521663], [6.204571, 46.522093], [6.204657, 46.522212], [6.204876, 46.522354], [6.205264, 46.522524], [6.20549, 46.52272], [6.205591, 46.522901], [6.205826, 46.523525], [6.206197, 46.52396], [6.206365, 46.524364], [6.206445, 46.524454], [6.206733, 46.524668], [6.206966, 46.524797], [6.207166, 46.524996], [6.207227, 46.524997], [6.20724, 46.525045], [6.207936, 46.525685], [6.208644, 46.526564], [6.209507, 46.527215], [6.209821, 46.527578], [6.210496, 46.528148], [6.210676, 46.528407], [6.210777, 46.528648], [6.210923, 46.5288], [6.211628, 46.529218], [6.212231, 46.529779], [6.213689, 46.530646], [6.213768, 46.530679], [6.213959, 46.530705], [6.214267, 46.530669], [6.214597, 46.530675], [6.215554, 46.53092], [6.215751, 46.531021], [6.215992, 46.531204], [6.216389, 46.531367], [6.216629, 46.531524], [6.216941, 46.531839], [6.217051, 46.53221], [6.217186, 46.532409], [6.217756, 46.532891], [6.218038, 46.533053], [6.218355, 46.533183], [6.218508, 46.533299], [6.218632, 46.533509], [6.218778, 46.533936], [6.21918, 46.534592], [6.219814, 46.535152], [6.220914, 46.535973], [6.221364, 46.536253], [6.222173, 46.536685], [6.222529, 46.536965], [6.223012, 46.537298], [6.223312, 46.537462], [6.223405, 46.537548], [6.223493, 46.537752], [6.223686, 46.538504], [6.223857, 46.538905], [6.224273, 46.539656], [6.224795, 46.540217], [6.225011, 46.540695], [6.225284, 46.541045], [6.225433, 46.541167], [6.226057, 46.541554], [6.22679, 46.542065], [6.227491, 46.542589], [6.228083, 46.543098], [6.228528, 46.543385], [6.229442, 46.544183], [6.229758, 46.544575], [6.230139, 46.544866], [6.230745, 46.545243], [6.2312, 46.545666], [6.231548, 46.545945], [6.231916, 46.546139], [6.232259, 46.546289], [6.232404, 46.546327], [6.233321, 46.546793], [6.234134, 46.547036], [6.234585, 46.547303], [6.235411, 46.547902], [6.236794, 46.548987], [6.23711, 46.54925], [6.237643, 46.549776], [6.238287, 46.550291], [6.23912, 46.551024], [6.239392, 46.551212], [6.240265, 46.551641], [6.241475, 46.552544], [6.241643, 46.552716], [6.241974, 46.553206], [6.242207, 46.553406], [6.242689, 46.553697], [6.243678, 46.554093], [6.243986, 46.554311], [6.244154, 46.55451], [6.2444, 46.555184], [6.244734, 46.555735], [6.244853, 46.555879], [6.245844, 46.55682], [6.246016, 46.557052], [6.246678, 46.558155], [6.247158, 46.558767], [6.247492, 46.559137], [6.247822, 46.559394], [6.248232, 46.559677], [6.248389, 46.559701], [6.248658, 46.559565], [6.249145, 46.559437], [6.251825, 46.558966], [6.252348, 46.558931], [6.25269, 46.558981], [6.25297, 46.559069], [6.25397, 46.559444], [6.254407, 46.559643], [6.254901, 46.559959], [6.254997, 46.55998], [6.255101, 46.559968], [6.25519, 46.559929], [6.255246, 46.559864], [6.255252, 46.559791], [6.255213, 46.559715], [6.254698, 46.559314], [6.253952, 46.558365], [6.253075, 46.557488], [6.252805, 46.557174], [6.252644, 46.556626], [6.252657, 46.556574], [6.252615, 46.556479], [6.252576, 46.556486], [6.25258, 46.556398], [6.252531, 46.556257], [6.25243, 46.55617], [6.252086, 46.555508], [6.251959, 46.555321], [6.251498, 46.554915], [6.250888, 46.55445], [6.250745, 46.554289], [6.250221, 46.553375], [6.250219, 46.55314], [6.250295, 46.552669], [6.250256, 46.552589], [6.250162, 46.552538], [6.250132, 46.552479], [6.250064, 46.552488], [6.250089, 46.552496], [6.250059, 46.552512]]}, "properties": {"name": "1785668084.Col_de_Marchiaruz_windy_rte_back_coz_of_Women_TDF", "cmt": "2026-08-02", "tstamp": 1785628800, "desc": "UpHill", "src": "6.177872/46.331363/6.338334/46.55998", "bbox": "6.177872/46.331363/6.338334/46.55998"}}, {"type": "Feature", "bbox": [6.177872, 46.331363, 6.338334, 46.55998], "geometry": {"type": "LineString", "coordinates": [[6.250062, 46.552505], [6.250296, 46.552661], [6.250369, 46.552637], [6.250484, 46.55255], [6.250762, 46.552441], [6.252922, 46.552287], [6.253212, 46.55224], [6.253481, 46.552144], [6.253791, 46.551924], [6.254145, 46.55159], [6.254256, 46.551394], [6.254283, 46.551178], [6.254196, 46.550958], [6.253046, 46.549506], [6.25279, 46.54913], [6.252736, 46.548994], [6.252634, 46.54829], [6.252553, 46.548032], [6.252093, 46.547166], [6.252006, 46.546783], [6.251926, 46.544681], [6.25199, 46.544375], [6.252254, 46.543903], [6.252422, 46.543745], [6.252459, 46.543644], [6.252654, 46.543384], [6.252825, 46.543231], [6.252868, 46.543125], [6.253033, 46.542943], [6.25329, 46.542819], [6.253605, 46.542765], [6.253951, 46.542745], [6.25477, 46.542518], [6.254689, 46.542303], [6.254694, 46.542174], [6.254589, 46.541666], [6.254534, 46.541173], [6.254597, 46.540927], [6.254687, 46.540828], [6.254813, 46.540753], [6.254974, 46.540696], [6.255337, 46.540653], [6.255695, 46.540694], [6.256389, 46.540856], [6.256744, 46.540912], [6.257097, 46.540938], [6.258667, 46.540942], [6.259025, 46.540978], [6.259202, 46.541022], [6.26095, 46.541853], [6.261662, 46.542118], [6.262095, 46.542383], [6.262616, 46.54257], [6.263756, 46.542831], [6.263936, 46.542894], [6.264087, 46.543195], [6.264177, 46.54355], [6.264867, 46.54345], [6.266016, 46.543805], [6.267213, 46.544114], [6.267833, 46.54423], [6.268669, 46.544312], [6.269724, 46.544239], [6.27033, 46.544174], [6.272435, 46.543761], [6.273188, 46.543719], [6.273543, 46.543668], [6.273718, 46.54361], [6.274008, 46.543465], [6.27565, 46.542162], [6.276102, 46.541901], [6.276443, 46.541768], [6.276943, 46.541637], [6.278049, 46.541487], [6.278215, 46.541394], [6.278271, 46.54133], [6.278289, 46.54125], [6.27822, 46.54109], [6.278027, 46.540999], [6.277901, 46.540979], [6.277064, 46.541003], [6.276756, 46.540958], [6.276457, 46.540858], [6.275719, 46.540525], [6.274738, 46.540145], [6.274296, 46.539876], [6.272876, 46.538562], [6.272529, 46.538287], [6.272371, 46.538222], [6.271864, 46.538103], [6.271606, 46.537977], [6.271509, 46.537891], [6.271351, 46.537581], [6.271063, 46.537167], [6.270824, 46.536987], [6.270256, 46.536688], [6.270142, 46.536596], [6.270043, 46.536376], [6.270046, 46.536265], [6.270164, 46.536065], [6.27091, 46.535493], [6.271085, 46.535309], [6.271167, 46.535096], [6.271162, 46.534993], [6.271102, 46.534884], [6.271013, 46.53479], [6.27074, 46.534649], [6.269959, 46.534369], [6.269049, 46.533997], [6.268675, 46.533785], [6.268466, 46.533629], [6.268155, 46.533296], [6.267755, 46.532691], [6.267503, 46.532368], [6.266339, 46.531328], [6.266111, 46.531091], [6.265997, 46.530902], [6.265781, 46.530348], [6.265679, 46.530189], [6.26551, 46.530041], [6.26501, 46.529691], [6.264834, 46.529528], [6.264727, 46.52933], [6.26471, 46.529011], [6.264948, 46.527655], [6.265052, 46.527357], [6.265176, 46.527164], [6.265848, 46.526404], [6.266177, 46.526155], [6.266619, 46.526023], [6.267396, 46.525957], [6.267677, 46.525898], [6.267801, 46.525846], [6.267996, 46.525688], [6.268129, 46.525498], [6.268167, 46.525396], [6.268157, 46.52518], [6.268044, 46.524982], [6.267581, 46.52447], [6.267324, 46.52413], [6.266361, 46.522004], [6.266076, 46.521581], [6.265607, 46.521073], [6.26416, 46.519802], [6.263674, 46.519443], [6.263534, 46.519367], [6.263224, 46.519255], [6.261761, 46.518922], [6.261543, 46.518786], [6.261484, 46.518695], [6.261464, 46.518487], [6.261506, 46.518385], [6.261704, 46.518227], [6.261834, 46.518176], [6.262119, 46.518162], [6.262793, 46.518289], [6.26297, 46.518303], [6.262964, 46.518323], [6.263336, 46.518326], [6.263541, 46.518227], [6.26366, 46.518121], [6.263702, 46.517974], [6.263688, 46.517896], [6.26365, 46.517818], [6.263499, 46.517684], [6.262902, 46.517337], [6.262726, 46.517195], [6.262421, 46.516821], [6.262246, 46.516668], [6.262116, 46.516471], [6.261636, 46.515907], [6.26137, 46.515649], [6.26115, 46.51549], [6.260662, 46.515196], [6.260395, 46.51507], [6.260105, 46.515014], [6.259546, 46.515003], [6.259327, 46.51492], [6.259261, 46.514845], [6.259236, 46.514758], [6.259281, 46.514587], [6.25941, 46.514426], [6.259947, 46.513907], [6.26007, 46.513836], [6.260177, 46.513837], [6.260228, 46.513864], [6.260263, 46.513907], [6.260316, 46.514151], [6.260437, 46.514254], [6.26053, 46.514286], [6.262102, 46.514202], [6.262542, 46.514201], [6.262689, 46.514221], [6.262958, 46.514329], [6.263406, 46.514736], [6.263456, 46.514747], [6.263896, 46.515104], [6.264066, 46.515301], [6.264198, 46.515623], [6.264317, 46.516302], [6.264421, 46.516514], [6.264775, 46.516904], [6.265022, 46.516996], [6.265149, 46.516999], [6.265414, 46.516941], [6.265606, 46.516809], [6.266014, 46.516352], [6.266285, 46.515934], [6.266389, 46.515576], [6.266308, 46.514493], [6.266443, 46.514256], [6.266685, 46.514058], [6.267157, 46.513937], [6.269253, 46.51367], [6.269852, 46.513568], [6.270191, 46.51345], [6.270513, 46.513296], [6.27108, 46.512876], [6.271312, 46.512766], [6.2716, 46.512724], [6.272392, 46.512785], [6.27286, 46.512707], [6.275067, 46.511966], [6.275347, 46.511841], [6.275559, 46.511657], [6.275881, 46.511126], [6.275967, 46.51103], [6.276201, 46.510889], [6.276515, 46.51084], [6.277348, 46.510858], [6.277682, 46.510827], [6.27799, 46.510717], [6.278528, 46.510419], [6.278855, 46.510329], [6.279213, 46.510302], [6.279578, 46.510326], [6.283817, 46.511007], [6.284328, 46.51107], [6.28485, 46.511035], [6.286136, 46.510723], [6.286639, 46.510665], [6.288215, 46.510699], [6.288911, 46.510686], [6.290288, 46.510615], [6.290816, 46.510615], [6.291166, 46.510632], [6.292222, 46.510824], [6.292517, 46.510835], [6.292754, 46.510748], [6.292821, 46.510673], [6.292831, 46.510488], [6.292704, 46.51032], [6.292356, 46.51016], [6.292038, 46.509942], [6.291819, 46.509671], [6.291758, 46.509459], [6.291791, 46.50924], [6.291886, 46.509018], [6.291954, 46.508902], [6.292172, 46.508734], [6.292315, 46.508675], [6.293443, 46.508438], [6.295496, 46.507956], [6.29608, 46.507888], [6.297145, 46.507811], [6.298157, 46.507781], [6.299652, 46.507786], [6.301673, 46.507955], [6.302351, 46.507899], [6.302724, 46.507903], [6.303643, 46.508062], [6.305304, 46.508305], [6.306271, 46.508486], [6.306474, 46.508546], [6.306651, 46.50863], [6.306905, 46.508834], [6.307006, 46.508876], [6.30721, 46.508853], [6.308296, 46.508401], [6.308846, 46.50825], [6.309266, 46.508244], [6.310308, 46.50831], [6.311039, 46.508328], [6.311217, 46.508312], [6.311341, 46.508226], [6.311505, 46.507783], [6.311822, 46.505911], [6.311913, 46.505756], [6.312048, 46.505624], [6.31247, 46.50539], [6.315713, 46.503731], [6.318046, 46.502555], [6.318957, 46.502056], [6.320076, 46.501272], [6.320571, 46.50086], [6.321098, 46.500323], [6.321938, 46.499284], [6.323159, 46.498242], [6.323401, 46.497996], [6.323568, 46.497751], [6.324758, 46.495424], [6.324873, 46.49517], [6.324902, 46.494956], [6.324846, 46.494751], [6.32474, 46.494614], [6.324598, 46.494492], [6.324184, 46.494281], [6.32357, 46.494021], [6.323329, 46.493885], [6.323104, 46.493812], [6.32302, 46.493719], [6.323036, 46.493666], [6.323099, 46.49363], [6.323261, 46.493615], [6.3235, 46.493543], [6.323925, 46.493361], [6.324306, 46.493146], [6.325311, 46.492481], [6.325565, 46.492341], [6.326023, 46.492195], [6.327102, 46.49191], [6.327384, 46.491799], [6.327619, 46.491644], [6.32859, 46.490882], [6.328856, 46.490716], [6.329225, 46.490605], [6.330487, 46.490376], [6.331557, 46.490148], [6.332808, 46.489753], [6.333394, 46.489521], [6.334393, 46.489039], [6.335104, 46.488608], [6.335538, 46.488304], [6.336447, 46.48755], [6.336855, 46.487164], [6.338085, 46.485382], [6.33815, 46.485181], [6.338188, 46.484838], [6.338332, 46.482991], [6.338334, 46.482531], [6.338243, 46.482388], [6.338079, 46.482275], [6.337869, 46.482206], [6.337291, 46.482099], [6.336944, 46.481992], [6.336632, 46.48185], [6.336363, 46.481665], [6.336132, 46.481457], [6.335936, 46.481219], [6.335523, 46.48035], [6.335402, 46.480189], [6.3353, 46.480128], [6.335011, 46.480096], [6.334577, 46.480208], [6.334262, 46.480247], [6.333933, 46.480251], [6.333428, 46.480199], [6.333103, 46.480119], [6.33297, 46.480039], [6.33275, 46.479837], [6.332523, 46.479529], [6.332314, 46.479411], [6.33218, 46.479389], [6.331743, 46.47948], [6.331597, 46.479487], [6.331441, 46.479461], [6.331005, 46.479325], [6.330841, 46.479323], [6.330569, 46.479412], [6.330424, 46.479438], [6.33027, 46.47943], [6.329988, 46.479329], [6.329763, 46.479168], [6.329551, 46.47886], [6.329451, 46.478765], [6.329167, 46.478633], [6.328515, 46.478478], [6.328223, 46.478347], [6.328135, 46.478243], [6.328088, 46.478125], [6.328073, 46.477881], [6.328115, 46.477768], [6.328193, 46.477667], [6.328594, 46.477448], [6.328689, 46.477352], [6.328961, 46.476911], [6.329168, 46.476489], [6.329175, 46.476392], [6.32912, 46.476296], [6.32904, 46.476208], [6.328923, 46.476148], [6.328793, 46.476115], [6.328212, 46.476054], [6.32792, 46.475971], [6.327538, 46.475747], [6.327219, 46.475501], [6.327082, 46.475451], [6.326929, 46.475427], [6.32602, 46.475394], [6.325303, 46.475438], [6.325092, 46.475335], [6.325004, 46.47523], [6.32499, 46.475111], [6.324978, 46.475154], [6.324932, 46.475174], [6.324925, 46.475125], [6.32497, 46.475107], [6.325018, 46.475132], [6.325018, 46.475184], [6.324974, 46.475201], [6.324869, 46.47514], [6.32471, 46.475145], [6.324236, 46.475076], [6.323874, 46.474965], [6.323162, 46.474649], [6.322708, 46.47452], [6.322558, 46.474444], [6.321623, 46.4743], [6.321191, 46.474165], [6.321041, 46.474101], [6.320619, 46.473835], [6.320397, 46.47379], [6.320451, 46.473772], [6.320533, 46.473789], [6.320507, 46.47379], [6.320545, 46.473799], [6.320525, 46.473816], [6.320277, 46.473806], [6.320052, 46.473887], [6.319753, 46.474059], [6.319615, 46.474079], [6.319556, 46.474065], [6.319535, 46.473987], [6.319754, 46.473879], [6.320101, 46.473526], [6.320339, 46.473343], [6.320537, 46.473228], [6.320926, 46.47308], [6.321236, 46.473021], [6.321567, 46.472999], [6.321726, 46.472941], [6.321817, 46.472938], [6.32182, 46.472916], [6.321952, 46.472891], [6.32229, 46.472756], [6.322414, 46.472666], [6.322772, 46.472132], [6.322709, 46.471965], [6.322631, 46.471868], [6.32209, 46.471573], [6.321525, 46.471174], [6.321565, 46.47109], [6.322261, 46.470468], [6.322352, 46.470353], [6.322364, 46.470282], [6.322276, 46.469967], [6.322316, 46.469744], [6.32249, 46.46945], [6.322998, 46.468819], [6.322995, 46.468685], [6.322943, 46.468612], [6.322404, 46.46827], [6.322184, 46.468166], [6.322115, 46.468098], [6.32175, 46.467876], [6.32166, 46.467772], [6.321558, 46.467738], [6.320978, 46.467375], [6.320726, 46.467272], [6.320393, 46.467236], [6.320037, 46.467248], [6.319692, 46.467185], [6.319381, 46.46705], [6.318974, 46.466725], [6.318747, 46.466608], [6.318443, 46.466545], [6.317952, 46.466524], [6.317651, 46.466564], [6.317234, 46.466719], [6.316998, 46.466666], [6.316723, 46.466471], [6.31657, 46.466409], [6.316524, 46.466366], [6.315983, 46.466147], [6.315523, 46.466061], [6.315323, 46.466064], [6.314827, 46.466016], [6.314267, 46.465764], [6.314036, 46.465678], [6.313819, 46.465639], [6.313868, 46.465615], [6.313992, 46.465636], [6.314327, 46.465773], [6.314828, 46.466025], [6.315151, 46.466042], [6.315195, 46.466084], [6.31513, 46.466106], [6.31477, 46.465959], [6.314726, 46.46588], [6.314743, 46.465826], [6.314837, 46.465737], [6.31508, 46.465372], [6.315194, 46.465286], [6.315233, 46.465176], [6.315333, 46.465075], [6.315873, 46.464323], [6.315867, 46.464252], [6.315114, 46.463906], [6.314439, 46.463531], [6.313717, 46.463055], [6.312456, 46.462289], [6.312319, 46.46224], [6.312299, 46.462173], [6.312075, 46.462063], [6.31027, 46.460924], [6.309931, 46.460735], [6.309829, 46.460708], [6.309777, 46.460655], [6.308727, 46.460184], [6.308147, 46.45989], [6.307048, 46.459387], [6.301433, 46.45728], [6.301452, 46.457183], [6.301808, 46.456962], [6.301922, 46.456848], [6.302298, 46.456235], [6.302457, 46.456166], [6.302776, 46.456189], [6.303471, 46.456302], [6.30406, 46.456458], [6.304526, 46.456616], [6.304673, 46.45663], [6.306299, 46.455134], [6.308868, 46.452928], [6.309208, 46.452696], [6.310357, 46.452163], [6.310697, 46.451978], [6.310973, 46.451721], [6.311011, 46.451648], [6.311011, 46.451472], [6.311067, 46.451226], [6.311053, 46.451023], [6.311095, 46.450932], [6.311139, 46.450644], [6.311081, 46.450562], [6.309263, 46.44968], [6.309089, 46.449559], [6.309001, 46.44954], [6.307758, 46.448935], [6.304215, 46.447153], [6.30426, 46.447016], [6.304712, 46.446492], [6.305653, 46.445155], [6.306114, 46.444601], [6.306602, 46.444084], [6.306715, 46.443927], [6.306778, 46.443764], [6.307014, 46.4435], [6.306963, 46.442967], [6.306882, 46.442621], [6.306363, 46.44187], [6.30629, 46.441674], [6.306312, 46.441604], [6.306426, 46.441486], [6.306954, 46.441194], [6.307308, 46.440919], [6.307566, 46.440559], [6.307568, 46.44033], [6.307481, 46.44017], [6.307296, 46.440048], [6.306758, 46.439834], [6.306451, 46.439684], [6.305847, 46.439264], [6.305222, 46.438891], [6.304814, 46.4387], [6.304463, 46.438311], [6.304171, 46.437889], [6.303433, 46.437334], [6.302756, 46.436902], [6.302032, 46.436384], [6.301751, 46.436274], [6.301039, 46.436261], [6.300655, 46.436203], [6.300466, 46.436118], [6.299793, 46.435644], [6.299663, 46.435601], [6.299082, 46.43589], [6.298982, 46.435838], [6.298987, 46.435804], [6.299148, 46.435711], [6.299238, 46.435692], [6.299042, 46.435805], [6.298938, 46.43583], [6.298985, 46.435796], [6.299144, 46.435777], [6.299489, 46.435665], [6.299255, 46.435704], [6.299156, 46.435649], [6.299149, 46.435677], [6.299186, 46.435687], [6.298942, 46.435948], [6.298069, 46.436353], [6.296695, 46.437092], [6.294605, 46.43814], [6.292583, 46.439382], [6.292449, 46.439326], [6.292005, 46.438591], [6.291534, 46.438031], [6.290844, 46.437488], [6.29077, 46.437477], [6.290711, 46.437503], [6.289566, 46.438228], [6.289497, 46.438247], [6.289116, 46.43822], [6.288679, 46.438099], [6.288486, 46.437992], [6.287662, 46.437411], [6.286836, 46.436791], [6.286235, 46.436315], [6.285667, 46.435801], [6.28398, 46.434112], [6.282562, 46.4328], [6.282444, 46.432654], [6.280918, 46.431195], [6.280481, 46.430748], [6.280301, 46.430488], [6.280041, 46.430338], [6.27924, 46.429584], [6.277725, 46.428059], [6.273589, 46.424033], [6.271877, 46.422385], [6.269983, 46.420425], [6.269935, 46.420256], [6.269715, 46.420129], [6.268701, 46.419136], [6.267262, 46.417858], [6.267224, 46.417713], [6.267347, 46.417672], [6.268002, 46.417227], [6.269207, 46.416318], [6.269264, 46.416257], [6.269257, 46.416219], [6.268033, 46.415275], [6.266307, 46.413888], [6.264219, 46.412313], [6.264064, 46.412169], [6.26395, 46.412106], [6.263805, 46.412143], [6.263636, 46.412383], [6.263386, 46.412662], [6.262969, 46.413114], [6.262753, 46.413285], [6.262733, 46.413229], [6.262576, 46.413251], [6.262262, 46.412967], [6.262159, 46.412856], [6.262168, 46.41274], [6.262024, 46.412667], [6.261837, 46.412455], [6.261817, 46.412396], [6.261691, 46.412282], [6.2617, 46.412247], [6.261468, 46.411994], [6.261477, 46.411946], [6.261416, 46.411807], [6.261328, 46.411724], [6.261285, 46.411734], [6.261182, 46.411802], [6.261043, 46.411847], [6.261014, 46.41188], [6.261035, 46.411915], [6.260866, 46.411952], [6.260898, 46.412041], [6.260728, 46.412128], [6.260665, 46.412137], [6.260596, 46.412223], [6.260558, 46.412357], [6.260306, 46.412806], [6.26017, 46.41294], [6.260011, 46.413005], [6.259831, 46.413044], [6.259711, 46.413107], [6.259537, 46.413131], [6.259323, 46.413218], [6.259287, 46.413261], [6.258955, 46.413371], [6.258693, 46.413496], [6.258377, 46.413751], [6.257642, 46.414086], [6.257602, 46.414158], [6.257683, 46.414215], [6.257625, 46.414237], [6.257546, 46.414225], [6.256826, 46.413778], [6.256464, 46.413605], [6.256021, 46.413527], [6.255114, 46.41348], [6.254935, 46.413428], [6.254809, 46.413334], [6.254411, 46.412522], [6.253976, 46.411511], [6.25403, 46.411422], [6.254517, 46.411277], [6.255505, 46.410847], [6.255873, 46.410731], [6.256273, 46.410656], [6.257396, 46.410536], [6.257588, 46.41048], [6.260101, 46.409386], [6.260436, 46.40914], [6.260488, 46.409088], [6.260478, 46.409033], [6.260367, 46.408934], [6.259105, 46.408145], [6.25784, 46.40731], [6.257674, 46.407242], [6.257578, 46.40723], [6.257197, 46.407243], [6.257016, 46.40719], [6.256951, 46.407141], [6.255538, 46.405579], [6.254771, 46.404709], [6.254701, 46.404598], [6.254506, 46.404423], [6.253342, 46.403051], [6.252373, 46.402064], [6.252283, 46.401829], [6.252277, 46.401134], [6.252229, 46.400987], [6.252103, 46.400843], [6.252027, 46.400824], [6.251921, 46.4009], [6.25175, 46.400934], [6.251517, 46.401032], [6.251382, 46.401025], [6.250267, 46.400129], [6.24988, 46.399848], [6.247784, 46.398135], [6.246036, 46.396797], [6.24496, 46.395877], [6.244138, 46.395235], [6.243544, 46.394673], [6.243396, 46.39445], [6.24322, 46.394294], [6.24317, 46.394183], [6.242951, 46.394053], [6.242474, 46.39334], [6.241805, 46.392073], [6.241622, 46.391629], [6.241401, 46.390927], [6.241302, 46.3908], [6.241326, 46.39071], [6.241225, 46.390325], [6.241116, 46.390141], [6.241008, 46.389712], [6.240684, 46.388786], [6.240562, 46.388493], [6.240464, 46.388421], [6.240465, 46.388247], [6.240436, 46.388265], [6.240353, 46.388193], [6.24036, 46.388275], [6.240333, 46.388304], [6.240209, 46.388293], [6.240148, 46.388252], [6.239991, 46.387945], [6.239992, 46.387769], [6.240231, 46.387457], [6.240111, 46.387302], [6.241018, 46.386222], [6.241123, 46.386007], [6.241152, 46.385724], [6.240928, 46.384918], [6.240685, 46.384386], [6.24042, 46.384041], [6.239616, 46.383402], [6.239434, 46.383227], [6.239368, 46.383122], [6.23927, 46.382821], [6.239259, 46.382509], [6.238882, 46.382049], [6.238413, 46.381054], [6.238398, 46.380688], [6.238196, 46.380176], [6.238236, 46.38001], [6.238466, 46.379508], [6.238443, 46.379127], [6.238368, 46.378852], [6.238175, 46.378535], [6.237805, 46.378149], [6.237689, 46.378071], [6.237293, 46.377855], [6.235565, 46.377038], [6.235208, 46.376812], [6.234986, 46.376577], [6.234903, 46.376437], [6.234576, 46.376093], [6.233864, 46.375142], [6.233453, 46.374681], [6.232744, 46.373749], [6.231889, 46.372962], [6.231672, 46.372822], [6.231481, 46.372609], [6.230923, 46.372091], [6.230437, 46.371689], [6.229938, 46.371325], [6.229875, 46.371243], [6.228489, 46.370424], [6.228209, 46.370294], [6.227883, 46.370179], [6.227619, 46.370044], [6.227171, 46.369875], [6.226875, 46.369601], [6.226604, 46.369516], [6.225504, 46.36897], [6.224898, 46.368633], [6.224321, 46.368275], [6.223958, 46.368017], [6.223318, 46.367496], [6.222753, 46.366967], [6.222139, 46.366272], [6.219924, 46.363121], [6.219177, 46.362153], [6.218661, 46.361561], [6.217623, 46.360504], [6.216726, 46.359679], [6.2161, 46.359138], [6.215979, 46.359072], [6.215764, 46.359003], [6.215716, 46.358948], [6.215722, 46.358747], [6.215676, 46.358687], [6.214898, 46.357962], [6.213114, 46.356119], [6.211013, 46.353914], [6.210526, 46.353448], [6.208773, 46.35161], [6.208078, 46.350787], [6.207528, 46.349997], [6.207267, 46.349515], [6.206974, 46.348867], [6.206598, 46.347676], [6.206198, 46.345975]]}, "properties": {"name": "1785668084.Col_de_Marchiaruz_windy_rte_back_coz_of_Women_TDF", "cmt": "2026-08-02", "tstamp": 1785628800, "desc": "DownHill", "src": "6.177872/46.331363/6.338334/46.55998", "bbox": "6.177872/46.331363/6.338334/46.55998"}}, {"type": "Feature", "bbox": [6.177872, 46.331363, 6.338334, 46.55998], "geometry": {"type": "LineString", "coordinates": [[6.206181, 46.345903], [6.205492, 46.342958], [6.205412, 46.342806], [6.205342, 46.342789], [6.205221, 46.342835], [6.204871, 46.343191], [6.204574, 46.343344], [6.204341, 46.343426], [6.204215, 46.343422], [6.204107, 46.343376], [6.203801, 46.343046], [6.203472, 46.342749], [6.203176, 46.342547], [6.202723, 46.342309], [6.202453, 46.342072], [6.20233, 46.341887], [6.201942, 46.341095], [6.201657, 46.340275], [6.201454, 46.33996], [6.201294, 46.339765], [6.201042, 46.33956], [6.200393, 46.338857], [6.200011, 46.338496], [6.199031, 46.337666], [6.198613, 46.337055], [6.198322, 46.336721], [6.197995, 46.336494], [6.196476, 46.33559], [6.196083, 46.335321], [6.195567, 46.335094], [6.194628, 46.334545], [6.194198, 46.334226], [6.193806, 46.334014], [6.193334, 46.333799], [6.192849, 46.333388], [6.192747, 46.333189], [6.192693, 46.332975], [6.192518, 46.332553], [6.192454, 46.332312], [6.192508, 46.332255], [6.192987, 46.332146], [6.19302, 46.33211], [6.192979, 46.331957], [6.192999, 46.331942], [6.193801, 46.331805], [6.194024, 46.331857], [6.194182, 46.331844], [6.194609, 46.331714], [6.194698, 46.331676], [6.194744, 46.33161], [6.194733, 46.331531], [6.194657, 46.331401], [6.194587, 46.331363], [6.1943, 46.331434], [6.193824, 46.331494]]}, "properties": {"name": "1785668084.Col_de_Marchiaruz_windy_rte_back_coz_of_Women_TDF", "cmt": "2026-08-02", "tstamp": 1785628800, "desc": "UpHill", "src": "6.177872/46.331363/6.338334/46.55998", "bbox": "6.177872/46.331363/6.338334/46.55998"}}]}