{"type": "FeatureCollection", "name": "TrackSet", "crs": {"type": "name", "properties": {"name": "urn:ogc:def:crs:OGC:1.3:CRS84"}}, "bbox": [6.149817, 46.331367, 6.261364, 46.489808], "features": [{"type": "Feature", "bbox": [6.149817, 46.331367, 6.261364, 46.489808], "geometry": {"type": "LineString", "coordinates": [[6.19463, 46.331481], [6.194719, 46.331638], [6.194386, 46.33179], [6.194097, 46.33184], [6.193771, 46.331788], [6.192986, 46.331939], [6.19295, 46.331983], [6.192991, 46.332123], [6.192955, 46.332154], [6.192476, 46.332253], [6.192441, 46.332324], [6.192685, 46.332845], [6.19279, 46.333237], [6.192954, 46.33345], [6.193386, 46.333813], [6.193534, 46.333852], [6.194167, 46.334169], [6.194656, 46.334548], [6.194686, 46.334591], [6.194667, 46.334639], [6.192779, 46.335975], [6.191765, 46.336595], [6.191571, 46.337015], [6.191262, 46.33752], [6.190857, 46.338009], [6.19057, 46.338416], [6.190241, 46.338737], [6.189792, 46.339028], [6.189194, 46.339216], [6.188943, 46.339328], [6.185141, 46.341506], [6.184908, 46.341617], [6.184227, 46.341874], [6.183459, 46.342227], [6.183218, 46.342447], [6.182972, 46.342875], [6.182829, 46.343026], [6.182547, 46.343201], [6.181848, 46.343552], [6.18167, 46.343569], [6.18153, 46.343512], [6.1808, 46.342906], [6.180172, 46.34247], [6.180004, 46.342418], [6.179832, 46.342455], [6.179404, 46.342705], [6.178994, 46.342904], [6.177834, 46.343304], [6.177756, 46.34335], [6.177724, 46.343432], [6.17756, 46.345008], [6.17737, 46.345161], [6.176734, 46.345459], [6.176631, 46.345549], [6.176543, 46.345703], [6.176574, 46.345805], [6.176712, 46.345934], [6.177524, 46.346527], [6.1778, 46.3467], [6.17977, 46.347364], [6.180118, 46.347567], [6.180686, 46.348031], [6.180877, 46.34823], [6.182177, 46.349914], [6.182731, 46.350415], [6.183384, 46.351188], [6.184462, 46.352267], [6.184792, 46.352769], [6.184875, 46.352834], [6.184984, 46.352871], [6.1854, 46.352938], [6.186347, 46.353236], [6.186646, 46.353446], [6.187044, 46.353785], [6.186992, 46.353866], [6.186673, 46.35392], [6.18654, 46.353991], [6.186442, 46.35393], [6.186169, 46.35399], [6.185991, 46.354083], [6.185799, 46.354225], [6.183192, 46.355484], [6.183097, 46.355545], [6.183083, 46.355581], [6.183119, 46.355657], [6.183259, 46.355789], [6.183935, 46.356638], [6.184219, 46.356952], [6.185124, 46.357606], [6.185963, 46.35802], [6.186059, 46.358106], [6.186085, 46.358166], [6.186058, 46.358341], [6.186076, 46.358634], [6.186129, 46.358988], [6.186564, 46.360464], [6.186525, 46.360671], [6.18633, 46.360941], [6.18375, 46.362729], [6.18311, 46.363127], [6.181691, 46.363774], [6.180439, 46.364469], [6.18012, 46.364584], [6.179731, 46.364669], [6.179309, 46.364811], [6.178726, 46.365173], [6.177692, 46.365904], [6.177282, 46.366131], [6.176866, 46.366228], [6.175916, 46.366283], [6.175518, 46.36638], [6.173707, 46.367244], [6.173285, 46.367398], [6.170721, 46.367651], [6.170522, 46.367653], [6.170149, 46.367595], [6.170055, 46.367599], [6.169931, 46.367705], [6.169848, 46.367884], [6.169857, 46.367943], [6.169914, 46.367988], [6.170557, 46.368248], [6.170986, 46.368467], [6.172451, 46.36912], [6.172674, 46.36925], [6.177864, 46.372901], [6.179992, 46.37427], [6.180012, 46.374356], [6.179934, 46.374442], [6.178095, 46.375771], [6.177769, 46.376047], [6.17761, 46.37613], [6.177226, 46.376444], [6.177163, 46.376531], [6.177175, 46.376629], [6.177318, 46.376782], [6.177539, 46.376886], [6.178239, 46.377406], [6.178529, 46.377691], [6.178587, 46.377773], [6.178582, 46.377815], [6.178457, 46.377936], [6.177852, 46.37834], [6.177609, 46.37861], [6.177241, 46.378904], [6.176917, 46.379292], [6.175335, 46.38067], [6.174921, 46.381111], [6.17385, 46.381936], [6.173024, 46.382795], [6.172213, 46.383459], [6.172154, 46.383531], [6.172097, 46.383693], [6.171987, 46.384236], [6.171912, 46.384336], [6.171183, 46.384956], [6.170125, 46.385796], [6.169547, 46.386139], [6.169016, 46.3866], [6.16825, 46.387058], [6.167532, 46.387443], [6.165819, 46.38824], [6.164339, 46.389174], [6.163652, 46.389497], [6.16337, 46.389707], [6.162682, 46.389988], [6.162344, 46.390163], [6.161871, 46.390474], [6.161152, 46.391082], [6.160897, 46.391258], [6.16081, 46.391286], [6.160623, 46.391269], [6.160338, 46.391054], [6.160125, 46.39099], [6.15972, 46.391055], [6.158725, 46.391304], [6.158104, 46.391509], [6.157087, 46.391922], [6.156387, 46.392168], [6.155835, 46.392318], [6.155202, 46.392444], [6.154807, 46.392607], [6.154497, 46.39282], [6.15412, 46.393248], [6.15385, 46.393493], [6.151274, 46.395503], [6.151074, 46.395804], [6.150776, 46.396656], [6.150658, 46.396864], [6.15048, 46.397079], [6.150268, 46.397271], [6.150057, 46.397434], [6.149817, 46.397569], [6.149817, 46.397598], [6.149878, 46.397679], [6.150022, 46.397784], [6.150899, 46.398359], [6.151402, 46.398828], [6.151669, 46.399159], [6.152051, 46.399754], [6.152184, 46.399913], [6.152488, 46.400174], [6.152845, 46.400621], [6.154011, 46.401525], [6.154799, 46.40193], [6.155128, 46.402037], [6.155426, 46.402184], [6.155828, 46.402424], [6.156755, 46.402911], [6.157138, 46.403164], [6.157457, 46.403327], [6.157963, 46.403552], [6.15895, 46.403911], [6.160162, 46.40449], [6.160449, 46.404669], [6.161276, 46.405283], [6.162042, 46.405751], [6.16243, 46.406152], [6.162632, 46.406301], [6.162798, 46.406366], [6.163255, 46.406463], [6.163929, 46.406652], [6.16434, 46.406821], [6.164789, 46.407047], [6.165466, 46.407438], [6.165649, 46.407615], [6.166414, 46.408112], [6.16742, 46.408861], [6.167786, 46.409097], [6.167995, 46.409172], [6.168158, 46.409196], [6.169145, 46.40922], [6.1718, 46.409914], [6.172031, 46.410004], [6.172712, 46.410377], [6.173421, 46.410634], [6.174201, 46.41099], [6.174399, 46.411032], [6.174494, 46.411104], [6.174598, 46.411119], [6.174783, 46.411295], [6.175254, 46.411547], [6.17581, 46.411805], [6.176267, 46.411943], [6.176564, 46.412001], [6.176877, 46.412007], [6.177091, 46.411969], [6.177422, 46.411869], [6.177674, 46.411845], [6.177801, 46.411854], [6.178273, 46.411968], [6.17875, 46.412007], [6.179268, 46.412006], [6.179372, 46.412057], [6.179434, 46.412139], [6.179517, 46.412373], [6.179513, 46.412422], [6.179476, 46.412425], [6.179423, 46.41237], [6.179444, 46.412246], [6.179362, 46.412069], [6.179362, 46.411969], [6.179414, 46.411884], [6.179555, 46.411855], [6.180066, 46.412134], [6.180407, 46.412265], [6.180707, 46.41234], [6.181469, 46.412439], [6.181475, 46.412548], [6.181506, 46.412574], [6.18219, 46.412827], [6.182515, 46.41298], [6.183185, 46.413511], [6.183349, 46.413614], [6.183657, 46.413735], [6.184114, 46.413848], [6.184486, 46.41398], [6.185123, 46.414372], [6.186554, 46.415029], [6.186921, 46.415297], [6.187062, 46.415358], [6.187134, 46.415448], [6.187297, 46.415544], [6.188635, 46.415885], [6.189007, 46.416002], [6.19061, 46.416614], [6.191993, 46.417313], [6.193059, 46.418118], [6.193679, 46.418653], [6.194642, 46.419248], [6.195508, 46.419855], [6.196094, 46.420311], [6.196486, 46.42068], [6.196594, 46.420805], [6.197011, 46.421511], [6.197314, 46.421945], [6.197346, 46.4221], [6.197638, 46.422746], [6.198128, 46.423647], [6.19846, 46.424426], [6.198683, 46.424838], [6.19909, 46.425807], [6.199094, 46.426109], [6.198996, 46.426288], [6.198527, 46.426878], [6.198205, 46.42721], [6.197922, 46.42745], [6.197194, 46.427878], [6.19708, 46.427965], [6.197007, 46.428062], [6.196945, 46.428266], [6.196991, 46.428462], [6.197334, 46.428969], [6.197773, 46.429134], [6.198646, 46.429219], [6.199159, 46.429159], [6.200856, 46.428665], [6.200933, 46.42865], [6.201225, 46.428691], [6.20167, 46.428934], [6.201915, 46.428978], [6.202276, 46.429135], [6.203639, 46.42981], [6.204064, 46.430246], [6.204394, 46.430486], [6.205553, 46.431288], [6.206534, 46.431908], [6.209321, 46.433191], [6.20979, 46.433341], [6.210147, 46.433418], [6.210803, 46.433486], [6.211343, 46.433462], [6.211824, 46.433397], [6.213183, 46.433049], [6.213371, 46.43306], [6.213514, 46.433156], [6.21356, 46.433091], [6.213748, 46.433099], [6.213906, 46.43318], [6.213978, 46.433258], [6.214558, 46.433493], [6.214928, 46.433752], [6.215104, 46.433788], [6.215971, 46.434213], [6.21619, 46.434255], [6.216362, 46.434369], [6.216749, 46.434493], [6.217178, 46.434578], [6.217175, 46.434609], [6.217176, 46.43459], [6.217527, 46.434772], [6.217903, 46.435032], [6.217871, 46.435126], [6.217437, 46.435363], [6.217373, 46.435451], [6.217425, 46.435713], [6.217436, 46.436165], [6.21754, 46.436299], [6.217749, 46.436349], [6.218551, 46.436342], [6.218806, 46.436382], [6.219028, 46.436454], [6.220575, 46.437177], [6.220753, 46.437282], [6.220928, 46.437458], [6.221046, 46.43769], [6.221066, 46.437951], [6.220748, 46.43943], [6.220677, 46.439944], [6.220778, 46.440265], [6.221004, 46.440544], [6.221223, 46.440707], [6.221485, 46.440831], [6.222778, 46.441143], [6.223269, 46.441227], [6.224581, 46.441324], [6.225295, 46.441406], [6.226254, 46.441577], [6.22705, 46.441764], [6.22752, 46.44191], [6.22806, 46.442133], [6.230301, 46.443205], [6.230616, 46.443381], [6.231034, 46.44368], [6.231371, 46.443865], [6.231629, 46.444087], [6.231722, 46.444229], [6.231796, 46.444385], [6.231834, 46.444652], [6.231883, 46.446242], [6.23193, 46.44633], [6.232026, 46.446398], [6.23215, 46.44644], [6.232289, 46.446452], [6.232634, 46.446424], [6.233425, 46.445873], [6.234642, 46.445258], [6.235697, 46.444615], [6.235931, 46.444551], [6.236184, 46.444569], [6.236302, 46.444611], [6.236485, 46.444748], [6.236576, 46.444928], [6.236869, 46.446], [6.236946, 46.446079], [6.237054, 46.446135], [6.237184, 46.446156], [6.237314, 46.44614], [6.237425, 46.446088], [6.237497, 46.446011], [6.237521, 46.44592], [6.237501, 46.445822], [6.237143, 46.445274], [6.237099, 46.444948], [6.237172, 46.444731], [6.237241, 46.444632], [6.237437, 46.444465], [6.238639, 46.443734], [6.239526, 46.443406], [6.239894, 46.443246], [6.24212, 46.442183], [6.242471, 46.442052], [6.243634, 46.441738], [6.244002, 46.441597], [6.244114, 46.441526], [6.244218, 46.441409], [6.244396, 46.441122], [6.244712, 46.44074], [6.244923, 46.44064], [6.245226, 46.440646], [6.246027, 46.440729], [6.246915, 46.440756], [6.247689, 46.440834], [6.247757, 46.440885], [6.247807, 46.441007], [6.247932, 46.441164], [6.248351, 46.441559], [6.248662, 46.441777], [6.249523, 46.442298], [6.249611, 46.44242], [6.249583, 46.442691], [6.249319, 46.443], [6.249252, 46.443049], [6.249121, 46.443084], [6.248725, 46.443097], [6.247267, 46.443062], [6.245922, 46.442921], [6.245522, 46.442921], [6.245088, 46.44297], [6.244762, 46.443049], [6.243616, 46.443444], [6.243411, 46.443483], [6.24317, 46.443743], [6.243158, 46.4439], [6.243098, 46.444067], [6.242944, 46.445321], [6.242902, 46.44558], [6.242863, 46.445641], [6.242823, 46.446239], [6.242747, 46.446443], [6.242759, 46.446525], [6.242716, 46.446586], [6.242704, 46.446958], [6.242779, 46.447038], [6.243212, 46.447235], [6.243803, 46.447609], [6.244113, 46.447701], [6.244499, 46.447761], [6.244622, 46.447814], [6.244782, 46.447976], [6.245019, 46.448096], [6.24597, 46.448425], [6.246335, 46.448576], [6.247123, 46.448824], [6.247695, 46.449038], [6.247965, 46.44917], [6.248431, 46.449503], [6.250409, 46.451205], [6.250836, 46.451473], [6.251297, 46.451695], [6.252563, 46.452132], [6.25286, 46.452262], [6.253174, 46.452452], [6.253408, 46.452636], [6.253904, 46.453194], [6.255416, 46.455019], [6.256279, 46.456134], [6.256528, 46.456511], [6.25678, 46.457107], [6.257413, 46.459591], [6.257679, 46.460259], [6.257873, 46.460563], [6.258207, 46.460991], [6.258544, 46.461324], [6.260516, 46.462937], [6.260783, 46.463203], [6.261077, 46.463634], [6.261364, 46.464678], [6.261237, 46.464869], [6.261075, 46.46497], [6.26087, 46.465024], [6.260275, 46.465119], [6.259758, 46.465254], [6.259439, 46.465448], [6.259045, 46.465797], [6.25883, 46.465933], [6.258769, 46.465885], [6.259006, 46.465464], [6.25904, 46.465214], [6.259106, 46.465194], [6.25911, 46.465099], [6.259105, 46.465169], [6.259015, 46.46528], [6.259024, 46.465443], [6.258716, 46.465973], [6.257804, 46.467003], [6.257634, 46.467154], [6.25739, 46.467293], [6.257267, 46.467293], [6.257047, 46.467237], [6.256978, 46.467279], [6.256877, 46.467221], [6.256935, 46.467188], [6.256849, 46.467229], [6.256917, 46.467268], [6.257126, 46.467292], [6.257187, 46.46733], [6.257189, 46.467378], [6.256715, 46.467806], [6.256381, 46.468262], [6.255718, 46.469293], [6.255596, 46.469766], [6.255608, 46.470549], [6.255528, 46.470809], [6.255425, 46.470957], [6.255239, 46.471136], [6.254417, 46.471615], [6.254134, 46.47182], [6.253843, 46.472093], [6.253634, 46.472347], [6.253429, 46.472699], [6.251675, 46.476274], [6.25156, 46.476627], [6.251563, 46.47708], [6.251681, 46.477432], [6.25196, 46.477842], [6.252061, 46.478045], [6.252085, 46.478308], [6.25203, 46.478526], [6.251893, 46.478758], [6.251114, 46.479837], [6.250988, 46.480117], [6.250691, 46.480988], [6.250476, 46.481414], [6.250358, 46.481548], [6.250143, 46.481712], [6.249176, 46.482351], [6.249173, 46.482386], [6.249251, 46.482424], [6.249314, 46.48242], [6.250269, 46.482625], [6.250635, 46.482682], [6.250805, 46.482737], [6.251022, 46.482865], [6.25164, 46.483925], [6.251725, 46.484015], [6.25241, 46.484312], [6.252888, 46.484446], [6.253735, 46.484736], [6.254003, 46.484799], [6.254459, 46.484979], [6.254449, 46.485063], [6.253967, 46.486005], [6.253958, 46.486093], [6.253835, 46.486247], [6.252426, 46.489232], [6.25234, 46.489294], [6.252213, 46.489328], [6.251691, 46.489334], [6.251214, 46.489276], [6.250485, 46.489106], [6.250262, 46.489103], [6.250088, 46.489175], [6.249889, 46.489338], [6.249722, 46.48941], [6.249542, 46.489461], [6.249244, 46.489469], [6.248915, 46.489412], [6.248519, 46.489253], [6.247879, 46.489138], [6.247247, 46.489119], [6.246357, 46.489242], [6.246158, 46.489244], [6.245911, 46.489086], [6.245757, 46.488845], [6.245715, 46.488814], [6.245639, 46.488804], [6.245386, 46.488956], [6.244765, 46.489405], [6.244436, 46.489735], [6.244277, 46.489808], [6.244227, 46.489781]]}, "properties": {"name": "1785577427.Founex_Marchissy", "cmt": "2026-08-01", "tstamp": 1785542400, "desc": "UpHill", "src": "6.149817/46.331367/6.261364/46.489808", "bbox": "6.149817/46.331367/6.261364/46.489808"}}, {"type": "Feature", "bbox": [6.149817, 46.331367, 6.261364, 46.489808], "geometry": {"type": "LineString", "coordinates": [[6.244234, 46.489754], [6.244574, 46.489586], [6.244858, 46.489319], [6.245696, 46.48871], [6.246184, 46.488308], [6.24663, 46.487864], [6.246731, 46.48784], [6.246855, 46.487849], [6.246928, 46.487809], [6.246886, 46.487821], [6.24688, 46.487803], [6.246905, 46.48785], [6.246773, 46.487898], [6.246814, 46.487889], [6.246791, 46.487864], [6.246845, 46.487849], [6.246996, 46.487846], [6.247147, 46.487515], [6.247225, 46.487501], [6.24734, 46.487403], [6.247694, 46.487214], [6.247828, 46.487097], [6.247858, 46.48703], [6.247817, 46.486868], [6.247665, 46.486731], [6.247556, 46.486682], [6.24729, 46.486642], [6.247007, 46.486669], [6.245751, 46.486903], [6.245627, 46.486905], [6.245507, 46.486875], [6.245419, 46.486807], [6.245382, 46.486717], [6.245412, 46.486623], [6.24548, 46.486543], [6.245796, 46.486373], [6.246164, 46.486082], [6.246221, 46.48599], [6.246226, 46.485787], [6.246101, 46.485259], [6.245704, 46.48415], [6.245601, 46.483587], [6.245474, 46.483387], [6.244689, 46.482526], [6.24422, 46.482199], [6.243506, 46.481751], [6.243261, 46.481665], [6.243068, 46.481653], [6.242791, 46.481675], [6.242614, 46.481711], [6.242046, 46.481898], [6.241778, 46.481929], [6.241599, 46.481887], [6.241444, 46.481802], [6.241322, 46.481628], [6.24133, 46.481464], [6.241452, 46.481227], [6.241988, 46.480799], [6.242058, 46.480688], [6.242061, 46.480618], [6.242022, 46.480517], [6.241242, 46.479783], [6.241272, 46.479527], [6.241164, 46.479208], [6.241172, 46.479069], [6.24122, 46.479001], [6.241389, 46.478882], [6.24216, 46.478523], [6.242775, 46.478298], [6.243255, 46.478189], [6.243466, 46.478102], [6.243604, 46.477989], [6.24364, 46.477922], [6.243647, 46.477621], [6.243784, 46.477212], [6.243742, 46.476944], [6.243643, 46.476773], [6.243007, 46.476284], [6.24287, 46.476096], [6.242749, 46.475807], [6.242717, 46.475187], [6.242775, 46.474758], [6.242693, 46.474099], [6.242687, 46.473291], [6.242469, 46.472125], [6.242571, 46.471304], [6.242619, 46.471102], [6.242728, 46.470896], [6.242815, 46.470768], [6.242976, 46.470641], [6.243349, 46.470548], [6.243558, 46.470436], [6.243628, 46.470294], [6.243596, 46.470233], [6.243389, 46.470072], [6.24278, 46.469689], [6.242577, 46.469522], [6.241366, 46.46885], [6.240637, 46.468344], [6.240472, 46.468288], [6.240294, 46.468273], [6.239998, 46.468326], [6.239792, 46.468326], [6.239505, 46.468235], [6.239289, 46.468046], [6.238984, 46.467429], [6.238259, 46.4666], [6.237784, 46.466163], [6.23766, 46.46608], [6.237508, 46.466027], [6.237391, 46.466014], [6.23709, 46.466053], [6.236921, 46.466047], [6.236519, 46.465972], [6.23629, 46.465883], [6.23584, 46.465579], [6.234857, 46.464766], [6.234698, 46.46453], [6.234815, 46.464215], [6.23478, 46.464114], [6.234731, 46.46407], [6.234054, 46.463714], [6.233281, 46.463377], [6.232715, 46.463151], [6.232531, 46.463102], [6.232132, 46.463119], [6.232018, 46.463148], [6.231925, 46.463209], [6.231587, 46.463925], [6.231482, 46.464003], [6.231282, 46.464093], [6.231015, 46.46438], [6.230625, 46.465083], [6.230341, 46.465803], [6.230286, 46.465884], [6.230191, 46.465953], [6.229938, 46.466013], [6.228162, 46.466039], [6.227826, 46.466078], [6.227498, 46.466147], [6.227204, 46.466268], [6.227096, 46.466365], [6.226959, 46.466579], [6.22686, 46.466675], [6.22673, 46.46675], [6.226406, 46.466823], [6.225922, 46.466832], [6.225782, 46.466847], [6.22566, 46.466892], [6.225564, 46.466956], [6.225252, 46.467292], [6.225143, 46.467355], [6.225003, 46.467388], [6.224855, 46.467392], [6.224183, 46.467292], [6.223772, 46.467284], [6.222979, 46.467369], [6.222066, 46.467537], [6.221936, 46.467551], [6.221675, 46.467534], [6.221289, 46.467447], [6.220921, 46.4673], [6.219689, 46.466565], [6.219627, 46.466481], [6.219612, 46.466378], [6.219672, 46.466191], [6.219848, 46.466062], [6.219966, 46.466028], [6.220424, 46.46605], [6.220806, 46.46616], [6.221001, 46.466191], [6.221105, 46.466184], [6.222006, 46.465858], [6.222635, 46.465773], [6.222752, 46.465737], [6.223454, 46.465336], [6.223707, 46.464986], [6.224248, 46.464623], [6.224361, 46.464496], [6.224435, 46.4643], [6.224368, 46.463956], [6.224387, 46.463879], [6.224681, 46.463586], [6.224788, 46.463336], [6.225004, 46.463119], [6.225065, 46.463012], [6.225071, 46.462884], [6.224982, 46.462783], [6.224745, 46.462624], [6.224645, 46.462496], [6.224651, 46.462246], [6.224696, 46.462084], [6.224635, 46.461726], [6.224396, 46.461348], [6.224325, 46.461167], [6.224177, 46.460974], [6.224038, 46.460877], [6.223955, 46.460768], [6.223651, 46.460238], [6.223672, 46.460162], [6.224076, 46.459618], [6.224295, 46.45927], [6.224569, 46.458964], [6.224764, 46.458575], [6.22505, 46.458121], [6.225104, 46.457927], [6.225003, 46.4578], [6.224698, 46.457574], [6.22411, 46.457237], [6.223035, 46.456514], [6.222161, 46.45614], [6.221874, 46.455988], [6.221508, 46.455701], [6.22099, 46.45504], [6.220836, 46.454915], [6.220646, 46.454813], [6.220069, 46.454582], [6.219727, 46.454367], [6.21975, 46.454266], [6.220017, 46.454063], [6.220205, 46.453855], [6.220323, 46.453616], [6.220352, 46.453352], [6.220267, 46.452998], [6.219962, 46.452498], [6.219486, 46.451827], [6.21937, 46.451573], [6.219352, 46.451303], [6.21951, 46.450746], [6.219532, 46.450547], [6.219466, 46.449936], [6.219377, 46.449838], [6.219326, 46.449821], [6.219231, 46.44985], [6.219174, 46.450132], [6.218919, 46.450481], [6.218786, 46.450589], [6.218715, 46.450606], [6.218563, 46.450529], [6.218348, 46.450035], [6.217949, 46.449302], [6.217843, 46.448732], [6.217856, 46.448542], [6.217924, 46.448351], [6.218035, 46.448168], [6.219092, 46.44708], [6.219213, 46.446886], [6.219308, 46.446466], [6.219297, 46.44625], [6.219204, 46.446042], [6.219072, 46.445848], [6.218906, 46.445669], [6.218693, 46.445508], [6.218553, 46.445453], [6.218098, 46.445348], [6.217886, 46.445183], [6.217687, 46.444762], [6.217627, 46.44433], [6.217548, 46.444139], [6.21747, 46.444065], [6.216935, 46.443902], [6.216704, 46.443767], [6.216552, 46.443577], [6.216408, 46.443159], [6.216238, 46.442867], [6.216156, 46.442784], [6.216047, 46.442714], [6.215911, 46.442667], [6.21545, 46.442571], [6.215195, 46.44243], [6.215022, 46.442238], [6.214612, 46.441565], [6.214427, 46.441367], [6.214152, 46.44119], [6.213688, 46.440979], [6.2122, 46.44065], [6.211923, 46.44053], [6.211814, 46.440442], [6.21168, 46.440234], [6.21151, 46.439772], [6.211461, 46.439538], [6.211463, 46.439308], [6.211565, 46.43908], [6.211826, 46.438765], [6.212197, 46.438405], [6.212322, 46.438232], [6.213295, 46.437809], [6.213856, 46.437495], [6.215603, 46.436195], [6.215981, 46.435942], [6.216739, 46.435503], [6.217328, 46.435388], [6.217449, 46.435342], [6.217751, 46.435102], [6.217786, 46.435037], [6.21777, 46.434969], [6.217575, 46.434812], [6.217245, 46.434639], [6.216694, 46.434508], [6.216245, 46.434342], [6.215879, 46.434243], [6.215685, 46.434082], [6.21556, 46.434013], [6.214302, 46.433448], [6.213722, 46.433107], [6.213269, 46.432789], [6.212673, 46.432292], [6.212184, 46.431775], [6.211092, 46.430273], [6.210815, 46.429833], [6.210641, 46.429361], [6.210563, 46.428584], [6.210434, 46.428157], [6.209931, 46.427359], [6.209682, 46.426886], [6.209133, 46.425245], [6.208363, 46.42358], [6.20814, 46.423293], [6.207604, 46.42287], [6.207501, 46.422698], [6.207484, 46.422599], [6.207518, 46.422501], [6.207834, 46.422109], [6.20792, 46.421879], [6.207921, 46.421759], [6.207902, 46.421642], [6.207771, 46.421414], [6.207348, 46.421076], [6.207193, 46.420906], [6.207158, 46.420812], [6.207158, 46.420533], [6.20733, 46.419916], [6.207735, 46.419056], [6.207741, 46.418921], [6.207678, 46.418694], [6.205618, 46.416344], [6.20517, 46.415901], [6.204978, 46.415604], [6.204794, 46.415182], [6.204662, 46.415023], [6.204712, 46.41478], [6.204615, 46.414668], [6.204603, 46.414544], [6.20465, 46.414482], [6.20521, 46.414125], [6.205721, 46.413696], [6.205942, 46.413432], [6.20599, 46.413227], [6.205983, 46.413032], [6.205815, 46.41223], [6.205488, 46.4109], [6.205328, 46.410511], [6.205151, 46.410208], [6.204695, 46.409725], [6.204197, 46.409368], [6.199499, 46.406567], [6.199232, 46.406473], [6.199139, 46.40626], [6.197472, 46.40393], [6.197206, 46.403502], [6.197131, 46.403244], [6.197111, 46.403036], [6.197265, 46.401979], [6.197268, 46.401644], [6.19723, 46.401362], [6.197165, 46.401162], [6.196898, 46.400655], [6.194724, 46.398005], [6.194292, 46.39744], [6.194053, 46.397193], [6.193059, 46.395967], [6.192661, 46.395573], [6.192432, 46.395193], [6.191887, 46.394834], [6.191682, 46.39459], [6.190965, 46.393338], [6.190812, 46.393201], [6.190826, 46.393094], [6.190989, 46.392903], [6.191006, 46.392795], [6.190971, 46.392742], [6.189447, 46.391907], [6.189144, 46.391702], [6.18899, 46.391545], [6.188862, 46.391361], [6.18844, 46.39049], [6.188296, 46.390262], [6.18802, 46.389933], [6.187637, 46.389598], [6.187199, 46.389304], [6.183866, 46.38742], [6.18278, 46.38678], [6.182149, 46.386338], [6.181598, 46.385896], [6.180282, 46.384971], [6.17908, 46.383985], [6.177064, 46.382564], [6.177066, 46.382512], [6.177185, 46.382416], [6.179795, 46.38085], [6.179877, 46.380735], [6.179915, 46.380454], [6.180684, 46.380439], [6.181042, 46.380463], [6.181291, 46.380497], [6.181665, 46.380622], [6.18199, 46.380353], [6.182052, 46.380267], [6.1822, 46.380182], [6.182688, 46.380225], [6.182916, 46.380185], [6.183005, 46.380204], [6.183151, 46.380118], [6.183343, 46.380107], [6.183437, 46.380077], [6.183514, 46.380017], [6.183529, 46.379977], [6.183472, 46.379894], [6.183102, 46.379757], [6.182654, 46.379547], [6.182264, 46.379324], [6.1819, 46.379071], [6.181564, 46.378783], [6.181018, 46.378175], [6.180803, 46.378012], [6.180775, 46.377953], [6.180806, 46.377904], [6.180888, 46.377878], [6.181069, 46.377894], [6.18122, 46.37795], [6.181414, 46.378068], [6.181592, 46.378101], [6.182906, 46.378061], [6.1847, 46.377762], [6.185228, 46.377576], [6.186507, 46.377025], [6.187136, 46.376707], [6.188707, 46.376143], [6.188994, 46.376018], [6.189205, 46.375862], [6.189625, 46.37523], [6.189746, 46.375155], [6.189862, 46.375146], [6.189944, 46.375186], [6.190312, 46.375545], [6.190526, 46.375622], [6.190695, 46.375637], [6.191459, 46.37522], [6.192202, 46.374988], [6.192622, 46.374881], [6.194016, 46.374622], [6.194102, 46.374616], [6.194087, 46.37463], [6.194185, 46.374644], [6.19457, 46.374503], [6.19879, 46.373631], [6.199833, 46.37339], [6.200373, 46.373217], [6.202481, 46.372461], [6.202543, 46.3724], [6.202544, 46.372326], [6.202309, 46.37205], [6.201647, 46.371], [6.201421, 46.370717], [6.201339, 46.370548], [6.201382, 46.370446], [6.202977, 46.369741], [6.204083, 46.369218], [6.204644, 46.368836], [6.206107, 46.367475], [6.206331, 46.367348], [6.20811, 46.366555], [6.208303, 46.366412], [6.208747, 46.365249], [6.208803, 46.364812], [6.208755, 46.364523], [6.208651, 46.364257], [6.208465, 46.363955], [6.207016, 46.362185], [6.206832, 46.361877], [6.206681, 46.361421], [6.206624, 46.360399], [6.206486, 46.35999], [6.20627, 46.35963], [6.205362, 46.358583], [6.204138, 46.3575], [6.203477, 46.357122], [6.20263, 46.356301], [6.202325, 46.356055], [6.201528, 46.355572], [6.200613, 46.354847], [6.19961, 46.35416], [6.199547, 46.354088], [6.199593, 46.354027], [6.199702, 46.353984], [6.199979, 46.353802], [6.201761, 46.352783], [6.202611, 46.352094], [6.202842, 46.351973], [6.203121, 46.351935], [6.20327, 46.351956], [6.204579, 46.352434], [6.204772, 46.352452], [6.206513, 46.351544], [6.206578, 46.351502], [6.206604, 46.351444], [6.206507, 46.351332], [6.20573, 46.350757], [6.205468, 46.350624], [6.204771, 46.350339], [6.204165, 46.349983], [6.203074, 46.34915], [6.202517, 46.348791], [6.201899, 46.348479], [6.200952, 46.348202], [6.200634, 46.348054], [6.200389, 46.347808], [6.199993, 46.347041], [6.199803, 46.346259], [6.199712, 46.345405], [6.199723, 46.345239], [6.199878, 46.345034], [6.200852, 46.344348], [6.201211, 46.344172], [6.204089, 46.3435]]}, "properties": {"name": "1785577427.Founex_Marchissy", "cmt": "2026-08-01", "tstamp": 1785542400, "desc": "DownHill", "src": "6.149817/46.331367/6.261364/46.489808", "bbox": "6.149817/46.331367/6.261364/46.489808"}}, {"type": "Feature", "bbox": [6.149817, 46.331367, 6.261364, 46.489808], "geometry": {"type": "LineString", "coordinates": [[6.204137, 46.343458], [6.204088, 46.343349], [6.203911, 46.343221], [6.203446, 46.342761], [6.203133, 46.342549], [6.202702, 46.34233], [6.202441, 46.342106], [6.202204, 46.341719], [6.20196, 46.341206], [6.201636, 46.340286], [6.2014, 46.339919], [6.201275, 46.339771], [6.201071, 46.339604], [6.200355, 46.338821], [6.199042, 46.337681], [6.198875, 46.337485], [6.198589, 46.337024], [6.198294, 46.336701], [6.198181, 46.336655], [6.197982, 46.33649], [6.196206, 46.335428], [6.195569, 46.335097], [6.195421, 46.334992], [6.19463, 46.334558], [6.194172, 46.334202], [6.193731, 46.333973], [6.193392, 46.333828], [6.193119, 46.333634], [6.192808, 46.333341], [6.192459, 46.332316], [6.19253, 46.332259], [6.193017, 46.332155], [6.193062, 46.332102], [6.192997, 46.332037], [6.192983, 46.331966], [6.193016, 46.331949], [6.193192, 46.331936], [6.193748, 46.33182], [6.194114, 46.331879], [6.194631, 46.331721], [6.194721, 46.331678], [6.194771, 46.331594], [6.194666, 46.331418], [6.194576, 46.331377], [6.194502, 46.331393], [6.19454, 46.33139], [6.194526, 46.331367], [6.194082, 46.331517], [6.193983, 46.331708]]}, "properties": {"name": "1785577427.Founex_Marchissy", "cmt": "2026-08-01", "tstamp": 1785542400, "desc": "UpHill", "src": "6.149817/46.331367/6.261364/46.489808", "bbox": "6.149817/46.331367/6.261364/46.489808"}}]}