{"type": "FeatureCollection", "name": "TrackSet", "crs": {"type": "name", "properties": {"name": "urn:ogc:def:crs:OGC:1.3:CRS84"}}, "bbox": [6.177648, 46.331376, 6.243221, 46.403847], "features": [{"type": "Feature", "bbox": [6.177648, 46.331376, 6.243221, 46.403847], "geometry": {"type": "LineString", "coordinates": [[6.194649, 46.331467], [6.19474, 46.331611], [6.194722, 46.331648], [6.194621, 46.331689], [6.194143, 46.331836], [6.193971, 46.331842], [6.193771, 46.331801], [6.193006, 46.331939], [6.192967, 46.331974], [6.193008, 46.332031], [6.19298, 46.332132], [6.192535, 46.332229], [6.192451, 46.332271], [6.192438, 46.332306], [6.192698, 46.332908], [6.192789, 46.333225], [6.193038, 46.333544], [6.193355, 46.333796], [6.194053, 46.334114], [6.194664, 46.334548], [6.195123, 46.334818], [6.195431, 46.334967], [6.195485, 46.335018], [6.195505, 46.335087], [6.195481, 46.335154], [6.195018, 46.335648], [6.194852, 46.335884], [6.194802, 46.336068], [6.194843, 46.336386], [6.19527, 46.337436], [6.195292, 46.338025], [6.195334, 46.338191], [6.195483, 46.338536], [6.195978, 46.339236], [6.196636, 46.340504], [6.196877, 46.340871], [6.197281, 46.341276], [6.198234, 46.341989], [6.198389, 46.342244], [6.199104, 46.345508], [6.199234, 46.345928], [6.199593, 46.347525], [6.200033, 46.348383], [6.200025, 46.348617], [6.199969, 46.348762], [6.199835, 46.348919], [6.199501, 46.348867], [6.199272, 46.348866], [6.198989, 46.348935], [6.19834, 46.349309], [6.19798, 46.349589], [6.197795, 46.349638], [6.197708, 46.349645], [6.197586, 46.349619], [6.196332, 46.349249], [6.196054, 46.349213], [6.195923, 46.349242], [6.195843, 46.349321], [6.195851, 46.349414], [6.196344, 46.349936], [6.196368, 46.349983], [6.196351, 46.350062], [6.196245, 46.350168], [6.195967, 46.350257], [6.195447, 46.350379], [6.195361, 46.350427], [6.195328, 46.350482], [6.195613, 46.350746], [6.195683, 46.350872], [6.1956, 46.351012], [6.195418, 46.351119], [6.195397, 46.351201], [6.195571, 46.351395], [6.19614, 46.352194], [6.195999, 46.352232], [6.19472, 46.353005], [6.193111, 46.353831], [6.192602, 46.354052], [6.190647, 46.354805], [6.189605, 46.35527], [6.187715, 46.356302], [6.18699, 46.356776], [6.186684, 46.357025], [6.186421, 46.357313], [6.186231, 46.357618], [6.186085, 46.358109], [6.186068, 46.358441], [6.186118, 46.358918], [6.186572, 46.36053], [6.186503, 46.360724], [6.186409, 46.360864], [6.183807, 46.362695], [6.183135, 46.363128], [6.181543, 46.363857], [6.180674, 46.364369], [6.180397, 46.364504], [6.18001, 46.364639], [6.17955, 46.364727], [6.17921, 46.364853], [6.177812, 46.365823], [6.177742, 46.365926], [6.177746, 46.365975], [6.177811, 46.366019], [6.178054, 46.366116], [6.178451, 46.366377], [6.178971, 46.366848], [6.179926, 46.367378], [6.180629, 46.367716], [6.181277, 46.367988], [6.182027, 46.368398], [6.182982, 46.368727], [6.183668, 46.368995], [6.184644, 46.369471], [6.18488, 46.369625], [6.185928, 46.370494], [6.186519, 46.370948], [6.187855, 46.371901], [6.188481, 46.372234], [6.189475, 46.372698], [6.189766, 46.372858], [6.189888, 46.372977], [6.191541, 46.375163], [6.191541, 46.375225], [6.191189, 46.375383], [6.190732, 46.37567], [6.190613, 46.375683], [6.190494, 46.375663], [6.1903, 46.375568], [6.19015, 46.375441], [6.189999, 46.375229], [6.189923, 46.375175], [6.189825, 46.375153], [6.189722, 46.375168], [6.189579, 46.3753], [6.189432, 46.375567], [6.189202, 46.375868], [6.188961, 46.376045], [6.186975, 46.376768], [6.186554, 46.377003], [6.185203, 46.377601], [6.18471, 46.377762], [6.182959, 46.378078], [6.18158, 46.37813], [6.181359, 46.378075], [6.181138, 46.377938], [6.181079, 46.377931], [6.180915, 46.378041], [6.180536, 46.377957], [6.179236, 46.37812], [6.179056, 46.378075], [6.178678, 46.377893], [6.178547, 46.377882], [6.178437, 46.377927], [6.177835, 46.378347], [6.177648, 46.378588], [6.177683, 46.378649], [6.178355, 46.379125], [6.178599, 46.379265], [6.178607, 46.379363], [6.178516, 46.37956], [6.178556, 46.379667], [6.178673, 46.379754], [6.179924, 46.380396], [6.180221, 46.380446], [6.180868, 46.380439], [6.181196, 46.380472], [6.18159, 46.380595], [6.182, 46.3808], [6.1838, 46.381872], [6.18553, 46.383117], [6.186615, 46.383742], [6.187311, 46.384263], [6.187491, 46.384354], [6.187667, 46.384515], [6.187769, 46.384651], [6.188096, 46.38491], [6.188358, 46.385076], [6.189681, 46.385772], [6.189964, 46.385962], [6.190327, 46.386099], [6.19671, 46.389453], [6.196855, 46.389518], [6.197203, 46.389522], [6.197263, 46.389553], [6.197338, 46.389653], [6.197273, 46.389795], [6.197289, 46.389839], [6.197584, 46.390101], [6.198405, 46.390761], [6.199822, 46.391684], [6.201605, 46.393718], [6.205356, 46.397919], [6.205357, 46.397947], [6.205246, 46.39793], [6.205024, 46.398028], [6.20486, 46.398226], [6.204849, 46.398307], [6.204994, 46.39845], [6.205034, 46.398535], [6.205018, 46.39858], [6.203198, 46.400648], [6.203029, 46.400882]]}, "properties": {"name": "1786796223.Founex_local_ride", "cmt": "2026-08-15", "tstamp": 1786752000, "desc": "UpHill", "src": "6.177648/46.331376/6.243221/46.403847", "bbox": "6.177648/46.331376/6.243221/46.403847"}}, {"type": "Feature", "bbox": [6.177648, 46.331376, 6.243221, 46.403847], "geometry": {"type": "LineString", "coordinates": [[6.203024, 46.400917], [6.203094, 46.401058], [6.203348, 46.401405], [6.203355, 46.401474], [6.203317, 46.401535], [6.203373, 46.401663], [6.203465, 46.40171], [6.203872, 46.401762], [6.204006, 46.401759], [6.205189, 46.40157], [6.205508, 46.401552], [6.206003, 46.401571], [6.206033, 46.401594], [6.206019, 46.40163], [6.205869, 46.401738], [6.205862, 46.401925], [6.20573, 46.402247], [6.20581, 46.402473], [6.205771, 46.402902], [6.205794, 46.402972], [6.20587, 46.403025], [6.206996, 46.403238], [6.209793, 46.403837], [6.20994, 46.403847], [6.210043, 46.403775], [6.21007, 46.403711], [6.210079, 46.403563], [6.210143, 46.403411], [6.210225, 46.403017], [6.21021, 46.402891], [6.210233, 46.402833], [6.210372, 46.402747], [6.210465, 46.402728], [6.210646, 46.40275], [6.211075, 46.402915], [6.211221, 46.402894], [6.211342, 46.402824], [6.211477, 46.402644], [6.211726, 46.402456], [6.211862, 46.402423], [6.212063, 46.40243], [6.212011, 46.402299], [6.212188, 46.4022], [6.212666, 46.402006], [6.213423, 46.401763], [6.215403, 46.401221], [6.218042, 46.400589], [6.218781, 46.40038], [6.219322, 46.400142], [6.219348, 46.400304], [6.219574, 46.400263], [6.220004, 46.400138], [6.220318, 46.400016], [6.22131, 46.399555], [6.222204, 46.399005], [6.222397, 46.398857], [6.223139, 46.397907], [6.223446, 46.39764], [6.226114, 46.396089], [6.227697, 46.395222], [6.22827, 46.394885], [6.228519, 46.394687], [6.229759, 46.39408], [6.230389, 46.393732], [6.230723, 46.393447], [6.230903, 46.393211], [6.230985, 46.393048], [6.231271, 46.392198], [6.231374, 46.392266], [6.232099, 46.39259], [6.232479, 46.392698], [6.23275, 46.392662], [6.23321, 46.392448], [6.233595, 46.392061], [6.234033, 46.391425], [6.234094, 46.391268], [6.23431, 46.39108], [6.235016, 46.389851], [6.235098, 46.389861], [6.235401, 46.390126], [6.235811, 46.390293], [6.235868, 46.390339], [6.235889, 46.390401], [6.235434, 46.391175], [6.235038, 46.391694], [6.235036, 46.391765], [6.236254, 46.392521], [6.236676, 46.392758], [6.236711, 46.392764], [6.236723, 46.392743], [6.236736, 46.392785], [6.236822, 46.392827], [6.237394, 46.393039], [6.238039, 46.393209], [6.238215, 46.393231], [6.238312, 46.393198], [6.238388, 46.393134], [6.238407, 46.393045], [6.238246, 46.392463], [6.238081, 46.391597], [6.238006, 46.391033], [6.23801, 46.390771], [6.238102, 46.390311], [6.238453, 46.389491], [6.238598, 46.388889], [6.238791, 46.388444], [6.238917, 46.388258], [6.239097, 46.388067], [6.239683, 46.387746], [6.239731, 46.387663], [6.239838, 46.387645], [6.239901, 46.387586], [6.24106, 46.386173], [6.241125, 46.38603], [6.24116, 46.385838], [6.241131, 46.38559], [6.240725, 46.384479], [6.240403, 46.383988], [6.239924, 46.383593], [6.239942, 46.383562], [6.239777, 46.383485], [6.239765, 46.383459], [6.240358, 46.383186], [6.240782, 46.382945], [6.241209, 46.382759], [6.2419, 46.382295], [6.242286, 46.382092], [6.242595, 46.382078], [6.242669, 46.382175], [6.242711, 46.382188], [6.242973, 46.382436], [6.243002, 46.382495], [6.243161, 46.382595], [6.243186, 46.382653], [6.243221, 46.382617], [6.243198, 46.382553]]}, "properties": {"name": "1786796223.Founex_local_ride", "cmt": "2026-08-15", "tstamp": 1786752000, "desc": "DownHill", "src": "6.177648/46.331376/6.243221/46.403847", "bbox": "6.177648/46.331376/6.243221/46.403847"}}, {"type": "Feature", "bbox": [6.177648, 46.331376, 6.243221, 46.403847], "geometry": {"type": "LineString", "coordinates": [[6.205041, 46.343008], [6.204876, 46.343165], [6.204516, 46.343378], [6.204129, 46.343479], [6.204027, 46.34331], [6.203538, 46.342814], [6.203331, 46.342652], [6.202699, 46.342305], [6.202444, 46.342087], [6.202255, 46.341775], [6.20194, 46.341114], [6.201608, 46.340186], [6.201421, 46.339918], [6.200216, 46.338684], [6.199092, 46.337732], [6.19884, 46.337423], [6.198628, 46.337073], [6.198321, 46.336712], [6.19818, 46.336646], [6.197955, 46.336465], [6.196957, 46.335881], [6.196362, 46.335501], [6.195725, 46.335157], [6.195541, 46.335085], [6.195354, 46.334939], [6.194675, 46.33458], [6.194183, 46.33421], [6.193384, 46.333831], [6.193272, 46.333761], [6.192827, 46.333359], [6.192747, 46.333197], [6.192524, 46.332471], [6.192467, 46.332376], [6.192477, 46.332289], [6.192626, 46.332218], [6.193025, 46.332156], [6.193002, 46.331963], [6.193035, 46.331933], [6.193142, 46.33193], [6.193781, 46.331797], [6.193887, 46.331816], [6.193901, 46.331892], [6.193941, 46.331905], [6.194625, 46.331707], [6.194704, 46.331666], [6.194752, 46.331599], [6.194669, 46.331385], [6.194598, 46.331376], [6.194447, 46.331402], [6.19438, 46.331446], [6.194318, 46.331437]]}, "properties": {"name": "1786796223.Founex_local_ride", "cmt": "2026-08-15", "tstamp": 1786752000, "desc": "UpHill", "src": "6.177648/46.331376/6.243221/46.403847", "bbox": "6.177648/46.331376/6.243221/46.403847"}}]}