{"type": "FeatureCollection", "name": "TrackSet", "crs": {"type": "name", "properties": {"name": "urn:ogc:def:crs:OGC:1.3:CRS84"}}, "bbox": [6.175027, 46.327924, 6.278302, 46.559981], "features": [{"type": "Feature", "bbox": [6.175027, 46.327924, 6.278302, 46.559981], "geometry": {"type": "LineString", "coordinates": [[6.194274, 46.331816], [6.194092, 46.331842], [6.193871, 46.331791], [6.193767, 46.331796], [6.192963, 46.331957], [6.192943, 46.33197], [6.192989, 46.332107], [6.192927, 46.332175], [6.192501, 46.332247], [6.192456, 46.33226], [6.192434, 46.332314], [6.19248, 46.332364], [6.192496, 46.332481], [6.192672, 46.332825], [6.192809, 46.333277], [6.192927, 46.333445], [6.193148, 46.333649], [6.193445, 46.333864], [6.194113, 46.334166], [6.194678, 46.334574], [6.195504, 46.335035], [6.195525, 46.3351], [6.195489, 46.335163], [6.195246, 46.33538], [6.194875, 46.335834], [6.19479, 46.336088], [6.194827, 46.336396], [6.19527, 46.33744], [6.195296, 46.33806], [6.195353, 46.338273], [6.195441, 46.338479], [6.196032, 46.339327], [6.196798, 46.340776], [6.197019, 46.341049], [6.197307, 46.341309], [6.198217, 46.341989], [6.198457, 46.342351], [6.19857, 46.343047], [6.19893, 46.344668], [6.199086, 46.345527], [6.19941, 46.346667], [6.1996, 46.347543], [6.200016, 46.348351], [6.200027, 46.348504], [6.199973, 46.348761], [6.199884, 46.348862], [6.199723, 46.34891], [6.199328, 46.348862], [6.199024, 46.34892], [6.198356, 46.349297], [6.198037, 46.349565], [6.197732, 46.349643], [6.197615, 46.349636], [6.196309, 46.349244], [6.196082, 46.349213], [6.195951, 46.349231], [6.1959, 46.349262], [6.195842, 46.34934], [6.195847, 46.349422], [6.196352, 46.34995], [6.196379, 46.349998], [6.196361, 46.35007], [6.196258, 46.350168], [6.196012, 46.350254], [6.195556, 46.350346], [6.195397, 46.350402], [6.195327, 46.350468], [6.195697, 46.350863], [6.195664, 46.350985], [6.195434, 46.351126], [6.195403, 46.351211], [6.196059, 46.352082], [6.196056, 46.352184], [6.196013, 46.352232], [6.19484, 46.352948], [6.193239, 46.353775], [6.19239, 46.354149], [6.190479, 46.354882], [6.189484, 46.35534], [6.187801, 46.35626], [6.187045, 46.356747], [6.186665, 46.357061], [6.186435, 46.357322], [6.186192, 46.357739], [6.186086, 46.358123], [6.18608, 46.358568], [6.186142, 46.359007], [6.18657, 46.360467], [6.186545, 46.36066], [6.186421, 46.360874], [6.183827, 46.3627], [6.183302, 46.363038], [6.182725, 46.363332], [6.182035, 46.363624], [6.181286, 46.363983], [6.180541, 46.364426], [6.180162, 46.364581], [6.179586, 46.364706], [6.179211, 46.364852], [6.178792, 46.3651], [6.177816, 46.365821], [6.17773, 46.365924], [6.177753, 46.365984], [6.177824, 46.366035], [6.178325, 46.366306], [6.178919, 46.366801], [6.179414, 46.367106], [6.181396, 46.368083], [6.181999, 46.368419], [6.183633, 46.368999], [6.184641, 46.369499], [6.184809, 46.369603], [6.185845, 46.370438], [6.186846, 46.371195], [6.187818, 46.37188], [6.188412, 46.372204], [6.189698, 46.372824], [6.189914, 46.373009], [6.191471, 46.375073], [6.191537, 46.375225], [6.191202, 46.375374], [6.190757, 46.37565], [6.190663, 46.375681], [6.190556, 46.375681], [6.19019, 46.375509], [6.190047, 46.375312], [6.189928, 46.375202], [6.189854, 46.375164], [6.189759, 46.375156], [6.189601, 46.375278], [6.189259, 46.375821], [6.189056, 46.376007], [6.188928, 46.37608], [6.187189, 46.376681], [6.186469, 46.377046], [6.185152, 46.377617], [6.184704, 46.377762], [6.18299, 46.378067], [6.181806, 46.378118], [6.181483, 46.378101], [6.181303, 46.37803], [6.181153, 46.377934], [6.181082, 46.377931], [6.180918, 46.378033], [6.180853, 46.378042], [6.180591, 46.37796], [6.180514, 46.377962], [6.179261, 46.378131], [6.179058, 46.378088], [6.178643, 46.377894], [6.178508, 46.377902], [6.177788, 46.378409], [6.177619, 46.378608], [6.177251, 46.378905], [6.17683, 46.379402], [6.175549, 46.380494], [6.175053, 46.380966], [6.175027, 46.381049], [6.175109, 46.381175], [6.178937, 46.383909], [6.179426, 46.384271], [6.180312, 46.385001], [6.182665, 46.386701], [6.185357, 46.388284], [6.187292, 46.389355], [6.187582, 46.389555], [6.187981, 46.389918], [6.188232, 46.390221], [6.188545, 46.390758], [6.188608, 46.390926], [6.188912, 46.391422], [6.1892, 46.391754], [6.18962, 46.392016], [6.190891, 46.392686], [6.191028, 46.39278], [6.191025, 46.392872], [6.190888, 46.393104], [6.190896, 46.393211], [6.191472, 46.394225], [6.191834, 46.394768], [6.191835, 46.394876], [6.191791, 46.394978], [6.191492, 46.395337], [6.191177, 46.395869], [6.190944, 46.396158], [6.19074, 46.396329], [6.189892, 46.396811], [6.189583, 46.397135], [6.18936, 46.397617], [6.189045, 46.398604], [6.188402, 46.39952], [6.186874, 46.400538], [6.185132, 46.401765], [6.183988, 46.402614], [6.183979, 46.402727], [6.184074, 46.402824], [6.184509, 46.403019], [6.185057, 46.403203], [6.185124, 46.403311], [6.185054, 46.403423], [6.184156, 46.404217], [6.183096, 46.405235], [6.182565, 46.4058], [6.182203, 46.406296], [6.181845, 46.406525], [6.181142, 46.406868], [6.179819, 46.407691], [6.179163, 46.408058], [6.17831, 46.40873], [6.1783, 46.408765], [6.178437, 46.408951], [6.178423, 46.409136], [6.178356, 46.40928], [6.177977, 46.409846], [6.177995, 46.410149], [6.178107, 46.410364], [6.179221, 46.411553], [6.179494, 46.411812], [6.179761, 46.411998], [6.180241, 46.412227], [6.18056, 46.412331], [6.181097, 46.412441], [6.181834, 46.412701], [6.182411, 46.412941], [6.182637, 46.41307], [6.183287, 46.413582], [6.183619, 46.413724], [6.184287, 46.413892], [6.184525, 46.413984], [6.185072, 46.414352], [6.186517, 46.415031], [6.187161, 46.415481], [6.18734, 46.415572], [6.188482, 46.415861], [6.189003, 46.41602], [6.189886, 46.416376], [6.190502, 46.416593], [6.191123, 46.416871], [6.191746, 46.41719], [6.192085, 46.417392], [6.192406, 46.417631], [6.19322, 46.418268], [6.193602, 46.418611], [6.194801, 46.419371], [6.195417, 46.419815], [6.195873, 46.420168], [6.196463, 46.420683], [6.196648, 46.420929], [6.197287, 46.421996], [6.197588, 46.422682], [6.198154, 46.423738], [6.198387, 46.424297], [6.198678, 46.424822], [6.199106, 46.42593], [6.1991, 46.42606], [6.198985, 46.426305], [6.198342, 46.427087], [6.197989, 46.427422], [6.197258, 46.427852], [6.197138, 46.427936], [6.19698, 46.428122], [6.196944, 46.428227], [6.19696, 46.428421], [6.197121, 46.428722], [6.197276, 46.428932], [6.197366, 46.429006], [6.197774, 46.429148], [6.197977, 46.42918], [6.198442, 46.42922], [6.198857, 46.429219], [6.19918, 46.429165], [6.200826, 46.428678], [6.200977, 46.428667], [6.20125, 46.428716], [6.20166, 46.428963], [6.20177, 46.428994], [6.201783, 46.42904], [6.201756, 46.429015], [6.201805, 46.429034], [6.201901, 46.42901], [6.202013, 46.429028], [6.202178, 46.429107], [6.202339, 46.429223], [6.203513, 46.429752], [6.203688, 46.42988], [6.204025, 46.430221], [6.204271, 46.430406], [6.205713, 46.431425], [6.206475, 46.431911], [6.209345, 46.433211], [6.209974, 46.433398], [6.210465, 46.433475], [6.21081, 46.433495], [6.210795, 46.433543], [6.210835, 46.43349], [6.211001, 46.433497], [6.211652, 46.433453], [6.213153, 46.433072], [6.213631, 46.433075], [6.213804, 46.433141], [6.214191, 46.433353], [6.215944, 46.434205], [6.216636, 46.43448], [6.217293, 46.434646], [6.217488, 46.434747], [6.217866, 46.435017], [6.217885, 46.435089], [6.217831, 46.435158], [6.21768, 46.43522], [6.217372, 46.435413], [6.216719, 46.435537], [6.216473, 46.435668], [6.215626, 46.436208], [6.213742, 46.437588], [6.213163, 46.437898], [6.212404, 46.438229], [6.211652, 46.43901], [6.211523, 46.439218], [6.211502, 46.439516], [6.211554, 46.439796], [6.2117, 46.440169], [6.211793, 46.440341], [6.211952, 46.440492], [6.212318, 46.440657], [6.213569, 46.440934], [6.214185, 46.441195], [6.214396, 46.441332], [6.214608, 46.441537], [6.215063, 46.442225], [6.21526, 46.442441], [6.215494, 46.442564], [6.216073, 46.442724], [6.216219, 46.442818], [6.216297, 46.442924], [6.216546, 46.443486], [6.21674, 46.443769], [6.216915, 46.443878], [6.217436, 46.444064], [6.217545, 46.444133], [6.217615, 46.444222], [6.217701, 46.444741], [6.217825, 46.445058], [6.217925, 46.445196], [6.218145, 46.445344], [6.218585, 46.445462], [6.218739, 46.445529], [6.218909, 46.445662], [6.219175, 46.445968], [6.219271, 46.446137], [6.21933, 46.446383], [6.21933, 46.446528], [6.219217, 46.446931], [6.219082, 46.44713], [6.218068, 46.448181], [6.217884, 46.448581], [6.217877, 46.448795], [6.217932, 46.449124], [6.217957, 46.449138], [6.217919, 46.449188], [6.217952, 46.449298], [6.218292, 46.449867], [6.21858, 46.450471], [6.218637, 46.450536], [6.218755, 46.450556], [6.218837, 46.45052], [6.21911, 46.450187], [6.219219, 46.449882], [6.219261, 46.449841], [6.219392, 46.449825], [6.219469, 46.449878], [6.219492, 46.449935], [6.219545, 46.450331], [6.219541, 46.450635], [6.219377, 46.451258], [6.219396, 46.451543], [6.219554, 46.451885], [6.22023, 46.452889], [6.220349, 46.453166], [6.220393, 46.453388], [6.220324, 46.453669], [6.220244, 46.453814], [6.22005, 46.454031], [6.219746, 46.454263], [6.219734, 46.454356], [6.21981, 46.454433], [6.22011, 46.454598], [6.220846, 46.454931], [6.22105, 46.455117], [6.221517, 46.455725], [6.221782, 46.455951], [6.222221, 46.456181], [6.222826, 46.456412], [6.223321, 46.456692], [6.224077, 46.457211], [6.224817, 46.457648], [6.224998, 46.457795], [6.225103, 46.457933], [6.225101, 46.45805], [6.224803, 46.458495], [6.224594, 46.45889], [6.224204, 46.45934], [6.223794, 46.459995], [6.223679, 46.460152], [6.223662, 46.460141], [6.223699, 46.460222], [6.223637, 46.460206], [6.223645, 46.460257], [6.224477, 46.461408], [6.224719, 46.461831], [6.224725, 46.462396], [6.224766, 46.462573], [6.224841, 46.462647], [6.225051, 46.462766], [6.225106, 46.462837], [6.225099, 46.46301], [6.224823, 46.463316], [6.224707, 46.463578], [6.22442, 46.46387], [6.224379, 46.463965], [6.224468, 46.464318], [6.224426, 46.46449], [6.224302, 46.46464], [6.223806, 46.464945], [6.223673, 46.465096], [6.223528, 46.465337], [6.22286, 46.465723], [6.222511, 46.465815], [6.222141, 46.465836], [6.222023, 46.465864], [6.221272, 46.466155], [6.221038, 46.466207], [6.220796, 46.466187], [6.220235, 46.466054], [6.219889, 46.466058], [6.219712, 46.466163], [6.21966, 46.466315], [6.219682, 46.466458], [6.219844, 46.466634], [6.220068, 46.466746], [6.220906, 46.467261], [6.221257, 46.467409], [6.221723, 46.467511], [6.22197, 46.467525], [6.222664, 46.467398], [6.223671, 46.467289], [6.224151, 46.467282], [6.224898, 46.467378], [6.225079, 46.467359], [6.225238, 46.467276], [6.225561, 46.466958], [6.225807, 46.466825], [6.226446, 46.466806], [6.226826, 46.466688], [6.227214, 46.466257], [6.227498, 46.466149], [6.227892, 46.466073], [6.228233, 46.466035], [6.229513, 46.466029], [6.229948, 46.465994], [6.230145, 46.465939], [6.230285, 46.465826], [6.230643, 46.465001], [6.231113, 46.464233], [6.231205, 46.464125], [6.231361, 46.464018], [6.231538, 46.463995], [6.231587, 46.464071], [6.2315, 46.464147], [6.231489, 46.464121], [6.231517, 46.464111], [6.231527, 46.464204], [6.231448, 46.464749], [6.231472, 46.465329], [6.231564, 46.465802], [6.231528, 46.4663], [6.23147, 46.46653], [6.231519, 46.466845], [6.231433, 46.467028], [6.231276, 46.467182], [6.230936, 46.467416], [6.230774, 46.467493], [6.229957, 46.468241], [6.229706, 46.468416], [6.22918, 46.46872], [6.228837, 46.469004], [6.228657, 46.469314], [6.228415, 46.470092], [6.228126, 46.470611], [6.227909, 46.470932], [6.227674, 46.471169], [6.227417, 46.471375], [6.226938, 46.471669], [6.226549, 46.471872], [6.226172, 46.472004], [6.225844, 46.472075], [6.22572, 46.472093], [6.225287, 46.472091], [6.224165, 46.472041], [6.222871, 46.472036], [6.22245, 46.471998], [6.222055, 46.471864], [6.221847, 46.47182], [6.221531, 46.471783], [6.221204, 46.471818], [6.217115, 46.472956], [6.216842, 46.473043], [6.216475, 46.473253], [6.215836, 46.473853], [6.215607, 46.474217], [6.215526, 46.474509], [6.215666, 46.474753], [6.215921, 46.474964], [6.216194, 46.475107], [6.216308, 46.475209], [6.216486, 46.47539], [6.216585, 46.475562], [6.216723, 46.475694], [6.217014, 46.476073], [6.217524, 46.476474], [6.217722, 46.476663], [6.217745, 46.476793], [6.217678, 46.476874], [6.217484, 46.476913], [6.217391, 46.476893], [6.216895, 46.476651], [6.216498, 46.476525], [6.216179, 46.476492], [6.216024, 46.476519], [6.215492, 46.476484], [6.21507, 46.476346], [6.214771, 46.476197], [6.214497, 46.476156], [6.214278, 46.476162], [6.213943, 46.476274], [6.213114, 46.476842], [6.212434, 46.477082], [6.212273, 46.477105], [6.2122, 46.477148], [6.211309, 46.477344], [6.211167, 46.4774], [6.21101, 46.477506], [6.210951, 46.477748], [6.21094, 46.478748], [6.210832, 46.479114], [6.209962, 46.480257], [6.208857, 46.481821], [6.208589, 46.482136], [6.208643, 46.482173], [6.208586, 46.482963], [6.208612, 46.483395], [6.208711, 46.48377], [6.208939, 46.484286], [6.209052, 46.484708], [6.209095, 46.485237], [6.20904, 46.485628], [6.209079, 46.485764], [6.209202, 46.485895], [6.20944, 46.486024], [6.210045, 46.486263], [6.210828, 46.486475], [6.211049, 46.486578], [6.211111, 46.486646], [6.211102, 46.486773], [6.210944, 46.486872], [6.210805, 46.48689], [6.210608, 46.486873], [6.210466, 46.486827], [6.210289, 46.486812], [6.21009, 46.486826], [6.209751, 46.486898], [6.209543, 46.486897], [6.20907, 46.486763], [6.208786, 46.486747], [6.208256, 46.486829], [6.207848, 46.486936], [6.207608, 46.486926], [6.207427, 46.486815], [6.207389, 46.486757], [6.20737, 46.486598], [6.207413, 46.486502], [6.207412, 46.486325], [6.20738, 46.486201], [6.207282, 46.486042], [6.207023, 46.485841], [6.206704, 46.485648], [6.206561, 46.485601], [6.206541, 46.485548], [6.205696, 46.485362], [6.205067, 46.485192], [6.204251, 46.484916], [6.203602, 46.48475], [6.203285, 46.48461], [6.203004, 46.484379], [6.202765, 46.484227], [6.202655, 46.484116], [6.202515, 46.484064], [6.202087, 46.483785], [6.201734, 46.483685], [6.201301, 46.483611], [6.201044, 46.483502], [6.200946, 46.483406], [6.200806, 46.483333], [6.200675, 46.483204], [6.200487, 46.482903], [6.200481, 46.482851], [6.200125, 46.482409], [6.199872, 46.48222], [6.199828, 46.482142], [6.199618, 46.482004], [6.199226, 46.481804], [6.199084, 46.481647], [6.199036, 46.481555], [6.199054, 46.481311], [6.19926, 46.480909], [6.199245, 46.480792], [6.199149, 46.480663], [6.198773, 46.480415], [6.198603, 46.48021], [6.19844, 46.480151], [6.198135, 46.480118], [6.198054, 46.480081], [6.197974, 46.480095], [6.197712, 46.480057], [6.197622, 46.480009], [6.196502, 46.479737], [6.196241, 46.47974], [6.196065, 46.479814], [6.195826, 46.479967], [6.195372, 46.480341], [6.194333, 46.480924], [6.194149, 46.481009], [6.193762, 46.481077], [6.193544, 46.481162], [6.193389, 46.481296], [6.192894, 46.482135], [6.192843, 46.482324], [6.192922, 46.48275], [6.19288, 46.482952], [6.192735, 46.483158], [6.19251, 46.483395], [6.192308, 46.483573], [6.192189, 46.483643], [6.192049, 46.483797], [6.192004, 46.483889], [6.191981, 46.484099], [6.192007, 46.48423], [6.192273, 46.484694], [6.192499, 46.485184], [6.192829, 46.485599], [6.193033, 46.485776], [6.193361, 46.486204], [6.193519, 46.486334], [6.193733, 46.486633], [6.193791, 46.486796], [6.19379, 46.48705], [6.193636, 46.487397], [6.193338, 46.487842], [6.192958, 46.488206], [6.192563, 46.488515], [6.1925, 46.488606], [6.192494, 46.488785], [6.192611, 46.489147], [6.192613, 46.489237], [6.192457, 46.489481], [6.192257, 46.489599], [6.192102, 46.489805], [6.192098, 46.489992], [6.19204, 46.490114], [6.192028, 46.490243], [6.192073, 46.490555], [6.191961, 46.490762], [6.191845, 46.490841], [6.191654, 46.490905], [6.191276, 46.490882], [6.19116, 46.490914], [6.191084, 46.490985], [6.191011, 46.491369], [6.190926, 46.491485], [6.19073, 46.491554], [6.19048, 46.491517], [6.190413, 46.491538], [6.19037, 46.491564], [6.190284, 46.491755], [6.190197, 46.49185], [6.189745, 46.492044], [6.189637, 46.492149], [6.189642, 46.492303], [6.189757, 46.492461], [6.190162, 46.492679], [6.190236, 46.492749], [6.190407, 46.493148], [6.190557, 46.49338], [6.190585, 46.493487], [6.190548, 46.493615], [6.190458, 46.493718], [6.190023, 46.493987], [6.189178, 46.494307], [6.188195, 46.494746], [6.186991, 46.495243], [6.186458, 46.495533], [6.185552, 46.496118], [6.184737, 46.496706], [6.183932, 46.497405], [6.182715, 46.498355], [6.182256, 46.498662], [6.181915, 46.498768], [6.180409, 46.498923], [6.180208, 46.498986], [6.179817, 46.499198], [6.17961, 46.499338], [6.178796, 46.500062], [6.178148, 46.500719], [6.178022, 46.500907], [6.177936, 46.501154], [6.177887, 46.5014], [6.177916, 46.501592], [6.178096, 46.502059], [6.178368, 46.502378], [6.179928, 46.503367], [6.180222, 46.503629], [6.180332, 46.503818], [6.180491, 46.503967], [6.180883, 46.504166], [6.181507, 46.504384], [6.181754, 46.504546], [6.182529, 46.505323], [6.184451, 46.50696], [6.184753, 46.507251], [6.185298, 46.507657], [6.185832, 46.508194], [6.186172, 46.508311], [6.186516, 46.508565], [6.186589, 46.508594], [6.187125, 46.509058], [6.187644, 46.50965], [6.187895, 46.509884], [6.188316, 46.5102], [6.189092, 46.510699], [6.189312, 46.51089], [6.189496, 46.511096], [6.189773, 46.511319], [6.190743, 46.511956], [6.191619, 46.512694], [6.191958, 46.513041], [6.192176, 46.513409], [6.192522, 46.513661], [6.192673, 46.513817], [6.193602, 46.515392], [6.194448, 46.516129], [6.195764, 46.517115], [6.196062, 46.517298], [6.196398, 46.517425], [6.196961, 46.517457], [6.197161, 46.517528], [6.198255, 46.518143], [6.198889, 46.518429], [6.199291, 46.518703], [6.199706, 46.518887], [6.200088, 46.519098], [6.200716, 46.519541], [6.201006, 46.519848], [6.201238, 46.520199], [6.2014, 46.520374], [6.201749, 46.520636], [6.202112, 46.520841], [6.202575, 46.521155], [6.202738, 46.521221], [6.202924, 46.521261], [6.203761, 46.521306], [6.203939, 46.52135], [6.204269, 46.521521], [6.204367, 46.521605], [6.204438, 46.521719], [6.204554, 46.522086], [6.204639, 46.522202], [6.204801, 46.522326], [6.20535, 46.522591], [6.205512, 46.522738], [6.205793, 46.523444], [6.205864, 46.523575], [6.206174, 46.523943], [6.206312, 46.524269], [6.206439, 46.524452], [6.207674, 46.525447], [6.207993, 46.52577], [6.208632, 46.526564], [6.209512, 46.527252], [6.209832, 46.527613], [6.210497, 46.528149], [6.210681, 46.5284], [6.210763, 46.528622], [6.210851, 46.528736], [6.211045, 46.528871], [6.211656, 46.529215], [6.212196, 46.529747], [6.21362, 46.530621], [6.213844, 46.530702], [6.213971, 46.530708], [6.214341, 46.530667], [6.214586, 46.530678], [6.215578, 46.530934], [6.215767, 46.531039], [6.216001, 46.531226], [6.216408, 46.531389], [6.216657, 46.531563], [6.216924, 46.531831], [6.217071, 46.532276], [6.217288, 46.532511], [6.217809, 46.532936], [6.218354, 46.533187], [6.218507, 46.533294], [6.218601, 46.533435], [6.218826, 46.534045], [6.219028, 46.534402], [6.219204, 46.53463], [6.219838, 46.535175], [6.220197, 46.535422], [6.220848, 46.535931], [6.221365, 46.536257], [6.222141, 46.536667], [6.222882, 46.537231], [6.223389, 46.537537], [6.223476, 46.537689], [6.223565, 46.538127], [6.223803, 46.53885], [6.224199, 46.539569], [6.224344, 46.539758], [6.224689, 46.540085], [6.22485, 46.540287], [6.224995, 46.540677], [6.225184, 46.540945], [6.225323, 46.541086], [6.226204, 46.541656], [6.227363, 46.542503], [6.228075, 46.543099], [6.228506, 46.543375], [6.229358, 46.544112], [6.229736, 46.544567], [6.230127, 46.544868], [6.230712, 46.545228], [6.231524, 46.545944], [6.231804, 46.546103], [6.232673, 46.546475], [6.233251, 46.546783], [6.2335, 46.546874], [6.234132, 46.547041], [6.234299, 46.547118], [6.234585, 46.547305], [6.236109, 46.548448], [6.236815, 46.549011], [6.237249, 46.549381], [6.237606, 46.549749], [6.238248, 46.550261], [6.23915, 46.551048], [6.239415, 46.551227], [6.240169, 46.551591], [6.240361, 46.551709], [6.241528, 46.552601], [6.241683, 46.552775], [6.241933, 46.553171], [6.242238, 46.553437], [6.242714, 46.553721], [6.243623, 46.554077], [6.243983, 46.554317], [6.244171, 46.554578], [6.244402, 46.555225], [6.244695, 46.555718], [6.244868, 46.555917], [6.245618, 46.556595], [6.245855, 46.556851], [6.246781, 46.558303], [6.247136, 46.558778], [6.247518, 46.559185], [6.248137, 46.559637], [6.24824, 46.559703], [6.248371, 46.559728], [6.248556, 46.559618], [6.248757, 46.55954], [6.249202, 46.559422], [6.251757, 46.558985], [6.251967, 46.558955], [6.252341, 46.558942], [6.252605, 46.558964], [6.252786, 46.559014], [6.254009, 46.559463], [6.254366, 46.559609], [6.254733, 46.559864], [6.254927, 46.559968], [6.255036, 46.559981], [6.255148, 46.559961], [6.255228, 46.5599], [6.255259, 46.559837], [6.255186, 46.559699], [6.25478, 46.559399], [6.254363, 46.55884], [6.253843, 46.55827], [6.25281, 46.557232], [6.252716, 46.557055], [6.252557, 46.556478], [6.252158, 46.555701], [6.251971, 46.555399], [6.251744, 46.555157], [6.250943, 46.554499], [6.2507, 46.554243], [6.250225, 46.55338], [6.250265, 46.552844], [6.250348, 46.552606], [6.250149, 46.55251], [6.250101, 46.552452], [6.250135, 46.552438]]}, "properties": {"name": "1786011363.Founex_Col_de_Marchiaruz", "cmt": "2026-08-06", "tstamp": 1785974400, "desc": "UpHill", "src": "6.175027/46.327924/6.278302/46.559981", "bbox": "6.175027/46.327924/6.278302/46.559981"}}, {"type": "Feature", "bbox": [6.175027, 46.327924, 6.278302, 46.559981], "geometry": {"type": "LineString", "coordinates": [[6.250139, 46.552437], [6.250282, 46.552679], [6.25024, 46.552688], [6.250466, 46.552714], [6.250485, 46.552729], [6.250436, 46.552737], [6.250472, 46.552755], [6.250508, 46.55274], [6.250526, 46.552687], [6.250504, 46.552623], [6.250573, 46.552553], [6.250846, 46.552454], [6.25269, 46.552306], [6.253242, 46.552234], [6.253485, 46.552145], [6.253783, 46.551942], [6.254114, 46.55163], [6.254261, 46.551392], [6.254272, 46.55113], [6.25414, 46.550857], [6.253814, 46.550463], [6.253656, 46.550344], [6.25372, 46.550319], [6.253583, 46.550111], [6.253082, 46.549518], [6.252821, 46.54915], [6.252725, 46.548831], [6.252616, 46.54814], [6.252524, 46.547916], [6.252111, 46.54715], [6.252044, 46.546919], [6.25202, 46.546672], [6.251943, 46.544684], [6.252002, 46.54436], [6.252168, 46.544058], [6.252816, 46.543171], [6.252985, 46.542986], [6.2531, 46.542895], [6.253244, 46.542826], [6.253416, 46.542785], [6.253805, 46.542788], [6.253976, 46.542771], [6.254145, 46.542715], [6.254423, 46.542605], [6.254607, 46.542424], [6.254652, 46.542319], [6.254654, 46.542214], [6.254538, 46.541308], [6.254547, 46.541074], [6.254593, 46.540965], [6.254686, 46.540876], [6.254958, 46.540742], [6.255118, 46.540714], [6.255455, 46.540716], [6.256279, 46.540857], [6.256914, 46.540929], [6.258678, 46.540945], [6.258841, 46.540952], [6.259154, 46.54101], [6.259444, 46.541114], [6.260885, 46.541818], [6.261511, 46.54206], [6.262379, 46.542494], [6.262539, 46.542556], [6.263436, 46.542763], [6.263599, 46.542823], [6.264349, 46.543238], [6.26539, 46.543603], [6.266092, 46.543824], [6.267309, 46.544124], [6.268168, 46.544257], [6.268714, 46.544287], [6.269811, 46.544223], [6.270538, 46.544138], [6.271224, 46.544014], [6.271741, 46.543876], [6.272429, 46.543759], [6.273301, 46.543688], [6.27365, 46.543621], [6.273818, 46.543563], [6.274096, 46.543405], [6.275517, 46.542255], [6.275907, 46.54199], [6.276368, 46.541785], [6.276869, 46.541648], [6.277864, 46.54153], [6.278091, 46.541478], [6.278259, 46.541367], [6.278302, 46.541287], [6.278295, 46.541203], [6.278164, 46.541051], [6.277921, 46.540981], [6.277214, 46.541006], [6.276913, 46.540989], [6.276764, 46.540957], [6.276473, 46.54086], [6.275596, 46.540474], [6.27467, 46.540107], [6.274277, 46.539851], [6.272873, 46.538543], [6.272633, 46.538351], [6.272492, 46.538268], [6.272327, 46.53821], [6.271812, 46.538078], [6.271552, 46.537913], [6.271121, 46.537222], [6.270891, 46.537019], [6.270302, 46.536712], [6.270187, 46.536622], [6.270043, 46.536415], [6.270055, 46.536196], [6.270122, 46.536096], [6.270943, 46.535459], [6.271093, 46.535283], [6.271171, 46.535085], [6.271109, 46.534874], [6.270895, 46.534713], [6.269524, 46.534195], [6.269079, 46.534003], [6.268685, 46.53379], [6.268472, 46.533625], [6.268201, 46.533359], [6.267715, 46.532634], [6.267438, 46.5323], [6.266542, 46.531513], [6.266133, 46.531118], [6.265931, 46.530758], [6.265784, 46.530348], [6.265668, 46.530176], [6.26495, 46.52964], [6.264787, 46.529459], [6.264735, 46.529357], [6.264707, 46.529029], [6.264947, 46.527652], [6.265094, 46.527294], [6.265221, 46.527123], [6.26584, 46.526433], [6.266117, 46.526205], [6.266229, 46.526142], [6.266488, 46.526057], [6.267443, 46.525954], [6.267711, 46.525893], [6.267926, 46.525764], [6.268078, 46.525598], [6.268161, 46.525404], [6.268169, 46.525303], [6.268062, 46.525011], [6.26743, 46.524302], [6.267266, 46.524053], [6.266559, 46.52239], [6.266335, 46.521958], [6.266049, 46.521555], [6.26562, 46.521081], [6.264101, 46.519743], [6.263647, 46.519418], [6.263378, 46.519293], [6.263074, 46.519208], [6.261848, 46.518939], [6.261716, 46.518895], [6.261543, 46.51875], [6.261463, 46.518561], [6.261525, 46.51837], [6.261601, 46.518287], [6.261829, 46.518169], [6.261962, 46.51814], [6.26211, 46.518145], [6.263009, 46.518298], [6.263343, 46.518306], [6.263441, 46.518278], [6.263601, 46.518162], [6.263681, 46.518042], [6.263686, 46.517895], [6.263589, 46.517748], [6.262749, 46.517217], [6.262482, 46.516867], [6.262196, 46.51659], [6.261698, 46.515979], [6.261344, 46.515615], [6.260735, 46.515231], [6.260474, 46.515097], [6.260024, 46.515006], [6.259601, 46.515009], [6.259469, 46.514986], [6.25936, 46.514942], [6.259286, 46.514874], [6.25925, 46.514789], [6.259256, 46.514702], [6.259332, 46.514536], [6.259703, 46.514141], [6.259969, 46.513903], [6.260214, 46.513788], [6.260254, 46.513742], [6.260313, 46.513183], [6.259915, 46.512347], [6.259382, 46.511735], [6.259025, 46.511125], [6.2585, 46.509694], [6.257755, 46.508092], [6.257662, 46.507109], [6.257792, 46.506304], [6.258297, 46.504174], [6.258573, 46.503422], [6.260112, 46.500028], [6.260232, 46.499639], [6.260243, 46.499389], [6.260159, 46.498933], [6.259505, 46.496625], [6.259234, 46.496176], [6.258702, 46.495673], [6.258578, 46.495458], [6.258496, 46.493838], [6.258439, 46.493627], [6.25838, 46.493534], [6.258199, 46.493384], [6.258075, 46.493327], [6.257595, 46.493134], [6.257104, 46.492996], [6.256704, 46.492951], [6.256583, 46.492947], [6.256603, 46.492961], [6.256598, 46.492941], [6.256586, 46.49297], [6.256466, 46.49293], [6.255919, 46.492957], [6.25534, 46.493093], [6.254842, 46.493307], [6.254486, 46.49356], [6.254023, 46.494019], [6.253736, 46.494233], [6.253355, 46.494375], [6.253062, 46.49441], [6.25276, 46.494394], [6.248847, 46.493914], [6.248616, 46.49385], [6.248217, 46.493642], [6.248051, 46.493502], [6.24793, 46.493343], [6.247812, 46.493074], [6.247801, 46.492982], [6.247828, 46.492698], [6.248048, 46.491648], [6.248044, 46.491173], [6.248002, 46.490983], [6.247667, 46.490166], [6.247102, 46.489161], [6.246975, 46.48883], [6.246935, 46.488586], [6.246999, 46.487867], [6.247104, 46.487611], [6.247294, 46.48743], [6.247763, 46.487151], [6.247851, 46.487016], [6.247837, 46.486943], [6.247741, 46.486796], [6.247658, 46.486736], [6.247556, 46.486687], [6.247302, 46.486645], [6.247031, 46.486665], [6.245754, 46.486901], [6.245625, 46.486907], [6.245508, 46.486882], [6.24542, 46.48682], [6.245378, 46.486734], [6.245391, 46.486639], [6.245468, 46.486561], [6.245795, 46.486381], [6.246087, 46.486169], [6.246205, 46.486], [6.246224, 46.485905], [6.246191, 46.48561], [6.246112, 46.485307], [6.24568, 46.484085], [6.245616, 46.483608], [6.24552, 46.483436], [6.244643, 46.482478], [6.244276, 46.482217], [6.243553, 46.481762], [6.243411, 46.481699], [6.243166, 46.481647], [6.242827, 46.481662], [6.242501, 46.481747], [6.242048, 46.481906], [6.241883, 46.48193], [6.241622, 46.481896], [6.241473, 46.481822], [6.241358, 46.481659], [6.241347, 46.481551], [6.241401, 46.481366], [6.241476, 46.48131], [6.241522, 46.481185], [6.241643, 46.481075], [6.241936, 46.480893], [6.242019, 46.480799], [6.242056, 46.480698], [6.24202, 46.480552], [6.241274, 46.479849], [6.240374, 46.479225], [6.239797, 46.478659], [6.239628, 46.47854], [6.239302, 46.478379], [6.238118, 46.477885], [6.2376, 46.477694], [6.237167, 46.477635], [6.236811, 46.47765], [6.236625, 46.477687], [6.236154, 46.477723], [6.235868, 46.477686], [6.235713, 46.477647], [6.234868, 46.477176], [6.234618, 46.476982], [6.234551, 46.476884], [6.234432, 46.476195], [6.2343, 46.475885], [6.234185, 46.475743], [6.233734, 46.475369], [6.232874, 46.47505], [6.232475, 46.474827], [6.232248, 46.474606], [6.23191, 46.474121], [6.231828, 46.473853], [6.23181, 46.473386], [6.232204, 46.471031], [6.232357, 46.470505], [6.232912, 46.469185], [6.23302, 46.468855], [6.233091, 46.468441], [6.233096, 46.468108], [6.232915, 46.465796], [6.232797, 46.46538], [6.232524, 46.464897], [6.232127, 46.464347], [6.231955, 46.464228], [6.231558, 46.464085], [6.2315, 46.464022], [6.231509, 46.463965], [6.231617, 46.463853], [6.23175, 46.46346], [6.231851, 46.463253], [6.231941, 46.463146], [6.232114, 46.463094], [6.232531, 46.46308], [6.233665, 46.462924], [6.234015, 46.462786], [6.234244, 46.462548], [6.234787, 46.460304], [6.234989, 46.459299], [6.235153, 46.458952], [6.235546, 46.458427], [6.235669, 46.458209], [6.236216, 46.455991], [6.236298, 46.455801], [6.236441, 46.455621], [6.236759, 46.455408], [6.237165, 46.455277], [6.23761, 46.455208], [6.240962, 46.454558], [6.24118, 46.454463], [6.241261, 46.454391], [6.241354, 46.454219], [6.241366, 46.454125], [6.241331, 46.453939], [6.241247, 46.453759], [6.241057, 46.453607], [6.240807, 46.453498], [6.238236, 46.45316], [6.2378, 46.453042], [6.237536, 46.452925], [6.237295, 46.45278], [6.237094, 46.452616], [6.234815, 46.450469], [6.234581, 46.450201], [6.234299, 46.449717], [6.234249, 46.449519], [6.234278, 46.449418], [6.234407, 46.449233], [6.234502, 46.449156], [6.235458, 46.448673], [6.235551, 46.448597], [6.235602, 46.448394], [6.23551, 46.448187], [6.235058, 46.4476], [6.234879, 46.447406], [6.234574, 46.447161], [6.234322, 46.447072], [6.234175, 46.447068], [6.233877, 46.447134], [6.232763, 46.447721], [6.232556, 46.447894], [6.232506, 46.448006], [6.232485, 46.448469], [6.232413, 46.448677], [6.232314, 46.448739], [6.23218, 46.448767], [6.232033, 46.448752], [6.231907, 46.448705], [6.23182, 46.448627], [6.231786, 46.448227], [6.23183, 46.447709], [6.231919, 46.447504], [6.23259, 46.446662], [6.232619, 46.446608], [6.232613, 46.446453], [6.23266, 46.446409], [6.23339, 46.445893], [6.233826, 46.445691], [6.23462, 46.445269], [6.235763, 46.444586], [6.236036, 46.444543], [6.23618, 46.444563], [6.236421, 46.44468], [6.236553, 46.444864], [6.236816, 46.445859], [6.236892, 46.446026], [6.236963, 46.446096], [6.237072, 46.446145], [6.237207, 46.446163], [6.237342, 46.44614], [6.237451, 46.446079], [6.237519, 46.445993], [6.237537, 46.445895], [6.237504, 46.445798], [6.237303, 46.445544], [6.237151, 46.445269], [6.237112, 46.444968], [6.237166, 46.444766], [6.237381, 46.444509], [6.237765, 46.444251], [6.238639, 46.443747], [6.239936, 46.443254], [6.240703, 46.442837], [6.241676, 46.44242], [6.242147, 46.442185], [6.24245, 46.442071], [6.243399, 46.441821], [6.244024, 46.441598], [6.244187, 46.441451], [6.244653, 46.440823], [6.244811, 46.440676], [6.244987, 46.440633], [6.24633, 46.44076], [6.246827, 46.44075], [6.247712, 46.440834], [6.247796, 46.440791], [6.247952, 46.44057], [6.248173, 46.439976], [6.248309, 46.43989], [6.249171, 46.439884], [6.249271, 46.439863], [6.24942, 46.439771], [6.249594, 46.439579], [6.249879, 46.439464], [6.250238, 46.439444], [6.250631, 46.439483], [6.25116, 46.439498], [6.251412, 46.439445], [6.251519, 46.439393], [6.251604, 46.439326], [6.251694, 46.439161], [6.251706, 46.439071], [6.251628, 46.43889], [6.251445, 46.438742], [6.250628, 46.43829], [6.250185, 46.437993], [6.249828, 46.437656], [6.249442, 46.43722], [6.249253, 46.436948], [6.248135, 46.434774], [6.24736, 46.43385], [6.247274, 46.433688], [6.247248, 46.43352], [6.24728, 46.432975], [6.247308, 46.432594], [6.247354, 46.432401], [6.247505, 46.432121], [6.247816, 46.431662], [6.248038, 46.431401], [6.248488, 46.430664], [6.248568, 46.430465], [6.248581, 46.430052], [6.248627, 46.429854], [6.248944, 46.429409], [6.249143, 46.429286], [6.249655, 46.429082], [6.249788, 46.428994], [6.249818, 46.428938], [6.249868, 46.428959], [6.249826, 46.428969], [6.249923, 46.428948], [6.249947, 46.42887], [6.25004, 46.428792], [6.25022, 46.428828], [6.250364, 46.42883], [6.250521, 46.428801], [6.250677, 46.428738], [6.251753, 46.428065], [6.252636, 46.427291], [6.252937, 46.427074], [6.253683, 46.426662], [6.253975, 46.426563], [6.254505, 46.426316], [6.254955, 46.426065], [6.255056, 46.425958], [6.255477, 46.425805], [6.256543, 46.425193], [6.256716, 46.425067], [6.256751, 46.425069], [6.257449, 46.424663], [6.259446, 46.42359], [6.25997, 46.423275], [6.260527, 46.422982], [6.26088, 46.422735], [6.261074, 46.422558], [6.261294, 46.422459], [6.261436, 46.422364], [6.261976, 46.421921], [6.262643, 46.421239], [6.263273, 46.420665], [6.263446, 46.420459], [6.263853, 46.420276], [6.264871, 46.419696], [6.265656, 46.419316], [6.266296, 46.419071], [6.267158, 46.418671], [6.267899, 46.41829], [6.268086, 46.41826], [6.268953, 46.417772], [6.269373, 46.417503], [6.269892, 46.417125], [6.270088, 46.416921], [6.27051, 46.416759], [6.270774, 46.416608], [6.273938, 46.414535], [6.27427, 46.414228], [6.274607, 46.414095], [6.274775, 46.413943], [6.27585, 46.413236], [6.275995, 46.413083], [6.276041, 46.412969], [6.276009, 46.412853], [6.275413, 46.412287], [6.275011, 46.411861], [6.274955, 46.411751], [6.274675, 46.411485], [6.273303, 46.410347], [6.272562, 46.409659], [6.269169, 46.406724], [6.268919, 46.406398], [6.268699, 46.406011], [6.268577, 46.405692], [6.268567, 46.40557], [6.268269, 46.40478], [6.268116, 46.404456], [6.267841, 46.404031], [6.267299, 46.403436], [6.266848, 46.403046], [6.266255, 46.402595], [6.262502, 46.399622], [6.261792, 46.399087], [6.256606, 46.39498], [6.255792, 46.394293], [6.254028, 46.392882], [6.252163, 46.391419], [6.248901, 46.388789], [6.2487, 46.388655], [6.247146, 46.387418], [6.246844, 46.387095], [6.246628, 46.386741], [6.246053, 46.385249], [6.245826, 46.384845], [6.245554, 46.384543], [6.245355, 46.38438], [6.244503, 46.383868], [6.244012, 46.383487], [6.243707, 46.38316], [6.243415, 46.382642], [6.243182, 46.382559], [6.243081, 46.382583], [6.243085, 46.381846], [6.242957, 46.38184], [6.242839, 46.38175], [6.241993, 46.380851]]}, "properties": {"name": "1786011363.Founex_Col_de_Marchiaruz", "cmt": "2026-08-06", "tstamp": 1785974400, "desc": "DownHill", "src": "6.175027/46.327924/6.278302/46.559981", "bbox": "6.175027/46.327924/6.278302/46.559981"}}, {"type": "Feature", "bbox": [6.175027, 46.327924, 6.278302, 46.559981], "geometry": {"type": "LineString", "coordinates": [[6.241946, 46.380803], [6.241605, 46.380459], [6.241387, 46.380355], [6.240762, 46.380149], [6.240561, 46.380041], [6.238508, 46.378539], [6.238394, 46.378487], [6.238077, 46.378403], [6.237771, 46.378119], [6.237551, 46.377984], [6.23553, 46.377009], [6.235117, 46.376725], [6.234868, 46.376464], [6.234736, 46.376257], [6.233587, 46.37478], [6.233387, 46.374584], [6.232749, 46.373737], [6.231918, 46.372953], [6.231761, 46.372865], [6.231618, 46.372702], [6.231164, 46.372292], [6.230475, 46.371719], [6.229895, 46.371279], [6.229348, 46.370921], [6.228485, 46.370436], [6.228206, 46.370302], [6.227983, 46.370228], [6.227507, 46.369992], [6.227173, 46.369882], [6.227023, 46.369704], [6.22669, 46.369565], [6.225532, 46.368989], [6.224986, 46.368687], [6.224303, 46.368263], [6.22391, 46.367986], [6.223221, 46.367418], [6.22263, 46.366836], [6.222159, 46.36628], [6.220307, 46.363646], [6.220204, 46.363543], [6.220076, 46.3633], [6.219951, 46.363215], [6.219929, 46.363127], [6.219595, 46.36268], [6.219196, 46.362182], [6.218548, 46.361449], [6.217619, 46.3605], [6.216293, 46.359293], [6.216045, 46.3591], [6.215733, 46.359016], [6.215697, 46.358965], [6.215727, 46.358773], [6.2157, 46.358709], [6.21511, 46.358172], [6.214317, 46.357371], [6.211255, 46.354174], [6.210551, 46.353469], [6.208755, 46.351581], [6.208111, 46.350823], [6.2077, 46.350253], [6.207404, 46.349759], [6.207055, 46.349044], [6.20685, 46.348512], [6.206427, 46.346945], [6.205496, 46.342953], [6.205141, 46.341607], [6.204956, 46.341044], [6.204647, 46.340337], [6.204497, 46.340081], [6.203532, 46.338675], [6.203224, 46.338163], [6.202862, 46.337397], [6.202559, 46.336499], [6.20244, 46.335978], [6.202362, 46.335295], [6.202357, 46.332733], [6.202158, 46.331437], [6.201671, 46.330342], [6.2012, 46.329528], [6.200789, 46.328981], [6.200069, 46.328132], [6.199856, 46.327977], [6.199561, 46.327924], [6.199352, 46.327936], [6.197435, 46.32866], [6.195939, 46.329133], [6.195479, 46.329252], [6.193554, 46.329619], [6.193328, 46.329682], [6.19325, 46.329751], [6.193208, 46.329836], [6.193195, 46.330127], [6.19329, 46.33016], [6.193926, 46.330068], [6.194041, 46.330127], [6.194552, 46.331079], [6.194648, 46.331364], [6.194757, 46.33157], [6.194722, 46.331663], [6.194503, 46.331757], [6.194351, 46.331807], [6.19409, 46.331848], [6.194053, 46.331822], [6.193959, 46.331512], [6.194563, 46.331365], [6.194559, 46.331422], [6.194334, 46.331438], [6.194305, 46.331423]]}, "properties": {"name": "1786011363.Founex_Col_de_Marchiaruz", "cmt": "2026-08-06", "tstamp": 1785974400, "desc": "UpHill", "src": "6.175027/46.327924/6.278302/46.559981", "bbox": "6.175027/46.327924/6.278302/46.559981"}}]}