{"type": "FeatureCollection", "name": "TrackSet", "crs": {"type": "name", "properties": {"name": "urn:ogc:def:crs:OGC:1.3:CRS84"}}, "bbox": [6.192442, 46.331383, 6.225089, 46.368554], "features": [{"type": "Feature", "bbox": [6.192442, 46.331383, 6.225089, 46.368554], "geometry": {"type": "LineString", "coordinates": [[6.225089, 46.368554], [6.224758, 46.368377], [6.224632, 46.368253], [6.223755, 46.36768], [6.223027, 46.367023], [6.222662, 46.366626], [6.222374, 46.366361], [6.221806, 46.365602], [6.219836, 46.362802], [6.218743, 46.361492], [6.217649, 46.360399], [6.216403, 46.359344], [6.216071, 46.35902], [6.215963, 46.358876], [6.215693, 46.358745], [6.215535, 46.35855], [6.215033, 46.358101], [6.213718, 46.356768], [6.211053, 46.353981], [6.209681, 46.35259], [6.208759, 46.351606], [6.208065, 46.350787], [6.207543, 46.350035], [6.2072, 46.349393], [6.206852, 46.348546], [6.20651, 46.347337], [6.205467, 46.342926], [6.205415, 46.342835], [6.20529, 46.342798], [6.205229, 46.342826], [6.204969, 46.343115], [6.204815, 46.343231], [6.204635, 46.343321], [6.204289, 46.343451], [6.204176, 46.343444], [6.204124, 46.343418], [6.203453, 46.342758], [6.20321, 46.342591], [6.202768, 46.342365], [6.20246, 46.342113], [6.202092, 46.341463], [6.20189, 46.341001], [6.201626, 46.340236], [6.201294, 46.339754], [6.20111, 46.339618], [6.200412, 46.33887], [6.200009, 46.338493], [6.199034, 46.337673], [6.198648, 46.337097], [6.198378, 46.336769], [6.198009, 46.336502], [6.19602, 46.335304], [6.195538, 46.335081], [6.195374, 46.334965], [6.19468, 46.334586], [6.194195, 46.33422], [6.193964, 46.334092], [6.193339, 46.333811], [6.192797, 46.333344], [6.192757, 46.333295], [6.192442, 46.332302], [6.192517, 46.332242], [6.193018, 46.332149], [6.193048, 46.332105], [6.192986, 46.331973], [6.193051, 46.331946], [6.193817, 46.331816], [6.193976, 46.331853], [6.19414, 46.331858], [6.194363, 46.331809], [6.194619, 46.331712], [6.194707, 46.331662], [6.194716, 46.331613], [6.194693, 46.331494], [6.19463, 46.331393], [6.194514, 46.331383], [6.194298, 46.33144], [6.194188, 46.331513], [6.19414, 46.331515], [6.194405, 46.331528]]}, "properties": {"name": "1786175509.Colovray_home", "cmt": "2026-08-08", "tstamp": 1786147200, "desc": "---", "src": "6.192442/46.331383/6.225089/46.368554", "bbox": "6.192442/46.331383/6.225089/46.368554"}}]}