{"type": "FeatureCollection", "name": "TrackSet", "crs": {"type": "name", "properties": {"name": "urn:ogc:def:crs:OGC:1.3:CRS84"}}, "bbox": [6.192591, 46.327738, 6.231653, 46.379209], "features": [{"type": "Feature", "bbox": [6.192591, 46.327738, 6.231653, 46.379209], "geometry": {"type": "LineString", "coordinates": [[6.194279, 46.331789], [6.1943, 46.331817], [6.194377, 46.331797], [6.194635, 46.331698], [6.194719, 46.331635], [6.194718, 46.33156], [6.194484, 46.331057], [6.194171, 46.330456], [6.193954, 46.330124], [6.193823, 46.330094], [6.193253, 46.330181], [6.193154, 46.330168], [6.193129, 46.330047], [6.193162, 46.329799], [6.193176, 46.329743], [6.193277, 46.329644], [6.19345, 46.32958], [6.194818, 46.329331], [6.195038, 46.329245], [6.195167, 46.329249], [6.195628, 46.329153], [6.196326, 46.328959], [6.197638, 46.328524], [6.199563, 46.327811], [6.199683, 46.327738], [6.199832, 46.327747], [6.199888, 46.327787], [6.199963, 46.327948], [6.200148, 46.328067], [6.201024, 46.3291], [6.201443, 46.329706], [6.20172, 46.330198], [6.202158, 46.33121], [6.202326, 46.331731], [6.202466, 46.332728], [6.202483, 46.334247], [6.202447, 46.334542], [6.202486, 46.335503], [6.202576, 46.336089], [6.202801, 46.336937], [6.203039, 46.337556], [6.203364, 46.338189], [6.203735, 46.33879], [6.204586, 46.339995], [6.204881, 46.340509], [6.205139, 46.341062], [6.205291, 46.341489], [6.205589, 46.342572], [6.206798, 46.347745], [6.20699, 46.348396], [6.207255, 46.349083], [6.207547, 46.34967], [6.20785, 46.350177], [6.208325, 46.350862], [6.213395, 46.356222], [6.21482, 46.3577], [6.215629, 46.358492], [6.215872, 46.358793], [6.216104, 46.358932], [6.217368, 46.360075], [6.218388, 46.361058], [6.218922, 46.361632], [6.220104, 46.363087], [6.222412, 46.366354], [6.222809, 46.366805], [6.223237, 46.367232], [6.223753, 46.367679], [6.22464, 46.368275], [6.224792, 46.368416], [6.225649, 46.368893], [6.227145, 46.369634], [6.227039, 46.369728], [6.227102, 46.369857], [6.226969, 46.370035], [6.227037, 46.370112], [6.227131, 46.370149], [6.227154, 46.370246], [6.227255, 46.370314], [6.227328, 46.370459], [6.227411, 46.37054], [6.227482, 46.370569], [6.227514, 46.370551], [6.227516, 46.37052], [6.227395, 46.370459], [6.227425, 46.370442], [6.227415, 46.370413], [6.227426, 46.370437], [6.227507, 46.370373], [6.227512, 46.370337], [6.227543, 46.370364], [6.227526, 46.370332], [6.22742, 46.370393], [6.227395, 46.370473], [6.227539, 46.370451], [6.227583, 46.370381], [6.22763, 46.370378], [6.227651, 46.370348], [6.227624, 46.37035], [6.227629, 46.370416], [6.227628, 46.370368], [6.227701, 46.370441], [6.227904, 46.370526], [6.227772, 46.370624], [6.227838, 46.370743], [6.227936, 46.370725], [6.228063, 46.370763], [6.228681, 46.3707], [6.228937, 46.370702], [6.229688, 46.371152], [6.230291, 46.371581], [6.230968, 46.372148], [6.231652, 46.37279], [6.231653, 46.372829], [6.231594, 46.372868], [6.230787, 46.373277], [6.230507, 46.373479], [6.229787, 46.373831], [6.229467, 46.374006], [6.229389, 46.374078], [6.226509, 46.375583], [6.226471, 46.37562], [6.226457, 46.375797], [6.226797, 46.37616], [6.226833, 46.376223], [6.226815, 46.376398], [6.225169, 46.377452], [6.224519, 46.377809], [6.224522, 46.377832], [6.224411, 46.377922], [6.224136, 46.378082], [6.223523, 46.378509], [6.22337, 46.378589], [6.222605, 46.378849], [6.221681, 46.379123], [6.221585, 46.379171], [6.221402, 46.379209], [6.221065, 46.379176], [6.221083, 46.379157], [6.220994, 46.379182], [6.220582, 46.379156], [6.220442, 46.37918], [6.219536, 46.379207], [6.218611, 46.379086], [6.217676, 46.378743], [6.21749, 46.378645], [6.214863, 46.377524], [6.214814, 46.377499], [6.214792, 46.377443], [6.214619, 46.377413], [6.211073, 46.376424], [6.21011, 46.376076], [6.2095, 46.375773], [6.209497, 46.375731], [6.209539, 46.375697], [6.209693, 46.375627], [6.210878, 46.37484], [6.211612, 46.374411], [6.211839, 46.374239], [6.21183, 46.374156], [6.211556, 46.373893], [6.211318, 46.373541], [6.211151, 46.373028], [6.211095, 46.372736], [6.211002, 46.37205], [6.210973, 46.371417], [6.210992, 46.371208], [6.211133, 46.370745], [6.211121, 46.370023], [6.211299, 46.369499], [6.211594, 46.369032], [6.211861, 46.36877], [6.21267, 46.368334], [6.212793, 46.368164], [6.212797, 46.367959], [6.212391, 46.367294], [6.212135, 46.36706], [6.211352, 46.366523], [6.210474, 46.365875], [6.209116, 46.364717], [6.209023, 46.364658], [6.208791, 46.364578], [6.208642, 46.364215], [6.208439, 46.363915], [6.207269, 46.362494], [6.206902, 46.361993], [6.206701, 46.361495], [6.206664, 46.361195], [6.206654, 46.360574], [6.206616, 46.36033], [6.206518, 46.360046], [6.206424, 46.35985], [6.206212, 46.359533], [6.205419, 46.358619], [6.204181, 46.357515], [6.203426, 46.357074], [6.202495, 46.356185], [6.202246, 46.356003], [6.201551, 46.355571], [6.20028, 46.354611], [6.199653, 46.354195], [6.199045, 46.353873], [6.198453, 46.353517], [6.197553, 46.352915], [6.196595, 46.352499], [6.19623, 46.35227], [6.196088, 46.352134], [6.1954, 46.351214], [6.195407, 46.351107], [6.195611, 46.350991], [6.19567, 46.350876], [6.195608, 46.350757], [6.195316, 46.350526], [6.195271, 46.350428], [6.195322, 46.350382], [6.195501, 46.350323], [6.196097, 46.3502], [6.19626, 46.350128], [6.196321, 46.350074], [6.196339, 46.350009], [6.196314, 46.349933], [6.19588, 46.349518], [6.19578, 46.349378], [6.195762, 46.349307], [6.195802, 46.34924], [6.195883, 46.349183], [6.195985, 46.349151], [6.196104, 46.34914], [6.196223, 46.349162], [6.197408, 46.349532], [6.197757, 46.349617], [6.197987, 46.349555], [6.19844, 46.34917], [6.198908, 46.348902], [6.199163, 46.348803], [6.199311, 46.348776], [6.199457, 46.348777], [6.199732, 46.348844], [6.200888, 46.349384], [6.201209, 46.34942], [6.201374, 46.349403], [6.201676, 46.349324], [6.201785, 46.349246], [6.202113, 46.348686], [6.20209, 46.348564], [6.201953, 46.348485], [6.201783, 46.348453], [6.201083, 46.348239], [6.20069, 46.348085], [6.200425, 46.347839], [6.200057, 46.3472], [6.199818, 46.346301], [6.199717, 46.345523], [6.199727, 46.34522], [6.199851, 46.345049], [6.200095, 46.344856], [6.200773, 46.344382], [6.201021, 46.344238], [6.202076, 46.343961], [6.204032, 46.343508], [6.204104, 46.34348], [6.204139, 46.343432], [6.204129, 46.343381], [6.203474, 46.342749], [6.203265, 46.342606], [6.202676, 46.342292], [6.202452, 46.342093], [6.202309, 46.341881], [6.201951, 46.341127], [6.201642, 46.340241], [6.201418, 46.339926], [6.201325, 46.339807], [6.201025, 46.339548], [6.200325, 46.338786], [6.199884, 46.338382], [6.199042, 46.33768], [6.198644, 46.337083], [6.198333, 46.336724], [6.19786, 46.336407], [6.196894, 46.335858], [6.196313, 46.335471], [6.195538, 46.335093], [6.195309, 46.334938], [6.194692, 46.334604], [6.194103, 46.33417], [6.193371, 46.333828], [6.193023, 46.33358], [6.192831, 46.333368], [6.192687, 46.333039], [6.192739, 46.332857], [6.192717, 46.332806], [6.192697, 46.332822], [6.192729, 46.332805], [6.19261, 46.332522], [6.192611, 46.332488], [6.192684, 46.332432], [6.192668, 46.332356], [6.192591, 46.332255], [6.192604, 46.332229], [6.192645, 46.332204], [6.192957, 46.332166], [6.192993, 46.332141], [6.193034, 46.332055], [6.192971, 46.331955], [6.192994, 46.331933], [6.193716, 46.331802], [6.194126, 46.331842], [6.19436, 46.331791], [6.194658, 46.331682], [6.194716, 46.331635], [6.194732, 46.331553], [6.194672, 46.331421], [6.194606, 46.331372], [6.194338, 46.331454], [6.194195, 46.331421], [6.194094, 46.33144]]}, "properties": {"name": "1786118696.Colovray_to_get_dossard", "cmt": "2026-08-07", "tstamp": 1786060800, "desc": "---", "src": "6.192591/46.327738/6.231653/46.379209", "bbox": "6.192591/46.327738/6.231653/46.379209"}}]}