{"type": "FeatureCollection", "name": "TrackSet", "crs": {"type": "name", "properties": {"name": "urn:ogc:def:crs:OGC:1.3:CRS84"}}, "bbox": [6.193148, 46.327733, 6.227177, 46.369626], "features": [{"type": "Feature", "bbox": [6.193148, 46.327733, 6.227177, 46.369626], "geometry": {"type": "LineString", "coordinates": [[6.194407, 46.331722], [6.194499, 46.331716], [6.194713, 46.331637], [6.194741, 46.331566], [6.194588, 46.331216], [6.194492, 46.331045], [6.194454, 46.331018], [6.194465, 46.331046], [6.19441, 46.330869], [6.194051, 46.330216], [6.193992, 46.330141], [6.193891, 46.330093], [6.193242, 46.330166], [6.193164, 46.33012], [6.193148, 46.329946], [6.193187, 46.329741], [6.193227, 46.329686], [6.193372, 46.329599], [6.19524, 46.329235], [6.196303, 46.328973], [6.197166, 46.328689], [6.199766, 46.327733], [6.199851, 46.327746], [6.199906, 46.327793], [6.199977, 46.327958], [6.200169, 46.328081], [6.200852, 46.32887], [6.20135, 46.329549], [6.201677, 46.330122], [6.202011, 46.330824], [6.202329, 46.331741], [6.202421, 46.332208], [6.202479, 46.33274], [6.202472, 46.333921], [6.202499, 46.334162], [6.202458, 46.334528], [6.202494, 46.335401], [6.202591, 46.336087], [6.202811, 46.336958], [6.203007, 46.337477], [6.20324, 46.337974], [6.203459, 46.338357], [6.204055, 46.339255], [6.204496, 46.339837], [6.205125, 46.340981], [6.205372, 46.341676], [6.205621, 46.342631], [6.206667, 46.347182], [6.206923, 46.348137], [6.207093, 46.348655], [6.207325, 46.349214], [6.207826, 46.350124], [6.208474, 46.351008], [6.208978, 46.351597], [6.210702, 46.353361], [6.21094, 46.353641], [6.214641, 46.357487], [6.215584, 46.358426], [6.215885, 46.358787], [6.216187, 46.358992], [6.216329, 46.359153], [6.217682, 46.36035], [6.218728, 46.361403], [6.219502, 46.362298], [6.220267, 46.363303], [6.222301, 46.366211], [6.223039, 46.367039], [6.22384, 46.367746], [6.224955, 46.368495], [6.225601, 46.368852], [6.227177, 46.369626]]}, "properties": {"name": "1786167156.Founex_Colovray_to_spectate_Tim_In_triathalon", "cmt": "2026-08-08", "tstamp": 1786147200, "desc": "---", "src": "6.193148/46.327733/6.227177/46.369626", "bbox": "6.193148/46.327733/6.227177/46.369626"}}]}