{"type": "FeatureCollection", "name": "TrackSet", "crs": {"type": "name", "properties": {"name": "urn:ogc:def:crs:OGC:1.3:CRS84"}}, "bbox": [6.086986, 46.331573, 6.206592, 46.413173], "features": [{"type": "Feature", "bbox": [6.086986, 46.331573, 6.206592, 46.413173], "geometry": {"type": "LineString", "coordinates": [[6.194246, 46.331781], [6.194066, 46.331841], [6.193792, 46.331813], [6.192976, 46.331928], [6.19295, 46.331945], [6.192993, 46.332079], [6.192969, 46.332145], [6.192466, 46.332242], [6.192425, 46.332307], [6.19268, 46.332795], [6.192782, 46.333215], [6.193009, 46.333507], [6.193429, 46.333835], [6.194135, 46.334158], [6.194656, 46.334543], [6.195472, 46.334996], [6.195514, 46.335054], [6.195463, 46.335198], [6.19521, 46.33541], [6.194911, 46.335773], [6.19479, 46.336053], [6.194843, 46.336415], [6.195261, 46.337404], [6.195311, 46.338137], [6.195433, 46.338453], [6.196101, 46.339406], [6.196612, 46.340443], [6.196852, 46.340838], [6.197011, 46.341031], [6.197264, 46.341269], [6.198175, 46.341938], [6.198299, 46.342065], [6.198381, 46.342204], [6.198793, 46.344007], [6.199114, 46.345593], [6.199344, 46.346421], [6.199602, 46.347538], [6.200031, 46.348368], [6.200053, 46.348513], [6.200032, 46.348645], [6.199946, 46.348809], [6.199862, 46.348881], [6.199713, 46.348903], [6.199432, 46.348852], [6.199302, 46.348851], [6.198987, 46.348924], [6.198434, 46.349238], [6.198015, 46.349576], [6.19779, 46.349636], [6.197621, 46.349635], [6.196293, 46.349235], [6.196028, 46.349209], [6.195893, 46.349251], [6.195838, 46.34932], [6.195837, 46.349414], [6.196312, 46.349905], [6.19636, 46.349983], [6.196346, 46.350064], [6.196216, 46.350176], [6.196035, 46.350243], [6.195551, 46.350343], [6.195354, 46.35042], [6.195328, 46.350474], [6.195604, 46.350718], [6.195687, 46.350828], [6.195644, 46.350956], [6.19542, 46.351112], [6.195414, 46.351201], [6.196053, 46.35204], [6.196089, 46.352147], [6.196056, 46.352203], [6.194827, 46.352943], [6.193327, 46.353725], [6.192356, 46.354156], [6.190485, 46.354873], [6.189597, 46.355277], [6.187545, 46.356415], [6.187195, 46.356642], [6.186743, 46.356984], [6.186484, 46.357244], [6.186277, 46.357529], [6.186143, 46.357854], [6.186081, 46.358156], [6.186074, 46.358586], [6.186156, 46.359085], [6.186577, 46.360448], [6.186556, 46.360631], [6.186477, 46.360813], [6.186321, 46.360963], [6.186114, 46.361078], [6.184141, 46.362467], [6.183314, 46.363013], [6.182837, 46.36327], [6.181558, 46.363834], [6.180729, 46.364324], [6.180355, 46.364507], [6.179462, 46.364734], [6.179287, 46.36481], [6.178809, 46.365084], [6.177746, 46.365856], [6.177342, 46.366097], [6.176952, 46.366214], [6.175934, 46.366279], [6.175565, 46.366364], [6.173889, 46.367167], [6.173342, 46.36739], [6.173041, 46.367436], [6.170835, 46.367644], [6.170476, 46.367653], [6.170137, 46.367602], [6.169976, 46.367663], [6.169916, 46.367713], [6.169867, 46.367838], [6.169686, 46.368071], [6.169211, 46.368599], [6.165973, 46.372009], [6.165656, 46.372292], [6.165356, 46.372509], [6.164125, 46.37319], [6.163866, 46.373512], [6.163338, 46.374338], [6.162732, 46.374603], [6.162409, 46.374781], [6.16217, 46.374931], [6.161836, 46.375227], [6.161672, 46.375462], [6.16154, 46.375736], [6.161204, 46.37696], [6.161192, 46.377117], [6.160674, 46.379136], [6.160558, 46.379354], [6.160386, 46.379513], [6.160102, 46.379658], [6.159176, 46.379914], [6.159068, 46.379973], [6.158875, 46.380004], [6.155709, 46.380817], [6.155222, 46.381012], [6.153813, 46.381656], [6.15355, 46.381734], [6.153337, 46.381742], [6.153043, 46.381677], [6.15183, 46.381225], [6.151444, 46.381037], [6.151305, 46.381017], [6.151176, 46.381077], [6.151054, 46.38126], [6.150742, 46.381565], [6.149454, 46.382014], [6.148811, 46.382307], [6.148292, 46.382637], [6.147642, 46.382965], [6.147448, 46.383113], [6.147057, 46.383331], [6.146728, 46.383553], [6.146052, 46.384091], [6.145417, 46.384524], [6.145012, 46.384727], [6.14449, 46.384931], [6.144025, 46.385183], [6.143719, 46.385416], [6.143563, 46.38562], [6.142975, 46.386149], [6.142364, 46.386587], [6.141237, 46.387298], [6.140184, 46.387832], [6.139716, 46.388049], [6.139182, 46.38826], [6.139032, 46.388358], [6.138915, 46.388505], [6.138753, 46.389048], [6.138384, 46.390027], [6.138293, 46.390155], [6.138234, 46.390118], [6.138289, 46.39015], [6.138193, 46.390205], [6.13785, 46.390674], [6.137654, 46.390881], [6.136982, 46.391416], [6.13674, 46.391545], [6.136378, 46.391642], [6.135954, 46.391717], [6.1356, 46.391828], [6.135347, 46.391971], [6.135055, 46.392223], [6.134948, 46.392403], [6.134996, 46.392813], [6.13498, 46.393002], [6.135037, 46.393378], [6.135003, 46.393476], [6.134914, 46.393583], [6.13472, 46.393607], [6.13459, 46.393677], [6.134096, 46.393861], [6.133883, 46.393894], [6.133834, 46.393832], [6.133826, 46.393582], [6.13376, 46.393371], [6.13347, 46.393202], [6.133262, 46.393137], [6.133244, 46.393097], [6.132953, 46.392993], [6.132644, 46.392771], [6.13225, 46.392683], [6.131772, 46.392456], [6.131612, 46.392315], [6.131265, 46.392099], [6.131076, 46.391897], [6.130677, 46.391637], [6.130582, 46.391584], [6.130397, 46.391544], [6.130322, 46.391549], [6.130214, 46.391613], [6.130185, 46.391758], [6.130543, 46.392406], [6.13057, 46.392652], [6.130359, 46.39325], [6.130332, 46.393468], [6.130351, 46.393708], [6.130308, 46.393788], [6.130272, 46.394111], [6.130295, 46.394237], [6.130257, 46.394561], [6.130389, 46.39489], [6.130103, 46.395283], [6.130049, 46.395414], [6.12996, 46.395461], [6.129905, 46.395462], [6.129822, 46.395413], [6.129834, 46.395336], [6.129777, 46.395123], [6.129706, 46.395047], [6.129397, 46.39497], [6.129271, 46.39491], [6.129066, 46.39457], [6.128525, 46.394213], [6.128348, 46.394025], [6.128159, 46.393972], [6.127924, 46.393863], [6.127672, 46.393549], [6.127466, 46.39343], [6.127267, 46.393147], [6.127094, 46.393061], [6.126965, 46.392961], [6.126852, 46.392944], [6.126789, 46.392959], [6.126771, 46.39306], [6.126887, 46.393323], [6.126689, 46.394324], [6.126679, 46.394612], [6.126743, 46.395212], [6.126812, 46.395359], [6.126923, 46.395428], [6.126944, 46.395492], [6.12695, 46.395563], [6.12688, 46.39568], [6.126752, 46.395713], [6.126001, 46.395733], [6.125746, 46.395839], [6.125585, 46.395958], [6.125499, 46.395989], [6.1252, 46.396266], [6.125035, 46.396378], [6.124838, 46.396551], [6.124632, 46.396791], [6.124306, 46.396929], [6.123518, 46.396962], [6.122487, 46.397254], [6.122085, 46.397305], [6.122015, 46.397276], [6.12186, 46.397263], [6.12164, 46.397322], [6.121541, 46.397321], [6.121325, 46.397388], [6.121199, 46.397475], [6.121129, 46.397567], [6.121169, 46.397752], [6.121238, 46.397807], [6.121244, 46.397894], [6.121369, 46.397971], [6.121828, 46.398158], [6.122003, 46.39819], [6.122162, 46.398263], [6.122404, 46.398298], [6.122515, 46.398352], [6.122592, 46.398358], [6.123767, 46.398914], [6.124141, 46.399048], [6.124714, 46.399385], [6.124756, 46.399458], [6.124745, 46.399677], [6.12511, 46.400018], [6.125225, 46.400543], [6.1254, 46.400753], [6.125618, 46.401095], [6.125705, 46.401354], [6.125912, 46.401736], [6.126038, 46.402132], [6.126143, 46.402292], [6.126449, 46.402485], [6.126443, 46.402518], [6.12648, 46.402518], [6.126446, 46.402542], [6.126479, 46.402587], [6.126574, 46.402631], [6.126683, 46.402824], [6.126764, 46.403154], [6.126753, 46.403334], [6.126821, 46.403472], [6.127013, 46.403698], [6.127064, 46.403828], [6.127036, 46.403873], [6.126895, 46.403861], [6.126832, 46.403748], [6.126608, 46.403563], [6.126506, 46.403424], [6.126538, 46.403277], [6.126484, 46.403253], [6.126391, 46.403104], [6.126253, 46.402992], [6.126062, 46.402918], [6.125557, 46.402797], [6.125396, 46.402722], [6.125024, 46.402262], [6.124664, 46.401954], [6.124153, 46.401616], [6.123938, 46.401511], [6.123584, 46.401282], [6.123228, 46.400994], [6.122847, 46.400863], [6.122544, 46.400634], [6.122498, 46.400628], [6.122435, 46.400664], [6.122481, 46.400764], [6.122915, 46.401183], [6.12289, 46.401205], [6.123044, 46.401344], [6.12342, 46.401777], [6.123969, 46.402516], [6.12401, 46.402793], [6.123926, 46.403011], [6.124089, 46.403419], [6.12409, 46.403523], [6.124149, 46.403628], [6.124192, 46.403831], [6.124356, 46.404117], [6.12442, 46.404173], [6.124462, 46.404327], [6.124564, 46.404455], [6.124611, 46.404653], [6.12463, 46.40491], [6.124496, 46.405252], [6.124499, 46.405322], [6.124549, 46.405383], [6.124697, 46.405462], [6.124768, 46.405532], [6.124882, 46.405539], [6.124995, 46.405574], [6.125087, 46.405635], [6.125121, 46.405628], [6.124153, 46.405426], [6.124058, 46.405203], [6.123923, 46.405012], [6.123945, 46.40496], [6.123815, 46.40485], [6.123796, 46.404765], [6.123743, 46.404703], [6.123542, 46.404589], [6.123476, 46.404505], [6.123096, 46.404308], [6.122853, 46.404093], [6.122649, 46.404001], [6.122589, 46.40395], [6.122377, 46.403621], [6.122135, 46.403468], [6.121987, 46.403314], [6.121802, 46.403211], [6.121534, 46.403145], [6.121495, 46.403085], [6.12132, 46.40297], [6.121181, 46.402831], [6.120908, 46.402676], [6.120542, 46.402542], [6.120097, 46.402462], [6.119661, 46.402509], [6.119509, 46.402589], [6.119278, 46.402637], [6.119173, 46.402631], [6.118962, 46.402552], [6.118785, 46.402516], [6.118781, 46.402493], [6.118661, 46.402448], [6.118345, 46.40237], [6.118146, 46.402279], [6.117734, 46.402218], [6.117483, 46.402228], [6.117176, 46.402188], [6.117035, 46.402099], [6.116861, 46.401932], [6.116587, 46.401786], [6.116409, 46.401729], [6.116348, 46.401715], [6.116112, 46.401759], [6.116015, 46.401751], [6.11576, 46.401832], [6.115646, 46.401833], [6.115238, 46.401981], [6.115085, 46.401958], [6.114783, 46.401989], [6.114713, 46.401971], [6.114625, 46.401999], [6.11383, 46.402375], [6.113173, 46.402843], [6.112906, 46.402934], [6.112742, 46.402919], [6.112512, 46.402746], [6.112442, 46.402731], [6.112147, 46.402762], [6.11176, 46.402871], [6.111611, 46.402938], [6.111591, 46.402927], [6.111484, 46.403047], [6.111262, 46.403222], [6.111155, 46.403515], [6.111018, 46.403587], [6.110791, 46.403563], [6.110661, 46.403513], [6.110432, 46.403498], [6.110195, 46.403572], [6.109967, 46.403702], [6.109739, 46.403726], [6.109557, 46.403669], [6.109261, 46.403485], [6.109204, 46.403464], [6.109096, 46.40347], [6.108976, 46.403556], [6.108764, 46.40391], [6.108525, 46.404076], [6.107794, 46.404358], [6.107627, 46.404363], [6.107322, 46.404331], [6.107211, 46.404355], [6.107122, 46.404488], [6.107085, 46.405355], [6.106999, 46.405469], [6.106718, 46.405617], [6.106611, 46.405709], [6.106489, 46.406141], [6.106386, 46.406332], [6.105973, 46.406763], [6.10583, 46.406851], [6.105666, 46.406923], [6.1055, 46.406949], [6.105286, 46.40702], [6.105068, 46.407102], [6.105028, 46.407141], [6.104724, 46.407234], [6.104295, 46.407313], [6.104113, 46.407317], [6.103928, 46.407282], [6.103703, 46.407206], [6.103483, 46.407087], [6.103296, 46.407039], [6.10306, 46.406942], [6.102969, 46.40689], [6.102674, 46.406594], [6.102247, 46.406489], [6.10199, 46.406371], [6.101737, 46.406192], [6.101577, 46.406146], [6.101324, 46.40602], [6.100842, 46.405939], [6.100547, 46.406006], [6.100399, 46.406156], [6.099995, 46.406788], [6.099907, 46.406858], [6.099862, 46.406964], [6.099904, 46.407124], [6.100049, 46.407358], [6.100024, 46.407495], [6.099902, 46.407611], [6.099784, 46.407665], [6.099332, 46.407646], [6.099093, 46.407661], [6.098999, 46.407734], [6.098996, 46.407844], [6.099137, 46.408204], [6.099117, 46.408336], [6.099009, 46.408518], [6.098939, 46.408547], [6.098867, 46.408541], [6.098721, 46.408436], [6.098663, 46.408323], [6.098524, 46.408249], [6.09839, 46.408095], [6.098307, 46.408041], [6.098066, 46.408039], [6.097928, 46.40809], [6.09791, 46.408151], [6.098007, 46.408209], [6.098179, 46.408408], [6.098119, 46.408503], [6.098125, 46.408615], [6.097934, 46.408768], [6.09783, 46.408916], [6.097703, 46.408992], [6.097537, 46.40904], [6.097319, 46.409238], [6.09713, 46.409296], [6.096996, 46.409422], [6.096974, 46.40949], [6.096656, 46.409799], [6.096244, 46.410073], [6.0961, 46.410123], [6.095551, 46.410446], [6.094956, 46.410755], [6.094544, 46.411009], [6.094312, 46.411104], [6.093728, 46.411444], [6.093283, 46.411522], [6.092848, 46.411521], [6.092268, 46.411625], [6.091833, 46.411765], [6.09169, 46.411771], [6.091275, 46.411678], [6.091089, 46.411571], [6.090903, 46.411502], [6.090691, 46.411466], [6.08991, 46.411417], [6.089315, 46.41129], [6.089248, 46.411239], [6.088872, 46.411141], [6.088132, 46.411111], [6.0871, 46.411292], [6.087017, 46.411284]]}, "properties": {"name": "1787040265.Founex_La_Baudichonne", "cmt": "2026-08-18", "tstamp": 1787011200, "desc": "UpHill", "src": "6.086986/46.331573/6.206592/46.413173", "bbox": "6.086986/46.331573/6.206592/46.413173"}}, {"type": "Feature", "bbox": [6.086986, 46.331573, 6.206592, 46.413173], "geometry": {"type": "LineString", "coordinates": [[6.087024, 46.411285], [6.086986, 46.411306], [6.087002, 46.411321], [6.087028, 46.411308], [6.087009, 46.411293], [6.087017, 46.411314], [6.087196, 46.411299], [6.088199, 46.41111], [6.088824, 46.41113], [6.089096, 46.411184], [6.089427, 46.411345], [6.089553, 46.411374], [6.090735, 46.411484], [6.090943, 46.411537], [6.091454, 46.411745], [6.091732, 46.411772], [6.091896, 46.411752], [6.09235, 46.411617], [6.092571, 46.411618], [6.093008, 46.411544], [6.093239, 46.411564], [6.093733, 46.411466], [6.096471, 46.409939], [6.096745, 46.409743], [6.09721, 46.40933], [6.097794, 46.408967], [6.098129, 46.408663], [6.098213, 46.408547], [6.098188, 46.408399], [6.097951, 46.408212], [6.097957, 46.408064], [6.098123, 46.408028], [6.098277, 46.408061], [6.098353, 46.408105], [6.09862, 46.408475], [6.098765, 46.408587], [6.09893, 46.408607], [6.099078, 46.40854], [6.09917, 46.408443], [6.099187, 46.408376], [6.09916, 46.408296], [6.099176, 46.408098], [6.098998, 46.407876], [6.098996, 46.407758], [6.099043, 46.407709], [6.09922, 46.407661], [6.099755, 46.407702], [6.099903, 46.407657], [6.099962, 46.407615], [6.100065, 46.407426], [6.100023, 46.407291], [6.099854, 46.407069], [6.099887, 46.406941], [6.100165, 46.406615], [6.100265, 46.406382], [6.10041, 46.40615], [6.100542, 46.406019], [6.100618, 46.405981], [6.100712, 46.405954], [6.100906, 46.405955], [6.101208, 46.406013], [6.101501, 46.406115], [6.102066, 46.406449], [6.1027, 46.406673], [6.102775, 46.406723], [6.102937, 46.406934], [6.103018, 46.406989], [6.103434, 46.407112], [6.103809, 46.407269], [6.104037, 46.407314], [6.104261, 46.407325], [6.104708, 46.407255], [6.105952, 46.406817], [6.106161, 46.406545], [6.106422, 46.406287], [6.106619, 46.405669], [6.10667, 46.405623], [6.106999, 46.405467], [6.107094, 46.405329], [6.107085, 46.404533], [6.10716, 46.404354], [6.10723, 46.404321], [6.107324, 46.404314], [6.107616, 46.404359], [6.107822, 46.404348], [6.108494, 46.404091], [6.108744, 46.403936], [6.108988, 46.403515], [6.1091, 46.403447], [6.109258, 46.403484], [6.109538, 46.40367], [6.1097, 46.403735], [6.109795, 46.403739], [6.109969, 46.403695], [6.110389, 46.403506], [6.110609, 46.403532], [6.111084, 46.403649], [6.111203, 46.403563], [6.111252, 46.403328], [6.111322, 46.403198], [6.111593, 46.402968], [6.111676, 46.40293], [6.112202, 46.402772], [6.112374, 46.402747], [6.112524, 46.402792], [6.112705, 46.402953], [6.112786, 46.402978], [6.112988, 46.402958], [6.113173, 46.402875], [6.11392, 46.402335], [6.114113, 46.402237], [6.114606, 46.402047], [6.114705, 46.402014], [6.115302, 46.402017], [6.115756, 46.401861], [6.116286, 46.401718], [6.116533, 46.401772], [6.116621, 46.40182], [6.116987, 46.402107], [6.117232, 46.402247], [6.117701, 46.40226], [6.118031, 46.4023], [6.119222, 46.402657], [6.119339, 46.40265], [6.120068, 46.402479], [6.120312, 46.40249], [6.120428, 46.402518], [6.121107, 46.402811], [6.121498, 46.403089], [6.122222, 46.403518], [6.122434, 46.403752], [6.122595, 46.403984], [6.122917, 46.404168], [6.123184, 46.404387], [6.123404, 46.404498], [6.123813, 46.404788], [6.123973, 46.404988], [6.124163, 46.405474], [6.124244, 46.405516], [6.12455, 46.405573], [6.124936, 46.405704], [6.125092, 46.405709], [6.12502, 46.405809], [6.125044, 46.405743], [6.125004, 46.405653], [6.124595, 46.405481], [6.124489, 46.40536], [6.124487, 46.405274], [6.124597, 46.405021], [6.124614, 46.404574], [6.123951, 46.403017], [6.124063, 46.402753], [6.124062, 46.402665], [6.123994, 46.402493], [6.123615, 46.401957], [6.123194, 46.401444], [6.122795, 46.401032], [6.122409, 46.400738], [6.122365, 46.40069], [6.122381, 46.400604], [6.12243, 46.400582], [6.122561, 46.400615], [6.122508, 46.400672], [6.122538, 46.400743], [6.122724, 46.400869], [6.123246, 46.401104], [6.123812, 46.401494], [6.12441, 46.401809], [6.124926, 46.402229], [6.125318, 46.402705], [6.125406, 46.402764], [6.125621, 46.402857], [6.126089, 46.402939], [6.126337, 46.403071], [6.126459, 46.403237], [6.12652, 46.403471], [6.126662, 46.403621], [6.126797, 46.403698], [6.126965, 46.403915], [6.127085, 46.403954], [6.127102, 46.403874], [6.127088, 46.403937], [6.127037, 46.403958], [6.12704, 46.404003], [6.127106, 46.403922], [6.127084, 46.403853], [6.126804, 46.403475], [6.126782, 46.403389], [6.126803, 46.403109], [6.126703, 46.402756], [6.126535, 46.402523], [6.126125, 46.402219], [6.126013, 46.401853], [6.12574, 46.401336], [6.125644, 46.401083], [6.125226, 46.400504], [6.125175, 46.400054], [6.125047, 46.399928], [6.124792, 46.39978], [6.124756, 46.399719], [6.124806, 46.39944], [6.124755, 46.399321], [6.124691, 46.399269], [6.124377, 46.399139], [6.124205, 46.39902], [6.123369, 46.398699], [6.122794, 46.398394], [6.122425, 46.398274], [6.122012, 46.398195], [6.121877, 46.398145], [6.121231, 46.39784], [6.121165, 46.397785], [6.121105, 46.397656], [6.121222, 46.397497], [6.12156, 46.397338], [6.121827, 46.397296], [6.122413, 46.397283], [6.122827, 46.397192], [6.123358, 46.396998], [6.123648, 46.396963], [6.124115, 46.396977], [6.124394, 46.396913], [6.124621, 46.396814], [6.124714, 46.396746], [6.124968, 46.396465], [6.125723, 46.395858], [6.125986, 46.395752], [6.126295, 46.395723], [6.126793, 46.395734], [6.126885, 46.395707], [6.126949, 46.395655], [6.126968, 46.395513], [6.126806, 46.395298], [6.126726, 46.39512], [6.126691, 46.394392], [6.126913, 46.393305], [6.126819, 46.393145], [6.126705, 46.393024], [6.126699, 46.392975], [6.126742, 46.392936], [6.126817, 46.392919], [6.126898, 46.392933], [6.127132, 46.393082], [6.127652, 46.393623], [6.127836, 46.393873], [6.127941, 46.393942], [6.128309, 46.394058], [6.128657, 46.394379], [6.129002, 46.394552], [6.129075, 46.394615], [6.129181, 46.394862], [6.129241, 46.394923], [6.129447, 46.394997], [6.129649, 46.395031], [6.129753, 46.395158], [6.129826, 46.395443], [6.129942, 46.395481], [6.130031, 46.395462], [6.130097, 46.395403], [6.130184, 46.395174], [6.130417, 46.394923], [6.130437, 46.394857], [6.130274, 46.394543], [6.130276, 46.394451], [6.130328, 46.394262], [6.130352, 46.393878], [6.13041, 46.393687], [6.130418, 46.393173], [6.130621, 46.392606], [6.1306, 46.39242], [6.130516, 46.392231], [6.130184, 46.391695], [6.130204, 46.391588], [6.130257, 46.391552], [6.130447, 46.391541], [6.130649, 46.391612], [6.130822, 46.391718], [6.130887, 46.391789], [6.131085, 46.391899], [6.131403, 46.392203], [6.131994, 46.392583], [6.132302, 46.392716], [6.132629, 46.392786], [6.133055, 46.393075], [6.133404, 46.39318], [6.13361, 46.393277], [6.133735, 46.393405], [6.13377, 46.39349], [6.13378, 46.393859], [6.133824, 46.393907], [6.133993, 46.393946], [6.134099, 46.393916], [6.134372, 46.393766], [6.134961, 46.39357], [6.135027, 46.393536], [6.135097, 46.393405], [6.134966, 46.392529], [6.134984, 46.392364], [6.135068, 46.392202], [6.135426, 46.39193], [6.135637, 46.391835], [6.135991, 46.391733], [6.136609, 46.391612], [6.136841, 46.391527], [6.137241, 46.391242], [6.137758, 46.390796], [6.138386, 46.390036], [6.138855, 46.388699], [6.138914, 46.388638], [6.138961, 46.388666], [6.138886, 46.388656], [6.138916, 46.388657], [6.138923, 46.388615], [6.13895, 46.388614], [6.138937, 46.388638], [6.13896, 46.388624], [6.138984, 46.388578], [6.138996, 46.388592], [6.138967, 46.388605], [6.13896, 46.388511], [6.139038, 46.388315], [6.139683, 46.388067], [6.140984, 46.387458], [6.142465, 46.386513], [6.142597, 46.386486], [6.142768, 46.386304], [6.143167, 46.385985], [6.143754, 46.385378], [6.143983, 46.385188], [6.144376, 46.384965], [6.14516, 46.384647], [6.145382, 46.384527], [6.146116, 46.384027], [6.146843, 46.383452], [6.147721, 46.382927], [6.148474, 46.382523], [6.148823, 46.38229], [6.14909, 46.382143], [6.150704, 46.381547], [6.150857, 46.381445], [6.151199, 46.381032], [6.151265, 46.380999], [6.151354, 46.380989], [6.151508, 46.381021], [6.152344, 46.381418], [6.153067, 46.381654], [6.153289, 46.381713], [6.153544, 46.381715], [6.153797, 46.381647], [6.155617, 46.38082], [6.157855, 46.380227], [6.158856, 46.379987], [6.159004, 46.380033], [6.159037, 46.380093], [6.158996, 46.380311], [6.159056, 46.380498], [6.159757, 46.381622], [6.160359, 46.382491], [6.161904, 46.384216], [6.162191, 46.384626], [6.162373, 46.385107], [6.162436, 46.385567], [6.162396, 46.385974], [6.162227, 46.386702], [6.162196, 46.386994], [6.162216, 46.387338], [6.162266, 46.387563], [6.162448, 46.388006], [6.163638, 46.390156], [6.16414, 46.390952], [6.164622, 46.391608], [6.16511, 46.392191], [6.165774, 46.392907], [6.168428, 46.395722], [6.169556, 46.396858], [6.170564, 46.397671], [6.172145, 46.398756], [6.172372, 46.398876], [6.172687, 46.399141], [6.173842, 46.399899], [6.174642, 46.400359], [6.174792, 46.400505], [6.174769, 46.400597], [6.173315, 46.401444], [6.173259, 46.401523], [6.173271, 46.40157], [6.174482, 46.403641], [6.174621, 46.403948], [6.174704, 46.404255], [6.174726, 46.40448], [6.174707, 46.404849], [6.174604, 46.40535], [6.174621, 46.405475], [6.174696, 46.405628], [6.174878, 46.405809], [6.175706, 46.406487], [6.17603, 46.406877], [6.176446, 46.407469], [6.17672, 46.407732], [6.178257, 46.408712], [6.178451, 46.408936], [6.178543, 46.408993], [6.178627, 46.409003], [6.17869, 46.408954], [6.178754, 46.408842], [6.178853, 46.408794], [6.178893, 46.408806], [6.17865, 46.408955], [6.178449, 46.408967], [6.178358, 46.409282], [6.178008, 46.409802], [6.177973, 46.409939], [6.177988, 46.410085], [6.178054, 46.410245], [6.178171, 46.410407], [6.179447, 46.41176], [6.179661, 46.411919], [6.179918, 46.41207], [6.180461, 46.412289], [6.181426, 46.412452], [6.183225, 46.412661], [6.183601, 46.412668], [6.184616, 46.412624], [6.18567, 46.412661], [6.186907, 46.412773], [6.189002, 46.41304], [6.189097, 46.413023], [6.189341, 46.412903], [6.189755, 46.412524], [6.189751, 46.412279], [6.18983, 46.412201], [6.189819, 46.412166], [6.189921, 46.411985], [6.189705, 46.412021], [6.189761, 46.411975], [6.189908, 46.412249], [6.189881, 46.412228], [6.189946, 46.412231], [6.18992, 46.412115], [6.189824, 46.412073], [6.189782, 46.412113], [6.189819, 46.412114], [6.189791, 46.412136], [6.189982, 46.41243], [6.189453, 46.412884], [6.189305, 46.413137], [6.18926, 46.413165], [6.189148, 46.413173], [6.188904, 46.41308], [6.188278, 46.412975], [6.18675, 46.412792], [6.185739, 46.4127], [6.18509, 46.412665], [6.183088, 46.412686], [6.181281, 46.412467], [6.18069, 46.412381], [6.180378, 46.41231], [6.180085, 46.412202], [6.179752, 46.412035], [6.179521, 46.411873], [6.17931, 46.411677], [6.178022, 46.410317], [6.177948, 46.410151], [6.177914, 46.409938], [6.17798, 46.409725], [6.178258, 46.409338], [6.178385, 46.409101], [6.178398, 46.408981], [6.17824, 46.408714], [6.178247, 46.408674], [6.179447, 46.407864], [6.181091, 46.406861], [6.181853, 46.406478], [6.182137, 46.406295], [6.182357, 46.406086], [6.182735, 46.405577], [6.183056, 46.405239], [6.183935, 46.404379], [6.185091, 46.403332], [6.185114, 46.403267], [6.185088, 46.403206], [6.185024, 46.403162], [6.184447, 46.402984], [6.184198, 46.402878], [6.184046, 46.40278], [6.183995, 46.402734], [6.183981, 46.402628], [6.184056, 46.402532], [6.187298, 46.400226], [6.188317, 46.399581], [6.188505, 46.399394], [6.189048, 46.398576], [6.189411, 46.397476], [6.189603, 46.397115], [6.189733, 46.396953], [6.189952, 46.396766], [6.19071, 46.396351], [6.190904, 46.396213], [6.19117, 46.395873], [6.191438, 46.395419], [6.191835, 46.394849], [6.191834, 46.394792], [6.191713, 46.394703], [6.19171, 46.39462], [6.191146, 46.393641], [6.190973, 46.393367], [6.190834, 46.393209], [6.190827, 46.393091], [6.191005, 46.392873], [6.19101, 46.392752], [6.190953, 46.392697], [6.189694, 46.392056], [6.189158, 46.3917], [6.188884, 46.391377], [6.188327, 46.390321], [6.187933, 46.389829], [6.187561, 46.389522], [6.187143, 46.389256], [6.183675, 46.387296], [6.182605, 46.38665], [6.181194, 46.385595], [6.180172, 46.384869], [6.179335, 46.384163], [6.178631, 46.383679], [6.176484, 46.382121], [6.175834, 46.381691], [6.175027, 46.381108], [6.175003, 46.381036], [6.175462, 46.380545], [6.176804, 46.379386], [6.177464, 46.378668], [6.177588, 46.378588], [6.17784, 46.378333], [6.178534, 46.377862], [6.178623, 46.377844], [6.178728, 46.377855], [6.179072, 46.37804], [6.17927, 46.378096], [6.17938, 46.378101], [6.18001, 46.377997], [6.180978, 46.377883], [6.181161, 46.377923], [6.181389, 46.378059], [6.181563, 46.378109], [6.181722, 46.378121], [6.18319, 46.378038], [6.184794, 46.377739], [6.185289, 46.377552], [6.186574, 46.376987], [6.187082, 46.376716], [6.188461, 46.376233], [6.188996, 46.376012], [6.189307, 46.375733], [6.189532, 46.375348], [6.189724, 46.375159], [6.189872, 46.375143], [6.189972, 46.375183], [6.190231, 46.375474], [6.190399, 46.375581], [6.190636, 46.37565], [6.190734, 46.375641], [6.191092, 46.375415], [6.191333, 46.375297], [6.191621, 46.375181], [6.192565, 46.374898], [6.193905, 46.374654], [6.194242, 46.374622], [6.194641, 46.374491], [6.197879, 46.373822], [6.198183, 46.373739], [6.198925, 46.373602], [6.199852, 46.373375], [6.200638, 46.373125], [6.202517, 46.372442], [6.202559, 46.372384], [6.202539, 46.372319], [6.202381, 46.372142], [6.201748, 46.371161], [6.201383, 46.370584], [6.201364, 46.370495], [6.201462, 46.370408], [6.202402, 46.369985], [6.202585, 46.369929], [6.204203, 46.369158], [6.204633, 46.36885], [6.205072, 46.368464], [6.206115, 46.367503], [6.206159, 46.367396], [6.206152, 46.367341], [6.206033, 46.367172], [6.203207, 46.36225], [6.203067, 46.362065], [6.202837, 46.36164], [6.202835, 46.36159], [6.20291, 46.361497], [6.206226, 46.359813], [6.206316, 46.359753], [6.206332, 46.359703], [6.206107, 46.359391], [6.205376, 46.358566], [6.20417, 46.357496], [6.20398, 46.357367], [6.203487, 46.357111], [6.202583, 46.356246], [6.202254, 46.356007], [6.201474, 46.355523], [6.200693, 46.3549], [6.199618, 46.35417], [6.199545, 46.354065], [6.19963, 46.353993], [6.2015, 46.352938], [6.201889, 46.352679], [6.202638, 46.352077], [6.202842, 46.35197], [6.203108, 46.351942], [6.20325, 46.351953], [6.204532, 46.352411], [6.204729, 46.352456], [6.204823, 46.352439], [6.205014, 46.352298], [6.206248, 46.351671], [6.206572, 46.351477], [6.206592, 46.351427], [6.206566, 46.35137], [6.20637, 46.351262], [6.205735, 46.350756], [6.204832, 46.350364], [6.203952, 46.349837], [6.203036, 46.349125], [6.202673, 46.348878], [6.201859, 46.348453], [6.200921, 46.348183], [6.20068, 46.348075], [6.200548, 46.347987], [6.200373, 46.347786], [6.200012, 46.3471], [6.199794, 46.34615], [6.19971, 46.345338], [6.199747, 46.345193], [6.199858, 46.345051], [6.200709, 46.344426], [6.201034, 46.344237], [6.201186, 46.344179], [6.201858, 46.344011], [6.204013, 46.34351], [6.204141, 46.343445]]}, "properties": {"name": "1787040265.Founex_La_Baudichonne", "cmt": "2026-08-18", "tstamp": 1787011200, "desc": "DownHill", "src": "6.086986/46.331573/6.206592/46.413173", "bbox": "6.086986/46.331573/6.206592/46.413173"}}, {"type": "Feature", "bbox": [6.086986, 46.331573, 6.206592, 46.413173], "geometry": {"type": "LineString", "coordinates": [[6.204132, 46.343387], [6.203433, 46.342758], [6.203094, 46.342536], [6.202746, 46.342352], [6.202507, 46.342175], [6.202328, 46.341924], [6.202063, 46.341398], [6.201628, 46.340237], [6.201373, 46.339859], [6.201304, 46.339772], [6.200982, 46.339504], [6.20031, 46.338768], [6.199047, 46.337682], [6.198896, 46.337504], [6.198559, 46.336966], [6.198314, 46.336703], [6.198187, 46.336636], [6.198024, 46.336502], [6.196097, 46.335348], [6.195543, 46.335086], [6.194642, 46.334552], [6.194061, 46.334143], [6.193354, 46.333811], [6.193091, 46.333604], [6.192836, 46.333355], [6.19275, 46.333177], [6.1927, 46.332946], [6.192572, 46.332601], [6.192425, 46.332296], [6.192445, 46.332268], [6.19261, 46.332117], [6.192702, 46.332087], [6.192995, 46.332057], [6.193025, 46.332025], [6.192995, 46.331957], [6.193027, 46.331922], [6.193168, 46.331917], [6.193782, 46.331791], [6.193936, 46.331802], [6.194086, 46.331852], [6.194289, 46.331796], [6.194292, 46.331735], [6.194332, 46.331701], [6.19446, 46.331682], [6.194457, 46.331604], [6.194393, 46.331573]]}, "properties": {"name": "1787040265.Founex_La_Baudichonne", "cmt": "2026-08-18", "tstamp": 1787011200, "desc": "UpHill", "src": "6.086986/46.331573/6.206592/46.413173", "bbox": "6.086986/46.331573/6.206592/46.413173"}}]}