{"type": "FeatureCollection", "name": "TrackSet", "crs": {"type": "name", "properties": {"name": "urn:ogc:def:crs:OGC:1.3:CRS84"}}, "bbox": [6.149817, 46.328195, 6.200044, 46.426983], "features": [{"type": "Feature", "bbox": [6.149817, 46.328195, 6.200044, 46.426983], "geometry": {"type": "LineString", "coordinates": [[6.194061, 46.331848], [6.193843, 46.331805], [6.193731, 46.331808], [6.192972, 46.331943], [6.192954, 46.331985], [6.192996, 46.332037], [6.192992, 46.332127], [6.192477, 46.332249], [6.192442, 46.332309], [6.192667, 46.332804], [6.192737, 46.332809], [6.192722, 46.33283], [6.192735, 46.332806], [6.19282, 46.332825], [6.192953, 46.332788], [6.192685, 46.332793], [6.192733, 46.33281], [6.192741, 46.333097], [6.192792, 46.333236], [6.193023, 46.333531], [6.19338, 46.333821], [6.193923, 46.334046], [6.19426, 46.334245], [6.194654, 46.334547], [6.195499, 46.335017], [6.195517, 46.33508], [6.195445, 46.335213], [6.195204, 46.335423], [6.194875, 46.335857], [6.19481, 46.335991], [6.194791, 46.336131], [6.194841, 46.336403], [6.19529, 46.33749], [6.195291, 46.337964], [6.195348, 46.338239], [6.195456, 46.338499], [6.196049, 46.339331], [6.196619, 46.340451], [6.196872, 46.340852], [6.197237, 46.341235], [6.19821, 46.341962], [6.198419, 46.342257], [6.199085, 46.34544], [6.199319, 46.346271], [6.199603, 46.347488], [6.1997, 46.347748], [6.19995, 46.348172], [6.20004, 46.348388], [6.200044, 46.348583], [6.199964, 46.348762], [6.199908, 46.348849], [6.199777, 46.348897], [6.199347, 46.348856], [6.199043, 46.348911], [6.198341, 46.349317], [6.198062, 46.349557], [6.19789, 46.349623], [6.197699, 46.349658], [6.197618, 46.349649], [6.196388, 46.349249], [6.196089, 46.349205], [6.195911, 46.349243], [6.195848, 46.349334], [6.195853, 46.349407], [6.196369, 46.349956], [6.196357, 46.35009], [6.196216, 46.350189], [6.195461, 46.350379], [6.195373, 46.350425], [6.195342, 46.350477], [6.195645, 46.350773], [6.1957, 46.350887], [6.195627, 46.351009], [6.195439, 46.351117], [6.195421, 46.351201], [6.196055, 46.352074], [6.196084, 46.352127], [6.196037, 46.352236], [6.194263, 46.353265], [6.193191, 46.353801], [6.19235, 46.354165], [6.190461, 46.354887], [6.189489, 46.355336], [6.187637, 46.356368], [6.186951, 46.35683], [6.186586, 46.357139], [6.186308, 46.357499], [6.18618, 46.35777], [6.186098, 46.358124], [6.186081, 46.358505], [6.186141, 46.358964], [6.18659, 46.360525], [6.186519, 46.36076], [6.186404, 46.360927], [6.185767, 46.361329], [6.184028, 46.362552], [6.183186, 46.363099], [6.182821, 46.363288], [6.181737, 46.363757], [6.180394, 46.364502], [6.180207, 46.36458], [6.179899, 46.364659], [6.179332, 46.364765], [6.17917, 46.364851], [6.178492, 46.365315], [6.177739, 46.365882], [6.177779, 46.365998], [6.17829, 46.366272], [6.179011, 46.366858], [6.179631, 46.367222], [6.180875, 46.367843], [6.181245, 46.367981], [6.182127, 46.368473], [6.182836, 46.368695], [6.183562, 46.368959], [6.184059, 46.369176], [6.184533, 46.369419], [6.18497, 46.369708], [6.185743, 46.370378], [6.186233, 46.370735], [6.186544, 46.370999], [6.187794, 46.371861], [6.188292, 46.372139], [6.189712, 46.372826], [6.189949, 46.373046], [6.190721, 46.374095], [6.191567, 46.37517], [6.191565, 46.375218], [6.191071, 46.375446], [6.190785, 46.375641], [6.190576, 46.375672], [6.190471, 46.375644], [6.190212, 46.375511], [6.190018, 46.375266], [6.189893, 46.375165], [6.189803, 46.375143], [6.189699, 46.375175], [6.189624, 46.375238], [6.189486, 46.375496], [6.189278, 46.375791], [6.189067, 46.375985], [6.188928, 46.376065], [6.188791, 46.376135], [6.187094, 46.37672], [6.186568, 46.376996], [6.186062, 46.377202], [6.185309, 46.377553], [6.185025, 46.377667], [6.184685, 46.377768], [6.18304, 46.378055], [6.18174, 46.378117], [6.181495, 46.378102], [6.181285, 46.378021], [6.181174, 46.377939], [6.18108, 46.37792], [6.180983, 46.37794], [6.180933, 46.378013], [6.180888, 46.378028], [6.180505, 46.377947], [6.179279, 46.378114], [6.179088, 46.378076], [6.1787, 46.377893], [6.178573, 46.377881], [6.178457, 46.37792], [6.177816, 46.378376], [6.177563, 46.37866], [6.177133, 46.379016], [6.17702, 46.379197], [6.176838, 46.379391], [6.175854, 46.38022], [6.174765, 46.381249], [6.173756, 46.382019], [6.172959, 46.382869], [6.172233, 46.383452], [6.172115, 46.383664], [6.172013, 46.384242], [6.171911, 46.384365], [6.170163, 46.38578], [6.169504, 46.386183], [6.168903, 46.386689], [6.167473, 46.38748], [6.166117, 46.388095], [6.165702, 46.388317], [6.164321, 46.389208], [6.163638, 46.389522], [6.163393, 46.389711], [6.16266, 46.390015], [6.16215, 46.390288], [6.161809, 46.39054], [6.161049, 46.39118], [6.160899, 46.391262], [6.160702, 46.391276], [6.160611, 46.391253], [6.160364, 46.391072], [6.160234, 46.39101], [6.16007, 46.390993], [6.15979, 46.391035], [6.158455, 46.391392], [6.157027, 46.39195], [6.156393, 46.392169], [6.155986, 46.392288], [6.155207, 46.392454], [6.154777, 46.39264], [6.154461, 46.392869], [6.154154, 46.393226], [6.15378, 46.393558], [6.152234, 46.394746], [6.151282, 46.395521], [6.151081, 46.395793], [6.150884, 46.396388], [6.150689, 46.396846], [6.150352, 46.397226], [6.150098, 46.397431], [6.149817, 46.397605], [6.150068, 46.397825], [6.150601, 46.398159], [6.151165, 46.398621], [6.151595, 46.399068], [6.151988, 46.399685], [6.152572, 46.400255], [6.152901, 46.400652], [6.153991, 46.401499], [6.154529, 46.401805], [6.155213, 46.40206], [6.155885, 46.402458], [6.156418, 46.402724], [6.157249, 46.403222], [6.15809, 46.403588], [6.159276, 46.404032], [6.160211, 46.404518], [6.160453, 46.404667], [6.161306, 46.405292], [6.162009, 46.405715], [6.162462, 46.406146], [6.16268, 46.406306], [6.162767, 46.406349], [6.163612, 46.406555], [6.164101, 46.406717], [6.164553, 46.406921], [6.165201, 46.407265], [6.165446, 46.407413], [6.165647, 46.407598], [6.16609, 46.407873], [6.166887, 46.408451], [6.167344, 46.408818], [6.167811, 46.409119], [6.168026, 46.409193], [6.168207, 46.409208], [6.169076, 46.409222], [6.171698, 46.409888], [6.172036, 46.410014], [6.172627, 46.410339], [6.173614, 46.410708], [6.174097, 46.410961], [6.17467, 46.411175], [6.174868, 46.411353], [6.175897, 46.411825], [6.176527, 46.41199], [6.176964, 46.412011], [6.176996, 46.412032], [6.17699, 46.412066], [6.176907, 46.412129], [6.176905, 46.412088], [6.177089, 46.411964], [6.177531, 46.411857], [6.177862, 46.411873], [6.178301, 46.411971], [6.178649, 46.411999], [6.179191, 46.412012], [6.179343, 46.411969], [6.179386, 46.412002], [6.179343, 46.412039], [6.179286, 46.411992], [6.179361, 46.41194], [6.179401, 46.41195], [6.179427, 46.412196], [6.179523, 46.412432], [6.179509, 46.412813], [6.179267, 46.413334], [6.178917, 46.413755], [6.178759, 46.414005], [6.178605, 46.414367], [6.178558, 46.414562], [6.178575, 46.414807], [6.178766, 46.415514], [6.178791, 46.415757], [6.17855, 46.416681], [6.178529, 46.416939], [6.178556, 46.417149], [6.178928, 46.418299], [6.17903, 46.418482], [6.179055, 46.418608], [6.179647, 46.419995], [6.180343, 46.421749], [6.180264, 46.421817], [6.179061, 46.421887], [6.178336, 46.421989], [6.17788, 46.422126], [6.177461, 46.422317], [6.177325, 46.422385], [6.176991, 46.422632], [6.176695, 46.422965], [6.176601, 46.423116], [6.176486, 46.42365], [6.176535, 46.424066], [6.176737, 46.424521], [6.176885, 46.424711], [6.177334, 46.425505], [6.178058, 46.426666], [6.17813, 46.426714]]}, "properties": {"name": "1787648893.Local_ride", "cmt": "2026-08-25", "tstamp": 1787616000, "desc": "UpHill", "src": "6.149817/46.328195/6.200044/46.426983", "bbox": "6.149817/46.328195/6.200044/46.426983"}}, {"type": "Feature", "bbox": [6.149817, 46.328195, 6.200044, 46.426983], "geometry": {"type": "LineString", "coordinates": [[6.178164, 46.426724], [6.178686, 46.426714], [6.180238, 46.426572], [6.18083, 46.426551], [6.181139, 46.426579], [6.181444, 46.426641], [6.182508, 46.426956], [6.182828, 46.426983], [6.183139, 46.426936], [6.183387, 46.426789], [6.183529, 46.42659], [6.183599, 46.42598], [6.183787, 46.425062], [6.183948, 46.42489], [6.184067, 46.424834], [6.184954, 46.424663], [6.186626, 46.424491], [6.186917, 46.424411], [6.187953, 46.424028], [6.188482, 46.423881], [6.192168, 46.42374], [6.192914, 46.423639], [6.193655, 46.423443], [6.194521, 46.42318], [6.195658, 46.422769], [6.196424, 46.422437], [6.197231, 46.421994], [6.197271, 46.421937], [6.197221, 46.421808], [6.197063, 46.421632], [6.196798, 46.421205], [6.196619, 46.420848], [6.196457, 46.420661], [6.196145, 46.420381], [6.195632, 46.419961], [6.194843, 46.419388], [6.193597, 46.418599], [6.192997, 46.418081], [6.192188, 46.417458], [6.191891, 46.417262], [6.191292, 46.416945], [6.190655, 46.416647], [6.189195, 46.416078], [6.188708, 46.415914], [6.187212, 46.41551], [6.187106, 46.415458], [6.187091, 46.415403], [6.187033, 46.415355], [6.186561, 46.415044], [6.185231, 46.41443], [6.184943, 46.414272], [6.184465, 46.413949], [6.184094, 46.413825], [6.183602, 46.41371], [6.183327, 46.413604], [6.1831, 46.413455], [6.182633, 46.413073], [6.1824, 46.412927], [6.181158, 46.412467], [6.180566, 46.412354], [6.180216, 46.412252], [6.17976, 46.41203], [6.179431, 46.411796], [6.178287, 46.410597], [6.17799, 46.410225], [6.17793, 46.410003], [6.177939, 46.409847], [6.17814, 46.409498], [6.178167, 46.40935], [6.177918, 46.409221], [6.177682, 46.409005], [6.177442, 46.408851], [6.177055, 46.408468], [6.176856, 46.408237], [6.176708, 46.407768], [6.176667, 46.40771], [6.176469, 46.40757], [6.176016, 46.406917], [6.175723, 46.406552], [6.174742, 46.405753], [6.174629, 46.405613], [6.174554, 46.405357], [6.174621, 46.405088], [6.174683, 46.404526], [6.174648, 46.404184], [6.174553, 46.403889], [6.174091, 46.402979], [6.173546, 46.402134], [6.173195, 46.401504], [6.173087, 46.401426], [6.17268, 46.401258], [6.172452, 46.401111], [6.171833, 46.400563], [6.171496, 46.4003], [6.171061, 46.399896], [6.171041, 46.399847], [6.171104, 46.399754], [6.172392, 46.399102], [6.172446, 46.399042], [6.172615, 46.398989], [6.172627, 46.398909], [6.172468, 46.398749], [6.172465, 46.398653], [6.173709, 46.397839], [6.173798, 46.397739], [6.173775, 46.397688], [6.172728, 46.396984], [6.172632, 46.396876], [6.172493, 46.396805], [6.172553, 46.396693], [6.172638, 46.396618], [6.17283, 46.396527], [6.172889, 46.396439], [6.173229, 46.396257], [6.173465, 46.396085], [6.173519, 46.395979], [6.172749, 46.395164], [6.170409, 46.393097], [6.170346, 46.393], [6.170362, 46.392939], [6.170408, 46.392886], [6.170817, 46.392647], [6.173595, 46.390822], [6.173944, 46.390634], [6.174347, 46.390502], [6.174428, 46.390375], [6.174274, 46.389994], [6.173288, 46.38867], [6.172834, 46.388177], [6.172413, 46.38789], [6.169542, 46.386304], [6.169469, 46.386221], [6.169474, 46.386172], [6.170118, 46.385784], [6.17185, 46.384397], [6.171972, 46.384255], [6.172004, 46.38417], [6.172061, 46.383717], [6.172196, 46.383452], [6.173049, 46.382759], [6.173754, 46.381995], [6.174791, 46.381203], [6.175579, 46.380439], [6.176858, 46.379338], [6.177325, 46.378814], [6.177893, 46.378289], [6.178566, 46.377836], [6.17859, 46.377767], [6.178513, 46.377636], [6.177973, 46.377201], [6.177256, 46.376736], [6.177157, 46.376635], [6.17715, 46.37651], [6.177247, 46.376398], [6.179942, 46.374449], [6.180038, 46.37435], [6.17998, 46.374244], [6.178008, 46.373003], [6.172643, 46.369236], [6.17227, 46.369036], [6.169969, 46.368], [6.169882, 46.367907], [6.169879, 46.367853], [6.169926, 46.367804], [6.170101, 46.367729], [6.170192, 46.36765], [6.170281, 46.36763], [6.170814, 46.367624], [6.171486, 46.367569], [6.172943, 46.367429], [6.173376, 46.367366], [6.173762, 46.367211], [6.175603, 46.366328], [6.175963, 46.36625], [6.17682, 46.366206], [6.177225, 46.366115], [6.177613, 46.365924], [6.178208, 46.36549], [6.179202, 46.36484], [6.179525, 46.364712], [6.180341, 46.364494], [6.181634, 46.363768], [6.182815, 46.363242], [6.183415, 46.362917], [6.186251, 46.360956], [6.1865, 46.360718], [6.186549, 46.360576], [6.186541, 46.360431], [6.18624, 46.359538], [6.186044, 46.358735], [6.186023, 46.358255], [6.186045, 46.358014], [6.186109, 46.357784], [6.186345, 46.35733], [6.186762, 46.3569], [6.187233, 46.356555], [6.187622, 46.356311], [6.188061, 46.356076], [6.188195, 46.355972], [6.188206, 46.35591], [6.188168, 46.355842], [6.187696, 46.355465], [6.186598, 46.35412], [6.186558, 46.354009], [6.186579, 46.353945], [6.186648, 46.3539], [6.186935, 46.353872], [6.186984, 46.353829], [6.187003, 46.353773], [6.18694, 46.353679], [6.186316, 46.353233], [6.185347, 46.352937], [6.184924, 46.352849], [6.184828, 46.35281], [6.184676, 46.352698], [6.184419, 46.352295], [6.183434, 46.35125], [6.183093, 46.350811], [6.182112, 46.349852], [6.181408, 46.348878], [6.180961, 46.348324], [6.180641, 46.347983], [6.18007, 46.347546], [6.179779, 46.34738], [6.177977, 46.346802], [6.177702, 46.34668], [6.176774, 46.345988], [6.176613, 46.34585], [6.176563, 46.345749], [6.176562, 46.345686], [6.176633, 46.34555], [6.176771, 46.345426], [6.177404, 46.345139], [6.17754, 46.345051], [6.177568, 46.344999], [6.177579, 46.34453], [6.177696, 46.343336], [6.177437, 46.342896], [6.177138, 46.342494], [6.176588, 46.342039], [6.175339, 46.340306], [6.175324, 46.340232], [6.175428, 46.340105], [6.175721, 46.339966], [6.175837, 46.339865], [6.175913, 46.339748], [6.175975, 46.339508], [6.176149, 46.339335], [6.176878, 46.338827], [6.177149, 46.338573], [6.177288, 46.338327], [6.177357, 46.338132], [6.177397, 46.337913], [6.177407, 46.337414], [6.17747, 46.337028], [6.177531, 46.336884], [6.178501, 46.335852], [6.178677, 46.335732], [6.179085, 46.335561], [6.179341, 46.335412], [6.179724, 46.334822], [6.179741, 46.334689], [6.179419, 46.333671], [6.17938, 46.333423], [6.179419, 46.333112], [6.179475, 46.332986], [6.179664, 46.332758], [6.180295, 46.332202], [6.180491, 46.331997], [6.180876, 46.331443], [6.180858, 46.33125], [6.180649, 46.330995], [6.180652, 46.330942], [6.180722, 46.330896], [6.180921, 46.330864], [6.183325, 46.330259], [6.184302, 46.32979], [6.187865, 46.328833], [6.188531, 46.32862], [6.189309, 46.328204], [6.189366, 46.328195], [6.189624, 46.328272], [6.18992, 46.328466], [6.190441, 46.328876], [6.190785, 46.329205], [6.191121, 46.329578], [6.191655, 46.330043], [6.19175, 46.330189], [6.191918, 46.330724], [6.19196, 46.330771], [6.192037, 46.330797], [6.192124, 46.330787], [6.192782, 46.330495], [6.19294, 46.3304], [6.193123, 46.330201], [6.193195, 46.330161], [6.193856, 46.33008], [6.194012, 46.330119], [6.194102, 46.330225], [6.194683, 46.331382], [6.194667, 46.331402], [6.194365, 46.331441]]}, "properties": {"name": "1787648893.Local_ride", "cmt": "2026-08-25", "tstamp": 1787616000, "desc": "DownHill", "src": "6.149817/46.328195/6.200044/46.426983", "bbox": "6.149817/46.328195/6.200044/46.426983"}}, {"type": "Feature", "bbox": [6.149817, 46.328195, 6.200044, 46.426983], "geometry": {"type": "LineString", "coordinates": [[6.194338, 46.331444], [6.194356, 46.331423]]}, "properties": {"name": "1787648893.Local_ride", "cmt": "2026-08-25", "tstamp": 1787616000, "desc": "UpHill", "src": "6.149817/46.328195/6.200044/46.426983", "bbox": "6.149817/46.328195/6.200044/46.426983"}}]}