{"type": "FeatureCollection", "name": "TrackSet", "crs": {"type": "name", "properties": {"name": "urn:ogc:def:crs:OGC:1.3:CRS84"}}, "bbox": [-0.201492, 46.121395, 6.12739, 51.182465], "features": [{"type": "Feature", "bbox": [-0.201492, 46.121395, 6.12739, 51.182465], "geometry": {"type": "LineString", "coordinates": [[6.111714, 46.234703], [6.111095, 46.235138], [6.11071, 46.235069], [6.111609, 46.235695], [6.111591, 46.236031], [6.110819, 46.23658], [6.110676, 46.236866], [6.110853, 46.237091], [6.111609, 46.237591], [6.111832, 46.237755], [6.119574, 46.243015], [6.122183, 46.244808], [6.125883, 46.247326], [6.12662, 46.247944], [6.126749, 46.248169], [6.12734, 46.249489], [6.12739, 46.249752], [6.127264, 46.250031], [6.127024, 46.250183], [6.126787, 46.250198], [6.126553, 46.25005], [6.122517, 46.24728], [6.116982, 46.243504], [6.112217, 46.240265], [6.106819, 46.236568], [6.100092, 46.231888], [6.093979, 46.227676], [6.089172, 46.224243], [6.082924, 46.219669], [6.076712, 46.215179], [6.071822, 46.211655], [6.065689, 46.207378], [6.059362, 46.202957], [6.054807, 46.199844], [6.048592, 46.195602], [6.043485, 46.192108], [6.03685, 46.187595], [6.031159, 46.183685], [6.023857, 46.178833], [6.00959, 46.169437], [5.996338, 46.160732], [5.982262, 46.151192], [5.968189, 46.141342], [5.951706, 46.130615], [5.949231, 46.129349], [5.946831, 46.128288], [5.943741, 46.126984], [5.940924, 46.125961], [5.937976, 46.125], [5.935096, 46.124176], [5.932081, 46.123398], [5.929201, 46.122803], [5.925516, 46.122208], [5.922455, 46.121815], [5.918953, 46.121536], [5.915588, 46.121395], [5.912498, 46.121395], [5.908791, 46.121582], [5.905419, 46.121887], [5.90213, 46.122421], [5.898628, 46.123074], [5.895813, 46.123772], [5.892448, 46.124794], [5.889427, 46.12582], [5.886475, 46.127029], [5.883379, 46.128433], [5.880089, 46.13015], [5.87748, 46.131733], [5.874939, 46.133499], [5.871992, 46.135895], [5.869583, 46.138107], [5.867503, 46.140244], [5.865257, 46.14267], [5.863129, 46.145092], [5.858794, 46.150223], [5.856718, 46.152786], [5.854546, 46.15538], [5.852632, 46.157822], [5.850688, 46.160202], [5.846375, 46.16576], [5.844246, 46.168461], [5.842248, 46.171051], [5.840195, 46.173767], [5.826736, 46.191597], [5.81304, 46.209824], [5.797073, 46.231026], [5.761123, 46.277985], [5.724882, 46.324402], [5.688372, 46.370407], [5.650955, 46.417423], [5.611803, 46.466858], [5.573083, 46.515518], [5.532578, 46.566483], [5.492628, 46.615997], [5.443659, 46.663239], [5.394622, 46.709381], [5.341834, 46.759277], [5.289716, 46.808258], [5.236633, 46.858227], [5.182114, 46.909241], [5.127728, 46.960129], [5.073148, 47.011009], [5.017583, 47.062637], [4.961524, 47.114681], [4.905396, 47.166687], [4.849196, 47.218773], [4.793067, 47.270634], [4.737783, 47.321419], [4.681824, 47.373001], [4.628273, 47.424675], [4.574327, 47.476627], [4.519114, 47.529324], [4.464157, 47.581741], [4.410187, 47.632965], [4.354843, 47.685196], [4.299019, 47.73793], [4.24292, 47.790802], [4.18889, 47.84164], [4.134293, 47.892838], [4.079308, 47.94429], [4.022781, 47.996841], [3.966888, 48.048798], [3.909795, 48.101776], [3.854088, 48.153217], [3.797185, 48.205627], [3.741784, 48.256702], [3.685696, 48.308235], [3.627873, 48.361164], [3.570701, 48.41349], [3.513384, 48.465443], [3.45689, 48.516678], [3.398895, 48.569393], [3.342374, 48.620506], [3.285996, 48.671204], [3.227884, 48.723667], [3.171507, 48.774223], [3.114552, 48.825199], [3.057235, 48.876125], [2.99969, 48.927383], [2.941801, 48.979065], [2.884827, 49.029648], [2.826088, 49.081329], [2.768193, 49.132301], [2.710298, 49.182903], [2.652259, 49.233788], [2.593759, 49.285034], [2.53594, 49.335663], [2.479459, 49.384827], [2.42169, 49.434723], [2.362803, 49.485355], [2.305177, 49.535019], [2.247224, 49.584789], [2.189545, 49.634136], [2.131998, 49.683517], [2.07338, 49.733414], [2.013823, 49.784134], [1.954973, 49.834309], [1.892098, 49.882584], [1.823582, 49.928158], [1.755363, 49.973873], [1.685751, 50.020523], [1.615207, 50.06749], [1.544736, 50.114365], [1.475276, 50.160416], [1.405961, 50.206375], [1.336323, 50.252254], [1.269218, 50.296528], [1.203894, 50.339401], [1.140988, 50.380463], [1.075359, 50.423172], [1.012004, 50.464443], [0.95039, 50.5047], [0.888736, 50.544479], [0.828239, 50.583847], [0.769043, 50.62207], [0.710177, 50.659962], [0.653018, 50.69664], [0.597382, 50.732258], [0.542264, 50.767181], [0.48912, 50.801388], [0.440216, 50.833553], [0.429358, 50.842346], [0.427017, 50.844913], [0.424904, 50.847427], [0.423048, 50.849945], [0.421448, 50.852268], [0.419485, 50.855301], [0.416336, 50.860462], [0.41481, 50.863163], [0.413284, 50.865723], [0.41028, 50.87114], [0.408707, 50.873821], [0.407181, 50.876568], [0.404282, 50.881737], [0.39444, 50.899052], [0.384002, 50.917053], [0.375094, 50.932388], [0.365295, 50.949005], [0.354614, 50.963341], [0.344772, 50.974373], [0.342789, 50.976471], [0.340947, 50.978531], [0.326996, 50.993599], [0.313407, 51.008423], [0.301666, 51.021114], [0.290247, 51.033508], [0.27626, 51.048485], [0.262985, 51.062729], [0.251694, 51.074883], [0.239258, 51.088707], [0.229263, 51.099834], [0.218353, 51.111752], [0.208592, 51.122269], [0.197605, 51.133942], [0.189667, 51.141682], [0.187378, 51.143314], [0.185209, 51.144608], [0.183279, 51.145615], [0.180235, 51.147034], [0.177934, 51.148041], [0.175484, 51.149002], [0.170441, 51.150948], [0.167467, 51.151978], [0.165092, 51.152847], [0.15997, 51.154633], [0.154953, 51.156345], [0.149765, 51.158161], [0.143814, 51.160164], [0.141263, 51.161087], [0.131168, 51.16452], [0.120775, 51.168045], [0.109715, 51.171799], [0.101475, 51.174637], [0.091231, 51.178116], [0.080414, 51.181438], [0.077498, 51.182007], [0.074768, 51.182323], [0.071793, 51.182465], [0.069036, 51.182465], [0.065536, 51.182232], [0.063171, 51.181999], [0.060128, 51.181641], [0.057449, 51.181301], [0.054092, 51.180927], [0.051369, 51.180588], [0.048676, 51.180275], [0.043182, 51.179668], [0.040308, 51.179306], [0.037858, 51.179031], [0.035186, 51.178711], [0.028992, 51.177994], [0.026278, 51.177658], [0.015143, 51.176239], [0.004083, 51.174728], [-0.003738, 51.17371], [-0.014648, 51.172268], [-0.025787, 51.170685], [-0.03334, 51.169613], [-0.043574, 51.16832], [-0.05456, 51.166809], [-0.064879, 51.165344], [-0.074387, 51.164074], [-0.083771, 51.162773], [-0.090637, 51.161865], [-0.099411, 51.160675], [-0.108795, 51.159374], [-0.117286, 51.158203], [-0.125656, 51.157047], [-0.134657, 51.155823], [-0.142971, 51.154633], [-0.151825, 51.153461], [-0.15831, 51.152576], [-0.166725, 51.151382], [-0.173777, 51.150421], [-0.181961, 51.149273], [-0.187361, 51.148544], [-0.192038, 51.147903], [-0.19304, 51.147789], [-0.19392, 51.147724], [-0.194358, 51.14772], [-0.195389, 51.147781], [-0.196548, 51.147915], [-0.200779, 51.148521], [-0.201015, 51.148575], [-0.201317, 51.148693], [-0.201492, 51.148956], [-0.201416, 51.149178], [-0.201169, 51.149345], [-0.200593, 51.149471], [-0.200037, 51.149551], [-0.19556, 51.150154], [-0.193977, 51.150387], [-0.183754, 51.151798], [-0.182611, 51.151909], [-0.182351, 51.152012], [-0.18219, 51.152275], [-0.183296, 51.155415], [-0.183544, 51.156219], [-0.183371, 51.156441], [-0.183149, 51.156509], [-0.179005, 51.15707], [-0.178732, 51.157013], [-0.178621, 51.156796], [-0.178621, 51.156544], [-0.178472, 51.156326]]}, "properties": {"name": "U28488_4115b655", "cmt": "2026-08-09", "tstamp": 1786233600, "desc": "---", "src": "-0.201492/46.121395/6.12739/51.182465", "bbox": "-0.201492/46.121395/6.12739/51.182465"}}]}