{"type": "FeatureCollection", "name": "TrackSet", "crs": {"type": "name", "properties": {"name": "urn:ogc:def:crs:OGC:1.3:CRS84"}}, "bbox": [20.985594, 52.007431, 24.850126, 59.415878], "features": [{"type": "Feature", "bbox": [20.985594, 52.007431, 24.850126, 59.415878], "geometry": {"type": "LineString", "coordinates": [[24.800688, 59.415878], [24.800674, 59.415665], [24.800735, 59.415447], [24.801163, 59.415295], [24.801374, 59.415192], [24.801384, 59.414989], [24.80159, 59.415161], [24.801842, 59.41523], [24.802393, 59.415272], [24.803246, 59.415272], [24.804193, 59.415237], [24.80566, 59.415112], [24.807129, 59.415058], [24.823513, 59.415028], [24.842693, 59.414959], [24.84544, 59.41497], [24.847782, 59.414959], [24.848991, 59.414925], [24.849487, 59.414829], [24.849842, 59.414646], [24.850056, 59.414425], [24.850126, 59.414192], [24.850126, 59.4137], [24.849937, 59.413364], [24.848946, 59.413239], [24.84873, 59.413235], [24.841413, 59.413246], [24.837437, 59.413223], [24.818481, 59.41333], [24.806946, 59.413467], [24.79541, 59.413651], [24.783234, 59.413696], [24.770966, 59.413788], [24.76252, 59.413643], [24.75968, 59.413456], [24.756683, 59.413055], [24.753523, 59.412525], [24.750366, 59.411774], [24.747557, 59.410896], [24.744905, 59.409874], [24.741968, 59.408382], [24.73979, 59.407078], [24.737612, 59.405636], [24.735535, 59.403992], [24.734013, 59.402519], [24.732592, 59.400982], [24.731323, 59.399414], [24.730042, 59.397583], [24.727383, 59.393719], [24.726288, 59.392044], [24.725098, 59.39035], [24.722458, 59.38641], [24.719788, 59.382751], [24.716776, 59.37859], [24.713654, 59.374466], [24.71081, 59.370583], [24.707588, 59.366299], [24.705963, 59.364212], [24.702667, 59.359772], [24.699444, 59.355408], [24.697739, 59.353081], [24.690825, 59.343582], [24.684196, 59.334553], [24.678892, 59.327335], [24.671505, 59.317513], [24.66478, 59.308296], [24.658081, 59.299118], [24.650848, 59.289459], [24.639404, 59.274261], [24.626423, 59.257133], [24.61496, 59.242035], [24.601135, 59.223663], [24.589783, 59.208389], [24.57793, 59.19252], [24.563873, 59.173965], [24.549707, 59.155231], [24.535313, 59.136147], [24.521769, 59.118221], [24.505953, 59.097275], [24.489378, 59.075211], [24.471382, 59.051003], [24.454241, 59.027912], [24.418121, 58.979141], [24.379515, 58.926895], [24.339844, 58.873077], [24.308624, 58.817867], [24.283905, 58.761539], [24.25827, 58.702976], [24.232635, 58.644367], [24.206247, 58.583862], [24.179535, 58.522263], [24.152645, 58.46022], [24.125534, 58.397278], [24.098419, 58.333958], [24.071228, 58.270229], [24.044819, 58.207947], [24.018772, 58.146149], [23.992218, 58.083042], [23.96641, 58.021591], [23.939209, 57.956818], [23.913116, 57.893806], [23.426525, 56.362579], [23.413795, 56.294922], [23.401508, 56.228733], [23.388939, 56.162209], [23.376562, 56.095921], [23.364262, 56.029671], [23.35187, 55.963394], [23.339809, 55.896397], [23.327398, 55.829235], [23.315163, 55.761642], [23.303129, 55.694473], [23.290638, 55.627331], [23.278131, 55.559322], [23.266071, 55.492252], [23.253777, 55.42432], [23.241453, 55.356655], [23.229362, 55.288982], [23.217766, 55.221287], [23.206165, 55.153172], [23.194504, 55.085533], [23.182657, 55.017956], [23.170612, 54.950348], [23.158791, 54.881927], [23.146709, 54.814053], [23.134386, 54.745941], [23.122614, 54.677933], [23.110489, 54.608776], [23.098803, 54.540138], [23.087633, 54.47279], [23.076061, 54.405304], [23.0602, 54.356457], [23.058006, 54.352055], [23.055597, 54.347546], [23.053207, 54.343361], [23.050798, 54.339264], [23.048067, 54.334785], [23.045382, 54.330673], [23.042421, 54.326317], [23.039665, 54.32243], [23.036537, 54.318138], [23.033365, 54.314106], [23.029839, 54.309669], [23.02659, 54.305691], [22.011276, 53.093365], [22.001125, 53.082829], [21.997726, 53.079247], [21.994154, 53.075546], [21.990978, 53.072254], [21.987728, 53.068851], [21.984133, 53.065151], [21.981043, 53.061954], [21.977657, 53.058483], [21.928698, 53.007706], [21.880358, 52.957199], [21.833239, 52.907539], [21.787823, 52.85952], [21.744156, 52.813076], [21.698143, 52.76442], [21.653337, 52.716969], [21.609406, 52.66991], [21.566751, 52.624268], [21.524563, 52.579208], [21.485092, 52.536869], [21.445898, 52.494556], [21.429958, 52.477409], [21.414005, 52.460163], [21.396263, 52.440834], [21.387407, 52.429153], [21.38538, 52.426079], [21.383675, 52.423397], [21.381863, 52.42041], [21.378635, 52.414364], [21.377161, 52.411282], [21.375717, 52.408119], [21.374523, 52.405319], [21.373287, 52.402256], [21.371037, 52.395847], [21.370113, 52.392826], [21.368361, 52.386631], [21.366503, 52.380527], [21.365669, 52.377563], [21.364607, 52.374393], [21.363708, 52.371571], [21.362061, 52.365467], [21.359959, 52.358799], [21.354311, 52.340195], [21.348593, 52.321045], [21.343241, 52.303112], [21.337172, 52.282677], [21.331928, 52.264809], [21.325935, 52.244545], [21.320704, 52.226871], [21.314974, 52.207764], [21.309193, 52.188114], [21.304447, 52.171589], [21.298813, 52.152943], [21.293953, 52.136944], [21.289009, 52.12104], [21.283741, 52.103359], [21.282343, 52.098404], [21.280766, 52.093212], [21.280041, 52.090721], [21.278612, 52.085506], [21.277769, 52.08308], [21.276993, 52.080662], [21.275585, 52.07568], [21.274851, 52.07325], [21.274223, 52.070732], [21.273474, 52.068237], [21.272665, 52.065704], [21.27199, 52.06311], [21.270573, 52.057884], [21.269682, 52.05521], [21.267643, 52.048023], [21.266796, 52.045345], [21.264767, 52.037907], [21.262465, 52.030544], [21.261465, 52.028099], [21.26033, 52.025726], [21.258823, 52.02343], [21.257198, 52.021324], [21.255123, 52.019279], [21.252518, 52.017124], [21.249516, 52.015205], [21.24716, 52.013905], [21.243874, 52.012478], [21.240736, 52.011353], [21.237492, 52.01033], [21.233711, 52.00956], [21.230173, 52.008907], [21.22654, 52.008381], [21.223038, 52.008003], [21.219452, 52.007748], [21.212734, 52.007504], [21.209396, 52.007431], [21.205624, 52.007534], [21.202299, 52.00771], [21.198874, 52.007984], [21.18902, 52.008675], [21.138714, 52.046452], [21.157892, 52.010319], [21.132906, 52.011414], [21.119585, 52.012074], [21.110443, 52.01284], [21.107447, 52.013245], [21.104259, 52.013973], [21.101351, 52.014786], [21.099134, 52.015648], [21.096519, 52.016911], [21.09444, 52.01823], [21.092325, 52.020008], [21.090651, 52.02169], [21.089224, 52.023438], [21.088097, 52.025227], [21.086866, 52.026928], [21.084635, 52.030571], [21.082296, 52.034073], [21.079775, 52.03727], [21.077188, 52.040325], [21.074312, 52.043484], [21.072721, 52.04512], [21.070272, 52.048046], [21.067621, 52.05093], [21.065035, 52.053841], [21.063892, 52.055191], [21.061304, 52.058033], [21.051201, 52.069679], [21.049841, 52.071114], [21.048683, 52.072433], [21.047592, 52.073803], [21.046276, 52.075287], [21.045019, 52.076832], [21.042765, 52.079441], [21.040136, 52.082306], [21.037544, 52.085285], [21.036331, 52.086613], [21.033831, 52.089638], [21.030083, 52.093983], [21.027647, 52.096733], [21.025423, 52.09935], [21.020592, 52.104771], [21.019419, 52.106201], [21.018288, 52.107441], [21.017155, 52.108795], [21.013775, 52.112572], [21.01149, 52.115276], [21.009308, 52.117775], [21.008215, 52.119083], [21.007113, 52.120235], [21.003643, 52.124062], [21.000164, 52.128365], [20.997961, 52.130772], [20.996918, 52.132042], [20.995739, 52.133358], [20.994585, 52.134289], [20.993418, 52.135445], [20.99143, 52.137836], [20.987494, 52.142078], [20.985594, 52.144215]]}, "properties": {"name": "LO786_4153eb2e", "cmt": "2026-08-24", "tstamp": 1787529600, "desc": "---", "src": "20.985594/52.007431/24.850126/59.415878", "bbox": "20.985594/52.007431/24.850126/59.415878"}}]}