{"type": "FeatureCollection", "name": "TrackSet", "crs": {"type": "name", "properties": {"name": "urn:ogc:def:crs:OGC:1.3:CRS84"}}, "bbox": [101.702438, 1.659355, 103.663017, 2.780685], "features": [{"type": "Feature", "bbox": [101.702438, 1.659355, 103.663017, 2.780685], "geometry": {"type": "LineString", "coordinates": [[103.663017, 1.659355], [103.661118, 1.664987], [103.659317, 1.66941], [103.658371, 1.670853], [103.656845, 1.672714], [103.655586, 1.673859], [103.654518, 1.674683], [103.652931, 1.675781], [103.651726, 1.676468], [103.650276, 1.6772], [103.649071, 1.67775], [103.641182, 1.680955], [103.639526, 1.681686], [103.636734, 1.682863], [103.633987, 1.684074], [103.632454, 1.684799], [103.629059, 1.686308], [103.611778, 1.694366], [103.603821, 1.698179], [103.589043, 1.705022], [103.57547, 1.711258], [103.56144, 1.717778], [103.546425, 1.724854], [103.531601, 1.731883], [103.516495, 1.739052], [103.50106, 1.746361], [103.485336, 1.753856], [103.46701, 1.762561], [103.451645, 1.769806], [103.434235, 1.778046], [103.416306, 1.786514], [103.3974, 1.795427], [103.379303, 1.803909], [103.332558, 1.825928], [103.286522, 1.84758], [103.23616, 1.872098], [103.187691, 1.896057], [103.138435, 1.920364], [103.085281, 1.946396], [103.03083, 1.972977], [102.979836, 1.997955], [102.927605, 2.023499], [102.876923, 2.048298], [102.822563, 2.074833], [102.770851, 2.100065], [102.720863, 2.124527], [102.667519, 2.151031], [102.658112, 2.157257], [102.655365, 2.159363], [102.651894, 2.162258], [102.649292, 2.164586], [102.646523, 2.167236], [102.64389, 2.16994], [102.641304, 2.172729], [102.638824, 2.175572], [102.636269, 2.178784], [102.634415, 2.181244], [102.63224, 2.184324], [102.630722, 2.186559], [102.627991, 2.190903], [102.626465, 2.193542], [102.624519, 2.197126], [102.622963, 2.200105], [102.613052, 2.219696], [102.611511, 2.222672], [102.609375, 2.226883], [102.587212, 2.27037], [102.559555, 2.324586], [102.536514, 2.369659], [102.512955, 2.415875], [102.487244, 2.466198], [102.463707, 2.50721], [102.459114, 2.513216], [102.457123, 2.515636], [102.454704, 2.518523], [102.452621, 2.520897], [102.450722, 2.52301], [102.44593, 2.528], [102.443695, 2.530243], [102.441414, 2.532394], [102.435822, 2.537521], [102.433304, 2.53989], [102.431213, 2.541779], [102.429138, 2.543707], [102.391769, 2.578202], [102.356354, 2.610836], [102.318329, 2.64592], [102.281059, 2.680385], [102.264671, 2.695468], [102.25148, 2.706894], [102.24379, 2.712133], [102.241142, 2.713669], [102.238014, 2.715439], [102.23584, 2.716599], [102.232658, 2.718232], [102.230438, 2.719299], [102.227737, 2.720559], [102.225273, 2.721677], [102.222527, 2.722824], [102.219734, 2.723911], [102.209396, 2.727722], [102.20311, 2.730103], [102.188446, 2.735687], [102.17234, 2.741913], [102.156975, 2.747772], [102.138664, 2.754775], [102.120995, 2.761597], [102.106377, 2.767273], [102.091293, 2.773178], [102.07402, 2.779495], [102.068298, 2.780548], [102.065781, 2.780685], [102.064247, 2.780685], [102.061684, 2.780502], [102.057922, 2.779867], [102.055679, 2.779312], [102.052567, 2.778238], [102.050201, 2.777167], [102.047928, 2.776003], [102.046371, 2.775101], [102.043198, 2.772931], [102.041389, 2.771484], [102.039108, 2.769424], [102.037666, 2.768005], [102.035431, 2.765575], [102.033394, 2.763248], [102.028259, 2.757248], [102.026581, 2.755371], [102.025055, 2.753705], [102.021187, 2.749374], [102.015785, 2.743423], [102.014259, 2.741787], [102.001816, 2.728638], [101.990349, 2.716742], [101.97728, 2.703195], [101.966858, 2.692209], [101.956154, 2.68099], [101.946098, 2.670456], [101.9366, 2.66046], [101.926872, 2.650269], [101.919884, 2.6417], [101.918556, 2.639465], [101.917274, 2.636626], [101.916328, 2.634158], [101.915604, 2.631821], [101.915146, 2.629876], [101.914764, 2.627884], [101.91449, 2.625183], [101.914345, 2.622288], [101.914391, 2.620007], [101.914581, 2.618237], [101.914955, 2.615295], [101.915428, 2.613303], [101.916138, 2.61065], [101.916946, 2.608508], [101.917984, 2.605994], [101.919029, 2.603946], [101.920403, 2.601525], [101.921684, 2.599617], [101.923004, 2.597708], [101.924492, 2.595657], [101.925423, 2.59431], [101.927193, 2.591858], [101.92997, 2.587885], [101.931534, 2.585558], [101.934273, 2.581558], [101.935699, 2.579413], [101.937027, 2.577504], [101.945595, 2.564703], [101.952606, 2.552925], [101.953598, 2.550457], [101.95443, 2.547684], [101.954941, 2.545578], [101.955353, 2.542823], [101.955544, 2.540682], [101.955589, 2.538345], [101.955544, 2.536652], [101.955254, 2.533978], [101.954926, 2.53193], [101.95443, 2.529694], [101.95401, 2.528137], [101.953217, 2.525848], [101.952423, 2.523972], [101.951591, 2.522186], [101.95047, 2.520081], [101.949524, 2.518569], [101.948051, 2.51651], [101.946968, 2.515171], [101.945259, 2.513306], [101.944031, 2.512098], [101.942329, 2.510609], [101.940811, 2.509445], [101.939301, 2.508374], [101.937576, 2.507217], [101.934227, 2.505069], [101.931107, 2.503021], [101.92926, 2.501764], [101.927238, 2.500443], [101.918816, 2.494858], [101.917236, 2.493896], [101.915428, 2.493012], [101.913727, 2.492314], [101.911789, 2.491699], [101.910225, 2.491336], [101.907875, 2.491058], [101.906059, 2.491013], [101.903923, 2.491196], [101.902153, 2.49147], [101.899895, 2.491988], [101.89801, 2.492706], [101.897202, 2.493058], [101.895119, 2.494125], [101.893219, 2.495479], [101.892281, 2.496277], [101.890144, 2.498505], [101.889008, 2.499902], [101.886879, 2.502686], [101.884743, 2.505707], [101.882278, 2.509305], [101.881241, 2.510888], [101.88015, 2.512424], [101.875473, 2.519302], [101.854294, 2.551202], [101.847527, 2.561211], [101.84005, 2.572357], [101.830284, 2.587001], [101.827019, 2.591796], [101.815796, 2.608555], [101.809494, 2.617912], [101.78875, 2.648895], [101.78672, 2.651988], [101.783592, 2.656597], [101.781227, 2.660181], [101.776085, 2.667755], [101.773064, 2.672333], [101.769913, 2.676986], [101.75602, 2.697693], [101.753807, 2.701054], [101.73671, 2.726425], [101.733681, 2.731034], [101.722176, 2.748211], [101.717125, 2.755657], [101.71479, 2.759198], [101.713249, 2.76149], [101.711578, 2.763908], [101.711082, 2.764505], [101.710754, 2.764819], [101.710342, 2.765144], [101.709831, 2.765476], [101.709274, 2.76575], [101.709007, 2.765866], [101.708771, 2.765855], [101.708557, 2.765738], [101.708443, 2.765517], [101.708443, 2.765316], [101.708549, 2.765099], [101.709572, 2.763542], [101.711105, 2.761281], [101.715309, 2.754985], [101.715431, 2.754776], [101.715401, 2.754531], [101.715187, 2.754321], [101.71492, 2.754135], [101.707237, 2.748945], [101.707008, 2.748886], [101.706703, 2.7491], [101.705978, 2.750164], [101.704437, 2.750271], [101.703018, 2.749317], [101.702797, 2.749201], [101.702583, 2.749409], [101.702438, 2.749844]]}, "properties": {"name": "OD2404_3d10550e", "cmt": "2025-11-11", "tstamp": 1762815600, "desc": "---", "src": "101.702438/1.659355/103.663017/2.780685", "bbox": "101.702438/1.659355/103.663017/2.780685"}}]}