{"type": "FeatureCollection", "name": "TrackSet", "crs": {"type": "name", "properties": {"name": "urn:ogc:def:crs:OGC:1.3:CRS84"}}, "bbox": [-73.54686194085625, -53.0064177456913, -70.80273593805379, -33.39036340720132], "features": [{"type": "Feature", "bbox": [-73.54686194085625, -53.0064177456913, -70.80273593805379, -33.39036340720132], "geometry": {"type": "LineString", "coordinates": [[-70.802736, -33.390363], [-72.917787, -41.45464], [-73.546862, -51.33992], [-70.855843, -53.006418]]}, "properties": {"name": "PLANE_Chile", "cmt": "1990-12-29", "tstamp": 662428800, "desc": "UpHill", "src": "-73.54686194085625/-53.0064177456913/-70.80273593805379/-33.39036340720132", "bbox": "-73.54686194085625/-53.0064177456913/-70.80273593805379/-33.39036340720132"}}]}