{"type": "FeatureCollection", "name": "TrackSet", "crs": {"type": "name", "properties": {"name": "urn:ogc:def:crs:OGC:1.3:CRS84"}}, "bbox": [2.560255, 46.114273, 6.127401, 49.017643], "features": [{"type": "Feature", "bbox": [2.560255, 46.114273, 6.127401, 49.017643], "geometry": {"type": "LineString", "coordinates": [[6.108072, 46.231701], [6.107862, 46.231865], [6.107643, 46.231983], [6.107427, 46.232002], [6.107226, 46.231991], [6.107025, 46.231945], [6.107662, 46.232426], [6.107798, 46.232632], [6.107946, 46.233032], [6.108141, 46.233345], [6.111178, 46.235401], [6.111614, 46.236065], [6.110819, 46.236603], [6.110693, 46.236843], [6.110836, 46.23708], [6.112083, 46.237907], [6.117823, 46.241817], [6.120483, 46.243656], [6.124426, 46.246319], [6.125699, 46.2472], [6.126603, 46.247887], [6.126921, 46.248508], [6.127213, 46.249184], [6.12735, 46.249531], [6.127401, 46.249763], [6.127316, 46.250008], [6.127007, 46.250229], [6.126663, 46.250183], [6.126062, 46.249706], [6.123848, 46.248203], [6.118849, 46.244797], [6.112217, 46.240265], [6.106188, 46.236191], [6.098991, 46.231308], [6.092522, 46.226807], [6.08743, 46.22319], [6.079593, 46.21756], [6.074703, 46.214035], [6.071554, 46.211746], [6.065257, 46.20726], [6.059228, 46.203094], [6.053936, 46.19957], [6.047562, 46.19537], [6.040806, 46.190826], [6.034307, 46.186386], [6.027443, 46.181637], [6.021538, 46.17754], [6.013809, 46.172195], [6.007043, 46.167572], [5.991166, 46.157181], [5.97718, 46.148026], [5.963379, 46.13876], [5.949231, 46.129166], [5.939415, 46.12326], [5.936636, 46.121979], [5.933421, 46.120651], [5.930473, 46.119507], [5.926918, 46.11837], [5.924109, 46.117538], [5.920559, 46.116669], [5.91758, 46.116043], [5.914396, 46.115433], [5.910377, 46.114838], [5.906893, 46.114517], [5.903435, 46.114323], [5.900276, 46.114273], [5.896577, 46.11438], [5.892586, 46.114693], [5.88929, 46.115112], [5.885725, 46.115707], [5.883316, 46.11623], [5.879561, 46.117172], [5.8759, 46.118324], [5.872929, 46.11937], [5.870132, 46.120514], [5.867249, 46.121861], [5.864433, 46.123398], [5.861343, 46.125214], [5.858861, 46.126831], [5.856383, 46.128616], [5.853904, 46.130585], [5.851694, 46.132599], [5.849533, 46.134758], [5.847741, 46.13681], [5.845865, 46.139282], [5.844589, 46.141182], [5.84301, 46.14402], [5.84198, 46.146114], [5.839702, 46.150955], [5.836353, 46.158966], [5.83429, 46.164131], [5.832504, 46.168926], [5.830376, 46.174419], [5.824295, 46.190964], [5.816926, 46.211426], [5.810696, 46.2285], [5.802979, 46.249508], [5.786018, 46.295082], [5.768921, 46.340054], [5.751205, 46.386791], [5.732853, 46.434769], [5.714097, 46.483246], [5.695862, 46.530266], [5.682477, 46.558731], [5.680668, 46.561432], [5.678215, 46.564808], [5.675812, 46.56802], [5.671761, 46.573093], [5.666801, 46.579193], [5.664256, 46.582352], [5.662045, 46.585052], [5.659701, 46.587891], [5.657825, 46.590225], [5.623325, 46.632889], [5.588402, 46.675835], [5.552971, 46.71978], [5.515539, 46.765961], [5.476819, 46.811783], [5.43679, 46.859203], [5.398613, 46.904938], [5.382174, 46.927727], [5.380417, 46.931671], [5.379112, 46.93515], [5.37816, 46.938343], [5.377385, 46.941555], [5.376778, 46.945312], [5.376503, 46.9487], [5.376399, 46.952774], [5.376572, 46.955704], [5.376963, 46.959057], [5.377667, 46.963295], [5.378288, 46.966644], [5.378975, 46.969986], [5.380486, 46.976807], [5.382033, 46.983219], [5.38282, 46.986694], [5.386185, 47.000336], [5.398794, 47.052719], [5.410698, 47.104431], [5.422528, 47.155647], [5.433701, 47.206329], [5.444359, 47.258015], [5.454369, 47.309784], [5.462471, 47.362015], [5.465909, 47.414433], [5.467881, 47.465733], [5.467209, 47.469269], [5.466248, 47.472931], [5.465218, 47.476089], [5.463913, 47.479706], [5.462471, 47.482956], [5.460686, 47.486481], [5.459008, 47.489334], [5.457115, 47.492294], [5.45436, 47.496086], [5.452106, 47.49897], [5.449994, 47.501347], [5.447599, 47.503811], [5.444275, 47.507034], [5.441185, 47.509781], [5.437202, 47.512939], [5.43425, 47.515137], [5.429855, 47.518112], [5.426147, 47.520538], [5.422234, 47.523102], [5.418045, 47.525757], [5.414922, 47.52774], [5.410492, 47.530518], [5.40699, 47.532715], [5.402879, 47.535282], [5.398613, 47.537933], [5.394699, 47.540359], [5.391118, 47.542545], [5.387174, 47.54501], [5.32689, 47.582439], [5.268719, 47.618469], [5.21006, 47.654663], [5.149773, 47.691742], [5.088783, 47.729263], [5.028992, 47.765808], [4.967194, 47.803436], [4.905052, 47.841385], [4.844833, 47.877914], [4.788391, 47.912201], [4.729121, 47.948105], [4.668915, 47.984436], [4.609863, 48.020096], [4.552116, 48.054703], [4.494576, 48.089172], [4.435936, 48.124329], [4.379837, 48.157883], [4.326642, 48.189468], [4.269923, 48.223137], [4.215863, 48.255341], [4.160638, 48.288078], [4.105365, 48.320389], [4.053955, 48.35083], [3.999096, 48.383137], [3.944959, 48.414978], [3.892329, 48.44577], [3.841384, 48.475681], [3.791151, 48.504963], [3.739977, 48.534664], [3.687392, 48.558472], [3.630136, 48.583099], [3.572529, 48.60878], [3.569545, 48.610638], [3.566331, 48.612808], [3.563655, 48.614914], [3.560134, 48.617798], [3.555378, 48.622601], [3.551114, 48.627163], [3.548373, 48.630203], [3.54626, 48.632538], [3.541964, 48.637344], [3.537164, 48.642899], [3.535068, 48.645226], [3.532598, 48.648056], [3.519357, 48.663254], [3.506188, 48.678314], [3.492596, 48.693878], [3.479426, 48.708984], [3.466327, 48.723953], [3.454707, 48.737366], [3.443017, 48.750961], [3.429918, 48.766251], [3.418916, 48.779156], [3.406485, 48.793636], [3.395137, 48.806904], [3.383934, 48.819984], [3.37114, 48.834972], [3.359633, 48.848602], [3.348577, 48.861603], [3.336886, 48.875198], [3.324304, 48.889767], [3.3118, 48.902382], [3.310547, 48.903351], [3.306955, 48.905914], [3.305006, 48.907223], [3.299349, 48.910812], [3.296043, 48.912762], [3.293222, 48.914429], [3.290839, 48.915882], [3.286109, 48.918594], [3.282236, 48.920837], [3.279708, 48.922306], [3.261038, 48.933014], [3.244436, 48.942696], [3.227938, 48.952332], [3.211694, 48.961594], [3.191818, 48.972862], [3.172013, 48.983799], [3.163412, 48.988083], [3.160682, 48.989273], [3.15709, 48.990829], [3.154088, 48.992039], [3.150836, 48.993343], [3.144132, 48.995911], [3.141104, 48.997009], [3.134836, 48.99939], [3.120479, 49.004749], [3.117582, 49.005753], [3.114624, 49.006844], [3.104577, 49.010475], [3.092863, 49.014496], [3.089833, 49.015362], [3.086876, 49.016052], [3.082933, 49.016785], [3.079975, 49.017151], [3.07581, 49.01746], [3.072792, 49.017563], [3.066559, 49.017643], [3.058536, 49.017506], [3.05644, 49.01746], [3.048923, 49.017227], [3.045537, 49.017059], [3.039382, 49.016899], [3.033961, 49.016712], [3.02779, 49.016556], [3.025216, 49.016434], [3.016109, 49.016109], [3.00599, 49.015644], [2.997822, 49.015224], [2.987775, 49.014759], [2.979825, 49.014431], [2.970212, 49.014061], [2.96255, 49.013687], [2.953139, 49.01326], [2.943541, 49.012711], [2.935735, 49.012245], [2.926411, 49.011734], [2.916377, 49.011154], [2.909405, 49.010742], [2.899475, 49.010193], [2.889545, 49.009735], [2.881587, 49.009369], [2.871479, 49.008846], [2.864324, 49.008472], [2.853843, 49.00787], [2.846656, 49.007446], [2.836726, 49.006943], [2.826796, 49.006485], [2.817148, 49.006027], [2.807224, 49.005539], [2.797429, 49.00502], [2.789753, 49.004654], [2.779682, 49.004196], [2.769783, 49.003727], [2.759809, 49.003212], [2.750124, 49.002701], [2.742751, 49.002281], [2.732708, 49.001724], [2.722778, 49.001129], [2.715791, 49.000793], [2.705665, 49.000305], [2.696348, 48.999863], [2.689678, 48.999527], [2.680809, 48.999069], [2.672002, 48.99852], [2.6631, 48.998001], [2.654959, 48.997604], [2.646156, 48.997192], [2.639176, 48.996788], [2.637008, 48.996696], [2.634695, 48.996555], [2.628338, 48.996231], [2.623972, 48.995956], [2.621902, 48.995903], [2.619817, 48.995773], [2.615252, 48.995579], [2.608241, 48.995205], [2.600001, 48.99474], [2.583601, 48.993885], [2.577685, 48.993565], [2.573493, 48.993752], [2.571343, 48.994148], [2.567476, 48.99474], [2.560255, 48.99773], [2.562139, 49.007927], [2.581206, 49.008041]]}, "properties": {"name": "AF1643_40d7950f", "cmt": "2026-07-25", "tstamp": 1784930400, "desc": "---", "src": "2.560255/46.114273/6.127401/49.017643", "bbox": "2.560255/46.114273/6.127401/49.017643"}}]}