{"type": "FeatureCollection", "name": "TrackSet", "crs": {"type": "name", "properties": {"name": "urn:ogc:def:crs:OGC:1.3:CRS84"}}, "bbox": [85.35908245004634, 27.68681013588214, 86.72953437571908, 27.696000771336074], "features": [{"type": "Feature", "bbox": [85.35908245004634, 27.68681013588214, 86.72953437571908, 27.696000771336074], "geometry": {"type": "LineString", "coordinates": [[85.359082, 27.696001], [86.729534, 27.68681]]}, "properties": {"name": "PLANE_Katmandu_Lukla", "cmt": "1991-10-28", "tstamp": 688608000, "desc": "UpHill", "src": "85.35908245004634/27.68681013588214/86.72953437571908/27.696000771336074", "bbox": "85.35908245004634/27.68681013588214/86.72953437571908/27.696000771336074"}}]}