{"type": "FeatureCollection", "name": "TrackSet", "crs": {"type": "name", "properties": {"name": "urn:ogc:def:crs:OGC:1.3:CRS84"}}, "bbox": [105.287971, 13.952625, 109.048065, 21.330597], "features": [{"type": "Feature", "bbox": [105.287971, 13.952625, 109.048065, 21.330597], "geometry": {"type": "LineString", "coordinates": [[109.048065, 13.952625], [109.009674, 14.054167], [109.011559, 14.063324], [109.012856, 14.074743], [109.013, 14.077629], [109.013023, 14.080444], [109.013, 14.083169], [109.012932, 14.0858], [109.012756, 14.088942], [109.012367, 14.094063], [109.012085, 14.096622], [109.011604, 14.10022], [109.011261, 14.102489], [109.010635, 14.106213], [109.00985, 14.110519], [109.00808, 14.119015], [109.007294, 14.122559], [109.003601, 14.137482], [108.999313, 14.154161], [108.994972, 14.17092], [108.990685, 14.187912], [108.985962, 14.206998], [108.981003, 14.227993], [108.976418, 14.247528], [108.971825, 14.267075], [108.966667, 14.289047], [108.961967, 14.309739], [108.957809, 14.332214], [108.94838, 14.384501], [108.939201, 14.437134], [108.928574, 14.493713], [108.918312, 14.548784], [108.907707, 14.607147], [108.896248, 14.664322], [108.885071, 14.722366], [108.874748, 14.77739], [108.860779, 14.838293], [108.853554, 14.858185], [108.852104, 14.86203], [108.829506, 14.920486], [108.80619, 14.980603], [108.782524, 15.040741], [108.756508, 15.105503], [108.731644, 15.166397], [108.703064, 15.231491], [108.667145, 15.290408], [108.627663, 15.351857], [108.587639, 15.414284], [108.545952, 15.47941], [108.506371, 15.540999], [108.464455, 15.605804], [108.422256, 15.671066], [108.379829, 15.736938], [108.341003, 15.797653], [108.300041, 15.861832], [108.261543, 15.922668], [108.223763, 15.983002], [108.183792, 16.046511], [108.144981, 16.107239], [108.10022, 16.172836], [108.057281, 16.235184], [108.014641, 16.297714], [107.551384, 16.978958], [107.50946, 17.040028], [107.467682, 17.100906], [107.425049, 17.163298], [107.382729, 17.225166], [107.342903, 17.283216], [107.300865, 17.344433], [107.259377, 17.404903], [107.216263, 17.467703], [107.176308, 17.52594], [107.136314, 17.584084], [107.094627, 17.644508], [107.052696, 17.705166], [107.011559, 17.764801], [106.970444, 17.824339], [106.930275, 17.885044], [106.895531, 17.95079], [106.862053, 18.017485], [106.827972, 18.084686], [106.795013, 18.149872], [106.763908, 18.211441], [106.729431, 18.279556], [106.696274, 18.345026], [106.664154, 18.408463], [106.630997, 18.473831], [106.598991, 18.536915], [106.565437, 18.603111], [106.53183, 18.669682], [106.498322, 18.736252], [106.465759, 18.800858], [106.435097, 18.861477], [106.404236, 18.922415], [106.371674, 18.987076], [106.341675, 19.046677], [106.318489, 19.083672], [106.304939, 19.101379], [106.26651, 19.150473], [106.227448, 19.200165], [106.189926, 19.247772], [106.151421, 19.296524], [106.115494, 19.34334], [106.092674, 19.372248], [106.089424, 19.375275], [106.086632, 19.377686], [106.083588, 19.38007], [106.080307, 19.382446], [106.076576, 19.384918], [106.073196, 19.386911], [106.068924, 19.389267], [106.065407, 19.391008], [106.061867, 19.3927], [106.057594, 19.394623], [106.053474, 19.396456], [106.048767, 19.398514], [106.04068, 19.401993], [106.028366, 19.407166], [106.025421, 19.408356], [105.966225, 19.433533], [105.906975, 19.454269], [105.898712, 19.456322], [105.83654, 19.471218], [105.775436, 19.486084], [105.715744, 19.501198], [105.657715, 19.515768], [105.607674, 19.530014], [105.599556, 19.534058], [105.59584, 19.536251], [105.5924, 19.538486], [105.588715, 19.541061], [105.585052, 19.54398], [105.583405, 19.54533], [105.576019, 19.552406], [105.572975, 19.555893], [105.570671, 19.558689], [105.567726, 19.562714], [105.565529, 19.565813], [105.560806, 19.572739], [105.558746, 19.575897], [105.55529, 19.581314], [105.548203, 19.593138], [105.5457, 19.597549], [105.541336, 19.605881], [105.538834, 19.610962], [105.532906, 19.623917], [105.529716, 19.631516], [105.506561, 19.68782], [105.483185, 19.742432], [105.459869, 19.796814], [105.43618, 19.852249], [105.412819, 19.906481], [105.390862, 19.956894], [105.367828, 20.008804], [105.345543, 20.058792], [105.319939, 20.117363], [105.305351, 20.158422], [105.304703, 20.170712], [105.304802, 20.17602], [105.305183, 20.186737], [105.305351, 20.190311], [105.305504, 20.195198], [105.305672, 20.198593], [105.306099, 20.210979], [105.307602, 20.261349], [105.308846, 20.312696], [105.311592, 20.332249], [105.312393, 20.335098], [105.313789, 20.33951], [105.314796, 20.342377], [105.318436, 20.351986], [105.320824, 20.358261], [105.324028, 20.366791], [105.340111, 20.41041], [105.356186, 20.454391], [105.371689, 20.496185], [105.388496, 20.541267], [105.404251, 20.583618], [105.418961, 20.622828], [105.433243, 20.661255], [105.448296, 20.701904], [105.450943, 20.715546], [105.45092, 20.71826], [105.450775, 20.72068], [105.450172, 20.724871], [105.449425, 20.728035], [105.448578, 20.730829], [105.447807, 20.732758], [105.446281, 20.735996], [105.444962, 20.738342], [105.44313, 20.741117], [105.44104, 20.743835], [105.439178, 20.745941], [105.436478, 20.748688], [105.431671, 20.752991], [105.429497, 20.75485], [105.425102, 20.758713], [105.422256, 20.761181], [105.41774, 20.765121], [105.415565, 20.767], [105.410522, 20.771469], [105.376495, 20.802429], [105.344955, 20.831755], [105.331375, 20.845734], [105.329903, 20.847794], [105.328918, 20.849396], [105.327255, 20.852509], [105.326126, 20.854889], [105.324799, 20.85791], [105.322929, 20.862572], [105.32019, 20.869949], [105.314255, 20.886841], [105.301506, 20.924789], [105.290268, 20.963104], [105.287971, 20.977137], [105.288063, 20.979172], [105.288422, 20.982304], [105.288971, 20.985189], [105.290268, 20.989426], [105.291107, 20.991394], [105.29248, 20.994232], [105.293716, 20.996317], [105.295616, 20.998993], [105.297661, 21.001436], [105.299591, 21.003479], [105.302361, 21.005905], [105.304398, 21.007416], [105.306755, 21.008978], [105.308861, 21.010162], [105.311844, 21.011585], [105.314453, 21.012634], [105.316742, 21.013401], [105.319588, 21.014145], [105.322334, 21.014704], [105.324982, 21.015078], [105.327728, 21.015263], [105.330376, 21.015402], [105.33976, 21.015495], [105.342308, 21.015472], [105.345352, 21.015518], [105.348152, 21.015495], [105.35334, 21.015589], [105.35614, 21.01561], [105.361481, 21.015728], [105.40126, 21.0168], [105.442184, 21.018057], [105.457809, 21.018539], [105.473656, 21.018951], [105.489571, 21.01936], [105.505096, 21.019821], [105.520889, 21.020233], [105.537018, 21.020662], [105.552475, 21.021103], [105.567627, 21.021502], [105.584152, 21.021927], [105.597298, 21.023392], [105.599701, 21.024124], [105.602058, 21.024994], [105.603935, 21.025784], [105.606133, 21.026947], [105.609077, 21.028763], [105.610924, 21.030121], [105.613609, 21.032488], [105.615181, 21.034163], [105.617516, 21.037033], [105.618767, 21.03891], [105.620461, 21.041977], [105.621437, 21.044033], [105.623108, 21.048843], [105.623627, 21.051201], [105.624107, 21.054703], [105.62426, 21.058273], [105.624107, 21.060837], [105.623711, 21.063766], [105.623108, 21.066513], [105.622162, 21.069717], [105.621407, 21.072052], [105.618462, 21.080383], [105.614067, 21.092697], [105.613274, 21.095123], [105.612434, 21.097567], [105.607277, 21.113159], [105.602928, 21.126896], [105.597389, 21.144882], [105.592644, 21.159988], [105.588699, 21.168182], [105.586952, 21.170746], [105.585274, 21.172749], [105.583397, 21.174658], [105.581413, 21.176422], [105.57943, 21.177916], [105.576836, 21.179592], [105.574493, 21.180849], [105.572052, 21.181967], [105.568695, 21.18313], [105.566727, 21.183701], [105.563255, 21.18462], [105.557793, 21.185989], [105.551811, 21.187412], [105.543259, 21.189606], [105.540771, 21.190207], [105.535118, 21.191711], [105.519562, 21.196026], [105.503754, 21.200592], [105.486855, 21.205523], [105.4711, 21.210114], [105.456314, 21.214462], [105.443062, 21.218325], [105.412041, 21.227215], [105.389153, 21.235062], [105.379944, 21.242577], [105.377754, 21.245323], [105.376587, 21.247187], [105.37442, 21.25145], [105.373024, 21.255753], [105.372368, 21.259104], [105.372108, 21.261198], [105.372009, 21.264364], [105.372169, 21.267197], [105.373077, 21.272278], [105.374069, 21.276352], [105.382355, 21.308167], [105.382759, 21.309265], [105.399338, 21.327896], [105.403984, 21.329636], [105.407524, 21.330322], [105.409676, 21.330551], [105.413872, 21.330597], [105.416267, 21.33046], [105.421242, 21.329956], [105.426399, 21.329224], [105.430962, 21.328421], [105.433098, 21.327988], [105.434929, 21.327581], [105.443878, 21.325487], [105.450371, 21.32373], [105.46331, 21.320068], [105.47541, 21.316595], [105.48838, 21.312918], [105.501305, 21.30924], [105.524086, 21.302629], [105.540215, 21.298004], [105.546364, 21.296251], [105.55542, 21.293598], [105.563431, 21.291321], [105.583649, 21.285545], [105.591644, 21.283264], [105.607628, 21.278641], [105.614616, 21.276581], [105.621849, 21.274513], [105.628548, 21.272552], [105.637108, 21.270136], [105.644783, 21.267929], [105.666656, 21.261612], [105.675446, 21.25914], [105.692444, 21.254215], [105.697227, 21.252819], [105.70266, 21.251221], [105.706955, 21.249985], [105.718193, 21.24678], [105.723381, 21.245316], [105.72718, 21.24416], [105.731606, 21.242857], [105.735321, 21.241791], [105.741325, 21.24011], [105.745186, 21.238947], [105.749847, 21.237625], [105.755241, 21.236069], [105.760094, 21.234663], [105.785156, 21.227417], [105.791145, 21.225677]]}, "properties": {"name": "VN7626_40e79f81", "cmt": "2026-07-29", "tstamp": 1785276000, "desc": "---", "src": "105.287971/13.952625/109.048065/21.330597", "bbox": "105.287971/13.952625/109.048065/21.330597"}}]}