{"type": "FeatureCollection", "name": "TrackSet", "crs": {"type": "name", "properties": {"name": "urn:ogc:def:crs:OGC:1.3:CRS84"}}, "bbox": [5.813622, 45.996597, 20.984688, 52.183567], "features": [{"type": "Feature", "bbox": [5.813622, 45.996597, 20.984688, 52.183567], "geometry": {"type": "LineString", "coordinates": [[20.969507, 52.174759], [20.970194, 52.174992], [20.970402, 52.175011], [20.970606, 52.174957], [20.969919, 52.175758], [20.969664, 52.176014], [20.969448, 52.176098], [20.969219, 52.176098], [20.968702, 52.175934], [20.966249, 52.175014], [20.965481, 52.17461], [20.964289, 52.174202], [20.964088, 52.174026], [20.964111, 52.173817], [20.964289, 52.173584], [20.965073, 52.172665], [20.966642, 52.170883], [20.969944, 52.167091], [20.970287, 52.166782], [20.970644, 52.166611], [20.980225, 52.16391], [20.983658, 52.16296], [20.984221, 52.162796], [20.984476, 52.162689], [20.984688, 52.162376], [20.984592, 52.162121], [20.984058, 52.161427], [20.98381, 52.161232], [20.983524, 52.161186], [20.983276, 52.161232], [20.982056, 52.161564], [20.980513, 52.162014], [20.979885, 52.162155], [20.979309, 52.162354], [20.974045, 52.163818], [20.967026, 52.165787], [20.957754, 52.168392], [20.948944, 52.170868], [20.942841, 52.17247], [20.933456, 52.17485], [20.927429, 52.176544], [20.923004, 52.177872], [20.918362, 52.179192], [20.916519, 52.179749], [20.908865, 52.181892], [20.906296, 52.182541], [20.903702, 52.183044], [20.901413, 52.183365], [20.899124, 52.183548], [20.896231, 52.183567], [20.894165, 52.183456], [20.8918, 52.183273], [20.889435, 52.182999], [20.884617, 52.182404], [20.881792, 52.182034], [20.87883, 52.181717], [20.874176, 52.181259], [20.869785, 52.180962], [20.864607, 52.180729], [20.858765, 52.180435], [20.854326, 52.180077], [20.851746, 52.179794], [20.84907, 52.179424], [20.394785, 52.094563], [19.848633, 51.989868], [19.234314, 51.868378], [19.143974, 51.850159], [19.054337, 51.832054], [18.970049, 51.814911], [18.879633, 51.796463], [18.788179, 51.77774], [18.696823, 51.758919], [18.60453, 51.739838], [17.95311, 51.602505], [17.856718, 51.581772], [17.762369, 51.559708], [17.670172, 51.538193], [17.575527, 51.516083], [17.48103, 51.493881], [17.38876, 51.472183], [17.297306, 51.450531], [17.205048, 51.428631], [17.112427, 51.406567], [17.02042, 51.384476], [16.930304, 51.362778], [16.839294, 51.340805], [16.746445, 51.318302], [16.656876, 51.296471], [16.566086, 51.274265], [16.476593, 51.252293], [16.391068, 51.231155], [16.305237, 51.209881], [16.218948, 51.188469], [16.134388, 51.167358], [16.050034, 51.146244], [15.965065, 51.124924], [15.368314, 50.972534], [15.283813, 50.951565], [15.19617, 50.933304], [15.110507, 50.915863], [15.024323, 50.898285], [14.936582, 50.880203], [14.850388, 50.860367], [14.76852, 50.8358], [14.687653, 50.810696], [14.606247, 50.785278], [14.524668, 50.75972], [14.442062, 50.733746], [14.36203, 50.708469], [14.280014, 50.682537], [14.199106, 50.656815], [14.117648, 50.630814], [14.035179, 50.604492], [13.953231, 50.578217], [13.871946, 50.55196], [13.789994, 50.525333], [13.710418, 50.4967], [13.630692, 50.468166], [13.551487, 50.439861], [13.472356, 50.411556], [13.393893, 50.383392], [13.314613, 50.354904], [10.672725, 49.352371], [10.600257, 49.323395], [10.52624, 49.293732], [10.453419, 49.264511], [10.381574, 49.232716], [10.363721, 49.222893], [10.355671, 49.218201], [10.350422, 49.214981], [10.288133, 49.174896], [10.22567, 49.136494], [10.158668, 49.100647], [10.09221, 49.065582], [10.02582, 49.030445], [9.961219, 48.996231], [9.891992, 48.959381], [9.827126, 48.924866], [9.762003, 48.890045], [9.696374, 48.854897], [9.630925, 48.819763], [9.563382, 48.783394], [9.496885, 48.747456], [9.428438, 48.710445], [9.36, 48.673325], [9.292482, 48.636662], [9.222248, 48.600723], [9.151118, 48.567352], [9.083236, 48.528149], [9.079911, 48.525867], [9.075059, 48.522354], [9.017592, 48.478409], [8.960001, 48.434017], [8.902901, 48.389889], [8.846886, 48.346455], [8.789766, 48.302078], [8.732396, 48.257401], [8.676019, 48.213409], [8.619425, 48.16909], [8.563772, 48.125469], [8.508137, 48.081806], [8.45034, 48.036255], [8.395808, 47.993168], [8.33968, 47.948757], [8.283554, 47.90419], [8.227492, 47.859612], [8.171223, 47.814827], [8.116905, 47.771347], [8.06143, 47.726936], [7.626572, 47.375153], [7.574087, 47.334549], [7.516973, 47.297771], [7.45752, 47.26062], [7.399841, 47.224457], [7.341682, 47.187927], [7.284076, 47.151691], [7.227013, 47.115646], [7.170158, 47.079666], [7.113014, 47.043503], [7.055969, 47.007286], [6.999629, 46.971394], [6.942796, 46.935131], [6.919133, 46.918369], [6.916175, 46.91581], [6.912598, 46.912445], [6.9104, 46.910294], [6.90702, 46.90678], [6.904485, 46.904034], [6.902936, 46.902264], [6.900032, 46.898712], [6.89709, 46.895], [6.895157, 46.892395], [6.893028, 46.889374], [6.891174, 46.886536], [6.888908, 46.882965], [6.886986, 46.879852], [6.885132, 46.876831], [6.883216, 46.873634], [6.881385, 46.870655], [6.879227, 46.867069], [6.877977, 46.864975], [6.849038, 46.816635], [6.820902, 46.76976], [6.793302, 46.723526], [6.765656, 46.677322], [6.735021, 46.633484], [6.702072, 46.591995], [6.67083, 46.55233], [6.639862, 46.512901], [6.610152, 46.475189], [6.58061, 46.437515], [6.550665, 46.401123], [6.543457, 46.394611], [6.541152, 46.392746], [6.538445, 46.39056], [6.535835, 46.388607], [6.532745, 46.38628], [6.530067, 46.384418], [6.52787, 46.382927], [6.524204, 46.380432], [6.521278, 46.37846], [6.516031, 46.374985], [6.472046, 46.345268], [6.454937, 46.333694], [6.437851, 46.322128], [6.417556, 46.30838], [6.40036, 46.296761], [6.383537, 46.285309], [6.365974, 46.273453], [6.346252, 46.260075], [6.328795, 46.248184], [6.311508, 46.236473], [6.295097, 46.2253], [6.27795, 46.213623], [6.258992, 46.20076], [6.241976, 46.189178], [6.225698, 46.178192], [6.206245, 46.165157], [6.187447, 46.152512], [6.171364, 46.141647], [6.152812, 46.12912], [6.135933, 46.117718], [6.117509, 46.10527], [6.099335, 46.092953], [6.083344, 46.082016], [6.067406, 46.070934], [6.049347, 46.058365], [6.031561, 46.046036], [6.020977, 46.039948], [6.017627, 46.038574], [6.014814, 46.037521], [6.012, 46.03656], [6.006239, 46.034821], [6.003136, 46.033878], [5.996819, 46.032108], [5.991051, 46.030525], [5.987281, 46.029465], [5.9844, 46.028687], [5.977661, 46.026897], [5.956198, 46.021133], [5.934883, 46.015678], [5.91654, 46.011063], [5.894714, 46.005482], [5.874596, 46.000362], [5.860335, 45.997101], [5.856674, 45.996685], [5.853971, 45.996597], [5.850288, 45.996685], [5.847954, 45.996918], [5.844793, 45.997375], [5.841087, 45.998173], [5.837961, 45.999069], [5.835214, 46.000076], [5.832602, 46.001221], [5.830123, 46.002502], [5.827711, 46.003967], [5.824965, 46.005844], [5.822486, 46.007904], [5.82061, 46.009735], [5.818935, 46.011703], [5.817529, 46.013763], [5.816256, 46.015915], [5.815251, 46.018112], [5.814313, 46.020905], [5.813844, 46.023148], [5.813622, 46.025684], [5.81369, 46.028107], [5.813828, 46.029922], [5.814112, 46.032578], [5.814651, 46.035507], [5.815407, 46.037788], [5.81639, 46.039764], [5.817879, 46.042072], [5.819939, 46.044445], [5.821816, 46.046127], [5.824265, 46.04789], [5.826668, 46.049381], [5.829277, 46.050732], [5.840841, 46.056015], [5.843454, 46.057251], [5.846375, 46.058739], [5.848915, 46.060089], [5.851936, 46.06181], [5.854408, 46.063301], [5.857053, 46.064987], [5.859464, 46.066589], [5.864555, 46.070114], [5.86958, 46.07373], [5.874135, 46.077026], [5.876882, 46.078995], [5.883522, 46.083691], [5.898252, 46.093964], [5.913391, 46.104401], [5.922636, 46.110809], [5.929469, 46.115479], [5.937767, 46.121162], [5.945814, 46.126694], [5.95253, 46.131218], [5.960289, 46.136528], [5.967636, 46.141506], [5.975533, 46.146954], [5.9813, 46.150909], [5.988621, 46.155945], [5.995989, 46.161026], [6.00356, 46.166245], [6.008972, 46.169952], [6.015751, 46.17453], [6.021982, 46.178741], [6.026413, 46.181774], [6.032432, 46.185883], [6.03826, 46.189819], [6.044197, 46.193974], [6.049759, 46.197788], [6.056076, 46.202072], [6.061773, 46.205933], [6.067406, 46.209751], [6.071732, 46.212685], [6.077705, 46.216782], [6.081871, 46.219666], [6.087364, 46.223373], [6.091651, 46.226303], [6.097206, 46.230095], [6.102699, 46.233822], [6.105171, 46.235497], [6.106441, 46.236347], [6.106724, 46.236443], [6.107075, 46.23642], [6.107276, 46.236053], [6.107214, 46.235821], [6.106724, 46.234612], [6.106407, 46.234066], [6.105978, 46.233704], [6.103506, 46.231995], [6.103475, 46.231739], [6.103726, 46.23151], [6.103994, 46.231327], [6.10458, 46.23127], [6.105, 46.231274]]}, "properties": {"name": "LO415_4154b493", "cmt": "2026-08-24", "tstamp": 1787529600, "desc": "---", "src": "5.813622/45.996597/20.984688/52.183567", "bbox": "5.813622/45.996597/20.984688/52.183567"}}]}