{"type": "FeatureCollection", "name": "TrackSet", "crs": {"type": "name", "properties": {"name": "urn:ogc:def:crs:OGC:1.3:CRS84"}}, "bbox": [24.800537, 59.412853, 25.143822, 60.324097], "features": [{"type": "Feature", "bbox": [24.800537, 59.412853, 25.143822, 60.324097], "geometry": {"type": "LineString", "coordinates": [[24.975454, 60.313404], [24.976494, 60.31366], [24.976265, 60.313904], [24.976191, 60.314163], [24.975973, 60.314449], [24.975664, 60.314735], [24.975475, 60.314976], [24.975689, 60.315182], [24.975897, 60.315292], [24.976093, 60.31551], [24.975996, 60.315788], [24.972513, 60.31918], [24.968941, 60.32262], [24.96854, 60.32309], [24.968657, 60.323341], [24.968916, 60.323502], [24.97011, 60.324032], [24.970354, 60.324089], [24.970598, 60.324097], [24.970919, 60.324009], [24.972563, 60.322426], [24.975334, 60.319702], [24.978594, 60.316525], [24.979691, 60.315536], [24.98193, 60.313313], [24.983383, 60.311966], [24.986933, 60.308891], [24.991247, 60.305305], [24.992571, 60.304276], [24.99625, 60.30135], [24.998064, 60.300018], [24.999485, 60.29892], [25.003706, 60.295761], [25.009787, 60.291061], [25.011702, 60.289536], [25.016438, 60.285645], [25.021835, 60.281113], [25.027445, 60.276722], [25.029318, 60.275162], [25.035379, 60.270401], [25.043041, 60.264248], [25.049025, 60.25959], [25.057447, 60.253464], [25.065592, 60.247513], [25.067297, 60.246048], [25.069231, 60.244087], [25.070604, 60.242226], [25.071585, 60.240459], [25.072315, 60.238861], [25.073547, 60.235474], [25.074211, 60.233368], [25.074627, 60.231754], [25.075411, 60.22784], [25.076, 60.223049], [25.076389, 60.219131], [25.07649, 60.217369], [25.076674, 60.215744], [25.076883, 60.212246], [25.07806, 60.197163], [25.078747, 60.191532], [25.08012, 60.182873], [25.08169, 60.174541], [25.08316, 60.168118], [25.08522, 60.15955], [25.086807, 60.153076], [25.088947, 60.144421], [25.090811, 60.13739], [25.09297, 60.128826], [25.0965, 60.115185], [25.099972, 60.101761], [25.10327, 60.088558], [25.106604, 60.075291], [25.110037, 60.06179], [25.113514, 60.047516], [25.116903, 60.033718], [25.120043, 60.020451], [25.12377, 60.004669], [25.127106, 59.991077], [25.130468, 59.977936], [25.133972, 59.963928], [25.13615, 59.949738], [25.137192, 59.932934], [25.137667, 59.916176], [25.13855, 59.883636], [25.139191, 59.869171], [25.139938, 59.854401], [25.140747, 59.840195], [25.141571, 59.826462], [25.142307, 59.81213], [25.143822, 59.780102], [25.143726, 59.764835], [25.141171, 59.749611], [25.137287, 59.734249], [25.132507, 59.716324], [25.12829, 59.700127], [25.124407, 59.684532], [25.120972, 59.669128], [25.117859, 59.653976], [25.114178, 59.637745], [25.109344, 59.620285], [25.104858, 59.605225], [25.099731, 59.589661], [25.092957, 59.572632], [25.086182, 59.558075], [25.078661, 59.543571], [25.073181, 59.533997], [25.068695, 59.526718], [25.06275, 59.517548], [25.057983, 59.510376], [25.052238, 59.501629], [25.047363, 59.493896], [25.041962, 59.485428], [25.036652, 59.477509], [25.031067, 59.469223], [25.027519, 59.463921], [25.022186, 59.455765], [25.019089, 59.450653], [25.014828, 59.443668], [25.011017, 59.437042], [25.008671, 59.432732], [25.005798, 59.428116], [25.0047, 59.426926], [25.003462, 59.425747], [25.002136, 59.424583], [25.000622, 59.423512], [24.998537, 59.422161], [24.996826, 59.421204], [24.995033, 59.4203], [24.992523, 59.419327], [24.990875, 59.418732], [24.988214, 59.417973], [24.986115, 59.41745], [24.981773, 59.416622], [24.97934, 59.416214], [24.977133, 59.415878], [24.972492, 59.415318], [24.970787, 59.415085], [24.968536, 59.414886], [24.964348, 59.414436], [24.962128, 59.414246], [24.955633, 59.413643], [24.951845, 59.413456], [24.946447, 59.413273], [24.944363, 59.413177], [24.939697, 59.41301], [24.935461, 59.412899], [24.933187, 59.412899], [24.930725, 59.412853], [24.917358, 59.412918], [24.900417, 59.413086], [24.884216, 59.413101], [24.875605, 59.413177], [24.873426, 59.413177], [24.87149, 59.413147], [24.869543, 59.413177], [24.867554, 59.413147], [24.864899, 59.413193], [24.85903, 59.413177], [24.853821, 59.413223], [24.849152, 59.413204], [24.809473, 59.413319], [24.807531, 59.413364], [24.80694, 59.413445], [24.806301, 59.413631], [24.805969, 59.413784], [24.805164, 59.414215], [24.804932, 59.414394], [24.80484, 59.414646], [24.80514, 59.415588], [24.805164, 59.416485], [24.80514, 59.41674], [24.804951, 59.417007], [24.804714, 59.417194], [24.804453, 59.417297], [24.802917, 59.417461], [24.80088, 59.417484], [24.800652, 59.417461], [24.800537, 59.417141], [24.800537, 59.416924]]}, "properties": {"name": "AY1019_413feeae", "cmt": "2026-08-19", "tstamp": 1787097600, "desc": "---", "src": "24.800537/59.412853/25.143822/60.324097", "bbox": "24.800537/59.412853/25.143822/60.324097"}}]}