{"type": "FeatureCollection", "name": "TrackSet", "crs": {"type": "name", "properties": {"name": "urn:ogc:def:crs:OGC:1.3:CRS84"}}, "bbox": [31.39821, 25.67455, 32.70035, 30.11508], "features": [{"type": "Feature", "bbox": [31.39821, 25.67455, 32.70035, 30.11508], "geometry": {"type": "LineString", "coordinates": [[32.70035, 25.67455], [31.39821, 30.11508]]}, "properties": {"name": "PLANE_Egypt", "cmt": "1992-10-10", "tstamp": 718675200, "desc": "UpHill", "src": "31.39821/25.67455/32.70035/30.11508", "bbox": "31.39821/25.67455/32.70035/30.11508"}}]}