{"type": "FeatureCollection", "name": "TrackSet", "crs": {"type": "name", "properties": {"name": "urn:ogc:def:crs:OGC:1.3:CRS84"}}, "bbox": [-68.234526, -20.446719, -66.843403, -16.509612], "features": [{"type": "Feature", "bbox": [-68.234526, -20.446719, -66.843403, -16.509612], "geometry": {"type": "LineString", "coordinates": [[-68.176895, -16.509625], [-68.176835, -16.509612], [-68.176821, -16.509708], [-68.176834, -16.509699], [-68.176911, -16.509784], [-68.176918, -16.509848], [-68.176993, -16.509941], [-68.177112, -16.510023], [-68.177375, -16.510053], [-68.177566, -16.510035], [-68.17752, -16.510024], [-68.176449, -16.510544], [-68.175514, -16.511271], [-68.173964, -16.512561], [-68.173818, -16.512751], [-68.173789, -16.512825], [-68.173835, -16.512842], [-68.17383, -16.512814], [-68.173753, -16.512824], [-68.17375, -16.512904], [-68.173655, -16.513074], [-68.173611, -16.513249], [-68.173596, -16.513516], [-68.173638, -16.513923], [-68.173776, -16.513982], [-68.176828, -16.513833], [-68.181304, -16.513697], [-68.184638, -16.513558], [-68.190804, -16.513369], [-68.19342, -16.513244], [-68.197852, -16.513105], [-68.20674, -16.51279], [-68.20853, -16.512781], [-68.209428, -16.512803], [-68.211233, -16.512954], [-68.212131, -16.513071], [-68.213029, -16.51322], [-68.213925, -16.513407], [-68.214826, -16.513618], [-68.215728, -16.513905], [-68.216613, -16.514234], [-68.218414, -16.514971], [-68.219287, -16.515398], [-68.220148, -16.515869], [-68.221002, -16.516373], [-68.221839, -16.516912], [-68.223501, -16.518182], [-68.22431, -16.518855], [-68.22509, -16.519575], [-68.22586, -16.520315], [-68.226599, -16.521096], [-68.228004, -16.52275], [-68.228669, -16.523619], [-68.229273, -16.524526], [-68.229844, -16.525469], [-68.230391, -16.52645], [-68.230898, -16.52744], [-68.231834, -16.529509], [-68.232266, -16.530574], [-68.232986, -16.532777], [-68.233299, -16.533906], [-68.233565, -16.535052], [-68.233797, -16.536198], [-68.234004, -16.537352], [-68.234172, -16.538517], [-68.234401, -16.540861], [-68.234475, -16.542034], [-68.234526, -16.544411], [-68.234518, -16.545604], [-68.234492, -16.546799], [-68.234365, -16.549204], [-68.234125, -16.551628], [-68.233954, -16.552849], [-68.233546, -16.555295], [-68.233311, -16.556514], [-68.232788, -16.55895], [-68.232179, -16.561408], [-68.231501, -16.563871], [-68.230767, -16.566335], [-68.229555, -16.570053], [-68.227781, -16.575067], [-68.225472, -16.58143], [-68.222188, -16.590688], [-68.219764, -16.597475], [-68.216737, -16.605873], [-68.215726, -16.608737], [-68.212081, -16.618957], [-68.208829, -16.627987], [-68.201974, -16.646787], [-68.199074, -16.654812], [-68.19732, -16.659644], [-68.193225, -16.671013], [-68.190275, -16.679189], [-68.186717, -16.689098], [-68.183709, -16.697415], [-68.181269, -16.704092], [-68.179451, -16.709122], [-68.177005, -16.715867], [-68.173295, -16.726031], [-68.171463, -16.731113], [-68.167206, -16.743058], [-68.165942, -16.746485], [-68.162243, -16.756666], [-68.160443, -16.761724], [-68.156242, -16.773458], [-68.155611, -16.77511], [-68.151435, -16.786698], [-68.146621, -16.799831], [-68.145441, -16.8031], [-68.141842, -16.812978], [-68.138266, -16.822953], [-68.134609, -16.83303], [-68.132777, -16.838111], [-68.129727, -16.846547], [-68.127289, -16.853308], [-68.126066, -16.856708], [-68.123015, -16.865217], [-68.11934, -16.875429], [-68.1175, -16.880518], [-68.115662, -16.885668], [-68.111387, -16.897717], [-68.108295, -16.906361], [-68.105819, -16.913311], [-68.104588, -16.916793], [-68.102728, -16.922011], [-68.100247, -16.929002], [-68.098366, -16.93426], [-68.097126, -16.937762], [-68.095238, -16.943026], [-68.092703, -16.950053], [-68.090175, -16.957139], [-68.088235, -16.962479], [-68.086309, -16.967828], [-68.08245, -16.978521], [-68.078561, -16.989258], [-68.077285, -16.99283], [-68.075322, -16.998216], [-68.072688, -17.005492], [-68.070666, -17.011014], [-68.068678, -17.016572], [-68.064617, -17.027825], [-68.063854, -17.02976], [-68.063148, -17.031676], [-68.05835, -17.045196], [-68.056249, -17.051069], [-68.054129, -17.056988], [-68.05057, -17.066991], [-68.04769, -17.075045], [-68.045479, -17.081099], [-68.041847, -17.091276], [-68.038924, -17.099434], [-68.036715, -17.105563], [-68.033745, -17.113754], [-68.031556, -17.119915], [-68.02787, -17.130211], [-68.02339, -17.142623], [-68.022588, -17.144722], [-68.020426, -17.150985], [-68.018212, -17.157234], [-68.015229, -17.165565], [-68.014445, -17.167654], [-68.011427, -17.17601], [-68.008375, -17.184366], [-68.00533, -17.192748], [-68.003022, -17.199051], [-68.00073, -17.205365], [-67.995345, -17.220139], [-67.993824, -17.224393], [-67.991514, -17.230778], [-67.982289, -17.256444], [-67.979188, -17.265008], [-67.969089, -17.292793], [-67.965218, -17.303479], [-67.962093, -17.312026], [-67.959765, -17.318441], [-67.955092, -17.331272], [-67.95353, -17.335542], [-67.952005, -17.339815], [-67.948131, -17.350496], [-67.945825, -17.356869], [-67.943523, -17.363221], [-67.941213, -17.369557], [-67.939679, -17.373811], [-67.936626, -17.382227], [-67.933574, -17.39062], [-67.93129, -17.396887], [-67.930527, -17.398968], [-67.92672, -17.409299], [-67.923696, -17.417522], [-67.917711, -17.433864], [-67.91473, -17.441959], [-67.911767, -17.450058], [-67.911064, -17.452073], [-67.908087, -17.460149], [-67.905883, -17.466191], [-67.902897, -17.474224], [-67.899939, -17.482243], [-67.896952, -17.490244], [-67.894732, -17.496251], [-67.893269, -17.500264], [-67.889607, -17.510289], [-67.887423, -17.516307], [-67.883796, -17.526322], [-67.882355, -17.530334], [-67.879484, -17.538348], [-67.878052, -17.542354], [-67.875192, -17.550369], [-67.872355, -17.558373], [-67.870216, -17.564375], [-67.868794, -17.568381], [-67.865948, -17.57639], [-67.862355, -17.586381], [-67.85945, -17.594356], [-67.853651, -17.61033], [-67.851493, -17.616323], [-67.848593, -17.6243], [-67.84498, -17.63429], [-67.842802, -17.640285], [-67.839204, -17.650277], [-67.836313, -17.658276], [-67.834149, -17.664277], [-67.831976, -17.670263], [-67.828361, -17.680261], [-67.826177, -17.686254], [-67.824731, -17.690249], [-67.821091, -17.700253], [-67.81744, -17.710269], [-67.814523, -17.718237], [-67.811614, -17.726211], [-67.809438, -17.732188], [-67.806543, -17.740151], [-67.803655, -17.74812], [-67.801492, -17.754123], [-67.798579, -17.76215], [-67.796407, -17.76813], [-67.794227, -17.7741], [-67.79206, -17.780073], [-67.788439, -17.790033], [-67.785555, -17.797985], [-67.78052, -17.811914], [-67.779088, -17.81589], [-67.775495, -17.825815], [-67.772637, -17.833758], [-67.770479, -17.839704], [-67.767611, -17.847641], [-67.764006, -17.857566], [-67.76113, -17.865512], [-67.759701, -17.869481], [-67.756847, -17.877431], [-67.75469, -17.883393], [-67.752545, -17.889358], [-67.751822, -17.89134], [-67.751095, -17.893321], [-67.746744, -17.905221], [-67.744577, -17.911177], [-67.741678, -17.919112], [-67.740239, -17.923078], [-67.737343, -17.931029], [-67.735907, -17.935007], [-67.7323, -17.944933], [-67.731576, -17.946918], [-67.727933, -17.956848], [-67.726482, -17.96082], [-67.722102, -17.972702], [-67.718466, -17.982612], [-67.715535, -17.990543], [-67.713354, -17.99649], [-67.710388, -18.004419], [-67.706022, -18.016328], [-67.703851, -18.022291], [-67.700937, -18.030247], [-67.697327, -18.040153], [-67.694459, -18.04808], [-67.692301, -18.054028], [-67.690867, -18.058], [-67.688008, -18.065934], [-67.685877, -18.071891], [-67.683736, -18.077852], [-67.679445, -18.089779], [-67.675147, -18.101697], [-67.673703, -18.105662], [-67.670111, -18.11559], [-67.666496, -18.125485], [-67.664315, -18.131425], [-67.661396, -18.139345], [-67.657736, -18.149234], [-67.65555, -18.155166], [-67.652652, -18.163105], [-67.650475, -18.169053], [-67.648289, -18.175012], [-67.644686, -18.184931], [-67.641798, -18.192849], [-67.638887, -18.200783], [-67.635242, -18.210689], [-67.628666, -18.228521], [-67.624248, -18.240408], [-67.622783, -18.244388], [-67.617616, -18.258317], [-67.61466, -18.266279], [-67.612438, -18.272235], [-67.610972, -18.276216], [-67.608785, -18.28219], [-67.606614, -18.288182], [-67.604424, -18.294175], [-67.602248, -18.300162], [-67.600066, -18.306141], [-67.593498, -18.324074], [-67.59131, -18.330072], [-67.589844, -18.334059], [-67.585473, -18.346015], [-67.581837, -18.356], [-67.578181, -18.365954], [-67.576717, -18.369932], [-67.573806, -18.377897], [-67.570186, -18.387845], [-67.564339, -18.403786], [-67.562889, -18.407774], [-67.559983, -18.415748], [-67.557815, -18.421731], [-67.554936, -18.429708], [-67.552046, -18.437668], [-67.549174, -18.445641], [-67.546287, -18.453599], [-67.544115, -18.459572], [-67.543385, -18.461571], [-67.53974, -18.471496], [-67.536837, -18.479446], [-67.53466, -18.485418], [-67.533205, -18.489392], [-67.529579, -18.49934], [-67.526678, -18.507309], [-67.52522, -18.511293], [-67.5223, -18.519248], [-67.520117, -18.525217], [-67.517209, -18.533181], [-67.512813, -18.545124], [-67.509144, -18.555068], [-67.505494, -18.565018], [-67.501856, -18.574979], [-67.499685, -18.580963], [-67.498258, -18.58496], [-67.495432, -18.592948], [-67.493353, -18.598947], [-67.491251, -18.60494], [-67.48777, -18.614915], [-67.485697, -18.620903], [-67.482917, -18.628903], [-67.473272, -18.656854], [-67.469812, -18.66685], [-67.465723, -18.678831], [-67.464339, -18.682823], [-67.460865, -18.692795], [-67.456709, -18.704779], [-67.453917, -18.712764], [-67.452512, -18.716749], [-67.451115, -18.720738], [-67.448313, -18.728707], [-67.445513, -18.736645], [-67.443377, -18.742595], [-67.441271, -18.748565], [-67.437722, -18.758539], [-67.433491, -18.770484], [-67.429939, -18.780407], [-67.427818, -18.786364], [-67.424985, -18.794309], [-67.416464, -18.818154], [-67.413643, -18.826111], [-67.410133, -18.836074], [-67.406608, -18.846041], [-67.400231, -18.864014], [-67.397403, -18.872013], [-67.39385, -18.882004], [-67.390312, -18.89201], [-67.388205, -18.898002], [-67.384699, -18.908004], [-67.37979, -18.922033], [-67.376253, -18.932038], [-67.374133, -18.938043], [-67.369196, -18.95207], [-67.365709, -18.962083], [-67.364308, -18.966086], [-67.360809, -18.976093], [-67.359409, -18.980101], [-67.358018, -18.984119], [-67.355245, -18.992122], [-67.353849, -18.99614], [-67.351764, -19.002186], [-67.348976, -19.010227], [-67.347569, -19.014237], [-67.346152, -19.018244], [-67.344037, -19.024263], [-67.341915, -19.030282], [-67.340519, -19.034293], [-67.337053, -19.044345], [-67.334961, -19.050364], [-67.334261, -19.052369], [-67.330747, -19.062385], [-67.328629, -19.068402], [-67.327201, -19.072409], [-67.325077, -19.078425], [-67.322942, -19.084427], [-67.321482, -19.088431], [-67.318634, -19.096473], [-67.315771, -19.104468], [-67.312182, -19.114468], [-67.310754, -19.118473], [-67.306447, -19.130498], [-67.302856, -19.140529], [-67.301411, -19.144539], [-67.298526, -19.152556], [-67.297087, -19.156567], [-67.295636, -19.160572], [-67.292018, -19.170591], [-67.287694, -19.182628], [-67.286241, -19.186628], [-67.283364, -19.19463], [-67.279066, -19.206646], [-67.276264, -19.214598], [-67.27213, -19.226574], [-67.271428, -19.228579], [-67.267934, -19.238602], [-67.265842, -19.244624], [-67.263754, -19.250662], [-67.26234, -19.254687], [-67.258827, -19.264737], [-67.256739, -19.270765], [-67.251805, -19.284819], [-67.246888, -19.298728], [-67.244777, -19.304616], [-67.243371, -19.308514], [-67.241976, -19.3124], [-67.239191, -19.320133], [-67.236407, -19.327798], [-67.233652, -19.335412], [-67.230229, -19.344864], [-67.228861, -19.348633], [-67.227502, -19.352394], [-67.226136, -19.356141], [-67.222762, -19.365485], [-67.220761, -19.371053], [-67.22012, -19.372912], [-67.217463, -19.380292], [-67.214854, -19.387659], [-67.212912, -19.393165], [-67.210325, -19.400477], [-67.209028, -19.404123], [-67.205799, -19.413227], [-67.203214, -19.420492], [-67.201292, -19.425928], [-67.196197, -19.440292], [-67.194935, -19.443865], [-67.193665, -19.44742], [-67.184364, -19.47417], [-67.180498, -19.485075], [-67.179191, -19.488666], [-67.177922, -19.492309], [-67.177276, -19.494134], [-67.173459, -19.505057], [-67.170375, -19.514166], [-67.169103, -19.517836], [-67.166571, -19.525216], [-67.164654, -19.53078], [-67.163358, -19.534515], [-67.161429, -19.540151], [-67.158157, -19.549603], [-67.152825, -19.564911], [-67.150795, -19.57071], [-67.14737, -19.580472], [-67.142477, -19.59431], [-67.140365, -19.600305], [-67.138246, -19.606346], [-67.136819, -19.610382], [-67.133926, -19.618446], [-67.131021, -19.626601], [-67.127372, -19.636876], [-67.125177, -19.643097], [-67.121424, -19.653501], [-67.119199, -19.659727], [-67.115532, -19.670027], [-67.112595, -19.678144], [-67.11113, -19.682172], [-67.108202, -19.690141], [-67.104599, -19.699986], [-67.102409, -19.705801], [-67.09879, -19.71555], [-67.097337, -19.719448], [-67.090878, -19.737152], [-67.088775, -19.743086], [-67.088102, -19.745075], [-67.086812, -19.749071], [-67.085605, -19.753068], [-67.08452, -19.757081], [-67.08354, -19.761107], [-67.082662, -19.765161], [-67.081859, -19.769225], [-67.080799, -19.775289], [-67.080483, -19.777306], [-67.079909, -19.781367], [-67.079405, -19.785399], [-67.07523, -19.825365], [-67.069573, -19.881249], [-67.068503, -19.892577], [-67.067518, -19.903894], [-67.066929, -19.911368], [-67.065997, -19.924317], [-67.065289, -19.935401], [-67.064881, -19.942756], [-67.064741, -19.94644], [-67.064699, -19.948283], [-67.064673, -19.950126], [-67.06469, -19.953804], [-67.064942, -19.962959], [-67.065433, -19.975757], [-67.066799, -20.004964], [-67.067836, -20.030363], [-67.068311, -20.041166], [-67.068982, -20.055433], [-67.069268, -20.062492], [-67.069371, -20.064247], [-67.069523, -20.067735], [-67.069664, -20.072964], [-67.069675, -20.074704], [-67.069646, -20.076442], [-67.069598, -20.078168], [-67.06941, -20.081616], [-67.069098, -20.085045], [-67.068903, -20.086762], [-67.068427, -20.090181], [-67.068158, -20.091868], [-67.067849, -20.093548], [-67.067186, -20.096885], [-67.066822, -20.098545], [-67.066447, -20.100198], [-67.065651, -20.103476], [-67.065228, -20.105102], [-67.064337, -20.108325], [-67.063375, -20.111515], [-67.062356, -20.114663], [-67.061229, -20.117775], [-67.059501, -20.122361], [-67.057652, -20.126858], [-67.054458, -20.134228], [-67.051266, -20.141464], [-67.049386, -20.145763], [-67.047543, -20.15004], [-67.042163, -20.16268], [-67.040399, -20.166895], [-67.037499, -20.173895], [-67.03294, -20.184964], [-67.031821, -20.187701], [-67.029058, -20.194498], [-67.026861, -20.199855], [-67.025754, -20.202519], [-67.023532, -20.207792], [-67.021322, -20.213006], [-67.019129, -20.218152], [-67.01532, -20.226964], [-67.010095, -20.239268], [-67.006985, -20.246338], [-67.004402, -20.252159], [-67.001336, -20.259018], [-67.000333, -20.261284], [-66.99736, -20.26802], [-66.991237, -20.282154], [-66.989004, -20.287462], [-66.986419, -20.293766], [-66.985159, -20.296888], [-66.981873, -20.30512], [-66.980259, -20.309189], [-66.978632, -20.313234], [-66.976648, -20.318267], [-66.974645, -20.323233], [-66.973046, -20.327133], [-66.971496, -20.330977], [-66.968432, -20.3385], [-66.965381, -20.345825], [-66.963525, -20.350304], [-66.961025, -20.356358], [-66.957876, -20.363954], [-66.956822, -20.366406], [-66.953792, -20.373532], [-66.95148, -20.378932], [-66.950427, -20.381158], [-66.949648, -20.382589], [-66.949224, -20.383278], [-66.948776, -20.383954], [-66.948302, -20.384609], [-66.947287, -20.385876], [-66.946746, -20.386487], [-66.946135, -20.387046], [-66.945569, -20.387627], [-66.944979, -20.388178], [-66.943067, -20.389717], [-66.94241, -20.390191], [-66.941009, -20.391074], [-66.938178, -20.39277], [-66.927939, -20.398848], [-66.924645, -20.400865], [-66.91947, -20.404071], [-66.91816, -20.404822], [-66.917528, -20.405217], [-66.914406, -20.40722], [-66.911968, -20.408893], [-66.907055, -20.412302], [-66.903922, -20.414423], [-66.90202, -20.415674], [-66.897555, -20.418509], [-66.894301, -20.420474], [-66.891007, -20.422354], [-66.884372, -20.425988], [-66.881759, -20.42748], [-66.876583, -20.430458], [-66.873375, -20.43226], [-66.867245, -20.435732], [-66.860761, -20.439444], [-66.849935, -20.44546], [-66.849495, -20.445668], [-66.849009, -20.445833], [-66.848763, -20.445891], [-66.848297, -20.44595], [-66.847887, -20.445934], [-66.847499, -20.44586], [-66.84686, -20.445696], [-66.846421, -20.445714], [-66.846247, -20.445758], [-66.846089, -20.445836], [-66.844699, -20.44665], [-66.844458, -20.446719], [-66.844214, -20.446659], [-66.844109, -20.446607], [-66.843564, -20.44609], [-66.843451, -20.445895], [-66.843403, -20.445742]]}, "properties": {"name": "PLANE_La_Paz_Uyuni.gpx", "cmt": "2018-07-11", "tstamp": 1531260000, "desc": "---", "src": "-68.234526/-20.446719/-66.843403/-16.509612", "bbox": "-68.234526/-20.446719/-66.843403/-16.509612"}}]}