{"type": "FeatureCollection", "name": "TrackSet", "crs": {"type": "name", "properties": {"name": "urn:ogc:def:crs:OGC:1.3:CRS84"}}, "bbox": [-123.183889, 37.618889, -71.006389, 50.143611], "features": [{"type": "Feature", "bbox": [-123.183889, 37.618889, -71.006389, 50.143611], "geometry": {"type": "LineString", "coordinates": [[-123.183889, 49.194722], [-122.949167, 50.143611], [-123.183889, 49.194722], [-122.375, 37.618889], [-87.904722, 41.978611], [-71.006389, 42.363056], [-73.778889, 40.639722]]}, "properties": {"name": "PLANE_USA", "cmt": "2013-07-23", "tstamp": 1374537600, "desc": "UpHill", "src": "-123.183889/37.618889/-71.006389/50.143611", "bbox": "-123.183889/37.618889/-71.006389/50.143611"}}]}