{"type": "FeatureCollection", "name": "TrackSet", "crs": {"type": "name", "properties": {"name": "urn:ogc:def:crs:OGC:1.3:CRS84"}}, "bbox": [89.9208337, 47.7113209, 106.7700749, 48.9920857], "features": [{"type": "Feature", "bbox": [89.9208337, 47.7113209, 106.7700749, 48.9920857], "geometry": {"type": "LineString", "coordinates": [[106.770075, 47.840817], [96.526737, 47.711321], [89.920834, 48.992086]]}, "properties": {"name": "PLANE_Mongolia", "cmt": "2017-07-02", "tstamp": 1498953600, "desc": "UpHill", "src": "89.9208337/47.7113209/106.7700749/48.9920857", "bbox": "89.9208337/47.7113209/106.7700749/48.9920857"}}]}