{"type": "FeatureCollection", "name": "TrackSet", "crs": {"type": "name", "properties": {"name": "urn:ogc:def:crs:OGC:1.3:CRS84"}}, "bbox": [138.532854, -35.304195, 151.174582, -33.941081], "features": [{"type": "Feature", "bbox": [138.532854, -35.304195, 151.174582, -33.941081], "geometry": {"type": "LineString", "coordinates": [[138.532854, -34.94862], [149.190283, -35.304195], [151.174582, -33.941081], [149.190283, -35.304195]]}, "properties": {"name": "PLANE_Australia", "cmt": "2019-11-03", "tstamp": 1572739200, "desc": "UpHill", "src": "138.532854/-35.304195/151.174582/-33.941081", "bbox": "138.532854/-35.304195/151.174582/-33.941081"}}]}