{"type": "FeatureCollection", "name": "TrackSet", "crs": {"type": "name", "properties": {"name": "urn:ogc:def:crs:OGC:1.3:CRS84"}}, "bbox": [55.069645, 2.474579, 101.822144, 25.382328], "features": [{"type": "Feature", "bbox": [55.069645, 2.474579, 101.822144, 25.382328], "geometry": {"type": "LineString", "coordinates": [[101.71508, 2.748344], [101.715225, 2.74813], [101.715332, 2.747909], [101.715485, 2.747704], [101.715904, 2.747757], [101.715729, 2.74752], [101.715759, 2.747315], [101.715881, 2.747108], [101.716194, 2.746687], [101.716957, 2.745552], [101.717041, 2.745337], [101.716957, 2.745104], [101.716743, 2.7449], [101.715546, 2.744064], [101.705124, 2.737004], [101.704811, 2.736818], [101.704582, 2.736864], [101.704376, 2.737083], [101.699928, 2.743731], [101.699707, 2.743824], [101.699493, 2.74371], [101.699287, 2.743538], [101.698364, 2.742916], [101.698311, 2.742707], [101.698639, 2.74229], [101.701698, 2.737747], [101.706398, 2.730743], [101.709106, 2.726658], [101.713242, 2.72049], [101.717247, 2.714401], [101.72023, 2.709806], [101.724365, 2.703644], [101.728615, 2.697237], [101.731979, 2.692116], [101.736282, 2.685699], [101.740646, 2.679221], [101.745827, 2.671692], [101.749504, 2.66629], [101.75499, 2.658226], [101.760391, 2.650265], [101.766121, 2.641708], [101.770622, 2.634996], [101.776833, 2.625778], [101.7826, 2.617074], [101.788422, 2.608337], [101.794289, 2.599594], [101.798988, 2.592634], [101.805229, 2.583481], [101.811142, 2.5746], [101.816727, 2.56572], [101.819054, 2.560822], [101.819893, 2.558578], [101.820724, 2.555904], [101.821335, 2.553406], [101.821846, 2.550339], [101.822098, 2.547664], [101.822144, 2.545802], [101.822098, 2.542544], [101.821709, 2.539444], [101.821289, 2.536835], [101.820625, 2.534118], [101.819801, 2.531342], [101.818588, 2.528252], [101.81752, 2.525848], [101.816269, 2.523504], [101.814941, 2.521316], [101.813095, 2.518661], [101.811531, 2.516707], [101.809357, 2.51438], [101.807739, 2.512756], [101.805695, 2.511017], [101.803505, 2.509323], [101.800644, 2.507257], [101.791695, 2.500973], [101.788895, 2.499017], [101.786797, 2.497604], [101.78437, 2.495911], [101.782326, 2.494537], [101.780136, 2.493027], [101.777435, 2.491241], [101.774788, 2.489428], [101.76091, 2.480536], [101.752907, 2.476905], [101.750023, 2.476067], [101.746712, 2.475266], [101.744476, 2.474945], [101.742012, 2.474716], [101.739128, 2.474579], [101.735962, 2.474579], [101.733208, 2.47481], [101.730186, 2.475266], [101.726814, 2.475927], [101.724457, 2.476593], [101.721809, 2.477463], [101.719101, 2.478534], [101.716316, 2.479889], [101.713936, 2.481188], [101.711006, 2.483002], [101.708961, 2.484512], [101.706596, 2.486448], [101.702675, 2.490417], [101.700867, 2.492733], [101.698906, 2.495407], [101.697174, 2.4979], [101.694427, 2.502183], [101.690826, 2.507723], [101.685951, 2.514985], [101.677818, 2.526947], [101.666458, 2.544296], [101.655983, 2.560455], [101.643425, 2.579553], [101.632484, 2.596265], [101.620316, 2.6147], [101.604736, 2.635462], [101.592529, 2.648849], [101.589226, 2.6521], [101.585983, 2.655246], [101.580429, 2.660339], [101.577789, 2.662648], [101.574425, 2.665512], [101.57206, 2.667583], [101.569122, 2.670097], [101.523216, 2.710327], [101.47699, 2.75061], [101.429695, 2.791718], [101.381454, 2.833262], [101.335617, 2.878744], [101.293991, 2.93042], [101.254654, 2.98114], [101.211967, 3.036118], [101.171608, 3.087982], [101.128632, 3.143067], [101.09568, 3.191803], [101.093353, 3.196323], [101.089233, 3.20447], [101.08445, 3.214199], [101.082504, 3.218249], [101.080223, 3.223114], [101.051346, 3.283329], [101.019524, 3.349201], [100.995636, 3.391617], [100.992531, 3.3958], [100.989677, 3.39949], [100.986702, 3.403244], [100.980507, 3.41051], [100.976761, 3.4147], [100.973526, 3.418121], [100.970451, 3.421234], [100.966682, 3.424896], [100.963173, 3.428246], [100.96003, 3.431122], [100.952751, 3.437371], [100.949181, 3.440231], [100.944756, 3.44371], [100.940987, 3.446594], [100.937309, 3.449295], [100.928932, 3.455573], [100.921593, 3.461112], [100.86264, 3.505197], [100.802116, 3.549981], [100.743279, 3.593719], [100.681458, 3.63978], [100.621872, 3.684357], [100.561958, 3.729263], [100.505539, 3.771469], [100.444786, 3.816879], [100.389389, 3.858215], [100.333069, 3.900286], [100.275986, 3.942947], [100.21804, 3.986175], [99.57682, 4.463699], [99.519051, 4.509064], [99.463791, 4.556168], [98.475433, 5.4137], [98.421768, 5.460068], [98.368698, 5.505981], [98.315369, 5.552099], [98.294029, 5.570572], [98.247337, 5.610901], [98.134163, 5.707214], [98.064987, 5.750427], [98.02095, 5.772079], [97.918159, 5.822845], [97.852013, 5.855347], [97.785469, 5.887927], [97.722038, 5.91893], [97.632751, 5.962457], [97.569435, 5.993414], [97.501152, 6.026699], [97.431786, 6.060425], [97.363724, 6.093658], [97.299133, 6.125064], [97.234306, 6.156627], [97.169571, 6.188142], [97.103592, 6.220276], [97.039162, 6.25164], [96.971291, 6.284683], [96.905334, 6.31672], [96.840981, 6.348003], [96.775673, 6.379751], [96.710411, 6.411346], [96.644073, 6.443574], [96.575645, 6.476766], [96.510422, 6.508301], [96.445374, 6.539891], [96.378632, 6.57225], [96.312973, 6.604087], [96.245964, 6.636566], [96.180832, 6.668106], [95.515839, 6.989182], [95.44799, 7.021846], [95.382462, 7.053406], [95.317947, 7.084459], [95.25251, 7.115929], [95.18441, 7.148701], [95.110085, 7.184418], [95.043518, 7.216415], [94.975716, 7.248975], [94.90786, 7.281561], [94.83493, 7.316569], [94.7696, 7.347931], [94.697632, 7.382355], [94.616341, 7.421311], [94.552345, 7.451981], [94.506439, 7.473953], [94.386528, 7.531081], [94.310089, 7.564911], [94.236671, 7.597183], [94.047348, 7.681503], [93.995949, 7.704442], [92.293869, 8.462545], [92.188507, 8.509377], [92.086884, 8.554299], [92.018829, 8.584396], [91.945602, 8.617584], [91.902313, 8.638275], [91.762741, 8.70471], [91.67897, 8.744233], [91.642319, 8.761368], [91.516579, 8.820419], [91.450943, 8.851227], [91.366188, 8.890965], [91.291451, 8.926025], [91.27092, 8.935684], [91.056725, 9.036022], [90.88369, 9.117116], [90.827934, 9.143097], [90.589584, 9.254425], [90.534447, 9.280095], [90.415207, 9.335586], [90.350258, 9.365845], [90.322098, 9.378983], [90.186295, 9.44219], [90.123413, 9.471405], [90.064217, 9.498891], [89.913086, 9.568954], [89.853386, 9.596651], [89.722778, 9.65712], [86.423096, 11.260986], [84.042809, 12.425676], [83.9785, 12.456619], [83.930244, 12.47991], [83.812286, 12.536751], [83.788132, 12.548355], [83.665909, 12.607178], [83.602219, 12.637802], [83.538284, 12.668518], [83.478386, 12.69841], [83.413033, 12.731415], [83.351006, 12.762483], [83.285934, 12.794952], [83.224937, 12.825302], [83.161766, 12.856705], [83.098709, 12.888126], [83.035103, 12.919736], [82.968987, 12.952515], [82.903397, 12.985062], [82.838409, 13.017262], [82.772438, 13.049989], [82.710808, 13.080505], [82.647209, 13.111997], [82.584274, 13.143082], [82.521637, 13.174004], [82.459526, 13.204775], [82.395851, 13.236191], [82.331879, 13.267667], [82.26577, 13.300346], [82.20443, 13.330466], [82.140388, 13.361889], [82.077072, 13.393032], [82.01133, 13.425385], [81.949379, 13.455691], [81.884987, 13.487366], [81.822006, 13.518173], [81.756889, 13.550125], [81.69249, 13.581528], [81.628654, 13.61293], [81.56662, 13.643097], [81.501602, 13.67482], [81.438576, 13.705582], [81.374687, 13.736801], [81.311424, 13.7677], [81.246979, 13.799154], [81.183754, 13.830002], [81.120018, 13.86113], [81.056839, 13.891932], [80.992912, 13.923065], [80.930977, 13.953102], [80.866455, 13.984525], [80.802979, 14.015488], [80.738091, 14.048441], [80.6763, 14.079941], [80.611191, 14.1129], [80.54541, 14.146088], [80.482658, 14.177624], [80.415802, 14.211227], [80.351067, 14.24382], [80.289604, 14.274673], [80.226357, 14.30634], [80.16391, 14.33767], [80.099709, 14.369934], [80.039017, 14.40033], [79.974266, 14.432739], [79.912094, 14.463827], [79.848007, 14.495809], [79.787682, 14.525928], [79.726051, 14.556699], [79.666008, 14.586679], [79.605103, 14.616983], [79.544388, 14.647243], [79.480736, 14.678898], [79.416695, 14.710693], [79.354866, 14.741409], [79.290886, 14.77312], [79.226013, 14.805313], [79.161507, 14.837311], [79.099548, 14.867947], [79.035744, 14.899384], [78.972374, 14.930695], [78.906799, 14.963053], [78.843628, 14.994197], [78.78344, 15.023987], [78.722923, 15.053741], [78.663826, 15.082832], [78.60379, 15.1123], [78.543961, 15.141586], [78.482307, 15.171886], [78.41906, 15.202835], [78.357819, 15.23291], [78.294113, 15.264038], [78.234802, 15.29306], [78.172829, 15.323364], [78.113136, 15.352509], [78.048836, 15.383606], [77.985634, 15.413864], [77.921593, 15.444489], [77.860596, 15.473684], [77.799294, 15.502991], [77.733276, 15.534575], [77.671379, 15.564136], [77.605446, 15.595642], [77.54483, 15.624573], [77.482765, 15.654144], [77.42173, 15.683216], [77.357628, 15.713708], [77.295731, 15.743222], [77.230598, 15.774505], [77.164642, 15.806213], [77.103638, 15.835327], [77.041771, 15.864909], [76.980431, 15.894196], [76.918175, 15.923938], [76.855103, 15.953964], [76.789673, 15.985107], [76.727142, 16.0149], [76.662354, 16.04567], [76.600899, 16.074907], [76.539627, 16.104034], [76.475586, 16.134293], [76.415848, 16.162611], [76.35527, 16.191284], [76.292625, 16.220993], [76.230614, 16.250244], [76.166962, 16.280319], [76.107117, 16.308517], [76.042458, 16.338997], [75.982216, 16.367294], [75.921692, 16.395401], [75.857033, 16.42543], [75.796249, 16.453655], [75.733047, 16.483017], [75.668579, 16.512917], [75.608055, 16.540987], [75.54657, 16.569351], [75.480927, 16.599644], [75.41642, 16.630646], [75.35556, 16.662003], [75.297066, 16.69194], [75.232704, 16.724497], [75.169243, 16.756338], [75.105385, 16.7883], [75.042503, 16.819748], [74.981255, 16.850418], [74.919388, 16.881271], [74.856216, 16.912857], [74.795311, 16.943386], [74.731461, 16.975342], [74.670296, 17.005812], [74.609383, 17.036118], [74.550331, 17.065521], [74.48539, 17.097752], [74.422348, 17.129196], [74.359085, 17.160599], [74.298775, 17.190485], [74.23526, 17.222048], [74.170662, 17.254074], [74.107506, 17.285294], [74.04422, 17.316595], [73.981407, 17.347641], [73.917587, 17.37916], [73.85672, 17.409187], [73.795898, 17.439167], [73.732521, 17.470413], [73.667953, 17.502182], [73.606903, 17.532074], [73.547058, 17.561462], [73.483162, 17.592773], [73.419128, 17.624222], [73.359184, 17.653564], [73.295479, 17.684692], [73.231155, 17.716187], [73.169907, 17.745987], [73.106949, 17.776625], [73.044518, 17.806976], [72.982277, 17.837219], [72.922142, 17.866516], [72.859207, 17.897141], [72.798256, 17.926662], [72.733566, 17.957991], [72.669983, 17.988693], [72.610039, 18.01767], [72.55072, 18.046326], [72.488579, 18.076374], [72.428673, 18.105286], [71.881798, 18.367512], [71.330795, 18.629425], [71.269112, 18.658602], [71.205841, 18.68849], [71.142799, 18.718185], [71.081596, 18.747051], [71.016724, 18.77759], [70.953354, 18.807383], [70.89772, 18.8335], [70.673103, 18.938801], [70.488434, 19.025108], [70.415939, 19.058899], [69.73719, 19.373154], [67.423347, 20.46348], [63.516056, 22.262695], [61.646168, 23.008537], [61.092426, 23.217278], [61.030651, 23.240387], [60.9669, 23.264202], [60.906105, 23.286896], [60.842541, 23.310614], [60.780014, 23.333908], [60.713894, 23.358444], [60.68222, 23.370201], [60.569225, 23.411819], [59.49773, 23.799362], [59.43166, 23.822891], [59.368717, 23.845314], [59.30415, 23.868301], [59.24408, 23.889725], [59.180916, 23.912115], [59.120541, 23.933483], [59.055737, 23.954178], [58.989868, 23.974823], [58.927967, 23.994507], [58.866474, 24.014236], [58.803204, 24.034515], [58.74229, 24.054054], [58.679352, 24.074158], [57.732635, 24.371819], [57.671001, 24.39093], [57.608337, 24.410339], [57.544365, 24.430149], [57.481556, 24.449514], [57.417858, 24.46907], [57.356415, 24.488068], [57.295151, 24.506914], [57.232464, 24.526108], [57.171326, 24.544876], [57.111561, 24.563187], [57.051121, 24.581583], [56.991474, 24.599646], [56.933239, 24.617477], [56.874744, 24.635422], [56.818848, 24.658768], [56.812031, 24.662384], [56.756947, 24.692459], [56.705219, 24.720978], [56.654358, 24.749176], [56.602428, 24.777786], [56.551464, 24.805801], [56.501183, 24.833525], [56.451176, 24.860897], [56.399586, 24.886368], [56.348267, 24.904129], [56.295166, 24.917633], [56.243317, 24.930725], [56.193409, 24.943108], [56.143608, 24.955166], [56.091995, 24.967688], [56.075878, 24.973553], [56.072041, 24.975368], [56.06971, 24.976532], [56.065979, 24.978487], [56.063698, 24.979792], [56.060333, 24.981766], [56.057583, 24.983515], [56.05489, 24.985336], [56.052906, 24.986755], [56.049553, 24.989241], [56.046806, 24.991428], [56.044312, 24.993439], [56.04126, 24.995956], [56.03653, 24.999802], [56.033901, 25.001949], [56.028797, 25.006027], [56.02623, 25.008141], [56.010693, 25.020721], [55.992962, 25.035234], [55.977276, 25.048096], [55.961765, 25.060839], [55.944317, 25.075104], [55.928699, 25.087784], [55.91151, 25.101654], [55.893658, 25.116165], [55.878174, 25.128805], [55.85957, 25.143934], [55.843506, 25.155579], [55.823872, 25.167801], [55.803783, 25.179016], [55.785419, 25.187622], [55.782063, 25.188858], [55.779011, 25.189911], [55.775806, 25.190918], [55.772755, 25.191833], [55.769245, 25.192795], [55.766136, 25.193605], [55.759762, 25.195002], [55.757446, 25.19545], [55.735474, 25.199387], [55.731506, 25.200073], [55.728046, 25.200682], [55.709702, 25.203894], [55.686291, 25.207901], [55.666454, 25.211243], [55.644508, 25.215019], [55.624763, 25.21837], [55.601349, 25.222366], [55.581337, 25.225821], [55.561829, 25.228912], [55.539856, 25.231018], [55.521088, 25.23175], [55.499928, 25.2323], [55.482098, 25.232803], [55.460865, 25.233353], [55.443386, 25.233734], [55.426331, 25.234222], [55.405918, 25.234665], [55.388897, 25.235001], [55.369072, 25.235456], [55.351662, 25.235874], [55.33202, 25.236807], [55.316059, 25.239166], [55.311237, 25.240158], [55.297611, 25.243603], [55.295174, 25.244207], [55.292583, 25.244814], [55.277657, 25.248444], [55.259933, 25.252867], [55.242817, 25.257156], [55.226925, 25.261152], [55.220188, 25.262783], [55.205002, 25.266554], [55.192307, 25.27079], [55.190277, 25.271667], [55.188938, 25.27228], [55.186867, 25.273302], [55.184483, 25.274559], [55.176849, 25.278992], [55.173138, 25.281052], [55.169117, 25.283295], [55.167084, 25.284439], [55.153698, 25.291971], [55.141907, 25.298721], [55.129341, 25.305889], [55.117035, 25.312866], [55.109962, 25.316923], [55.102551, 25.321112], [55.09613, 25.324768], [55.088974, 25.32884], [55.081875, 25.332983], [55.079903, 25.334286], [55.078327, 25.33548], [55.076744, 25.336847], [55.075329, 25.338272], [55.074203, 25.339594], [55.072987, 25.341339], [55.071869, 25.343216], [55.071156, 25.344772], [55.070316, 25.347368], [55.069885, 25.349396], [55.069683, 25.351227], [55.069645, 25.35314], [55.069782, 25.355118], [55.070087, 25.357086], [55.070599, 25.358917], [55.071251, 25.360682], [55.072029, 25.36245], [55.072906, 25.364174], [55.07415, 25.366314], [55.076172, 25.369619], [55.077675, 25.371622], [55.078869, 25.373064], [55.080059, 25.374435], [55.081512, 25.375765], [55.083569, 25.377319], [55.085709, 25.378605], [55.087471, 25.379536], [55.089336, 25.38028], [55.091408, 25.380932], [55.093327, 25.381351], [55.095165, 25.381668], [55.097576, 25.381956], [55.101723, 25.382235], [55.105946, 25.382309], [55.11364, 25.382328], [55.115662, 25.382282], [55.119678, 25.382263], [55.123901, 25.382282], [55.128204, 25.382189], [55.130276, 25.38205], [55.132397, 25.38176], [55.134327, 25.381393], [55.136669, 25.380844], [55.138309, 25.380373], [55.140026, 25.379837], [55.141907, 25.37915], [55.144196, 25.378189], [55.147686, 25.376602], [55.149433, 25.375717], [55.151264, 25.374756], [55.154995, 25.372692], [55.158207, 25.370831], [55.15971, 25.369991], [55.163372, 25.367889], [55.1651, 25.36692], [55.16856, 25.365005], [55.169781, 25.364365], [55.173183, 25.362497], [55.174946, 25.361567], [55.182201, 25.357656], [55.189159, 25.353882], [55.195721, 25.350266], [55.202534, 25.346512], [55.209148, 25.342899], [55.214176, 25.340105], [55.220592, 25.336578], [55.226871, 25.333076], [55.232037, 25.330261], [55.237835, 25.327011], [55.242664, 25.324356], [55.248844, 25.320927], [55.25465, 25.317715], [55.259312, 25.315153], [55.266258, 25.311289], [55.270817, 25.308775], [55.276844, 25.30545], [55.282684, 25.302212], [55.287018, 25.29982], [55.293072, 25.296432], [55.298664, 25.293365], [55.30431, 25.290207], [55.310211, 25.286957], [55.315857, 25.283752], [55.321552, 25.28064], [55.32552, 25.278488], [55.330963, 25.275467], [55.336559, 25.272354], [55.341949, 25.269379], [55.346062, 25.267065]]}, "properties": {"name": "EK345_3d78e100", "cmt": "2025-12-12", "tstamp": 1765494000, "desc": "---", "src": "55.069645/2.474579/101.822144/25.382328", "bbox": "55.069645/2.474579/101.822144/25.382328"}}]}