{"type": "FeatureCollection", "name": "TrackSet", "crs": {"type": "name", "properties": {"name": "urn:ogc:def:crs:OGC:1.3:CRS84"}}, "bbox": [-4.263811, 46.04924, 6.111952, 55.955818], "features": [{"type": "Feature", "bbox": [-4.263811, 46.04924, 6.111952, 55.955818], "geometry": {"type": "LineString", "coordinates": [[-3.365979, 55.946583], [-3.36656, 55.94656], [-3.367009, 55.946606], [-3.367224, 55.946594], [-3.367331, 55.946373], [-3.36733, 55.947224], [-3.367374, 55.947468], [-3.367631, 55.947758], [-3.367747, 55.94799], [-3.367747, 55.948563], [-3.367846, 55.94883], [-3.368079, 55.949043], [-3.368246, 55.949318], [-3.367975, 55.949574], [-3.362439, 55.951485], [-3.35445, 55.95417], [-3.354097, 55.954319], [-3.353963, 55.954533], [-3.354118, 55.954765], [-3.355207, 55.95578], [-3.355408, 55.955818], [-3.355616, 55.955704], [-3.355886, 55.955601], [-3.357825, 55.954952], [-3.361559, 55.953648], [-3.368425, 55.951366], [-3.374634, 55.949249], [-3.380959, 55.947098], [-3.382874, 55.946457], [-3.385248, 55.945641], [-3.389196, 55.94429], [-3.391196, 55.943573], [-3.395205, 55.942196], [-3.399239, 55.940754], [-3.401434, 55.940048], [-3.403358, 55.939358], [-3.407842, 55.937805], [-3.410311, 55.936935], [-3.41242, 55.936157], [-3.416831, 55.934647], [-3.419162, 55.933868], [-3.421469, 55.933071], [-3.427048, 55.93121], [-3.429623, 55.930279], [-3.431813, 55.92952], [-3.434858, 55.928509], [-3.442669, 55.925812], [-3.448209, 55.923935], [-3.457003, 55.921017], [-3.469706, 55.916824], [-3.479919, 55.913425], [-3.492794, 55.909004], [-3.499562, 55.90686], [-3.503523, 55.905838], [-3.50647, 55.905258], [-3.509882, 55.904617], [-3.514166, 55.904022], [-3.521867, 55.903152], [-3.529444, 55.902393], [-3.533852, 55.901962], [-3.537431, 55.901642], [-3.542233, 55.901138], [-3.546004, 55.900818], [-3.553162, 55.900085], [-3.55749, 55.899673], [-3.585205, 55.897018], [-3.61021, 55.894527], [-3.635101, 55.892105], [-3.660195, 55.889603], [-3.688316, 55.886753], [-3.718123, 55.883743], [-3.74342, 55.88126], [-3.770974, 55.878525], [-3.799381, 55.875675], [-3.829817, 55.87262], [-3.866022, 55.868958], [-3.898945, 55.865711], [-3.92936, 55.862686], [-4.00898, 55.854538], [-4.089918, 55.846252], [-4.116096, 55.842388], [-4.121121, 55.841217], [-4.126997, 55.839596], [-4.131525, 55.83815], [-4.136685, 55.836319], [-4.141346, 55.834488], [-4.145591, 55.832611], [-4.150002, 55.830551], [-4.153997, 55.828491], [-4.15781, 55.82642], [-4.162016, 55.823956], [-4.165192, 55.822044], [-4.169226, 55.819485], [-4.172807, 55.817047], [-4.176521, 55.814411], [-4.180555, 55.811432], [-4.183794, 55.80899], [-4.187078, 55.806358], [-4.190036, 55.804001], [-4.193365, 55.801254], [-4.197121, 55.798023], [-4.200273, 55.795303], [-4.203386, 55.792576], [-4.206562, 55.789783], [-4.209995, 55.786713], [-4.212841, 55.784042], [-4.251366, 55.746025], [-4.25354, 55.742752], [-4.255829, 55.738903], [-4.257535, 55.735657], [-4.259005, 55.732525], [-4.260292, 55.729404], [-4.26158, 55.72559], [-4.262438, 55.722237], [-4.262945, 55.719635], [-4.263611, 55.715195], [-4.263811, 55.711811], [-4.263811, 55.707668], [-4.263527, 55.704254], [-4.263124, 55.700871], [-4.262279, 55.697113], [-4.261197, 55.693405], [-4.260115, 55.690109], [-4.258404, 55.685974], [-4.25612, 55.681549], [-4.254541, 55.678898], [-4.252125, 55.675186], [-4.249048, 55.671028], [-4.246216, 55.667679], [-4.243053, 55.664108], [-4.240036, 55.660694], [-4.237032, 55.657391], [-4.234148, 55.654358], [-4.230509, 55.650455], [-4.227247, 55.647007], [-4.223299, 55.642914], [-4.219952, 55.639469], [-4.216669, 55.636093], [-4.213514, 55.632904], [-4.210011, 55.629364], [-4.161322, 55.57782], [-4.11335, 55.523693], [-4.064026, 55.468369], [-4.014372, 55.413391], [-3.963883, 55.357544], [-3.913547, 55.301498], [-3.863229, 55.245071], [-3.812256, 55.187958], [-3.760737, 55.130047], [-3.708718, 55.071529], [-3.656428, 55.012207], [-3.604764, 54.953613], [-3.552785, 54.894562], [-3.502215, 54.836655], [-3.450676, 54.777557], [-3.400188, 54.719467], [-3.349618, 54.661194], [-3.300976, 54.604797], [-3.248707, 54.543907], [-3.199602, 54.486229], [-3.152511, 54.428375], [-3.105819, 54.370422], [-3.055864, 54.308773], [-3.0088, 54.250675], [-2.961286, 54.191574], [-2.910408, 54.128288], [-2.859506, 54.065002], [-2.811531, 54.005157], [-2.764112, 53.945663], [-2.715723, 53.884819], [-2.665154, 53.82095], [-2.6162, 53.759129], [-2.568781, 53.698704], [-2.52199, 53.638824], [-2.474356, 53.577805], [-2.426566, 53.516647], [-2.3765, 53.452377], [-2.328945, 53.390945], [-2.279582, 53.326984], [-2.232648, 53.265957], [-2.186358, 53.205597], [-2.139668, 53.144547], [-2.093887, 53.084381], [-2.047348, 53.02327], [-2.000924, 52.961922], [-1.954389, 52.900288], [-1.908417, 52.839066], [-1.862106, 52.777313], [-1.815414, 52.714966], [-1.769714, 52.653625], [-1.724461, 52.59267], [-1.679417, 52.532013], [-1.634369, 52.471024], [-1.589486, 52.409672], [-1.545486, 52.349625], [-1.498108, 52.284897], [-1.454668, 52.225281], [-1.410141, 52.16423], [-1.366501, 52.104218], [-1.322556, 52.043381], [-1.276093, 51.978836], [-1.231803, 51.917336], [-1.188126, 51.856354], [-1.144211, 51.794998], [-1.097717, 51.729965], [-1.054459, 51.669075], [-1.010594, 51.606995], [-0.964867, 51.542175], [-0.921478, 51.48035], [-0.878238, 51.418579], [-0.835258, 51.357101], [-0.791609, 51.294525], [-0.748291, 51.232319], [-0.705278, 51.170197], [-0.663262, 51.10936], [-0.614395, 51.04723], [-0.565276, 51.000732], [-0.555997, 50.993591], [-0.551395, 50.990158], [-0.546417, 50.986431], [-0.543081, 50.983932], [-0.536994, 50.979492], [-0.464024, 50.924881], [-0.392539, 50.870956], [-0.322389, 50.817993], [-0.250681, 50.763931], [-0.178973, 50.709595], [-0.108007, 50.655724], [-0.036671, 50.601353], [0.034477, 50.546951], [0.105781, 50.492142], [0.177444, 50.436905], [0.248783, 50.381973], [0.321424, 50.325809], [0.392093, 50.271156], [0.463579, 50.215572], [0.534247, 50.160454], [1.235294, 49.60397], [1.30441, 49.548065], [1.372785, 49.492722], [1.442461, 49.436142], [1.510761, 49.380569], [1.578851, 49.324844], [1.646865, 49.269028], [1.714518, 49.213444], [1.782532, 49.157349], [1.851413, 49.100136], [1.918734, 49.043793], [1.985638, 48.987488], [2.051626, 48.931595], [2.118108, 48.875015], [2.184762, 48.817936], [2.251185, 48.760677], [2.316988, 48.703674], [2.38192, 48.647049], [2.446843, 48.590389], [2.513475, 48.534668], [2.580558, 48.47913], [2.648621, 48.422241], [2.714398, 48.366669], [2.780597, 48.31073], [2.846616, 48.254932], [2.913842, 48.197708], [2.979973, 48.141037], [3.038565, 48.082222], [3.08751, 48.019749], [3.129836, 47.9529], [3.171753, 47.886154], [3.212797, 47.820927], [3.2547, 47.753799], [3.2948, 47.689362], [3.338402, 47.619141], [3.378507, 47.554413], [3.418861, 47.489334], [3.442703, 47.459747], [3.446538, 47.45591], [3.451256, 47.451488], [3.454989, 47.448227], [3.459355, 47.444504], [3.463577, 47.441116], [3.468246, 47.437592], [3.472736, 47.434357], [3.478752, 47.430222], [3.482948, 47.427467], [3.488228, 47.424133], [3.49379, 47.420837], [3.499075, 47.417831], [3.504707, 47.414795], [3.509921, 47.412106], [3.515144, 47.409485], [3.520555, 47.406982], [3.527245, 47.403957], [3.531752, 47.40205], [3.538765, 47.399094], [3.544464, 47.396759], [3.550163, 47.394379], [3.556206, 47.391907], [3.56288, 47.389107], [3.568703, 47.386688], [3.657143, 47.348602], [3.742973, 47.310928], [3.829765, 47.27298], [3.916969, 47.234802], [4.00383, 47.196671], [4.08952, 47.158905], [4.176002, 47.120686], [4.261459, 47.082825], [4.347153, 47.044739], [4.433054, 47.006447], [4.520531, 46.967377], [4.60792, 46.928146], [4.694965, 46.889091], [4.780661, 46.850372], [4.866875, 46.811394], [4.950371, 46.773407], [5.034622, 46.735142], [5.115208, 46.698532], [5.182251, 46.671551], [5.189598, 46.669548], [5.195023, 46.668198], [5.200686, 46.666901], [5.207386, 46.665482], [5.213549, 46.664337], [5.219377, 46.66333], [5.225607, 46.662369], [5.231621, 46.661495], [5.238536, 46.660583], [5.243895, 46.659851], [5.250504, 46.658981], [5.256683, 46.658146], [5.262794, 46.657307], [5.268974, 46.656467], [5.274536, 46.655678], [5.280441, 46.654839], [5.3741, 46.640408], [5.464426, 46.62616], [5.51018, 46.616501], [5.516441, 46.614525], [5.521769, 46.612747], [5.527016, 46.610847], [5.532578, 46.608658], [5.537315, 46.606705], [5.542191, 46.604561], [5.547359, 46.602173], [5.552147, 46.599815], [5.557742, 46.596863], [5.562103, 46.594414], [5.566086, 46.592087], [5.571648, 46.588642], [5.575768, 46.58585], [5.578995, 46.583614], [5.584002, 46.57988], [5.58847, 46.576397], [5.592453, 46.572952], [5.595726, 46.570038], [5.599209, 46.56665], [5.602625, 46.563171], [5.605908, 46.559692], [5.608788, 46.556488], [5.61264, 46.552193], [5.615622, 46.548889], [5.618435, 46.545685], [5.622116, 46.541531], [5.625201, 46.538086], [5.628227, 46.534641], [5.631297, 46.531219], [5.678458, 46.478897], [5.724564, 46.428547], [5.743773, 46.405106], [5.746193, 46.400711], [5.747635, 46.397919], [5.749489, 46.393261], [5.750656, 46.389862], [5.751678, 46.386292], [5.752615, 46.382126], [5.753353, 46.378281], [5.753952, 46.374546], [5.754424, 46.370773], [5.754845, 46.367054], [5.75563, 46.359467], [5.756012, 46.35537], [5.7563, 46.351456], [5.756561, 46.348663], [5.756836, 46.344818], [5.757454, 46.337029], [5.759102, 46.311516], [5.760406, 46.287636], [5.761257, 46.267593], [5.762054, 46.244946], [5.762741, 46.227348], [5.763736, 46.207901], [5.76487, 46.19141], [5.766243, 46.173347], [5.767889, 46.155533], [5.769296, 46.141068], [5.771105, 46.123581], [5.772835, 46.106316], [5.774483, 46.090069], [5.775727, 46.076569], [5.778259, 46.066048], [5.779221, 46.064278], [5.780388, 46.062462], [5.781689, 46.060913], [5.783699, 46.058807], [5.784988, 46.057621], [5.786914, 46.056152], [5.789527, 46.054504], [5.791649, 46.053383], [5.793948, 46.052399], [5.796427, 46.051437], [5.799133, 46.050636], [5.801518, 46.050064], [5.803997, 46.049652], [5.806743, 46.049377], [5.809227, 46.04924], [5.811974, 46.04924], [5.81472, 46.049286], [5.817604, 46.049427], [5.820488, 46.049706], [5.823029, 46.050034], [5.825634, 46.050568], [5.82885, 46.051437], [5.831268, 46.052265], [5.833539, 46.053131], [5.835732, 46.054131], [5.838272, 46.055386], [5.839903, 46.056244], [5.844452, 46.058876], [5.847004, 46.06041], [5.865189, 46.071865], [5.87715, 46.080048], [5.889015, 46.088066], [5.892691, 46.090485], [5.900688, 46.095932], [5.908635, 46.101379], [5.914798, 46.105591], [5.9221, 46.11058], [5.92733, 46.114136], [5.934426, 46.118958], [5.939383, 46.122345], [5.946082, 46.127014], [5.951363, 46.130569], [5.957954, 46.135128], [5.965096, 46.139973], [5.971619, 46.144485], [5.976161, 46.147568], [5.982524, 46.151871], [5.988487, 46.155899], [5.994141, 46.159756], [6.000076, 46.163818], [6.004296, 46.166748], [6.009856, 46.170502], [6.015349, 46.17421], [6.019905, 46.177368], [6.026001, 46.181541], [6.031631, 46.185406], [6.037389, 46.189362], [6.041931, 46.192436], [6.047562, 46.196205], [6.051956, 46.199234], [6.057449, 46.202957], [6.061707, 46.205841], [6.067266, 46.209595], [6.07283, 46.213432], [6.077568, 46.216644], [6.082993, 46.220367], [6.088348, 46.223999], [6.093292, 46.227398], [6.097546, 46.230286], [6.102035, 46.233353], [6.105618, 46.235779], [6.10952, 46.238457], [6.109906, 46.238697], [6.110218, 46.238754], [6.110475, 46.238686], [6.110682, 46.238499], [6.11091, 46.237518], [6.11091, 46.237289], [6.110642, 46.236843], [6.110802, 46.236626], [6.11153, 46.236111], [6.111698, 46.235893], [6.111564, 46.235676], [6.111346, 46.235538], [6.11153, 46.235332], [6.111746, 46.235157], [6.111952, 46.235031]]}, "properties": {"name": "U23293_41a04287", "cmt": "2026-09-12", "tstamp": 1789171200, "desc": "---", "src": "-4.263811/46.04924/6.111952/55.955818", "bbox": "-4.263811/46.04924/6.111952/55.955818"}}]}