{"type": "FeatureCollection", "name": "TrackSet", "crs": {"type": "name", "properties": {"name": "urn:ogc:def:crs:OGC:1.3:CRS84"}}, "bbox": [105.480705, 21.198399, 121.801178, 31.716888], "features": [{"type": "Feature", "bbox": [105.480705, 21.198399, 121.801178, 31.716888], "geometry": {"type": "LineString", "coordinates": [[105.787888, 21.220442], [105.788536, 21.221443], [105.786606, 21.224625], [105.786865, 21.224579], [105.787155, 21.224487], [105.788017, 21.224236], [105.843636, 21.208008], [105.850273, 21.205988], [105.857033, 21.203939], [105.862808, 21.202148], [105.868477, 21.200447], [105.874123, 21.198866], [105.876091, 21.198532], [105.87809, 21.198399], [105.879921, 21.198446], [105.881859, 21.198679], [105.883888, 21.199144], [105.885719, 21.199749], [105.887177, 21.200363], [105.888878, 21.201239], [105.890907, 21.202543], [105.892426, 21.203796], [105.893867, 21.20517], [105.895134, 21.206593], [105.896301, 21.208269], [105.897667, 21.210526], [105.89859, 21.212599], [105.899261, 21.214417], [105.899811, 21.216368], [105.900322, 21.219023], [105.900566, 21.221191], [105.900673, 21.223259], [105.900726, 21.226051], [105.900574, 21.230753], [105.900269, 21.237923], [105.900063, 21.245407], [105.900063, 21.247513], [105.899963, 21.254728], [105.899864, 21.270538], [105.89859, 21.286337], [105.897919, 21.288849], [105.896812, 21.292063], [105.895744, 21.29467], [105.89447, 21.297091], [105.893074, 21.299377], [105.891525, 21.301666], [105.889992, 21.303701], [105.887756, 21.306355], [105.886131, 21.308212], [105.883934, 21.310547], [105.880737, 21.313797], [105.876839, 21.317734], [105.874947, 21.319611], [105.872749, 21.321856], [105.870499, 21.324097], [105.868553, 21.326111], [105.866951, 21.327675], [105.854034, 21.340897], [105.840202, 21.355095], [105.828346, 21.365383], [105.824509, 21.367813], [105.816093, 21.371853], [105.811722, 21.373489], [105.808228, 21.374725], [105.801689, 21.376831], [105.792595, 21.379627], [105.786308, 21.3815], [105.782722, 21.382607], [105.779823, 21.383444], [105.775665, 21.38475], [105.772804, 21.385586], [105.750122, 21.392662], [105.729874, 21.398987], [105.67907, 21.4151], [105.630699, 21.430462], [105.579323, 21.446802], [105.55529, 21.452637], [105.550995, 21.452948], [105.546654, 21.453003], [105.54306, 21.452854], [105.540161, 21.452621], [105.535835, 21.452017], [105.532471, 21.451355], [105.529076, 21.450531], [105.525154, 21.449316], [105.521904, 21.448153], [105.518394, 21.446663], [105.515495, 21.445267], [105.511932, 21.443357], [105.510048, 21.4422], [105.506287, 21.439726], [105.503181, 21.437351], [105.500694, 21.435211], [105.497917, 21.432632], [105.496269, 21.430847], [105.493523, 21.427622], [105.49202, 21.425674], [105.488525, 21.420364], [105.48452, 21.412075], [105.482994, 21.407513], [105.482124, 21.404392], [105.481415, 21.400621], [105.48101, 21.397551], [105.480736, 21.394272], [105.480705, 21.390659], [105.480858, 21.387774], [105.481163, 21.384701], [105.481926, 21.380186], [105.482635, 21.377068], [105.483582, 21.374039], [105.484825, 21.370644], [105.485893, 21.368082], [105.48996, 21.36068], [105.491791, 21.357981], [105.495316, 21.353622], [105.496819, 21.351974], [105.501251, 21.347738], [105.503845, 21.345598], [105.506355, 21.343735], [105.509743, 21.341454], [105.512642, 21.339752], [105.515694, 21.33815], [105.519203, 21.336567], [105.522102, 21.335449], [105.525482, 21.334259], [105.529381, 21.333168], [105.53257, 21.332428], [105.536713, 21.331696], [105.540062, 21.331284], [105.542908, 21.331055], [105.547501, 21.330963], [105.550697, 21.331055], [105.554199, 21.331306], [105.557838, 21.331741], [105.562439, 21.332563], [105.565826, 21.333389], [105.569275, 21.334396], [105.572411, 21.335449], [105.575668, 21.336731], [105.578964, 21.338196], [105.582458, 21.339981], [105.585327, 21.34164], [105.588852, 21.343918], [105.591499, 21.345795], [105.594391, 21.348129], [105.596939, 21.350372], [105.599289, 21.352615], [105.602013, 21.355513], [105.604195, 21.35812], [105.606384, 21.36096], [105.608368, 21.363894], [105.6101, 21.36664], [105.611824, 21.369759], [105.613861, 21.373995], [105.615219, 21.377197], [105.616455, 21.380651], [105.617615, 21.384476], [105.618317, 21.387314], [105.61911, 21.391525], [105.619614, 21.394913], [105.619911, 21.398575], [105.620064, 21.401693], [105.620163, 21.405075], [105.620064, 21.41217], [105.619911, 21.415565], [105.619812, 21.419128], [105.619659, 21.422745], [105.619606, 21.426691], [105.619713, 21.43051], [105.619965, 21.433954], [105.620308, 21.437531], [105.62101, 21.442017], [105.621742, 21.445499], [105.622612, 21.448792], [105.623627, 21.452063], [105.625053, 21.456066], [105.626526, 21.459465], [105.628052, 21.46249], [105.629784, 21.465609], [105.631699, 21.46875], [105.633797, 21.471754], [105.636543, 21.47525], [105.638885, 21.477945], [105.641434, 21.480652], [105.644234, 21.483307], [105.647484, 21.486139], [105.650475, 21.48848], [105.653473, 21.490677], [105.656586, 21.492889], [105.6633, 21.497358], [105.667206, 21.499878], [105.670547, 21.502029], [105.673927, 21.504248], [105.677284, 21.506435], [105.683235, 21.5103], [105.690475, 21.515076], [105.72438, 21.535355], [105.72818, 21.536865], [105.732071, 21.538193], [105.736519, 21.53952], [105.740311, 21.540527], [105.744858, 21.54158], [105.752846, 21.543274], [105.757439, 21.544189], [105.765381, 21.545725], [105.769196, 21.546471], [105.774269, 21.54744], [105.778915, 21.548355], [105.783356, 21.549179], [105.844673, 21.558714], [105.852661, 21.559086], [105.856834, 21.559179], [105.86171, 21.559204], [105.882233, 21.559113], [105.941261, 21.559113], [106.00573, 21.560944], [106.066132, 21.562857], [106.133423, 21.564926], [106.201073, 21.57012], [106.204987, 21.571014], [106.208778, 21.57193], [106.213684, 21.573238], [106.218117, 21.574493], [106.221977, 21.575705], [106.225685, 21.576962], [106.230255, 21.578568], [106.235146, 21.580406], [106.238144, 21.581497], [106.242188, 21.583054], [106.246834, 21.584839], [106.251526, 21.586645], [106.310455, 21.608963], [106.364189, 21.634872], [106.367897, 21.637108], [106.37558, 21.641949], [106.380013, 21.644852], [106.383308, 21.647116], [106.387459, 21.649979], [106.390739, 21.65233], [106.395111, 21.655497], [106.398643, 21.658173], [106.402237, 21.660919], [106.406235, 21.664169], [106.409508, 21.666807], [106.412865, 21.669601], [106.418671, 21.674698], [106.422661, 21.678314], [106.426491, 21.68189], [106.432343, 21.687616], [106.436516, 21.6919], [106.442566, 21.698324], [106.448181, 21.704636], [106.450081, 21.706833], [106.453873, 21.711365], [106.45697, 21.715164], [106.459618, 21.718552], [106.462303, 21.722019], [106.465309, 21.726013], [106.469803, 21.73233], [106.50843, 21.787052], [106.546661, 21.841141], [106.586159, 21.897263], [106.624863, 21.952194], [106.665039, 22.009014], [106.704865, 22.065388], [106.7453, 22.118319], [106.792854, 22.167059], [106.844383, 22.215147], [106.880592, 22.242846], [106.885429, 22.245964], [106.888184, 22.247726], [106.893921, 22.251272], [106.897873, 22.253586], [106.901802, 22.25588], [106.905312, 22.257835], [106.910194, 22.260536], [106.913254, 22.262146], [106.918198, 22.264709], [106.924133, 22.267611], [106.928154, 22.26952], [106.933441, 22.27194], [106.937874, 22.273911], [106.941223, 22.275339], [106.946411, 22.277481], [106.951706, 22.279587], [106.955048, 22.280869], [106.960747, 22.282928], [106.96508, 22.284464], [106.969681, 22.286041], [106.974892, 22.287722], [106.980492, 22.289444], [106.984711, 22.290665], [106.993851, 22.293137], [107.007393, 22.296381], [107.011681, 22.297302], [107.018028, 22.298569], [107.023468, 22.299591], [107.10556, 22.314489], [107.172798, 22.326731], [107.250877, 22.34079], [107.329712, 22.355129], [107.42289, 22.371889], [107.492676, 22.384504], [107.563293, 22.397186], [108.061523, 22.485809], [108.137527, 22.504715], [108.156105, 22.512177], [108.163147, 22.515316], [108.173065, 22.520111], [108.177376, 22.522293], [108.181206, 22.524347], [108.184151, 22.52593], [108.189644, 22.529001], [108.193665, 22.531376], [108.197601, 22.533737], [108.201752, 22.536301], [108.205345, 22.538589], [108.210884, 22.542297], [108.216652, 22.54632], [108.221924, 22.550125], [108.232307, 22.558136], [108.237602, 22.562485], [108.240868, 22.565266], [108.244324, 22.568338], [108.247192, 22.570908], [108.251495, 22.574903], [108.256378, 22.579605], [108.262772, 22.586105], [108.268562, 22.592377], [108.274208, 22.598785], [108.28125, 22.607117], [108.284096, 22.610561], [108.330132, 22.665073], [108.375084, 22.718307], [108.418579, 22.769957], [108.461555, 22.820745], [108.508759, 22.876747], [108.551994, 22.928001], [108.597305, 22.981522], [108.641655, 23.033936], [108.681541, 23.081018], [108.732536, 23.141144], [108.765648, 23.180145], [108.857323, 23.288317], [108.916809, 23.358353], [108.938782, 23.384262], [108.966652, 23.41699], [108.995308, 23.450689], [109.099678, 23.573219], [109.14782, 23.629539], [109.195251, 23.68515], [109.22908, 23.726513], [109.408821, 23.971939], [109.447937, 24.025223], [109.492905, 24.086407], [109.538322, 24.148132], [109.577065, 24.200787], [109.622772, 24.262794], [109.668221, 24.324383], [109.714294, 24.386436], [109.753883, 24.439785], [109.799805, 24.501617], [109.845787, 24.563416], [109.890999, 24.624023], [109.936371, 24.685318], [109.982521, 24.747496], [110.027718, 24.808502], [110.066887, 24.861053], [110.112862, 24.922806], [110.158134, 24.983688], [110.204262, 25.045532], [110.251312, 25.108612], [110.297394, 25.170191], [110.343414, 25.232151], [110.390419, 25.295368], [110.436249, 25.356949], [110.482765, 25.419523], [110.528412, 25.481735], [110.574089, 25.54422], [110.617867, 25.608385], [110.660309, 25.669601], [110.702309, 25.730209], [110.719589, 25.75577], [110.825745, 25.912745], [110.918381, 26.049179], [110.961601, 26.11249], [110.99968, 26.16836], [111.042549, 26.231091], [111.080116, 26.286091], [111.123169, 26.349541], [111.167747, 26.415119], [111.208214, 26.47468], [111.248703, 26.53409], [111.303268, 26.609528], [111.332069, 26.64846], [111.376747, 26.70932], [111.411324, 26.75629], [111.443199, 26.799801], [111.528442, 26.92067], [111.564743, 26.975531], [111.609901, 27.043991], [111.645073, 27.097309], [111.695511, 27.172485], [111.721626, 27.20993], [111.769989, 27.279612], [111.812317, 27.340759], [111.85096, 27.396364], [111.879272, 27.437098], [111.889839, 27.452274], [111.950317, 27.539232], [112.019661, 27.638626], [112.055367, 27.689758], [112.100006, 27.7537], [112.13942, 27.810104], [112.17643, 27.862957], [112.214989, 27.917982], [112.250977, 27.969891], [112.294327, 28.031338], [112.336998, 28.083847], [112.379578, 28.136406], [112.420349, 28.187943], [112.463112, 28.242033], [112.494133, 28.281044], [112.54158, 28.34063], [112.589989, 28.401426], [112.632263, 28.454357], [112.674042, 28.506546], [112.717522, 28.560961], [112.756226, 28.609222], [112.810417, 28.67683], [112.854256, 28.731436], [112.897835, 28.785645], [112.942413, 28.840942], [112.986725, 28.89592], [113.031548, 28.951443], [113.076675, 29.007257], [113.122261, 29.063553], [113.165627, 29.118439], [113.190552, 29.159317], [113.223564, 29.224045], [113.254822, 29.284849], [113.285522, 29.344574], [113.315948, 29.403671], [113.347183, 29.464495], [113.379608, 29.527618], [113.41407, 29.594515], [113.448624, 29.661438], [113.478943, 29.720078], [113.510529, 29.781096], [113.542801, 29.843445], [113.580002, 29.915131], [113.609398, 29.972008], [113.65274, 30.059711], [113.687759, 30.130051], [113.70668, 30.16794], [113.748596, 30.251646], [113.7826, 30.319521], [113.815887, 30.38604], [113.850052, 30.453869], [113.884171, 30.521669], [113.924049, 30.587847], [113.938766, 30.60614], [113.945511, 30.613859], [113.952225, 30.621084], [113.975632, 30.643894], [114.005234, 30.668015], [114.068954, 30.707579], [114.228256, 30.788858], [114.304062, 30.815161], [114.388992, 30.842672], [114.465691, 30.867371], [114.498596, 30.878036], [114.634644, 30.922319], [114.715012, 30.948299], [114.793777, 30.973721], [114.904167, 31.009319], [114.979683, 31.033541], [115.049316, 31.05584], [115.129936, 31.081512], [115.210823, 31.107241], [115.290314, 31.132271], [115.377235, 31.160477], [115.454948, 31.185745], [115.533249, 31.210968], [115.612923, 31.236601], [115.693283, 31.262342], [115.760193, 31.283798], [115.840759, 31.30957], [115.922241, 31.335567], [115.942787, 31.34223], [116.078957, 31.386339], [116.15538, 31.4111], [116.236427, 31.437057], [116.306061, 31.459488], [116.384148, 31.484341], [116.449203, 31.50325], [116.607857, 31.52051], [116.69101, 31.533461], [116.773949, 31.555847], [116.842453, 31.577957], [116.920059, 31.602859], [117.003899, 31.629684], [117.081573, 31.654264], [117.151169, 31.675632], [117.215828, 31.694916], [117.332909, 31.714508], [117.390587, 31.716888], [117.683517, 31.698442], [117.769699, 31.692299], [117.849915, 31.686584], [117.951035, 31.679264], [118.035843, 31.672979], [118.1194, 31.666786], [118.200722, 31.661316], [118.284576, 31.655476], [118.369926, 31.649597], [118.454483, 31.647562], [118.921455, 31.63839], [119.065651, 31.635178], [119.150017, 31.633347], [119.235641, 31.63129], [119.316628, 31.62941], [119.387672, 31.627716], [119.47702, 31.625427], [119.552345, 31.623493], [119.621445, 31.621677], [119.68676, 31.619909], [119.770699, 31.615906], [119.835907, 31.612839], [119.905754, 31.609543], [119.975716, 31.606293], [120.016106, 31.60437], [120.157417, 31.597425], [120.441284, 31.553421], [120.500298, 31.536068], [120.561867, 31.517853], [120.620186, 31.500504], [120.678604, 31.483232], [120.739319, 31.46521], [120.800819, 31.446899], [120.85675, 31.42951], [120.916023, 31.410891], [120.97757, 31.391922], [121.035774, 31.3743], [121.089798, 31.35791], [121.146896, 31.340549], [121.228745, 31.316116], [121.281311, 31.300278], [121.305595, 31.292973], [121.331139, 31.285198], [121.349648, 31.281143], [121.354599, 31.280777], [121.358696, 31.280731], [121.361847, 31.280869], [121.364998, 31.281143], [121.36898, 31.281693], [121.371628, 31.282219], [121.375198, 31.283104], [121.380508, 31.284851], [121.383469, 31.285995], [121.386536, 31.28746], [121.388817, 31.288643], [121.39209, 31.290482], [121.420074, 31.307962], [121.441116, 31.320719], [121.462257, 31.333557], [121.483574, 31.346601], [121.50412, 31.359217], [121.601898, 31.406839], [121.619698, 31.409819], [121.643593, 31.412565], [121.646118, 31.41238], [121.649307, 31.411867], [121.65258, 31.411148], [121.654953, 31.410416], [121.659149, 31.408676], [121.667595, 31.403395], [121.675308, 31.397324], [121.677048, 31.395901], [121.682953, 31.391052], [121.691299, 31.383865], [121.69265, 31.382446], [121.694588, 31.380203], [121.695885, 31.378489], [121.697372, 31.376301], [121.699074, 31.373415], [121.700058, 31.371599], [121.700943, 31.369738], [121.70256, 31.36615], [121.704872, 31.360748], [121.706215, 31.357355], [121.719414, 31.323761], [121.721481, 31.318205], [121.724228, 31.310896], [121.726685, 31.304443], [121.729752, 31.29657], [121.731812, 31.291111], [121.734436, 31.284164], [121.736809, 31.277889], [121.738953, 31.272163], [121.742355, 31.263226], [121.743004, 31.261459], [121.745049, 31.256058], [121.747253, 31.250198], [121.74968, 31.24379], [121.751617, 31.238754], [121.753731, 31.233107], [121.7556, 31.228266], [121.756912, 31.224728], [121.758408, 31.22081], [121.76812, 31.195259], [121.784821, 31.150803], [121.790039, 31.137047], [121.790581, 31.136021], [121.790985, 31.135546], [121.792046, 31.134624], [121.793129, 31.133732], [121.793533, 31.133297], [121.79364, 31.133078], [121.796074, 31.126614], [121.796326, 31.126387], [121.796684, 31.126444], [121.79689, 31.126526], [121.800201, 31.127445], [121.800713, 31.127747], [121.80072, 31.128021], [121.800491, 31.128643], [121.794975, 31.143265], [121.79509, 31.143599], [121.795479, 31.143726], [121.797417, 31.144251], [121.797668, 31.144283], [121.798347, 31.144098], [121.801178, 31.144901], [121.80114, 31.145679], [121.800858, 31.146427], [121.80024, 31.146355]]}, "properties": {"name": "MU6014_40e8808e", "cmt": "2026-07-29", "tstamp": 1785276000, "desc": "---", "src": "105.480705/21.198399/121.801178/31.716888", "bbox": "105.480705/21.198399/121.801178/31.716888"}}]}