{"type": "FeatureCollection", "name": "TrackSet", "crs": {"type": "name", "properties": {"name": "urn:ogc:def:crs:OGC:1.3:CRS84"}}, "bbox": [5.907417, 35.327747, 25.526793, 46.25029], "features": [{"type": "Feature", "bbox": [5.907417, 35.327747, 25.526793, 46.25029], "geometry": {"type": "LineString", "coordinates": [[6.104396, 46.232323], [6.104416, 46.23262], [6.105334, 46.23325], [6.106716, 46.234287], [6.111748, 46.237724], [6.112384, 46.238148], [6.118078, 46.242016], [6.119267, 46.242828], [6.124359, 46.246296], [6.126637, 46.247955], [6.126955, 46.248611], [6.127384, 46.249626], [6.127333, 46.249939], [6.127127, 46.250172], [6.126921, 46.25029], [6.126687, 46.250267], [6.126452, 46.250027], [6.125364, 46.24926], [6.122509, 46.247334], [6.114784, 46.242062], [6.105789, 46.235916], [6.098923, 46.231213], [6.092187, 46.226395], [6.085052, 46.22139], [6.080062, 46.217926], [6.07338, 46.2132], [6.066513, 46.208405], [6.061295, 46.204865], [6.054634, 46.200397], [6.04717, 46.19545], [6.040352, 46.190945], [6.033279, 46.186199], [6.025658, 46.180984], [6.019684, 46.176888], [6.011925, 46.171627], [6.002822, 46.165421], [5.994141, 46.159382], [5.984066, 46.1521], [5.966313, 46.139099], [5.950571, 46.127609], [5.934761, 46.116165], [5.916275, 46.10096], [5.914558, 46.098724], [5.912636, 46.095932], [5.91118, 46.093414], [5.909958, 46.090767], [5.908903, 46.087967], [5.908241, 46.085506], [5.907692, 46.082527], [5.907429, 46.07991], [5.907417, 46.076336], [5.907761, 46.073635], [5.908241, 46.071121], [5.908903, 46.068649], [5.909821, 46.065952], [5.911247, 46.062744], [5.912721, 46.060089], [5.914329, 46.057571], [5.91655, 46.054455], [5.918266, 46.052406], [5.920492, 46.049927], [5.923038, 46.047455], [5.925583, 46.045166], [5.92833, 46.043015], [5.931679, 46.040634], [5.93456, 46.038757], [5.93763, 46.036953], [5.941269, 46.034996], [5.944633, 46.033367], [5.948685, 46.031551], [5.952111, 46.03006], [5.955729, 46.028549], [5.959145, 46.027084], [5.962486, 46.025639], [5.965782, 46.024288], [5.969461, 46.02269], [5.973679, 46.020889], [5.977098, 46.01944], [5.980476, 46.018005], [5.983864, 46.016556], [6.00644, 46.006805], [6.032633, 45.995499], [6.059303, 45.983974], [6.11704, 45.959564], [6.178024, 45.935093], [6.239832, 45.910355], [6.28907, 45.888794], [6.29329, 45.886047], [6.295769, 45.884354], [6.299492, 45.881512], [6.303062, 45.878487], [6.306084, 45.875835], [6.309234, 45.873047], [6.312057, 45.87048], [6.314873, 45.867874], [6.318169, 45.864799], [6.32119, 45.862007], [6.324106, 45.859268], [6.327254, 45.856293], [6.330001, 45.853729], [6.332814, 45.851028], [6.336639, 45.847389], [6.382454, 45.803467], [6.431465, 45.756847], [6.481264, 45.709671], [6.533248, 45.660416], [6.585411, 45.61095], [6.638077, 45.560909], [6.691393, 45.510086], [6.745082, 45.458633], [6.799331, 45.405563], [6.85233, 45.352066], [6.911003, 45.297981], [6.916094, 45.294537], [6.920798, 45.29155], [6.925768, 45.28862], [6.930607, 45.285873], [6.935577, 45.283264], [6.941483, 45.280293], [6.946564, 45.277908], [6.951666, 45.275635], [6.957494, 45.273216], [6.963255, 45.270981], [6.969714, 45.268616], [6.974912, 45.266884], [6.9807, 45.265045], [6.986568, 45.263348], [6.992999, 45.261623], [6.998224, 45.260319], [7.004722, 45.258831], [7.010684, 45.257622], [7.016713, 45.256504], [7.023141, 45.255432], [7.030312, 45.25436], [7.036073, 45.253571], [7.04217, 45.252686], [7.049561, 45.251678], [7.054629, 45.251011], [7.062116, 45.249985], [7.06863, 45.2491], [7.075061, 45.248215], [7.081604, 45.24733], [7.179173, 45.234009], [7.275562, 45.220192], [7.374707, 45.205204], [7.469722, 45.187912], [7.565695, 45.167496], [7.664141, 45.147125], [7.761975, 45.127041], [7.859043, 45.106697], [7.956325, 45.086609], [8.051605, 45.066833], [8.147903, 45.0466], [8.243081, 45.026413], [8.337954, 45.00605], [8.43194, 44.986034], [8.526128, 44.966484], [8.619244, 44.94735], [8.713466, 44.927811], [8.805869, 44.90831], [8.90468, 44.887207], [8.997084, 44.86853], [9.090729, 44.855118], [9.184701, 44.842209], [9.278423, 44.828407], [9.371599, 44.814102], [9.4672, 44.799313], [9.56144, 44.784668], [9.655308, 44.770031], [9.747418, 44.755554], [9.844621, 44.740238], [9.937395, 44.725571], [10.031564, 44.710556], [10.124169, 44.695686], [10.218266, 44.680527], [10.313154, 44.6651], [10.407715, 44.649719], [10.502995, 44.634155], [10.598189, 44.618412], [10.693294, 44.60257], [10.786155, 44.587143], [10.881289, 44.571209], [10.975276, 44.555328], [11.068398, 44.539536], [11.164332, 44.523193], [11.259352, 44.506851], [11.351885, 44.490875], [11.445275, 44.474705], [11.541138, 44.458038], [11.635795, 44.441422], [11.728441, 44.425079], [11.824237, 44.40818], [11.915458, 44.39209], [12.009038, 44.375336], [12.10278, 44.358418], [12.196499, 44.341473], [12.288862, 44.324707], [12.382061, 44.307674], [12.47406, 44.290741], [12.566483, 44.273739], [12.659978, 44.256454], [12.751661, 44.23938], [12.846233, 44.221741], [12.93699, 44.204636], [13.028763, 44.187286], [13.120422, 44.169891], [13.211517, 44.152515], [13.302655, 44.135101], [13.393838, 44.117508], [13.486101, 44.09967], [13.578143, 44.081818], [13.668954, 44.064114], [13.759199, 44.046749], [13.851333, 44.029129], [13.948256, 44.010811], [14.037653, 43.993698], [14.128546, 43.97612], [14.220298, 43.958439], [14.310477, 43.940937], [14.398158, 43.917023], [14.48426, 43.888229], [14.570356, 43.859612], [14.654484, 43.827438], [14.734955, 43.791412], [14.816724, 43.755157], [14.899441, 43.718445], [14.981263, 43.681915], [15.062714, 43.645424], [15.14485, 43.608555], [15.225646, 43.572144], [15.306957, 43.535385], [15.38878, 43.498352], [15.469011, 43.461868], [15.549359, 43.425339], [15.628755, 43.389038], [15.709427, 43.352005], [15.789054, 43.31546], [15.870012, 43.278172], [15.948813, 43.241814], [16.028479, 43.205017], [16.108576, 43.167847], [16.188158, 43.130741], [16.265717, 43.094479], [16.344975, 43.057327], [16.423986, 43.020218], [16.502104, 42.983551], [16.580605, 42.946518], [17.206825, 42.647484], [17.286238, 42.6091], [17.363329, 42.571701], [17.441946, 42.533478], [17.519136, 42.495941], [17.597288, 42.457783], [17.675406, 42.419655], [17.752821, 42.381668], [17.83287, 42.342224], [17.910212, 42.303955], [17.988068, 42.265427], [18.06633, 42.226639], [18.144234, 42.187912], [18.220697, 42.149887], [18.295046, 42.109665], [18.366713, 42.066139], [18.439466, 42.022331], [19.013309, 41.681755], [19.081079, 41.635948], [19.147297, 41.586411], [19.214386, 41.537117], [19.283815, 41.487076], [19.351543, 41.438507], [19.419458, 41.389572], [19.488436, 41.339645], [19.556396, 41.290329], [19.623962, 41.241257], [19.693743, 41.190399], [19.761902, 41.140686], [19.829386, 41.091381], [19.89805, 41.041058], [19.967215, 40.990177], [20.035442, 40.939899], [20.105835, 40.887909], [20.174194, 40.83728], [20.243103, 40.786148], [20.311035, 40.735611], [20.377625, 40.685852], [20.447693, 40.633484], [20.514832, 40.583221], [20.582031, 40.532822], [20.647644, 40.483429], [20.713911, 40.433506], [20.78009, 40.383453], [20.846924, 40.332779], [20.913412, 40.282349], [21.836641, 39.569641], [21.899872, 39.519882], [21.966675, 39.467266], [22.032543, 39.415466], [22.09864, 39.363098], [22.164429, 39.310898], [22.229939, 39.258957], [22.294373, 39.207504], [22.359375, 39.155739], [22.424866, 39.103508], [22.488775, 39.052368], [22.554035, 38.999954], [22.620117, 38.946812], [22.685425, 38.894161], [22.750357, 38.841751], [22.814575, 38.789654], [22.880737, 38.735886], [22.946857, 38.68222], [23.008118, 38.632168], [23.073318, 38.578812], [23.138, 38.526028], [23.200199, 38.475174], [23.265938, 38.421158], [23.328812, 38.369427], [23.393341, 38.316193], [23.457914, 38.262863], [23.523043, 38.208866], [23.588406, 38.154465], [23.653803, 38.100166], [23.718138, 38.046478], [23.781544, 37.993469], [23.845407, 37.939842], [23.909639, 37.885803], [23.974564, 37.831238], [24.039137, 37.776947], [24.105114, 37.721375], [24.169571, 37.666809], [24.233152, 37.612701], [24.293283, 37.557495], [24.346956, 37.495731], [24.396097, 37.432888], [24.445536, 37.369949], [24.493959, 37.308174], [24.542522, 37.245941], [24.591284, 37.183319], [24.64102, 37.119312], [24.689201, 37.057571], [24.738106, 36.994503], [24.786207, 36.931778], [24.80707, 36.896652], [24.809525, 36.891403], [24.811548, 36.886738], [24.813324, 36.882523], [24.815189, 36.877846], [24.817041, 36.873329], [24.818874, 36.868652], [24.820803, 36.863892], [24.823967, 36.85601], [24.852734, 36.785156], [24.881229, 36.715759], [24.908518, 36.648529], [24.938107, 36.576141], [24.967175, 36.505005], [24.994354, 36.438263], [25.02285, 36.368271], [25.051746, 36.296906], [25.079441, 36.228378], [25.105991, 36.161591], [25.131109, 36.095768], [25.154686, 36.03241], [25.177746, 35.970703], [25.200182, 35.910908], [25.220051, 35.857281], [25.238171, 35.808838], [25.244886, 35.791035], [25.251331, 35.773865], [25.258562, 35.75412], [25.266216, 35.733498], [25.272703, 35.716412], [25.279366, 35.698864], [25.286379, 35.681404], [25.289825, 35.675587], [25.291786, 35.672928], [25.293682, 35.670746], [25.296021, 35.668232], [25.298939, 35.665421], [25.301338, 35.66325], [25.303734, 35.661156], [25.306656, 35.658688], [25.308876, 35.656872], [25.311449, 35.654732], [25.313873, 35.652786], [25.316505, 35.650726], [25.318966, 35.648712], [25.322609, 35.645794], [25.325356, 35.643604], [25.327663, 35.6418], [25.330296, 35.639694], [25.348146, 35.625359], [25.365715, 35.611221], [25.38168, 35.598221], [25.396534, 35.586021], [25.412407, 35.572998], [25.429552, 35.559021], [25.445095, 35.546684], [25.460529, 35.534637], [25.476768, 35.521965], [25.491657, 35.510193], [25.501137, 35.502552], [25.511013, 35.494358], [25.515232, 35.490601], [25.517235, 35.488541], [25.518845, 35.486679], [25.520496, 35.484512], [25.522175, 35.481789], [25.523169, 35.480022], [25.524559, 35.476959], [25.525389, 35.474575], [25.526047, 35.472153], [25.526505, 35.469635], [25.526793, 35.466381], [25.526793, 35.464008], [25.526617, 35.46154], [25.526276, 35.459061], [25.525761, 35.456909], [25.524864, 35.453999], [25.523815, 35.451462], [25.522877, 35.449528], [25.521767, 35.44762], [25.52021, 35.445236], [25.518665, 35.443176], [25.51712, 35.441391], [25.513802, 35.437637], [25.510197, 35.433655], [25.506706, 35.429764], [25.50482, 35.42765], [25.501431, 35.423786], [25.49839, 35.420296], [25.496756, 35.418385], [25.495235, 35.416664], [25.490385, 35.410938], [25.484484, 35.403908], [25.479633, 35.39809], [25.473175, 35.390305], [25.469055, 35.385239], [25.462919, 35.377747], [25.458412, 35.372269], [25.453978, 35.366993], [25.452576, 35.365494], [25.450531, 35.363594], [25.448799, 35.362244], [25.446323, 35.360615], [25.444336, 35.359543], [25.441765, 35.358379], [25.440128, 35.357681], [25.437355, 35.356567], [25.435295, 35.355789], [25.430895, 35.354191], [25.428371, 35.353317], [25.426254, 35.352539], [25.423824, 35.351677], [25.419441, 35.35014], [25.416927, 35.349243], [25.414696, 35.348419], [25.412693, 35.347733], [25.405825, 35.345253], [25.397129, 35.342102], [25.389462, 35.339264], [25.383268, 35.336967], [25.373955, 35.333359], [25.365772, 35.330246], [25.361412, 35.328819], [25.359192, 35.328278], [25.357132, 35.327957], [25.355015, 35.32782], [25.35294, 35.327747], [25.350544, 35.327843], [25.348606, 35.327957], [25.344143, 35.328278], [25.340195, 35.328598], [25.32933, 35.329563], [25.314955, 35.330727], [25.300344, 35.331707], [25.260315, 35.33408], [25.253477, 35.334591], [25.235888, 35.335754], [25.229645, 35.336197], [25.224669, 35.336594], [25.218414, 35.337105], [25.211987, 35.33757], [25.201468, 35.338268], [25.19054, 35.339062], [25.172876, 35.340271], [25.172117, 35.340294], [25.171867, 35.340248], [25.171621, 35.340179], [25.170233, 35.33963], [25.17, 35.33955], [25.169777, 35.339516], [25.169035, 35.339539], [25.167896, 35.33963], [25.167677, 35.339493], [25.167677, 35.339085], [25.167475, 35.339012], [25.167332, 35.339218]]}, "properties": {"name": "U21477_402b7683", "cmt": "2026-06-13", "tstamp": 1781301600, "desc": "---", "src": "5.907417/35.327747/25.526793/46.25029", "bbox": "5.907417/35.327747/25.526793/46.25029"}}]}