{"type": "FeatureCollection", "name": "TrackSet", "crs": {"type": "name", "properties": {"name": "urn:ogc:def:crs:OGC:1.3:CRS84"}}, "bbox": [6.103726, 35.338165, 25.190292, 46.39563], "features": [{"type": "Feature", "bbox": [6.103726, 35.338165, 25.190292, 46.39563], "geometry": {"type": "LineString", "coordinates": [[25.167326, 35.339211], [25.167398, 35.33942], [25.167603, 35.339607], [25.167862, 35.33963], [25.170029, 35.339466], [25.18046, 35.338745], [25.184536, 35.338478], [25.1856, 35.338383], [25.188641, 35.338177], [25.189079, 35.338165], [25.189304, 35.338211], [25.189518, 35.338314], [25.189962, 35.338589], [25.190163, 35.338749], [25.190292, 35.338978], [25.19009, 35.339092], [25.164413, 35.34082], [25.157032, 35.341507], [25.155315, 35.341919], [25.153257, 35.342598], [25.151939, 35.343246], [25.15028, 35.344208], [25.149107, 35.345112], [25.147877, 35.346359], [25.146654, 35.347858], [25.145931, 35.34906], [25.145193, 35.350559], [25.139465, 35.365173], [25.132198, 35.385086], [25.130196, 35.390717], [25.127392, 35.398315], [25.124331, 35.406513], [25.121935, 35.412987], [25.118465, 35.422165], [25.115948, 35.428894], [25.110741, 35.443085], [25.104332, 35.460297], [25.09885, 35.475227], [25.092487, 35.492615], [25.087109, 35.507355], [25.081558, 35.522507], [25.074978, 35.540451], [25.069027, 35.556564], [25.061588, 35.576614], [25.05514, 35.594028], [25.047951, 35.613487], [25.040529, 35.633736], [25.022181, 35.683407], [25.00161, 35.734848], [24.976788, 35.785767], [24.966202, 35.801605], [24.963392, 35.80542], [24.961172, 35.808353], [24.959185, 35.811054], [24.954472, 35.817215], [24.949835, 35.823204], [24.913195, 35.871571], [24.876881, 35.920761], [24.844837, 35.973129], [24.813366, 36.025818], [24.782936, 36.078217], [24.751682, 36.134171], [24.719589, 36.189011], [24.687214, 36.245152], [24.654865, 36.301346], [24.622231, 36.357948], [24.589098, 36.415302], [24.555473, 36.474335], [24.522711, 36.532101], [24.488583, 36.590973], [24.453871, 36.650715], [24.418545, 36.710129], [24.404125, 36.728485], [24.400978, 36.731918], [24.397659, 36.73526], [24.394398, 36.738373], [24.390163, 36.742172], [24.386902, 36.74501], [24.383354, 36.74794], [24.379978, 36.750732], [24.375458, 36.754303], [24.371681, 36.757324], [24.368202, 36.760162], [24.363703, 36.763744], [24.360008, 36.766708], [24.356689, 36.769379], [24.352949, 36.772404], [24.349209, 36.775478], [24.292202, 36.822784], [24.238646, 36.86792], [24.183889, 36.913696], [24.126991, 36.9608], [24.071104, 37.00684], [24.014978, 37.053299], [23.95937, 37.099319], [23.904438, 37.14473], [23.849825, 37.189793], [23.794985, 37.23468], [23.739365, 37.28038], [22.965693, 37.907089], [22.915318, 37.950165], [22.863205, 38.000126], [22.816441, 38.044601], [22.76618, 38.091972], [22.716629, 38.138763], [22.665571, 38.187267], [22.615177, 38.234795], [22.565742, 38.281357], [22.515285, 38.328785], [22.46599, 38.375107], [22.413818, 38.423843], [22.361597, 38.47261], [22.309509, 38.521278], [22.259521, 38.567924], [22.208252, 38.615639], [22.156311, 38.663727], [22.106018, 38.710281], [22.056128, 38.756516], [22.005138, 38.803802], [21.954803, 38.85022], [21.905273, 38.895653], [21.854309, 38.942295], [21.803324, 38.989197], [21.751257, 39.03685], [21.700445, 39.083313], [21.648083, 39.130829], [21.59524, 39.178848], [21.545742, 39.223755], [21.493652, 39.271095], [21.439878, 39.319931], [21.390137, 39.364899], [21.339294, 39.410706], [21.286966, 39.457901], [21.235737, 39.503998], [21.183491, 39.55069], [21.134277, 39.594868], [21.08252, 39.641975], [21.033146, 39.691498], [20.984007, 39.740891], [20.934753, 39.789642], [20.885427, 39.838165], [20.835571, 39.887074], [20.788391, 39.932922], [20.738403, 39.981583], [20.688753, 40.030128], [20.639378, 40.078171], [20.587879, 40.12817], [20.537817, 40.176582], [20.487122, 40.225571], [20.436218, 40.274643], [20.384399, 40.32431], [20.333384, 40.373501], [20.281921, 40.422867], [20.230886, 40.471817], [20.179077, 40.52124], [20.127197, 40.570724], [20.076515, 40.619061], [20.024519, 40.668362], [19.972168, 40.717804], [19.921396, 40.765842], [19.869385, 40.815125], [19.81897, 40.863007], [19.766651, 40.912247], [19.715403, 40.960335], [19.663467, 41.008938], [19.612061, 41.056961], [19.559347, 41.106045], [19.506475, 41.155437], [19.453167, 41.205013], [19.400146, 41.254166], [19.34729, 41.303101], [19.293303, 41.353004], [19.239683, 41.40239], [19.186623, 41.451233], [19.131796, 41.501598], [19.078077, 41.550804], [19.025574, 41.598907], [18.973133, 41.646843], [18.918581, 41.696503], [18.865889, 41.744324], [18.81249, 41.792923], [18.759411, 41.840965], [18.703911, 41.888535], [18.640989, 41.931557], [18.572515, 41.968006], [18.498917, 42.000824], [18.424385, 42.034012], [18.350351, 42.066971], [18.276012, 42.099983], [18.201408, 42.132847], [18.125717, 42.165993], [18.048164, 42.199997], [17.971947, 42.233505], [17.895605, 42.266876], [17.8197, 42.299789], [17.743048, 42.333069], [17.668953, 42.365238], [17.593231, 42.398026], [17.51795, 42.430389], [17.44298, 42.46257], [17.368948, 42.494431], [17.292604, 42.527069], [17.21826, 42.558884], [17.143208, 42.590874], [17.067579, 42.622902], [16.991667, 42.65506], [16.914326, 42.687698], [16.838171, 42.719833], [16.76214, 42.751785], [16.685799, 42.783829], [16.609476, 42.815781], [15.451504, 43.289612], [15.37345, 43.320786], [15.295846, 43.351727], [15.218044, 43.382721], [15.137133, 43.414848], [15.058267, 43.446133], [14.977623, 43.478027], [14.89893, 43.508972], [14.821406, 43.53933], [14.741034, 43.570816], [14.662889, 43.601383], [14.583328, 43.632477], [14.504827, 43.662827], [14.425752, 43.693497], [14.347229, 43.723911], [14.266897, 43.752869], [14.184946, 43.779465], [14.10274, 43.806519], [14.019012, 43.834564], [13.934943, 43.86264], [13.852929, 43.889877], [13.768943, 43.917706], [13.685068, 43.94545], [13.60216, 43.972778], [13.516889, 44.000748], [13.433405, 44.02803], [13.349857, 44.055359], [13.266055, 44.082642], [13.184233, 44.109146], [13.101654, 44.135757], [13.021088, 44.161686], [12.93902, 44.188065], [12.85747, 44.214203], [12.77529, 44.240452], [12.693068, 44.266525], [12.608577, 44.29335], [12.524806, 44.319809], [12.442474, 44.34581], [12.356403, 44.372849], [12.271259, 44.399521], [12.187388, 44.425686], [12.103402, 44.451828], [12.02035, 44.477554], [11.937583, 44.503193], [11.187834, 44.731159], [11.104562, 44.754181], [11.020158, 44.772125], [10.934012, 44.790436], [10.848933, 44.808746], [10.765359, 44.826874], [10.679247, 44.84568], [10.59504, 44.864067], [10.50875, 44.883041], [10.424325, 44.901718], [10.340816, 44.92012], [10.253795, 44.939484], [10.169253, 44.958614], [10.083291, 44.977982], [9.99684, 44.997574], [9.91006, 45.017212], [9.823184, 45.037663], [9.741189, 45.063778], [9.659729, 45.089893], [9.578337, 45.115776], [9.498662, 45.141037], [9.416556, 45.16703], [9.335431, 45.192635], [9.252319, 45.218811], [9.170235, 45.244587], [9.087982, 45.270447], [9.003754, 45.296677], [8.920229, 45.322701], [8.83629, 45.34877], [8.753625, 45.374142], [8.668816, 45.400349], [8.586418, 45.425674], [8.501542, 45.451694], [8.416533, 45.477531], [8.329446, 45.503975], [8.24457, 45.529671], [8.158219, 45.555725], [8.074196, 45.58102], [7.993858, 45.605087], [7.91364, 45.629013], [7.835175, 45.652382], [7.756816, 45.675659], [7.678037, 45.698959], [7.599861, 45.722164], [7.518768, 45.748421], [7.435616, 45.775745], [7.354275, 45.802002], [7.274155, 45.827637], [7.194169, 45.853088], [7.111725, 45.879326], [7.030513, 45.905045], [6.9505, 45.931046], [6.934919, 45.938004], [6.930313, 45.940353], [6.925808, 45.94281], [6.921661, 45.945244], [6.916564, 45.948349], [6.912611, 45.950958], [6.908994, 45.953522], [6.905242, 45.956223], [6.901692, 45.959015], [6.898074, 45.96199], [6.894676, 45.964935], [6.891655, 45.967728], [6.887959, 45.971375], [6.884926, 45.974525], [6.882131, 45.977646], [6.880054, 45.97998], [6.873891, 45.987076], [6.871412, 45.990051], [6.867996, 45.994034], [6.865494, 45.996918], [6.862436, 46.000534], [6.859756, 46.003601], [6.857345, 46.006348], [6.816055, 46.053478], [6.775406, 46.099518], [6.734016, 46.14624], [6.695296, 46.190277], [6.659189, 46.231155], [6.622277, 46.273132], [6.605128, 46.290848], [6.588112, 46.304855], [6.5855, 46.306915], [6.583076, 46.308769], [6.580399, 46.310818], [6.577652, 46.312958], [6.561182, 46.325546], [6.544636, 46.338181], [6.526016, 46.352436], [6.511074, 46.364044], [6.496202, 46.375717], [6.4818, 46.386795], [6.476509, 46.389862], [6.4739, 46.391121], [6.471215, 46.392197], [6.468338, 46.393169], [6.465253, 46.394028], [6.461884, 46.394707], [6.458313, 46.395218], [6.455429, 46.395451], [6.452614, 46.395588], [6.449711, 46.39563], [6.446709, 46.395588], [6.443415, 46.395447], [6.438055, 46.395172], [6.435308, 46.394989], [6.432562, 46.39476], [6.426796, 46.394333], [6.418561, 46.393661], [6.416016, 46.393478], [6.413338, 46.393261], [6.397064, 46.39196], [6.377495, 46.39061], [6.361565, 46.389538], [6.345341, 46.388489], [6.33268, 46.386932], [6.330254, 46.386139], [6.327713, 46.385162], [6.325722, 46.384186], [6.323637, 46.383133], [6.319817, 46.380833], [6.317757, 46.379528], [6.314258, 46.377228], [6.312181, 46.375809], [6.308418, 46.373337], [6.306822, 46.372238], [6.303071, 46.369675], [6.297645, 46.366104], [6.295921, 46.36496], [6.288643, 46.360069], [6.282051, 46.355602], [6.276744, 46.351959], [6.269691, 46.347176], [6.264485, 46.343674], [6.257607, 46.339027], [6.250397, 46.334141], [6.243316, 46.329346], [6.236416, 46.324677], [6.230655, 46.320786], [6.22543, 46.317215], [6.218596, 46.312592], [6.212288, 46.308304], [6.207619, 46.305138], [6.201581, 46.30101], [6.197388, 46.298203], [6.191551, 46.294247], [6.186173, 46.290573], [6.180702, 46.286842], [6.17514, 46.283028], [6.169853, 46.279488], [6.164429, 46.27581], [6.160446, 46.273064], [6.155022, 46.269386], [6.149391, 46.265568], [6.143486, 46.261566], [6.139616, 46.258942], [6.133873, 46.255047], [6.128428, 46.251297], [6.121445, 46.246529], [6.115952, 46.242851], [6.112982, 46.240803], [6.109497, 46.23843], [6.108582, 46.237759], [6.108298, 46.237484], [6.107812, 46.236889], [6.107403, 46.236217], [6.106975, 46.235184], [6.106791, 46.234657], [6.106819, 46.234447], [6.107025, 46.2342], [6.107963, 46.233524], [6.108055, 46.233284], [6.10778, 46.232597], [6.107544, 46.232323], [6.107226, 46.232094], [6.103867, 46.229816], [6.103726, 46.229588], [6.104021, 46.229248]]}, "properties": {"name": "U21478_40402d49", "cmt": "2026-06-18", "tstamp": 1781733600, "desc": "---", "src": "6.103726/35.338165/25.190292/46.39563", "bbox": "6.103726/35.338165/25.190292/46.39563"}}]}