{"type": "FeatureCollection", "name": "TrackSet", "crs": {"type": "name", "properties": {"name": "urn:ogc:def:crs:OGC:1.3:CRS84"}}, "bbox": [4.769077, 2.747723, 101.867981, 52.32127], "features": [{"type": "Feature", "bbox": [4.769077, 2.747723, 101.867981, 52.32127], "geometry": {"type": "LineString", "coordinates": [[4.769077, 52.310886], [4.770322, 52.310844], [4.769878, 52.310852], [4.769675, 52.310902], [4.769459, 52.311039], [4.769361, 52.31126], [4.76942, 52.311504], [4.770342, 52.312412], [4.771957, 52.313873], [4.772358, 52.314102], [4.772618, 52.314205], [4.773102, 52.314457], [4.773769, 52.314926], [4.774796, 52.31572], [4.775227, 52.316532], [4.775482, 52.316765], [4.776459, 52.317204], [4.776764, 52.31749], [4.776895, 52.317791], [4.777091, 52.319675], [4.777385, 52.320152], [4.778386, 52.320885], [4.779015, 52.32122], [4.779406, 52.32127], [4.779968, 52.32122], [4.780171, 52.321026], [4.779916, 52.318802], [4.777832, 52.296661], [4.777222, 52.289703], [4.77684, 52.283066], [4.77684, 52.276337], [4.777145, 52.274734], [4.777603, 52.273087], [4.778442, 52.271118], [4.77921, 52.269737], [4.780502, 52.268005], [4.782192, 52.266151], [4.783859, 52.264664], [4.786273, 52.262753], [4.788156, 52.261589], [4.790955, 52.259995], [4.794006, 52.258621], [4.796982, 52.257431], [4.800633, 52.256283], [4.803848, 52.255463], [4.808426, 52.254547], [4.812718, 52.253956], [4.816406, 52.253632], [4.820251, 52.253349], [4.825058, 52.253128], [4.829712, 52.252991], [4.837952, 52.252945], [4.842852, 52.252979], [4.85886, 52.253258], [4.871338, 52.253445], [4.875488, 52.253448], [4.883502, 52.253536], [4.901629, 52.253582], [4.918365, 52.25354], [4.936236, 52.253258], [4.954987, 52.252899], [4.96943, 52.252514], [4.98909, 52.251938], [5.003488, 52.251534], [5.022635, 52.251022], [5.052261, 52.25029], [5.085754, 52.249283], [5.12112, 52.248184], [5.156326, 52.247131], [5.186844, 52.24617], [5.218349, 52.24511], [5.248954, 52.244133], [5.280186, 52.242924], [5.31189, 52.241455], [5.344696, 52.239761], [5.377258, 52.238083], [5.41214, 52.236191], [5.453033, 52.234039], [5.490265, 52.231796], [5.527692, 52.227512], [5.539551, 52.225708], [5.545663, 52.224674], [5.551758, 52.223602], [5.559474, 52.22216], [5.564105, 52.22123], [5.570931, 52.219788], [5.578079, 52.218246], [5.584037, 52.216854], [5.58796, 52.215923], [5.595337, 52.214108], [5.600662, 52.212799], [5.607452, 52.211105], [5.612836, 52.209778], [5.618487, 52.208382], [5.708967, 52.186501], [5.80246, 52.163773], [5.895691, 52.140793], [5.992737, 52.117126], [6.091605, 52.096561], [6.199271, 52.083809], [6.307602, 52.07254], [6.41735, 52.060905], [6.527328, 52.049194], [6.642227, 52.036789], [6.755753, 52.023605], [6.872406, 52.006531], [6.992645, 51.987579], [7.106857, 51.970047], [7.228775, 51.954025], [7.350388, 51.938187], [7.471619, 51.922211], [7.594064, 51.905838], [7.719879, 51.88866], [7.84668, 51.871109], [7.969468, 51.853958], [8.09633, 51.836197], [8.223192, 51.818161], [8.351911, 51.799805], [8.479515, 51.781586], [8.607788, 51.763046], [8.735987, 51.744415], [8.862033, 51.72583], [8.990936, 51.706734], [9.122238, 51.687138], [9.251602, 51.667603], [9.381409, 51.647892], [9.510574, 51.628014], [9.631743, 51.609329], [9.757715, 51.589508], [9.884872, 51.569546], [10.013733, 51.549389], [10.140152, 51.529137], [10.270212, 51.508118], [10.398407, 51.487473], [10.529556, 51.466011], [10.654907, 51.445389], [10.780258, 51.424629], [10.907568, 51.403519], [11.031906, 51.382507], [11.161738, 51.360535], [11.288834, 51.338787], [11.416626, 51.316208], [11.535645, 51.285065], [11.645953, 51.243393], [11.757227, 51.198212], [11.859445, 51.156509], [11.962967, 51.114033], [12.069447, 51.070038], [12.491529, 50.894211], [12.595749, 50.850407], [12.701416, 50.805717], [12.809242, 50.76004], [12.913666, 50.715637], [13.019233, 50.670547], [13.121289, 50.626785], [13.224051, 50.582497], [13.327428, 50.537796], [13.427743, 50.494236], [13.532113, 50.448521], [13.633959, 50.404018], [13.734692, 50.359467], [13.828968, 50.317795], [13.928808, 50.273251], [14.029469, 50.228394], [14.128789, 50.183872], [14.227444, 50.139462], [14.32581, 50.095093], [14.422953, 50.050964], [14.523184, 50.005436], [14.619984, 49.961288], [14.718933, 49.916008], [14.814395, 49.872017], [14.907111, 49.82933], [15.003421, 49.784683], [15.098927, 49.740181], [15.196838, 49.694607], [15.292102, 49.649872], [15.388357, 49.604668], [15.482628, 49.56015], [15.578179, 49.514969], [15.672962, 49.469898], [15.768489, 49.424419], [15.863101, 49.379261], [15.957007, 49.334152], [16.049652, 49.289371], [16.142818, 49.244308], [16.238371, 49.197987], [16.332623, 49.152134], [16.424984, 49.106964], [16.517521, 49.061646], [16.607948, 49.017151], [16.698713, 48.97221], [16.79056, 48.926743], [16.880711, 48.881897], [16.971563, 48.836601], [17.062754, 48.791748], [17.155714, 48.749313], [17.249908, 48.707977], [17.345018, 48.666092], [17.438261, 48.624893], [17.532772, 48.583054], [17.62525, 48.541786], [17.719791, 48.499657], [17.813536, 48.457623], [17.909405, 48.414505], [18.003845, 48.371841], [18.098145, 48.329224], [18.192276, 48.286354], [18.284983, 48.244034], [18.378176, 48.201443], [18.472595, 48.158104], [18.566965, 48.11467], [18.662338, 48.070724], [18.75507, 48.031204], [18.853981, 47.993866], [18.954445, 47.956764], [19.055082, 47.919338], [19.154875, 47.882187], [19.251617, 47.845917], [19.350163, 47.808964], [19.448685, 47.771851], [19.546257, 47.734909], [20.242584, 47.467712], [20.339745, 47.429855], [20.435909, 47.392227], [20.533173, 47.354004], [20.631363, 47.315414], [20.730427, 47.276264], [20.823761, 47.239243], [20.925785, 47.198662], [21.024803, 47.159046], [21.123138, 47.119629], [21.217487, 47.081631], [21.316998, 47.041454], [21.415945, 47.001419], [21.513084, 46.961838], [21.612236, 46.921371], [21.709126, 46.881687], [21.808273, 46.841], [21.906336, 46.800751], [22.003874, 46.760422], [22.102549, 46.719498], [22.781826, 46.434082], [24.210318, 45.810196], [24.304436, 45.767925], [24.399227, 45.725189], [24.492577, 45.68306], [24.584522, 45.641373], [24.678442, 45.598755], [24.770187, 45.55695], [24.864023, 45.513931], [24.957537, 45.470947], [25.049564, 45.428608], [25.14012, 45.386719], [25.232649, 45.343788], [25.322048, 45.302307], [25.41486, 45.258831], [25.505699, 45.216328], [25.598276, 45.172897], [25.690121, 45.129696], [25.780989, 45.0867], [25.870253, 45.044357], [25.95875, 45.00219], [26.046818, 44.960175], [26.134708, 44.91806], [26.221352, 44.876358], [26.30971, 44.833809], [26.396128, 44.792049], [26.483347, 44.749828], [26.572723, 44.706436], [26.65983, 44.663956], [26.745955, 44.621841], [26.833035, 44.579121], [26.917307, 44.537643], [27.002237, 44.495773], [27.088131, 44.453384], [27.17341, 44.410976], [27.256819, 44.369522], [27.342159, 44.326767], [27.426296, 44.284679], [27.510159, 44.242538], [27.593704, 44.20042], [27.679399, 44.157173], [27.76079, 44.115921], [27.844522, 44.07338], [27.9279, 44.030876], [28.010601, 43.988708], [28.093575, 43.946182], [28.175093, 43.904301], [28.257027, 43.862], [28.338978, 43.819748], [28.420454, 43.777493], [28.501266, 43.736469], [28.584604, 43.697224], [28.668285, 43.65863], [28.754408, 43.618969], [28.83647, 43.580898], [28.85058, 43.574074], [28.855341, 43.572388], [28.86286, 43.569141], [28.866253, 43.56773], [28.873461, 43.564518], [28.880669, 43.560276], [28.887135, 43.55722], [28.89221, 43.554955], [28.899387, 43.551685], [28.90428, 43.549313], [28.90955, 43.546822], [28.915085, 43.544277], [28.920952, 43.541553], [28.928007, 43.538242], [28.933336, 43.535782], [28.939165, 43.533073], [28.944298, 43.530678], [28.951416, 43.527283], [28.955513, 43.525402], [28.961884, 43.522434], [28.967579, 43.519753], [29.052528, 43.479931], [29.137735, 43.439999], [29.222963, 43.399891], [29.301561, 43.362595], [29.386404, 43.322285], [29.466566, 43.284409], [29.552528, 43.243507], [29.632935, 43.205208], [29.717514, 43.165287], [29.727674, 43.160076], [29.733864, 43.157299], [29.735575, 43.15588], [29.74259, 43.153225], [29.748266, 43.150394], [29.754347, 43.147522], [29.759785, 43.144958], [29.766247, 43.141846], [29.77249, 43.138802], [29.777365, 43.136463], [29.783436, 43.133564], [29.788794, 43.13092], [29.794849, 43.128014], [29.799616, 43.125736], [29.805679, 43.122826], [29.812017, 43.119797], [29.895273, 43.079865], [29.978878, 43.039707], [30.059277, 43.00074], [30.140354, 42.961491], [30.225233, 42.920139], [30.307875, 42.8797], [30.385521, 42.841816], [30.420712, 42.826305], [30.431751, 42.819172], [30.436857, 42.816261], [30.442148, 42.813961], [30.447971, 42.811199], [30.452833, 42.808689], [30.458765, 42.805752], [30.464462, 42.803104], [30.469908, 42.800468], [30.476772, 42.797211], [30.483381, 42.79398], [30.487698, 42.79187], [30.493147, 42.789165], [30.498222, 42.786697], [30.503832, 42.783993], [30.545307, 42.763512], [30.550953, 42.761139], [30.55718, 42.758942], [30.563053, 42.756569], [30.568398, 42.754543], [30.574091, 42.75246], [30.581013, 42.750134], [30.585913, 42.748508], [30.592176, 42.74654], [30.598587, 42.744694], [30.605642, 42.742779], [30.611366, 42.741371], [30.617411, 42.739891], [30.623907, 42.738419], [30.630671, 42.736996], [30.636421, 42.735905], [30.643517, 42.734688], [30.649601, 42.7337], [30.65649, 42.732662], [30.663128, 42.731777], [30.669077, 42.731155], [30.675104, 42.730473], [30.681969, 42.729774], [30.688522, 42.729198], [30.695072, 42.728672], [30.701271, 42.728123], [30.707968, 42.72747], [30.714624, 42.726818], [30.721409, 42.726162], [30.728756, 42.725559], [30.736492, 42.724628], [30.741024, 42.724255], [30.747164, 42.723717], [30.752579, 42.723175], [30.759901, 42.722439], [30.766733, 42.721725], [30.773525, 42.721012], [30.77997, 42.720341], [30.788834, 42.719589], [30.79406, 42.718906], [30.800173, 42.71838], [30.806984, 42.717724], [30.814114, 42.71698], [30.821213, 42.716267], [30.826046, 42.715782], [30.833797, 42.714951], [30.838871, 42.714397], [30.846848, 42.713737], [30.854269, 42.712868], [30.860914, 42.7122], [30.867432, 42.711582], [30.874302, 42.710884], [30.882284, 42.710064], [30.913933, 42.706867], [30.932856, 42.70575], [30.941269, 42.704052], [30.945108, 42.703682], [30.952225, 42.703003], [30.958862, 42.703381], [30.965786, 42.70163], [30.972601, 42.700954], [30.97962, 42.700214], [30.985001, 42.699654], [30.992399, 42.698902], [30.998802, 42.698219], [31.006134, 42.697445], [31.013128, 42.696716], [31.020271, 42.696064], [31.026869, 42.69529], [31.033457, 42.694832], [31.039686, 42.693981], [31.047134, 42.693371], [31.053623, 42.692474], [31.05969, 42.692017], [31.06661, 42.691204], [31.074011, 42.690971], [31.081909, 42.689613], [31.087893, 42.689072], [31.093433, 42.688675], [31.101078, 42.687683], [31.10775, 42.687004], [31.11381, 42.686363], [31.121355, 42.685749], [31.126558, 42.685093], [31.133799, 42.684452], [31.14002, 42.683762], [31.147593, 42.682678], [31.154448, 42.682144], [31.160402, 42.681553], [31.167747, 42.680779], [31.172688, 42.680367], [31.180897, 42.679306], [31.187037, 42.678699], [31.19305, 42.678028], [31.201836, 42.679016], [31.207041, 42.676498], [31.213652, 42.676025], [31.220709, 42.675213], [31.229092, 42.674255], [31.237539, 42.673416], [31.242428, 42.672878], [31.249374, 42.672176], [31.25543, 42.671539], [31.264067, 42.670704], [31.269318, 42.670101], [31.276154, 42.669426], [31.281336, 42.668846], [31.290184, 42.667976], [31.294451, 42.667515], [31.302168, 42.666683], [31.308109, 42.666134], [31.315311, 42.665291], [31.322788, 42.664536], [31.328888, 42.66386], [31.335968, 42.66309], [31.343483, 42.662258], [31.350565, 42.661545], [31.358763, 42.660721], [31.364546, 42.660088], [31.371931, 42.659279], [31.376696, 42.658779], [31.383318, 42.657967], [31.390772, 42.657135], [31.395885, 42.656555], [31.417902, 42.654137], [31.423815, 42.653458], [31.430681, 42.65274], [31.438892, 42.651791], [31.444984, 42.651173], [31.451281, 42.650497], [31.458061, 42.649624], [31.466145, 42.648853], [31.47146, 42.648254], [31.478958, 42.649475], [31.48554, 42.64679], [31.491169, 42.646065], [31.498287, 42.645123], [31.506218, 42.644501], [31.512447, 42.643688], [31.51935, 42.643349], [31.526834, 42.642258], [31.533003, 42.641403], [31.539938, 42.64069], [31.545912, 42.640026], [31.553902, 42.639095], [31.561733, 42.638214], [31.565254, 42.637878], [31.572212, 42.637157], [31.578997, 42.636383], [31.585453, 42.635536], [31.59553, 42.634346], [31.602085, 42.633789], [31.609486, 42.63287], [31.615341, 42.63427], [31.621267, 42.631577], [31.627766, 42.630817], [31.634678, 42.629993], [31.642456, 42.629208], [31.646873, 42.628742], [31.654726, 42.62785], [31.660498, 42.627178], [31.6672, 42.62648], [31.673265, 42.625767], [31.679604, 42.625061], [31.686819, 42.624439], [31.694361, 42.623554], [31.701921, 42.625618], [31.70624, 42.622143], [31.715574, 42.621147], [31.72291, 42.622917], [31.728231, 42.619469], [31.734917, 42.618866], [31.74214, 42.618195], [31.75211, 42.616989], [31.758213, 42.618298], [31.765518, 42.616104], [31.772421, 42.615974], [31.778339, 42.614174], [31.786364, 42.614822], [31.792486, 42.613682], [31.799568, 42.6138], [31.805847, 42.612202], [31.816473, 42.611362], [31.825659, 42.611938], [31.831758, 42.60804], [31.83918, 42.607304], [31.846886, 42.606361], [31.85581, 42.605568], [31.862886, 42.605854], [31.891291, 42.601425], [31.897226, 42.600822], [31.905346, 42.599789], [31.916758, 42.600883], [31.923225, 42.597847], [31.932159, 42.596828], [31.944412, 42.595512], [31.950865, 42.594658], [31.960571, 42.593651], [31.966404, 42.592979], [31.97109, 42.592274], [31.976675, 42.591576], [31.984243, 42.590897], [31.99193, 42.589947], [31.999987, 42.589153], [32.005611, 42.58844], [32.013161, 42.587559], [32.018879, 42.586918], [32.024494, 42.586285], [32.030209, 42.585617], [32.037617, 42.584843], [32.044834, 42.584057], [32.051006, 42.583382], [32.056965, 42.582764], [32.063457, 42.582027], [32.158436, 42.571331], [32.200401, 42.566582], [32.206375, 42.56588], [32.212624, 42.565243], [32.219498, 42.564507], [32.226284, 42.563686], [32.233868, 42.562824], [32.241966, 42.561848], [32.246983, 42.561577], [32.256641, 42.56039], [32.354763, 42.548641], [32.386093, 42.545048], [32.394539, 42.5462], [32.407345, 42.544174], [32.414413, 42.541973], [32.421421, 42.541161], [32.42728, 42.540352], [32.436913, 42.539215], [32.440762, 42.538647], [32.447567, 42.537876], [32.453976, 42.536999], [32.461086, 42.536102], [32.466995, 42.535519], [32.473103, 42.534744], [32.481361, 42.533764], [32.493206, 42.532326], [32.502007, 42.531364], [32.505997, 42.53093], [32.514793, 42.529881], [32.520103, 42.529293], [32.526524, 42.528748], [32.533886, 42.527794], [32.541702, 42.526794], [32.548107, 42.525951], [32.553516, 42.525341], [32.562714, 42.524277], [32.566254, 42.523853], [32.573071, 42.523079], [32.580532, 42.522049], [32.590679, 42.52116], [32.596199, 42.52], [32.604519, 42.519386], [32.610947, 42.518055], [32.617676, 42.517132], [32.624157, 42.516621], [32.633904, 42.515388], [32.637405, 42.514999], [32.643661, 42.514294], [32.651028, 42.51355], [32.658279, 42.512718], [32.665119, 42.512012], [32.671909, 42.511173], [32.679741, 42.509991], [32.686554, 42.50946], [32.693478, 42.508167], [32.699127, 42.507759], [32.706898, 42.506725], [32.714638, 42.505905], [32.721157, 42.505203], [32.728489, 42.504303], [32.736076, 42.50338], [32.742348, 42.502682], [32.74733, 42.502174], [32.754879, 42.501049], [32.762131, 42.500256], [32.769733, 42.499489], [32.776882, 42.498604], [32.782833, 42.497929], [32.789467, 42.49712], [32.795811, 42.496414], [32.802937, 42.495598], [32.810848, 42.494724], [32.817104, 42.493916], [32.823242, 42.493191], [32.832352, 42.491993], [32.836624, 42.491508], [32.84296, 42.490944], [32.871624, 42.487457], [32.879173, 42.486614], [32.884346, 42.485538], [32.892265, 42.484943], [32.898552, 42.484081], [32.90593, 42.483143], [32.913372, 42.482334], [32.920647, 42.481388], [32.928379, 42.48101], [32.934895, 42.479923], [32.943245, 42.478821], [32.950039, 42.477993], [32.955872, 42.477375], [32.962639, 42.476643], [32.96978, 42.475655], [32.977669, 42.474842], [32.984306, 42.473934], [32.99065, 42.473087], [32.999596, 42.471584], [33.004375, 42.471603], [33.010746, 42.470737], [33.016842, 42.470066], [33.024635, 42.469074], [33.03056, 42.468403], [33.038239, 42.467381], [33.044418, 42.466652], [33.051533, 42.465759], [33.058887, 42.464989], [33.064339, 42.464413], [33.072468, 42.46312], [33.078072, 42.462677], [33.085949, 42.461685], [33.091621, 42.461128], [33.124687, 42.45705], [33.134232, 42.455872], [33.13773, 42.45546], [33.145271, 42.454437], [33.188957, 42.448769], [33.196144, 42.448116], [33.203732, 42.447155], [33.209564, 42.446533], [33.215797, 42.445728], [33.221581, 42.44524], [33.229702, 42.44363], [33.238239, 42.442966], [33.24799, 42.441521], [33.254055, 42.441101], [33.259476, 42.440212], [33.267067, 42.439301], [33.273018, 42.438656], [33.280457, 42.437744], [33.286495, 42.437103], [33.296455, 42.435654], [33.301506, 42.435162], [33.308342, 42.434292], [33.315075, 42.433537], [33.3232, 42.432564], [33.330868, 42.431339], [33.336601, 42.430538], [33.343807, 42.429626], [33.349789, 42.428963], [33.357758, 42.427982], [33.36351, 42.427296], [33.372101, 42.426281], [33.37603, 42.425823], [33.383717, 42.424904], [33.39101, 42.42382], [33.398716, 42.422779], [33.403641, 42.422417], [33.408634, 42.421848], [33.415779, 42.421078], [33.42355, 42.419979], [33.429821, 42.419312], [33.437962, 42.418221], [33.444809, 42.417358], [33.450954, 42.416576], [33.458248, 42.415436], [33.463657, 42.414734], [33.471695, 42.413784], [33.47942, 42.412956], [33.486469, 42.411816], [33.492138, 42.410732], [33.49966, 42.409935], [33.506176, 42.409283], [33.512672, 42.408581], [33.517502, 42.407791], [33.524441, 42.406906], [33.530914, 42.406113], [33.53796, 42.40538], [33.546383, 42.404083], [33.550724, 42.403728], [33.558762, 42.402794], [33.565014, 42.402164], [33.57193, 42.401222], [33.579746, 42.400181], [33.587887, 42.399227], [33.593395, 42.398338], [33.600315, 42.39735], [33.605274, 42.396858], [33.612553, 42.395889], [33.61861, 42.394836], [33.629307, 42.393791], [33.636372, 42.392933], [33.642601, 42.391937], [33.648415, 42.391327], [33.655182, 42.390533], [33.662113, 42.389542], [33.669712, 42.388607], [33.677452, 42.387611], [33.683384, 42.386707], [33.690228, 42.385983], [33.699238, 42.384552], [33.703781, 42.384033], [33.710011, 42.383209], [33.717525, 42.382671], [33.72514, 42.381401], [33.731148, 42.380497], [33.737282, 42.379681], [33.745708, 42.378605], [33.75309, 42.377792], [33.760628, 42.376854], [33.767029, 42.375912], [33.774323, 42.374992], [33.781437, 42.374023], [33.788338, 42.373188], [33.79599, 42.372227], [33.892151, 42.359898], [33.989937, 42.347153], [34.043285, 42.346397], [34.057076, 42.338337], [34.065151, 42.337128], [34.07061, 42.336487], [34.07671, 42.335728], [34.08482, 42.334755], [34.090996, 42.334023], [34.100193, 42.332745], [34.104446, 42.332096], [34.110901, 42.33128], [34.117363, 42.330368], [34.124512, 42.329453], [34.131783, 42.328442], [34.138271, 42.327545], [34.230976, 42.315186], [34.258038, 42.311489], [34.264706, 42.310505], [34.271416, 42.309635], [34.279095, 42.308697], [34.286041, 42.307873], [34.293095, 42.306988], [34.301132, 42.305874], [34.306835, 42.305149], [34.314644, 42.304111], [34.322083, 42.303185], [34.329056, 42.30246], [34.336445, 42.301628], [34.34243, 42.301117], [34.350243, 42.300415], [34.380203, 42.295853], [34.38633, 42.295006], [34.392426, 42.294399], [34.400028, 42.293144], [34.406998, 42.292122], [34.414925, 42.291088], [34.421078, 42.290108], [34.42823, 42.289116], [34.434216, 42.288319], [34.445572, 42.286324], [34.449364, 42.285725], [34.458626, 42.284409], [34.472515, 42.282696], [34.549675, 42.273422], [34.55645, 42.270859], [34.609589, 42.26516], [34.622879, 42.262897], [34.764175, 42.243927], [35.233383, 42.176529], [35.245335, 42.175747], [35.252979, 42.174286], [35.258663, 42.173111], [35.931248, 42.074196], [35.936958, 42.073444], [35.944057, 42.072262], [35.975121, 42.067341], [35.9781, 42.067051], [35.98637, 42.06583], [35.994816, 42.06459], [35.999775, 42.065182], [36.008999, 42.062107], [36.015865, 42.061489], [36.023308, 42.06028], [36.030376, 42.059132], [36.038548, 42.057922], [36.044888, 42.05703], [36.051334, 42.056137], [36.063198, 42.054222], [36.066345, 42.053722], [36.075653, 42.052357], [36.083164, 42.051315], [36.090027, 42.050285], [36.097656, 42.049191], [36.104153, 42.048237], [36.131783, 42.0439], [36.147293, 42.04203], [36.166309, 42.038517], [36.170578, 42.037983], [36.176067, 42.037136], [36.184174, 42.035763], [36.190037, 42.035015], [36.197739, 42.033848], [36.203369, 42.033073], [36.211285, 42.031963], [36.21722, 42.031116], [36.223831, 42.030121], [36.231964, 42.028923], [36.330879, 42.013874], [36.427147, 41.99918], [36.520615, 41.985085], [36.532822, 41.98304], [36.541096, 41.981964], [36.547089, 41.981155], [36.553371, 41.980289], [36.561115, 41.978981], [36.568089, 41.977879], [36.576248, 41.976608], [36.583443, 41.975403], [36.592163, 41.974098], [36.597439, 41.973408], [36.605534, 41.972645], [36.610153, 41.971706], [36.61594, 41.970886], [36.624763, 41.96883], [36.631428, 41.968048], [36.638226, 41.967228], [36.644646, 41.966156], [36.652, 41.965118], [36.659313, 41.963974], [36.665157, 41.963078], [36.671661, 41.961861], [36.678726, 41.960575], [36.684643, 41.959526], [36.691353, 41.958549], [36.699333, 41.95731], [36.705498, 41.956383], [36.711735, 41.955368], [36.718159, 41.95425], [36.816807, 41.938812], [36.911705, 41.923649], [36.97065, 41.914726], [36.976418, 41.913998], [36.984661, 41.91304], [36.990147, 41.91214], [36.998528, 41.910889], [37.003838, 41.910149], [37.010658, 41.9095], [37.020172, 41.908054], [37.024693, 41.907661], [37.031555, 41.906818], [37.040371, 41.905968], [37.046391, 41.905369], [37.054779, 41.904652], [37.061539, 41.904007], [37.068069, 41.903606], [37.076591, 41.903046], [37.082668, 41.902802], [37.090263, 41.9025], [37.096138, 41.902306], [37.101551, 41.902081], [37.108097, 41.901833], [37.171207, 41.90176], [37.17947, 41.901291], [37.185417, 41.901024], [37.201633, 41.900719], [37.206802, 41.900761], [37.214569, 41.900696], [37.228443, 41.900501], [37.234482, 41.900299], [37.248543, 41.900227], [37.262486, 41.90012], [37.358772, 41.898731], [37.456764, 41.897308], [37.556293, 41.895828], [37.584679, 41.895142], [37.591446, 41.895065], [37.59864, 41.894924], [37.604744, 41.894836], [37.6124, 41.89465], [37.618771, 41.894619], [37.626442, 41.894646], [37.632973, 41.894562], [37.672855, 41.892872], [37.679371, 41.893353], [37.716049, 41.890457], [37.710693, 41.892784], [37.717445, 41.892262], [37.724739, 41.892208], [37.731552, 41.892056], [37.737942, 41.89188], [37.745583, 41.891861], [37.751228, 41.891785], [37.75948, 41.891705], [37.766064, 41.891582], [37.778713, 41.891296], [37.791702, 41.89119], [37.799713, 41.891106], [37.884171, 41.889404], [37.891975, 41.889175], [37.897106, 41.889179], [37.90538, 41.889126], [37.911922, 41.888744], [37.920486, 41.888569], [37.92807, 41.888336], [37.935787, 41.888187], [37.941444, 41.888058], [37.955944, 41.88776], [37.963139, 41.887669], [37.970051, 41.88763], [37.991535, 41.887386], [37.997871, 41.887035], [38.006081, 41.887024], [38.012955, 41.88678], [38.020691, 41.886589], [38.026474, 41.88649], [38.032661, 41.886467], [38.046917, 41.886162], [38.053997, 41.886097], [38.060509, 41.885925], [38.067394, 41.885803], [38.076057, 41.885601], [38.083004, 41.885384], [38.181931, 41.883339], [38.280968, 41.88084], [38.376598, 41.878555], [39.846161, 41.833229], [39.944786, 41.829422], [40.042084, 41.825634], [40.143974, 41.821571], [40.24107, 41.817745], [40.333885, 41.813725], [40.431255, 41.809628], [40.529129, 41.805435], [40.622444, 41.80127], [40.718704, 41.79678], [40.814468, 41.79211], [40.909935, 41.787262], [41.00441, 41.782413], [41.100807, 41.777451], [41.197231, 41.772499], [41.292339, 41.767433], [41.392471, 41.762192], [41.48901, 41.756939], [41.585213, 41.751678], [41.676231, 41.746284], [41.74184, 41.742889], [41.74588, 41.742779], [41.755417, 41.74213], [41.760651, 41.741791], [41.769478, 41.741451], [41.776619, 41.740978], [41.781887, 41.740692], [41.788383, 41.740398], [41.794613, 41.73999], [41.80304, 41.739346], [41.808617, 41.739029], [41.815742, 41.738647], [41.822651, 41.738174], [41.842659, 41.736828], [41.849945, 41.736347], [41.857292, 41.735767], [41.864029, 41.735596], [41.87114, 41.735302], [41.878674, 41.734879], [41.884628, 41.734501], [41.890079, 41.734238], [41.897366, 41.73365], [41.904324, 41.733406], [41.912281, 41.732883], [41.919689, 41.732513], [41.925262, 41.73217], [42.023556, 41.72604], [42.116013, 41.71896], [42.209675, 41.70916], [42.30426, 41.698933], [42.398373, 41.688602], [42.487705, 41.679035], [42.584267, 41.668457], [42.678024, 41.657879], [42.774925, 41.646774], [42.868671, 41.635902], [42.963516, 41.624664], [43.057877, 41.613766], [43.154533, 41.60215], [43.253296, 41.59042], [43.349529, 41.579075], [43.442215, 41.567867], [43.533768, 41.556957], [43.633644, 41.545197], [43.726612, 41.533855], [43.819412, 41.522488], [43.912655, 41.510784], [44.013138, 41.498192], [44.108624, 41.486103], [44.207417, 41.473919], [44.222546, 41.471176], [44.230145, 41.470936], [44.236244, 41.470177], [44.242493, 41.469429], [44.24947, 41.468506], [44.255661, 41.46767], [44.262302, 41.466862], [44.268997, 41.466045], [44.275253, 41.46526], [44.28236, 41.464333], [44.291412, 41.463139], [44.296555, 41.46249], [44.302803, 41.46167], [44.30901, 41.46088], [44.384663, 41.450836], [44.391724, 41.449745], [44.398281, 41.449032], [44.404305, 41.448532], [44.410622, 41.447773], [44.417305, 41.446934], [44.423294, 41.446075], [44.431046, 41.445168], [44.439262, 41.444], [44.445766, 41.443203], [44.453102, 41.442276], [44.458313, 41.441586], [44.465187, 41.440784], [44.471981, 41.439941], [44.47945, 41.439003], [44.486, 41.438087], [44.584377, 41.424957], [44.653049, 41.416241], [44.748062, 41.403793], [44.844589, 41.391056], [44.94104, 41.378117], [45.037292, 41.365051], [45.130276, 41.347034], [45.220726, 41.324112], [45.311615, 41.300797], [45.402714, 41.277233], [45.497807, 41.252693], [45.592041, 41.228149], [45.681793, 41.204521], [45.777744, 41.179489], [45.868202, 41.155426], [45.963169, 41.131588], [46.06039, 41.113735], [46.161514, 41.102589], [46.258076, 41.095139], [46.361435, 41.08609], [46.456799, 41.076672], [46.559715, 41.066494], [46.66206, 41.05632], [46.763596, 41.046124], [46.863503, 41.035828], [46.965668, 41.025311], [47.065315, 41.014908], [47.148354, 41.006226], [47.153313, 41.005737], [47.160286, 41.004971], [47.16658, 41.004307], [47.172764, 41.00362], [47.179218, 41.00296], [47.18615, 41.002213], [47.192394, 41.001564], [47.199696, 41.000782], [47.206558, 41.000034], [47.212509, 40.999413], [47.219669, 40.998665], [47.226189, 40.997974], [47.232594, 40.997257], [47.328697, 40.987122], [47.429482, 40.976299], [47.531986, 40.965073], [47.632904, 40.953983], [47.728962, 40.94342], [47.831436, 40.93219], [47.932278, 40.9212], [48.033245, 40.91016], [48.133488, 40.899155], [48.23415, 40.887985], [48.301552, 40.880569], [48.309349, 40.879646], [48.314369, 40.879066], [48.323204, 40.878105], [48.329292, 40.877583], [48.334801, 40.876713], [48.342793, 40.87595], [48.347008, 40.875553], [48.35574, 40.874477], [48.360218, 40.873917], [48.367447, 40.873074], [48.374294, 40.872208], [48.38039, 40.871498], [48.387024, 40.870842], [48.39426, 40.869915], [48.401203, 40.86908], [48.408829, 40.868229], [48.418003, 40.867321], [48.421368, 40.866791], [48.427937, 40.865955], [48.434246, 40.865211], [48.440968, 40.864445], [48.447914, 40.863655], [48.454933, 40.862892], [48.461617, 40.86219], [48.467499, 40.861488], [48.475143, 40.860489], [48.480663, 40.859966], [48.487545, 40.859245], [48.494587, 40.858444], [48.502598, 40.857399], [48.507179, 40.856884], [48.514645, 40.855995], [48.521042, 40.85532], [48.52763, 40.854519], [48.538605, 40.853245], [48.546288, 40.85231], [48.552727, 40.851395], [48.55896, 40.850964], [48.564716, 40.850098], [48.571301, 40.849354], [48.577797, 40.848503], [48.583744, 40.847923], [48.59079, 40.84697], [48.59782, 40.846207], [48.605427, 40.845341], [48.612305, 40.84457], [48.618057, 40.844017], [48.626015, 40.842945], [48.633606, 40.842037], [48.639763, 40.841362], [48.646843, 40.840599], [48.651417, 40.840038], [48.658558, 40.839203], [48.665771, 40.838318], [48.67178, 40.837627], [48.67878, 40.836784], [48.781834, 40.824532], [48.81517, 40.82048], [48.822182, 40.819679], [48.828819, 40.818836], [48.836494, 40.817921], [48.842216, 40.817261], [48.850082, 40.816338], [48.856255, 40.815556], [48.86272, 40.814766], [48.869965, 40.813892], [48.877556, 40.81295], [48.883614, 40.812199], [48.890156, 40.811489], [48.896328, 40.810719], [48.902931, 40.809883], [48.984734, 40.800037], [48.992031, 40.799202], [48.997753, 40.798519], [49.004696, 40.797733], [49.012325, 40.796642], [49.018394, 40.795937], [49.024666, 40.795208], [49.031887, 40.794331], [49.039211, 40.793423], [49.04567, 40.79258], [49.051472, 40.791912], [49.058453, 40.791027], [49.066013, 40.790138], [49.072845, 40.789387], [49.078594, 40.788582], [49.08556, 40.787712], [49.092331, 40.786854], [49.099346, 40.786015], [49.118435, 40.783592], [49.123775, 40.783035], [49.130722, 40.78223], [49.140881, 40.781021], [49.148205, 40.780094], [49.157284, 40.779144], [49.17136, 40.777264], [49.183144, 40.776108], [49.299294, 40.761665], [49.396809, 40.749382], [49.402935, 40.74855], [49.408405, 40.747829], [49.41539, 40.746956], [49.423241, 40.745953], [49.42786, 40.745358], [49.436108, 40.744438], [49.44738, 40.742989], [49.452202, 40.742279], [49.460037, 40.741322], [49.471127, 40.739876], [49.570538, 40.727291], [49.640732, 40.718456], [49.659874, 40.715984], [49.666359, 40.715019], [49.954212, 40.677982], [49.998775, 40.670704], [50.005653, 40.671329], [50.01062, 40.670639], [50.022385, 40.669048], [50.037918, 40.667019], [50.050652, 40.665382], [50.061916, 40.663898], [50.078915, 40.661648], [50.190884, 40.645153], [50.227512, 40.641163], [50.236107, 40.64101], [50.254196, 40.638603], [50.304501, 40.631771], [50.971661, 40.562428], [51.062439, 40.527706], [52.168079, 40.344311], [52.756474, 40.231747], [52.856098, 40.211918], [52.949219, 40.193298], [53.043678, 40.174442], [53.148609, 40.153679], [53.242432, 40.135208], [53.340881, 40.116028], [53.436035, 40.097443], [53.529949, 40.079102], [53.641308, 40.057224], [53.734631, 40.038696], [53.82605, 40.020447], [54.339355, 39.913982], [54.432556, 39.894245], [54.525444, 39.874374], [54.625977, 39.852718], [54.718811, 39.832607], [54.809021, 39.813148], [54.901428, 39.793396], [55.000916, 39.772091], [55.091599, 39.752747], [55.18689, 39.732288], [55.279541, 39.712318], [55.371811, 39.692276], [55.467106, 39.671402], [55.556641, 39.651661], [55.652321, 39.630524], [55.743317, 39.610291], [55.83276, 39.590378], [55.924438, 39.56982], [56.015106, 39.549683], [56.107239, 39.529129], [56.203857, 39.507488], [56.298218, 39.486168], [56.393738, 39.464565], [56.484985, 39.443851], [56.581799, 39.421829], [56.67757, 39.399811], [56.773701, 39.377655], [56.867863, 39.35495], [56.957764, 39.33194], [57.047485, 39.308708], [57.135742, 39.2859], [57.231567, 39.261135], [57.32489, 39.236786], [57.415028, 39.213226], [57.513187, 39.187637], [57.604542, 39.163696], [57.692139, 39.140564], [57.783447, 39.116402], [57.871559, 39.092972], [57.966373, 39.067703], [58.055176, 39.043919], [58.145874, 39.019527], [58.24181, 38.993546], [58.333641, 38.96846], [58.425114, 38.94342], [58.5219, 38.916962], [58.613972, 38.890503], [58.706818, 38.858002], [58.797241, 38.822563], [58.885559, 38.787884], [58.973835, 38.753128], [59.060303, 38.718941], [59.147224, 38.684555], [59.23822, 38.648365], [59.323792, 38.614288], [59.418152, 38.577419], [59.50592, 38.544834], [59.599876, 38.510101], [59.693439, 38.475403], [59.784851, 38.441116], [59.871513, 38.408569], [59.965309, 38.373184], [60.052963, 38.339996], [60.139454, 38.306992], [60.226692, 38.273529], [60.311897, 38.240662], [60.398041, 38.207428], [60.491917, 38.171253], [60.583687, 38.135826], [60.671879, 38.101795], [60.758694, 38.068233], [60.843452, 38.035355], [60.929459, 38.001801], [61.01725, 37.967606], [61.103737, 37.933868], [61.189369, 37.900272], [61.279411, 37.864845], [61.366283, 37.83049], [61.453938, 37.795856], [61.540501, 37.761612], [61.625599, 37.727936], [61.714062, 37.692627], [61.803997, 37.656601], [61.891071, 37.61824], [61.969376, 37.575714], [62.050781, 37.527878], [62.127102, 37.483521], [62.20417, 37.438103], [62.284122, 37.390945], [62.358639, 37.347], [62.439484, 37.299095], [62.519073, 37.251938], [62.598186, 37.204876], [62.673321, 37.159973], [62.738979, 37.120708], [62.826271, 37.068291], [62.905437, 37.020676], [62.980141, 36.975559], [63.055134, 36.930122], [63.130844, 36.884224], [63.205204, 36.839035], [63.286041, 36.78986], [63.36565, 36.741257], [63.441895, 36.694614], [63.517689, 36.647923], [63.593216, 36.601181], [63.668343, 36.554771], [63.741974, 36.509151], [63.821743, 36.459435], [63.894791, 36.413765], [63.968365, 36.367817], [64.040184, 36.322803], [64.11586, 36.275318], [64.188248, 36.22998], [64.261719, 36.184296], [64.336639, 36.138737], [64.411209, 36.094696], [64.487114, 36.050034], [64.565834, 36.003361], [64.64241, 35.957657], [64.719658, 35.911377], [64.793587, 35.866837], [64.873329, 35.819061], [64.953629, 35.770599], [65.031235, 35.723721], [65.104126, 35.679565], [65.177994, 35.634659], [65.254349, 35.58807], [65.331718, 35.541004], [65.856796, 35.218166], [65.929756, 35.172962], [66.003281, 35.127247], [66.078758, 35.080231], [66.152046, 35.034393], [66.228447, 34.986649], [66.304436, 34.938896], [66.825745, 34.605606], [66.897095, 34.559647], [66.970764, 34.511875], [67.046082, 34.46315], [67.121948, 34.414066], [67.205948, 34.359375], [69.082474, 33.094803], [69.157532, 33.046177], [69.231918, 32.997902], [69.344276, 32.924789], [69.415138, 32.878555], [69.49852, 32.823853], [69.572159, 32.775337], [69.645081, 32.727249], [69.720009, 32.677689], [69.789932, 32.631454], [69.865135, 32.58165], [69.941879, 32.530704], [70.01239, 32.483871], [70.083656, 32.436401], [70.153854, 32.389481], [70.230492, 32.339142], [70.303436, 32.292023], [70.375999, 32.245193], [70.447868, 32.198692], [70.522507, 32.150253], [70.596878, 32.101776], [70.673782, 32.051514], [70.745964, 32.004272], [70.821518, 31.95476], [70.895821, 31.91066], [70.978348, 31.871059], [71.058578, 31.835083], [71.1427, 31.797134], [71.22345, 31.760605], [71.303909, 31.724167], [71.382515, 31.68848], [71.466225, 31.650421], [71.54631, 31.613892], [71.629593, 31.575871], [71.711006, 31.538582], [71.79393, 31.500549], [71.8741, 31.46368], [71.955177, 31.426298], [72.032791, 31.390408], [72.11528, 31.352234], [72.195938, 31.314806], [72.273399, 31.282974], [72.279053, 31.281521], [72.285301, 31.28009], [72.291817, 31.278717], [72.296959, 31.27775], [72.303001, 31.276773], [72.308189, 31.276016], [72.313988, 31.27533], [72.320305, 31.274689], [72.326073, 31.274212], [72.33242, 31.273819], [72.338989, 31.27359], [72.3442, 31.273514], [72.350739, 31.273561], [72.356781, 31.273701], [72.362221, 31.273979], [72.368149, 31.274351], [72.373299, 31.274826], [72.379707, 31.275513], [72.38485, 31.276075], [72.390182, 31.276726], [72.396889, 31.277527], [72.408417, 31.278868], [72.414841, 31.279566], [72.49971, 31.289156], [72.585403, 31.298885], [72.666534, 31.307968], [72.754532, 31.317719], [72.842262, 31.327286], [72.930206, 31.336807], [73.019035, 31.346415], [73.105827, 31.355759], [73.195122, 31.36528], [73.278641, 31.374161], [73.36158, 31.382904], [73.450554, 31.392242], [73.536491, 31.401114], [73.622574, 31.410051], [73.711044, 31.419159], [73.798073, 31.428085], [73.884209, 31.436773], [73.96653, 31.444565], [74.02076, 31.444611], [74.025719, 31.444336], [74.031479, 31.443941], [74.037239, 31.443512], [74.043076, 31.442965], [74.04882, 31.442413], [74.055443, 31.441681], [74.061203, 31.440962], [74.066376, 31.440216], [74.072678, 31.439333], [74.078171, 31.438448], [74.083344, 31.437561], [74.089912, 31.436371], [74.09697, 31.435043], [74.183205, 31.418617], [74.270432, 31.402222], [74.353218, 31.386589], [74.438675, 31.370407], [74.525162, 31.351776], [74.536911, 31.347626], [74.542068, 31.345623], [74.548431, 31.343033], [74.553719, 31.340689], [74.558449, 31.338501], [74.564316, 31.335571], [74.568932, 31.333195], [74.574928, 31.329895], [74.58036, 31.326769], [74.584976, 31.323931], [74.590652, 31.320236], [74.594475, 31.317692], [74.600189, 31.313643], [74.605141, 31.309982], [74.609581, 31.30652], [74.612679, 31.30394], [74.617149, 31.300186], [74.621941, 31.295929], [74.62606, 31.292181], [74.629753, 31.288788], [74.633629, 31.285217], [74.638535, 31.280729], [74.642624, 31.276978], [74.646553, 31.273407], [74.650284, 31.270023], [74.713867, 31.212021], [74.776398, 31.1548], [74.838219, 31.098221], [74.900337, 31.041451], [74.961746, 30.98517], [75.025146, 30.926971], [75.087654, 30.869488], [75.142982, 30.812164], [75.146378, 30.807632], [75.149887, 30.802872], [75.152786, 30.798935], [75.155716, 30.79505], [75.160004, 30.789551], [75.16291, 30.785934], [75.166313, 30.781736], [75.170395, 30.776733], [75.225327, 30.713242], [75.276649, 30.654694], [75.331581, 30.591156], [75.386536, 30.52677], [75.437408, 30.466553], [75.490509, 30.40329], [75.543587, 30.339956], [75.594345, 30.279299], [75.648232, 30.214823], [75.701942, 30.150513], [75.752708, 30.089691], [75.804184, 30.027962], [75.856255, 29.96563], [75.909225, 29.902039], [75.959473, 29.841705], [76.012924, 29.777481], [76.063194, 29.717039], [77.546257, 27.888235], [77.59581, 27.825485], [77.641678, 27.767487], [77.691719, 27.704353], [77.741852, 27.640869], [77.790916, 27.578709], [77.839142, 27.517401], [77.885147, 27.458838], [77.934792, 27.395666], [77.983017, 27.334217], [78.030762, 27.273148], [78.078331, 27.212311], [78.126472, 27.15065], [78.174721, 27.088898], [78.220436, 27.030231], [78.268936, 26.967819], [78.31794, 26.904772], [78.366486, 26.842159], [78.412437, 26.782759], [78.458542, 26.723219], [78.505135, 26.662701], [78.552559, 26.601288], [78.598061, 26.542374], [78.644798, 26.481491], [78.688728, 26.424261], [78.733734, 26.365511], [78.780479, 26.304575], [78.824005, 26.247757], [78.87101, 26.186333], [78.917595, 26.125397], [78.9646, 26.063873], [79.010353, 26.003723], [79.057152, 25.942154], [79.101456, 25.883835], [79.144135, 25.82753], [79.191368, 25.765266], [79.238014, 25.703445], [79.287292, 25.646372], [79.342194, 25.59581], [79.403061, 25.542887], [79.463448, 25.490295], [79.519707, 25.441269], [79.575943, 25.392244], [79.632431, 25.342945], [79.68959, 25.292902], [79.749657, 25.240265], [79.810738, 25.186752], [79.867554, 25.136856], [79.926605, 25.084946], [79.985352, 25.033173], [80.042137, 24.983143], [80.098015, 24.933929], [80.157722, 24.881241], [80.213112, 24.832214], [80.272469, 24.779388], [80.32766, 24.730179], [80.38681, 24.677719], [80.442879, 24.628042], [80.49942, 24.577698], [80.555542, 24.527723], [80.614822, 24.474792], [80.671623, 24.424097], [81.298981, 23.859192], [81.358009, 23.807095], [81.415115, 23.760868], [82.376839, 23.016815], [82.436165, 22.970457], [82.493294, 22.925812], [82.554016, 22.878143], [82.613991, 22.8311], [82.670418, 22.786835], [82.729645, 22.74028], [82.786377, 22.695694], [82.845451, 22.649139], [82.90258, 22.604137], [82.960205, 22.558657], [83.020134, 22.511307], [83.076324, 22.466854], [83.135994, 22.419571], [83.193321, 22.374161], [83.253647, 22.326233], [83.309784, 22.281624], [83.366295, 22.236561], [83.426582, 22.188538], [83.483124, 22.143456], [83.539375, 22.098627], [83.596245, 22.053192], [83.653694, 22.007217], [83.713623, 21.959244], [83.772751, 21.911865], [83.829498, 21.866331], [83.886208, 21.820679], [83.943085, 21.774994], [84.002228, 21.727419], [84.059242, 21.681473], [84.116722, 21.635059], [84.176384, 21.586924], [84.68821, 21.171307], [84.743858, 21.125824], [84.799141, 21.080622], [84.853157, 21.036392], [84.908524, 20.991074], [84.965866, 20.944084], [85.024742, 20.895344], [85.076996, 20.847702], [85.132957, 20.795956], [85.187889, 20.745586], [85.240517, 20.697693], [85.293243, 20.649948], [85.348038, 20.600203], [85.40065, 20.552444], [85.456512, 20.501724], [85.508987, 20.454029], [85.560722, 20.406826], [85.615623, 20.356659], [85.671188, 20.305807], [85.725273, 20.256275], [85.778801, 20.207245], [85.833092, 20.157349], [85.88562, 20.109009], [85.939903, 20.059034], [85.991905, 20.011093], [86.044472, 19.962669], [86.098007, 19.913231], [86.150177, 19.864883], [86.205124, 19.814121], [86.256607, 19.766373], [86.311394, 19.715618], [86.366173, 19.664875], [86.418503, 19.616409], [86.472992, 19.565813], [86.525925, 19.516514], [86.577957, 19.468052], [86.633942, 19.415915], [86.688972, 19.364521], [86.741913, 19.315109], [86.796837, 19.263781], [86.849823, 19.214251], [86.900658, 19.166674], [86.955559, 19.115204], [87.006477, 19.067377], [87.058365, 19.018753], [87.109795, 18.970409], [87.162384, 18.920925], [87.219261, 18.86725], [87.272499, 18.817291], [87.324097, 18.768539], [87.375443, 18.720108], [87.426651, 18.67173], [87.481438, 18.619917], [87.533127, 18.571014], [87.584953, 18.521925], [87.636322, 18.47319], [87.68679, 18.425354], [87.739365, 18.37538], [87.792732, 18.324646], [87.843933, 18.275803], [87.895668, 18.225946], [87.948448, 18.175064], [88.589561, 17.55304], [88.639915, 17.50415], [88.688995, 17.456251], [88.751701, 17.394882], [90.416962, 15.779285], [91.498589, 14.736877], [91.548882, 14.688115], [91.602913, 14.635529], [91.653488, 14.586319], [91.70163, 14.539521], [91.742348, 14.499858], [91.809334, 14.43457], [91.891258, 14.354736], [91.945305, 14.302011], [91.996284, 14.252247], [92.048431, 14.20253], [92.104927, 14.148926], [92.156494, 14.099991], [92.208397, 14.05069], [92.262993, 13.998825], [92.315323, 13.949052], [92.368263, 13.897339], [92.419312, 13.846298], [92.469604, 13.795898], [92.519562, 13.745773], [92.570702, 13.694644], [92.621094, 13.644287], [92.671364, 13.594045], [92.721817, 13.543625], [92.772293, 13.493042], [92.822395, 13.442825], [92.872406, 13.392609], [92.921745, 13.343033], [92.971512, 13.292992], [93.021721, 13.242622], [93.071014, 13.19309], [93.120354, 13.143402], [93.169319, 13.094101], [93.21904, 13.04403], [93.268387, 12.994263], [93.317871, 12.944321], [93.36895, 12.892782], [93.419495, 12.841761], [93.468452, 12.792322], [93.518417, 12.741859], [93.568474, 12.691223], [93.617294, 12.641693], [93.666351, 12.592008], [93.719978, 12.537635], [93.769562, 12.487358], [93.818275, 12.437966], [93.86747, 12.388092], [93.916962, 12.337832], [93.96563, 12.288347], [94.014923, 12.238164], [94.064171, 12.1884], [94.113319, 12.139054], [94.163673, 12.08844], [94.212585, 12.039107], [94.265198, 11.985991], [94.314735, 11.936133], [94.365784, 11.884689], [94.415558, 11.835892], [94.469353, 11.788376], [94.525352, 11.740754], [94.579079, 11.69504], [95.229347, 11.139404], [95.289001, 11.088231], [95.348557, 11.037117], [95.406189, 10.987585], [95.464417, 10.937622], [95.522125, 10.888057], [95.579872, 10.838425], [95.637047, 10.78918], [95.694725, 10.739509], [95.749969, 10.691849], [95.808975, 10.641097], [95.865707, 10.592102], [95.915192, 10.549484], [96.018463, 10.460266], [96.078789, 10.408127], [96.137146, 10.357687], [96.198479, 10.304626], [96.252167, 10.258204], [96.335388, 10.186066], [96.39032, 10.138596], [96.442833, 10.093048], [96.529465, 10.017471], [96.587959, 9.959758], [97.138832, 9.372299], [97.184494, 9.323389], [97.236725, 9.267573], [97.282074, 9.21904], [97.329094, 9.168823], [97.374901, 9.119705], [97.425102, 9.065862], [97.473022, 9.014468], [97.520744, 8.963242], [97.569344, 8.911076], [97.617714, 8.859238], [97.664917, 8.808472], [97.7118, 8.757889], [97.758163, 8.707855], [97.807114, 8.654992], [97.856407, 8.60183], [97.902344, 8.552251], [97.951172, 8.499435], [97.999069, 8.447708], [98.047577, 8.395184], [98.093803, 8.345032], [98.13945, 8.295609], [98.185371, 8.245834], [98.23365, 8.19342], [98.279266, 8.14389], [98.327545, 8.088913], [98.906189, 7.385376], [99.577194, 6.565063], [99.622955, 6.508942], [99.664604, 6.457587], [99.706421, 6.404388], [99.752228, 6.349503], [99.798592, 6.302353], [99.849846, 6.252319], [99.896599, 6.206624], [99.948402, 6.156006], [99.996346, 6.109131], [100.047134, 6.059418], [100.095581, 6.012035], [100.133308, 5.967911], [100.138725, 5.960176], [100.141029, 5.956696], [100.14415, 5.951889], [100.146477, 5.948181], [100.148666, 5.944628], [100.151367, 5.940112], [100.153877, 5.93573], [100.156296, 5.931314], [100.158562, 5.927031], [100.160675, 5.922913], [100.162636, 5.918976], [100.193848, 5.856272], [100.225334, 5.79324], [100.257156, 5.729417], [100.288696, 5.665966], [100.318398, 5.606323], [100.350212, 5.542416], [100.381516, 5.479384], [100.411346, 5.419379], [100.443344, 5.355103], [100.475182, 5.290522], [100.486923, 5.259146], [100.488106, 5.25491], [100.489479, 5.249542], [100.490364, 5.245651], [100.491234, 5.241549], [100.492226, 5.236084], [100.49292, 5.231735], [100.493507, 5.227537], [100.494179, 5.222031], [100.494598, 5.21759], [100.494972, 5.21228], [100.495163, 5.208078], [100.495293, 5.202484], [100.495308, 5.196906], [100.495201, 5.193146], [100.494972, 5.187549], [100.49469, 5.18335], [100.494316, 5.178864], [100.493759, 5.174011], [100.493202, 5.169571], [100.492462, 5.164924], [100.491661, 5.160278], [100.490593, 5.154968], [100.489342, 5.149516], [100.488251, 5.14514], [100.487305, 5.141648], [100.485565, 5.135834], [100.484268, 5.131779], [100.482185, 5.12582], [100.480438, 5.121165], [100.47863, 5.116745], [100.476601, 5.111948], [100.474709, 5.107851], [100.472626, 5.103561], [100.469925, 5.098297], [100.468018, 5.094727], [100.465317, 5.089966], [100.462479, 5.085297], [100.460052, 5.081451], [100.457657, 5.077825], [100.454979, 5.073853], [100.452049, 5.069778], [100.448746, 5.06543], [100.445625, 5.061447], [100.442596, 5.057714], [100.439575, 5.054031], [100.436035, 5.04982], [100.432777, 5.045975], [100.426491, 5.038742], [100.423462, 5.035309], [100.374725, 4.980377], [100.32843, 4.92816], [100.279839, 4.87374], [100.232864, 4.820671], [100.210464, 4.789387], [100.207764, 4.784686], [100.205589, 4.780729], [100.203079, 4.77598], [100.201088, 4.77193], [100.199272, 4.768021], [100.196892, 4.762665], [100.195221, 4.758756], [100.193359, 4.753922], [100.191681, 4.749252], [100.190147, 4.74479], [100.188515, 4.73941], [100.187256, 4.735107], [100.186096, 4.730759], [100.184975, 4.725952], [100.183853, 4.720909], [100.182907, 4.716068], [100.182198, 4.711692], [100.18158, 4.707458], [100.18087, 4.701916], [100.180397, 4.697028], [100.179924, 4.691255], [100.179733, 4.686367], [100.179672, 4.681229], [100.179779, 4.67701], [100.180061, 4.671703], [100.180443, 4.667281], [100.181015, 4.662905], [100.18177, 4.658063], [100.182671, 4.653734], [100.183807, 4.648986], [100.185165, 4.644104], [100.18679, 4.639069], [100.188255, 4.63516], [100.190628, 4.629434], [100.192474, 4.625477], [100.194885, 4.620775], [100.197067, 4.616958], [100.19986, 4.612489], [100.202202, 4.609039], [100.205444, 4.604621], [100.208626, 4.600662], [100.211838, 4.597046], [100.214966, 4.593682], [100.218094, 4.590609], [100.221199, 4.587799], [100.225998, 4.583673], [100.229362, 4.58088], [100.233101, 4.577807], [100.236694, 4.574936], [100.239922, 4.572314], [100.247688, 4.565937], [100.25499, 4.559967], [100.309784, 4.515564], [100.364433, 4.471664], [100.41555, 4.430328], [100.466713, 4.388855], [100.520737, 4.344953], [100.574013, 4.301926], [100.627853, 4.258133], [100.679703, 4.21605], [100.730385, 4.174896], [100.78257, 4.132507], [100.834152, 4.090668], [100.886505, 4.048182], [100.937645, 4.006704], [100.988426, 3.965469], [101.039307, 3.924088], [101.085854, 3.886276], [101.126915, 3.857025], [101.131432, 3.854645], [101.135162, 3.852849], [101.138924, 3.85112], [101.143257, 3.849243], [101.146721, 3.847868], [101.151123, 3.846239], [101.154663, 3.845032], [101.158607, 3.843818], [101.163322, 3.842468], [101.167137, 3.841507], [101.171745, 3.840454], [101.175194, 3.839767], [101.179474, 3.838989], [101.183334, 3.838394], [101.187996, 3.837799], [101.191704, 3.837441], [101.196442, 3.837068], [101.200142, 3.836884], [101.204475, 3.8367], [101.213081, 3.836609], [101.217041, 3.836609], [101.221916, 3.836649], [101.23864, 3.837021], [101.303627, 3.838165], [101.323166, 3.836184], [101.326996, 3.835532], [101.331375, 3.834641], [101.335335, 3.833763], [101.340034, 3.832581], [101.343575, 3.831622], [101.351006, 3.829434], [101.355629, 3.828003], [101.359482, 3.82678], [101.367355, 3.824158], [101.371178, 3.82287], [101.374825, 3.821613], [101.379181, 3.820077], [101.38295, 3.818665], [101.386909, 3.817108], [101.39431, 3.81395], [101.397758, 3.812347], [101.402229, 3.810196], [101.405846, 3.808392], [101.420197, 3.800858], [101.427719, 3.796801], [101.480331, 3.767798], [101.530106, 3.73996], [101.574379, 3.712738], [101.577774, 3.709854], [101.580757, 3.707108], [101.583405, 3.704498], [101.586197, 3.701569], [101.588669, 3.698868], [101.591507, 3.695526], [101.593788, 3.692688], [101.59626, 3.689404], [101.598442, 3.686325], [101.600769, 3.682755], [101.602631, 3.679733], [101.604546, 3.676346], [101.606216, 3.673233], [101.607758, 3.67012], [101.609612, 3.666175], [101.610596, 3.663803], [101.612267, 3.659683], [101.61348, 3.656479], [101.614677, 3.653466], [101.617424, 3.646204], [101.621391, 3.635971], [101.622589, 3.632983], [101.624054, 3.629212], [101.644249, 3.577011], [101.66362, 3.526062], [101.683075, 3.474747], [101.703606, 3.421188], [101.723671, 3.368912], [101.741264, 3.322861], [101.757736, 3.285983], [101.7593, 3.283329], [101.761147, 3.280443], [101.763184, 3.277371], [101.766922, 3.27211], [101.76873, 3.269806], [101.770828, 3.267151], [101.773079, 3.264429], [101.774971, 3.262207], [101.777206, 3.259689], [101.779671, 3.256989], [101.784302, 3.252326], [101.78653, 3.250231], [101.788887, 3.248062], [101.791077, 3.246134], [101.793732, 3.243896], [101.795952, 3.242084], [101.798798, 3.239803], [101.801086, 3.238037], [101.803925, 3.235748], [101.809326, 3.231354], [101.811653, 3.229431], [101.847099, 3.197906], [101.849457, 3.194962], [101.851219, 3.192535], [101.853226, 3.189514], [101.854805, 3.186951], [101.856186, 3.184499], [101.857559, 3.181845], [101.858841, 3.179099], [101.860023, 3.176352], [101.861046, 3.173676], [101.861923, 3.170952], [101.863007, 3.167181], [101.863625, 3.164575], [101.864395, 3.160263], [101.864807, 3.157173], [101.865089, 3.154193], [101.86528, 3.151168], [101.865425, 3.144883], [101.865471, 3.141299], [101.865562, 3.137512], [101.865753, 3.124726], [101.865837, 3.121582], [101.86599, 3.111738], [101.866463, 3.064301], [101.866867, 3.017029], [101.867317, 2.969474], [101.867981, 2.923553], [101.867508, 2.880373], [101.866844, 2.877021], [101.866089, 2.874042], [101.865425, 2.871854], [101.864143, 2.868456], [101.863052, 2.865896], [101.861603, 2.862991], [101.86039, 2.860794], [101.858627, 2.857956], [101.856995, 2.855561], [101.854958, 2.852954], [101.853271, 2.850906], [101.851074, 2.848578], [101.84922, 2.846786], [101.84729, 2.844993], [101.844681, 2.842899], [101.842148, 2.841019], [101.837532, 2.837952], [101.835304, 2.836521], [101.829857, 2.832962], [101.82753, 2.831497], [101.82515, 2.830032], [101.822502, 2.828568], [101.820152, 2.827443], [101.816963, 2.826141], [101.814354, 2.825272], [101.811699, 2.824539], [101.809166, 2.823952], [101.806183, 2.823486], [101.80304, 2.823166], [101.800171, 2.823067], [101.796898, 2.823114], [101.794006, 2.823349], [101.791077, 2.823761], [101.788658, 2.824219], [101.786148, 2.824836], [101.783028, 2.825861], [101.780518, 2.826792], [101.777435, 2.828156], [101.774925, 2.829492], [101.772606, 2.830842], [101.770271, 2.832413], [101.767937, 2.834198], [101.766075, 2.835709], [101.764122, 2.837494], [101.761703, 2.839966], [101.759979, 2.841934], [101.758446, 2.843923], [101.756744, 2.84625], [101.754852, 2.849044], [101.752251, 2.853104], [101.748947, 2.858047], [101.747269, 2.860611], [101.744476, 2.864732], [101.742867, 2.867059], [101.739822, 2.871597], [101.731117, 2.88446], [101.720894, 2.899925], [101.71209, 2.913053], [101.703186, 2.92632], [101.694344, 2.939438], [101.684196, 2.954624], [101.674538, 2.969055], [101.666016, 2.981671], [101.657776, 2.993961], [101.649788, 3.005859], [101.641785, 3.017715], [101.634239, 3.028875], [101.626144, 3.041061], [101.617523, 3.05392], [101.608635, 3.067108], [101.600235, 3.077801], [101.598442, 3.079239], [101.596397, 3.080521], [101.594437, 3.081528], [101.592331, 3.082363], [101.589676, 3.083108], [101.587646, 3.083405], [101.585411, 3.08362], [101.583176, 3.083588], [101.580963, 3.083387], [101.57888, 3.083015], [101.576561, 3.082397], [101.574097, 3.081479], [101.57225, 3.080594], [101.570404, 3.07957], [101.568275, 3.078267], [101.566566, 3.077103], [101.564552, 3.075806], [101.562592, 3.074496], [101.560921, 3.073425], [101.559319, 3.072355], [101.557152, 3.070953], [101.553688, 3.06863], [101.552032, 3.067566], [101.550278, 3.066396], [101.548431, 3.065139], [101.538437, 3.057404], [101.537109, 3.055829], [101.536072, 3.054385], [101.53508, 3.05271], [101.534035, 3.050522], [101.533371, 3.048939], [101.532715, 3.046646], [101.532295, 3.044952], [101.531967, 3.042892], [101.531807, 3.040932], [101.531807, 3.038837], [101.532013, 3.037079], [101.532341, 3.035248], [101.532852, 3.033234], [101.533463, 3.031575], [101.53418, 3.029899], [101.534889, 3.028409], [101.536018, 3.026184], [101.536972, 3.024499], [101.538811, 3.021378], [101.541092, 3.017761], [101.54332, 3.014397], [101.545372, 3.011353], [101.547722, 3.007787], [101.548813, 3.006204], [101.556686, 2.994461], [101.563667, 2.984116], [101.568222, 2.977388], [101.571915, 2.971802], [101.579971, 2.959884], [101.58429, 2.953445], [101.588997, 2.946442], [101.592331, 2.941543], [101.596672, 2.935043], [101.600945, 2.928694], [101.607056, 2.919571], [101.608917, 2.916733], [101.611992, 2.912155], [101.615768, 2.906582], [101.619797, 2.900577], [101.623489, 2.89513], [101.626472, 2.890615], [101.630424, 2.884735], [101.633545, 2.880157], [101.637268, 2.874619], [101.640198, 2.870178], [101.647636, 2.859145], [101.654129, 2.849463], [101.660469, 2.839966], [101.664085, 2.83461], [101.666779, 2.830719], [101.670319, 2.825455], [101.672882, 2.821564], [101.676422, 2.816345], [101.682098, 2.807922], [101.689362, 2.797091], [101.693008, 2.791691], [101.695465, 2.788013], [101.700584, 2.780426], [101.705742, 2.772791], [101.70784, 2.769608], [101.714813, 2.759198], [101.715141, 2.758627], [101.71537, 2.758092], [101.715462, 2.757729], [101.715584, 2.757173], [101.715744, 2.754996], [101.715805, 2.754581], [101.715958, 2.754158], [101.716492, 2.753286], [101.718529, 2.750267], [101.718689, 2.750004], [101.718712, 2.749798], [101.718597, 2.749592], [101.71817, 2.749329], [101.715782, 2.747723], [101.715561, 2.747726], [101.715378, 2.747944], [101.715263, 2.74815]]}, "properties": {"name": "KL809_3d6c9cb9", "cmt": "2025-12-08", "tstamp": 1765148400, "desc": "---", "src": "4.769077/2.747723/101.867981/52.32127", "bbox": "4.769077/2.747723/101.867981/52.32127"}}]}