<?xml version="1.0" encoding="UTF-8"?>
<gpx xmlns="http://www.topografix.com/GPX/1/1" xmlns:xsi="http://www.w3.org/2001/XMLSchema-instance" xsi:schemaLocation="http://www.topografix.com/GPX/1/1 http://www.topografix.com/GPX/1/1/gpx.xsd" version="1.1" creator="GaiaGPS">
  <trk>
    <name>CAR_Kenya_Malindi_Watamu</name>
    <cmt>1994-08-15</cmt>
    <desc>1.0</desc>
    <type>Velomobile</type>
    <trkseg>
      <trkpt lat="-3.230718" lon="40.098304">
        <ele>28</ele>
      </trkpt>
      <trkpt lat="-3.231346" lon="40.098123">
        <ele>29</ele>
      </trkpt>
      <trkpt lat="-3.231465" lon="40.098214">
        <ele>29</ele>
      </trkpt>
      <trkpt lat="-3.231313" lon="40.098956">
        <ele>27</ele>
      </trkpt>
      <trkpt lat="-3.23146" lon="40.099411">
        <ele>27</ele>
      </trkpt>
      <trkpt lat="-3.232919" lon="40.101162">
        <ele>21</ele>
      </trkpt>
      <trkpt lat="-3.237273" lon="40.096902">
        <ele>28</ele>
      </trkpt>
      <trkpt lat="-3.237345" lon="40.097148">
        <ele>29</ele>
      </trkpt>
      <trkpt lat="-3.237273" lon="40.096902">
        <ele>28</ele>
      </trkpt>
      <trkpt lat="-3.238889" lon="40.095227">
        <ele>29</ele>
      </trkpt>
      <trkpt lat="-3.240239" lon="40.093317">
        <ele>30</ele>
      </trkpt>
      <trkpt lat="-3.246044" lon="40.081011">
        <ele>34</ele>
      </trkpt>
      <trkpt lat="-3.246679" lon="40.080853">
        <ele>35</ele>
      </trkpt>
      <trkpt lat="-3.247499" lon="40.080928">
        <ele>34</ele>
      </trkpt>
      <trkpt lat="-3.24895" lon="40.081507">
        <ele>33</ele>
      </trkpt>
      <trkpt lat="-3.249488" lon="40.08158">
        <ele>33</ele>
      </trkpt>
      <trkpt lat="-3.252281" lon="40.080965">
        <ele>28</ele>
      </trkpt>
      <trkpt lat="-3.256196" lon="40.080456">
        <ele>27</ele>
      </trkpt>
      <trkpt lat="-3.257318" lon="40.080104">
        <ele>25</ele>
      </trkpt>
      <trkpt lat="-3.259107" lon="40.079941">
        <ele>20</ele>
      </trkpt>
      <trkpt lat="-3.26039" lon="40.079361">
        <ele>24</ele>
      </trkpt>
      <trkpt lat="-3.262222" lon="40.078946">
        <ele>26</ele>
      </trkpt>
      <trkpt lat="-3.26498" lon="40.078889">
        <ele>23</ele>
      </trkpt>
      <trkpt lat="-3.270566" lon="40.080225">
        <ele>27</ele>
      </trkpt>
      <trkpt lat="-3.270685" lon="40.08065">
        <ele>23</ele>
      </trkpt>
      <trkpt lat="-3.270416" lon="40.081511">
        <ele>22</ele>
      </trkpt>
      <trkpt lat="-3.270552" lon="40.081743">
        <ele>20</ele>
      </trkpt>
      <trkpt lat="-3.272191" lon="40.082366">
        <ele>21</ele>
      </trkpt>
      <trkpt lat="-3.275166" lon="40.082913">
        <ele>16</ele>
      </trkpt>
      <trkpt lat="-3.275999" lon="40.083315">
        <ele>16</ele>
      </trkpt>
      <trkpt lat="-3.278811" lon="40.08203">
        <ele>18</ele>
      </trkpt>
      <trkpt lat="-3.280284" lon="40.08251">
        <ele>18</ele>
      </trkpt>
      <trkpt lat="-3.282536" lon="40.082722">
        <ele>19</ele>
      </trkpt>
      <trkpt lat="-3.284485" lon="40.08269">
        <ele>17</ele>
      </trkpt>
      <trkpt lat="-3.290432" lon="40.083059">
        <ele>17</ele>
      </trkpt>
      <trkpt lat="-3.290609" lon="40.079435">
        <ele>26</ele>
      </trkpt>
      <trkpt lat="-3.314095" lon="40.080465">
        <ele>10</ele>
      </trkpt>
      <trkpt lat="-3.317237" lon="40.073086">
        <ele>10</ele>
      </trkpt>
      <trkpt lat="-3.317989" lon="40.070474">
        <ele>9</ele>
      </trkpt>
      <trkpt lat="-3.32005" lon="40.070525">
        <ele>9</ele>
      </trkpt>
      <trkpt lat="-3.320378" lon="40.070392">
        <ele>9</ele>
      </trkpt>
      <trkpt lat="-3.325267" lon="40.064295">
        <ele>9</ele>
      </trkpt>
      <trkpt lat="-3.325661" lon="40.064019">
        <ele>11</ele>
      </trkpt>
      <trkpt lat="-3.327753" lon="40.061723">
        <ele>9</ele>
      </trkpt>
      <trkpt lat="-3.328571" lon="40.061173">
        <ele>9</ele>
      </trkpt>
      <trkpt lat="-3.332481" lon="40.056918">
        <ele>8</ele>
      </trkpt>
      <trkpt lat="-3.334881" lon="40.049372">
        <ele>7</ele>
      </trkpt>
      <trkpt lat="-3.335951" lon="40.047259">
        <ele>6</ele>
      </trkpt>
      <trkpt lat="-3.3364" lon="40.046608">
        <ele>8</ele>
      </trkpt>
      <trkpt lat="-3.336709" lon="40.046464">
        <ele>8</ele>
      </trkpt>
      <trkpt lat="-3.346079" lon="40.026454">
        <ele>6</ele>
      </trkpt>
      <trkpt lat="-3.348258" lon="40.022318">
        <ele>10</ele>
      </trkpt>
    </trkseg>
  </trk>
</gpx>
