<?xml version="1.0" encoding="UTF-8"?>
<gpx xmlns="http://www.topografix.com/GPX/1/1" xmlns:xsi="http://www.w3.org/2001/XMLSchema-instance" xsi:schemaLocation="http://www.topografix.com/GPX/1/1 http://www.topografix.com/GPX/1/1/gpx.xsd" version="1.1" creator="GaiaGPS">
  <wpt lat="-3.2860347" lon="37.5152208">
    <ele>0.0</ele>
    <name>Kibo Lodge</name>
    <desc>lodging</desc>
  </wpt>
  <wpt lat="-3.1815907" lon="37.5030698">
    <ele>0.0</ele>
    <name>Mandara Lodge</name>
    <desc>lodging</desc>
  </wpt>
  <wpt lat="-3.1391812" lon="37.4283739">
    <ele>0.0</ele>
    <name>Horombo Hut</name>
    <desc>lodging</desc>
  </wpt>
  <wpt lat="-3.0814284" lon="37.3864639">
    <ele>0.0</ele>
    <name>Kibo Hut</name>
    <desc>lodging</desc>
  </wpt>
  <wpt lat="-1.5925662" lon="35.3896639">
    <ele>0.0</ele>
    <name>Sopa Lodge</name>
    <desc>lodging</desc>
  </wpt>
  <wpt lat="0.0442497" lon="36.3684504">
    <ele>0.0</ele>
    <name>Thompson Falls</name>
    <desc>waterfall</desc>
  </wpt>
  <wpt lat="-0.3597874" lon="36.9004974">
    <ele>0.0</ele>
    <name>Tree Tops Lodge</name>
    <desc>lodging</desc>
  </wpt>
  <wpt lat="-3.3618593" lon="40.0053755">
    <ele>0.0</ele>
    <name>Hemingways Hotel</name>
    <desc>lodging</desc>
  </wpt>
</gpx>
