<?xml version="1.0" encoding="UTF-8"?>
<gpx xmlns="http://www.topografix.com/GPX/1/1" xmlns:xsi="http://www.w3.org/2001/XMLSchema-instance" xsi:schemaLocation="http://www.topografix.com/GPX/1/1 http://www.topografix.com/GPX/1/1/gpx.xsd" version="1.1" creator="gpx.py -- https://github.com/tkrajina/gpxpy">
  <metadata>
    <name>7_csv/Malaysia December 2025/MH1057_3d6e9e40.csv</name>
    <time>2025-12-09T09:51:49Z</time>
  </metadata>
  <trk>
    <name>7_csv/Malaysia December 2025/MH1057_3d6e9e40.csv</name>
    <cmt>2025-12-09</cmt>
    <type>Plane</type>
    <trkseg>
      <trkpt lat="2.75037" lon="101.700104">
        <ele>0.0</ele>
        <time>2025-12-09T09:51:49Z</time>
      </trkpt>
      <trkpt lat="2.750155" lon="101.699814">
        <ele>0.0</ele>
        <time>2025-12-09T09:51:49Z</time>
      </trkpt>
      <trkpt lat="2.749947" lon="101.69973">
        <ele>0.0</ele>
        <time>2025-12-09T09:51:49Z</time>
      </trkpt>
      <trkpt lat="2.749741" lon="101.699768">
        <ele>0.0</ele>
        <time>2025-12-09T09:51:49Z</time>
      </trkpt>
      <trkpt lat="2.749527" lon="101.699898">
        <ele>0.0</ele>
        <time>2025-12-09T09:51:49Z</time>
      </trkpt>
      <trkpt lat="2.749271" lon="101.700058">
        <ele>0.0</ele>
        <time>2025-12-09T09:51:49Z</time>
      </trkpt>
      <trkpt lat="2.749061" lon="101.700203">
        <ele>0.0</ele>
        <time>2025-12-09T09:51:49Z</time>
      </trkpt>
      <trkpt lat="2.748768" lon="101.700417">
        <ele>0.0</ele>
        <time>2025-12-09T09:51:49Z</time>
      </trkpt>
      <trkpt lat="2.74856" lon="101.700546">
        <ele>0.0</ele>
        <time>2025-12-09T09:51:49Z</time>
      </trkpt>
      <trkpt lat="2.74831" lon="101.700706">
        <ele>0.0</ele>
        <time>2025-12-09T09:51:49Z</time>
      </trkpt>
      <trkpt lat="2.74806" lon="101.700874">
        <ele>0.0</ele>
        <time>2025-12-09T09:51:49Z</time>
      </trkpt>
      <trkpt lat="2.747623" lon="101.701172">
        <ele>0.0</ele>
        <time>2025-12-09T09:51:49Z</time>
      </trkpt>
      <trkpt lat="2.747303" lon="101.701393">
        <ele>0.0</ele>
        <time>2025-12-09T09:51:49Z</time>
      </trkpt>
      <trkpt lat="2.746948" lon="101.70163">
        <ele>0.0</ele>
        <time>2025-12-09T09:51:49Z</time>
      </trkpt>
      <trkpt lat="2.746733" lon="101.701744">
        <ele>0.0</ele>
        <time>2025-12-09T09:51:49Z</time>
      </trkpt>
      <trkpt lat="2.7465" lon="101.701752">
        <ele>0.0</ele>
        <time>2025-12-09T09:51:49Z</time>
      </trkpt>
      <trkpt lat="2.746268" lon="101.701591">
        <ele>0.0</ele>
        <time>2025-12-09T09:51:49Z</time>
      </trkpt>
      <trkpt lat="2.746116" lon="101.701378">
        <ele>0.0</ele>
        <time>2025-12-09T09:51:49Z</time>
      </trkpt>
      <trkpt lat="2.745987" lon="101.701172">
        <ele>0.0</ele>
        <time>2025-12-09T09:51:49Z</time>
      </trkpt>
      <trkpt lat="2.745733" lon="101.700798">
        <ele>0.0</ele>
        <time>2025-12-09T09:51:49Z</time>
      </trkpt>
      <trkpt lat="2.745593" lon="101.700592">
        <ele>0.0</ele>
        <time>2025-12-09T09:51:49Z</time>
      </trkpt>
      <trkpt lat="2.745372" lon="101.700264">
        <ele>0.0</ele>
        <time>2025-12-09T09:51:49Z</time>
      </trkpt>
      <trkpt lat="2.744991" lon="101.699707">
        <ele>0.0</ele>
        <time>2025-12-09T09:51:49Z</time>
      </trkpt>
      <trkpt lat="2.744545" lon="101.699043">
        <ele>0.0</ele>
        <time>2025-12-09T09:51:49Z</time>
      </trkpt>
      <trkpt lat="2.744064" lon="101.698341">
        <ele>0.0</ele>
        <time>2025-12-09T09:51:49Z</time>
      </trkpt>
      <trkpt lat="2.743894" lon="101.698097">
        <ele>0.0</ele>
        <time>2025-12-09T09:51:49Z</time>
      </trkpt>
      <trkpt lat="2.743732" lon="101.697876">
        <ele>0.0</ele>
        <time>2025-12-09T09:51:49Z</time>
      </trkpt>
      <trkpt lat="2.743515" lon="101.697823">
        <ele>0.0</ele>
        <time>2025-12-09T09:51:49Z</time>
      </trkpt>
      <trkpt lat="2.743312" lon="101.697968">
        <ele>0.0</ele>
        <time>2025-12-09T09:51:49Z</time>
      </trkpt>
      <trkpt lat="2.743057" lon="101.698143">
        <ele>0.0</ele>
        <time>2025-12-09T09:51:49Z</time>
      </trkpt>
      <trkpt lat="2.742811" lon="101.698311">
        <ele>0.0</ele>
        <time>2025-12-09T09:51:49Z</time>
      </trkpt>
      <trkpt lat="2.742554" lon="101.698471">
        <ele>0.0</ele>
        <time>2025-12-09T09:51:49Z</time>
      </trkpt>
      <trkpt lat="2.742222" lon="101.698708">
        <ele>0.0</ele>
        <time>2025-12-09T09:51:49Z</time>
      </trkpt>
      <trkpt lat="2.741913" lon="101.698914">
        <ele>0.0</ele>
        <time>2025-12-09T09:51:49Z</time>
      </trkpt>
      <trkpt lat="2.741682" lon="101.699066">
        <ele>0.0</ele>
        <time>2025-12-09T09:51:49Z</time>
      </trkpt>
      <trkpt lat="2.741263" lon="101.699341">
        <ele>0.0</ele>
        <time>2025-12-09T09:51:49Z</time>
      </trkpt>
      <trkpt lat="2.740894" lon="101.6996">
        <ele>0.0</ele>
        <time>2025-12-09T09:51:49Z</time>
      </trkpt>
      <trkpt lat="2.740588" lon="101.699799">
        <ele>0.0</ele>
        <time>2025-12-09T09:51:49Z</time>
      </trkpt>
      <trkpt lat="2.740128" lon="101.700104">
        <ele>0.0</ele>
        <time>2025-12-09T09:51:49Z</time>
      </trkpt>
      <trkpt lat="2.739785" lon="101.700333">
        <ele>0.0</ele>
        <time>2025-12-09T09:51:49Z</time>
      </trkpt>
      <trkpt lat="2.739292" lon="101.700661">
        <ele>0.0</ele>
        <time>2025-12-09T09:51:49Z</time>
      </trkpt>
      <trkpt lat="2.738913" lon="101.700928">
        <ele>0.0</ele>
        <time>2025-12-09T09:51:49Z</time>
      </trkpt>
      <trkpt lat="2.738587" lon="101.701141">
        <ele>0.0</ele>
        <time>2025-12-09T09:51:49Z</time>
      </trkpt>
      <trkpt lat="2.737152" lon="101.702103">
        <ele>0.0</ele>
        <time>2025-12-09T09:51:49Z</time>
      </trkpt>
      <trkpt lat="2.732698" lon="101.705078">
        <ele>0.0</ele>
        <time>2025-12-09T09:51:49Z</time>
      </trkpt>
      <trkpt lat="2.727216" lon="101.708725">
        <ele>91.44</ele>
        <time>2025-12-09T09:51:49Z</time>
      </trkpt>
      <trkpt lat="2.72163" lon="101.712372">
        <ele>175.26000000000002</ele>
        <time>2025-12-09T09:51:49Z</time>
      </trkpt>
      <trkpt lat="2.717514" lon="101.715012">
        <ele>266.7</ele>
        <time>2025-12-09T09:51:49Z</time>
      </trkpt>
      <trkpt lat="2.711668" lon="101.718719">
        <ele>365.76</ele>
        <time>2025-12-09T09:51:49Z</time>
      </trkpt>
      <trkpt lat="2.705795" lon="101.722504">
        <ele>441.96000000000004</ele>
        <time>2025-12-09T09:51:49Z</time>
      </trkpt>
      <trkpt lat="2.699657" lon="101.726532">
        <ele>495.3</ele>
        <time>2025-12-09T09:51:49Z</time>
      </trkpt>
      <trkpt lat="2.69328" lon="101.730743">
        <ele>533.4</ele>
        <time>2025-12-09T09:51:49Z</time>
      </trkpt>
      <trkpt lat="2.6884" lon="101.734001">
        <ele>579.12</ele>
        <time>2025-12-09T09:51:49Z</time>
      </trkpt>
      <trkpt lat="2.681213" lon="101.738892">
        <ele>617.22</ele>
        <time>2025-12-09T09:51:49Z</time>
      </trkpt>
      <trkpt lat="2.673309" lon="101.744194">
        <ele>670.5600000000001</ele>
        <time>2025-12-09T09:51:49Z</time>
      </trkpt>
      <trkpt lat="2.667862" lon="101.747887">
        <ele>708.6600000000001</ele>
        <time>2025-12-09T09:51:49Z</time>
      </trkpt>
      <trkpt lat="2.659286" lon="101.753738">
        <ele>762.0</ele>
        <time>2025-12-09T09:51:49Z</time>
      </trkpt>
      <trkpt lat="2.652779" lon="101.758263">
        <ele>822.96</ele>
        <time>2025-12-09T09:51:49Z</time>
      </trkpt>
      <trkpt lat="2.646355" lon="101.762665">
        <ele>899.1600000000001</ele>
        <time>2025-12-09T09:51:49Z</time>
      </trkpt>
      <trkpt lat="2.637543" lon="101.768639">
        <ele>1013.46</ele>
        <time>2025-12-09T09:51:49Z</time>
      </trkpt>
      <trkpt lat="2.629257" lon="101.774178">
        <ele>1120.14</ele>
        <time>2025-12-09T09:51:49Z</time>
      </trkpt>
      <trkpt lat="2.622381" lon="101.778908">
        <ele>1203.96</ele>
        <time>2025-12-09T09:51:49Z</time>
      </trkpt>
      <trkpt lat="2.618179" lon="101.782089">
        <ele>1264.92</ele>
        <time>2025-12-09T09:51:49Z</time>
      </trkpt>
      <trkpt lat="2.616211" lon="101.783722">
        <ele>1287.78</ele>
        <time>2025-12-09T09:51:49Z</time>
      </trkpt>
      <trkpt lat="2.613922" lon="101.785721">
        <ele>1325.88</ele>
        <time>2025-12-09T09:51:49Z</time>
      </trkpt>
      <trkpt lat="2.612045" lon="101.787445">
        <ele>1356.3600000000001</ele>
        <time>2025-12-09T09:51:49Z</time>
      </trkpt>
      <trkpt lat="2.610417" lon="101.78904">
        <ele>1386.8400000000001</ele>
        <time>2025-12-09T09:51:49Z</time>
      </trkpt>
      <trkpt lat="2.608429" lon="101.791031">
        <ele>1417.3200000000002</ele>
        <time>2025-12-09T09:51:49Z</time>
      </trkpt>
      <trkpt lat="2.606689" lon="101.792892">
        <ele>1447.8000000000002</ele>
        <time>2025-12-09T09:51:49Z</time>
      </trkpt>
      <trkpt lat="2.604675" lon="101.795128">
        <ele>1478.28</ele>
        <time>2025-12-09T09:51:49Z</time>
      </trkpt>
      <trkpt lat="2.603155" lon="101.796852">
        <ele>1501.14</ele>
        <time>2025-12-09T09:51:49Z</time>
      </trkpt>
      <trkpt lat="2.601379" lon="101.799034">
        <ele>1531.6200000000001</ele>
        <time>2025-12-09T09:51:49Z</time>
      </trkpt>
      <trkpt lat="2.599942" lon="101.800835">
        <ele>1554.48</ele>
        <time>2025-12-09T09:51:49Z</time>
      </trkpt>
      <trkpt lat="2.59836" lon="101.802872">
        <ele>1577.3400000000001</ele>
        <time>2025-12-09T09:51:49Z</time>
      </trkpt>
      <trkpt lat="2.596252" lon="101.805511">
        <ele>1607.8200000000002</ele>
        <time>2025-12-09T09:51:49Z</time>
      </trkpt>
      <trkpt lat="2.594496" lon="101.807747">
        <ele>1630.68</ele>
        <time>2025-12-09T09:51:49Z</time>
      </trkpt>
      <trkpt lat="2.593048" lon="101.809555">
        <ele>1653.5400000000002</ele>
        <time>2025-12-09T09:51:49Z</time>
      </trkpt>
      <trkpt lat="2.59108" lon="101.812027">
        <ele>1684.02</ele>
        <time>2025-12-09T09:51:49Z</time>
      </trkpt>
      <trkpt lat="2.589478" lon="101.814072">
        <ele>1714.5</ele>
        <time>2025-12-09T09:51:49Z</time>
      </trkpt>
      <trkpt lat="2.578949" lon="101.827202">
        <ele>1889.76</ele>
        <time>2025-12-09T09:51:49Z</time>
      </trkpt>
      <trkpt lat="2.568604" lon="101.839958">
        <ele>2065.02</ele>
        <time>2025-12-09T09:51:49Z</time>
      </trkpt>
      <trkpt lat="2.557301" lon="101.853821">
        <ele>2255.52</ele>
        <time>2025-12-09T09:51:49Z</time>
      </trkpt>
      <trkpt lat="2.546036" lon="101.867744">
        <ele>2446.02</ele>
        <time>2025-12-09T09:51:49Z</time>
      </trkpt>
      <trkpt lat="2.535607" lon="101.880623">
        <ele>2567.94</ele>
        <time>2025-12-09T09:51:49Z</time>
      </trkpt>
      <trkpt lat="2.524249" lon="101.894638">
        <ele>2674.6200000000003</ele>
        <time>2025-12-09T09:51:49Z</time>
      </trkpt>
      <trkpt lat="2.5114" lon="101.910408">
        <ele>2811.78</ele>
        <time>2025-12-09T09:51:49Z</time>
      </trkpt>
      <trkpt lat="2.500443" lon="101.923935">
        <ele>2926.08</ele>
        <time>2025-12-09T09:51:49Z</time>
      </trkpt>
      <trkpt lat="2.489381" lon="101.937401">
        <ele>3032.76</ele>
        <time>2025-12-09T09:51:49Z</time>
      </trkpt>
      <trkpt lat="2.477921" lon="101.951546">
        <ele>3108.96</ele>
        <time>2025-12-09T09:51:49Z</time>
      </trkpt>
      <trkpt lat="2.466337" lon="101.965866">
        <ele>3169.92</ele>
        <time>2025-12-09T09:51:49Z</time>
      </trkpt>
      <trkpt lat="2.454792" lon="101.980164">
        <ele>3246.1200000000003</ele>
        <time>2025-12-09T09:51:49Z</time>
      </trkpt>
      <trkpt lat="2.442947" lon="101.994835">
        <ele>3307.0800000000004</ele>
        <time>2025-12-09T09:51:49Z</time>
      </trkpt>
      <trkpt lat="2.429489" lon="102.011505">
        <ele>3375.6600000000003</ele>
        <time>2025-12-09T09:51:49Z</time>
      </trkpt>
      <trkpt lat="2.417816" lon="102.025887">
        <ele>3413.76</ele>
        <time>2025-12-09T09:51:49Z</time>
      </trkpt>
      <trkpt lat="2.404083" lon="102.042831">
        <ele>3406.1400000000003</ele>
        <time>2025-12-09T09:51:49Z</time>
      </trkpt>
      <trkpt lat="2.392366" lon="102.057167">
        <ele>3406.1400000000003</ele>
        <time>2025-12-09T09:51:49Z</time>
      </trkpt>
      <trkpt lat="2.380371" lon="102.071831">
        <ele>3451.86</ele>
        <time>2025-12-09T09:51:49Z</time>
      </trkpt>
      <trkpt lat="2.368764" lon="102.086143">
        <ele>3558.54</ele>
        <time>2025-12-09T09:51:49Z</time>
      </trkpt>
      <trkpt lat="2.356661" lon="102.101013">
        <ele>3741.42</ele>
        <time>2025-12-09T09:51:49Z</time>
      </trkpt>
      <trkpt lat="2.327146" lon="102.137428">
        <ele>4152.900000000001</ele>
        <time>2025-12-09T09:51:49Z</time>
      </trkpt>
      <trkpt lat="2.296509" lon="102.17527">
        <ele>4564.38</ele>
        <time>2025-12-09T09:51:49Z</time>
      </trkpt>
      <trkpt lat="2.266846" lon="102.211678">
        <ele>4808.22</ele>
        <time>2025-12-09T09:51:49Z</time>
      </trkpt>
      <trkpt lat="2.236908" lon="102.248405">
        <ele>4968.240000000001</ele>
        <time>2025-12-09T09:51:49Z</time>
      </trkpt>
      <trkpt lat="2.205133" lon="102.28759">
        <ele>5113.02</ele>
        <time>2025-12-09T09:51:49Z</time>
      </trkpt>
      <trkpt lat="2.173782" lon="102.326149">
        <ele>5189.22</ele>
        <time>2025-12-09T09:51:49Z</time>
      </trkpt>
      <trkpt lat="2.140778" lon="102.3666">
        <ele>5181.6</ele>
        <time>2025-12-09T09:51:49Z</time>
      </trkpt>
      <trkpt lat="2.10791" lon="102.407196">
        <ele>5173.9800000000005</ele>
        <time>2025-12-09T09:51:49Z</time>
      </trkpt>
      <trkpt lat="2.075718" lon="102.446991">
        <ele>5173.9800000000005</ele>
        <time>2025-12-09T09:51:49Z</time>
      </trkpt>
      <trkpt lat="2.044388" lon="102.485443">
        <ele>5181.6</ele>
        <time>2025-12-09T09:51:49Z</time>
      </trkpt>
      <trkpt lat="2.0159" lon="102.523811">
        <ele>5135.88</ele>
        <time>2025-12-09T09:51:49Z</time>
      </trkpt>
      <trkpt lat="2.013896" lon="102.527351">
        <ele>5120.64</ele>
        <time>2025-12-09T09:51:49Z</time>
      </trkpt>
      <trkpt lat="2.012407" lon="102.530098">
        <ele>5113.02</ele>
        <time>2025-12-09T09:51:49Z</time>
      </trkpt>
      <trkpt lat="2.010964" lon="102.532845">
        <ele>5097.780000000001</ele>
        <time>2025-12-09T09:51:49Z</time>
      </trkpt>
      <trkpt lat="2.009055" lon="102.536774">
        <ele>5082.54</ele>
        <time>2025-12-09T09:51:49Z</time>
      </trkpt>
      <trkpt lat="2.008026" lon="102.539032">
        <ele>5074.92</ele>
        <time>2025-12-09T09:51:49Z</time>
      </trkpt>
      <trkpt lat="2.006607" lon="102.542198">
        <ele>5067.3</ele>
        <time>2025-12-09T09:51:49Z</time>
      </trkpt>
      <trkpt lat="2.005371" lon="102.545036">
        <ele>5059.68</ele>
        <time>2025-12-09T09:51:49Z</time>
      </trkpt>
      <trkpt lat="2.003952" lon="102.548485">
        <ele>5044.4400000000005</ele>
        <time>2025-12-09T09:51:49Z</time>
      </trkpt>
      <trkpt lat="2.002957" lon="102.551125">
        <ele>5036.820000000001</ele>
        <time>2025-12-09T09:51:49Z</time>
      </trkpt>
      <trkpt lat="2.00148" lon="102.554863">
        <ele>5021.58</ele>
        <time>2025-12-09T09:51:49Z</time>
      </trkpt>
      <trkpt lat="2.000257" lon="102.558083">
        <ele>5013.96</ele>
        <time>2025-12-09T09:51:49Z</time>
      </trkpt>
      <trkpt lat="1.999191" lon="102.560677">
        <ele>4998.72</ele>
        <time>2025-12-09T09:51:49Z</time>
      </trkpt>
      <trkpt lat="1.998093" lon="102.563568">
        <ele>4991.1</ele>
        <time>2025-12-09T09:51:49Z</time>
      </trkpt>
      <trkpt lat="1.978982" lon="102.611023">
        <ele>4823.46</ele>
        <time>2025-12-09T09:51:49Z</time>
      </trkpt>
      <trkpt lat="1.960922" lon="102.655411">
        <ele>4663.4400000000005</ele>
        <time>2025-12-09T09:51:49Z</time>
      </trkpt>
      <trkpt lat="1.942108" lon="102.701408">
        <ele>4503.42</ele>
        <time>2025-12-09T09:51:49Z</time>
      </trkpt>
      <trkpt lat="1.923632" lon="102.746979">
        <ele>4328.16</ele>
        <time>2025-12-09T09:51:49Z</time>
      </trkpt>
      <trkpt lat="1.906361" lon="102.789551">
        <ele>4175.76</ele>
        <time>2025-12-09T09:51:49Z</time>
      </trkpt>
      <trkpt lat="1.889136" lon="102.832176">
        <ele>4023.36</ele>
        <time>2025-12-09T09:51:49Z</time>
      </trkpt>
      <trkpt lat="1.87126" lon="102.87664">
        <ele>3855.7200000000003</ele>
        <time>2025-12-09T09:51:49Z</time>
      </trkpt>
      <trkpt lat="1.853622" lon="102.919922">
        <ele>3619.5</ele>
        <time>2025-12-09T09:51:49Z</time>
      </trkpt>
      <trkpt lat="1.846308" lon="102.938057">
        <ele>3528.0600000000004</ele>
        <time>2025-12-09T09:51:49Z</time>
      </trkpt>
      <trkpt lat="1.839249" lon="102.955536">
        <ele>3429.0</ele>
        <time>2025-12-09T09:51:49Z</time>
      </trkpt>
      <trkpt lat="1.831784" lon="102.974045">
        <ele>3329.94</ele>
        <time>2025-12-09T09:51:49Z</time>
      </trkpt>
      <trkpt lat="1.824875" lon="102.991379">
        <ele>3238.5</ele>
        <time>2025-12-09T09:51:49Z</time>
      </trkpt>
      <trkpt lat="1.817963" lon="103.008324">
        <ele>3139.44</ele>
        <time>2025-12-09T09:51:49Z</time>
      </trkpt>
      <trkpt lat="1.811234" lon="103.02597">
        <ele>3032.76</ele>
        <time>2025-12-09T09:51:49Z</time>
      </trkpt>
      <trkpt lat="1.807526" lon="103.040306">
        <ele>2971.8</ele>
        <time>2025-12-09T09:51:49Z</time>
      </trkpt>
      <trkpt lat="1.806976" lon="103.043098">
        <ele>2956.56</ele>
        <time>2025-12-09T09:51:49Z</time>
      </trkpt>
      <trkpt lat="1.806381" lon="103.046448">
        <ele>2948.94</ele>
        <time>2025-12-09T09:51:49Z</time>
      </trkpt>
      <trkpt lat="1.805969" lon="103.049248">
        <ele>2933.7000000000003</ele>
        <time>2025-12-09T09:51:49Z</time>
      </trkpt>
      <trkpt lat="1.805557" lon="103.05204">
        <ele>2926.08</ele>
        <time>2025-12-09T09:51:49Z</time>
      </trkpt>
      <trkpt lat="1.805145" lon="103.055389">
        <ele>2910.84</ele>
        <time>2025-12-09T09:51:49Z</time>
      </trkpt>
      <trkpt lat="1.80483" lon="103.058479">
        <ele>2895.6000000000004</ele>
        <time>2025-12-09T09:51:49Z</time>
      </trkpt>
      <trkpt lat="1.804551" lon="103.061279">
        <ele>2887.98</ele>
        <time>2025-12-09T09:51:49Z</time>
      </trkpt>
      <trkpt lat="1.804321" lon="103.064323">
        <ele>2872.7400000000002</ele>
        <time>2025-12-09T09:51:49Z</time>
      </trkpt>
      <trkpt lat="1.804092" lon="103.06768">
        <ele>2857.5</ele>
        <time>2025-12-09T09:51:49Z</time>
      </trkpt>
      <trkpt lat="1.803864" lon="103.070473">
        <ele>2842.26</ele>
        <time>2025-12-09T09:51:49Z</time>
      </trkpt>
      <trkpt lat="1.803635" lon="103.073265">
        <ele>2827.02</ele>
        <time>2025-12-09T09:51:49Z</time>
      </trkpt>
      <trkpt lat="1.803406" lon="103.076057">
        <ele>2811.78</ele>
        <time>2025-12-09T09:51:49Z</time>
      </trkpt>
      <trkpt lat="1.801895" lon="103.093796">
        <ele>2735.58</ele>
        <time>2025-12-09T09:51:49Z</time>
      </trkpt>
      <trkpt lat="1.800339" lon="103.112366">
        <ele>2674.6200000000003</ele>
        <time>2025-12-09T09:51:49Z</time>
      </trkpt>
      <trkpt lat="1.798874" lon="103.12973">
        <ele>2628.9</ele>
        <time>2025-12-09T09:51:49Z</time>
      </trkpt>
      <trkpt lat="1.797455" lon="103.147141">
        <ele>2575.56</ele>
        <time>2025-12-09T09:51:49Z</time>
      </trkpt>
      <trkpt lat="1.795807" lon="103.16581">
        <ele>2522.2200000000003</ele>
        <time>2025-12-09T09:51:49Z</time>
      </trkpt>
      <trkpt lat="1.794356" lon="103.183029">
        <ele>2468.88</ele>
        <time>2025-12-09T09:51:49Z</time>
      </trkpt>
      <trkpt lat="1.792648" lon="103.201843">
        <ele>2415.54</ele>
        <time>2025-12-09T09:51:49Z</time>
      </trkpt>
      <trkpt lat="1.791183" lon="103.219254">
        <ele>2354.58</ele>
        <time>2025-12-09T09:51:49Z</time>
      </trkpt>
      <trkpt lat="1.789581" lon="103.238243">
        <ele>2278.38</ele>
        <time>2025-12-09T09:51:49Z</time>
      </trkpt>
      <trkpt lat="1.788025" lon="103.256584">
        <ele>2209.8</ele>
        <time>2025-12-09T09:51:49Z</time>
      </trkpt>
      <trkpt lat="1.78656" lon="103.273674">
        <ele>2141.2200000000003</ele>
        <time>2025-12-09T09:51:49Z</time>
      </trkpt>
      <trkpt lat="1.785095" lon="103.291084">
        <ele>2072.6400000000003</ele>
        <time>2025-12-09T09:51:49Z</time>
      </trkpt>
      <trkpt lat="1.783696" lon="103.307999">
        <ele>2004.0600000000002</ele>
        <time>2025-12-09T09:51:49Z</time>
      </trkpt>
      <trkpt lat="1.782346" lon="103.324898">
        <ele>1935.48</ele>
        <time>2025-12-09T09:51:49Z</time>
      </trkpt>
      <trkpt lat="1.780655" lon="103.341873">
        <ele>1844.0400000000002</ele>
        <time>2025-12-09T09:51:49Z</time>
      </trkpt>
      <trkpt lat="1.778854" lon="103.358047">
        <ele>1767.8400000000001</ele>
        <time>2025-12-09T09:51:49Z</time>
      </trkpt>
      <trkpt lat="1.777411" lon="103.373772">
        <ele>1691.64</ele>
        <time>2025-12-09T09:51:49Z</time>
      </trkpt>
      <trkpt lat="1.776123" lon="103.389496">
        <ele>1615.44</ele>
        <time>2025-12-09T09:51:49Z</time>
      </trkpt>
      <trkpt lat="1.774944" lon="103.405449">
        <ele>1546.8600000000001</ele>
        <time>2025-12-09T09:51:49Z</time>
      </trkpt>
      <trkpt lat="1.77392" lon="103.420891">
        <ele>1493.52</ele>
        <time>2025-12-09T09:51:49Z</time>
      </trkpt>
      <trkpt lat="1.773454" lon="103.428322">
        <ele>1463.04</ele>
        <time>2025-12-09T09:51:49Z</time>
      </trkpt>
      <trkpt lat="1.772802" lon="103.437508">
        <ele>1432.5600000000002</ele>
        <time>2025-12-09T09:51:49Z</time>
      </trkpt>
      <trkpt lat="1.772186" lon="103.44545">
        <ele>1409.7</ele>
        <time>2025-12-09T09:51:49Z</time>
      </trkpt>
      <trkpt lat="1.771408" lon="103.454803">
        <ele>1379.22</ele>
        <time>2025-12-09T09:51:49Z</time>
      </trkpt>
      <trkpt lat="1.770847" lon="103.46209">
        <ele>1348.74</ele>
        <time>2025-12-09T09:51:49Z</time>
      </trkpt>
      <trkpt lat="1.770009" lon="103.47123">
        <ele>1318.26</ele>
        <time>2025-12-09T09:51:49Z</time>
      </trkpt>
      <trkpt lat="1.769357" lon="103.47847">
        <ele>1287.78</ele>
        <time>2025-12-09T09:51:49Z</time>
      </trkpt>
      <trkpt lat="1.768566" lon="103.487282">
        <ele>1264.92</ele>
        <time>2025-12-09T09:51:49Z</time>
      </trkpt>
      <trkpt lat="1.767961" lon="103.493866">
        <ele>1242.0600000000002</ele>
        <time>2025-12-09T09:51:49Z</time>
      </trkpt>
      <trkpt lat="1.767334" lon="103.500519">
        <ele>1234.44</ele>
        <time>2025-12-09T09:51:49Z</time>
      </trkpt>
      <trkpt lat="1.766785" lon="103.509132">
        <ele>1211.5800000000002</ele>
        <time>2025-12-09T09:51:49Z</time>
      </trkpt>
      <trkpt lat="1.766797" lon="103.51162">
        <ele>1203.96</ele>
        <time>2025-12-09T09:51:49Z</time>
      </trkpt>
      <trkpt lat="1.76689" lon="103.513512">
        <ele>1196.3400000000001</ele>
        <time>2025-12-09T09:51:49Z</time>
      </trkpt>
      <trkpt lat="1.767014" lon="103.515182">
        <ele>1188.72</ele>
        <time>2025-12-09T09:51:49Z</time>
      </trkpt>
      <trkpt lat="1.767334" lon="103.517418">
        <ele>1181.1000000000001</ele>
        <time>2025-12-09T09:51:49Z</time>
      </trkpt>
      <trkpt lat="1.767588" lon="103.519058">
        <ele>1173.48</ele>
        <time>2025-12-09T09:51:49Z</time>
      </trkpt>
      <trkpt lat="1.768021" lon="103.521423">
        <ele>1165.8600000000001</ele>
        <time>2025-12-09T09:51:49Z</time>
      </trkpt>
      <trkpt lat="1.768433" lon="103.523193">
        <ele>1158.24</ele>
        <time>2025-12-09T09:51:49Z</time>
      </trkpt>
      <trkpt lat="1.769028" lon="103.525284">
        <ele>1150.6200000000001</ele>
        <time>2025-12-09T09:51:49Z</time>
      </trkpt>
      <trkpt lat="1.769451" lon="103.526825">
        <ele>1143.0</ele>
        <time>2025-12-09T09:51:49Z</time>
      </trkpt>
      <trkpt lat="1.770218" lon="103.529015">
        <ele>1135.38</ele>
        <time>2025-12-09T09:51:49Z</time>
      </trkpt>
      <trkpt lat="1.77095" lon="103.531013">
        <ele>1127.76</ele>
        <time>2025-12-09T09:51:49Z</time>
      </trkpt>
      <trkpt lat="1.771637" lon="103.532692">
        <ele>1120.14</ele>
        <time>2025-12-09T09:51:49Z</time>
      </trkpt>
      <trkpt lat="1.772278" lon="103.534317">
        <ele>1112.52</ele>
        <time>2025-12-09T09:51:49Z</time>
      </trkpt>
      <trkpt lat="1.772919" lon="103.535995">
        <ele>1104.9</ele>
        <time>2025-12-09T09:51:49Z</time>
      </trkpt>
      <trkpt lat="1.773697" lon="103.537949">
        <ele>1097.28</ele>
        <time>2025-12-09T09:51:49Z</time>
      </trkpt>
      <trkpt lat="1.774385" lon="103.539749">
        <ele>1089.66</ele>
        <time>2025-12-09T09:51:49Z</time>
      </trkpt>
      <trkpt lat="1.775024" lon="103.54158">
        <ele>1082.04</ele>
        <time>2025-12-09T09:51:49Z</time>
      </trkpt>
      <trkpt lat="1.775757" lon="103.543533">
        <ele>1074.42</ele>
        <time>2025-12-09T09:51:49Z</time>
      </trkpt>
      <trkpt lat="1.776294" lon="103.545006">
        <ele>1074.42</ele>
        <time>2025-12-09T09:51:49Z</time>
      </trkpt>
      <trkpt lat="1.776852" lon="103.546661">
        <ele>1066.8</ele>
        <time>2025-12-09T09:51:49Z</time>
      </trkpt>
      <trkpt lat="1.77769" lon="103.548935">
        <ele>1059.18</ele>
        <time>2025-12-09T09:51:49Z</time>
      </trkpt>
      <trkpt lat="1.778296" lon="103.550545">
        <ele>1051.56</ele>
        <time>2025-12-09T09:51:49Z</time>
      </trkpt>
      <trkpt lat="1.778994" lon="103.55249">
        <ele>1043.94</ele>
        <time>2025-12-09T09:51:49Z</time>
      </trkpt>
      <trkpt lat="1.77951" lon="103.553963">
        <ele>1036.3200000000002</ele>
        <time>2025-12-09T09:51:49Z</time>
      </trkpt>
      <trkpt lat="1.781433" lon="103.559082">
        <ele>1021.08</ele>
        <time>2025-12-09T09:51:49Z</time>
      </trkpt>
      <trkpt lat="1.783905" lon="103.565697">
        <ele>998.22</ele>
        <time>2025-12-09T09:51:49Z</time>
      </trkpt>
      <trkpt lat="1.785736" lon="103.570679">
        <ele>975.36</ele>
        <time>2025-12-09T09:51:49Z</time>
      </trkpt>
      <trkpt lat="1.788211" lon="103.577583">
        <ele>960.12</ele>
        <time>2025-12-09T09:51:49Z</time>
      </trkpt>
      <trkpt lat="1.790213" lon="103.58313">
        <ele>937.26</ele>
        <time>2025-12-09T09:51:49Z</time>
      </trkpt>
      <trkpt lat="1.792694" lon="103.589668">
        <ele>914.4000000000001</ele>
        <time>2025-12-09T09:51:49Z</time>
      </trkpt>
      <trkpt lat="1.794123" lon="103.594536">
        <ele>906.7800000000001</ele>
        <time>2025-12-09T09:51:49Z</time>
      </trkpt>
      <trkpt lat="1.794449" lon="103.596527">
        <ele>899.1600000000001</ele>
        <time>2025-12-09T09:51:49Z</time>
      </trkpt>
      <trkpt lat="1.794542" lon="103.598183">
        <ele>899.1600000000001</ele>
        <time>2025-12-09T09:51:49Z</time>
      </trkpt>
      <trkpt lat="1.794525" lon="103.599724">
        <ele>891.5400000000001</ele>
        <time>2025-12-09T09:51:49Z</time>
      </trkpt>
      <trkpt lat="1.794296" lon="103.601776">
        <ele>891.5400000000001</ele>
        <time>2025-12-09T09:51:49Z</time>
      </trkpt>
      <trkpt lat="1.793839" lon="103.603821">
        <ele>883.9200000000001</ele>
        <time>2025-12-09T09:51:49Z</time>
      </trkpt>
      <trkpt lat="1.793425" lon="103.605339">
        <ele>883.9200000000001</ele>
        <time>2025-12-09T09:51:49Z</time>
      </trkpt>
      <trkpt lat="1.792511" lon="103.607452">
        <ele>876.3000000000001</ele>
        <time>2025-12-09T09:51:49Z</time>
      </trkpt>
      <trkpt lat="1.79187" lon="103.608711">
        <ele>876.3000000000001</ele>
        <time>2025-12-09T09:51:49Z</time>
      </trkpt>
      <trkpt lat="1.790771" lon="103.610573">
        <ele>868.6800000000001</ele>
        <time>2025-12-09T09:51:49Z</time>
      </trkpt>
      <trkpt lat="1.78949" lon="103.612343">
        <ele>861.0600000000001</ele>
        <time>2025-12-09T09:51:49Z</time>
      </trkpt>
      <trkpt lat="1.787933" lon="103.613968">
        <ele>861.0600000000001</ele>
        <time>2025-12-09T09:51:49Z</time>
      </trkpt>
      <trkpt lat="1.78656" lon="103.615227">
        <ele>853.44</ele>
        <time>2025-12-09T09:51:49Z</time>
      </trkpt>
      <trkpt lat="1.784821" lon="103.616623">
        <ele>845.82</ele>
        <time>2025-12-09T09:51:49Z</time>
      </trkpt>
      <trkpt lat="1.782486" lon="103.618019">
        <ele>838.2</ele>
        <time>2025-12-09T09:51:49Z</time>
      </trkpt>
      <trkpt lat="1.780746" lon="103.618904">
        <ele>822.96</ele>
        <time>2025-12-09T09:51:49Z</time>
      </trkpt>
      <trkpt lat="1.778961" lon="103.619698">
        <ele>815.34</ele>
        <time>2025-12-09T09:51:49Z</time>
      </trkpt>
      <trkpt lat="1.77713" lon="103.620392">
        <ele>800.1</ele>
        <time>2025-12-09T09:51:49Z</time>
      </trkpt>
      <trkpt lat="1.774841" lon="103.621185">
        <ele>784.86</ele>
        <time>2025-12-09T09:51:49Z</time>
      </trkpt>
      <trkpt lat="1.772552" lon="103.62188">
        <ele>762.0</ele>
        <time>2025-12-09T09:51:49Z</time>
      </trkpt>
      <trkpt lat="1.770056" lon="103.622574">
        <ele>746.76</ele>
        <time>2025-12-09T09:51:49Z</time>
      </trkpt>
      <trkpt lat="1.768147" lon="103.623138">
        <ele>731.52</ele>
        <time>2025-12-09T09:51:49Z</time>
      </trkpt>
      <trkpt lat="1.766052" lon="103.623795">
        <ele>716.2800000000001</ele>
        <time>2025-12-09T09:51:49Z</time>
      </trkpt>
      <trkpt lat="1.764175" lon="103.624397">
        <ele>708.6600000000001</ele>
        <time>2025-12-09T09:51:49Z</time>
      </trkpt>
      <trkpt lat="1.761978" lon="103.625191">
        <ele>701.0400000000001</ele>
        <time>2025-12-09T09:51:49Z</time>
      </trkpt>
      <trkpt lat="1.759781" lon="103.625977">
        <ele>685.8000000000001</ele>
        <time>2025-12-09T09:51:49Z</time>
      </trkpt>
      <trkpt lat="1.757629" lon="103.62677">
        <ele>678.1800000000001</ele>
        <time>2025-12-09T09:51:49Z</time>
      </trkpt>
      <trkpt lat="1.755844" lon="103.627426">
        <ele>670.5600000000001</ele>
        <time>2025-12-09T09:51:49Z</time>
      </trkpt>
      <trkpt lat="1.753902" lon="103.628159">
        <ele>662.94</ele>
        <time>2025-12-09T09:51:49Z</time>
      </trkpt>
      <trkpt lat="1.751854" lon="103.628922">
        <ele>647.7</ele>
        <time>2025-12-09T09:51:49Z</time>
      </trkpt>
      <trkpt lat="1.750085" lon="103.629585">
        <ele>640.08</ele>
        <time>2025-12-09T09:51:49Z</time>
      </trkpt>
      <trkpt lat="1.748362" lon="103.630196">
        <ele>624.84</ele>
        <time>2025-12-09T09:51:49Z</time>
      </trkpt>
      <trkpt lat="1.74614" lon="103.631004">
        <ele>617.22</ele>
        <time>2025-12-09T09:51:49Z</time>
      </trkpt>
      <trkpt lat="1.740738" lon="103.633011">
        <ele>586.74</ele>
        <time>2025-12-09T09:51:49Z</time>
      </trkpt>
      <trkpt lat="1.733233" lon="103.635689">
        <ele>541.02</ele>
        <time>2025-12-09T09:51:49Z</time>
      </trkpt>
      <trkpt lat="1.72774" lon="103.63768">
        <ele>510.54</ele>
        <time>2025-12-09T09:51:49Z</time>
      </trkpt>
      <trkpt lat="1.722565" lon="103.639618">
        <ele>480.06</ele>
        <time>2025-12-09T09:51:49Z</time>
      </trkpt>
      <trkpt lat="1.715744" lon="103.642136">
        <ele>434.34000000000003</ele>
        <time>2025-12-09T09:51:49Z</time>
      </trkpt>
      <trkpt lat="1.709015" lon="103.644691">
        <ele>396.24</ele>
        <time>2025-12-09T09:51:49Z</time>
      </trkpt>
      <trkpt lat="1.702286" lon="103.647018">
        <ele>358.14000000000004</ele>
        <time>2025-12-09T09:51:49Z</time>
      </trkpt>
      <trkpt lat="1.700409" lon="103.647675">
        <ele>350.52000000000004</ele>
        <time>2025-12-09T09:51:49Z</time>
      </trkpt>
      <trkpt lat="1.698898" lon="103.648232">
        <ele>342.90000000000003</ele>
        <time>2025-12-09T09:51:49Z</time>
      </trkpt>
      <trkpt lat="1.697388" lon="103.648743">
        <ele>335.28000000000003</ele>
        <time>2025-12-09T09:51:49Z</time>
      </trkpt>
      <trkpt lat="1.695712" lon="103.649376">
        <ele>320.04</ele>
        <time>2025-12-09T09:51:49Z</time>
      </trkpt>
      <trkpt lat="1.694" lon="103.649956">
        <ele>312.42</ele>
        <time>2025-12-09T09:51:49Z</time>
      </trkpt>
      <trkpt lat="1.692215" lon="103.650604">
        <ele>304.8</ele>
        <time>2025-12-09T09:51:49Z</time>
      </trkpt>
      <trkpt lat="1.690384" lon="103.651306">
        <ele>289.56</ele>
        <time>2025-12-09T09:51:49Z</time>
      </trkpt>
      <trkpt lat="1.688599" lon="103.651955">
        <ele>281.94</ele>
        <time>2025-12-09T09:51:49Z</time>
      </trkpt>
      <trkpt lat="1.683151" lon="103.654007">
        <ele>251.46</ele>
        <time>2025-12-09T09:51:49Z</time>
      </trkpt>
      <trkpt lat="1.676193" lon="103.656471">
        <ele>205.74</ele>
        <time>2025-12-09T09:51:49Z</time>
      </trkpt>
      <trkpt lat="1.670837" lon="103.658379">
        <ele>175.26000000000002</ele>
        <time>2025-12-09T09:51:49Z</time>
      </trkpt>
      <trkpt lat="1.664475" lon="103.66069">
        <ele>137.16</ele>
        <time>2025-12-09T09:51:49Z</time>
      </trkpt>
      <trkpt lat="1.658524" lon="103.662895">
        <ele>106.68</ele>
        <time>2025-12-09T09:51:49Z</time>
      </trkpt>
      <trkpt lat="1.653256" lon="103.66481">
        <ele>76.2</ele>
        <time>2025-12-09T09:51:49Z</time>
      </trkpt>
      <trkpt lat="1.637964" lon="103.67038">
        <ele>0.0</ele>
        <time>2025-12-09T09:51:49Z</time>
      </trkpt>
      <trkpt lat="1.636871" lon="103.67067">
        <ele>0.0</ele>
        <time>2025-12-09T09:51:49Z</time>
      </trkpt>
      <trkpt lat="1.633797" lon="103.669823">
        <ele>0.0</ele>
        <time>2025-12-09T09:51:49Z</time>
      </trkpt>
      <trkpt lat="1.633681" lon="103.669502">
        <ele>0.0</ele>
        <time>2025-12-09T09:51:49Z</time>
      </trkpt>
      <trkpt lat="1.633953" lon="103.669098">
        <ele>0.0</ele>
        <time>2025-12-09T09:51:49Z</time>
      </trkpt>
      <trkpt lat="1.634158" lon="103.669014">
        <ele>0.0</ele>
        <time>2025-12-09T09:51:49Z</time>
      </trkpt>
      <trkpt lat="1.634496" lon="103.668884">
        <ele>0.0</ele>
        <time>2025-12-09T09:51:49Z</time>
      </trkpt>
      <trkpt lat="1.63481" lon="103.66877">
        <ele>0.0</ele>
        <time>2025-12-09T09:51:49Z</time>
      </trkpt>
      <trkpt lat="1.63607" lon="103.667442">
        <ele>0.0</ele>
        <time>2025-12-09T09:51:49Z</time>
      </trkpt>
    </trkseg>
  </trk>
</gpx>