<?xml version="1.0" encoding="UTF-8"?>
<gpx xmlns="http://www.topografix.com/GPX/1/1" xmlns:xsi="http://www.w3.org/2001/XMLSchema-instance" xsi:schemaLocation="http://www.topografix.com/GPX/1/1 http://www.topografix.com/GPX/1/1/gpx.xsd" version="1.1" creator="gpx.py -- https://github.com/tkrajina/gpxpy">
  <metadata>
    <name>SN2712_3fe7e3ac</name>
    <time>2026-05-28T06:18:05Z</time>
  </metadata>
  <trk>
    <name>SN2712_3fe7e3ac</name>
    <cmt>2026-05-28</cmt>
    <type>Plane</type>
    <trkseg>
      <trkpt lat="46.230003" lon="6.105394">
        <ele>0.0</ele>
        <time>2026-05-28T06:18:05Z</time>
      </trkpt>
      <trkpt lat="46.230179" lon="6.105171">
        <ele>0.0</ele>
        <time>2026-05-28T06:18:05Z</time>
      </trkpt>
      <trkpt lat="46.230389" lon="6.104982">
        <ele>0.0</ele>
        <time>2026-05-28T06:18:05Z</time>
      </trkpt>
      <trkpt lat="46.230606" lon="6.104881">
        <ele>0.0</ele>
        <time>2026-05-28T06:18:05Z</time>
      </trkpt>
      <trkpt lat="46.230812" lon="6.104731">
        <ele>0.0</ele>
        <time>2026-05-28T06:18:05Z</time>
      </trkpt>
      <trkpt lat="46.230961" lon="6.104513">
        <ele>0.0</ele>
        <time>2026-05-28T06:18:05Z</time>
      </trkpt>
      <trkpt lat="46.230789" lon="6.104731">
        <ele>0.0</ele>
        <time>2026-05-28T06:18:05Z</time>
      </trkpt>
      <trkpt lat="46.230587" lon="6.104879">
        <ele>0.0</ele>
        <time>2026-05-28T06:18:05Z</time>
      </trkpt>
      <trkpt lat="46.230377" lon="6.104764">
        <ele>0.0</ele>
        <time>2026-05-28T06:18:05Z</time>
      </trkpt>
      <trkpt lat="46.230217" lon="6.104496">
        <ele>0.0</ele>
        <time>2026-05-28T06:18:05Z</time>
      </trkpt>
      <trkpt lat="46.230061" lon="6.104296">
        <ele>0.0</ele>
        <time>2026-05-28T06:18:05Z</time>
      </trkpt>
      <trkpt lat="46.229908" lon="6.104061">
        <ele>0.0</ele>
        <time>2026-05-28T06:18:05Z</time>
      </trkpt>
      <trkpt lat="46.229748" lon="6.103832">
        <ele>0.0</ele>
        <time>2026-05-28T06:18:05Z</time>
      </trkpt>
      <trkpt lat="46.22953" lon="6.103642">
        <ele>0.0</ele>
        <time>2026-05-28T06:18:05Z</time>
      </trkpt>
      <trkpt lat="46.229515" lon="6.103403">
        <ele>0.0</ele>
        <time>2026-05-28T06:18:05Z</time>
      </trkpt>
      <trkpt lat="46.229507" lon="6.103173">
        <ele>0.0</ele>
        <time>2026-05-28T06:18:05Z</time>
      </trkpt>
      <trkpt lat="46.229599" lon="6.102939">
        <ele>0.0</ele>
        <time>2026-05-28T06:18:05Z</time>
      </trkpt>
      <trkpt lat="46.229794" lon="6.102682">
        <ele>0.0</ele>
        <time>2026-05-28T06:18:05Z</time>
      </trkpt>
      <trkpt lat="46.22998" lon="6.102425">
        <ele>0.0</ele>
        <time>2026-05-28T06:18:05Z</time>
      </trkpt>
      <trkpt lat="46.230145" lon="6.102184">
        <ele>0.0</ele>
        <time>2026-05-28T06:18:05Z</time>
      </trkpt>
      <trkpt lat="46.230316" lon="6.101961">
        <ele>0.0</ele>
        <time>2026-05-28T06:18:05Z</time>
      </trkpt>
      <trkpt lat="46.23048" lon="6.101721">
        <ele>0.0</ele>
        <time>2026-05-28T06:18:05Z</time>
      </trkpt>
      <trkpt lat="46.230549" lon="6.101463">
        <ele>0.0</ele>
        <time>2026-05-28T06:18:05Z</time>
      </trkpt>
      <trkpt lat="46.230515" lon="6.101257">
        <ele>0.0</ele>
        <time>2026-05-28T06:18:05Z</time>
      </trkpt>
      <trkpt lat="46.2304" lon="6.101051">
        <ele>0.0</ele>
        <time>2026-05-28T06:18:05Z</time>
      </trkpt>
      <trkpt lat="46.230225" lon="6.100811">
        <ele>0.0</ele>
        <time>2026-05-28T06:18:05Z</time>
      </trkpt>
      <trkpt lat="46.230083" lon="6.100605">
        <ele>0.0</ele>
        <time>2026-05-28T06:18:05Z</time>
      </trkpt>
      <trkpt lat="46.229931" lon="6.100393">
        <ele>0.0</ele>
        <time>2026-05-28T06:18:05Z</time>
      </trkpt>
      <trkpt lat="46.229794" lon="6.100192">
        <ele>0.0</ele>
        <time>2026-05-28T06:18:05Z</time>
      </trkpt>
      <trkpt lat="46.229504" lon="6.099764">
        <ele>0.0</ele>
        <time>2026-05-28T06:18:05Z</time>
      </trkpt>
      <trkpt lat="46.229198" lon="6.099335">
        <ele>0.0</ele>
        <time>2026-05-28T06:18:05Z</time>
      </trkpt>
      <trkpt lat="46.228912" lon="6.098903">
        <ele>0.0</ele>
        <time>2026-05-28T06:18:05Z</time>
      </trkpt>
      <trkpt lat="46.22855" lon="6.098356">
        <ele>0.0</ele>
        <time>2026-05-28T06:18:05Z</time>
      </trkpt>
      <trkpt lat="46.228111" lon="6.09773">
        <ele>0.0</ele>
        <time>2026-05-28T06:18:05Z</time>
      </trkpt>
      <trkpt lat="46.227711" lon="6.097137">
        <ele>0.0</ele>
        <time>2026-05-28T06:18:05Z</time>
      </trkpt>
      <trkpt lat="46.227299" lon="6.096525">
        <ele>0.0</ele>
        <time>2026-05-28T06:18:05Z</time>
      </trkpt>
      <trkpt lat="46.22683" lon="6.095838">
        <ele>0.0</ele>
        <time>2026-05-28T06:18:05Z</time>
      </trkpt>
      <trkpt lat="46.226452" lon="6.095285">
        <ele>0.0</ele>
        <time>2026-05-28T06:18:05Z</time>
      </trkpt>
      <trkpt lat="46.226162" lon="6.094872">
        <ele>0.0</ele>
        <time>2026-05-28T06:18:05Z</time>
      </trkpt>
      <trkpt lat="46.225868" lon="6.094431">
        <ele>0.0</ele>
        <time>2026-05-28T06:18:05Z</time>
      </trkpt>
      <trkpt lat="46.225708" lon="6.094116">
        <ele>0.0</ele>
        <time>2026-05-28T06:18:05Z</time>
      </trkpt>
      <trkpt lat="46.225616" lon="6.093845">
        <ele>0.0</ele>
        <time>2026-05-28T06:18:05Z</time>
      </trkpt>
      <trkpt lat="46.225525" lon="6.093443">
        <ele>0.0</ele>
        <time>2026-05-28T06:18:05Z</time>
      </trkpt>
      <trkpt lat="46.225498" lon="6.093121">
        <ele>0.0</ele>
        <time>2026-05-28T06:18:05Z</time>
      </trkpt>
      <trkpt lat="46.225487" lon="6.092863">
        <ele>0.0</ele>
        <time>2026-05-28T06:18:05Z</time>
      </trkpt>
      <trkpt lat="46.225491" lon="6.092639">
        <ele>0.0</ele>
        <time>2026-05-28T06:18:05Z</time>
      </trkpt>
      <trkpt lat="46.225502" lon="6.092405">
        <ele>0.0</ele>
        <time>2026-05-28T06:18:05Z</time>
      </trkpt>
      <trkpt lat="46.225513" lon="6.092103">
        <ele>0.0</ele>
        <time>2026-05-28T06:18:05Z</time>
      </trkpt>
      <trkpt lat="46.225548" lon="6.091869">
        <ele>0.0</ele>
        <time>2026-05-28T06:18:05Z</time>
      </trkpt>
      <trkpt lat="46.225605" lon="6.091618">
        <ele>0.0</ele>
        <time>2026-05-28T06:18:05Z</time>
      </trkpt>
      <trkpt lat="46.225731" lon="6.091366">
        <ele>0.0</ele>
        <time>2026-05-28T06:18:05Z</time>
      </trkpt>
      <trkpt lat="46.225983" lon="6.091216">
        <ele>0.0</ele>
        <time>2026-05-28T06:18:05Z</time>
      </trkpt>
      <trkpt lat="46.226139" lon="6.091421">
        <ele>0.0</ele>
        <time>2026-05-28T06:18:05Z</time>
      </trkpt>
      <trkpt lat="46.226292" lon="6.091696">
        <ele>0.0</ele>
        <time>2026-05-28T06:18:05Z</time>
      </trkpt>
      <trkpt lat="46.22649" lon="6.091988">
        <ele>0.0</ele>
        <time>2026-05-28T06:18:05Z</time>
      </trkpt>
      <trkpt lat="46.226727" lon="6.092354">
        <ele>0.0</ele>
        <time>2026-05-28T06:18:05Z</time>
      </trkpt>
      <trkpt lat="46.227001" lon="6.09276">
        <ele>0.0</ele>
        <time>2026-05-28T06:18:05Z</time>
      </trkpt>
      <trkpt lat="46.227165" lon="6.093">
        <ele>0.0</ele>
        <time>2026-05-28T06:18:05Z</time>
      </trkpt>
      <trkpt lat="46.227425" lon="6.093359">
        <ele>0.0</ele>
        <time>2026-05-28T06:18:05Z</time>
      </trkpt>
      <trkpt lat="46.227852" lon="6.093979">
        <ele>0.0</ele>
        <time>2026-05-28T06:18:05Z</time>
      </trkpt>
      <trkpt lat="46.228085" lon="6.094322">
        <ele>0.0</ele>
        <time>2026-05-28T06:18:05Z</time>
      </trkpt>
      <trkpt lat="46.228329" lon="6.094683">
        <ele>0.0</ele>
        <time>2026-05-28T06:18:05Z</time>
      </trkpt>
      <trkpt lat="46.228626" lon="6.095118">
        <ele>0.0</ele>
        <time>2026-05-28T06:18:05Z</time>
      </trkpt>
      <trkpt lat="46.230927" lon="6.098551">
        <ele>365.76</ele>
        <time>2026-05-28T06:18:05Z</time>
      </trkpt>
      <trkpt lat="46.234798" lon="6.10421">
        <ele>358.14000000000004</ele>
        <time>2026-05-28T06:18:05Z</time>
      </trkpt>
      <trkpt lat="46.238892" lon="6.110207">
        <ele>381.0</ele>
        <time>2026-05-28T06:18:05Z</time>
      </trkpt>
      <trkpt lat="46.242188" lon="6.115098">
        <ele>464.82000000000005</ele>
        <time>2026-05-28T06:18:05Z</time>
      </trkpt>
      <trkpt lat="46.246624" lon="6.121651">
        <ele>594.36</ele>
        <time>2026-05-28T06:18:05Z</time>
      </trkpt>
      <trkpt lat="46.250626" lon="6.127419">
        <ele>723.9000000000001</ele>
        <time>2026-05-28T06:18:05Z</time>
      </trkpt>
      <trkpt lat="46.253651" lon="6.131744">
        <ele>822.96</ele>
        <time>2026-05-28T06:18:05Z</time>
      </trkpt>
      <trkpt lat="46.257614" lon="6.137472">
        <ele>960.12</ele>
        <time>2026-05-28T06:18:05Z</time>
      </trkpt>
      <trkpt lat="46.261368" lon="6.142898">
        <ele>1074.42</ele>
        <time>2026-05-28T06:18:05Z</time>
      </trkpt>
      <trkpt lat="46.26416" lon="6.146851">
        <ele>1150.6200000000001</ele>
        <time>2026-05-28T06:18:05Z</time>
      </trkpt>
      <trkpt lat="46.268223" lon="6.15255">
        <ele>1234.44</ele>
        <time>2026-05-28T06:18:05Z</time>
      </trkpt>
      <trkpt lat="46.272087" lon="6.158112">
        <ele>1318.26</ele>
        <time>2026-05-28T06:18:05Z</time>
      </trkpt>
      <trkpt lat="46.276417" lon="6.164223">
        <ele>1402.0800000000002</ele>
        <time>2026-05-28T06:18:05Z</time>
      </trkpt>
      <trkpt lat="46.279907" lon="6.169167">
        <ele>1447.8000000000002</ele>
        <time>2026-05-28T06:18:05Z</time>
      </trkpt>
      <trkpt lat="46.284256" lon="6.175254">
        <ele>1501.14</ele>
        <time>2026-05-28T06:18:05Z</time>
      </trkpt>
      <trkpt lat="46.28952" lon="6.182623">
        <ele>1562.1000000000001</ele>
        <time>2026-05-28T06:18:05Z</time>
      </trkpt>
      <trkpt lat="46.298622" lon="6.195396">
        <ele>1653.5400000000002</ele>
        <time>2026-05-28T06:18:05Z</time>
      </trkpt>
      <trkpt lat="46.309113" lon="6.210357">
        <ele>1737.3600000000001</ele>
        <time>2026-05-28T06:18:05Z</time>
      </trkpt>
      <trkpt lat="46.321152" lon="6.227119">
        <ele>1859.2800000000002</ele>
        <time>2026-05-28T06:18:05Z</time>
      </trkpt>
      <trkpt lat="46.32312" lon="6.229248">
        <ele>1874.52</ele>
        <time>2026-05-28T06:18:05Z</time>
      </trkpt>
      <trkpt lat="46.325157" lon="6.231171">
        <ele>1897.38</ele>
        <time>2026-05-28T06:18:05Z</time>
      </trkpt>
      <trkpt lat="46.327251" lon="6.23275">
        <ele>1912.6200000000001</ele>
        <time>2026-05-28T06:18:05Z</time>
      </trkpt>
      <trkpt lat="46.329437" lon="6.234192">
        <ele>1927.8600000000001</ele>
        <time>2026-05-28T06:18:05Z</time>
      </trkpt>
      <trkpt lat="46.331543" lon="6.235277">
        <ele>1950.72</ele>
        <time>2026-05-28T06:18:05Z</time>
      </trkpt>
      <trkpt lat="46.334381" lon="6.236416">
        <ele>1973.5800000000002</ele>
        <time>2026-05-28T06:18:05Z</time>
      </trkpt>
      <trkpt lat="46.336807" lon="6.237086">
        <ele>1996.44</ele>
        <time>2026-05-28T06:18:05Z</time>
      </trkpt>
      <trkpt lat="46.339142" lon="6.237622">
        <ele>2026.92</ele>
        <time>2026-05-28T06:18:05Z</time>
      </trkpt>
      <trkpt lat="46.341843" lon="6.238091">
        <ele>2049.78</ele>
        <time>2026-05-28T06:18:05Z</time>
      </trkpt>
      <trkpt lat="46.344864" lon="6.23856">
        <ele>2087.88</ele>
        <time>2026-05-28T06:18:05Z</time>
      </trkpt>
      <trkpt lat="46.347336" lon="6.238962">
        <ele>2118.36</ele>
        <time>2026-05-28T06:18:05Z</time>
      </trkpt>
      <trkpt lat="46.349689" lon="6.239273">
        <ele>2141.2200000000003</ele>
        <time>2026-05-28T06:18:05Z</time>
      </trkpt>
      <trkpt lat="46.352203" lon="6.239616">
        <ele>2171.7000000000003</ele>
        <time>2026-05-28T06:18:05Z</time>
      </trkpt>
      <trkpt lat="46.354904" lon="6.23996">
        <ele>2209.8</ele>
        <time>2026-05-28T06:18:05Z</time>
      </trkpt>
      <trkpt lat="46.358208" lon="6.240303">
        <ele>2255.52</ele>
        <time>2026-05-28T06:18:05Z</time>
      </trkpt>
      <trkpt lat="46.36058" lon="6.240509">
        <ele>2293.62</ele>
        <time>2026-05-28T06:18:05Z</time>
      </trkpt>
      <trkpt lat="46.363144" lon="6.240784">
        <ele>2331.7200000000003</ele>
        <time>2026-05-28T06:18:05Z</time>
      </trkpt>
      <trkpt lat="46.366169" lon="6.241058">
        <ele>2377.44</ele>
        <time>2026-05-28T06:18:05Z</time>
      </trkpt>
      <trkpt lat="46.368759" lon="6.241306">
        <ele>2415.54</ele>
        <time>2026-05-28T06:18:05Z</time>
      </trkpt>
      <trkpt lat="46.370731" lon="6.241539">
        <ele>2446.02</ele>
        <time>2026-05-28T06:18:05Z</time>
      </trkpt>
      <trkpt lat="46.386841" lon="6.243316">
        <ele>2659.38</ele>
        <time>2026-05-28T06:18:05Z</time>
      </trkpt>
      <trkpt lat="46.406528" lon="6.246071">
        <ele>2895.6000000000004</ele>
        <time>2026-05-28T06:18:05Z</time>
      </trkpt>
      <trkpt lat="46.423382" lon="6.248543">
        <ele>3116.5800000000004</ele>
        <time>2026-05-28T06:18:05Z</time>
      </trkpt>
      <trkpt lat="46.433857" lon="6.24868">
        <ele>3223.26</ele>
        <time>2026-05-28T06:18:05Z</time>
      </trkpt>
      <trkpt lat="46.436508" lon="6.248405">
        <ele>3246.1200000000003</ele>
        <time>2026-05-28T06:18:05Z</time>
      </trkpt>
      <trkpt lat="46.439941" lon="6.247938">
        <ele>3268.98</ele>
        <time>2026-05-28T06:18:05Z</time>
      </trkpt>
      <trkpt lat="46.442745" lon="6.247375">
        <ele>3284.2200000000003</ele>
        <time>2026-05-28T06:18:05Z</time>
      </trkpt>
      <trkpt lat="46.445389" lon="6.246866">
        <ele>3299.46</ele>
        <time>2026-05-28T06:18:05Z</time>
      </trkpt>
      <trkpt lat="46.448101" lon="6.246277">
        <ele>3314.7000000000003</ele>
        <time>2026-05-28T06:18:05Z</time>
      </trkpt>
      <trkpt lat="46.450928" lon="6.245661">
        <ele>3329.94</ele>
        <time>2026-05-28T06:18:05Z</time>
      </trkpt>
      <trkpt lat="46.453857" lon="6.244991">
        <ele>3337.56</ele>
        <time>2026-05-28T06:18:05Z</time>
      </trkpt>
      <trkpt lat="46.456558" lon="6.244388">
        <ele>3352.8</ele>
        <time>2026-05-28T06:18:05Z</time>
      </trkpt>
      <trkpt lat="46.45932" lon="6.243736">
        <ele>3360.42</ele>
        <time>2026-05-28T06:18:05Z</time>
      </trkpt>
      <trkpt lat="46.463013" lon="6.242847">
        <ele>3375.6600000000003</ele>
        <time>2026-05-28T06:18:05Z</time>
      </trkpt>
      <trkpt lat="46.465977" lon="6.242157">
        <ele>3383.28</ele>
        <time>2026-05-28T06:18:05Z</time>
      </trkpt>
      <trkpt lat="46.469147" lon="6.241373">
        <ele>3398.52</ele>
        <time>2026-05-28T06:18:05Z</time>
      </trkpt>
      <trkpt lat="46.488041" lon="6.236732">
        <ele>3474.7200000000003</ele>
        <time>2026-05-28T06:18:05Z</time>
      </trkpt>
      <trkpt lat="46.511551" lon="6.230759">
        <ele>3589.02</ele>
        <time>2026-05-28T06:18:05Z</time>
      </trkpt>
      <trkpt lat="46.531586" lon="6.225765">
        <ele>3741.42</ele>
        <time>2026-05-28T06:18:05Z</time>
      </trkpt>
      <trkpt lat="46.582588" lon="6.213455">
        <ele>4206.24</ele>
        <time>2026-05-28T06:18:05Z</time>
      </trkpt>
      <trkpt lat="46.635334" lon="6.200958">
        <ele>4648.2</ele>
        <time>2026-05-28T06:18:05Z</time>
      </trkpt>
      <trkpt lat="46.689381" lon="6.188049">
        <ele>5059.68</ele>
        <time>2026-05-28T06:18:05Z</time>
      </trkpt>
      <trkpt lat="46.743149" lon="6.175621">
        <ele>5402.58</ele>
        <time>2026-05-28T06:18:05Z</time>
      </trkpt>
      <trkpt lat="46.800797" lon="6.172508">
        <ele>5806.4400000000005</ele>
        <time>2026-05-28T06:18:05Z</time>
      </trkpt>
      <trkpt lat="46.85762" lon="6.171295">
        <ele>6286.5</ele>
        <time>2026-05-28T06:18:05Z</time>
      </trkpt>
      <trkpt lat="46.913544" lon="6.170197">
        <ele>6697.9800000000005</ele>
        <time>2026-05-28T06:18:05Z</time>
      </trkpt>
      <trkpt lat="46.969021" lon="6.168964">
        <ele>6934.200000000001</ele>
        <time>2026-05-28T06:18:05Z</time>
      </trkpt>
      <trkpt lat="47.025768" lon="6.167837">
        <ele>7178.04</ele>
        <time>2026-05-28T06:18:05Z</time>
      </trkpt>
      <trkpt lat="47.079575" lon="6.166763">
        <ele>7315.200000000001</ele>
        <time>2026-05-28T06:18:05Z</time>
      </trkpt>
      <trkpt lat="47.133499" lon="6.165665">
        <ele>7414.26</ele>
        <time>2026-05-28T06:18:05Z</time>
      </trkpt>
      <trkpt lat="47.188282" lon="6.164457">
        <ele>7726.68</ele>
        <time>2026-05-28T06:18:05Z</time>
      </trkpt>
      <trkpt lat="47.241714" lon="6.16333">
        <ele>7978.14</ele>
        <time>2026-05-28T06:18:05Z</time>
      </trkpt>
      <trkpt lat="47.297306" lon="6.162274">
        <ele>8290.560000000001</ele>
        <time>2026-05-28T06:18:05Z</time>
      </trkpt>
      <trkpt lat="47.352379" lon="6.161147">
        <ele>8557.26</ele>
        <time>2026-05-28T06:18:05Z</time>
      </trkpt>
      <trkpt lat="47.410057" lon="6.159879">
        <ele>8816.34</ele>
        <time>2026-05-28T06:18:05Z</time>
      </trkpt>
      <trkpt lat="47.467922" lon="6.158682">
        <ele>8976.36</ele>
        <time>2026-05-28T06:18:05Z</time>
      </trkpt>
      <trkpt lat="47.523148" lon="6.157562">
        <ele>9128.76</ele>
        <time>2026-05-28T06:18:05Z</time>
      </trkpt>
      <trkpt lat="47.580414" lon="6.156326">
        <ele>9144.0</ele>
        <time>2026-05-28T06:18:05Z</time>
      </trkpt>
      <trkpt lat="47.636719" lon="6.155159">
        <ele>9144.0</ele>
        <time>2026-05-28T06:18:05Z</time>
      </trkpt>
      <trkpt lat="47.692905" lon="6.153964">
        <ele>9144.0</ele>
        <time>2026-05-28T06:18:05Z</time>
      </trkpt>
      <trkpt lat="47.748367" lon="6.152687">
        <ele>9144.0</ele>
        <time>2026-05-28T06:18:05Z</time>
      </trkpt>
      <trkpt lat="47.803795" lon="6.151428">
        <ele>9144.0</ele>
        <time>2026-05-28T06:18:05Z</time>
      </trkpt>
      <trkpt lat="47.860153" lon="6.150352">
        <ele>9144.0</ele>
        <time>2026-05-28T06:18:05Z</time>
      </trkpt>
      <trkpt lat="47.91552" lon="6.149245">
        <ele>9144.0</ele>
        <time>2026-05-28T06:18:05Z</time>
      </trkpt>
      <trkpt lat="47.972214" lon="6.147949">
        <ele>9151.62</ele>
        <time>2026-05-28T06:18:05Z</time>
      </trkpt>
      <trkpt lat="48.02916" lon="6.146713">
        <ele>9151.62</ele>
        <time>2026-05-28T06:18:05Z</time>
      </trkpt>
      <trkpt lat="48.085903" lon="6.145442">
        <ele>9144.0</ele>
        <time>2026-05-28T06:18:05Z</time>
      </trkpt>
      <trkpt lat="48.141449" lon="6.144173">
        <ele>9151.62</ele>
        <time>2026-05-28T06:18:05Z</time>
      </trkpt>
      <trkpt lat="48.197906" lon="6.14302">
        <ele>9144.0</ele>
        <time>2026-05-28T06:18:05Z</time>
      </trkpt>
      <trkpt lat="48.255249" lon="6.141709">
        <ele>9144.0</ele>
        <time>2026-05-28T06:18:05Z</time>
      </trkpt>
      <trkpt lat="48.312191" lon="6.140418">
        <ele>9144.0</ele>
        <time>2026-05-28T06:18:05Z</time>
      </trkpt>
      <trkpt lat="48.368591" lon="6.139245">
        <ele>9144.0</ele>
        <time>2026-05-28T06:18:05Z</time>
      </trkpt>
      <trkpt lat="48.426712" lon="6.137888">
        <ele>9151.62</ele>
        <time>2026-05-28T06:18:05Z</time>
      </trkpt>
      <trkpt lat="48.482712" lon="6.136732">
        <ele>9151.62</ele>
        <time>2026-05-28T06:18:05Z</time>
      </trkpt>
      <trkpt lat="48.539291" lon="6.135512">
        <ele>9144.0</ele>
        <time>2026-05-28T06:18:05Z</time>
      </trkpt>
      <trkpt lat="48.596348" lon="6.134274">
        <ele>9144.0</ele>
        <time>2026-05-28T06:18:05Z</time>
      </trkpt>
      <trkpt lat="48.654026" lon="6.132973">
        <ele>9144.0</ele>
        <time>2026-05-28T06:18:05Z</time>
      </trkpt>
      <trkpt lat="48.711365" lon="6.131709">
        <ele>9144.0</ele>
        <time>2026-05-28T06:18:05Z</time>
      </trkpt>
      <trkpt lat="48.768452" lon="6.129721">
        <ele>9144.0</ele>
        <time>2026-05-28T06:18:05Z</time>
      </trkpt>
      <trkpt lat="48.825523" lon="6.120831">
        <ele>9151.62</ele>
        <time>2026-05-28T06:18:05Z</time>
      </trkpt>
      <trkpt lat="48.882568" lon="6.110863">
        <ele>9151.62</ele>
        <time>2026-05-28T06:18:05Z</time>
      </trkpt>
      <trkpt lat="48.939148" lon="6.102201">
        <ele>9144.0</ele>
        <time>2026-05-28T06:18:05Z</time>
      </trkpt>
      <trkpt lat="48.996651" lon="6.093871">
        <ele>9136.380000000001</ele>
        <time>2026-05-28T06:18:05Z</time>
      </trkpt>
      <trkpt lat="49.0527" lon="6.085775">
        <ele>9136.380000000001</ele>
        <time>2026-05-28T06:18:05Z</time>
      </trkpt>
      <trkpt lat="49.110703" lon="6.077463">
        <ele>9136.380000000001</ele>
        <time>2026-05-28T06:18:05Z</time>
      </trkpt>
      <trkpt lat="49.168613" lon="6.069151">
        <ele>9144.0</ele>
        <time>2026-05-28T06:18:05Z</time>
      </trkpt>
      <trkpt lat="49.225872" lon="6.060912">
        <ele>9151.62</ele>
        <time>2026-05-28T06:18:05Z</time>
      </trkpt>
      <trkpt lat="49.282654" lon="6.052622">
        <ele>9151.62</ele>
        <time>2026-05-28T06:18:05Z</time>
      </trkpt>
      <trkpt lat="49.339554" lon="6.044312">
        <ele>9144.0</ele>
        <time>2026-05-28T06:18:05Z</time>
      </trkpt>
      <trkpt lat="49.396812" lon="6.035975">
        <ele>9144.0</ele>
        <time>2026-05-28T06:18:05Z</time>
      </trkpt>
      <trkpt lat="49.454132" lon="6.027663">
        <ele>9144.0</ele>
        <time>2026-05-28T06:18:05Z</time>
      </trkpt>
      <trkpt lat="49.511673" lon="6.019207">
        <ele>9144.0</ele>
        <time>2026-05-28T06:18:05Z</time>
      </trkpt>
      <trkpt lat="49.568985" lon="6.010822">
        <ele>9144.0</ele>
        <time>2026-05-28T06:18:05Z</time>
      </trkpt>
      <trkpt lat="49.626129" lon="6.002321">
        <ele>9144.0</ele>
        <time>2026-05-28T06:18:05Z</time>
      </trkpt>
      <trkpt lat="49.686691" lon="5.993339">
        <ele>9067.800000000001</ele>
        <time>2026-05-28T06:18:05Z</time>
      </trkpt>
      <trkpt lat="49.743301" lon="5.984947">
        <ele>8923.02</ele>
        <time>2026-05-28T06:18:05Z</time>
      </trkpt>
      <trkpt lat="49.80056" lon="5.976488">
        <ele>8770.62</ele>
        <time>2026-05-28T06:18:05Z</time>
      </trkpt>
      <trkpt lat="49.857925" lon="5.967817">
        <ele>8610.6</ele>
        <time>2026-05-28T06:18:05Z</time>
      </trkpt>
      <trkpt lat="49.915146" lon="5.959288">
        <ele>8465.82</ele>
        <time>2026-05-28T06:18:05Z</time>
      </trkpt>
      <trkpt lat="49.971863" lon="5.950976">
        <ele>8313.42</ele>
        <time>2026-05-28T06:18:05Z</time>
      </trkpt>
      <trkpt lat="50.029831" lon="5.942193">
        <ele>8153.400000000001</ele>
        <time>2026-05-28T06:18:05Z</time>
      </trkpt>
      <trkpt lat="50.086853" lon="5.933557">
        <ele>8008.620000000001</ele>
        <time>2026-05-28T06:18:05Z</time>
      </trkpt>
      <trkpt lat="50.143478" lon="5.924956">
        <ele>7848.6</ele>
        <time>2026-05-28T06:18:05Z</time>
      </trkpt>
      <trkpt lat="50.200352" lon="5.916435">
        <ele>7688.580000000001</ele>
        <time>2026-05-28T06:18:05Z</time>
      </trkpt>
      <trkpt lat="50.25975" lon="5.907453">
        <ele>7528.56</ele>
        <time>2026-05-28T06:18:05Z</time>
      </trkpt>
      <trkpt lat="50.317524" lon="5.89847">
        <ele>7360.92</ele>
        <time>2026-05-28T06:18:05Z</time>
      </trkpt>
      <trkpt lat="50.372269" lon="5.890305">
        <ele>7208.52</ele>
        <time>2026-05-28T06:18:05Z</time>
      </trkpt>
      <trkpt lat="50.423336" lon="5.880209">
        <ele>7078.9800000000005</ele>
        <time>2026-05-28T06:18:05Z</time>
      </trkpt>
      <trkpt lat="50.427017" lon="5.87848">
        <ele>7071.360000000001</ele>
        <time>2026-05-28T06:18:05Z</time>
      </trkpt>
      <trkpt lat="50.430267" lon="5.876674">
        <ele>7063.740000000001</ele>
        <time>2026-05-28T06:18:05Z</time>
      </trkpt>
      <trkpt lat="50.434414" lon="5.874123">
        <ele>7056.120000000001</ele>
        <time>2026-05-28T06:18:05Z</time>
      </trkpt>
      <trkpt lat="50.43758" lon="5.871895">
        <ele>7048.5</ele>
        <time>2026-05-28T06:18:05Z</time>
      </trkpt>
      <trkpt lat="50.440887" lon="5.869298">
        <ele>7033.26</ele>
        <time>2026-05-28T06:18:05Z</time>
      </trkpt>
      <trkpt lat="50.444412" lon="5.866338">
        <ele>7025.64</ele>
        <time>2026-05-28T06:18:05Z</time>
      </trkpt>
      <trkpt lat="50.447727" lon="5.86321">
        <ele>7010.400000000001</ele>
        <time>2026-05-28T06:18:05Z</time>
      </trkpt>
      <trkpt lat="50.451553" lon="5.859254">
        <ele>6995.160000000001</ele>
        <time>2026-05-28T06:18:05Z</time>
      </trkpt>
      <trkpt lat="50.454483" lon="5.85593">
        <ele>6987.54</ele>
        <time>2026-05-28T06:18:05Z</time>
      </trkpt>
      <trkpt lat="50.457413" lon="5.852447">
        <ele>6972.3</ele>
        <time>2026-05-28T06:18:05Z</time>
      </trkpt>
      <trkpt lat="50.460388" lon="5.848557">
        <ele>6957.06</ele>
        <time>2026-05-28T06:18:05Z</time>
      </trkpt>
      <trkpt lat="50.463417" lon="5.844281">
        <ele>6941.820000000001</ele>
        <time>2026-05-28T06:18:05Z</time>
      </trkpt>
      <trkpt lat="50.46666" lon="5.83945">
        <ele>6926.58</ele>
        <time>2026-05-28T06:18:05Z</time>
      </trkpt>
      <trkpt lat="50.468948" lon="5.835836">
        <ele>6918.96</ele>
        <time>2026-05-28T06:18:05Z</time>
      </trkpt>
      <trkpt lat="50.471565" lon="5.831736">
        <ele>6911.34</ele>
        <time>2026-05-28T06:18:05Z</time>
      </trkpt>
      <trkpt lat="50.474945" lon="5.826295">
        <ele>6896.1</ele>
        <time>2026-05-28T06:18:05Z</time>
      </trkpt>
      <trkpt lat="50.477188" lon="5.822609">
        <ele>6888.4800000000005</ele>
        <time>2026-05-28T06:18:05Z</time>
      </trkpt>
      <trkpt lat="50.480129" lon="5.817706">
        <ele>6873.240000000001</ele>
        <time>2026-05-28T06:18:05Z</time>
      </trkpt>
      <trkpt lat="50.482681" lon="5.81343">
        <ele>6865.620000000001</ele>
        <time>2026-05-28T06:18:05Z</time>
      </trkpt>
      <trkpt lat="50.485886" lon="5.807865">
        <ele>6850.38</ele>
        <time>2026-05-28T06:18:05Z</time>
      </trkpt>
      <trkpt lat="50.487946" lon="5.804395">
        <ele>6842.76</ele>
        <time>2026-05-28T06:18:05Z</time>
      </trkpt>
      <trkpt lat="50.490463" lon="5.800039">
        <ele>6835.14</ele>
        <time>2026-05-28T06:18:05Z</time>
      </trkpt>
      <trkpt lat="50.493629" lon="5.794472">
        <ele>6819.900000000001</ele>
        <time>2026-05-28T06:18:05Z</time>
      </trkpt>
      <trkpt lat="50.495728" lon="5.790807">
        <ele>6812.280000000001</ele>
        <time>2026-05-28T06:18:05Z</time>
      </trkpt>
      <trkpt lat="50.53569" lon="5.719396">
        <ele>6652.26</ele>
        <time>2026-05-28T06:18:05Z</time>
      </trkpt>
      <trkpt lat="50.574677" lon="5.651204">
        <ele>6507.4800000000005</ele>
        <time>2026-05-28T06:18:05Z</time>
      </trkpt>
      <trkpt lat="50.61438" lon="5.583657">
        <ele>6347.46</ele>
        <time>2026-05-28T06:18:05Z</time>
      </trkpt>
      <trkpt lat="50.65242" lon="5.518922">
        <ele>5966.46</ele>
        <time>2026-05-28T06:18:05Z</time>
      </trkpt>
      <trkpt lat="50.690414" lon="5.453969">
        <ele>5585.46</ele>
        <time>2026-05-28T06:18:05Z</time>
      </trkpt>
      <trkpt lat="50.72699" lon="5.391318">
        <ele>5196.84</ele>
        <time>2026-05-28T06:18:05Z</time>
      </trkpt>
      <trkpt lat="50.76368" lon="5.328293">
        <ele>4823.46</ele>
        <time>2026-05-28T06:18:05Z</time>
      </trkpt>
      <trkpt lat="50.799244" lon="5.266953">
        <ele>4450.08</ele>
        <time>2026-05-28T06:18:05Z</time>
      </trkpt>
      <trkpt lat="50.834152" lon="5.206629">
        <ele>4091.94</ele>
        <time>2026-05-28T06:18:05Z</time>
      </trkpt>
      <trkpt lat="50.867661" lon="5.146204">
        <ele>3733.8</ele>
        <time>2026-05-28T06:18:05Z</time>
      </trkpt>
      <trkpt lat="50.869858" lon="5.140934">
        <ele>3703.32</ele>
        <time>2026-05-28T06:18:05Z</time>
      </trkpt>
      <trkpt lat="50.871635" lon="5.136337">
        <ele>3680.46</ele>
        <time>2026-05-28T06:18:05Z</time>
      </trkpt>
      <trkpt lat="50.873245" lon="5.131951">
        <ele>3657.6000000000004</ele>
        <time>2026-05-28T06:18:05Z</time>
      </trkpt>
      <trkpt lat="50.874756" lon="5.127572">
        <ele>3634.7400000000002</ele>
        <time>2026-05-28T06:18:05Z</time>
      </trkpt>
      <trkpt lat="50.876175" lon="5.123118">
        <ele>3611.88</ele>
        <time>2026-05-28T06:18:05Z</time>
      </trkpt>
      <trkpt lat="50.877777" lon="5.117625">
        <ele>3581.4</ele>
        <time>2026-05-28T06:18:05Z</time>
      </trkpt>
      <trkpt lat="50.87899" lon="5.113449">
        <ele>3558.54</ele>
        <time>2026-05-28T06:18:05Z</time>
      </trkpt>
      <trkpt lat="50.880199" lon="5.108795">
        <ele>3528.0600000000004</ele>
        <time>2026-05-28T06:18:05Z</time>
      </trkpt>
      <trkpt lat="50.881317" lon="5.104446">
        <ele>3505.2000000000003</ele>
        <time>2026-05-28T06:18:05Z</time>
      </trkpt>
      <trkpt lat="50.882526" lon="5.099258">
        <ele>3474.7200000000003</ele>
        <time>2026-05-28T06:18:05Z</time>
      </trkpt>
      <trkpt lat="50.883877" lon="5.093689">
        <ele>3444.2400000000002</ele>
        <time>2026-05-28T06:18:05Z</time>
      </trkpt>
      <trkpt lat="50.884949" lon="5.088959">
        <ele>3421.38</ele>
        <time>2026-05-28T06:18:05Z</time>
      </trkpt>
      <trkpt lat="50.885971" lon="5.084666">
        <ele>3398.52</ele>
        <time>2026-05-28T06:18:05Z</time>
      </trkpt>
      <trkpt lat="50.887299" lon="5.078801">
        <ele>3368.04</ele>
        <time>2026-05-28T06:18:05Z</time>
      </trkpt>
      <trkpt lat="50.888123" lon="5.075016">
        <ele>3352.8</ele>
        <time>2026-05-28T06:18:05Z</time>
      </trkpt>
      <trkpt lat="50.889496" lon="5.068929">
        <ele>3322.32</ele>
        <time>2026-05-28T06:18:05Z</time>
      </trkpt>
      <trkpt lat="50.890503" lon="5.064549">
        <ele>3307.0800000000004</ele>
        <time>2026-05-28T06:18:05Z</time>
      </trkpt>
      <trkpt lat="50.897099" lon="5.035248">
        <ele>3177.54</ele>
        <time>2026-05-28T06:18:05Z</time>
      </trkpt>
      <trkpt lat="50.904827" lon="5.00206">
        <ele>3093.7200000000003</ele>
        <time>2026-05-28T06:18:05Z</time>
      </trkpt>
      <trkpt lat="50.913017" lon="4.96727">
        <ele>3017.52</ele>
        <time>2026-05-28T06:18:05Z</time>
      </trkpt>
      <trkpt lat="50.919708" lon="4.93828">
        <ele>2948.94</ele>
        <time>2026-05-28T06:18:05Z</time>
      </trkpt>
      <trkpt lat="50.926163" lon="4.90985">
        <ele>2880.36</ele>
        <time>2026-05-28T06:18:05Z</time>
      </trkpt>
      <trkpt lat="50.933781" lon="4.876175">
        <ele>2811.78</ele>
        <time>2026-05-28T06:18:05Z</time>
      </trkpt>
      <trkpt lat="50.940216" lon="4.847569">
        <ele>2766.06</ele>
        <time>2026-05-28T06:18:05Z</time>
      </trkpt>
      <trkpt lat="50.947605" lon="4.815063">
        <ele>2743.2000000000003</ele>
        <time>2026-05-28T06:18:05Z</time>
      </trkpt>
      <trkpt lat="50.953983" lon="4.787216">
        <ele>2743.2000000000003</ele>
        <time>2026-05-28T06:18:05Z</time>
      </trkpt>
      <trkpt lat="50.961594" lon="4.754111">
        <ele>2743.2000000000003</ele>
        <time>2026-05-28T06:18:05Z</time>
      </trkpt>
      <trkpt lat="50.968182" lon="4.725342">
        <ele>2743.2000000000003</ele>
        <time>2026-05-28T06:18:05Z</time>
      </trkpt>
      <trkpt lat="50.974701" lon="4.697113">
        <ele>2743.2000000000003</ele>
        <time>2026-05-28T06:18:05Z</time>
      </trkpt>
      <trkpt lat="50.982613" lon="4.662781">
        <ele>2743.2000000000003</ele>
        <time>2026-05-28T06:18:05Z</time>
      </trkpt>
      <trkpt lat="50.988419" lon="4.634523">
        <ele>2743.2000000000003</ele>
        <time>2026-05-28T06:18:05Z</time>
      </trkpt>
      <trkpt lat="50.989597" lon="4.624863">
        <ele>2743.2000000000003</ele>
        <time>2026-05-28T06:18:05Z</time>
      </trkpt>
      <trkpt lat="50.990063" lon="4.618912">
        <ele>2743.2000000000003</ele>
        <time>2026-05-28T06:18:05Z</time>
      </trkpt>
      <trkpt lat="50.990341" lon="4.614258">
        <ele>2743.2000000000003</ele>
        <time>2026-05-28T06:18:05Z</time>
      </trkpt>
      <trkpt lat="50.990482" lon="4.608917">
        <ele>2743.2000000000003</ele>
        <time>2026-05-28T06:18:05Z</time>
      </trkpt>
      <trkpt lat="50.99057" lon="4.604385">
        <ele>2743.2000000000003</ele>
        <time>2026-05-28T06:18:05Z</time>
      </trkpt>
      <trkpt lat="50.99062" lon="4.599609">
        <ele>2743.2000000000003</ele>
        <time>2026-05-28T06:18:05Z</time>
      </trkpt>
      <trkpt lat="50.99062" lon="4.593506">
        <ele>2743.2000000000003</ele>
        <time>2026-05-28T06:18:05Z</time>
      </trkpt>
      <trkpt lat="50.99062" lon="4.588623">
        <ele>2743.2000000000003</ele>
        <time>2026-05-28T06:18:05Z</time>
      </trkpt>
      <trkpt lat="50.990574" lon="4.583282">
        <ele>2743.2000000000003</ele>
        <time>2026-05-28T06:18:05Z</time>
      </trkpt>
      <trkpt lat="50.990524" lon="4.57922">
        <ele>2743.2000000000003</ele>
        <time>2026-05-28T06:18:05Z</time>
      </trkpt>
      <trkpt lat="50.990482" lon="4.574432">
        <ele>2743.2000000000003</ele>
        <time>2026-05-28T06:18:05Z</time>
      </trkpt>
      <trkpt lat="50.990387" lon="4.568234">
        <ele>2743.2000000000003</ele>
        <time>2026-05-28T06:18:05Z</time>
      </trkpt>
      <trkpt lat="50.990295" lon="4.562988">
        <ele>2743.2000000000003</ele>
        <time>2026-05-28T06:18:05Z</time>
      </trkpt>
      <trkpt lat="50.990204" lon="4.558792">
        <ele>2743.2000000000003</ele>
        <time>2026-05-28T06:18:05Z</time>
      </trkpt>
      <trkpt lat="50.990154" lon="4.553909">
        <ele>2743.2000000000003</ele>
        <time>2026-05-28T06:18:05Z</time>
      </trkpt>
      <trkpt lat="50.989597" lon="4.521942">
        <ele>2727.96</ele>
        <time>2026-05-28T06:18:05Z</time>
      </trkpt>
      <trkpt lat="50.989059" lon="4.486356">
        <ele>2651.76</ele>
        <time>2026-05-28T06:18:05Z</time>
      </trkpt>
      <trkpt lat="50.988712" lon="4.45343">
        <ele>2583.1800000000003</ele>
        <time>2026-05-28T06:18:05Z</time>
      </trkpt>
      <trkpt lat="50.988464" lon="4.42363">
        <ele>2514.6</ele>
        <time>2026-05-28T06:18:05Z</time>
      </trkpt>
      <trkpt lat="50.988281" lon="4.396461">
        <ele>2461.26</ele>
        <time>2026-05-28T06:18:05Z</time>
      </trkpt>
      <trkpt lat="50.988098" lon="4.369738">
        <ele>2407.92</ele>
        <time>2026-05-28T06:18:05Z</time>
      </trkpt>
      <trkpt lat="50.987736" lon="4.339447">
        <ele>2339.34</ele>
        <time>2026-05-28T06:18:05Z</time>
      </trkpt>
      <trkpt lat="50.986633" lon="4.326386">
        <ele>2286.0</ele>
        <time>2026-05-28T06:18:05Z</time>
      </trkpt>
      <trkpt lat="50.986084" lon="4.322675">
        <ele>2270.76</ele>
        <time>2026-05-28T06:18:05Z</time>
      </trkpt>
      <trkpt lat="50.985352" lon="4.318369">
        <ele>2255.52</ele>
        <time>2026-05-28T06:18:05Z</time>
      </trkpt>
      <trkpt lat="50.984478" lon="4.313812">
        <ele>2240.28</ele>
        <time>2026-05-28T06:18:05Z</time>
      </trkpt>
      <trkpt lat="50.983704" lon="4.310055">
        <ele>2225.04</ele>
        <time>2026-05-28T06:18:05Z</time>
      </trkpt>
      <trkpt lat="50.982834" lon="4.30627">
        <ele>2209.8</ele>
        <time>2026-05-28T06:18:05Z</time>
      </trkpt>
      <trkpt lat="50.981735" lon="4.30137">
        <ele>2186.94</ele>
        <time>2026-05-28T06:18:05Z</time>
      </trkpt>
      <trkpt lat="50.980751" lon="4.297256">
        <ele>2171.7000000000003</ele>
        <time>2026-05-28T06:18:05Z</time>
      </trkpt>
      <trkpt lat="50.979996" lon="4.294169">
        <ele>2156.46</ele>
        <time>2026-05-28T06:18:05Z</time>
      </trkpt>
      <trkpt lat="50.978897" lon="4.289493">
        <ele>2133.6</ele>
        <time>2026-05-28T06:18:05Z</time>
      </trkpt>
      <trkpt lat="50.977913" lon="4.285583">
        <ele>2110.7400000000002</ele>
        <time>2026-05-28T06:18:05Z</time>
      </trkpt>
      <trkpt lat="50.976936" lon="4.281693">
        <ele>2095.5</ele>
        <time>2026-05-28T06:18:05Z</time>
      </trkpt>
      <trkpt lat="50.976196" lon="4.278581">
        <ele>2080.26</ele>
        <time>2026-05-28T06:18:05Z</time>
      </trkpt>
      <trkpt lat="50.975189" lon="4.274572">
        <ele>2057.4</ele>
        <time>2026-05-28T06:18:05Z</time>
      </trkpt>
      <trkpt lat="50.973999" lon="4.269673">
        <ele>2034.5400000000002</ele>
        <time>2026-05-28T06:18:05Z</time>
      </trkpt>
      <trkpt lat="50.968048" lon="4.245622">
        <ele>1927.8600000000001</ele>
        <time>2026-05-28T06:18:05Z</time>
      </trkpt>
      <trkpt lat="50.962177" lon="4.221573">
        <ele>1828.8000000000002</ele>
        <time>2026-05-28T06:18:05Z</time>
      </trkpt>
      <trkpt lat="50.955894" lon="4.195328">
        <ele>1760.22</ele>
        <time>2026-05-28T06:18:05Z</time>
      </trkpt>
      <trkpt lat="50.950333" lon="4.171687">
        <ele>1699.26</ele>
        <time>2026-05-28T06:18:05Z</time>
      </trkpt>
      <trkpt lat="50.944885" lon="4.148081">
        <ele>1630.68</ele>
        <time>2026-05-28T06:18:05Z</time>
      </trkpt>
      <trkpt lat="50.938576" lon="4.120636">
        <ele>1554.48</ele>
        <time>2026-05-28T06:18:05Z</time>
      </trkpt>
      <trkpt lat="50.934814" lon="4.109555">
        <ele>1524.0</ele>
        <time>2026-05-28T06:18:05Z</time>
      </trkpt>
      <trkpt lat="50.933441" lon="4.106511">
        <ele>1516.38</ele>
        <time>2026-05-28T06:18:05Z</time>
      </trkpt>
      <trkpt lat="50.931828" lon="4.103394">
        <ele>1508.76</ele>
        <time>2026-05-28T06:18:05Z</time>
      </trkpt>
      <trkpt lat="50.930099" lon="4.100424">
        <ele>1501.14</ele>
        <time>2026-05-28T06:18:05Z</time>
      </trkpt>
      <trkpt lat="50.927822" lon="4.097061">
        <ele>1493.52</ele>
        <time>2026-05-28T06:18:05Z</time>
      </trkpt>
      <trkpt lat="50.925842" lon="4.09456">
        <ele>1485.9</ele>
        <time>2026-05-28T06:18:05Z</time>
      </trkpt>
      <trkpt lat="50.923866" lon="4.092484">
        <ele>1478.28</ele>
        <time>2026-05-28T06:18:05Z</time>
      </trkpt>
      <trkpt lat="50.921909" lon="4.090576">
        <ele>1478.28</ele>
        <time>2026-05-28T06:18:05Z</time>
      </trkpt>
      <trkpt lat="50.919537" lon="4.088593">
        <ele>1470.66</ele>
        <time>2026-05-28T06:18:05Z</time>
      </trkpt>
      <trkpt lat="50.917007" lon="4.086691">
        <ele>1463.04</ele>
        <time>2026-05-28T06:18:05Z</time>
      </trkpt>
      <trkpt lat="50.914883" lon="4.085236">
        <ele>1463.04</ele>
        <time>2026-05-28T06:18:05Z</time>
      </trkpt>
      <trkpt lat="50.912693" lon="4.083786">
        <ele>1455.42</ele>
        <time>2026-05-28T06:18:05Z</time>
      </trkpt>
      <trkpt lat="50.910458" lon="4.082413">
        <ele>1455.42</ele>
        <time>2026-05-28T06:18:05Z</time>
      </trkpt>
      <trkpt lat="50.908039" lon="4.080887">
        <ele>1455.42</ele>
        <time>2026-05-28T06:18:05Z</time>
      </trkpt>
      <trkpt lat="50.905663" lon="4.079437">
        <ele>1447.8000000000002</ele>
        <time>2026-05-28T06:18:05Z</time>
      </trkpt>
      <trkpt lat="50.902916" lon="4.077759">
        <ele>1440.18</ele>
        <time>2026-05-28T06:18:05Z</time>
      </trkpt>
      <trkpt lat="50.901306" lon="4.076818">
        <ele>1440.18</ele>
        <time>2026-05-28T06:18:05Z</time>
      </trkpt>
      <trkpt lat="50.898376" lon="4.075037">
        <ele>1432.5600000000002</ele>
        <time>2026-05-28T06:18:05Z</time>
      </trkpt>
      <trkpt lat="50.896587" lon="4.07402">
        <ele>1432.5600000000002</ele>
        <time>2026-05-28T06:18:05Z</time>
      </trkpt>
      <trkpt lat="50.894306" lon="4.072647">
        <ele>1424.94</ele>
        <time>2026-05-28T06:18:05Z</time>
      </trkpt>
      <trkpt lat="50.892105" lon="4.071325">
        <ele>1417.3200000000002</ele>
        <time>2026-05-28T06:18:05Z</time>
      </trkpt>
      <trkpt lat="50.889404" lon="4.069841">
        <ele>1417.3200000000002</ele>
        <time>2026-05-28T06:18:05Z</time>
      </trkpt>
      <trkpt lat="50.88718" lon="4.06868">
        <ele>1409.7</ele>
        <time>2026-05-28T06:18:05Z</time>
      </trkpt>
      <trkpt lat="50.884853" lon="4.067688">
        <ele>1402.0800000000002</ele>
        <time>2026-05-28T06:18:05Z</time>
      </trkpt>
      <trkpt lat="50.882248" lon="4.066849">
        <ele>1394.46</ele>
        <time>2026-05-28T06:18:05Z</time>
      </trkpt>
      <trkpt lat="50.879547" lon="4.066315">
        <ele>1386.8400000000001</ele>
        <time>2026-05-28T06:18:05Z</time>
      </trkpt>
      <trkpt lat="50.877266" lon="4.066162">
        <ele>1379.22</ele>
        <time>2026-05-28T06:18:05Z</time>
      </trkpt>
      <trkpt lat="50.875126" lon="4.066238">
        <ele>1371.6000000000001</ele>
        <time>2026-05-28T06:18:05Z</time>
      </trkpt>
      <trkpt lat="50.872612" lon="4.06662">
        <ele>1363.98</ele>
        <time>2026-05-28T06:18:05Z</time>
      </trkpt>
      <trkpt lat="50.870377" lon="4.067307">
        <ele>1363.98</ele>
        <time>2026-05-28T06:18:05Z</time>
      </trkpt>
      <trkpt lat="50.867771" lon="4.068375">
        <ele>1356.3600000000001</ele>
        <time>2026-05-28T06:18:05Z</time>
      </trkpt>
      <trkpt lat="50.86528" lon="4.069767">
        <ele>1348.74</ele>
        <time>2026-05-28T06:18:05Z</time>
      </trkpt>
      <trkpt lat="50.86322" lon="4.071251">
        <ele>1341.1200000000001</ele>
        <time>2026-05-28T06:18:05Z</time>
      </trkpt>
      <trkpt lat="50.861065" lon="4.072952">
        <ele>1333.5</ele>
        <time>2026-05-28T06:18:05Z</time>
      </trkpt>
      <trkpt lat="50.859055" lon="4.074814">
        <ele>1325.88</ele>
        <time>2026-05-28T06:18:05Z</time>
      </trkpt>
      <trkpt lat="50.857269" lon="4.07667">
        <ele>1318.26</ele>
        <time>2026-05-28T06:18:05Z</time>
      </trkpt>
      <trkpt lat="50.854969" lon="4.079056">
        <ele>1310.64</ele>
        <time>2026-05-28T06:18:05Z</time>
      </trkpt>
      <trkpt lat="50.853149" lon="4.080976">
        <ele>1303.02</ele>
        <time>2026-05-28T06:18:05Z</time>
      </trkpt>
      <trkpt lat="50.851242" lon="4.082947">
        <ele>1287.78</ele>
        <time>2026-05-28T06:18:05Z</time>
      </trkpt>
      <trkpt lat="50.849213" lon="4.085058">
        <ele>1280.16</ele>
        <time>2026-05-28T06:18:05Z</time>
      </trkpt>
      <trkpt lat="50.847427" lon="4.08699">
        <ele>1264.92</ele>
        <time>2026-05-28T06:18:05Z</time>
      </trkpt>
      <trkpt lat="50.84547" lon="4.08905">
        <ele>1257.3</ele>
        <time>2026-05-28T06:18:05Z</time>
      </trkpt>
      <trkpt lat="50.843628" lon="4.090997">
        <ele>1242.0600000000002</ele>
        <time>2026-05-28T06:18:05Z</time>
      </trkpt>
      <trkpt lat="50.841747" lon="4.092941">
        <ele>1234.44</ele>
        <time>2026-05-28T06:18:05Z</time>
      </trkpt>
      <trkpt lat="50.839699" lon="4.095078">
        <ele>1219.2</ele>
        <time>2026-05-28T06:18:05Z</time>
      </trkpt>
      <trkpt lat="50.837631" lon="4.097307">
        <ele>1211.5800000000002</ele>
        <time>2026-05-28T06:18:05Z</time>
      </trkpt>
      <trkpt lat="50.835323" lon="4.099579">
        <ele>1196.3400000000001</ele>
        <time>2026-05-28T06:18:05Z</time>
      </trkpt>
      <trkpt lat="50.833508" lon="4.101486">
        <ele>1181.1000000000001</ele>
        <time>2026-05-28T06:18:05Z</time>
      </trkpt>
      <trkpt lat="50.825966" lon="4.109268">
        <ele>1143.0</ele>
        <time>2026-05-28T06:18:05Z</time>
      </trkpt>
      <trkpt lat="50.824036" lon="4.111411">
        <ele>1127.76</ele>
        <time>2026-05-28T06:18:05Z</time>
      </trkpt>
      <trkpt lat="50.822525" lon="4.113341">
        <ele>1112.52</ele>
        <time>2026-05-28T06:18:05Z</time>
      </trkpt>
      <trkpt lat="50.820923" lon="4.115642">
        <ele>1097.28</ele>
        <time>2026-05-28T06:18:05Z</time>
      </trkpt>
      <trkpt lat="50.818985" lon="4.118881">
        <ele>1082.04</ele>
        <time>2026-05-28T06:18:05Z</time>
      </trkpt>
      <trkpt lat="50.817913" lon="4.121017">
        <ele>1066.8</ele>
        <time>2026-05-28T06:18:05Z</time>
      </trkpt>
      <trkpt lat="50.816299" lon="4.124624">
        <ele>1051.56</ele>
        <time>2026-05-28T06:18:05Z</time>
      </trkpt>
      <trkpt lat="50.815258" lon="4.127502">
        <ele>1036.3200000000002</ele>
        <time>2026-05-28T06:18:05Z</time>
      </trkpt>
      <trkpt lat="50.814331" lon="4.130562">
        <ele>1021.08</ele>
        <time>2026-05-28T06:18:05Z</time>
      </trkpt>
      <trkpt lat="50.813583" lon="4.133682">
        <ele>1005.84</ele>
        <time>2026-05-28T06:18:05Z</time>
      </trkpt>
      <trkpt lat="50.812931" lon="4.136963">
        <ele>990.6</ele>
        <time>2026-05-28T06:18:05Z</time>
      </trkpt>
      <trkpt lat="50.812363" lon="4.141103">
        <ele>967.74</ele>
        <time>2026-05-28T06:18:05Z</time>
      </trkpt>
      <trkpt lat="50.812134" lon="4.144518">
        <ele>960.12</ele>
        <time>2026-05-28T06:18:05Z</time>
      </trkpt>
      <trkpt lat="50.812092" lon="4.148026">
        <ele>944.88</ele>
        <time>2026-05-28T06:18:05Z</time>
      </trkpt>
      <trkpt lat="50.812225" lon="4.15157">
        <ele>929.6400000000001</ele>
        <time>2026-05-28T06:18:05Z</time>
      </trkpt>
      <trkpt lat="50.812607" lon="4.155731">
        <ele>922.0200000000001</ele>
        <time>2026-05-28T06:18:05Z</time>
      </trkpt>
      <trkpt lat="50.813049" lon="4.158919">
        <ele>906.7800000000001</ele>
        <time>2026-05-28T06:18:05Z</time>
      </trkpt>
      <trkpt lat="50.813725" lon="4.162216">
        <ele>899.1600000000001</ele>
        <time>2026-05-28T06:18:05Z</time>
      </trkpt>
      <trkpt lat="50.81456" lon="4.165573">
        <ele>891.5400000000001</ele>
        <time>2026-05-28T06:18:05Z</time>
      </trkpt>
      <trkpt lat="50.815567" lon="4.169163">
        <ele>876.3000000000001</ele>
        <time>2026-05-28T06:18:05Z</time>
      </trkpt>
      <trkpt lat="50.816471" lon="4.172287">
        <ele>868.6800000000001</ele>
        <time>2026-05-28T06:18:05Z</time>
      </trkpt>
      <trkpt lat="50.817402" lon="4.175339">
        <ele>861.0600000000001</ele>
        <time>2026-05-28T06:18:05Z</time>
      </trkpt>
      <trkpt lat="50.818359" lon="4.178368">
        <ele>845.82</ele>
        <time>2026-05-28T06:18:05Z</time>
      </trkpt>
      <trkpt lat="50.819355" lon="4.181595">
        <ele>838.2</ele>
        <time>2026-05-28T06:18:05Z</time>
      </trkpt>
      <trkpt lat="50.820557" lon="4.185346">
        <ele>830.58</ele>
        <time>2026-05-28T06:18:05Z</time>
      </trkpt>
      <trkpt lat="50.821499" lon="4.188309">
        <ele>822.96</ele>
        <time>2026-05-28T06:18:05Z</time>
      </trkpt>
      <trkpt lat="50.822475" lon="4.191284">
        <ele>822.96</ele>
        <time>2026-05-28T06:18:05Z</time>
      </trkpt>
      <trkpt lat="50.823441" lon="4.194402">
        <ele>815.34</ele>
        <time>2026-05-28T06:18:05Z</time>
      </trkpt>
      <trkpt lat="50.824356" lon="4.197297">
        <ele>815.34</ele>
        <time>2026-05-28T06:18:05Z</time>
      </trkpt>
      <trkpt lat="50.825268" lon="4.200134">
        <ele>815.34</ele>
        <time>2026-05-28T06:18:05Z</time>
      </trkpt>
      <trkpt lat="50.826187" lon="4.203087">
        <ele>815.34</ele>
        <time>2026-05-28T06:18:05Z</time>
      </trkpt>
      <trkpt lat="50.827271" lon="4.20639">
        <ele>815.34</ele>
        <time>2026-05-28T06:18:05Z</time>
      </trkpt>
      <trkpt lat="50.827923" lon="4.208527">
        <ele>815.34</ele>
        <time>2026-05-28T06:18:05Z</time>
      </trkpt>
      <trkpt lat="50.83062" lon="4.217148">
        <ele>815.34</ele>
        <time>2026-05-28T06:18:05Z</time>
      </trkpt>
      <trkpt lat="50.833694" lon="4.227448">
        <ele>822.96</ele>
        <time>2026-05-28T06:18:05Z</time>
      </trkpt>
      <trkpt lat="50.835754" lon="4.234636">
        <ele>815.34</ele>
        <time>2026-05-28T06:18:05Z</time>
      </trkpt>
      <trkpt lat="50.838593" lon="4.244583">
        <ele>800.1</ele>
        <time>2026-05-28T06:18:05Z</time>
      </trkpt>
      <trkpt lat="50.840561" lon="4.251486">
        <ele>777.24</ele>
        <time>2026-05-28T06:18:05Z</time>
      </trkpt>
      <trkpt lat="50.84111" lon="4.253565">
        <ele>769.62</ele>
        <time>2026-05-28T06:18:05Z</time>
      </trkpt>
      <trkpt lat="50.843655" lon="4.262848">
        <ele>739.14</ele>
        <time>2026-05-28T06:18:05Z</time>
      </trkpt>
      <trkpt lat="50.8461" lon="4.271677">
        <ele>708.6600000000001</ele>
        <time>2026-05-28T06:18:05Z</time>
      </trkpt>
      <trkpt lat="50.848572" lon="4.280734">
        <ele>670.5600000000001</ele>
        <time>2026-05-28T06:18:05Z</time>
      </trkpt>
      <trkpt lat="50.850964" lon="4.289093">
        <ele>640.08</ele>
        <time>2026-05-28T06:18:05Z</time>
      </trkpt>
      <trkpt lat="50.853516" lon="4.29803">
        <ele>601.98</ele>
        <time>2026-05-28T06:18:05Z</time>
      </trkpt>
      <trkpt lat="50.855209" lon="4.304042">
        <ele>579.12</ele>
        <time>2026-05-28T06:18:05Z</time>
      </trkpt>
      <trkpt lat="50.85762" lon="4.312363">
        <ele>541.02</ele>
        <time>2026-05-28T06:18:05Z</time>
      </trkpt>
      <trkpt lat="50.860043" lon="4.320679">
        <ele>510.54</ele>
        <time>2026-05-28T06:18:05Z</time>
      </trkpt>
      <trkpt lat="50.862461" lon="4.329147">
        <ele>472.44</ele>
        <time>2026-05-28T06:18:05Z</time>
      </trkpt>
      <trkpt lat="50.864742" lon="4.337006">
        <ele>441.96000000000004</ele>
        <time>2026-05-28T06:18:05Z</time>
      </trkpt>
      <trkpt lat="50.86702" lon="4.345018">
        <ele>411.48</ele>
        <time>2026-05-28T06:18:05Z</time>
      </trkpt>
      <trkpt lat="50.869167" lon="4.352341">
        <ele>381.0</ele>
        <time>2026-05-28T06:18:05Z</time>
      </trkpt>
      <trkpt lat="50.870842" lon="4.358139">
        <ele>358.14000000000004</ele>
        <time>2026-05-28T06:18:05Z</time>
      </trkpt>
      <trkpt lat="50.872971" lon="4.365507">
        <ele>327.66</ele>
        <time>2026-05-28T06:18:05Z</time>
      </trkpt>
      <trkpt lat="50.875031" lon="4.372559">
        <ele>297.18</ele>
        <time>2026-05-28T06:18:05Z</time>
      </trkpt>
      <trkpt lat="50.877045" lon="4.379462">
        <ele>266.7</ele>
        <time>2026-05-28T06:18:05Z</time>
      </trkpt>
      <trkpt lat="50.879128" lon="4.386673">
        <ele>243.84</ele>
        <time>2026-05-28T06:18:05Z</time>
      </trkpt>
      <trkpt lat="50.880756" lon="4.392319">
        <ele>220.98000000000002</ele>
        <time>2026-05-28T06:18:05Z</time>
      </trkpt>
      <trkpt lat="50.882721" lon="4.399208">
        <ele>190.5</ele>
        <time>2026-05-28T06:18:05Z</time>
      </trkpt>
      <trkpt lat="50.884251" lon="4.404449">
        <ele>167.64000000000001</ele>
        <time>2026-05-28T06:18:05Z</time>
      </trkpt>
      <trkpt lat="50.886475" lon="4.412199">
        <ele>137.16</ele>
        <time>2026-05-28T06:18:05Z</time>
      </trkpt>
      <trkpt lat="50.888161" lon="4.417953">
        <ele>114.30000000000001</ele>
        <time>2026-05-28T06:18:05Z</time>
      </trkpt>
      <trkpt lat="50.890274" lon="4.425337">
        <ele>83.82000000000001</ele>
        <time>2026-05-28T06:18:05Z</time>
      </trkpt>
      <trkpt lat="50.892258" lon="4.432373">
        <ele>60.96</ele>
        <time>2026-05-28T06:18:05Z</time>
      </trkpt>
      <trkpt lat="50.894577" lon="4.440407">
        <ele>30.48</ele>
        <time>2026-05-28T06:18:05Z</time>
      </trkpt>
      <trkpt lat="50.896179" lon="4.445974">
        <ele>7.62</ele>
        <time>2026-05-28T06:18:05Z</time>
      </trkpt>
      <trkpt lat="50.898285" lon="4.453471">
        <ele>0.0</ele>
        <time>2026-05-28T06:18:05Z</time>
      </trkpt>
      <trkpt lat="50.900448" lon="4.460983">
        <ele>0.0</ele>
        <time>2026-05-28T06:18:05Z</time>
      </trkpt>
      <trkpt lat="50.901939" lon="4.466171">
        <ele>0.0</ele>
        <time>2026-05-28T06:18:05Z</time>
      </trkpt>
      <trkpt lat="50.906422" lon="4.481602">
        <ele>0.0</ele>
        <time>2026-05-28T06:18:05Z</time>
      </trkpt>
      <trkpt lat="50.90657" lon="4.482536">
        <ele>0.0</ele>
        <time>2026-05-28T06:18:05Z</time>
      </trkpt>
      <trkpt lat="50.90657" lon="4.482811">
        <ele>0.0</ele>
        <time>2026-05-28T06:18:05Z</time>
      </trkpt>
      <trkpt lat="50.906513" lon="4.483164">
        <ele>0.0</ele>
        <time>2026-05-28T06:18:05Z</time>
      </trkpt>
      <trkpt lat="50.906433" lon="4.483414">
        <ele>0.0</ele>
        <time>2026-05-28T06:18:05Z</time>
      </trkpt>
      <trkpt lat="50.906303" lon="4.483738">
        <ele>0.0</ele>
        <time>2026-05-28T06:18:05Z</time>
      </trkpt>
      <trkpt lat="50.906139" lon="4.484138">
        <ele>0.0</ele>
        <time>2026-05-28T06:18:05Z</time>
      </trkpt>
      <trkpt lat="50.905998" lon="4.484519">
        <ele>0.0</ele>
        <time>2026-05-28T06:18:05Z</time>
      </trkpt>
      <trkpt lat="50.905689" lon="4.484742">
        <ele>0.0</ele>
        <time>2026-05-28T06:18:05Z</time>
      </trkpt>
      <trkpt lat="50.905476" lon="4.484558">
        <ele>0.0</ele>
        <time>2026-05-28T06:18:05Z</time>
      </trkpt>
      <trkpt lat="50.905384" lon="4.48431">
        <ele>0.0</ele>
        <time>2026-05-28T06:18:05Z</time>
      </trkpt>
      <trkpt lat="50.905312" lon="4.483981">
        <ele>0.0</ele>
        <time>2026-05-28T06:18:05Z</time>
      </trkpt>
      <trkpt lat="50.905186" lon="4.483566">
        <ele>0.0</ele>
        <time>2026-05-28T06:18:05Z</time>
      </trkpt>
      <trkpt lat="50.905033" lon="4.483051">
        <ele>0.0</ele>
        <time>2026-05-28T06:18:05Z</time>
      </trkpt>
      <trkpt lat="50.904709" lon="4.481964">
        <ele>0.0</ele>
        <time>2026-05-28T06:18:05Z</time>
      </trkpt>
      <trkpt lat="50.904568" lon="4.481475">
        <ele>0.0</ele>
        <time>2026-05-28T06:18:05Z</time>
      </trkpt>
      <trkpt lat="50.904385" lon="4.480826">
        <ele>0.0</ele>
        <time>2026-05-28T06:18:05Z</time>
      </trkpt>
      <trkpt lat="50.904213" lon="4.48025">
        <ele>0.0</ele>
        <time>2026-05-28T06:18:05Z</time>
      </trkpt>
      <trkpt lat="50.904087" lon="4.479805">
        <ele>0.0</ele>
        <time>2026-05-28T06:18:05Z</time>
      </trkpt>
      <trkpt lat="50.90395" lon="4.479304">
        <ele>0.0</ele>
        <time>2026-05-28T06:18:05Z</time>
      </trkpt>
      <trkpt lat="50.903847" lon="4.478951">
        <ele>0.0</ele>
        <time>2026-05-28T06:18:05Z</time>
      </trkpt>
      <trkpt lat="50.903721" lon="4.478543">
        <ele>0.0</ele>
        <time>2026-05-28T06:18:05Z</time>
      </trkpt>
      <trkpt lat="50.90358" lon="4.478073">
        <ele>0.0</ele>
        <time>2026-05-28T06:18:05Z</time>
      </trkpt>
      <trkpt lat="50.903511" lon="4.477806">
        <ele>0.0</ele>
        <time>2026-05-28T06:18:05Z</time>
      </trkpt>
      <trkpt lat="50.903423" lon="4.477504">
        <ele>0.0</ele>
        <time>2026-05-28T06:18:05Z</time>
      </trkpt>
      <trkpt lat="50.903358" lon="4.477253">
        <ele>0.0</ele>
        <time>2026-05-28T06:18:05Z</time>
      </trkpt>
      <trkpt lat="50.903286" lon="4.477022">
        <ele>0.0</ele>
        <time>2026-05-28T06:18:05Z</time>
      </trkpt>
      <trkpt lat="50.903229" lon="4.476817">
        <ele>0.0</ele>
        <time>2026-05-28T06:18:05Z</time>
      </trkpt>
      <trkpt lat="50.903149" lon="4.476547">
        <ele>0.0</ele>
        <time>2026-05-28T06:18:05Z</time>
      </trkpt>
      <trkpt lat="50.903034" lon="4.476112">
        <ele>0.0</ele>
        <time>2026-05-28T06:18:05Z</time>
      </trkpt>
      <trkpt lat="50.902905" lon="4.47567">
        <ele>0.0</ele>
        <time>2026-05-28T06:18:05Z</time>
      </trkpt>
      <trkpt lat="50.902794" lon="4.475314">
        <ele>0.0</ele>
        <time>2026-05-28T06:18:05Z</time>
      </trkpt>
      <trkpt lat="50.902679" lon="4.474906">
        <ele>0.0</ele>
        <time>2026-05-28T06:18:05Z</time>
      </trkpt>
      <trkpt lat="50.902523" lon="4.47443">
        <ele>0.0</ele>
        <time>2026-05-28T06:18:05Z</time>
      </trkpt>
      <trkpt lat="50.902279" lon="4.474275">
        <ele>0.0</ele>
        <time>2026-05-28T06:18:05Z</time>
      </trkpt>
      <trkpt lat="50.901993" lon="4.474516">
        <ele>0.0</ele>
        <time>2026-05-28T06:18:05Z</time>
      </trkpt>
      <trkpt lat="50.901901" lon="4.474757">
        <ele>0.0</ele>
        <time>2026-05-28T06:18:05Z</time>
      </trkpt>
      <trkpt lat="50.901939" lon="4.475098">
        <ele>0.0</ele>
        <time>2026-05-28T06:18:05Z</time>
      </trkpt>
      <trkpt lat="50.902008" lon="4.475346">
        <ele>0.0</ele>
        <time>2026-05-28T06:18:05Z</time>
      </trkpt>
      <trkpt lat="50.902069" lon="4.475555">
        <ele>0.0</ele>
        <time>2026-05-28T06:18:05Z</time>
      </trkpt>
      <trkpt lat="50.902138" lon="4.475765">
        <ele>0.0</ele>
        <time>2026-05-28T06:18:05Z</time>
      </trkpt>
      <trkpt lat="50.902199" lon="4.475982">
        <ele>0.0</ele>
        <time>2026-05-28T06:18:05Z</time>
      </trkpt>
      <trkpt lat="50.902256" lon="4.476205">
        <ele>0.0</ele>
        <time>2026-05-28T06:18:05Z</time>
      </trkpt>
      <trkpt lat="50.902325" lon="4.476409">
        <ele>0.0</ele>
        <time>2026-05-28T06:18:05Z</time>
      </trkpt>
      <trkpt lat="50.902393" lon="4.476681">
        <ele>0.0</ele>
        <time>2026-05-28T06:18:05Z</time>
      </trkpt>
      <trkpt lat="50.902485" lon="4.476985">
        <ele>0.0</ele>
        <time>2026-05-28T06:18:05Z</time>
      </trkpt>
      <trkpt lat="50.902557" lon="4.477215">
        <ele>0.0</ele>
        <time>2026-05-28T06:18:05Z</time>
      </trkpt>
      <trkpt lat="50.90266" lon="4.477596">
        <ele>0.0</ele>
        <time>2026-05-28T06:18:05Z</time>
      </trkpt>
      <trkpt lat="50.902782" lon="4.477986">
        <ele>0.0</ele>
        <time>2026-05-28T06:18:05Z</time>
      </trkpt>
      <trkpt lat="50.902836" lon="4.478188">
        <ele>0.0</ele>
        <time>2026-05-28T06:18:05Z</time>
      </trkpt>
      <trkpt lat="50.902908" lon="4.478432">
        <ele>0.0</ele>
        <time>2026-05-28T06:18:05Z</time>
      </trkpt>
      <trkpt lat="50.902977" lon="4.478673">
        <ele>0.0</ele>
        <time>2026-05-28T06:18:05Z</time>
      </trkpt>
      <trkpt lat="50.903114" lon="4.479156">
        <ele>0.0</ele>
        <time>2026-05-28T06:18:05Z</time>
      </trkpt>
      <trkpt lat="50.90324" lon="4.479601">
        <ele>0.0</ele>
        <time>2026-05-28T06:18:05Z</time>
      </trkpt>
      <trkpt lat="50.903393" lon="4.480209">
        <ele>0.0</ele>
        <time>2026-05-28T06:18:05Z</time>
      </trkpt>
      <trkpt lat="50.903137" lon="4.480553">
        <ele>0.0</ele>
        <time>2026-05-28T06:18:05Z</time>
      </trkpt>
      <trkpt lat="50.902885" lon="4.480733">
        <ele>0.0</ele>
        <time>2026-05-28T06:18:05Z</time>
      </trkpt>
      <trkpt lat="50.902683" lon="4.480877">
        <ele>0.0</ele>
        <time>2026-05-28T06:18:05Z</time>
      </trkpt>
      <trkpt lat="50.902554" lon="4.481086">
        <ele>0.0</ele>
        <time>2026-05-28T06:18:05Z</time>
      </trkpt>
    </trkseg>
  </trk>
</gpx>