<?xml version="1.0" encoding="UTF-8"?>
<gpx xmlns="http://www.topografix.com/GPX/1/1" xmlns:xsi="http://www.w3.org/2001/XMLSchema-instance" xsi:schemaLocation="http://www.topografix.com/GPX/1/1 http://www.topografix.com/GPX/1/1/gpx.xsd" version="1.1" creator="gpx.py -- https://github.com/tkrajina/gpxpy">
  <metadata>
    <name>7_csv/Malaysia December 2025/OD2404_3d10550e.csv</name>
    <time>2025-11-11T23:02:48Z</time>
  </metadata>
  <trk>
    <name>7_csv/Malaysia December 2025/OD2404_3d10550e.csv</name>
    <cmt>2025-11-11</cmt>
    <type>Plane</type>
    <trkseg>
      <trkpt lat="1.659355" lon="103.663017">
        <ele>411.48</ele>
        <time>2025-11-11T23:02:48Z</time>
      </trkpt>
      <trkpt lat="1.664987" lon="103.661118">
        <ele>541.02</ele>
        <time>2025-11-11T23:02:48Z</time>
      </trkpt>
      <trkpt lat="1.66941" lon="103.659317">
        <ele>662.94</ele>
        <time>2025-11-11T23:02:48Z</time>
      </trkpt>
      <trkpt lat="1.670853" lon="103.658371">
        <ele>701.0400000000001</ele>
        <time>2025-11-11T23:02:48Z</time>
      </trkpt>
      <trkpt lat="1.672714" lon="103.656845">
        <ele>746.76</ele>
        <time>2025-11-11T23:02:48Z</time>
      </trkpt>
      <trkpt lat="1.673859" lon="103.655586">
        <ele>784.86</ele>
        <time>2025-11-11T23:02:48Z</time>
      </trkpt>
      <trkpt lat="1.674683" lon="103.654518">
        <ele>815.34</ele>
        <time>2025-11-11T23:02:48Z</time>
      </trkpt>
      <trkpt lat="1.675781" lon="103.652931">
        <ele>861.0600000000001</ele>
        <time>2025-11-11T23:02:48Z</time>
      </trkpt>
      <trkpt lat="1.676468" lon="103.651726">
        <ele>891.5400000000001</ele>
        <time>2025-11-11T23:02:48Z</time>
      </trkpt>
      <trkpt lat="1.6772" lon="103.650276">
        <ele>922.0200000000001</ele>
        <time>2025-11-11T23:02:48Z</time>
      </trkpt>
      <trkpt lat="1.67775" lon="103.649071">
        <ele>952.5</ele>
        <time>2025-11-11T23:02:48Z</time>
      </trkpt>
      <trkpt lat="1.678253" lon="103.647812">
        <ele>975.36</ele>
        <time>2025-11-11T23:02:48Z</time>
      </trkpt>
      <trkpt lat="1.678813" lon="103.646439">
        <ele>1005.84</ele>
        <time>2025-11-11T23:02:48Z</time>
      </trkpt>
      <trkpt lat="1.679325" lon="103.64521">
        <ele>1028.7</ele>
        <time>2025-11-11T23:02:48Z</time>
      </trkpt>
      <trkpt lat="1.679931" lon="103.643692">
        <ele>1059.18</ele>
        <time>2025-11-11T23:02:48Z</time>
      </trkpt>
      <trkpt lat="1.680443" lon="103.642464">
        <ele>1082.04</ele>
        <time>2025-11-11T23:02:48Z</time>
      </trkpt>
      <trkpt lat="1.680955" lon="103.641182">
        <ele>1104.9</ele>
        <time>2025-11-11T23:02:48Z</time>
      </trkpt>
      <trkpt lat="1.681686" lon="103.639526">
        <ele>1127.76</ele>
        <time>2025-11-11T23:02:48Z</time>
      </trkpt>
      <trkpt lat="1.682072" lon="103.63858">
        <ele>1135.38</ele>
        <time>2025-11-11T23:02:48Z</time>
      </trkpt>
      <trkpt lat="1.682863" lon="103.636734">
        <ele>1158.24</ele>
        <time>2025-11-11T23:02:48Z</time>
      </trkpt>
      <trkpt lat="1.683469" lon="103.635361">
        <ele>1165.8600000000001</ele>
        <time>2025-11-11T23:02:48Z</time>
      </trkpt>
      <trkpt lat="1.684074" lon="103.633987">
        <ele>1181.1000000000001</ele>
        <time>2025-11-11T23:02:48Z</time>
      </trkpt>
      <trkpt lat="1.684799" lon="103.632454">
        <ele>1188.72</ele>
        <time>2025-11-11T23:02:48Z</time>
      </trkpt>
      <trkpt lat="1.685517" lon="103.630814">
        <ele>1203.96</ele>
        <time>2025-11-11T23:02:48Z</time>
      </trkpt>
      <trkpt lat="1.686308" lon="103.629059">
        <ele>1219.2</ele>
        <time>2025-11-11T23:02:48Z</time>
      </trkpt>
      <trkpt lat="1.688589" lon="103.624138">
        <ele>1249.68</ele>
        <time>2025-11-11T23:02:48Z</time>
      </trkpt>
      <trkpt lat="1.691895" lon="103.617043">
        <ele>1295.4</ele>
        <time>2025-11-11T23:02:48Z</time>
      </trkpt>
      <trkpt lat="1.694366" lon="103.611778">
        <ele>1325.88</ele>
        <time>2025-11-11T23:02:48Z</time>
      </trkpt>
      <trkpt lat="1.698179" lon="103.603821">
        <ele>1394.46</ele>
        <time>2025-11-11T23:02:48Z</time>
      </trkpt>
      <trkpt lat="1.701096" lon="103.597534">
        <ele>1478.28</ele>
        <time>2025-11-11T23:02:48Z</time>
      </trkpt>
      <trkpt lat="1.705022" lon="103.589043">
        <ele>1562.1000000000001</ele>
        <time>2025-11-11T23:02:48Z</time>
      </trkpt>
      <trkpt lat="1.711258" lon="103.57547">
        <ele>1699.26</ele>
        <time>2025-11-11T23:02:48Z</time>
      </trkpt>
      <trkpt lat="1.717778" lon="103.56144">
        <ele>1882.14</ele>
        <time>2025-11-11T23:02:48Z</time>
      </trkpt>
      <trkpt lat="1.724854" lon="103.546425">
        <ele>2080.26</ele>
        <time>2025-11-11T23:02:48Z</time>
      </trkpt>
      <trkpt lat="1.731883" lon="103.531601">
        <ele>2270.76</ele>
        <time>2025-11-11T23:02:48Z</time>
      </trkpt>
      <trkpt lat="1.739052" lon="103.516495">
        <ele>2461.26</ele>
        <time>2025-11-11T23:02:48Z</time>
      </trkpt>
      <trkpt lat="1.746361" lon="103.50106">
        <ele>2644.1400000000003</ele>
        <time>2025-11-11T23:02:48Z</time>
      </trkpt>
      <trkpt lat="1.753856" lon="103.485336">
        <ele>2819.4</ele>
        <time>2025-11-11T23:02:48Z</time>
      </trkpt>
      <trkpt lat="1.762561" lon="103.46701">
        <ele>3048.0</ele>
        <time>2025-11-11T23:02:48Z</time>
      </trkpt>
      <trkpt lat="1.769806" lon="103.451645">
        <ele>3215.6400000000003</ele>
        <time>2025-11-11T23:02:48Z</time>
      </trkpt>
      <trkpt lat="1.778046" lon="103.434235">
        <ele>3284.2200000000003</ele>
        <time>2025-11-11T23:02:48Z</time>
      </trkpt>
      <trkpt lat="1.786514" lon="103.416306">
        <ele>3352.8</ele>
        <time>2025-11-11T23:02:48Z</time>
      </trkpt>
      <trkpt lat="1.795427" lon="103.3974">
        <ele>3497.5800000000004</ele>
        <time>2025-11-11T23:02:48Z</time>
      </trkpt>
      <trkpt lat="1.803909" lon="103.379303">
        <ele>3665.2200000000003</ele>
        <time>2025-11-11T23:02:48Z</time>
      </trkpt>
      <trkpt lat="1.825928" lon="103.332558">
        <ele>4107.18</ele>
        <time>2025-11-11T23:02:48Z</time>
      </trkpt>
      <trkpt lat="1.84758" lon="103.286522">
        <ele>4541.52</ele>
        <time>2025-11-11T23:02:48Z</time>
      </trkpt>
      <trkpt lat="1.872098" lon="103.23616">
        <ele>4983.4800000000005</ele>
        <time>2025-11-11T23:02:48Z</time>
      </trkpt>
      <trkpt lat="1.896057" lon="103.187691">
        <ele>5387.34</ele>
        <time>2025-11-11T23:02:48Z</time>
      </trkpt>
      <trkpt lat="1.920364" lon="103.138435">
        <ele>5791.200000000001</ele>
        <time>2025-11-11T23:02:48Z</time>
      </trkpt>
      <trkpt lat="1.946396" lon="103.085281">
        <ele>5981.700000000001</ele>
        <time>2025-11-11T23:02:48Z</time>
      </trkpt>
      <trkpt lat="1.972977" lon="103.03083">
        <ele>6096.0</ele>
        <time>2025-11-11T23:02:48Z</time>
      </trkpt>
      <trkpt lat="1.997955" lon="102.979836">
        <ele>6088.38</ele>
        <time>2025-11-11T23:02:48Z</time>
      </trkpt>
      <trkpt lat="2.023499" lon="102.927605">
        <ele>6088.38</ele>
        <time>2025-11-11T23:02:48Z</time>
      </trkpt>
      <trkpt lat="2.048298" lon="102.876923">
        <ele>6088.38</ele>
        <time>2025-11-11T23:02:48Z</time>
      </trkpt>
      <trkpt lat="2.074833" lon="102.822563">
        <ele>6088.38</ele>
        <time>2025-11-11T23:02:48Z</time>
      </trkpt>
      <trkpt lat="2.100065" lon="102.770851">
        <ele>6088.38</ele>
        <time>2025-11-11T23:02:48Z</time>
      </trkpt>
      <trkpt lat="2.124527" lon="102.720863">
        <ele>6088.38</ele>
        <time>2025-11-11T23:02:48Z</time>
      </trkpt>
      <trkpt lat="2.151031" lon="102.667519">
        <ele>6012.18</ele>
        <time>2025-11-11T23:02:48Z</time>
      </trkpt>
      <trkpt lat="2.157257" lon="102.658112">
        <ele>5951.22</ele>
        <time>2025-11-11T23:02:48Z</time>
      </trkpt>
      <trkpt lat="2.159363" lon="102.655365">
        <ele>5935.9800000000005</ele>
        <time>2025-11-11T23:02:48Z</time>
      </trkpt>
      <trkpt lat="2.162258" lon="102.651894">
        <ele>5913.12</ele>
        <time>2025-11-11T23:02:48Z</time>
      </trkpt>
      <trkpt lat="2.164586" lon="102.649292">
        <ele>5897.88</ele>
        <time>2025-11-11T23:02:48Z</time>
      </trkpt>
      <trkpt lat="2.167236" lon="102.646523">
        <ele>5875.02</ele>
        <time>2025-11-11T23:02:48Z</time>
      </trkpt>
      <trkpt lat="2.16994" lon="102.64389">
        <ele>5859.780000000001</ele>
        <time>2025-11-11T23:02:48Z</time>
      </trkpt>
      <trkpt lat="2.172729" lon="102.641304">
        <ele>5844.54</ele>
        <time>2025-11-11T23:02:48Z</time>
      </trkpt>
      <trkpt lat="2.175572" lon="102.638824">
        <ele>5829.3</ele>
        <time>2025-11-11T23:02:48Z</time>
      </trkpt>
      <trkpt lat="2.178784" lon="102.636269">
        <ele>5806.4400000000005</ele>
        <time>2025-11-11T23:02:48Z</time>
      </trkpt>
      <trkpt lat="2.181244" lon="102.634415">
        <ele>5791.200000000001</ele>
        <time>2025-11-11T23:02:48Z</time>
      </trkpt>
      <trkpt lat="2.184324" lon="102.63224">
        <ele>5775.96</ele>
        <time>2025-11-11T23:02:48Z</time>
      </trkpt>
      <trkpt lat="2.186559" lon="102.630722">
        <ele>5760.72</ele>
        <time>2025-11-11T23:02:48Z</time>
      </trkpt>
      <trkpt lat="2.190903" lon="102.627991">
        <ele>5730.240000000001</ele>
        <time>2025-11-11T23:02:48Z</time>
      </trkpt>
      <trkpt lat="2.193542" lon="102.626465">
        <ele>5715.0</ele>
        <time>2025-11-11T23:02:48Z</time>
      </trkpt>
      <trkpt lat="2.197126" lon="102.624519">
        <ele>5692.14</ele>
        <time>2025-11-11T23:02:48Z</time>
      </trkpt>
      <trkpt lat="2.200105" lon="102.622963">
        <ele>5669.280000000001</ele>
        <time>2025-11-11T23:02:48Z</time>
      </trkpt>
      <trkpt lat="2.203131" lon="102.621445">
        <ele>5654.04</ele>
        <time>2025-11-11T23:02:48Z</time>
      </trkpt>
      <trkpt lat="2.206157" lon="102.619926">
        <ele>5638.8</ele>
        <time>2025-11-11T23:02:48Z</time>
      </trkpt>
      <trkpt lat="2.209788" lon="102.61808">
        <ele>5615.9400000000005</ele>
        <time>2025-11-11T23:02:48Z</time>
      </trkpt>
      <trkpt lat="2.213104" lon="102.616402">
        <ele>5600.700000000001</ele>
        <time>2025-11-11T23:02:48Z</time>
      </trkpt>
      <trkpt lat="2.21608" lon="102.614868">
        <ele>5577.84</ele>
        <time>2025-11-11T23:02:48Z</time>
      </trkpt>
      <trkpt lat="2.219696" lon="102.613052">
        <ele>5554.9800000000005</ele>
        <time>2025-11-11T23:02:48Z</time>
      </trkpt>
      <trkpt lat="2.222672" lon="102.611511">
        <ele>5532.12</ele>
        <time>2025-11-11T23:02:48Z</time>
      </trkpt>
      <trkpt lat="2.226883" lon="102.609375">
        <ele>5509.26</ele>
        <time>2025-11-11T23:02:48Z</time>
      </trkpt>
      <trkpt lat="2.27037" lon="102.587212">
        <ele>5219.7</ele>
        <time>2025-11-11T23:02:48Z</time>
      </trkpt>
      <trkpt lat="2.324586" lon="102.559555">
        <ele>4945.38</ele>
        <time>2025-11-11T23:02:48Z</time>
      </trkpt>
      <trkpt lat="2.369659" lon="102.536514">
        <ele>4785.360000000001</ele>
        <time>2025-11-11T23:02:48Z</time>
      </trkpt>
      <trkpt lat="2.415875" lon="102.512955">
        <ele>4617.72</ele>
        <time>2025-11-11T23:02:48Z</time>
      </trkpt>
      <trkpt lat="2.466198" lon="102.487244">
        <ele>4549.14</ele>
        <time>2025-11-11T23:02:48Z</time>
      </trkpt>
      <trkpt lat="2.50721" lon="102.463707">
        <ele>4381.5</ele>
        <time>2025-11-11T23:02:48Z</time>
      </trkpt>
      <trkpt lat="2.513216" lon="102.459114">
        <ele>4358.64</ele>
        <time>2025-11-11T23:02:48Z</time>
      </trkpt>
      <trkpt lat="2.515636" lon="102.457123">
        <ele>4351.02</ele>
        <time>2025-11-11T23:02:48Z</time>
      </trkpt>
      <trkpt lat="2.518523" lon="102.454704">
        <ele>4335.780000000001</ele>
        <time>2025-11-11T23:02:48Z</time>
      </trkpt>
      <trkpt lat="2.520897" lon="102.452621">
        <ele>4328.16</ele>
        <time>2025-11-11T23:02:48Z</time>
      </trkpt>
      <trkpt lat="2.52301" lon="102.450722">
        <ele>4320.54</ele>
        <time>2025-11-11T23:02:48Z</time>
      </trkpt>
      <trkpt lat="2.525971" lon="102.447891">
        <ele>4305.3</ele>
        <time>2025-11-11T23:02:48Z</time>
      </trkpt>
      <trkpt lat="2.528" lon="102.44593">
        <ele>4297.68</ele>
        <time>2025-11-11T23:02:48Z</time>
      </trkpt>
      <trkpt lat="2.530243" lon="102.443695">
        <ele>4282.4400000000005</ele>
        <time>2025-11-11T23:02:48Z</time>
      </trkpt>
      <trkpt lat="2.532394" lon="102.441414">
        <ele>4274.820000000001</ele>
        <time>2025-11-11T23:02:48Z</time>
      </trkpt>
      <trkpt lat="2.534958" lon="102.438622">
        <ele>4259.58</ele>
        <time>2025-11-11T23:02:48Z</time>
      </trkpt>
      <trkpt lat="2.537521" lon="102.435822">
        <ele>4251.96</ele>
        <time>2025-11-11T23:02:48Z</time>
      </trkpt>
      <trkpt lat="2.53989" lon="102.433304">
        <ele>4236.72</ele>
        <time>2025-11-11T23:02:48Z</time>
      </trkpt>
      <trkpt lat="2.541779" lon="102.431213">
        <ele>4229.1</ele>
        <time>2025-11-11T23:02:48Z</time>
      </trkpt>
      <trkpt lat="2.543707" lon="102.429138">
        <ele>4221.4800000000005</ele>
        <time>2025-11-11T23:02:48Z</time>
      </trkpt>
      <trkpt lat="2.578202" lon="102.391769">
        <ele>4053.84</ele>
        <time>2025-11-11T23:02:48Z</time>
      </trkpt>
      <trkpt lat="2.610836" lon="102.356354">
        <ele>3954.78</ele>
        <time>2025-11-11T23:02:48Z</time>
      </trkpt>
      <trkpt lat="2.64592" lon="102.318329">
        <ele>3733.8</ele>
        <time>2025-11-11T23:02:48Z</time>
      </trkpt>
      <trkpt lat="2.680385" lon="102.281059">
        <ele>3528.0600000000004</ele>
        <time>2025-11-11T23:02:48Z</time>
      </trkpt>
      <trkpt lat="2.695468" lon="102.264671">
        <ele>3451.86</ele>
        <time>2025-11-11T23:02:48Z</time>
      </trkpt>
      <trkpt lat="2.706894" lon="102.25148">
        <ele>3390.9</ele>
        <time>2025-11-11T23:02:48Z</time>
      </trkpt>
      <trkpt lat="2.712133" lon="102.24379">
        <ele>3368.04</ele>
        <time>2025-11-11T23:02:48Z</time>
      </trkpt>
      <trkpt lat="2.713669" lon="102.241142">
        <ele>3368.04</ele>
        <time>2025-11-11T23:02:48Z</time>
      </trkpt>
      <trkpt lat="2.715439" lon="102.238014">
        <ele>3368.04</ele>
        <time>2025-11-11T23:02:48Z</time>
      </trkpt>
      <trkpt lat="2.716599" lon="102.23584">
        <ele>3368.04</ele>
        <time>2025-11-11T23:02:48Z</time>
      </trkpt>
      <trkpt lat="2.718232" lon="102.232658">
        <ele>3375.6600000000003</ele>
        <time>2025-11-11T23:02:48Z</time>
      </trkpt>
      <trkpt lat="2.719299" lon="102.230438">
        <ele>3375.6600000000003</ele>
        <time>2025-11-11T23:02:48Z</time>
      </trkpt>
      <trkpt lat="2.720559" lon="102.227737">
        <ele>3375.6600000000003</ele>
        <time>2025-11-11T23:02:48Z</time>
      </trkpt>
      <trkpt lat="2.721677" lon="102.225273">
        <ele>3375.6600000000003</ele>
        <time>2025-11-11T23:02:48Z</time>
      </trkpt>
      <trkpt lat="2.722824" lon="102.222527">
        <ele>3375.6600000000003</ele>
        <time>2025-11-11T23:02:48Z</time>
      </trkpt>
      <trkpt lat="2.723911" lon="102.219734">
        <ele>3375.6600000000003</ele>
        <time>2025-11-11T23:02:48Z</time>
      </trkpt>
      <trkpt lat="2.724842" lon="102.217224">
        <ele>3375.6600000000003</ele>
        <time>2025-11-11T23:02:48Z</time>
      </trkpt>
      <trkpt lat="2.725959" lon="102.214195">
        <ele>3375.6600000000003</ele>
        <time>2025-11-11T23:02:48Z</time>
      </trkpt>
      <trkpt lat="2.72689" lon="102.211685">
        <ele>3375.6600000000003</ele>
        <time>2025-11-11T23:02:48Z</time>
      </trkpt>
      <trkpt lat="2.727722" lon="102.209396">
        <ele>3368.04</ele>
        <time>2025-11-11T23:02:48Z</time>
      </trkpt>
      <trkpt lat="2.728867" lon="102.206367">
        <ele>3375.6600000000003</ele>
        <time>2025-11-11T23:02:48Z</time>
      </trkpt>
      <trkpt lat="2.730103" lon="102.20311">
        <ele>3368.04</ele>
        <time>2025-11-11T23:02:48Z</time>
      </trkpt>
      <trkpt lat="2.735687" lon="102.188446">
        <ele>3322.32</ele>
        <time>2025-11-11T23:02:48Z</time>
      </trkpt>
      <trkpt lat="2.741913" lon="102.17234">
        <ele>3261.36</ele>
        <time>2025-11-11T23:02:48Z</time>
      </trkpt>
      <trkpt lat="2.747772" lon="102.156975">
        <ele>3185.1600000000003</ele>
        <time>2025-11-11T23:02:48Z</time>
      </trkpt>
      <trkpt lat="2.754775" lon="102.138664">
        <ele>3108.96</ele>
        <time>2025-11-11T23:02:48Z</time>
      </trkpt>
      <trkpt lat="2.761597" lon="102.120995">
        <ele>3032.76</ele>
        <time>2025-11-11T23:02:48Z</time>
      </trkpt>
      <trkpt lat="2.767273" lon="102.106377">
        <ele>2971.8</ele>
        <time>2025-11-11T23:02:48Z</time>
      </trkpt>
      <trkpt lat="2.773178" lon="102.091293">
        <ele>2918.46</ele>
        <time>2025-11-11T23:02:48Z</time>
      </trkpt>
      <trkpt lat="2.779495" lon="102.07402">
        <ele>2781.3</ele>
        <time>2025-11-11T23:02:48Z</time>
      </trkpt>
      <trkpt lat="2.780548" lon="102.068298">
        <ele>2743.2000000000003</ele>
        <time>2025-11-11T23:02:48Z</time>
      </trkpt>
      <trkpt lat="2.780685" lon="102.065781">
        <ele>2720.34</ele>
        <time>2025-11-11T23:02:48Z</time>
      </trkpt>
      <trkpt lat="2.780685" lon="102.064247">
        <ele>2712.7200000000003</ele>
        <time>2025-11-11T23:02:48Z</time>
      </trkpt>
      <trkpt lat="2.780502" lon="102.061684">
        <ele>2689.86</ele>
        <time>2025-11-11T23:02:48Z</time>
      </trkpt>
      <trkpt lat="2.779867" lon="102.057922">
        <ele>2667.0</ele>
        <time>2025-11-11T23:02:48Z</time>
      </trkpt>
      <trkpt lat="2.779312" lon="102.055679">
        <ele>2651.76</ele>
        <time>2025-11-11T23:02:48Z</time>
      </trkpt>
      <trkpt lat="2.778238" lon="102.052567">
        <ele>2628.9</ele>
        <time>2025-11-11T23:02:48Z</time>
      </trkpt>
      <trkpt lat="2.777167" lon="102.050201">
        <ele>2621.28</ele>
        <time>2025-11-11T23:02:48Z</time>
      </trkpt>
      <trkpt lat="2.776003" lon="102.047928">
        <ele>2606.04</ele>
        <time>2025-11-11T23:02:48Z</time>
      </trkpt>
      <trkpt lat="2.775101" lon="102.046371">
        <ele>2598.42</ele>
        <time>2025-11-11T23:02:48Z</time>
      </trkpt>
      <trkpt lat="2.772931" lon="102.043198">
        <ele>2575.56</ele>
        <time>2025-11-11T23:02:48Z</time>
      </trkpt>
      <trkpt lat="2.771484" lon="102.041389">
        <ele>2567.94</ele>
        <time>2025-11-11T23:02:48Z</time>
      </trkpt>
      <trkpt lat="2.769424" lon="102.039108">
        <ele>2552.7000000000003</ele>
        <time>2025-11-11T23:02:48Z</time>
      </trkpt>
      <trkpt lat="2.768005" lon="102.037666">
        <ele>2545.08</ele>
        <time>2025-11-11T23:02:48Z</time>
      </trkpt>
      <trkpt lat="2.765575" lon="102.035431">
        <ele>2529.84</ele>
        <time>2025-11-11T23:02:48Z</time>
      </trkpt>
      <trkpt lat="2.763248" lon="102.033394">
        <ele>2522.2200000000003</ele>
        <time>2025-11-11T23:02:48Z</time>
      </trkpt>
      <trkpt lat="2.761292" lon="102.031731">
        <ele>2506.98</ele>
        <time>2025-11-11T23:02:48Z</time>
      </trkpt>
      <trkpt lat="2.759583" lon="102.030266">
        <ele>2499.36</ele>
        <time>2025-11-11T23:02:48Z</time>
      </trkpt>
      <trkpt lat="2.757248" lon="102.028259">
        <ele>2484.1200000000003</ele>
        <time>2025-11-11T23:02:48Z</time>
      </trkpt>
      <trkpt lat="2.755371" lon="102.026581">
        <ele>2476.5</ele>
        <time>2025-11-11T23:02:48Z</time>
      </trkpt>
      <trkpt lat="2.753705" lon="102.025055">
        <ele>2461.26</ele>
        <time>2025-11-11T23:02:48Z</time>
      </trkpt>
      <trkpt lat="2.751251" lon="102.022858">
        <ele>2453.6400000000003</ele>
        <time>2025-11-11T23:02:48Z</time>
      </trkpt>
      <trkpt lat="2.749374" lon="102.021187">
        <ele>2438.4</ele>
        <time>2025-11-11T23:02:48Z</time>
      </trkpt>
      <trkpt lat="2.747699" lon="102.019661">
        <ele>2430.78</ele>
        <time>2025-11-11T23:02:48Z</time>
      </trkpt>
      <trkpt lat="2.745667" lon="102.01783">
        <ele>2423.1600000000003</ele>
        <time>2025-11-11T23:02:48Z</time>
      </trkpt>
      <trkpt lat="2.743423" lon="102.015785">
        <ele>2407.92</ele>
        <time>2025-11-11T23:02:48Z</time>
      </trkpt>
      <trkpt lat="2.741787" lon="102.014259">
        <ele>2400.3</ele>
        <time>2025-11-11T23:02:48Z</time>
      </trkpt>
      <trkpt lat="2.728638" lon="102.001816">
        <ele>2331.7200000000003</ele>
        <time>2025-11-11T23:02:48Z</time>
      </trkpt>
      <trkpt lat="2.716742" lon="101.990349">
        <ele>2263.1400000000003</ele>
        <time>2025-11-11T23:02:48Z</time>
      </trkpt>
      <trkpt lat="2.703195" lon="101.97728">
        <ele>2194.56</ele>
        <time>2025-11-11T23:02:48Z</time>
      </trkpt>
      <trkpt lat="2.692209" lon="101.966858">
        <ele>2148.84</ele>
        <time>2025-11-11T23:02:48Z</time>
      </trkpt>
      <trkpt lat="2.68099" lon="101.956154">
        <ele>2148.84</ele>
        <time>2025-11-11T23:02:48Z</time>
      </trkpt>
      <trkpt lat="2.670456" lon="101.946098">
        <ele>2156.46</ele>
        <time>2025-11-11T23:02:48Z</time>
      </trkpt>
      <trkpt lat="2.66046" lon="101.9366">
        <ele>2156.46</ele>
        <time>2025-11-11T23:02:48Z</time>
      </trkpt>
      <trkpt lat="2.650269" lon="101.926872">
        <ele>2156.46</ele>
        <time>2025-11-11T23:02:48Z</time>
      </trkpt>
      <trkpt lat="2.6417" lon="101.919884">
        <ele>2164.08</ele>
        <time>2025-11-11T23:02:48Z</time>
      </trkpt>
      <trkpt lat="2.639465" lon="101.918556">
        <ele>2164.08</ele>
        <time>2025-11-11T23:02:48Z</time>
      </trkpt>
      <trkpt lat="2.636626" lon="101.917274">
        <ele>2164.08</ele>
        <time>2025-11-11T23:02:48Z</time>
      </trkpt>
      <trkpt lat="2.634158" lon="101.916328">
        <ele>2164.08</ele>
        <time>2025-11-11T23:02:48Z</time>
      </trkpt>
      <trkpt lat="2.631821" lon="101.915604">
        <ele>2164.08</ele>
        <time>2025-11-11T23:02:48Z</time>
      </trkpt>
      <trkpt lat="2.629876" lon="101.915146">
        <ele>2164.08</ele>
        <time>2025-11-11T23:02:48Z</time>
      </trkpt>
      <trkpt lat="2.627884" lon="101.914764">
        <ele>2164.08</ele>
        <time>2025-11-11T23:02:48Z</time>
      </trkpt>
      <trkpt lat="2.625183" lon="101.91449">
        <ele>2164.08</ele>
        <time>2025-11-11T23:02:48Z</time>
      </trkpt>
      <trkpt lat="2.622288" lon="101.914345">
        <ele>2156.46</ele>
        <time>2025-11-11T23:02:48Z</time>
      </trkpt>
      <trkpt lat="2.620007" lon="101.914391">
        <ele>2156.46</ele>
        <time>2025-11-11T23:02:48Z</time>
      </trkpt>
      <trkpt lat="2.618237" lon="101.914581">
        <ele>2156.46</ele>
        <time>2025-11-11T23:02:48Z</time>
      </trkpt>
      <trkpt lat="2.615295" lon="101.914955">
        <ele>2156.46</ele>
        <time>2025-11-11T23:02:48Z</time>
      </trkpt>
      <trkpt lat="2.613303" lon="101.915428">
        <ele>2156.46</ele>
        <time>2025-11-11T23:02:48Z</time>
      </trkpt>
      <trkpt lat="2.61065" lon="101.916138">
        <ele>2156.46</ele>
        <time>2025-11-11T23:02:48Z</time>
      </trkpt>
      <trkpt lat="2.608508" lon="101.916946">
        <ele>2156.46</ele>
        <time>2025-11-11T23:02:48Z</time>
      </trkpt>
      <trkpt lat="2.605994" lon="101.917984">
        <ele>2156.46</ele>
        <time>2025-11-11T23:02:48Z</time>
      </trkpt>
      <trkpt lat="2.603946" lon="101.919029">
        <ele>2156.46</ele>
        <time>2025-11-11T23:02:48Z</time>
      </trkpt>
      <trkpt lat="2.601525" lon="101.920403">
        <ele>2164.08</ele>
        <time>2025-11-11T23:02:48Z</time>
      </trkpt>
      <trkpt lat="2.599617" lon="101.921684">
        <ele>2156.46</ele>
        <time>2025-11-11T23:02:48Z</time>
      </trkpt>
      <trkpt lat="2.597708" lon="101.923004">
        <ele>2156.46</ele>
        <time>2025-11-11T23:02:48Z</time>
      </trkpt>
      <trkpt lat="2.595657" lon="101.924492">
        <ele>2156.46</ele>
        <time>2025-11-11T23:02:48Z</time>
      </trkpt>
      <trkpt lat="2.59431" lon="101.925423">
        <ele>2156.46</ele>
        <time>2025-11-11T23:02:48Z</time>
      </trkpt>
      <trkpt lat="2.591858" lon="101.927193">
        <ele>2156.46</ele>
        <time>2025-11-11T23:02:48Z</time>
      </trkpt>
      <trkpt lat="2.589375" lon="101.928925">
        <ele>2156.46</ele>
        <time>2025-11-11T23:02:48Z</time>
      </trkpt>
      <trkpt lat="2.587885" lon="101.92997">
        <ele>2156.46</ele>
        <time>2025-11-11T23:02:48Z</time>
      </trkpt>
      <trkpt lat="2.585558" lon="101.931534">
        <ele>2156.46</ele>
        <time>2025-11-11T23:02:48Z</time>
      </trkpt>
      <trkpt lat="2.583481" lon="101.932968">
        <ele>2156.46</ele>
        <time>2025-11-11T23:02:48Z</time>
      </trkpt>
      <trkpt lat="2.581558" lon="101.934273">
        <ele>2156.46</ele>
        <time>2025-11-11T23:02:48Z</time>
      </trkpt>
      <trkpt lat="2.579413" lon="101.935699">
        <ele>2156.46</ele>
        <time>2025-11-11T23:02:48Z</time>
      </trkpt>
      <trkpt lat="2.577504" lon="101.937027">
        <ele>2156.46</ele>
        <time>2025-11-11T23:02:48Z</time>
      </trkpt>
      <trkpt lat="2.564703" lon="101.945595">
        <ele>2164.08</ele>
        <time>2025-11-11T23:02:48Z</time>
      </trkpt>
      <trkpt lat="2.552925" lon="101.952606">
        <ele>2179.32</ele>
        <time>2025-11-11T23:02:48Z</time>
      </trkpt>
      <trkpt lat="2.550457" lon="101.953598">
        <ele>2179.32</ele>
        <time>2025-11-11T23:02:48Z</time>
      </trkpt>
      <trkpt lat="2.547684" lon="101.95443">
        <ele>2179.32</ele>
        <time>2025-11-11T23:02:48Z</time>
      </trkpt>
      <trkpt lat="2.545578" lon="101.954941">
        <ele>2179.32</ele>
        <time>2025-11-11T23:02:48Z</time>
      </trkpt>
      <trkpt lat="2.542823" lon="101.955353">
        <ele>2179.32</ele>
        <time>2025-11-11T23:02:48Z</time>
      </trkpt>
      <trkpt lat="2.540682" lon="101.955544">
        <ele>2179.32</ele>
        <time>2025-11-11T23:02:48Z</time>
      </trkpt>
      <trkpt lat="2.538345" lon="101.955589">
        <ele>2171.7000000000003</ele>
        <time>2025-11-11T23:02:48Z</time>
      </trkpt>
      <trkpt lat="2.536652" lon="101.955544">
        <ele>2171.7000000000003</ele>
        <time>2025-11-11T23:02:48Z</time>
      </trkpt>
      <trkpt lat="2.533978" lon="101.955254">
        <ele>2171.7000000000003</ele>
        <time>2025-11-11T23:02:48Z</time>
      </trkpt>
      <trkpt lat="2.53193" lon="101.954926">
        <ele>2171.7000000000003</ele>
        <time>2025-11-11T23:02:48Z</time>
      </trkpt>
      <trkpt lat="2.529694" lon="101.95443">
        <ele>2171.7000000000003</ele>
        <time>2025-11-11T23:02:48Z</time>
      </trkpt>
      <trkpt lat="2.528137" lon="101.95401">
        <ele>2171.7000000000003</ele>
        <time>2025-11-11T23:02:48Z</time>
      </trkpt>
      <trkpt lat="2.525848" lon="101.953217">
        <ele>2171.7000000000003</ele>
        <time>2025-11-11T23:02:48Z</time>
      </trkpt>
      <trkpt lat="2.523972" lon="101.952423">
        <ele>2164.08</ele>
        <time>2025-11-11T23:02:48Z</time>
      </trkpt>
      <trkpt lat="2.522186" lon="101.951591">
        <ele>2164.08</ele>
        <time>2025-11-11T23:02:48Z</time>
      </trkpt>
      <trkpt lat="2.520081" lon="101.95047">
        <ele>2164.08</ele>
        <time>2025-11-11T23:02:48Z</time>
      </trkpt>
      <trkpt lat="2.518569" lon="101.949524">
        <ele>2156.46</ele>
        <time>2025-11-11T23:02:48Z</time>
      </trkpt>
      <trkpt lat="2.51651" lon="101.948051">
        <ele>2148.84</ele>
        <time>2025-11-11T23:02:48Z</time>
      </trkpt>
      <trkpt lat="2.515171" lon="101.946968">
        <ele>2141.2200000000003</ele>
        <time>2025-11-11T23:02:48Z</time>
      </trkpt>
      <trkpt lat="2.513306" lon="101.945259">
        <ele>2133.6</ele>
        <time>2025-11-11T23:02:48Z</time>
      </trkpt>
      <trkpt lat="2.512098" lon="101.944031">
        <ele>2125.98</ele>
        <time>2025-11-11T23:02:48Z</time>
      </trkpt>
      <trkpt lat="2.510609" lon="101.942329">
        <ele>2125.98</ele>
        <time>2025-11-11T23:02:48Z</time>
      </trkpt>
      <trkpt lat="2.509445" lon="101.940811">
        <ele>2118.36</ele>
        <time>2025-11-11T23:02:48Z</time>
      </trkpt>
      <trkpt lat="2.508374" lon="101.939301">
        <ele>2110.7400000000002</ele>
        <time>2025-11-11T23:02:48Z</time>
      </trkpt>
      <trkpt lat="2.507217" lon="101.937576">
        <ele>2103.12</ele>
        <time>2025-11-11T23:02:48Z</time>
      </trkpt>
      <trkpt lat="2.50621" lon="101.935997">
        <ele>2095.5</ele>
        <time>2025-11-11T23:02:48Z</time>
      </trkpt>
      <trkpt lat="2.505069" lon="101.934227">
        <ele>2087.88</ele>
        <time>2025-11-11T23:02:48Z</time>
      </trkpt>
      <trkpt lat="2.504045" lon="101.932671">
        <ele>2080.26</ele>
        <time>2025-11-11T23:02:48Z</time>
      </trkpt>
      <trkpt lat="2.503021" lon="101.931107">
        <ele>2072.6400000000003</ele>
        <time>2025-11-11T23:02:48Z</time>
      </trkpt>
      <trkpt lat="2.501764" lon="101.92926">
        <ele>2065.02</ele>
        <time>2025-11-11T23:02:48Z</time>
      </trkpt>
      <trkpt lat="2.500443" lon="101.927238">
        <ele>2049.78</ele>
        <time>2025-11-11T23:02:48Z</time>
      </trkpt>
      <trkpt lat="2.499207" lon="101.925377">
        <ele>2042.16</ele>
        <time>2025-11-11T23:02:48Z</time>
      </trkpt>
      <trkpt lat="2.498272" lon="101.923958">
        <ele>2034.5400000000002</ele>
        <time>2025-11-11T23:02:48Z</time>
      </trkpt>
      <trkpt lat="2.496918" lon="101.921936">
        <ele>2019.3000000000002</ele>
        <time>2025-11-11T23:02:48Z</time>
      </trkpt>
      <trkpt lat="2.494858" lon="101.918816">
        <ele>1996.44</ele>
        <time>2025-11-11T23:02:48Z</time>
      </trkpt>
      <trkpt lat="2.493896" lon="101.917236">
        <ele>1988.8200000000002</ele>
        <time>2025-11-11T23:02:48Z</time>
      </trkpt>
      <trkpt lat="2.493012" lon="101.915428">
        <ele>1973.5800000000002</ele>
        <time>2025-11-11T23:02:48Z</time>
      </trkpt>
      <trkpt lat="2.492314" lon="101.913727">
        <ele>1965.96</ele>
        <time>2025-11-11T23:02:48Z</time>
      </trkpt>
      <trkpt lat="2.491699" lon="101.911789">
        <ele>1958.3400000000001</ele>
        <time>2025-11-11T23:02:48Z</time>
      </trkpt>
      <trkpt lat="2.491336" lon="101.910225">
        <ele>1943.1000000000001</ele>
        <time>2025-11-11T23:02:48Z</time>
      </trkpt>
      <trkpt lat="2.491058" lon="101.907875">
        <ele>1927.8600000000001</ele>
        <time>2025-11-11T23:02:48Z</time>
      </trkpt>
      <trkpt lat="2.491013" lon="101.906059">
        <ele>1920.24</ele>
        <time>2025-11-11T23:02:48Z</time>
      </trkpt>
      <trkpt lat="2.491196" lon="101.903923">
        <ele>1905.0</ele>
        <time>2025-11-11T23:02:48Z</time>
      </trkpt>
      <trkpt lat="2.49147" lon="101.902153">
        <ele>1897.38</ele>
        <time>2025-11-11T23:02:48Z</time>
      </trkpt>
      <trkpt lat="2.491988" lon="101.899895">
        <ele>1882.14</ele>
        <time>2025-11-11T23:02:48Z</time>
      </trkpt>
      <trkpt lat="2.492706" lon="101.89801">
        <ele>1874.52</ele>
        <time>2025-11-11T23:02:48Z</time>
      </trkpt>
      <trkpt lat="2.493058" lon="101.897202">
        <ele>1866.9</ele>
        <time>2025-11-11T23:02:48Z</time>
      </trkpt>
      <trkpt lat="2.494125" lon="101.895119">
        <ele>1851.66</ele>
        <time>2025-11-11T23:02:48Z</time>
      </trkpt>
      <trkpt lat="2.495479" lon="101.893219">
        <ele>1836.42</ele>
        <time>2025-11-11T23:02:48Z</time>
      </trkpt>
      <trkpt lat="2.496277" lon="101.892281">
        <ele>1828.8000000000002</ele>
        <time>2025-11-11T23:02:48Z</time>
      </trkpt>
      <trkpt lat="2.498505" lon="101.890144">
        <ele>1805.94</ele>
        <time>2025-11-11T23:02:48Z</time>
      </trkpt>
      <trkpt lat="2.499902" lon="101.889008">
        <ele>1790.7</ele>
        <time>2025-11-11T23:02:48Z</time>
      </trkpt>
      <trkpt lat="2.501221" lon="101.888">
        <ele>1775.46</ele>
        <time>2025-11-11T23:02:48Z</time>
      </trkpt>
      <trkpt lat="2.502686" lon="101.886879">
        <ele>1760.22</ele>
        <time>2025-11-11T23:02:48Z</time>
      </trkpt>
      <trkpt lat="2.504371" lon="101.885689">
        <ele>1737.3600000000001</ele>
        <time>2025-11-11T23:02:48Z</time>
      </trkpt>
      <trkpt lat="2.505707" lon="101.884743">
        <ele>1722.1200000000001</ele>
        <time>2025-11-11T23:02:48Z</time>
      </trkpt>
      <trkpt lat="2.507723" lon="101.883369">
        <ele>1691.64</ele>
        <time>2025-11-11T23:02:48Z</time>
      </trkpt>
      <trkpt lat="2.509305" lon="101.882278">
        <ele>1676.4</ele>
        <time>2025-11-11T23:02:48Z</time>
      </trkpt>
      <trkpt lat="2.510888" lon="101.881241">
        <ele>1653.5400000000002</ele>
        <time>2025-11-11T23:02:48Z</time>
      </trkpt>
      <trkpt lat="2.512424" lon="101.88015">
        <ele>1630.68</ele>
        <time>2025-11-11T23:02:48Z</time>
      </trkpt>
      <trkpt lat="2.514175" lon="101.878967">
        <ele>1615.44</ele>
        <time>2025-11-11T23:02:48Z</time>
      </trkpt>
      <trkpt lat="2.515778" lon="101.877853">
        <ele>1592.5800000000002</ele>
        <time>2025-11-11T23:02:48Z</time>
      </trkpt>
      <trkpt lat="2.5177" lon="101.876549">
        <ele>1577.3400000000001</ele>
        <time>2025-11-11T23:02:48Z</time>
      </trkpt>
      <trkpt lat="2.519302" lon="101.875473">
        <ele>1562.1000000000001</ele>
        <time>2025-11-11T23:02:48Z</time>
      </trkpt>
      <trkpt lat="2.52095" lon="101.874405">
        <ele>1546.8600000000001</ele>
        <time>2025-11-11T23:02:48Z</time>
      </trkpt>
      <trkpt lat="2.524155" lon="101.872307">
        <ele>1524.0</ele>
        <time>2025-11-11T23:02:48Z</time>
      </trkpt>
      <trkpt lat="2.534546" lon="101.865417">
        <ele>1478.28</ele>
        <time>2025-11-11T23:02:48Z</time>
      </trkpt>
      <trkpt lat="2.539471" lon="101.862106">
        <ele>1463.04</ele>
        <time>2025-11-11T23:02:48Z</time>
      </trkpt>
      <trkpt lat="2.54512" lon="101.858345">
        <ele>1440.18</ele>
        <time>2025-11-11T23:02:48Z</time>
      </trkpt>
      <trkpt lat="2.551202" lon="101.854294">
        <ele>1394.46</ele>
        <time>2025-11-11T23:02:48Z</time>
      </trkpt>
      <trkpt lat="2.555557" lon="101.851364">
        <ele>1356.3600000000001</ele>
        <time>2025-11-11T23:02:48Z</time>
      </trkpt>
      <trkpt lat="2.561211" lon="101.847527">
        <ele>1303.02</ele>
        <time>2025-11-11T23:02:48Z</time>
      </trkpt>
      <trkpt lat="2.566937" lon="101.843689">
        <ele>1249.68</ele>
        <time>2025-11-11T23:02:48Z</time>
      </trkpt>
      <trkpt lat="2.572357" lon="101.84005">
        <ele>1219.2</ele>
        <time>2025-11-11T23:02:48Z</time>
      </trkpt>
      <trkpt lat="2.57811" lon="101.836205">
        <ele>1188.72</ele>
        <time>2025-11-11T23:02:48Z</time>
      </trkpt>
      <trkpt lat="2.582153" lon="101.833534">
        <ele>1165.8600000000001</ele>
        <time>2025-11-11T23:02:48Z</time>
      </trkpt>
      <trkpt lat="2.587001" lon="101.830284">
        <ele>1135.38</ele>
        <time>2025-11-11T23:02:48Z</time>
      </trkpt>
      <trkpt lat="2.591796" lon="101.827019">
        <ele>1097.28</ele>
        <time>2025-11-11T23:02:48Z</time>
      </trkpt>
      <trkpt lat="2.595337" lon="101.824638">
        <ele>1074.42</ele>
        <time>2025-11-11T23:02:48Z</time>
      </trkpt>
      <trkpt lat="2.600408" lon="101.821243">
        <ele>1036.3200000000002</ele>
        <time>2025-11-11T23:02:48Z</time>
      </trkpt>
      <trkpt lat="2.603946" lon="101.818871">
        <ele>1013.46</ele>
        <time>2025-11-11T23:02:48Z</time>
      </trkpt>
      <trkpt lat="2.608555" lon="101.815796">
        <ele>982.98</ele>
        <time>2025-11-11T23:02:48Z</time>
      </trkpt>
      <trkpt lat="2.613117" lon="101.812721">
        <ele>952.5</ele>
        <time>2025-11-11T23:02:48Z</time>
      </trkpt>
      <trkpt lat="2.617912" lon="101.809494">
        <ele>922.0200000000001</ele>
        <time>2025-11-11T23:02:48Z</time>
      </trkpt>
      <trkpt lat="2.622288" lon="101.806564">
        <ele>891.5400000000001</ele>
        <time>2025-11-11T23:02:48Z</time>
      </trkpt>
      <trkpt lat="2.626785" lon="101.803551">
        <ele>861.0600000000001</ele>
        <time>2025-11-11T23:02:48Z</time>
      </trkpt>
      <trkpt lat="2.631505" lon="101.800407">
        <ele>830.58</ele>
        <time>2025-11-11T23:02:48Z</time>
      </trkpt>
      <trkpt lat="2.635117" lon="101.797966">
        <ele>807.72</ele>
        <time>2025-11-11T23:02:48Z</time>
      </trkpt>
      <trkpt lat="2.639559" lon="101.795006">
        <ele>777.24</ele>
        <time>2025-11-11T23:02:48Z</time>
      </trkpt>
      <trkpt lat="2.643997" lon="101.792053">
        <ele>746.76</ele>
        <time>2025-11-11T23:02:48Z</time>
      </trkpt>
      <trkpt lat="2.648895" lon="101.78875">
        <ele>708.6600000000001</ele>
        <time>2025-11-11T23:02:48Z</time>
      </trkpt>
      <trkpt lat="2.651988" lon="101.78672">
        <ele>693.4200000000001</ele>
        <time>2025-11-11T23:02:48Z</time>
      </trkpt>
      <trkpt lat="2.656597" lon="101.783592">
        <ele>655.32</ele>
        <time>2025-11-11T23:02:48Z</time>
      </trkpt>
      <trkpt lat="2.660181" lon="101.781227">
        <ele>632.46</ele>
        <time>2025-11-11T23:02:48Z</time>
      </trkpt>
      <trkpt lat="2.664459" lon="101.77832">
        <ele>601.98</ele>
        <time>2025-11-11T23:02:48Z</time>
      </trkpt>
      <trkpt lat="2.667755" lon="101.776085">
        <ele>579.12</ele>
        <time>2025-11-11T23:02:48Z</time>
      </trkpt>
      <trkpt lat="2.672333" lon="101.773064">
        <ele>548.64</ele>
        <time>2025-11-11T23:02:48Z</time>
      </trkpt>
      <trkpt lat="2.676986" lon="101.769913">
        <ele>525.78</ele>
        <time>2025-11-11T23:02:48Z</time>
      </trkpt>
      <trkpt lat="2.680245" lon="101.767731">
        <ele>502.92</ele>
        <time>2025-11-11T23:02:48Z</time>
      </trkpt>
      <trkpt lat="2.684647" lon="101.764778">
        <ele>472.44</ele>
        <time>2025-11-11T23:02:48Z</time>
      </trkpt>
      <trkpt lat="2.68923" lon="101.761719">
        <ele>441.96000000000004</ele>
        <time>2025-11-11T23:02:48Z</time>
      </trkpt>
      <trkpt lat="2.693326" lon="101.758972">
        <ele>419.1</ele>
        <time>2025-11-11T23:02:48Z</time>
      </trkpt>
      <trkpt lat="2.697693" lon="101.75602">
        <ele>381.0</ele>
        <time>2025-11-11T23:02:48Z</time>
      </trkpt>
      <trkpt lat="2.701054" lon="101.753807">
        <ele>365.76</ele>
        <time>2025-11-11T23:02:48Z</time>
      </trkpt>
      <trkpt lat="2.70529" lon="101.750923">
        <ele>335.28000000000003</ele>
        <time>2025-11-11T23:02:48Z</time>
      </trkpt>
      <trkpt lat="2.708679" lon="101.748619">
        <ele>312.42</ele>
        <time>2025-11-11T23:02:48Z</time>
      </trkpt>
      <trkpt lat="2.712739" lon="101.745903">
        <ele>281.94</ele>
        <time>2025-11-11T23:02:48Z</time>
      </trkpt>
      <trkpt lat="2.717514" lon="101.742706">
        <ele>251.46</ele>
        <time>2025-11-11T23:02:48Z</time>
      </trkpt>
      <trkpt lat="2.721909" lon="101.739792">
        <ele>220.98000000000002</ele>
        <time>2025-11-11T23:02:48Z</time>
      </trkpt>
      <trkpt lat="2.726425" lon="101.73671">
        <ele>190.5</ele>
        <time>2025-11-11T23:02:48Z</time>
      </trkpt>
      <trkpt lat="2.731034" lon="101.733681">
        <ele>160.02</ele>
        <time>2025-11-11T23:02:48Z</time>
      </trkpt>
      <trkpt lat="2.734406" lon="101.7314">
        <ele>137.16</ele>
        <time>2025-11-11T23:02:48Z</time>
      </trkpt>
      <trkpt lat="2.73918" lon="101.728233">
        <ele>106.68</ele>
        <time>2025-11-11T23:02:48Z</time>
      </trkpt>
      <trkpt lat="2.743696" lon="101.725204">
        <ele>76.2</ele>
        <time>2025-11-11T23:02:48Z</time>
      </trkpt>
      <trkpt lat="2.748211" lon="101.722176">
        <ele>45.72</ele>
        <time>2025-11-11T23:02:48Z</time>
      </trkpt>
      <trkpt lat="2.752308" lon="101.719383">
        <ele>22.86</ele>
        <time>2025-11-11T23:02:48Z</time>
      </trkpt>
      <trkpt lat="2.755657" lon="101.717125">
        <ele>0.0</ele>
        <time>2025-11-11T23:02:48Z</time>
      </trkpt>
      <trkpt lat="2.759198" lon="101.71479">
        <ele>0.0</ele>
        <time>2025-11-11T23:02:48Z</time>
      </trkpt>
      <trkpt lat="2.76149" lon="101.713249">
        <ele>0.0</ele>
        <time>2025-11-11T23:02:48Z</time>
      </trkpt>
      <trkpt lat="2.762753" lon="101.712379">
        <ele>0.0</ele>
        <time>2025-11-11T23:02:48Z</time>
      </trkpt>
      <trkpt lat="2.763085" lon="101.712135">
        <ele>0.0</ele>
        <time>2025-11-11T23:02:48Z</time>
      </trkpt>
      <trkpt lat="2.763405" lon="101.711929">
        <ele>0.0</ele>
        <time>2025-11-11T23:02:48Z</time>
      </trkpt>
      <trkpt lat="2.763691" lon="101.711739">
        <ele>0.0</ele>
        <time>2025-11-11T23:02:48Z</time>
      </trkpt>
      <trkpt lat="2.763908" lon="101.711578">
        <ele>0.0</ele>
        <time>2025-11-11T23:02:48Z</time>
      </trkpt>
      <trkpt lat="2.764206" lon="101.711342">
        <ele>0.0</ele>
        <time>2025-11-11T23:02:48Z</time>
      </trkpt>
      <trkpt lat="2.764505" lon="101.711082">
        <ele>0.0</ele>
        <time>2025-11-11T23:02:48Z</time>
      </trkpt>
      <trkpt lat="2.764819" lon="101.710754">
        <ele>0.0</ele>
        <time>2025-11-11T23:02:48Z</time>
      </trkpt>
      <trkpt lat="2.765144" lon="101.710342">
        <ele>0.0</ele>
        <time>2025-11-11T23:02:48Z</time>
      </trkpt>
      <trkpt lat="2.765305" lon="101.710098">
        <ele>0.0</ele>
        <time>2025-11-11T23:02:48Z</time>
      </trkpt>
      <trkpt lat="2.765476" lon="101.709831">
        <ele>0.0</ele>
        <time>2025-11-11T23:02:48Z</time>
      </trkpt>
      <trkpt lat="2.765622" lon="101.709541">
        <ele>0.0</ele>
        <time>2025-11-11T23:02:48Z</time>
      </trkpt>
      <trkpt lat="2.76575" lon="101.709274">
        <ele>0.0</ele>
        <time>2025-11-11T23:02:48Z</time>
      </trkpt>
      <trkpt lat="2.765866" lon="101.709007">
        <ele>0.0</ele>
        <time>2025-11-11T23:02:48Z</time>
      </trkpt>
      <trkpt lat="2.765855" lon="101.708771">
        <ele>0.0</ele>
        <time>2025-11-11T23:02:48Z</time>
      </trkpt>
      <trkpt lat="2.765738" lon="101.708557">
        <ele>0.0</ele>
        <time>2025-11-11T23:02:48Z</time>
      </trkpt>
      <trkpt lat="2.765517" lon="101.708443">
        <ele>0.0</ele>
        <time>2025-11-11T23:02:48Z</time>
      </trkpt>
      <trkpt lat="2.765316" lon="101.708443">
        <ele>0.0</ele>
        <time>2025-11-11T23:02:48Z</time>
      </trkpt>
      <trkpt lat="2.765099" lon="101.708549">
        <ele>0.0</ele>
        <time>2025-11-11T23:02:48Z</time>
      </trkpt>
      <trkpt lat="2.764854" lon="101.708717">
        <ele>0.0</ele>
        <time>2025-11-11T23:02:48Z</time>
      </trkpt>
      <trkpt lat="2.764618" lon="101.708862">
        <ele>0.0</ele>
        <time>2025-11-11T23:02:48Z</time>
      </trkpt>
      <trkpt lat="2.764388" lon="101.709023">
        <ele>0.0</ele>
        <time>2025-11-11T23:02:48Z</time>
      </trkpt>
      <trkpt lat="2.764034" lon="101.709251">
        <ele>0.0</ele>
        <time>2025-11-11T23:02:48Z</time>
      </trkpt>
      <trkpt lat="2.763542" lon="101.709572">
        <ele>0.0</ele>
        <time>2025-11-11T23:02:48Z</time>
      </trkpt>
      <trkpt lat="2.763073" lon="101.7099">
        <ele>0.0</ele>
        <time>2025-11-11T23:02:48Z</time>
      </trkpt>
      <trkpt lat="2.762491" lon="101.710289">
        <ele>0.0</ele>
        <time>2025-11-11T23:02:48Z</time>
      </trkpt>
      <trkpt lat="2.761906" lon="101.710678">
        <ele>0.0</ele>
        <time>2025-11-11T23:02:48Z</time>
      </trkpt>
      <trkpt lat="2.761281" lon="101.711105">
        <ele>0.0</ele>
        <time>2025-11-11T23:02:48Z</time>
      </trkpt>
      <trkpt lat="2.760693" lon="101.711494">
        <ele>0.0</ele>
        <time>2025-11-11T23:02:48Z</time>
      </trkpt>
      <trkpt lat="2.759977" lon="101.711967">
        <ele>0.0</ele>
        <time>2025-11-11T23:02:48Z</time>
      </trkpt>
      <trkpt lat="2.759308" lon="101.712425">
        <ele>0.0</ele>
        <time>2025-11-11T23:02:48Z</time>
      </trkpt>
      <trkpt lat="2.75861" lon="101.712891">
        <ele>0.0</ele>
        <time>2025-11-11T23:02:48Z</time>
      </trkpt>
      <trkpt lat="2.758011" lon="101.713295">
        <ele>0.0</ele>
        <time>2025-11-11T23:02:48Z</time>
      </trkpt>
      <trkpt lat="2.757242" lon="101.713806">
        <ele>0.0</ele>
        <time>2025-11-11T23:02:48Z</time>
      </trkpt>
      <trkpt lat="2.756579" lon="101.714256">
        <ele>0.0</ele>
        <time>2025-11-11T23:02:48Z</time>
      </trkpt>
      <trkpt lat="2.755962" lon="101.714661">
        <ele>0.0</ele>
        <time>2025-11-11T23:02:48Z</time>
      </trkpt>
      <trkpt lat="2.755394" lon="101.715042">
        <ele>0.0</ele>
        <time>2025-11-11T23:02:48Z</time>
      </trkpt>
      <trkpt lat="2.754985" lon="101.715309">
        <ele>0.0</ele>
        <time>2025-11-11T23:02:48Z</time>
      </trkpt>
      <trkpt lat="2.754776" lon="101.715431">
        <ele>0.0</ele>
        <time>2025-11-11T23:02:48Z</time>
      </trkpt>
      <trkpt lat="2.754531" lon="101.715401">
        <ele>0.0</ele>
        <time>2025-11-11T23:02:48Z</time>
      </trkpt>
      <trkpt lat="2.754321" lon="101.715187">
        <ele>0.0</ele>
        <time>2025-11-11T23:02:48Z</time>
      </trkpt>
      <trkpt lat="2.754135" lon="101.71492">
        <ele>0.0</ele>
        <time>2025-11-11T23:02:48Z</time>
      </trkpt>
      <trkpt lat="2.753998" lon="101.714706">
        <ele>0.0</ele>
        <time>2025-11-11T23:02:48Z</time>
      </trkpt>
      <trkpt lat="2.753821" lon="101.714455">
        <ele>0.0</ele>
        <time>2025-11-11T23:02:48Z</time>
      </trkpt>
      <trkpt lat="2.753563" lon="101.714066">
        <ele>0.0</ele>
        <time>2025-11-11T23:02:48Z</time>
      </trkpt>
      <trkpt lat="2.753174" lon="101.713486">
        <ele>0.0</ele>
        <time>2025-11-11T23:02:48Z</time>
      </trkpt>
      <trkpt lat="2.752808" lon="101.712952">
        <ele>0.0</ele>
        <time>2025-11-11T23:02:48Z</time>
      </trkpt>
      <trkpt lat="2.752401" lon="101.712349">
        <ele>0.0</ele>
        <time>2025-11-11T23:02:48Z</time>
      </trkpt>
      <trkpt lat="2.75204" lon="101.711815">
        <ele>0.0</ele>
        <time>2025-11-11T23:02:48Z</time>
      </trkpt>
      <trkpt lat="2.75133" lon="101.710785">
        <ele>0.0</ele>
        <time>2025-11-11T23:02:48Z</time>
      </trkpt>
      <trkpt lat="2.749191" lon="101.707611">
        <ele>0.0</ele>
        <time>2025-11-11T23:02:48Z</time>
      </trkpt>
      <trkpt lat="2.748945" lon="101.707237">
        <ele>0.0</ele>
        <time>2025-11-11T23:02:48Z</time>
      </trkpt>
      <trkpt lat="2.748886" lon="101.707008">
        <ele>0.0</ele>
        <time>2025-11-11T23:02:48Z</time>
      </trkpt>
      <trkpt lat="2.7491" lon="101.706703">
        <ele>0.0</ele>
        <time>2025-11-11T23:02:48Z</time>
      </trkpt>
      <trkpt lat="2.749317" lon="101.706551">
        <ele>0.0</ele>
        <time>2025-11-11T23:02:48Z</time>
      </trkpt>
      <trkpt lat="2.749546" lon="101.706383">
        <ele>0.0</ele>
        <time>2025-11-11T23:02:48Z</time>
      </trkpt>
      <trkpt lat="2.749809" lon="101.706215">
        <ele>0.0</ele>
        <time>2025-11-11T23:02:48Z</time>
      </trkpt>
      <trkpt lat="2.750164" lon="101.705978">
        <ele>0.0</ele>
        <time>2025-11-11T23:02:48Z</time>
      </trkpt>
      <trkpt lat="2.750271" lon="101.704437">
        <ele>0.0</ele>
        <time>2025-11-11T23:02:48Z</time>
      </trkpt>
      <trkpt lat="2.749775" lon="101.703712">
        <ele>0.0</ele>
        <time>2025-11-11T23:02:48Z</time>
      </trkpt>
      <trkpt lat="2.749527" lon="101.703339">
        <ele>0.0</ele>
        <time>2025-11-11T23:02:48Z</time>
      </trkpt>
      <trkpt lat="2.749317" lon="101.703018">
        <ele>0.0</ele>
        <time>2025-11-11T23:02:48Z</time>
      </trkpt>
      <trkpt lat="2.749201" lon="101.702797">
        <ele>0.0</ele>
        <time>2025-11-11T23:02:48Z</time>
      </trkpt>
      <trkpt lat="2.749409" lon="101.702583">
        <ele>0.0</ele>
        <time>2025-11-11T23:02:48Z</time>
      </trkpt>
      <trkpt lat="2.749643" lon="101.702515">
        <ele>0.0</ele>
        <time>2025-11-11T23:02:48Z</time>
      </trkpt>
      <trkpt lat="2.749844" lon="101.702438">
        <ele>0.0</ele>
        <time>2025-11-11T23:02:48Z</time>
      </trkpt>
    </trkseg>
  </trk>
</gpx>