<?xml version="1.0" encoding="UTF-8"?>
<gpx xmlns="http://www.topografix.com/GPX/1/1" xmlns:xsi="http://www.w3.org/2001/XMLSchema-instance" xsi:schemaLocation="http://www.topografix.com/GPX/1/1 http://www.topografix.com/GPX/1/1/gpx.xsd" version="1.1" creator="gpx.py -- https://github.com/tkrajina/gpxpy">
  <metadata>
    <name>7_csv/Vietnam July 2026/VN7394_40db1f32.csv</name>
    <time>2026-07-26T05:52:04Z</time>
  </metadata>
  <trk>
    <name>7_csv/Vietnam July 2026/VN7394_40db1f32.csv</name>
    <cmt>2026-07-26</cmt>
    <type>Plane</type>
    <trkseg>
      <trkpt lat="10.812688" lon="106.654236">
        <ele>0.0</ele>
        <time>2026-07-26T05:52:04Z</time>
      </trkpt>
      <trkpt lat="10.81279" lon="106.654152">
        <ele>0.0</ele>
        <time>2026-07-26T05:52:04Z</time>
      </trkpt>
      <trkpt lat="10.813007" lon="106.654076">
        <ele>0.0</ele>
        <time>2026-07-26T05:52:04Z</time>
      </trkpt>
      <trkpt lat="10.813248" lon="106.654007">
        <ele>0.0</ele>
        <time>2026-07-26T05:52:04Z</time>
      </trkpt>
      <trkpt lat="10.813515" lon="106.653801">
        <ele>0.0</ele>
        <time>2026-07-26T05:52:04Z</time>
      </trkpt>
      <trkpt lat="10.813683" lon="106.654175">
        <ele>0.0</ele>
        <time>2026-07-26T05:52:04Z</time>
      </trkpt>
      <trkpt lat="10.813783" lon="106.654442">
        <ele>0.0</ele>
        <time>2026-07-26T05:52:04Z</time>
      </trkpt>
      <trkpt lat="10.814232" lon="106.655663">
        <ele>0.0</ele>
        <time>2026-07-26T05:52:04Z</time>
      </trkpt>
      <trkpt lat="10.814783" lon="106.657089">
        <ele>0.0</ele>
        <time>2026-07-26T05:52:04Z</time>
      </trkpt>
      <trkpt lat="10.815376" lon="106.657951">
        <ele>0.0</ele>
        <time>2026-07-26T05:52:04Z</time>
      </trkpt>
      <trkpt lat="10.814655" lon="106.656754">
        <ele>0.0</ele>
        <time>2026-07-26T05:52:04Z</time>
      </trkpt>
      <trkpt lat="10.815609" lon="106.657951">
        <ele>0.0</ele>
        <time>2026-07-26T05:52:04Z</time>
      </trkpt>
      <trkpt lat="10.816578" lon="106.65802">
        <ele>0.0</ele>
        <time>2026-07-26T05:52:04Z</time>
      </trkpt>
      <trkpt lat="10.817219" lon="106.657913">
        <ele>0.0</ele>
        <time>2026-07-26T05:52:04Z</time>
      </trkpt>
      <trkpt lat="10.817688" lon="106.658241">
        <ele>0.0</ele>
        <time>2026-07-26T05:52:04Z</time>
      </trkpt>
      <trkpt lat="10.817844" lon="106.658669">
        <ele>0.0</ele>
        <time>2026-07-26T05:52:04Z</time>
      </trkpt>
      <trkpt lat="10.81803" lon="106.65918">
        <ele>0.0</ele>
        <time>2026-07-26T05:52:04Z</time>
      </trkpt>
      <trkpt lat="10.818352" lon="106.660034">
        <ele>0.0</ele>
        <time>2026-07-26T05:52:04Z</time>
      </trkpt>
      <trkpt lat="10.818728" lon="106.661011">
        <ele>0.0</ele>
        <time>2026-07-26T05:52:04Z</time>
      </trkpt>
      <trkpt lat="10.818961" lon="106.661644">
        <ele>0.0</ele>
        <time>2026-07-26T05:52:04Z</time>
      </trkpt>
      <trkpt lat="10.819164" lon="106.662178">
        <ele>0.0</ele>
        <time>2026-07-26T05:52:04Z</time>
      </trkpt>
      <trkpt lat="10.819267" lon="106.662422">
        <ele>0.0</ele>
        <time>2026-07-26T05:52:04Z</time>
      </trkpt>
      <trkpt lat="10.81953" lon="106.663132">
        <ele>0.0</ele>
        <time>2026-07-26T05:52:04Z</time>
      </trkpt>
      <trkpt lat="10.819622" lon="106.663361">
        <ele>0.0</ele>
        <time>2026-07-26T05:52:04Z</time>
      </trkpt>
      <trkpt lat="10.819741" lon="106.663704">
        <ele>0.0</ele>
        <time>2026-07-26T05:52:04Z</time>
      </trkpt>
      <trkpt lat="10.819851" lon="106.663979">
        <ele>0.0</ele>
        <time>2026-07-26T05:52:04Z</time>
      </trkpt>
      <trkpt lat="10.819942" lon="106.664215">
        <ele>0.0</ele>
        <time>2026-07-26T05:52:04Z</time>
      </trkpt>
      <trkpt lat="10.820021" lon="106.664444">
        <ele>0.0</ele>
        <time>2026-07-26T05:52:04Z</time>
      </trkpt>
      <trkpt lat="10.820103" lon="106.66465">
        <ele>0.0</ele>
        <time>2026-07-26T05:52:04Z</time>
      </trkpt>
      <trkpt lat="10.820229" lon="106.664993">
        <ele>0.0</ele>
        <time>2026-07-26T05:52:04Z</time>
      </trkpt>
      <trkpt lat="10.82032" lon="106.665245">
        <ele>0.0</ele>
        <time>2026-07-26T05:52:04Z</time>
      </trkpt>
      <trkpt lat="10.820486" lon="106.665672">
        <ele>0.0</ele>
        <time>2026-07-26T05:52:04Z</time>
      </trkpt>
      <trkpt lat="10.820606" lon="106.665977">
        <ele>0.0</ele>
        <time>2026-07-26T05:52:04Z</time>
      </trkpt>
      <trkpt lat="10.820695" lon="106.666222">
        <ele>0.0</ele>
        <time>2026-07-26T05:52:04Z</time>
      </trkpt>
      <trkpt lat="10.820778" lon="106.666458">
        <ele>0.0</ele>
        <time>2026-07-26T05:52:04Z</time>
      </trkpt>
      <trkpt lat="10.820858" lon="106.666664">
        <ele>0.0</ele>
        <time>2026-07-26T05:52:04Z</time>
      </trkpt>
      <trkpt lat="10.82095" lon="106.666908">
        <ele>0.0</ele>
        <time>2026-07-26T05:52:04Z</time>
      </trkpt>
      <trkpt lat="10.82103" lon="106.667122">
        <ele>0.0</ele>
        <time>2026-07-26T05:52:04Z</time>
      </trkpt>
      <trkpt lat="10.82116" lon="106.667442">
        <ele>0.0</ele>
        <time>2026-07-26T05:52:04Z</time>
      </trkpt>
      <trkpt lat="10.821224" lon="106.667648">
        <ele>0.0</ele>
        <time>2026-07-26T05:52:04Z</time>
      </trkpt>
      <trkpt lat="10.821336" lon="106.667923">
        <ele>0.0</ele>
        <time>2026-07-26T05:52:04Z</time>
      </trkpt>
      <trkpt lat="10.821428" lon="106.668152">
        <ele>0.0</ele>
        <time>2026-07-26T05:52:04Z</time>
      </trkpt>
      <trkpt lat="10.82151" lon="106.668381">
        <ele>0.0</ele>
        <time>2026-07-26T05:52:04Z</time>
      </trkpt>
      <trkpt lat="10.821648" lon="106.668732">
        <ele>0.0</ele>
        <time>2026-07-26T05:52:04Z</time>
      </trkpt>
      <trkpt lat="10.821731" lon="106.668961">
        <ele>0.0</ele>
        <time>2026-07-26T05:52:04Z</time>
      </trkpt>
      <trkpt lat="10.821854" lon="106.669289">
        <ele>0.0</ele>
        <time>2026-07-26T05:52:04Z</time>
      </trkpt>
      <trkpt lat="10.821968" lon="106.669609">
        <ele>0.0</ele>
        <time>2026-07-26T05:52:04Z</time>
      </trkpt>
      <trkpt lat="10.82222" lon="106.670113">
        <ele>0.0</ele>
        <time>2026-07-26T05:52:04Z</time>
      </trkpt>
      <trkpt lat="10.822453" lon="106.670189">
        <ele>0.0</ele>
        <time>2026-07-26T05:52:04Z</time>
      </trkpt>
      <trkpt lat="10.822662" lon="106.670067">
        <ele>0.0</ele>
        <time>2026-07-26T05:52:04Z</time>
      </trkpt>
      <trkpt lat="10.822884" lon="106.669968">
        <ele>0.0</ele>
        <time>2026-07-26T05:52:04Z</time>
      </trkpt>
      <trkpt lat="10.82309" lon="106.6698">
        <ele>0.0</ele>
        <time>2026-07-26T05:52:04Z</time>
      </trkpt>
      <trkpt lat="10.823364" lon="106.669441">
        <ele>0.0</ele>
        <time>2026-07-26T05:52:04Z</time>
      </trkpt>
      <trkpt lat="10.82357" lon="106.669357">
        <ele>0.0</ele>
        <time>2026-07-26T05:52:04Z</time>
      </trkpt>
      <trkpt lat="10.823605" lon="106.669113">
        <ele>0.0</ele>
        <time>2026-07-26T05:52:04Z</time>
      </trkpt>
      <trkpt lat="10.823456" lon="106.668854">
        <ele>0.0</ele>
        <time>2026-07-26T05:52:04Z</time>
      </trkpt>
      <trkpt lat="10.823291" lon="106.668419">
        <ele>0.0</ele>
        <time>2026-07-26T05:52:04Z</time>
      </trkpt>
      <trkpt lat="10.822769" lon="106.667007">
        <ele>0.0</ele>
        <time>2026-07-26T05:52:04Z</time>
      </trkpt>
      <trkpt lat="10.821859" lon="106.664574">
        <ele>83.82000000000001</ele>
        <time>2026-07-26T05:52:04Z</time>
      </trkpt>
      <trkpt lat="10.820709" lon="106.661575">
        <ele>91.44</ele>
        <time>2026-07-26T05:52:04Z</time>
      </trkpt>
      <trkpt lat="10.818926" lon="106.656815">
        <ele>91.44</ele>
        <time>2026-07-26T05:52:04Z</time>
      </trkpt>
      <trkpt lat="10.816772" lon="106.651009">
        <ele>114.30000000000001</ele>
        <time>2026-07-26T05:52:04Z</time>
      </trkpt>
      <trkpt lat="10.814736" lon="106.645393">
        <ele>213.36</ele>
        <time>2026-07-26T05:52:04Z</time>
      </trkpt>
      <trkpt lat="10.8132" lon="106.641151">
        <ele>274.32</ele>
        <time>2026-07-26T05:52:04Z</time>
      </trkpt>
      <trkpt lat="10.811371" lon="106.636238">
        <ele>327.66</ele>
        <time>2026-07-26T05:52:04Z</time>
      </trkpt>
      <trkpt lat="10.809011" lon="106.629738">
        <ele>381.0</ele>
        <time>2026-07-26T05:52:04Z</time>
      </trkpt>
      <trkpt lat="10.806357" lon="106.622604">
        <ele>434.34000000000003</ele>
        <time>2026-07-26T05:52:04Z</time>
      </trkpt>
      <trkpt lat="10.803726" lon="106.615402">
        <ele>487.68</ele>
        <time>2026-07-26T05:52:04Z</time>
      </trkpt>
      <trkpt lat="10.800817" lon="106.607567">
        <ele>541.02</ele>
        <time>2026-07-26T05:52:04Z</time>
      </trkpt>
      <trkpt lat="10.797791" lon="106.599426">
        <ele>624.84</ele>
        <time>2026-07-26T05:52:04Z</time>
      </trkpt>
      <trkpt lat="10.794571" lon="106.59082">
        <ele>701.0400000000001</ele>
        <time>2026-07-26T05:52:04Z</time>
      </trkpt>
      <trkpt lat="10.792066" lon="106.584007">
        <ele>762.0</ele>
        <time>2026-07-26T05:52:04Z</time>
      </trkpt>
      <trkpt lat="10.78876" lon="106.574898">
        <ele>868.6800000000001</ele>
        <time>2026-07-26T05:52:04Z</time>
      </trkpt>
      <trkpt lat="10.785455" lon="106.565887">
        <ele>982.98</ele>
        <time>2026-07-26T05:52:04Z</time>
      </trkpt>
      <trkpt lat="10.782669" lon="106.558151">
        <ele>1082.04</ele>
        <time>2026-07-26T05:52:04Z</time>
      </trkpt>
      <trkpt lat="10.781312" lon="106.553314">
        <ele>1150.6200000000001</ele>
        <time>2026-07-26T05:52:04Z</time>
      </trkpt>
      <trkpt lat="10.780847" lon="106.550377">
        <ele>1188.72</ele>
        <time>2026-07-26T05:52:04Z</time>
      </trkpt>
      <trkpt lat="10.780609" lon="106.548203">
        <ele>1219.2</ele>
        <time>2026-07-26T05:52:04Z</time>
      </trkpt>
      <trkpt lat="10.78038" lon="106.544891">
        <ele>1280.16</ele>
        <time>2026-07-26T05:52:04Z</time>
      </trkpt>
      <trkpt lat="10.780381" lon="106.542564">
        <ele>1325.88</ele>
        <time>2026-07-26T05:52:04Z</time>
      </trkpt>
      <trkpt lat="10.780426" lon="106.540199">
        <ele>1363.98</ele>
        <time>2026-07-26T05:52:04Z</time>
      </trkpt>
      <trkpt lat="10.780563" lon="106.53788">
        <ele>1409.7</ele>
        <time>2026-07-26T05:52:04Z</time>
      </trkpt>
      <trkpt lat="10.780884" lon="106.534988">
        <ele>1463.04</ele>
        <time>2026-07-26T05:52:04Z</time>
      </trkpt>
      <trkpt lat="10.781158" lon="106.532578">
        <ele>1508.76</ele>
        <time>2026-07-26T05:52:04Z</time>
      </trkpt>
      <trkpt lat="10.78157" lon="106.529976">
        <ele>1562.1000000000001</ele>
        <time>2026-07-26T05:52:04Z</time>
      </trkpt>
      <trkpt lat="10.782028" lon="106.527748">
        <ele>1607.8200000000002</ele>
        <time>2026-07-26T05:52:04Z</time>
      </trkpt>
      <trkpt lat="10.782532" lon="106.525665">
        <ele>1645.92</ele>
        <time>2026-07-26T05:52:04Z</time>
      </trkpt>
      <trkpt lat="10.783407" lon="106.522667">
        <ele>1706.88</ele>
        <time>2026-07-26T05:52:04Z</time>
      </trkpt>
      <trkpt lat="10.784042" lon="106.520645">
        <ele>1744.98</ele>
        <time>2026-07-26T05:52:04Z</time>
      </trkpt>
      <trkpt lat="10.784866" lon="106.518417">
        <ele>1790.7</ele>
        <time>2026-07-26T05:52:04Z</time>
      </trkpt>
      <trkpt lat="10.785967" lon="106.515778">
        <ele>1836.42</ele>
        <time>2026-07-26T05:52:04Z</time>
      </trkpt>
      <trkpt lat="10.787064" lon="106.513443">
        <ele>1874.52</ele>
        <time>2026-07-26T05:52:04Z</time>
      </trkpt>
      <trkpt lat="10.788071" lon="106.511597">
        <ele>1912.6200000000001</ele>
        <time>2026-07-26T05:52:04Z</time>
      </trkpt>
      <trkpt lat="10.789366" lon="106.50927">
        <ele>1950.72</ele>
        <time>2026-07-26T05:52:04Z</time>
      </trkpt>
      <trkpt lat="10.790902" lon="106.507057">
        <ele>1988.8200000000002</ele>
        <time>2026-07-26T05:52:04Z</time>
      </trkpt>
      <trkpt lat="10.792191" lon="106.505257">
        <ele>2019.3000000000002</ele>
        <time>2026-07-26T05:52:04Z</time>
      </trkpt>
      <trkpt lat="10.793701" lon="106.503403">
        <ele>2049.78</ele>
        <time>2026-07-26T05:52:04Z</time>
      </trkpt>
      <trkpt lat="10.795166" lon="106.501747">
        <ele>2080.26</ele>
        <time>2026-07-26T05:52:04Z</time>
      </trkpt>
      <trkpt lat="10.797134" lon="106.49971">
        <ele>2118.36</ele>
        <time>2026-07-26T05:52:04Z</time>
      </trkpt>
      <trkpt lat="10.79892" lon="106.498154">
        <ele>2148.84</ele>
        <time>2026-07-26T05:52:04Z</time>
      </trkpt>
      <trkpt lat="10.800585" lon="106.496788">
        <ele>2179.32</ele>
        <time>2026-07-26T05:52:04Z</time>
      </trkpt>
      <trkpt lat="10.802444" lon="106.495453">
        <ele>2209.8</ele>
        <time>2026-07-26T05:52:04Z</time>
      </trkpt>
      <trkpt lat="10.804448" lon="106.494141">
        <ele>2240.28</ele>
        <time>2026-07-26T05:52:04Z</time>
      </trkpt>
      <trkpt lat="10.806543" lon="106.492935">
        <ele>2270.76</ele>
        <time>2026-07-26T05:52:04Z</time>
      </trkpt>
      <trkpt lat="10.809219" lon="106.491615">
        <ele>2308.86</ele>
        <time>2026-07-26T05:52:04Z</time>
      </trkpt>
      <trkpt lat="10.810826" lon="106.490868">
        <ele>2331.7200000000003</ele>
        <time>2026-07-26T05:52:04Z</time>
      </trkpt>
      <trkpt lat="10.813573" lon="106.489853">
        <ele>2362.2000000000003</ele>
        <time>2026-07-26T05:52:04Z</time>
      </trkpt>
      <trkpt lat="10.816452" lon="106.48896">
        <ele>2400.3</ele>
        <time>2026-07-26T05:52:04Z</time>
      </trkpt>
      <trkpt lat="10.818512" lon="106.488396">
        <ele>2430.78</ele>
        <time>2026-07-26T05:52:04Z</time>
      </trkpt>
      <trkpt lat="10.821625" lon="106.487823">
        <ele>2468.88</ele>
        <time>2026-07-26T05:52:04Z</time>
      </trkpt>
      <trkpt lat="10.824097" lon="106.487495">
        <ele>2499.36</ele>
        <time>2026-07-26T05:52:04Z</time>
      </trkpt>
      <trkpt lat="10.826328" lon="106.487343">
        <ele>2529.84</ele>
        <time>2026-07-26T05:52:04Z</time>
      </trkpt>
      <trkpt lat="10.82872" lon="106.487305">
        <ele>2552.7000000000003</ele>
        <time>2026-07-26T05:52:04Z</time>
      </trkpt>
      <trkpt lat="10.831449" lon="106.487396">
        <ele>2590.8</ele>
        <time>2026-07-26T05:52:04Z</time>
      </trkpt>
      <trkpt lat="10.834475" lon="106.487732">
        <ele>2621.28</ele>
        <time>2026-07-26T05:52:04Z</time>
      </trkpt>
      <trkpt lat="10.836942" lon="106.488121">
        <ele>2651.76</ele>
        <time>2026-07-26T05:52:04Z</time>
      </trkpt>
      <trkpt lat="10.838745" lon="106.488441">
        <ele>2674.6200000000003</ele>
        <time>2026-07-26T05:52:04Z</time>
      </trkpt>
      <trkpt lat="10.841949" lon="106.489296">
        <ele>2705.1</ele>
        <time>2026-07-26T05:52:04Z</time>
      </trkpt>
      <trkpt lat="10.844055" lon="106.48996">
        <ele>2727.96</ele>
        <time>2026-07-26T05:52:04Z</time>
      </trkpt>
      <trkpt lat="10.846579" lon="106.490913">
        <ele>2758.44</ele>
        <time>2026-07-26T05:52:04Z</time>
      </trkpt>
      <trkpt lat="10.84877" lon="106.491852">
        <ele>2781.3</ele>
        <time>2026-07-26T05:52:04Z</time>
      </trkpt>
      <trkpt lat="10.851746" lon="106.493416">
        <ele>2811.78</ele>
        <time>2026-07-26T05:52:04Z</time>
      </trkpt>
      <trkpt lat="10.854034" lon="106.494743">
        <ele>2842.26</ele>
        <time>2026-07-26T05:52:04Z</time>
      </trkpt>
      <trkpt lat="10.856168" lon="106.496117">
        <ele>2865.1200000000003</ele>
        <time>2026-07-26T05:52:04Z</time>
      </trkpt>
      <trkpt lat="10.857984" lon="106.497513">
        <ele>2887.98</ele>
        <time>2026-07-26T05:52:04Z</time>
      </trkpt>
      <trkpt lat="10.860079" lon="106.499153">
        <ele>2910.84</ele>
        <time>2026-07-26T05:52:04Z</time>
      </trkpt>
      <trkpt lat="10.862503" lon="106.501274">
        <ele>2948.94</ele>
        <time>2026-07-26T05:52:04Z</time>
      </trkpt>
      <trkpt lat="10.864361" lon="106.503006">
        <ele>2979.42</ele>
        <time>2026-07-26T05:52:04Z</time>
      </trkpt>
      <trkpt lat="10.866223" lon="106.504791">
        <ele>3009.9</ele>
        <time>2026-07-26T05:52:04Z</time>
      </trkpt>
      <trkpt lat="10.868637" lon="106.50705">
        <ele>3048.0</ele>
        <time>2026-07-26T05:52:04Z</time>
      </trkpt>
      <trkpt lat="10.870972" lon="106.509277">
        <ele>3086.1000000000004</ele>
        <time>2026-07-26T05:52:04Z</time>
      </trkpt>
      <trkpt lat="10.872927" lon="106.511147">
        <ele>3116.5800000000004</ele>
        <time>2026-07-26T05:52:04Z</time>
      </trkpt>
      <trkpt lat="10.874649" lon="106.51284">
        <ele>3139.44</ele>
        <time>2026-07-26T05:52:04Z</time>
      </trkpt>
      <trkpt lat="10.876326" lon="106.514427">
        <ele>3169.92</ele>
        <time>2026-07-26T05:52:04Z</time>
      </trkpt>
      <trkpt lat="10.878799" lon="106.516762">
        <ele>3200.4</ele>
        <time>2026-07-26T05:52:04Z</time>
      </trkpt>
      <trkpt lat="10.880654" lon="106.518524">
        <ele>3230.88</ele>
        <time>2026-07-26T05:52:04Z</time>
      </trkpt>
      <trkpt lat="10.882377" lon="106.520065">
        <ele>3253.7400000000002</ele>
        <time>2026-07-26T05:52:04Z</time>
      </trkpt>
      <trkpt lat="10.884751" lon="106.522278">
        <ele>3291.84</ele>
        <time>2026-07-26T05:52:04Z</time>
      </trkpt>
      <trkpt lat="10.897064" lon="106.53376">
        <ele>3429.0</ele>
        <time>2026-07-26T05:52:04Z</time>
      </trkpt>
      <trkpt lat="10.909191" lon="106.546516">
        <ele>3512.82</ele>
        <time>2026-07-26T05:52:04Z</time>
      </trkpt>
      <trkpt lat="10.92128" lon="106.561417">
        <ele>3611.88</ele>
        <time>2026-07-26T05:52:04Z</time>
      </trkpt>
      <trkpt lat="10.934921" lon="106.578888">
        <ele>3794.76</ele>
        <time>2026-07-26T05:52:04Z</time>
      </trkpt>
      <trkpt lat="10.964123" lon="106.61615">
        <ele>4191.0</ele>
        <time>2026-07-26T05:52:04Z</time>
      </trkpt>
      <trkpt lat="10.992799" lon="106.651756">
        <ele>4533.900000000001</ele>
        <time>2026-07-26T05:52:04Z</time>
      </trkpt>
      <trkpt lat="11.025944" lon="106.691025">
        <ele>4754.88</ele>
        <time>2026-07-26T05:52:04Z</time>
      </trkpt>
      <trkpt lat="11.063736" lon="106.729149">
        <ele>5067.3</ele>
        <time>2026-07-26T05:52:04Z</time>
      </trkpt>
      <trkpt lat="11.104431" lon="106.767456">
        <ele>5394.96</ele>
        <time>2026-07-26T05:52:04Z</time>
      </trkpt>
      <trkpt lat="11.137711" lon="106.791847">
        <ele>5585.46</ele>
        <time>2026-07-26T05:52:04Z</time>
      </trkpt>
      <trkpt lat="11.184036" lon="106.820496">
        <ele>5829.3</ele>
        <time>2026-07-26T05:52:04Z</time>
      </trkpt>
      <trkpt lat="11.233241" lon="106.85144">
        <ele>6134.1</ele>
        <time>2026-07-26T05:52:04Z</time>
      </trkpt>
      <trkpt lat="11.2836" lon="106.883095">
        <ele>6400.8</ele>
        <time>2026-07-26T05:52:04Z</time>
      </trkpt>
      <trkpt lat="11.334446" lon="106.917213">
        <ele>6659.88</ele>
        <time>2026-07-26T05:52:04Z</time>
      </trkpt>
      <trkpt lat="11.337611" lon="106.920151">
        <ele>6675.12</ele>
        <time>2026-07-26T05:52:04Z</time>
      </trkpt>
      <trkpt lat="11.340172" lon="106.922653">
        <ele>6682.740000000001</ele>
        <time>2026-07-26T05:52:04Z</time>
      </trkpt>
      <trkpt lat="11.34343" lon="106.92614">
        <ele>6705.6</ele>
        <time>2026-07-26T05:52:04Z</time>
      </trkpt>
      <trkpt lat="11.345898" lon="106.929016">
        <ele>6720.84</ele>
        <time>2026-07-26T05:52:04Z</time>
      </trkpt>
      <trkpt lat="11.348969" lon="106.932869">
        <ele>6743.700000000001</ele>
        <time>2026-07-26T05:52:04Z</time>
      </trkpt>
      <trkpt lat="11.351158" lon="106.935715">
        <ele>6766.56</ele>
        <time>2026-07-26T05:52:04Z</time>
      </trkpt>
      <trkpt lat="11.353486" lon="106.938942">
        <ele>6781.8</ele>
        <time>2026-07-26T05:52:04Z</time>
      </trkpt>
      <trkpt lat="11.355906" lon="106.942314">
        <ele>6812.280000000001</ele>
        <time>2026-07-26T05:52:04Z</time>
      </trkpt>
      <trkpt lat="11.358078" lon="106.945419">
        <ele>6827.52</ele>
        <time>2026-07-26T05:52:04Z</time>
      </trkpt>
      <trkpt lat="11.360458" lon="106.94883">
        <ele>6850.38</ele>
        <time>2026-07-26T05:52:04Z</time>
      </trkpt>
      <trkpt lat="11.362701" lon="106.952095">
        <ele>6873.240000000001</ele>
        <time>2026-07-26T05:52:04Z</time>
      </trkpt>
      <trkpt lat="11.364751" lon="106.955086">
        <ele>6888.4800000000005</ele>
        <time>2026-07-26T05:52:04Z</time>
      </trkpt>
      <trkpt lat="11.367032" lon="106.958359">
        <ele>6903.72</ele>
        <time>2026-07-26T05:52:04Z</time>
      </trkpt>
      <trkpt lat="11.369797" lon="106.962418">
        <ele>6926.58</ele>
        <time>2026-07-26T05:52:04Z</time>
      </trkpt>
      <trkpt lat="11.371857" lon="106.965401">
        <ele>6934.200000000001</ele>
        <time>2026-07-26T05:52:04Z</time>
      </trkpt>
      <trkpt lat="11.374237" lon="106.968857">
        <ele>6949.4400000000005</ele>
        <time>2026-07-26T05:52:04Z</time>
      </trkpt>
      <trkpt lat="11.408524" lon="107.019287">
        <ele>7162.8</ele>
        <time>2026-07-26T05:52:04Z</time>
      </trkpt>
      <trkpt lat="11.444914" lon="107.072029">
        <ele>7376.160000000001</ele>
        <time>2026-07-26T05:52:04Z</time>
      </trkpt>
      <trkpt lat="11.478013" lon="107.120506">
        <ele>7566.660000000001</ele>
        <time>2026-07-26T05:52:04Z</time>
      </trkpt>
      <trkpt lat="11.49021" lon="107.143639">
        <ele>7658.1</ele>
        <time>2026-07-26T05:52:04Z</time>
      </trkpt>
      <trkpt lat="11.491699" lon="107.147537">
        <ele>7673.34</ele>
        <time>2026-07-26T05:52:04Z</time>
      </trkpt>
      <trkpt lat="11.493301" lon="107.152077">
        <ele>7688.580000000001</ele>
        <time>2026-07-26T05:52:04Z</time>
      </trkpt>
      <trkpt lat="11.494537" lon="107.155861">
        <ele>7696.200000000001</ele>
        <time>2026-07-26T05:52:04Z</time>
      </trkpt>
      <trkpt lat="11.495728" lon="107.159889">
        <ele>7703.820000000001</ele>
        <time>2026-07-26T05:52:04Z</time>
      </trkpt>
      <trkpt lat="11.496826" lon="107.163773">
        <ele>7711.4400000000005</ele>
        <time>2026-07-26T05:52:04Z</time>
      </trkpt>
      <trkpt lat="11.497844" lon="107.167633">
        <ele>7719.06</ele>
        <time>2026-07-26T05:52:04Z</time>
      </trkpt>
      <trkpt lat="11.499194" lon="107.172691">
        <ele>7734.3</ele>
        <time>2026-07-26T05:52:04Z</time>
      </trkpt>
      <trkpt lat="11.500125" lon="107.176353">
        <ele>7749.54</ele>
        <time>2026-07-26T05:52:04Z</time>
      </trkpt>
      <trkpt lat="11.501102" lon="107.18026">
        <ele>7764.780000000001</ele>
        <time>2026-07-26T05:52:04Z</time>
      </trkpt>
      <trkpt lat="11.502359" lon="107.18512">
        <ele>7780.02</ele>
        <time>2026-07-26T05:52:04Z</time>
      </trkpt>
      <trkpt lat="11.503281" lon="107.18882">
        <ele>7795.26</ele>
        <time>2026-07-26T05:52:04Z</time>
      </trkpt>
      <trkpt lat="11.504242" lon="107.192558">
        <ele>7818.120000000001</ele>
        <time>2026-07-26T05:52:04Z</time>
      </trkpt>
      <trkpt lat="11.505386" lon="107.197205">
        <ele>7833.360000000001</ele>
        <time>2026-07-26T05:52:04Z</time>
      </trkpt>
      <trkpt lat="11.506439" lon="107.201279">
        <ele>7856.22</ele>
        <time>2026-07-26T05:52:04Z</time>
      </trkpt>
      <trkpt lat="11.522842" lon="107.26535">
        <ele>8001.0</ele>
        <time>2026-07-26T05:52:04Z</time>
      </trkpt>
      <trkpt lat="11.53895" lon="107.326691">
        <ele>8366.76</ele>
        <time>2026-07-26T05:52:04Z</time>
      </trkpt>
      <trkpt lat="11.553567" lon="107.383644">
        <ele>8770.62</ele>
        <time>2026-07-26T05:52:04Z</time>
      </trkpt>
      <trkpt lat="11.570572" lon="107.440414">
        <ele>8846.82</ele>
        <time>2026-07-26T05:52:04Z</time>
      </trkpt>
      <trkpt lat="11.593462" lon="107.502235">
        <ele>8839.2</ele>
        <time>2026-07-26T05:52:04Z</time>
      </trkpt>
      <trkpt lat="11.616738" lon="107.565643">
        <ele>8839.2</ele>
        <time>2026-07-26T05:52:04Z</time>
      </trkpt>
      <trkpt lat="11.640108" lon="107.629204">
        <ele>8839.2</ele>
        <time>2026-07-26T05:52:04Z</time>
      </trkpt>
      <trkpt lat="11.669495" lon="107.69149">
        <ele>8839.2</ele>
        <time>2026-07-26T05:52:04Z</time>
      </trkpt>
      <trkpt lat="11.705374" lon="107.75164">
        <ele>8839.2</ele>
        <time>2026-07-26T05:52:04Z</time>
      </trkpt>
      <trkpt lat="11.746387" lon="107.809654">
        <ele>8846.82</ele>
        <time>2026-07-26T05:52:04Z</time>
      </trkpt>
      <trkpt lat="11.785217" lon="107.864052">
        <ele>8839.2</ele>
        <time>2026-07-26T05:52:04Z</time>
      </trkpt>
      <trkpt lat="11.827057" lon="107.914673">
        <ele>8839.2</ele>
        <time>2026-07-26T05:52:04Z</time>
      </trkpt>
      <trkpt lat="11.871002" lon="107.965675">
        <ele>8839.2</ele>
        <time>2026-07-26T05:52:04Z</time>
      </trkpt>
      <trkpt lat="11.916" lon="108.018143">
        <ele>8839.2</ele>
        <time>2026-07-26T05:52:04Z</time>
      </trkpt>
      <trkpt lat="11.958984" lon="108.067963">
        <ele>8831.58</ele>
        <time>2026-07-26T05:52:04Z</time>
      </trkpt>
      <trkpt lat="11.997208" lon="108.106934">
        <ele>8831.58</ele>
        <time>2026-07-26T05:52:04Z</time>
      </trkpt>
      <trkpt lat="12.001556" lon="108.110153">
        <ele>8831.58</ele>
        <time>2026-07-26T05:52:04Z</time>
      </trkpt>
      <trkpt lat="12.005081" lon="108.112572">
        <ele>8831.58</ele>
        <time>2026-07-26T05:52:04Z</time>
      </trkpt>
      <trkpt lat="12.009779" lon="108.115639">
        <ele>8831.58</ele>
        <time>2026-07-26T05:52:04Z</time>
      </trkpt>
      <trkpt lat="12.013458" lon="108.117874">
        <ele>8831.58</ele>
        <time>2026-07-26T05:52:04Z</time>
      </trkpt>
      <trkpt lat="12.016623" lon="108.119728">
        <ele>8831.58</ele>
        <time>2026-07-26T05:52:04Z</time>
      </trkpt>
      <trkpt lat="12.020393" lon="108.121803">
        <ele>8839.2</ele>
        <time>2026-07-26T05:52:04Z</time>
      </trkpt>
      <trkpt lat="12.024628" lon="108.12394">
        <ele>8831.58</ele>
        <time>2026-07-26T05:52:04Z</time>
      </trkpt>
      <trkpt lat="12.029526" lon="108.126259">
        <ele>8839.2</ele>
        <time>2026-07-26T05:52:04Z</time>
      </trkpt>
      <trkpt lat="12.033096" lon="108.127769">
        <ele>8839.2</ele>
        <time>2026-07-26T05:52:04Z</time>
      </trkpt>
      <trkpt lat="12.038498" lon="108.129997">
        <ele>8839.2</ele>
        <time>2026-07-26T05:52:04Z</time>
      </trkpt>
      <trkpt lat="12.042319" lon="108.131439">
        <ele>8839.2</ele>
        <time>2026-07-26T05:52:04Z</time>
      </trkpt>
      <trkpt lat="12.046875" lon="108.13298">
        <ele>8839.2</ele>
        <time>2026-07-26T05:52:04Z</time>
      </trkpt>
      <trkpt lat="12.051351" lon="108.134476">
        <ele>8839.2</ele>
        <time>2026-07-26T05:52:04Z</time>
      </trkpt>
      <trkpt lat="12.056488" lon="108.136154">
        <ele>8839.2</ele>
        <time>2026-07-26T05:52:04Z</time>
      </trkpt>
      <trkpt lat="12.061033" lon="108.137611">
        <ele>8839.2</ele>
        <time>2026-07-26T05:52:04Z</time>
      </trkpt>
      <trkpt lat="12.064757" lon="108.138817">
        <ele>8846.82</ele>
        <time>2026-07-26T05:52:04Z</time>
      </trkpt>
      <trkpt lat="12.069087" lon="108.140213">
        <ele>8846.82</ele>
        <time>2026-07-26T05:52:04Z</time>
      </trkpt>
      <trkpt lat="12.073369" lon="108.141609">
        <ele>8846.82</ele>
        <time>2026-07-26T05:52:04Z</time>
      </trkpt>
      <trkpt lat="12.078909" lon="108.14344">
        <ele>8846.82</ele>
        <time>2026-07-26T05:52:04Z</time>
      </trkpt>
      <trkpt lat="12.084263" lon="108.145226">
        <ele>8846.82</ele>
        <time>2026-07-26T05:52:04Z</time>
      </trkpt>
      <trkpt lat="12.150646" lon="108.168686">
        <ele>8839.2</ele>
        <time>2026-07-26T05:52:04Z</time>
      </trkpt>
      <trkpt lat="12.213305" lon="108.191383">
        <ele>8839.2</ele>
        <time>2026-07-26T05:52:04Z</time>
      </trkpt>
      <trkpt lat="12.281067" lon="108.215569">
        <ele>8839.2</ele>
        <time>2026-07-26T05:52:04Z</time>
      </trkpt>
      <trkpt lat="12.344955" lon="108.238174">
        <ele>8831.58</ele>
        <time>2026-07-26T05:52:04Z</time>
      </trkpt>
      <trkpt lat="12.410248" lon="108.261269">
        <ele>8785.86</ele>
        <time>2026-07-26T05:52:04Z</time>
      </trkpt>
      <trkpt lat="12.471437" lon="108.282745">
        <ele>8625.84</ele>
        <time>2026-07-26T05:52:04Z</time>
      </trkpt>
      <trkpt lat="12.536545" lon="108.305969">
        <ele>8465.82</ele>
        <time>2026-07-26T05:52:04Z</time>
      </trkpt>
      <trkpt lat="12.595919" lon="108.327217">
        <ele>8313.42</ele>
        <time>2026-07-26T05:52:04Z</time>
      </trkpt>
      <trkpt lat="12.65746" lon="108.348953">
        <ele>8153.400000000001</ele>
        <time>2026-07-26T05:52:04Z</time>
      </trkpt>
      <trkpt lat="12.721115" lon="108.371506">
        <ele>7985.76</ele>
        <time>2026-07-26T05:52:04Z</time>
      </trkpt>
      <trkpt lat="12.780487" lon="108.392342">
        <ele>7650.4800000000005</ele>
        <time>2026-07-26T05:52:04Z</time>
      </trkpt>
      <trkpt lat="12.841553" lon="108.414078">
        <ele>7269.4800000000005</ele>
        <time>2026-07-26T05:52:04Z</time>
      </trkpt>
      <trkpt lat="12.902115" lon="108.435768">
        <ele>6888.4800000000005</ele>
        <time>2026-07-26T05:52:04Z</time>
      </trkpt>
      <trkpt lat="12.957413" lon="108.45533">
        <ele>6545.58</ele>
        <time>2026-07-26T05:52:04Z</time>
      </trkpt>
      <trkpt lat="13.015447" lon="108.475967">
        <ele>6179.820000000001</ele>
        <time>2026-07-26T05:52:04Z</time>
      </trkpt>
      <trkpt lat="13.069519" lon="108.495247">
        <ele>5844.54</ele>
        <time>2026-07-26T05:52:04Z</time>
      </trkpt>
      <trkpt lat="13.122757" lon="108.514282">
        <ele>5509.26</ele>
        <time>2026-07-26T05:52:04Z</time>
      </trkpt>
      <trkpt lat="13.176005" lon="108.53331">
        <ele>5181.6</ele>
        <time>2026-07-26T05:52:04Z</time>
      </trkpt>
      <trkpt lat="13.227402" lon="108.551643">
        <ele>4853.9400000000005</ele>
        <time>2026-07-26T05:52:04Z</time>
      </trkpt>
      <trkpt lat="13.282059" lon="108.571205">
        <ele>4518.66</ele>
        <time>2026-07-26T05:52:04Z</time>
      </trkpt>
      <trkpt lat="13.323483" lon="108.589493">
        <ele>4244.34</ele>
        <time>2026-07-26T05:52:04Z</time>
      </trkpt>
      <trkpt lat="13.326141" lon="108.591331">
        <ele>4229.1</ele>
        <time>2026-07-26T05:52:04Z</time>
      </trkpt>
      <trkpt lat="13.329071" lon="108.593414">
        <ele>4206.24</ele>
        <time>2026-07-26T05:52:04Z</time>
      </trkpt>
      <trkpt lat="13.332561" lon="108.595901">
        <ele>4183.38</ele>
        <time>2026-07-26T05:52:04Z</time>
      </trkpt>
      <trkpt lat="13.335297" lon="108.597916">
        <ele>4168.14</ele>
        <time>2026-07-26T05:52:04Z</time>
      </trkpt>
      <trkpt lat="13.338845" lon="108.600578">
        <ele>4137.66</ele>
        <time>2026-07-26T05:52:04Z</time>
      </trkpt>
      <trkpt lat="13.341545" lon="108.602699">
        <ele>4114.8</ele>
        <time>2026-07-26T05:52:04Z</time>
      </trkpt>
      <trkpt lat="13.344851" lon="108.605392">
        <ele>4084.32</ele>
        <time>2026-07-26T05:52:04Z</time>
      </trkpt>
      <trkpt lat="13.347702" lon="108.607811">
        <ele>4053.84</ele>
        <time>2026-07-26T05:52:04Z</time>
      </trkpt>
      <trkpt lat="13.350158" lon="108.610023">
        <ele>4023.36</ele>
        <time>2026-07-26T05:52:04Z</time>
      </trkpt>
      <trkpt lat="13.352692" lon="108.612358">
        <ele>3992.88</ele>
        <time>2026-07-26T05:52:04Z</time>
      </trkpt>
      <trkpt lat="13.35593" lon="108.615517">
        <ele>3962.4</ele>
        <time>2026-07-26T05:52:04Z</time>
      </trkpt>
      <trkpt lat="13.358304" lon="108.617973">
        <ele>3939.5400000000004</ele>
        <time>2026-07-26T05:52:04Z</time>
      </trkpt>
      <trkpt lat="13.360657" lon="108.620544">
        <ele>3916.6800000000003</ele>
        <time>2026-07-26T05:52:04Z</time>
      </trkpt>
      <trkpt lat="13.362634" lon="108.622742">
        <ele>3901.44</ele>
        <time>2026-07-26T05:52:04Z</time>
      </trkpt>
      <trkpt lat="13.365601" lon="108.626137">
        <ele>3886.2000000000003</ele>
        <time>2026-07-26T05:52:04Z</time>
      </trkpt>
      <trkpt lat="13.368546" lon="108.629486">
        <ele>3863.34</ele>
        <time>2026-07-26T05:52:04Z</time>
      </trkpt>
      <trkpt lat="13.37078" lon="108.632088">
        <ele>3840.48</ele>
        <time>2026-07-26T05:52:04Z</time>
      </trkpt>
      <trkpt lat="13.373978" lon="108.63575">
        <ele>3810.0</ele>
        <time>2026-07-26T05:52:04Z</time>
      </trkpt>
      <trkpt lat="13.376358" lon="108.638496">
        <ele>3787.1400000000003</ele>
        <time>2026-07-26T05:52:04Z</time>
      </trkpt>
      <trkpt lat="13.378647" lon="108.641098">
        <ele>3764.28</ele>
        <time>2026-07-26T05:52:04Z</time>
      </trkpt>
      <trkpt lat="13.414307" lon="108.68116">
        <ele>3459.48</ele>
        <time>2026-07-26T05:52:04Z</time>
      </trkpt>
      <trkpt lat="13.429367" lon="108.697876">
        <ele>3337.56</ele>
        <time>2026-07-26T05:52:04Z</time>
      </trkpt>
      <trkpt lat="13.444336" lon="108.714401">
        <ele>3208.02</ele>
        <time>2026-07-26T05:52:04Z</time>
      </trkpt>
      <trkpt lat="13.458671" lon="108.730194">
        <ele>3108.96</ele>
        <time>2026-07-26T05:52:04Z</time>
      </trkpt>
      <trkpt lat="13.472809" lon="108.745987">
        <ele>2971.8</ele>
        <time>2026-07-26T05:52:04Z</time>
      </trkpt>
      <trkpt lat="13.48732" lon="108.76223">
        <ele>2796.54</ele>
        <time>2026-07-26T05:52:04Z</time>
      </trkpt>
      <trkpt lat="13.501266" lon="108.777855">
        <ele>2644.1400000000003</ele>
        <time>2026-07-26T05:52:04Z</time>
      </trkpt>
      <trkpt lat="13.515244" lon="108.793724">
        <ele>2537.46</ele>
        <time>2026-07-26T05:52:04Z</time>
      </trkpt>
      <trkpt lat="13.529337" lon="108.809608">
        <ele>2522.2200000000003</ele>
        <time>2026-07-26T05:52:04Z</time>
      </trkpt>
      <trkpt lat="13.542526" lon="108.824509">
        <ele>2522.2200000000003</ele>
        <time>2026-07-26T05:52:04Z</time>
      </trkpt>
      <trkpt lat="13.554801" lon="108.838417">
        <ele>2522.2200000000003</ele>
        <time>2026-07-26T05:52:04Z</time>
      </trkpt>
      <trkpt lat="13.567566" lon="108.85273">
        <ele>2522.2200000000003</ele>
        <time>2026-07-26T05:52:04Z</time>
      </trkpt>
      <trkpt lat="13.579893" lon="108.866463">
        <ele>2522.2200000000003</ele>
        <time>2026-07-26T05:52:04Z</time>
      </trkpt>
      <trkpt lat="13.592183" lon="108.880104">
        <ele>2506.98</ele>
        <time>2026-07-26T05:52:04Z</time>
      </trkpt>
      <trkpt lat="13.604004" lon="108.893265">
        <ele>2392.6800000000003</ele>
        <time>2026-07-26T05:52:04Z</time>
      </trkpt>
      <trkpt lat="13.616043" lon="108.906761">
        <ele>2278.38</ele>
        <time>2026-07-26T05:52:04Z</time>
      </trkpt>
      <trkpt lat="13.627563" lon="108.919708">
        <ele>2209.8</ele>
        <time>2026-07-26T05:52:04Z</time>
      </trkpt>
      <trkpt lat="13.639387" lon="108.932816">
        <ele>2148.84</ele>
        <time>2026-07-26T05:52:04Z</time>
      </trkpt>
      <trkpt lat="13.650879" lon="108.945732">
        <ele>2080.26</ele>
        <time>2026-07-26T05:52:04Z</time>
      </trkpt>
      <trkpt lat="13.661266" lon="108.957489">
        <ele>2034.5400000000002</ele>
        <time>2026-07-26T05:52:04Z</time>
      </trkpt>
      <trkpt lat="13.664474" lon="108.961121">
        <ele>1973.5800000000002</ele>
        <time>2026-07-26T05:52:04Z</time>
      </trkpt>
      <trkpt lat="13.686172" lon="108.988136">
        <ele>1912.6200000000001</ele>
        <time>2026-07-26T05:52:04Z</time>
      </trkpt>
      <trkpt lat="13.692968" lon="108.998878">
        <ele>1859.2800000000002</ele>
        <time>2026-07-26T05:52:04Z</time>
      </trkpt>
      <trkpt lat="13.694412" lon="109.001137">
        <ele>1836.42</ele>
        <time>2026-07-26T05:52:04Z</time>
      </trkpt>
      <trkpt lat="13.696366" lon="109.004181">
        <ele>1805.94</ele>
        <time>2026-07-26T05:52:04Z</time>
      </trkpt>
      <trkpt lat="13.697531" lon="109.006012">
        <ele>1790.7</ele>
        <time>2026-07-26T05:52:04Z</time>
      </trkpt>
      <trkpt lat="13.699578" lon="109.00914">
        <ele>1767.8400000000001</ele>
        <time>2026-07-26T05:52:04Z</time>
      </trkpt>
      <trkpt lat="13.700975" lon="109.011261">
        <ele>1760.22</ele>
        <time>2026-07-26T05:52:04Z</time>
      </trkpt>
      <trkpt lat="13.702377" lon="109.013405">
        <ele>1744.98</ele>
        <time>2026-07-26T05:52:04Z</time>
      </trkpt>
      <trkpt lat="13.703443" lon="109.015022">
        <ele>1729.74</ele>
        <time>2026-07-26T05:52:04Z</time>
      </trkpt>
      <trkpt lat="13.712521" lon="109.028847">
        <ele>1653.5400000000002</ele>
        <time>2026-07-26T05:52:04Z</time>
      </trkpt>
      <trkpt lat="13.721375" lon="109.042198">
        <ele>1607.8200000000002</ele>
        <time>2026-07-26T05:52:04Z</time>
      </trkpt>
      <trkpt lat="13.729745" lon="109.054825">
        <ele>1607.8200000000002</ele>
        <time>2026-07-26T05:52:04Z</time>
      </trkpt>
      <trkpt lat="13.737891" lon="109.067017">
        <ele>1554.48</ele>
        <time>2026-07-26T05:52:04Z</time>
      </trkpt>
      <trkpt lat="13.746131" lon="109.079254">
        <ele>1455.42</ele>
        <time>2026-07-26T05:52:04Z</time>
      </trkpt>
      <trkpt lat="13.750076" lon="109.085289">
        <ele>1394.46</ele>
        <time>2026-07-26T05:52:04Z</time>
      </trkpt>
      <trkpt lat="13.754883" lon="109.092651">
        <ele>1303.02</ele>
        <time>2026-07-26T05:52:04Z</time>
      </trkpt>
      <trkpt lat="13.759072" lon="109.099007">
        <ele>1249.68</ele>
        <time>2026-07-26T05:52:04Z</time>
      </trkpt>
      <trkpt lat="13.763123" lon="109.104988">
        <ele>1196.3400000000001</ele>
        <time>2026-07-26T05:52:04Z</time>
      </trkpt>
      <trkpt lat="13.767079" lon="109.111008">
        <ele>1143.0</ele>
        <time>2026-07-26T05:52:04Z</time>
      </trkpt>
      <trkpt lat="13.772324" lon="109.118958">
        <ele>1074.42</ele>
        <time>2026-07-26T05:52:04Z</time>
      </trkpt>
      <trkpt lat="13.776529" lon="109.125465">
        <ele>1028.7</ele>
        <time>2026-07-26T05:52:04Z</time>
      </trkpt>
      <trkpt lat="13.780673" lon="109.131485">
        <ele>1005.84</ele>
        <time>2026-07-26T05:52:04Z</time>
      </trkpt>
      <trkpt lat="13.782349" lon="109.13356">
        <ele>998.22</ele>
        <time>2026-07-26T05:52:04Z</time>
      </trkpt>
      <trkpt lat="13.78418" lon="109.135155">
        <ele>998.22</ele>
        <time>2026-07-26T05:52:04Z</time>
      </trkpt>
      <trkpt lat="13.786057" lon="109.136574">
        <ele>998.22</ele>
        <time>2026-07-26T05:52:04Z</time>
      </trkpt>
      <trkpt lat="13.788168" lon="109.137749">
        <ele>998.22</ele>
        <time>2026-07-26T05:52:04Z</time>
      </trkpt>
      <trkpt lat="13.789937" lon="109.138519">
        <ele>998.22</ele>
        <time>2026-07-26T05:52:04Z</time>
      </trkpt>
      <trkpt lat="13.792191" lon="109.13913">
        <ele>998.22</ele>
        <time>2026-07-26T05:52:04Z</time>
      </trkpt>
      <trkpt lat="13.793754" lon="109.139488">
        <ele>998.22</ele>
        <time>2026-07-26T05:52:04Z</time>
      </trkpt>
      <trkpt lat="13.796035" lon="109.139679">
        <ele>998.22</ele>
        <time>2026-07-26T05:52:04Z</time>
      </trkpt>
      <trkpt lat="13.798553" lon="109.139702">
        <ele>998.22</ele>
        <time>2026-07-26T05:52:04Z</time>
      </trkpt>
      <trkpt lat="13.800411" lon="109.139626">
        <ele>998.22</ele>
        <time>2026-07-26T05:52:04Z</time>
      </trkpt>
      <trkpt lat="13.80204" lon="109.139389">
        <ele>998.22</ele>
        <time>2026-07-26T05:52:04Z</time>
      </trkpt>
      <trkpt lat="13.804092" lon="109.139038">
        <ele>998.22</ele>
        <time>2026-07-26T05:52:04Z</time>
      </trkpt>
      <trkpt lat="13.805466" lon="109.138702">
        <ele>998.22</ele>
        <time>2026-07-26T05:52:04Z</time>
      </trkpt>
      <trkpt lat="13.807846" lon="109.138039">
        <ele>990.6</ele>
        <time>2026-07-26T05:52:04Z</time>
      </trkpt>
      <trkpt lat="13.809675" lon="109.137413">
        <ele>982.98</ele>
        <time>2026-07-26T05:52:04Z</time>
      </trkpt>
      <trkpt lat="13.811188" lon="109.13681">
        <ele>982.98</ele>
        <time>2026-07-26T05:52:04Z</time>
      </trkpt>
      <trkpt lat="13.813026" lon="109.136017">
        <ele>967.74</ele>
        <time>2026-07-26T05:52:04Z</time>
      </trkpt>
      <trkpt lat="13.814889" lon="109.135101">
        <ele>960.12</ele>
        <time>2026-07-26T05:52:04Z</time>
      </trkpt>
      <trkpt lat="13.816471" lon="109.134277">
        <ele>952.5</ele>
        <time>2026-07-26T05:52:04Z</time>
      </trkpt>
      <trkpt lat="13.8181" lon="109.1334">
        <ele>944.88</ele>
        <time>2026-07-26T05:52:04Z</time>
      </trkpt>
      <trkpt lat="13.819218" lon="109.132736">
        <ele>937.26</ele>
        <time>2026-07-26T05:52:04Z</time>
      </trkpt>
      <trkpt lat="13.82108" lon="109.131676">
        <ele>929.6400000000001</ele>
        <time>2026-07-26T05:52:04Z</time>
      </trkpt>
      <trkpt lat="13.824618" lon="109.129509">
        <ele>906.7800000000001</ele>
        <time>2026-07-26T05:52:04Z</time>
      </trkpt>
      <trkpt lat="13.826111" lon="109.128571">
        <ele>899.1600000000001</ele>
        <time>2026-07-26T05:52:04Z</time>
      </trkpt>
      <trkpt lat="13.828296" lon="109.127197">
        <ele>891.5400000000001</ele>
        <time>2026-07-26T05:52:04Z</time>
      </trkpt>
      <trkpt lat="13.829459" lon="109.126472">
        <ele>883.9200000000001</ele>
        <time>2026-07-26T05:52:04Z</time>
      </trkpt>
      <trkpt lat="13.831512" lon="109.12516">
        <ele>861.0600000000001</ele>
        <time>2026-07-26T05:52:04Z</time>
      </trkpt>
      <trkpt lat="13.834952" lon="109.12291">
        <ele>830.58</ele>
        <time>2026-07-26T05:52:04Z</time>
      </trkpt>
      <trkpt lat="13.935459" lon="109.05545">
        <ele>182.88</ele>
        <time>2026-07-26T05:52:04Z</time>
      </trkpt>
    </trkseg>
  </trk>
</gpx>