<?xml version="1.0" encoding="UTF-8"?>
<gpx xmlns="http://www.topografix.com/GPX/1/1" xmlns:xsi="http://www.w3.org/2001/XMLSchema-instance" xsi:schemaLocation="http://www.topografix.com/GPX/1/1 http://www.topografix.com/GPX/1/1/gpx.xsd" version="1.1" creator="gpx.py -- https://github.com/tkrajina/gpxpy">
  <metadata>
    <name>KL1936_3d6c0c78</name>
    <time>2025-12-08T16:17:54Z</time>
  </metadata>
  <trk>
    <name>KL1936_3d6c0c78</name>
    <cmt>2025-12-08</cmt>
    <type>Plane</type>
    <trkseg>
      <trkpt lat="46.230045" lon="6.105367">
        <ele>0.0</ele>
        <time>2025-12-08T16:17:54Z</time>
      </trkpt>
      <trkpt lat="46.230194" lon="6.105149">
        <ele>0.0</ele>
        <time>2025-12-08T16:17:54Z</time>
      </trkpt>
      <trkpt lat="46.2304" lon="6.104949">
        <ele>0.0</ele>
        <time>2025-12-08T16:17:54Z</time>
      </trkpt>
      <trkpt lat="46.230621" lon="6.105085">
        <ele>0.0</ele>
        <time>2025-12-08T16:17:54Z</time>
      </trkpt>
      <trkpt lat="46.230778" lon="6.1053">
        <ele>0.0</ele>
        <time>2025-12-08T16:17:54Z</time>
      </trkpt>
      <trkpt lat="46.230713" lon="6.105068">
        <ele>0.0</ele>
        <time>2025-12-08T16:17:54Z</time>
      </trkpt>
      <trkpt lat="46.230747" lon="6.104862">
        <ele>0.0</ele>
        <time>2025-12-08T16:17:54Z</time>
      </trkpt>
      <trkpt lat="46.230854" lon="6.104656">
        <ele>0.0</ele>
        <time>2025-12-08T16:17:54Z</time>
      </trkpt>
      <trkpt lat="46.231075" lon="6.10433">
        <ele>0.0</ele>
        <time>2025-12-08T16:17:54Z</time>
      </trkpt>
      <trkpt lat="46.231297" lon="6.104021">
        <ele>0.0</ele>
        <time>2025-12-08T16:17:54Z</time>
      </trkpt>
      <trkpt lat="46.231434" lon="6.103815">
        <ele>0.0</ele>
        <time>2025-12-08T16:17:54Z</time>
      </trkpt>
      <trkpt lat="46.231586" lon="6.103609">
        <ele>0.0</ele>
        <time>2025-12-08T16:17:54Z</time>
      </trkpt>
      <trkpt lat="46.231682" lon="6.103391">
        <ele>0.0</ele>
        <time>2025-12-08T16:17:54Z</time>
      </trkpt>
      <trkpt lat="46.231678" lon="6.103163">
        <ele>0.0</ele>
        <time>2025-12-08T16:17:54Z</time>
      </trkpt>
      <trkpt lat="46.231609" lon="6.10294">
        <ele>0.0</ele>
        <time>2025-12-08T16:17:54Z</time>
      </trkpt>
      <trkpt lat="46.231499" lon="6.102738">
        <ele>0.0</ele>
        <time>2025-12-08T16:17:54Z</time>
      </trkpt>
      <trkpt lat="46.231396" lon="6.102537">
        <ele>0.0</ele>
        <time>2025-12-08T16:17:54Z</time>
      </trkpt>
      <trkpt lat="46.231236" lon="6.102252">
        <ele>0.0</ele>
        <time>2025-12-08T16:17:54Z</time>
      </trkpt>
      <trkpt lat="46.231087" lon="6.102047">
        <ele>0.0</ele>
        <time>2025-12-08T16:17:54Z</time>
      </trkpt>
      <trkpt lat="46.230865" lon="6.101721">
        <ele>0.0</ele>
        <time>2025-12-08T16:17:54Z</time>
      </trkpt>
      <trkpt lat="46.230804" lon="6.101463">
        <ele>0.0</ele>
        <time>2025-12-08T16:17:54Z</time>
      </trkpt>
      <trkpt lat="46.230858" lon="6.101247">
        <ele>0.0</ele>
        <time>2025-12-08T16:17:54Z</time>
      </trkpt>
      <trkpt lat="46.230961" lon="6.101029">
        <ele>0.0</ele>
        <time>2025-12-08T16:17:54Z</time>
      </trkpt>
      <trkpt lat="46.231178" lon="6.10088">
        <ele>0.0</ele>
        <time>2025-12-08T16:17:54Z</time>
      </trkpt>
      <trkpt lat="46.231434" lon="6.100914">
        <ele>0.0</ele>
        <time>2025-12-08T16:17:54Z</time>
      </trkpt>
      <trkpt lat="46.231762" lon="6.101046">
        <ele>0.0</ele>
        <time>2025-12-08T16:17:54Z</time>
      </trkpt>
      <trkpt lat="46.232018" lon="6.101171">
        <ele>0.0</ele>
        <time>2025-12-08T16:17:54Z</time>
      </trkpt>
      <trkpt lat="46.232265" lon="6.101214">
        <ele>0.0</ele>
        <time>2025-12-08T16:17:54Z</time>
      </trkpt>
      <trkpt lat="46.232483" lon="6.101046">
        <ele>0.0</ele>
        <time>2025-12-08T16:17:54Z</time>
      </trkpt>
      <trkpt lat="46.232704" lon="6.101051">
        <ele>0.0</ele>
        <time>2025-12-08T16:17:54Z</time>
      </trkpt>
      <trkpt lat="46.232838" lon="6.101264">
        <ele>0.0</ele>
        <time>2025-12-08T16:17:54Z</time>
      </trkpt>
      <trkpt lat="46.233021" lon="6.101549">
        <ele>0.0</ele>
        <time>2025-12-08T16:17:54Z</time>
      </trkpt>
      <trkpt lat="46.233238" lon="6.101892">
        <ele>0.0</ele>
        <time>2025-12-08T16:17:54Z</time>
      </trkpt>
      <trkpt lat="46.233547" lon="6.102336">
        <ele>0.0</ele>
        <time>2025-12-08T16:17:54Z</time>
      </trkpt>
      <trkpt lat="46.233727" lon="6.102579">
        <ele>0.0</ele>
        <time>2025-12-08T16:17:54Z</time>
      </trkpt>
      <trkpt lat="46.233879" lon="6.102821">
        <ele>0.0</ele>
        <time>2025-12-08T16:17:54Z</time>
      </trkpt>
      <trkpt lat="46.234066" lon="6.103094">
        <ele>0.0</ele>
        <time>2025-12-08T16:17:54Z</time>
      </trkpt>
      <trkpt lat="46.234371" lon="6.103542">
        <ele>0.0</ele>
        <time>2025-12-08T16:17:54Z</time>
      </trkpt>
      <trkpt lat="46.2346" lon="6.103884">
        <ele>0.0</ele>
        <time>2025-12-08T16:17:54Z</time>
      </trkpt>
      <trkpt lat="46.234867" lon="6.104279">
        <ele>0.0</ele>
        <time>2025-12-08T16:17:54Z</time>
      </trkpt>
      <trkpt lat="46.237106" lon="6.107528">
        <ele>358.14000000000004</ele>
        <time>2025-12-08T16:17:54Z</time>
      </trkpt>
      <trkpt lat="46.239395" lon="6.110944">
        <ele>358.14000000000004</ele>
        <time>2025-12-08T16:17:54Z</time>
      </trkpt>
      <trkpt lat="46.243469" lon="6.116973">
        <ele>365.76</ele>
        <time>2025-12-08T16:17:54Z</time>
      </trkpt>
      <trkpt lat="46.246902" lon="6.122131">
        <ele>419.1</ele>
        <time>2025-12-08T16:17:54Z</time>
      </trkpt>
      <trkpt lat="46.249969" lon="6.126821">
        <ele>495.3</ele>
        <time>2025-12-08T16:17:54Z</time>
      </trkpt>
      <trkpt lat="46.254089" lon="6.132984">
        <ele>601.98</ele>
        <time>2025-12-08T16:17:54Z</time>
      </trkpt>
      <trkpt lat="46.258121" lon="6.139023">
        <ele>693.4200000000001</ele>
        <time>2025-12-08T16:17:54Z</time>
      </trkpt>
      <trkpt lat="46.26231" lon="6.145546">
        <ele>792.48</ele>
        <time>2025-12-08T16:17:54Z</time>
      </trkpt>
      <trkpt lat="46.265396" lon="6.1502">
        <ele>861.0600000000001</ele>
        <time>2025-12-08T16:17:54Z</time>
      </trkpt>
      <trkpt lat="46.269653" lon="6.15643">
        <ele>982.98</ele>
        <time>2025-12-08T16:17:54Z</time>
      </trkpt>
      <trkpt lat="46.273819" lon="6.162325">
        <ele>1112.52</ele>
        <time>2025-12-08T16:17:54Z</time>
      </trkpt>
      <trkpt lat="46.276928" lon="6.166626">
        <ele>1196.3400000000001</ele>
        <time>2025-12-08T16:17:54Z</time>
      </trkpt>
      <trkpt lat="46.281162" lon="6.1726">
        <ele>1303.02</ele>
        <time>2025-12-08T16:17:54Z</time>
      </trkpt>
      <trkpt lat="46.2854" lon="6.178872">
        <ele>1402.0800000000002</ele>
        <time>2025-12-08T16:17:54Z</time>
      </trkpt>
      <trkpt lat="46.288891" lon="6.183998">
        <ele>1478.28</ele>
        <time>2025-12-08T16:17:54Z</time>
      </trkpt>
      <trkpt lat="46.29332" lon="6.190595">
        <ele>1569.72</ele>
        <time>2025-12-08T16:17:54Z</time>
      </trkpt>
      <trkpt lat="46.300995" lon="6.20192">
        <ele>1645.92</ele>
        <time>2025-12-08T16:17:54Z</time>
      </trkpt>
      <trkpt lat="46.30933" lon="6.214417">
        <ele>1714.5</ele>
        <time>2025-12-08T16:17:54Z</time>
      </trkpt>
      <trkpt lat="46.320831" lon="6.231593">
        <ele>1836.42</ele>
        <time>2025-12-08T16:17:54Z</time>
      </trkpt>
      <trkpt lat="46.333694" lon="6.25035">
        <ele>1973.5800000000002</ele>
        <time>2025-12-08T16:17:54Z</time>
      </trkpt>
      <trkpt lat="46.340286" lon="6.25792">
        <ele>2087.88</ele>
        <time>2025-12-08T16:17:54Z</time>
      </trkpt>
      <trkpt lat="46.342937" lon="6.26001">
        <ele>2125.98</ele>
        <time>2025-12-08T16:17:54Z</time>
      </trkpt>
      <trkpt lat="46.345173" lon="6.261658">
        <ele>2164.08</ele>
        <time>2025-12-08T16:17:54Z</time>
      </trkpt>
      <trkpt lat="46.348206" lon="6.263279">
        <ele>2217.42</ele>
        <time>2025-12-08T16:17:54Z</time>
      </trkpt>
      <trkpt lat="46.350998" lon="6.264485">
        <ele>2263.1400000000003</ele>
        <time>2025-12-08T16:17:54Z</time>
      </trkpt>
      <trkpt lat="46.353561" lon="6.265222">
        <ele>2308.86</ele>
        <time>2025-12-08T16:17:54Z</time>
      </trkpt>
      <trkpt lat="46.356159" lon="6.265778">
        <ele>2354.58</ele>
        <time>2025-12-08T16:17:54Z</time>
      </trkpt>
      <trkpt lat="46.359146" lon="6.26616">
        <ele>2407.92</ele>
        <time>2025-12-08T16:17:54Z</time>
      </trkpt>
      <trkpt lat="46.361618" lon="6.266294">
        <ele>2453.6400000000003</ele>
        <time>2025-12-08T16:17:54Z</time>
      </trkpt>
      <trkpt lat="46.364353" lon="6.266327">
        <ele>2499.36</ele>
        <time>2025-12-08T16:17:54Z</time>
      </trkpt>
      <trkpt lat="46.367146" lon="6.26619">
        <ele>2552.7000000000003</ele>
        <time>2025-12-08T16:17:54Z</time>
      </trkpt>
      <trkpt lat="46.369705" lon="6.266121">
        <ele>2590.8</ele>
        <time>2025-12-08T16:17:54Z</time>
      </trkpt>
      <trkpt lat="46.372284" lon="6.266026">
        <ele>2636.52</ele>
        <time>2025-12-08T16:17:54Z</time>
      </trkpt>
      <trkpt lat="46.37534" lon="6.265984">
        <ele>2674.6200000000003</ele>
        <time>2025-12-08T16:17:54Z</time>
      </trkpt>
      <trkpt lat="46.378647" lon="6.265958">
        <ele>2720.34</ele>
        <time>2025-12-08T16:17:54Z</time>
      </trkpt>
      <trkpt lat="46.381485" lon="6.265915">
        <ele>2758.44</ele>
        <time>2025-12-08T16:17:54Z</time>
      </trkpt>
      <trkpt lat="46.384186" lon="6.265958">
        <ele>2796.54</ele>
        <time>2025-12-08T16:17:54Z</time>
      </trkpt>
      <trkpt lat="46.386978" lon="6.266026">
        <ele>2842.26</ele>
        <time>2025-12-08T16:17:54Z</time>
      </trkpt>
      <trkpt lat="46.389584" lon="6.266121">
        <ele>2872.7400000000002</ele>
        <time>2025-12-08T16:17:54Z</time>
      </trkpt>
      <trkpt lat="46.392426" lon="6.266226">
        <ele>2910.84</ele>
        <time>2025-12-08T16:17:54Z</time>
      </trkpt>
      <trkpt lat="46.395218" lon="6.266294">
        <ele>2948.94</ele>
        <time>2025-12-08T16:17:54Z</time>
      </trkpt>
      <trkpt lat="46.397781" lon="6.266428">
        <ele>2987.04</ele>
        <time>2025-12-08T16:17:54Z</time>
      </trkpt>
      <trkpt lat="46.418106" lon="6.266294">
        <ele>3253.7400000000002</ele>
        <time>2025-12-08T16:17:54Z</time>
      </trkpt>
      <trkpt lat="46.423645" lon="6.26549">
        <ele>3337.56</ele>
        <time>2025-12-08T16:17:54Z</time>
      </trkpt>
      <trkpt lat="46.426529" lon="6.264887">
        <ele>3383.28</ele>
        <time>2025-12-08T16:17:54Z</time>
      </trkpt>
      <trkpt lat="46.429321" lon="6.264217">
        <ele>3429.0</ele>
        <time>2025-12-08T16:17:54Z</time>
      </trkpt>
      <trkpt lat="46.432133" lon="6.263512">
        <ele>3474.7200000000003</ele>
        <time>2025-12-08T16:17:54Z</time>
      </trkpt>
      <trkpt lat="46.435501" lon="6.262542">
        <ele>3528.0600000000004</ele>
        <time>2025-12-08T16:17:54Z</time>
      </trkpt>
      <trkpt lat="46.438137" lon="6.261658">
        <ele>3566.1600000000003</ele>
        <time>2025-12-08T16:17:54Z</time>
      </trkpt>
      <trkpt lat="46.441303" lon="6.26049">
        <ele>3619.5</ele>
        <time>2025-12-08T16:17:54Z</time>
      </trkpt>
      <trkpt lat="46.443878" lon="6.25946">
        <ele>3665.2200000000003</ele>
        <time>2025-12-08T16:17:54Z</time>
      </trkpt>
      <trkpt lat="46.446426" lon="6.25843">
        <ele>3695.7000000000003</ele>
        <time>2025-12-08T16:17:54Z</time>
      </trkpt>
      <trkpt lat="46.449776" lon="6.256989">
        <ele>3741.42</ele>
        <time>2025-12-08T16:17:54Z</time>
      </trkpt>
      <trkpt lat="46.452477" lon="6.255821">
        <ele>3764.28</ele>
        <time>2025-12-08T16:17:54Z</time>
      </trkpt>
      <trkpt lat="46.455185" lon="6.254637">
        <ele>3779.52</ele>
        <time>2025-12-08T16:17:54Z</time>
      </trkpt>
      <trkpt lat="46.45797" lon="6.253418">
        <ele>3802.38</ele>
        <time>2025-12-08T16:17:54Z</time>
      </trkpt>
      <trkpt lat="46.461227" lon="6.251957">
        <ele>3810.0</ele>
        <time>2025-12-08T16:17:54Z</time>
      </trkpt>
      <trkpt lat="46.463322" lon="6.251083">
        <ele>3817.6200000000003</ele>
        <time>2025-12-08T16:17:54Z</time>
      </trkpt>
      <trkpt lat="46.466995" lon="6.249412">
        <ele>3832.86</ele>
        <time>2025-12-08T16:17:54Z</time>
      </trkpt>
      <trkpt lat="46.515335" lon="6.228109">
        <ele>3970.02</ele>
        <time>2025-12-08T16:17:54Z</time>
      </trkpt>
      <trkpt lat="46.570206" lon="6.204391">
        <ele>4290.06</ele>
        <time>2025-12-08T16:17:54Z</time>
      </trkpt>
      <trkpt lat="46.627605" lon="6.179947">
        <ele>4709.16</ele>
        <time>2025-12-08T16:17:54Z</time>
      </trkpt>
      <trkpt lat="46.686493" lon="6.155358">
        <ele>5189.22</ele>
        <time>2025-12-08T16:17:54Z</time>
      </trkpt>
      <trkpt lat="46.72448" lon="6.145889">
        <ele>5478.780000000001</ele>
        <time>2025-12-08T16:17:54Z</time>
      </trkpt>
      <trkpt lat="46.727554" lon="6.145477">
        <ele>5494.02</ele>
        <time>2025-12-08T16:17:54Z</time>
      </trkpt>
      <trkpt lat="46.731949" lon="6.144908">
        <ele>5524.5</ele>
        <time>2025-12-08T16:17:54Z</time>
      </trkpt>
      <trkpt lat="46.736164" lon="6.144447">
        <ele>5554.9800000000005</ele>
        <time>2025-12-08T16:17:54Z</time>
      </trkpt>
      <trkpt lat="46.741425" lon="6.144035">
        <ele>5600.700000000001</ele>
        <time>2025-12-08T16:17:54Z</time>
      </trkpt>
      <trkpt lat="46.745384" lon="6.143761">
        <ele>5631.18</ele>
        <time>2025-12-08T16:17:54Z</time>
      </trkpt>
      <trkpt lat="46.749481" lon="6.143623">
        <ele>5661.66</ele>
        <time>2025-12-08T16:17:54Z</time>
      </trkpt>
      <trkpt lat="46.753761" lon="6.143417">
        <ele>5692.14</ele>
        <time>2025-12-08T16:17:54Z</time>
      </trkpt>
      <trkpt lat="46.758408" lon="6.143233">
        <ele>5730.240000000001</ele>
        <time>2025-12-08T16:17:54Z</time>
      </trkpt>
      <trkpt lat="46.821823" lon="6.140396">
        <ele>6248.400000000001</ele>
        <time>2025-12-08T16:17:54Z</time>
      </trkpt>
      <trkpt lat="46.885437" lon="6.137375">
        <ele>6743.700000000001</ele>
        <time>2025-12-08T16:17:54Z</time>
      </trkpt>
      <trkpt lat="46.949066" lon="6.133873">
        <ele>7086.6</ele>
        <time>2025-12-08T16:17:54Z</time>
      </trkpt>
      <trkpt lat="47.014828" lon="6.13016">
        <ele>7376.160000000001</ele>
        <time>2025-12-08T16:17:54Z</time>
      </trkpt>
      <trkpt lat="47.081722" lon="6.126357">
        <ele>7673.34</ele>
        <time>2025-12-08T16:17:54Z</time>
      </trkpt>
      <trkpt lat="47.152248" lon="6.122483">
        <ele>8039.1</ele>
        <time>2025-12-08T16:17:54Z</time>
      </trkpt>
      <trkpt lat="47.220062" lon="6.118973">
        <ele>8542.02</ele>
        <time>2025-12-08T16:17:54Z</time>
      </trkpt>
      <trkpt lat="47.285294" lon="6.115883">
        <ele>8976.36</ele>
        <time>2025-12-08T16:17:54Z</time>
      </trkpt>
      <trkpt lat="47.351818" lon="6.112412">
        <ele>9319.26</ele>
        <time>2025-12-08T16:17:54Z</time>
      </trkpt>
      <trkpt lat="47.417038" lon="6.108962">
        <ele>9624.060000000001</ele>
        <time>2025-12-08T16:17:54Z</time>
      </trkpt>
      <trkpt lat="47.483982" lon="6.105229">
        <ele>9913.62</ele>
        <time>2025-12-08T16:17:54Z</time>
      </trkpt>
      <trkpt lat="47.549332" lon="6.101532">
        <ele>10248.9</ele>
        <time>2025-12-08T16:17:54Z</time>
      </trkpt>
      <trkpt lat="47.614883" lon="6.097961">
        <ele>10645.140000000001</ele>
        <time>2025-12-08T16:17:54Z</time>
      </trkpt>
      <trkpt lat="47.67992" lon="6.094454">
        <ele>10980.42</ele>
        <time>2025-12-08T16:17:54Z</time>
      </trkpt>
      <trkpt lat="47.743927" lon="6.090722">
        <ele>11224.26</ele>
        <time>2025-12-08T16:17:54Z</time>
      </trkpt>
      <trkpt lat="47.809986" lon="6.091215">
        <ele>11399.52</ele>
        <time>2025-12-08T16:17:54Z</time>
      </trkpt>
      <trkpt lat="47.876648" lon="6.092341">
        <ele>11582.400000000001</ele>
        <time>2025-12-08T16:17:54Z</time>
      </trkpt>
      <trkpt lat="47.943779" lon="6.093468">
        <ele>11780.52</ele>
        <time>2025-12-08T16:17:54Z</time>
      </trkpt>
      <trkpt lat="48.011307" lon="6.09446">
        <ele>12024.36</ele>
        <time>2025-12-08T16:17:54Z</time>
      </trkpt>
      <trkpt lat="48.077042" lon="6.095215">
        <ele>12192.0</ele>
        <time>2025-12-08T16:17:54Z</time>
      </trkpt>
      <trkpt lat="48.142731" lon="6.09597">
        <ele>12192.0</ele>
        <time>2025-12-08T16:17:54Z</time>
      </trkpt>
      <trkpt lat="48.20993" lon="6.09706">
        <ele>12192.0</ele>
        <time>2025-12-08T16:17:54Z</time>
      </trkpt>
      <trkpt lat="48.275757" lon="6.098116">
        <ele>12192.0</ele>
        <time>2025-12-08T16:17:54Z</time>
      </trkpt>
      <trkpt lat="48.341125" lon="6.099173">
        <ele>12192.0</ele>
        <time>2025-12-08T16:17:54Z</time>
      </trkpt>
      <trkpt lat="48.406494" lon="6.100159">
        <ele>12192.0</ele>
        <time>2025-12-08T16:17:54Z</time>
      </trkpt>
      <trkpt lat="48.471493" lon="6.100665">
        <ele>12192.0</ele>
        <time>2025-12-08T16:17:54Z</time>
      </trkpt>
      <trkpt lat="48.536682" lon="6.101356">
        <ele>12192.0</ele>
        <time>2025-12-08T16:17:54Z</time>
      </trkpt>
      <trkpt lat="48.596558" lon="6.094947">
        <ele>12192.0</ele>
        <time>2025-12-08T16:17:54Z</time>
      </trkpt>
      <trkpt lat="48.600403" lon="6.093679">
        <ele>12192.0</ele>
        <time>2025-12-08T16:17:54Z</time>
      </trkpt>
      <trkpt lat="48.604355" lon="6.09228">
        <ele>12192.0</ele>
        <time>2025-12-08T16:17:54Z</time>
      </trkpt>
      <trkpt lat="48.608459" lon="6.090722">
        <ele>12192.0</ele>
        <time>2025-12-08T16:17:54Z</time>
      </trkpt>
      <trkpt lat="48.612732" lon="6.088955">
        <ele>12192.0</ele>
        <time>2025-12-08T16:17:54Z</time>
      </trkpt>
      <trkpt lat="48.616699" lon="6.087201">
        <ele>12192.0</ele>
        <time>2025-12-08T16:17:54Z</time>
      </trkpt>
      <trkpt lat="48.620636" lon="6.08537">
        <ele>12192.0</ele>
        <time>2025-12-08T16:17:54Z</time>
      </trkpt>
      <trkpt lat="48.624619" lon="6.083397">
        <ele>12192.0</ele>
        <time>2025-12-08T16:17:54Z</time>
      </trkpt>
      <trkpt lat="48.628281" lon="6.081426">
        <ele>12192.0</ele>
        <time>2025-12-08T16:17:54Z</time>
      </trkpt>
      <trkpt lat="48.633041" lon="6.07882">
        <ele>12192.0</ele>
        <time>2025-12-08T16:17:54Z</time>
      </trkpt>
      <trkpt lat="48.636383" lon="6.076813">
        <ele>12192.0</ele>
        <time>2025-12-08T16:17:54Z</time>
      </trkpt>
      <trkpt lat="48.639816" lon="6.074735">
        <ele>12192.0</ele>
        <time>2025-12-08T16:17:54Z</time>
      </trkpt>
      <trkpt lat="48.644165" lon="6.071918">
        <ele>12192.0</ele>
        <time>2025-12-08T16:17:54Z</time>
      </trkpt>
      <trkpt lat="48.647648" lon="6.069585">
        <ele>12192.0</ele>
        <time>2025-12-08T16:17:54Z</time>
      </trkpt>
      <trkpt lat="48.651512" lon="6.066983">
        <ele>12192.0</ele>
        <time>2025-12-08T16:17:54Z</time>
      </trkpt>
      <trkpt lat="48.655094" lon="6.064526">
        <ele>12192.0</ele>
        <time>2025-12-08T16:17:54Z</time>
      </trkpt>
      <trkpt lat="48.658676" lon="6.062058">
        <ele>12192.0</ele>
        <time>2025-12-08T16:17:54Z</time>
      </trkpt>
      <trkpt lat="48.662777" lon="6.059321">
        <ele>12192.0</ele>
        <time>2025-12-08T16:17:54Z</time>
      </trkpt>
      <trkpt lat="48.718826" lon="6.022128">
        <ele>12192.0</ele>
        <time>2025-12-08T16:17:54Z</time>
      </trkpt>
      <trkpt lat="48.775478" lon="5.985308">
        <ele>12192.0</ele>
        <time>2025-12-08T16:17:54Z</time>
      </trkpt>
      <trkpt lat="48.832367" lon="5.948808">
        <ele>12192.0</ele>
        <time>2025-12-08T16:17:54Z</time>
      </trkpt>
      <trkpt lat="48.886925" lon="5.913464">
        <ele>12192.0</ele>
        <time>2025-12-08T16:17:54Z</time>
      </trkpt>
      <trkpt lat="48.94249" lon="5.877263">
        <ele>12192.0</ele>
        <time>2025-12-08T16:17:54Z</time>
      </trkpt>
      <trkpt lat="48.99852" lon="5.840642">
        <ele>12192.0</ele>
        <time>2025-12-08T16:17:54Z</time>
      </trkpt>
      <trkpt lat="49.054321" lon="5.804303">
        <ele>12192.0</ele>
        <time>2025-12-08T16:17:54Z</time>
      </trkpt>
      <trkpt lat="49.110352" lon="5.76754">
        <ele>12192.0</ele>
        <time>2025-12-08T16:17:54Z</time>
      </trkpt>
      <trkpt lat="49.166939" lon="5.730382">
        <ele>12199.62</ele>
        <time>2025-12-08T16:17:54Z</time>
      </trkpt>
      <trkpt lat="49.222336" lon="5.693592">
        <ele>12192.0</ele>
        <time>2025-12-08T16:17:54Z</time>
      </trkpt>
      <trkpt lat="49.278397" lon="5.655705">
        <ele>12192.0</ele>
        <time>2025-12-08T16:17:54Z</time>
      </trkpt>
      <trkpt lat="49.334526" lon="5.618423">
        <ele>12192.0</ele>
        <time>2025-12-08T16:17:54Z</time>
      </trkpt>
      <trkpt lat="49.389877" lon="5.581633">
        <ele>12192.0</ele>
        <time>2025-12-08T16:17:54Z</time>
      </trkpt>
      <trkpt lat="49.445892" lon="5.544409">
        <ele>12192.0</ele>
        <time>2025-12-08T16:17:54Z</time>
      </trkpt>
      <trkpt lat="49.502113" lon="5.506897">
        <ele>12192.0</ele>
        <time>2025-12-08T16:17:54Z</time>
      </trkpt>
      <trkpt lat="49.558907" lon="5.468668">
        <ele>12192.0</ele>
        <time>2025-12-08T16:17:54Z</time>
      </trkpt>
      <trkpt lat="49.614624" lon="5.430933">
        <ele>12192.0</ele>
        <time>2025-12-08T16:17:54Z</time>
      </trkpt>
      <trkpt lat="49.669418" lon="5.393926">
        <ele>12192.0</ele>
        <time>2025-12-08T16:17:54Z</time>
      </trkpt>
      <trkpt lat="49.726456" lon="5.355979">
        <ele>12192.0</ele>
        <time>2025-12-08T16:17:54Z</time>
      </trkpt>
      <trkpt lat="49.782265" lon="5.318199">
        <ele>12192.0</ele>
        <time>2025-12-08T16:17:54Z</time>
      </trkpt>
      <trkpt lat="49.839569" lon="5.279153">
        <ele>12192.0</ele>
        <time>2025-12-08T16:17:54Z</time>
      </trkpt>
      <trkpt lat="49.894913" lon="5.24149">
        <ele>12047.220000000001</ele>
        <time>2025-12-08T16:17:54Z</time>
      </trkpt>
      <trkpt lat="49.94989" lon="5.203906">
        <ele>11795.76</ele>
        <time>2025-12-08T16:17:54Z</time>
      </trkpt>
      <trkpt lat="50.007252" lon="5.164613">
        <ele>11582.400000000001</ele>
        <time>2025-12-08T16:17:54Z</time>
      </trkpt>
      <trkpt lat="50.063507" lon="5.126062">
        <ele>11361.42</ele>
        <time>2025-12-08T16:17:54Z</time>
      </trkpt>
      <trkpt lat="50.115021" lon="5.092163">
        <ele>11170.92</ele>
        <time>2025-12-08T16:17:54Z</time>
      </trkpt>
      <trkpt lat="50.165436" lon="5.05668">
        <ele>10660.380000000001</ele>
        <time>2025-12-08T16:17:54Z</time>
      </trkpt>
      <trkpt lat="50.216316" lon="5.019416">
        <ele>10096.5</ele>
        <time>2025-12-08T16:17:54Z</time>
      </trkpt>
      <trkpt lat="50.269199" lon="4.982522">
        <ele>9791.7</ele>
        <time>2025-12-08T16:17:54Z</time>
      </trkpt>
      <trkpt lat="50.325809" lon="4.943699">
        <ele>9753.6</ele>
        <time>2025-12-08T16:17:54Z</time>
      </trkpt>
      <trkpt lat="50.382477" lon="4.904673">
        <ele>9753.6</ele>
        <time>2025-12-08T16:17:54Z</time>
      </trkpt>
      <trkpt lat="50.438324" lon="4.865978">
        <ele>9669.78</ele>
        <time>2025-12-08T16:17:54Z</time>
      </trkpt>
      <trkpt lat="50.494373" lon="4.826932">
        <ele>9464.04</ele>
        <time>2025-12-08T16:17:54Z</time>
      </trkpt>
      <trkpt lat="50.553497" lon="4.785437">
        <ele>9189.720000000001</ele>
        <time>2025-12-08T16:17:54Z</time>
      </trkpt>
      <trkpt lat="50.610291" lon="4.745351">
        <ele>8930.640000000001</ele>
        <time>2025-12-08T16:17:54Z</time>
      </trkpt>
      <trkpt lat="50.667038" lon="4.705266">
        <ele>8679.18</ele>
        <time>2025-12-08T16:17:54Z</time>
      </trkpt>
      <trkpt lat="50.726028" lon="4.66236">
        <ele>8481.060000000001</ele>
        <time>2025-12-08T16:17:54Z</time>
      </trkpt>
      <trkpt lat="50.783707" lon="4.621087">
        <ele>8244.84</ele>
        <time>2025-12-08T16:17:54Z</time>
      </trkpt>
      <trkpt lat="50.843903" lon="4.578404">
        <ele>7985.76</ele>
        <time>2025-12-08T16:17:54Z</time>
      </trkpt>
      <trkpt lat="50.893204" lon="4.536983">
        <ele>7749.54</ele>
        <time>2025-12-08T16:17:54Z</time>
      </trkpt>
      <trkpt lat="50.89682" lon="4.532852">
        <ele>7734.3</ele>
        <time>2025-12-08T16:17:54Z</time>
      </trkpt>
      <trkpt lat="50.90007" lon="4.528891">
        <ele>7719.06</ele>
        <time>2025-12-08T16:17:54Z</time>
      </trkpt>
      <trkpt lat="50.903366" lon="4.52466">
        <ele>7696.200000000001</ele>
        <time>2025-12-08T16:17:54Z</time>
      </trkpt>
      <trkpt lat="50.906734" lon="4.520264">
        <ele>7680.96</ele>
        <time>2025-12-08T16:17:54Z</time>
      </trkpt>
      <trkpt lat="50.909622" lon="4.516296">
        <ele>7665.72</ele>
        <time>2025-12-08T16:17:54Z</time>
      </trkpt>
      <trkpt lat="50.912704" lon="4.511892">
        <ele>7642.860000000001</ele>
        <time>2025-12-08T16:17:54Z</time>
      </trkpt>
      <trkpt lat="50.91568" lon="4.507364">
        <ele>7627.620000000001</ele>
        <time>2025-12-08T16:17:54Z</time>
      </trkpt>
      <trkpt lat="50.918289" lon="4.503356">
        <ele>7604.76</ele>
        <time>2025-12-08T16:17:54Z</time>
      </trkpt>
      <trkpt lat="50.921448" lon="4.498159">
        <ele>7589.52</ele>
        <time>2025-12-08T16:17:54Z</time>
      </trkpt>
      <trkpt lat="50.924099" lon="4.493713">
        <ele>7566.660000000001</ele>
        <time>2025-12-08T16:17:54Z</time>
      </trkpt>
      <trkpt lat="50.926704" lon="4.489059">
        <ele>7551.42</ele>
        <time>2025-12-08T16:17:54Z</time>
      </trkpt>
      <trkpt lat="50.929504" lon="4.483981">
        <ele>7528.56</ele>
        <time>2025-12-08T16:17:54Z</time>
      </trkpt>
      <trkpt lat="50.931778" lon="4.479599">
        <ele>7513.320000000001</ele>
        <time>2025-12-08T16:17:54Z</time>
      </trkpt>
      <trkpt lat="50.934807" lon="4.473648">
        <ele>7490.46</ele>
        <time>2025-12-08T16:17:54Z</time>
      </trkpt>
      <trkpt lat="50.936993" lon="4.469223">
        <ele>7475.22</ele>
        <time>2025-12-08T16:17:54Z</time>
      </trkpt>
      <trkpt lat="50.939415" lon="4.46434">
        <ele>7459.9800000000005</ele>
        <time>2025-12-08T16:17:54Z</time>
      </trkpt>
      <trkpt lat="50.942001" lon="4.459188">
        <ele>7444.740000000001</ele>
        <time>2025-12-08T16:17:54Z</time>
      </trkpt>
      <trkpt lat="50.944382" lon="4.454362">
        <ele>7421.88</ele>
        <time>2025-12-08T16:17:54Z</time>
      </trkpt>
      <trkpt lat="50.947281" lon="4.448624">
        <ele>7399.02</ele>
        <time>2025-12-08T16:17:54Z</time>
      </trkpt>
      <trkpt lat="50.949516" lon="4.444122">
        <ele>7383.780000000001</ele>
        <time>2025-12-08T16:17:54Z</time>
      </trkpt>
      <trkpt lat="50.986679" lon="4.369664">
        <ele>7101.84</ele>
        <time>2025-12-08T16:17:54Z</time>
      </trkpt>
      <trkpt lat="51.024185" lon="4.294891">
        <ele>6812.280000000001</ele>
        <time>2025-12-08T16:17:54Z</time>
      </trkpt>
      <trkpt lat="51.059425" lon="4.224854">
        <ele>6515.1</ele>
        <time>2025-12-08T16:17:54Z</time>
      </trkpt>
      <trkpt lat="51.092468" lon="4.158993">
        <ele>6233.160000000001</ele>
        <time>2025-12-08T16:17:54Z</time>
      </trkpt>
      <trkpt lat="51.12355" lon="4.097529">
        <ele>5981.700000000001</ele>
        <time>2025-12-08T16:17:54Z</time>
      </trkpt>
      <trkpt lat="51.154495" lon="4.035174">
        <ele>5821.68</ele>
        <time>2025-12-08T16:17:54Z</time>
      </trkpt>
      <trkpt lat="51.184937" lon="3.97282">
        <ele>5654.04</ele>
        <time>2025-12-08T16:17:54Z</time>
      </trkpt>
      <trkpt lat="51.215057" lon="3.912617">
        <ele>5501.64</ele>
        <time>2025-12-08T16:17:54Z</time>
      </trkpt>
      <trkpt lat="51.220219" lon="3.9048">
        <ele>5471.16</ele>
        <time>2025-12-08T16:17:54Z</time>
      </trkpt>
      <trkpt lat="51.222473" lon="3.90178">
        <ele>5463.54</ele>
        <time>2025-12-08T16:17:54Z</time>
      </trkpt>
      <trkpt lat="51.22506" lon="3.898621">
        <ele>5455.92</ele>
        <time>2025-12-08T16:17:54Z</time>
      </trkpt>
      <trkpt lat="51.227711" lon="3.895416">
        <ele>5440.68</ele>
        <time>2025-12-08T16:17:54Z</time>
      </trkpt>
      <trkpt lat="51.230621" lon="3.892278">
        <ele>5433.06</ele>
        <time>2025-12-08T16:17:54Z</time>
      </trkpt>
      <trkpt lat="51.233185" lon="3.889754">
        <ele>5425.4400000000005</ele>
        <time>2025-12-08T16:17:54Z</time>
      </trkpt>
      <trkpt lat="51.236893" lon="3.886414">
        <ele>5410.2</ele>
        <time>2025-12-08T16:17:54Z</time>
      </trkpt>
      <trkpt lat="51.239136" lon="3.884409">
        <ele>5402.58</ele>
        <time>2025-12-08T16:17:54Z</time>
      </trkpt>
      <trkpt lat="51.243027" lon="3.88144">
        <ele>5387.34</ele>
        <time>2025-12-08T16:17:54Z</time>
      </trkpt>
      <trkpt lat="51.246147" lon="3.879242">
        <ele>5379.72</ele>
        <time>2025-12-08T16:17:54Z</time>
      </trkpt>
      <trkpt lat="51.249031" lon="3.877487">
        <ele>5372.1</ele>
        <time>2025-12-08T16:17:54Z</time>
      </trkpt>
      <trkpt lat="51.252712" lon="3.875351">
        <ele>5356.860000000001</ele>
        <time>2025-12-08T16:17:54Z</time>
      </trkpt>
      <trkpt lat="51.256107" lon="3.873672">
        <ele>5349.240000000001</ele>
        <time>2025-12-08T16:17:54Z</time>
      </trkpt>
      <trkpt lat="51.259277" lon="3.872309">
        <ele>5334.0</ele>
        <time>2025-12-08T16:17:54Z</time>
      </trkpt>
      <trkpt lat="51.262802" lon="3.870973">
        <ele>5326.38</ele>
        <time>2025-12-08T16:17:54Z</time>
      </trkpt>
      <trkpt lat="51.266117" lon="3.869934">
        <ele>5318.76</ele>
        <time>2025-12-08T16:17:54Z</time>
      </trkpt>
      <trkpt lat="51.269714" lon="3.869043">
        <ele>5303.52</ele>
        <time>2025-12-08T16:17:54Z</time>
      </trkpt>
      <trkpt lat="51.27338" lon="3.868332">
        <ele>5295.900000000001</ele>
        <time>2025-12-08T16:17:54Z</time>
      </trkpt>
      <trkpt lat="51.276443" lon="3.86793">
        <ele>5288.280000000001</ele>
        <time>2025-12-08T16:17:54Z</time>
      </trkpt>
      <trkpt lat="51.280178" lon="3.867645">
        <ele>5280.66</ele>
        <time>2025-12-08T16:17:54Z</time>
      </trkpt>
      <trkpt lat="51.283714" lon="3.867493">
        <ele>5265.42</ele>
        <time>2025-12-08T16:17:54Z</time>
      </trkpt>
      <trkpt lat="51.28743" lon="3.867484">
        <ele>5257.8</ele>
        <time>2025-12-08T16:17:54Z</time>
      </trkpt>
      <trkpt lat="51.291046" lon="3.867484">
        <ele>5250.18</ele>
        <time>2025-12-08T16:17:54Z</time>
      </trkpt>
      <trkpt lat="51.295303" lon="3.867484">
        <ele>5234.9400000000005</ele>
        <time>2025-12-08T16:17:54Z</time>
      </trkpt>
      <trkpt lat="51.298752" lon="3.867493">
        <ele>5227.320000000001</ele>
        <time>2025-12-08T16:17:54Z</time>
      </trkpt>
      <trkpt lat="51.30217" lon="3.867559">
        <ele>5219.7</ele>
        <time>2025-12-08T16:17:54Z</time>
      </trkpt>
      <trkpt lat="51.305874" lon="3.867569">
        <ele>5204.46</ele>
        <time>2025-12-08T16:17:54Z</time>
      </trkpt>
      <trkpt lat="51.309273" lon="3.867569">
        <ele>5196.84</ele>
        <time>2025-12-08T16:17:54Z</time>
      </trkpt>
      <trkpt lat="51.312744" lon="3.867559">
        <ele>5181.6</ele>
        <time>2025-12-08T16:17:54Z</time>
      </trkpt>
      <trkpt lat="51.316315" lon="3.867559">
        <ele>5173.9800000000005</ele>
        <time>2025-12-08T16:17:54Z</time>
      </trkpt>
      <trkpt lat="51.320862" lon="3.867493">
        <ele>5158.740000000001</ele>
        <time>2025-12-08T16:17:54Z</time>
      </trkpt>
      <trkpt lat="51.324234" lon="3.867559">
        <ele>5151.12</ele>
        <time>2025-12-08T16:17:54Z</time>
      </trkpt>
      <trkpt lat="51.32766" lon="3.867493">
        <ele>5143.5</ele>
        <time>2025-12-08T16:17:54Z</time>
      </trkpt>
      <trkpt lat="51.331284" lon="3.867484">
        <ele>5128.26</ele>
        <time>2025-12-08T16:17:54Z</time>
      </trkpt>
      <trkpt lat="51.386456" lon="3.86673">
        <ele>4968.240000000001</ele>
        <time>2025-12-08T16:17:54Z</time>
      </trkpt>
      <trkpt lat="51.441055" lon="3.865332">
        <ele>4808.22</ele>
        <time>2025-12-08T16:17:54Z</time>
      </trkpt>
      <trkpt lat="51.495758" lon="3.863907">
        <ele>4640.58</ele>
        <time>2025-12-08T16:17:54Z</time>
      </trkpt>
      <trkpt lat="51.54982" lon="3.862585">
        <ele>4465.320000000001</ele>
        <time>2025-12-08T16:17:54Z</time>
      </trkpt>
      <trkpt lat="51.604477" lon="3.861175">
        <ele>4213.860000000001</ele>
        <time>2025-12-08T16:17:54Z</time>
      </trkpt>
      <trkpt lat="51.632034" lon="3.863847">
        <ele>4091.94</ele>
        <time>2025-12-08T16:17:54Z</time>
      </trkpt>
      <trkpt lat="51.636017" lon="3.865035">
        <ele>4076.7000000000003</ele>
        <time>2025-12-08T16:17:54Z</time>
      </trkpt>
      <trkpt lat="51.63998" lon="3.866119">
        <ele>4053.84</ele>
        <time>2025-12-08T16:17:54Z</time>
      </trkpt>
      <trkpt lat="51.643478" lon="3.867039">
        <ele>4038.6000000000004</ele>
        <time>2025-12-08T16:17:54Z</time>
      </trkpt>
      <trkpt lat="51.647141" lon="3.867856">
        <ele>4023.36</ele>
        <time>2025-12-08T16:17:54Z</time>
      </trkpt>
      <trkpt lat="51.650391" lon="3.868301">
        <ele>4008.1200000000003</ele>
        <time>2025-12-08T16:17:54Z</time>
      </trkpt>
      <trkpt lat="51.653664" lon="3.868561">
        <ele>3992.88</ele>
        <time>2025-12-08T16:17:54Z</time>
      </trkpt>
      <trkpt lat="51.657486" lon="3.868672">
        <ele>3977.6400000000003</ele>
        <time>2025-12-08T16:17:54Z</time>
      </trkpt>
      <trkpt lat="51.660919" lon="3.868672">
        <ele>3962.4</ele>
        <time>2025-12-08T16:17:54Z</time>
      </trkpt>
      <trkpt lat="51.66428" lon="3.868484">
        <ele>3947.1600000000003</ele>
        <time>2025-12-08T16:17:54Z</time>
      </trkpt>
      <trkpt lat="51.667912" lon="3.868332">
        <ele>3931.92</ele>
        <time>2025-12-08T16:17:54Z</time>
      </trkpt>
      <trkpt lat="51.671028" lon="3.868179">
        <ele>3916.6800000000003</ele>
        <time>2025-12-08T16:17:54Z</time>
      </trkpt>
      <trkpt lat="51.674286" lon="3.867856">
        <ele>3901.44</ele>
        <time>2025-12-08T16:17:54Z</time>
      </trkpt>
      <trkpt lat="51.67778" lon="3.867493">
        <ele>3886.2000000000003</ele>
        <time>2025-12-08T16:17:54Z</time>
      </trkpt>
      <trkpt lat="51.681107" lon="3.867113">
        <ele>3863.34</ele>
        <time>2025-12-08T16:17:54Z</time>
      </trkpt>
      <trkpt lat="51.685089" lon="3.866501">
        <ele>3848.1000000000004</ele>
        <time>2025-12-08T16:17:54Z</time>
      </trkpt>
      <trkpt lat="51.688293" lon="3.866074">
        <ele>3832.86</ele>
        <time>2025-12-08T16:17:54Z</time>
      </trkpt>
      <trkpt lat="51.692047" lon="3.865703">
        <ele>3817.6200000000003</ele>
        <time>2025-12-08T16:17:54Z</time>
      </trkpt>
      <trkpt lat="51.69548" lon="3.865554">
        <ele>3802.38</ele>
        <time>2025-12-08T16:17:54Z</time>
      </trkpt>
      <trkpt lat="51.698776" lon="3.865554">
        <ele>3787.1400000000003</ele>
        <time>2025-12-08T16:17:54Z</time>
      </trkpt>
      <trkpt lat="51.702217" lon="3.865814">
        <ele>3771.9</ele>
        <time>2025-12-08T16:17:54Z</time>
      </trkpt>
      <trkpt lat="51.705597" lon="3.866445">
        <ele>3756.6600000000003</ele>
        <time>2025-12-08T16:17:54Z</time>
      </trkpt>
      <trkpt lat="51.708828" lon="3.867035">
        <ele>3741.42</ele>
        <time>2025-12-08T16:17:54Z</time>
      </trkpt>
      <trkpt lat="51.712418" lon="3.868153">
        <ele>3726.1800000000003</ele>
        <time>2025-12-08T16:17:54Z</time>
      </trkpt>
      <trkpt lat="51.71521" lon="3.869117">
        <ele>3710.94</ele>
        <time>2025-12-08T16:17:54Z</time>
      </trkpt>
      <trkpt lat="51.718826" lon="3.870677">
        <ele>3695.7000000000003</ele>
        <time>2025-12-08T16:17:54Z</time>
      </trkpt>
      <trkpt lat="51.722214" lon="3.872384">
        <ele>3680.46</ele>
        <time>2025-12-08T16:17:54Z</time>
      </trkpt>
      <trkpt lat="51.725647" lon="3.874388">
        <ele>3657.6000000000004</ele>
        <time>2025-12-08T16:17:54Z</time>
      </trkpt>
      <trkpt lat="51.729446" lon="3.876838">
        <ele>3642.36</ele>
        <time>2025-12-08T16:17:54Z</time>
      </trkpt>
      <trkpt lat="51.732513" lon="3.879139">
        <ele>3627.1200000000003</ele>
        <time>2025-12-08T16:17:54Z</time>
      </trkpt>
      <trkpt lat="51.735691" lon="3.88176">
        <ele>3611.88</ele>
        <time>2025-12-08T16:17:54Z</time>
      </trkpt>
      <trkpt lat="51.738419" lon="3.884335">
        <ele>3604.26</ele>
        <time>2025-12-08T16:17:54Z</time>
      </trkpt>
      <trkpt lat="51.741531" lon="3.887453">
        <ele>3589.02</ele>
        <time>2025-12-08T16:17:54Z</time>
      </trkpt>
      <trkpt lat="51.74501" lon="3.891387">
        <ele>3581.4</ele>
        <time>2025-12-08T16:17:54Z</time>
      </trkpt>
      <trkpt lat="51.747841" lon="3.894806">
        <ele>3566.1600000000003</ele>
        <time>2025-12-08T16:17:54Z</time>
      </trkpt>
      <trkpt lat="51.750587" lon="3.898544">
        <ele>3558.54</ele>
        <time>2025-12-08T16:17:54Z</time>
      </trkpt>
      <trkpt lat="51.753334" lon="3.902359">
        <ele>3550.92</ele>
        <time>2025-12-08T16:17:54Z</time>
      </trkpt>
      <trkpt lat="51.755661" lon="3.905716">
        <ele>3535.6800000000003</ele>
        <time>2025-12-08T16:17:54Z</time>
      </trkpt>
      <trkpt lat="51.758266" lon="3.909607">
        <ele>3528.0600000000004</ele>
        <time>2025-12-08T16:17:54Z</time>
      </trkpt>
      <trkpt lat="51.760849" lon="3.913434">
        <ele>3520.44</ele>
        <time>2025-12-08T16:17:54Z</time>
      </trkpt>
      <trkpt lat="51.764088" lon="3.918228">
        <ele>3505.2000000000003</ele>
        <time>2025-12-08T16:17:54Z</time>
      </trkpt>
      <trkpt lat="51.766693" lon="3.922043">
        <ele>3497.5800000000004</ele>
        <time>2025-12-08T16:17:54Z</time>
      </trkpt>
      <trkpt lat="51.76918" lon="3.925682">
        <ele>3482.34</ele>
        <time>2025-12-08T16:17:54Z</time>
      </trkpt>
      <trkpt lat="51.77179" lon="3.929468">
        <ele>3474.7200000000003</ele>
        <time>2025-12-08T16:17:54Z</time>
      </trkpt>
      <trkpt lat="51.774513" lon="3.933563">
        <ele>3467.1000000000004</ele>
        <time>2025-12-08T16:17:54Z</time>
      </trkpt>
      <trkpt lat="51.777283" lon="3.937559">
        <ele>3451.86</ele>
        <time>2025-12-08T16:17:54Z</time>
      </trkpt>
      <trkpt lat="51.779892" lon="3.941419">
        <ele>3444.2400000000002</ele>
        <time>2025-12-08T16:17:54Z</time>
      </trkpt>
      <trkpt lat="51.79866" lon="3.969108">
        <ele>3368.04</ele>
        <time>2025-12-08T16:17:54Z</time>
      </trkpt>
      <trkpt lat="51.814911" lon="3.992936">
        <ele>3291.84</ele>
        <time>2025-12-08T16:17:54Z</time>
      </trkpt>
      <trkpt lat="51.833309" lon="4.01947">
        <ele>3215.6400000000003</ele>
        <time>2025-12-08T16:17:54Z</time>
      </trkpt>
      <trkpt lat="51.849186" lon="4.04213">
        <ele>3147.06</ele>
        <time>2025-12-08T16:17:54Z</time>
      </trkpt>
      <trkpt lat="51.86771" lon="4.064941">
        <ele>3063.2400000000002</ele>
        <time>2025-12-08T16:17:54Z</time>
      </trkpt>
      <trkpt lat="51.870552" lon="4.067383">
        <ele>3055.6200000000003</ele>
        <time>2025-12-08T16:17:54Z</time>
      </trkpt>
      <trkpt lat="51.873459" lon="4.069618">
        <ele>3040.38</ele>
        <time>2025-12-08T16:17:54Z</time>
      </trkpt>
      <trkpt lat="51.876938" lon="4.072068">
        <ele>3025.1400000000003</ele>
        <time>2025-12-08T16:17:54Z</time>
      </trkpt>
      <trkpt lat="51.880001" lon="4.07402">
        <ele>3017.52</ele>
        <time>2025-12-08T16:17:54Z</time>
      </trkpt>
      <trkpt lat="51.883026" lon="4.075928">
        <ele>3002.28</ele>
        <time>2025-12-08T16:17:54Z</time>
      </trkpt>
      <trkpt lat="51.886101" lon="4.077759">
        <ele>2994.6600000000003</ele>
        <time>2025-12-08T16:17:54Z</time>
      </trkpt>
      <trkpt lat="51.888611" lon="4.079268">
        <ele>2979.42</ele>
        <time>2025-12-08T16:17:54Z</time>
      </trkpt>
      <trkpt lat="51.892246" lon="4.081421">
        <ele>2971.8</ele>
        <time>2025-12-08T16:17:54Z</time>
      </trkpt>
      <trkpt lat="51.894432" lon="4.082755">
        <ele>2964.1800000000003</ele>
        <time>2025-12-08T16:17:54Z</time>
      </trkpt>
      <trkpt lat="51.898064" lon="4.084952">
        <ele>2948.94</ele>
        <time>2025-12-08T16:17:54Z</time>
      </trkpt>
      <trkpt lat="51.900764" lon="4.086522">
        <ele>2933.7000000000003</ele>
        <time>2025-12-08T16:17:54Z</time>
      </trkpt>
      <trkpt lat="51.903534" lon="4.088211">
        <ele>2926.08</ele>
        <time>2025-12-08T16:17:54Z</time>
      </trkpt>
      <trkpt lat="51.906258" lon="4.089818">
        <ele>2918.46</ele>
        <time>2025-12-08T16:17:54Z</time>
      </trkpt>
      <trkpt lat="51.923714" lon="4.100333">
        <ele>2849.88</ele>
        <time>2025-12-08T16:17:54Z</time>
      </trkpt>
      <trkpt lat="51.941311" lon="4.112261">
        <ele>2773.6800000000003</ele>
        <time>2025-12-08T16:17:54Z</time>
      </trkpt>
      <trkpt lat="51.961258" lon="4.125137">
        <ele>2697.48</ele>
        <time>2025-12-08T16:17:54Z</time>
      </trkpt>
      <trkpt lat="51.981949" lon="4.138031">
        <ele>2613.6600000000003</ele>
        <time>2025-12-08T16:17:54Z</time>
      </trkpt>
      <trkpt lat="51.992294" lon="4.146729">
        <ele>2575.56</ele>
        <time>2025-12-08T16:17:54Z</time>
      </trkpt>
      <trkpt lat="51.995132" lon="4.149857">
        <ele>2567.94</ele>
        <time>2025-12-08T16:17:54Z</time>
      </trkpt>
      <trkpt lat="51.997375" lon="4.152679">
        <ele>2552.7000000000003</ele>
        <time>2025-12-08T16:17:54Z</time>
      </trkpt>
      <trkpt lat="51.999573" lon="4.155502">
        <ele>2545.08</ele>
        <time>2025-12-08T16:17:54Z</time>
      </trkpt>
      <trkpt lat="52.001999" lon="4.158783">
        <ele>2537.46</ele>
        <time>2025-12-08T16:17:54Z</time>
      </trkpt>
      <trkpt lat="52.004341" lon="4.161935">
        <ele>2522.2200000000003</ele>
        <time>2025-12-08T16:17:54Z</time>
      </trkpt>
      <trkpt lat="52.006439" lon="4.164838">
        <ele>2514.6</ele>
        <time>2025-12-08T16:17:54Z</time>
      </trkpt>
      <trkpt lat="52.008957" lon="4.168396">
        <ele>2499.36</ele>
        <time>2025-12-08T16:17:54Z</time>
      </trkpt>
      <trkpt lat="52.011749" lon="4.172287">
        <ele>2491.7400000000002</ele>
        <time>2025-12-08T16:17:54Z</time>
      </trkpt>
      <trkpt lat="52.013981" lon="4.175433">
        <ele>2476.5</ele>
        <time>2025-12-08T16:17:54Z</time>
      </trkpt>
      <trkpt lat="52.016354" lon="4.178729">
        <ele>2468.88</ele>
        <time>2025-12-08T16:17:54Z</time>
      </trkpt>
      <trkpt lat="52.018448" lon="4.181632">
        <ele>2453.6400000000003</ele>
        <time>2025-12-08T16:17:54Z</time>
      </trkpt>
      <trkpt lat="52.02063" lon="4.184647">
        <ele>2446.02</ele>
        <time>2025-12-08T16:17:54Z</time>
      </trkpt>
      <trkpt lat="52.022919" lon="4.187831">
        <ele>2438.4</ele>
        <time>2025-12-08T16:17:54Z</time>
      </trkpt>
      <trkpt lat="52.03862" lon="4.209442">
        <ele>2362.2000000000003</ele>
        <time>2025-12-08T16:17:54Z</time>
      </trkpt>
      <trkpt lat="52.052399" lon="4.228363">
        <ele>2301.2400000000002</ele>
        <time>2025-12-08T16:17:54Z</time>
      </trkpt>
      <trkpt lat="52.066444" lon="4.247707">
        <ele>2232.6600000000003</ele>
        <time>2025-12-08T16:17:54Z</time>
      </trkpt>
      <trkpt lat="52.082153" lon="4.269257">
        <ele>2156.46</ele>
        <time>2025-12-08T16:17:54Z</time>
      </trkpt>
      <trkpt lat="52.097351" lon="4.290161">
        <ele>2133.6</ele>
        <time>2025-12-08T16:17:54Z</time>
      </trkpt>
      <trkpt lat="52.110668" lon="4.308602">
        <ele>2133.6</ele>
        <time>2025-12-08T16:17:54Z</time>
      </trkpt>
      <trkpt lat="52.124634" lon="4.327907">
        <ele>2133.6</ele>
        <time>2025-12-08T16:17:54Z</time>
      </trkpt>
      <trkpt lat="52.137577" lon="4.345799">
        <ele>2133.6</ele>
        <time>2025-12-08T16:17:54Z</time>
      </trkpt>
      <trkpt lat="52.15303" lon="4.367222">
        <ele>2133.6</ele>
        <time>2025-12-08T16:17:54Z</time>
      </trkpt>
      <trkpt lat="52.168991" lon="4.387589">
        <ele>2133.6</ele>
        <time>2025-12-08T16:17:54Z</time>
      </trkpt>
      <trkpt lat="52.171509" lon="4.389877">
        <ele>2133.6</ele>
        <time>2025-12-08T16:17:54Z</time>
      </trkpt>
      <trkpt lat="52.17384" lon="4.391785">
        <ele>2133.6</ele>
        <time>2025-12-08T16:17:54Z</time>
      </trkpt>
      <trkpt lat="52.176445" lon="4.393746">
        <ele>2133.6</ele>
        <time>2025-12-08T16:17:54Z</time>
      </trkpt>
      <trkpt lat="52.179611" lon="4.395865">
        <ele>2133.6</ele>
        <time>2025-12-08T16:17:54Z</time>
      </trkpt>
      <trkpt lat="52.182083" lon="4.397507">
        <ele>2133.6</ele>
        <time>2025-12-08T16:17:54Z</time>
      </trkpt>
      <trkpt lat="52.184826" lon="4.39924">
        <ele>2133.6</ele>
        <time>2025-12-08T16:17:54Z</time>
      </trkpt>
      <trkpt lat="52.18692" lon="4.400652">
        <ele>2133.6</ele>
        <time>2025-12-08T16:17:54Z</time>
      </trkpt>
      <trkpt lat="52.189713" lon="4.402379">
        <ele>2133.6</ele>
        <time>2025-12-08T16:17:54Z</time>
      </trkpt>
      <trkpt lat="52.192322" lon="4.404027">
        <ele>2133.6</ele>
        <time>2025-12-08T16:17:54Z</time>
      </trkpt>
      <trkpt lat="52.195023" lon="4.405753">
        <ele>2133.6</ele>
        <time>2025-12-08T16:17:54Z</time>
      </trkpt>
      <trkpt lat="52.197487" lon="4.407401">
        <ele>2133.6</ele>
        <time>2025-12-08T16:17:54Z</time>
      </trkpt>
      <trkpt lat="52.200516" lon="4.409284">
        <ele>2133.6</ele>
        <time>2025-12-08T16:17:54Z</time>
      </trkpt>
      <trkpt lat="52.203094" lon="4.411011">
        <ele>2133.6</ele>
        <time>2025-12-08T16:17:54Z</time>
      </trkpt>
      <trkpt lat="52.221909" lon="4.423141">
        <ele>2080.26</ele>
        <time>2025-12-08T16:17:54Z</time>
      </trkpt>
      <trkpt lat="52.24041" lon="4.435102">
        <ele>1996.44</ele>
        <time>2025-12-08T16:17:54Z</time>
      </trkpt>
      <trkpt lat="52.256195" lon="4.445267">
        <ele>1935.48</ele>
        <time>2025-12-08T16:17:54Z</time>
      </trkpt>
      <trkpt lat="52.274826" lon="4.457397">
        <ele>1859.2800000000002</ele>
        <time>2025-12-08T16:17:54Z</time>
      </trkpt>
      <trkpt lat="52.293091" lon="4.469299">
        <ele>1821.18</ele>
        <time>2025-12-08T16:17:54Z</time>
      </trkpt>
      <trkpt lat="52.309662" lon="4.480209">
        <ele>1828.8000000000002</ele>
        <time>2025-12-08T16:17:54Z</time>
      </trkpt>
      <trkpt lat="52.324402" lon="4.489975">
        <ele>1828.8000000000002</ele>
        <time>2025-12-08T16:17:54Z</time>
      </trkpt>
      <trkpt lat="52.340698" lon="4.500809">
        <ele>1828.8000000000002</ele>
        <time>2025-12-08T16:17:54Z</time>
      </trkpt>
      <trkpt lat="52.354477" lon="4.510117">
        <ele>1828.8000000000002</ele>
        <time>2025-12-08T16:17:54Z</time>
      </trkpt>
      <trkpt lat="52.36824" lon="4.519383">
        <ele>1828.8000000000002</ele>
        <time>2025-12-08T16:17:54Z</time>
      </trkpt>
      <trkpt lat="52.384552" lon="4.530411">
        <ele>1813.5600000000002</ele>
        <time>2025-12-08T16:17:54Z</time>
      </trkpt>
      <trkpt lat="52.398407" lon="4.539865">
        <ele>1744.98</ele>
        <time>2025-12-08T16:17:54Z</time>
      </trkpt>
      <trkpt lat="52.41275" lon="4.549561">
        <ele>1684.02</ele>
        <time>2025-12-08T16:17:54Z</time>
      </trkpt>
      <trkpt lat="52.426987" lon="4.559097">
        <ele>1615.44</ele>
        <time>2025-12-08T16:17:54Z</time>
      </trkpt>
      <trkpt lat="52.44133" lon="4.568586">
        <ele>1546.8600000000001</ele>
        <time>2025-12-08T16:17:54Z</time>
      </trkpt>
      <trkpt lat="52.457436" lon="4.579337">
        <ele>1478.28</ele>
        <time>2025-12-08T16:17:54Z</time>
      </trkpt>
      <trkpt lat="52.464661" lon="4.584198">
        <ele>1440.18</ele>
        <time>2025-12-08T16:17:54Z</time>
      </trkpt>
      <trkpt lat="52.474503" lon="4.590836">
        <ele>1394.46</ele>
        <time>2025-12-08T16:17:54Z</time>
      </trkpt>
      <trkpt lat="52.4809" lon="4.59511">
        <ele>1371.6000000000001</ele>
        <time>2025-12-08T16:17:54Z</time>
      </trkpt>
      <trkpt lat="52.490021" lon="4.60131">
        <ele>1371.6000000000001</ele>
        <time>2025-12-08T16:17:54Z</time>
      </trkpt>
      <trkpt lat="52.499191" lon="4.607509">
        <ele>1371.6000000000001</ele>
        <time>2025-12-08T16:17:54Z</time>
      </trkpt>
      <trkpt lat="52.506176" lon="4.612217">
        <ele>1371.6000000000001</ele>
        <time>2025-12-08T16:17:54Z</time>
      </trkpt>
      <trkpt lat="52.515381" lon="4.61853">
        <ele>1371.6000000000001</ele>
        <time>2025-12-08T16:17:54Z</time>
      </trkpt>
      <trkpt lat="52.52396" lon="4.624459">
        <ele>1363.98</ele>
        <time>2025-12-08T16:17:54Z</time>
      </trkpt>
      <trkpt lat="52.533188" lon="4.631195">
        <ele>1363.98</ele>
        <time>2025-12-08T16:17:54Z</time>
      </trkpt>
      <trkpt lat="52.541557" lon="4.637329">
        <ele>1371.6000000000001</ele>
        <time>2025-12-08T16:17:54Z</time>
      </trkpt>
      <trkpt lat="52.550125" lon="4.643631">
        <ele>1371.6000000000001</ele>
        <time>2025-12-08T16:17:54Z</time>
      </trkpt>
      <trkpt lat="52.557907" lon="4.649429">
        <ele>1371.6000000000001</ele>
        <time>2025-12-08T16:17:54Z</time>
      </trkpt>
      <trkpt lat="52.5639" lon="4.654122">
        <ele>1371.6000000000001</ele>
        <time>2025-12-08T16:17:54Z</time>
      </trkpt>
      <trkpt lat="52.565735" lon="4.655762">
        <ele>1371.6000000000001</ele>
        <time>2025-12-08T16:17:54Z</time>
      </trkpt>
      <trkpt lat="52.567291" lon="4.65744">
        <ele>1363.98</ele>
        <time>2025-12-08T16:17:54Z</time>
      </trkpt>
      <trkpt lat="52.568939" lon="4.659424">
        <ele>1356.3600000000001</ele>
        <time>2025-12-08T16:17:54Z</time>
      </trkpt>
      <trkpt lat="52.570587" lon="4.661713">
        <ele>1348.74</ele>
        <time>2025-12-08T16:17:54Z</time>
      </trkpt>
      <trkpt lat="52.57251" lon="4.664917">
        <ele>1333.5</ele>
        <time>2025-12-08T16:17:54Z</time>
      </trkpt>
      <trkpt lat="52.573769" lon="4.667463">
        <ele>1318.26</ele>
        <time>2025-12-08T16:17:54Z</time>
      </trkpt>
      <trkpt lat="52.574932" lon="4.670288">
        <ele>1310.64</ele>
        <time>2025-12-08T16:17:54Z</time>
      </trkpt>
      <trkpt lat="52.575912" lon="4.673035">
        <ele>1303.02</ele>
        <time>2025-12-08T16:17:54Z</time>
      </trkpt>
      <trkpt lat="52.576843" lon="4.676252">
        <ele>1287.78</ele>
        <time>2025-12-08T16:17:54Z</time>
      </trkpt>
      <trkpt lat="52.577682" lon="4.679642">
        <ele>1280.16</ele>
        <time>2025-12-08T16:17:54Z</time>
      </trkpt>
      <trkpt lat="52.578285" lon="4.683079">
        <ele>1264.92</ele>
        <time>2025-12-08T16:17:54Z</time>
      </trkpt>
      <trkpt lat="52.578751" lon="4.686611">
        <ele>1257.3</ele>
        <time>2025-12-08T16:17:54Z</time>
      </trkpt>
      <trkpt lat="52.579056" lon="4.690781">
        <ele>1242.0600000000002</ele>
        <time>2025-12-08T16:17:54Z</time>
      </trkpt>
      <trkpt lat="52.579239" lon="4.69429">
        <ele>1226.8200000000002</ele>
        <time>2025-12-08T16:17:54Z</time>
      </trkpt>
      <trkpt lat="52.579357" lon="4.698146">
        <ele>1219.2</ele>
        <time>2025-12-08T16:17:54Z</time>
      </trkpt>
      <trkpt lat="52.579403" lon="4.701285">
        <ele>1203.96</ele>
        <time>2025-12-08T16:17:54Z</time>
      </trkpt>
      <trkpt lat="52.579449" lon="4.705366">
        <ele>1196.3400000000001</ele>
        <time>2025-12-08T16:17:54Z</time>
      </trkpt>
      <trkpt lat="52.579422" lon="4.708786">
        <ele>1181.1000000000001</ele>
        <time>2025-12-08T16:17:54Z</time>
      </trkpt>
      <trkpt lat="52.579357" lon="4.712429">
        <ele>1173.48</ele>
        <time>2025-12-08T16:17:54Z</time>
      </trkpt>
      <trkpt lat="52.579124" lon="4.715803">
        <ele>1165.8600000000001</ele>
        <time>2025-12-08T16:17:54Z</time>
      </trkpt>
      <trkpt lat="52.578735" lon="4.719238">
        <ele>1150.6200000000001</ele>
        <time>2025-12-08T16:17:54Z</time>
      </trkpt>
      <trkpt lat="52.57814" lon="4.722595">
        <ele>1143.0</ele>
        <time>2025-12-08T16:17:54Z</time>
      </trkpt>
      <trkpt lat="52.577225" lon="4.726791">
        <ele>1127.76</ele>
        <time>2025-12-08T16:17:54Z</time>
      </trkpt>
      <trkpt lat="52.576263" lon="4.730072">
        <ele>1120.14</ele>
        <time>2025-12-08T16:17:54Z</time>
      </trkpt>
      <trkpt lat="52.57489" lon="4.733658">
        <ele>1104.9</ele>
        <time>2025-12-08T16:17:54Z</time>
      </trkpt>
      <trkpt lat="52.573654" lon="4.736328">
        <ele>1097.28</ele>
        <time>2025-12-08T16:17:54Z</time>
      </trkpt>
      <trkpt lat="52.57196" lon="4.739304">
        <ele>1082.04</ele>
        <time>2025-12-08T16:17:54Z</time>
      </trkpt>
      <trkpt lat="52.570587" lon="4.741287">
        <ele>1074.42</ele>
        <time>2025-12-08T16:17:54Z</time>
      </trkpt>
      <trkpt lat="52.569077" lon="4.743118">
        <ele>1059.18</ele>
        <time>2025-12-08T16:17:54Z</time>
      </trkpt>
      <trkpt lat="52.567486" lon="4.744838">
        <ele>1051.56</ele>
        <time>2025-12-08T16:17:54Z</time>
      </trkpt>
      <trkpt lat="52.56567" lon="4.746643">
        <ele>1036.3200000000002</ele>
        <time>2025-12-08T16:17:54Z</time>
      </trkpt>
      <trkpt lat="52.563995" lon="4.748212">
        <ele>1028.7</ele>
        <time>2025-12-08T16:17:54Z</time>
      </trkpt>
      <trkpt lat="52.562393" lon="4.749603">
        <ele>1021.08</ele>
        <time>2025-12-08T16:17:54Z</time>
      </trkpt>
      <trkpt lat="52.560734" lon="4.751038">
        <ele>1013.46</ele>
        <time>2025-12-08T16:17:54Z</time>
      </trkpt>
      <trkpt lat="52.559105" lon="4.75245">
        <ele>1013.46</ele>
        <time>2025-12-08T16:17:54Z</time>
      </trkpt>
      <trkpt lat="52.557384" lon="4.753784">
        <ele>1005.84</ele>
        <time>2025-12-08T16:17:54Z</time>
      </trkpt>
      <trkpt lat="52.555473" lon="4.75504">
        <ele>998.22</ele>
        <time>2025-12-08T16:17:54Z</time>
      </trkpt>
      <trkpt lat="52.553844" lon="4.755825">
        <ele>998.22</ele>
        <time>2025-12-08T16:17:54Z</time>
      </trkpt>
      <trkpt lat="52.552048" lon="4.75647">
        <ele>990.6</ele>
        <time>2025-12-08T16:17:54Z</time>
      </trkpt>
      <trkpt lat="52.54998" lon="4.75708">
        <ele>982.98</ele>
        <time>2025-12-08T16:17:54Z</time>
      </trkpt>
      <trkpt lat="52.548351" lon="4.757394">
        <ele>982.98</ele>
        <time>2025-12-08T16:17:54Z</time>
      </trkpt>
      <trkpt lat="52.546738" lon="4.757614">
        <ele>975.36</ele>
        <time>2025-12-08T16:17:54Z</time>
      </trkpt>
      <trkpt lat="52.545094" lon="4.757786">
        <ele>967.74</ele>
        <time>2025-12-08T16:17:54Z</time>
      </trkpt>
      <trkpt lat="52.543213" lon="4.757919">
        <ele>960.12</ele>
        <time>2025-12-08T16:17:54Z</time>
      </trkpt>
      <trkpt lat="52.541428" lon="4.757996">
        <ele>960.12</ele>
        <time>2025-12-08T16:17:54Z</time>
      </trkpt>
      <trkpt lat="52.539825" lon="4.757996">
        <ele>952.5</ele>
        <time>2025-12-08T16:17:54Z</time>
      </trkpt>
      <trkpt lat="52.538177" lon="4.757996">
        <ele>944.88</ele>
        <time>2025-12-08T16:17:54Z</time>
      </trkpt>
      <trkpt lat="52.536388" lon="4.758022">
        <ele>944.88</ele>
        <time>2025-12-08T16:17:54Z</time>
      </trkpt>
      <trkpt lat="52.534607" lon="4.758072">
        <ele>937.26</ele>
        <time>2025-12-08T16:17:54Z</time>
      </trkpt>
      <trkpt lat="52.532944" lon="4.7581">
        <ele>929.6400000000001</ele>
        <time>2025-12-08T16:17:54Z</time>
      </trkpt>
      <trkpt lat="52.530804" lon="4.7581">
        <ele>929.6400000000001</ele>
        <time>2025-12-08T16:17:54Z</time>
      </trkpt>
      <trkpt lat="52.52948" lon="4.758148">
        <ele>929.6400000000001</ele>
        <time>2025-12-08T16:17:54Z</time>
      </trkpt>
      <trkpt lat="52.527496" lon="4.7581">
        <ele>929.6400000000001</ele>
        <time>2025-12-08T16:17:54Z</time>
      </trkpt>
      <trkpt lat="52.525818" lon="4.758072">
        <ele>929.6400000000001</ele>
        <time>2025-12-08T16:17:54Z</time>
      </trkpt>
      <trkpt lat="52.524261" lon="4.758072">
        <ele>929.6400000000001</ele>
        <time>2025-12-08T16:17:54Z</time>
      </trkpt>
      <trkpt lat="52.522751" lon="4.757996">
        <ele>929.6400000000001</ele>
        <time>2025-12-08T16:17:54Z</time>
      </trkpt>
      <trkpt lat="52.520885" lon="4.757865">
        <ele>929.6400000000001</ele>
        <time>2025-12-08T16:17:54Z</time>
      </trkpt>
      <trkpt lat="52.518906" lon="4.75769">
        <ele>929.6400000000001</ele>
        <time>2025-12-08T16:17:54Z</time>
      </trkpt>
      <trkpt lat="52.513905" lon="4.757316">
        <ele>929.6400000000001</ele>
        <time>2025-12-08T16:17:54Z</time>
      </trkpt>
      <trkpt lat="52.507572" lon="4.756609">
        <ele>929.6400000000001</ele>
        <time>2025-12-08T16:17:54Z</time>
      </trkpt>
      <trkpt lat="52.502453" lon="4.756138">
        <ele>929.6400000000001</ele>
        <time>2025-12-08T16:17:54Z</time>
      </trkpt>
      <trkpt lat="52.495979" lon="4.755432">
        <ele>944.88</ele>
        <time>2025-12-08T16:17:54Z</time>
      </trkpt>
      <trkpt lat="52.488922" lon="4.754639">
        <ele>937.26</ele>
        <time>2025-12-08T16:17:54Z</time>
      </trkpt>
      <trkpt lat="52.484249" lon="4.754177">
        <ele>922.0200000000001</ele>
        <time>2025-12-08T16:17:54Z</time>
      </trkpt>
      <trkpt lat="52.477173" lon="4.753392">
        <ele>891.5400000000001</ele>
        <time>2025-12-08T16:17:54Z</time>
      </trkpt>
      <trkpt lat="52.470284" lon="4.752686">
        <ele>853.44</ele>
        <time>2025-12-08T16:17:54Z</time>
      </trkpt>
      <trkpt lat="52.463333" lon="4.752045">
        <ele>807.72</ele>
        <time>2025-12-08T16:17:54Z</time>
      </trkpt>
      <trkpt lat="52.458179" lon="4.751587">
        <ele>777.24</ele>
        <time>2025-12-08T16:17:54Z</time>
      </trkpt>
      <trkpt lat="52.451385" lon="4.750977">
        <ele>731.52</ele>
        <time>2025-12-08T16:17:54Z</time>
      </trkpt>
      <trkpt lat="52.446625" lon="4.750595">
        <ele>708.6600000000001</ele>
        <time>2025-12-08T16:17:54Z</time>
      </trkpt>
      <trkpt lat="52.444702" lon="4.750443">
        <ele>693.4200000000001</ele>
        <time>2025-12-08T16:17:54Z</time>
      </trkpt>
      <trkpt lat="52.443192" lon="4.750331">
        <ele>685.8000000000001</ele>
        <time>2025-12-08T16:17:54Z</time>
      </trkpt>
      <trkpt lat="52.436813" lon="4.749782">
        <ele>640.08</ele>
        <time>2025-12-08T16:17:54Z</time>
      </trkpt>
      <trkpt lat="52.430557" lon="4.749298">
        <ele>609.6</ele>
        <time>2025-12-08T16:17:54Z</time>
      </trkpt>
      <trkpt lat="52.426105" lon="4.748919">
        <ele>579.12</ele>
        <time>2025-12-08T16:17:54Z</time>
      </trkpt>
      <trkpt lat="52.420029" lon="4.748459">
        <ele>541.02</ele>
        <time>2025-12-08T16:17:54Z</time>
      </trkpt>
      <trkpt lat="52.414581" lon="4.747925">
        <ele>510.54</ele>
        <time>2025-12-08T16:17:54Z</time>
      </trkpt>
      <trkpt lat="52.410507" lon="4.747467">
        <ele>487.68</ele>
        <time>2025-12-08T16:17:54Z</time>
      </trkpt>
      <trkpt lat="52.405151" lon="4.746933">
        <ele>449.58000000000004</ele>
        <time>2025-12-08T16:17:54Z</time>
      </trkpt>
      <trkpt lat="52.402317" lon="4.746643">
        <ele>434.34000000000003</ele>
        <time>2025-12-08T16:17:54Z</time>
      </trkpt>
      <trkpt lat="52.398697" lon="4.746323">
        <ele>411.48</ele>
        <time>2025-12-08T16:17:54Z</time>
      </trkpt>
      <trkpt lat="52.396225" lon="4.746094">
        <ele>403.86</ele>
        <time>2025-12-08T16:17:54Z</time>
      </trkpt>
      <trkpt lat="52.395054" lon="4.746015">
        <ele>396.24</ele>
        <time>2025-12-08T16:17:54Z</time>
      </trkpt>
      <trkpt lat="52.394032" lon="4.745858">
        <ele>388.62</ele>
        <time>2025-12-08T16:17:54Z</time>
      </trkpt>
      <trkpt lat="52.392727" lon="4.74578">
        <ele>381.0</ele>
        <time>2025-12-08T16:17:54Z</time>
      </trkpt>
      <trkpt lat="52.391563" lon="4.745623">
        <ele>373.38</ele>
        <time>2025-12-08T16:17:54Z</time>
      </trkpt>
      <trkpt lat="52.390503" lon="4.74556">
        <ele>365.76</ele>
        <time>2025-12-08T16:17:54Z</time>
      </trkpt>
      <trkpt lat="52.389313" lon="4.745483">
        <ele>358.14000000000004</ele>
        <time>2025-12-08T16:17:54Z</time>
      </trkpt>
      <trkpt lat="52.38707" lon="4.745331">
        <ele>350.52000000000004</ele>
        <time>2025-12-08T16:17:54Z</time>
      </trkpt>
      <trkpt lat="52.383789" lon="4.744916">
        <ele>327.66</ele>
        <time>2025-12-08T16:17:54Z</time>
      </trkpt>
      <trkpt lat="52.382401" lon="4.744797">
        <ele>320.04</ele>
        <time>2025-12-08T16:17:54Z</time>
      </trkpt>
      <trkpt lat="52.381531" lon="4.744644">
        <ele>320.04</ele>
        <time>2025-12-08T16:17:54Z</time>
      </trkpt>
      <trkpt lat="52.380157" lon="4.744492">
        <ele>304.8</ele>
        <time>2025-12-08T16:17:54Z</time>
      </trkpt>
      <trkpt lat="52.379105" lon="4.744415">
        <ele>297.18</ele>
        <time>2025-12-08T16:17:54Z</time>
      </trkpt>
      <trkpt lat="52.378017" lon="4.744289">
        <ele>289.56</ele>
        <time>2025-12-08T16:17:54Z</time>
      </trkpt>
      <trkpt lat="52.376724" lon="4.744186">
        <ele>281.94</ele>
        <time>2025-12-08T16:17:54Z</time>
      </trkpt>
      <trkpt lat="52.37558" lon="4.74411">
        <ele>281.94</ele>
        <time>2025-12-08T16:17:54Z</time>
      </trkpt>
      <trkpt lat="52.374207" lon="4.743958">
        <ele>274.32</ele>
        <time>2025-12-08T16:17:54Z</time>
      </trkpt>
      <trkpt lat="52.373081" lon="4.743818">
        <ele>266.7</ele>
        <time>2025-12-08T16:17:54Z</time>
      </trkpt>
      <trkpt lat="52.371967" lon="4.74374">
        <ele>259.08000000000004</ele>
        <time>2025-12-08T16:17:54Z</time>
      </trkpt>
      <trkpt lat="52.370804" lon="4.743583">
        <ele>251.46</ele>
        <time>2025-12-08T16:17:54Z</time>
      </trkpt>
      <trkpt lat="52.369823" lon="4.743504">
        <ele>251.46</ele>
        <time>2025-12-08T16:17:54Z</time>
      </trkpt>
      <trkpt lat="52.368473" lon="4.743426">
        <ele>243.84</ele>
        <time>2025-12-08T16:17:54Z</time>
      </trkpt>
      <trkpt lat="52.367294" lon="4.743347">
        <ele>236.22</ele>
        <time>2025-12-08T16:17:54Z</time>
      </trkpt>
      <trkpt lat="52.366241" lon="4.743268">
        <ele>228.60000000000002</ele>
        <time>2025-12-08T16:17:54Z</time>
      </trkpt>
      <trkpt lat="52.365124" lon="4.74319">
        <ele>220.98000000000002</ele>
        <time>2025-12-08T16:17:54Z</time>
      </trkpt>
      <trkpt lat="52.364044" lon="4.743118">
        <ele>213.36</ele>
        <time>2025-12-08T16:17:54Z</time>
      </trkpt>
      <trkpt lat="52.362701" lon="4.743033">
        <ele>213.36</ele>
        <time>2025-12-08T16:17:54Z</time>
      </trkpt>
      <trkpt lat="52.361771" lon="4.742955">
        <ele>205.74</ele>
        <time>2025-12-08T16:17:54Z</time>
      </trkpt>
      <trkpt lat="52.360611" lon="4.742813">
        <ele>198.12</ele>
        <time>2025-12-08T16:17:54Z</time>
      </trkpt>
      <trkpt lat="52.355999" lon="4.742327">
        <ele>167.64000000000001</ele>
        <time>2025-12-08T16:17:54Z</time>
      </trkpt>
      <trkpt lat="52.352459" lon="4.742013">
        <ele>144.78</ele>
        <time>2025-12-08T16:17:54Z</time>
      </trkpt>
      <trkpt lat="52.347618" lon="4.741542">
        <ele>121.92</ele>
        <time>2025-12-08T16:17:54Z</time>
      </trkpt>
      <trkpt lat="52.342731" lon="4.741071">
        <ele>91.44</ele>
        <time>2025-12-08T16:17:54Z</time>
      </trkpt>
      <trkpt lat="52.337952" lon="4.740677">
        <ele>60.96</ele>
        <time>2025-12-08T16:17:54Z</time>
      </trkpt>
      <trkpt lat="52.334381" lon="4.740295">
        <ele>45.72</ele>
        <time>2025-12-08T16:17:54Z</time>
      </trkpt>
      <trkpt lat="52.332962" lon="4.740143">
        <ele>38.1</ele>
        <time>2025-12-08T16:17:54Z</time>
      </trkpt>
      <trkpt lat="52.331772" lon="4.740067">
        <ele>30.48</ele>
        <time>2025-12-08T16:17:54Z</time>
      </trkpt>
      <trkpt lat="52.330582" lon="4.739973">
        <ele>22.86</ele>
        <time>2025-12-08T16:17:54Z</time>
      </trkpt>
      <trkpt lat="52.329277" lon="4.739816">
        <ele>15.24</ele>
        <time>2025-12-08T16:17:54Z</time>
      </trkpt>
      <trkpt lat="52.328114" lon="4.739738">
        <ele>0.0</ele>
        <time>2025-12-08T16:17:54Z</time>
      </trkpt>
      <trkpt lat="52.326874" lon="4.739609">
        <ele>0.0</ele>
        <time>2025-12-08T16:17:54Z</time>
      </trkpt>
      <trkpt lat="52.322708" lon="4.739227">
        <ele>0.0</ele>
        <time>2025-12-08T16:17:54Z</time>
      </trkpt>
      <trkpt lat="52.319794" lon="4.738953">
        <ele>0.0</ele>
        <time>2025-12-08T16:17:54Z</time>
      </trkpt>
      <trkpt lat="52.317478" lon="4.738737">
        <ele>0.0</ele>
        <time>2025-12-08T16:17:54Z</time>
      </trkpt>
      <trkpt lat="52.315041" lon="4.738541">
        <ele>0.0</ele>
        <time>2025-12-08T16:17:54Z</time>
      </trkpt>
      <trkpt lat="52.31353" lon="4.738426">
        <ele>0.0</ele>
        <time>2025-12-08T16:17:54Z</time>
      </trkpt>
      <trkpt lat="52.313019" lon="4.738482">
        <ele>0.0</ele>
        <time>2025-12-08T16:17:54Z</time>
      </trkpt>
      <trkpt lat="52.31258" lon="4.738655">
        <ele>0.0</ele>
        <time>2025-12-08T16:17:54Z</time>
      </trkpt>
      <trkpt lat="52.312214" lon="4.738846">
        <ele>0.0</ele>
        <time>2025-12-08T16:17:54Z</time>
      </trkpt>
      <trkpt lat="52.312008" lon="4.739017">
        <ele>0.0</ele>
        <time>2025-12-08T16:17:54Z</time>
      </trkpt>
      <trkpt lat="52.311646" lon="4.739306">
        <ele>0.0</ele>
        <time>2025-12-08T16:17:54Z</time>
      </trkpt>
      <trkpt lat="52.311016" lon="4.739816">
        <ele>0.0</ele>
        <time>2025-12-08T16:17:54Z</time>
      </trkpt>
      <trkpt lat="52.310261" lon="4.740444">
        <ele>0.0</ele>
        <time>2025-12-08T16:17:54Z</time>
      </trkpt>
      <trkpt lat="52.309937" lon="4.740677">
        <ele>0.0</ele>
        <time>2025-12-08T16:17:54Z</time>
      </trkpt>
      <trkpt lat="52.308807" lon="4.740895">
        <ele>0.0</ele>
        <time>2025-12-08T16:17:54Z</time>
      </trkpt>
      <trkpt lat="52.307934" lon="4.740791">
        <ele>0.0</ele>
        <time>2025-12-08T16:17:54Z</time>
      </trkpt>
      <trkpt lat="52.30748" lon="4.740738">
        <ele>0.0</ele>
        <time>2025-12-08T16:17:54Z</time>
      </trkpt>
      <trkpt lat="52.30719" lon="4.740715">
        <ele>0.0</ele>
        <time>2025-12-08T16:17:54Z</time>
      </trkpt>
      <trkpt lat="52.306572" lon="4.740659">
        <ele>0.0</ele>
        <time>2025-12-08T16:17:54Z</time>
      </trkpt>
      <trkpt lat="52.306316" lon="4.74064">
        <ele>0.0</ele>
        <time>2025-12-08T16:17:54Z</time>
      </trkpt>
      <trkpt lat="52.305862" lon="4.740601">
        <ele>0.0</ele>
        <time>2025-12-08T16:17:54Z</time>
      </trkpt>
      <trkpt lat="52.305141" lon="4.740542">
        <ele>0.0</ele>
        <time>2025-12-08T16:17:54Z</time>
      </trkpt>
      <trkpt lat="52.304592" lon="4.740679">
        <ele>0.0</ele>
        <time>2025-12-08T16:17:54Z</time>
      </trkpt>
      <trkpt lat="52.30434" lon="4.740982">
        <ele>0.0</ele>
        <time>2025-12-08T16:17:54Z</time>
      </trkpt>
      <trkpt lat="52.303665" lon="4.742146">
        <ele>0.0</ele>
        <time>2025-12-08T16:17:54Z</time>
      </trkpt>
      <trkpt lat="52.303314" lon="4.742837">
        <ele>0.0</ele>
        <time>2025-12-08T16:17:54Z</time>
      </trkpt>
      <trkpt lat="52.302639" lon="4.744092">
        <ele>0.0</ele>
        <time>2025-12-08T16:17:54Z</time>
      </trkpt>
      <trkpt lat="52.302486" lon="4.744358">
        <ele>0.0</ele>
        <time>2025-12-08T16:17:54Z</time>
      </trkpt>
      <trkpt lat="52.301525" lon="4.746151">
        <ele>0.0</ele>
        <time>2025-12-08T16:17:54Z</time>
      </trkpt>
      <trkpt lat="52.300644" lon="4.747791">
        <ele>0.0</ele>
        <time>2025-12-08T16:17:54Z</time>
      </trkpt>
      <trkpt lat="52.298485" lon="4.751783">
        <ele>0.0</ele>
        <time>2025-12-08T16:17:54Z</time>
      </trkpt>
      <trkpt lat="52.297634" lon="4.753475">
        <ele>0.0</ele>
        <time>2025-12-08T16:17:54Z</time>
      </trkpt>
      <trkpt lat="52.297943" lon="4.754734">
        <ele>0.0</ele>
        <time>2025-12-08T16:17:54Z</time>
      </trkpt>
      <trkpt lat="52.299145" lon="4.757843">
        <ele>0.0</ele>
        <time>2025-12-08T16:17:54Z</time>
      </trkpt>
      <trkpt lat="52.301079" lon="4.762859">
        <ele>0.0</ele>
        <time>2025-12-08T16:17:54Z</time>
      </trkpt>
      <trkpt lat="52.301777" lon="4.764671">
        <ele>0.0</ele>
        <time>2025-12-08T16:17:54Z</time>
      </trkpt>
      <trkpt lat="52.302074" lon="4.765472">
        <ele>0.0</ele>
        <time>2025-12-08T16:17:54Z</time>
      </trkpt>
      <trkpt lat="52.302555" lon="4.766713">
        <ele>0.0</ele>
        <time>2025-12-08T16:17:54Z</time>
      </trkpt>
      <trkpt lat="52.303036" lon="4.76799">
        <ele>0.0</ele>
        <time>2025-12-08T16:17:54Z</time>
      </trkpt>
      <trkpt lat="52.303513" lon="4.769204">
        <ele>0.0</ele>
        <time>2025-12-08T16:17:54Z</time>
      </trkpt>
      <trkpt lat="52.303654" lon="4.769573">
        <ele>0.0</ele>
        <time>2025-12-08T16:17:54Z</time>
      </trkpt>
      <trkpt lat="52.304089" lon="4.770317">
        <ele>0.0</ele>
        <time>2025-12-08T16:17:54Z</time>
      </trkpt>
    </trkseg>
  </trk>
</gpx>