<?xml version="1.0" encoding="UTF-8"?>
<gpx xmlns="http://www.topografix.com/GPX/1/1" xmlns:xsi="http://www.w3.org/2001/XMLSchema-instance" xsi:schemaLocation="http://www.topografix.com/GPX/1/1 http://www.topografix.com/GPX/1/1/gpx.xsd" version="1.1" creator="gpx.py -- https://github.com/tkrajina/gpxpy">
  <metadata>
    <name>MU6014_40e8808e</name>
    <time>2026-07-29T12:21:10Z</time>
  </metadata>
  <trk>
    <name>MU6014_40e8808e</name>
    <cmt>2026-07-29</cmt>
    <type>Plane</type>
    <trkseg>
      <trkpt lat="21.220442" lon="105.787888">
        <ele>0.0</ele>
        <time>2026-07-29T12:21:10Z</time>
      </trkpt>
      <trkpt lat="21.221443" lon="105.788536">
        <ele>0.0</ele>
        <time>2026-07-29T12:21:10Z</time>
      </trkpt>
      <trkpt lat="21.221443" lon="105.788536">
        <ele>0.0</ele>
        <time>2026-07-29T12:21:10Z</time>
      </trkpt>
      <trkpt lat="21.224625" lon="105.786606">
        <ele>0.0</ele>
        <time>2026-07-29T12:21:10Z</time>
      </trkpt>
      <trkpt lat="21.224579" lon="105.786865">
        <ele>0.0</ele>
        <time>2026-07-29T12:21:10Z</time>
      </trkpt>
      <trkpt lat="21.224487" lon="105.787155">
        <ele>0.0</ele>
        <time>2026-07-29T12:21:10Z</time>
      </trkpt>
      <trkpt lat="21.224236" lon="105.788017">
        <ele>0.0</ele>
        <time>2026-07-29T12:21:10Z</time>
      </trkpt>
      <trkpt lat="21.208008" lon="105.843636">
        <ele>632.46</ele>
        <time>2026-07-29T12:21:10Z</time>
      </trkpt>
      <trkpt lat="21.205988" lon="105.850273">
        <ele>716.2800000000001</ele>
        <time>2026-07-29T12:21:10Z</time>
      </trkpt>
      <trkpt lat="21.203939" lon="105.857033">
        <ele>807.72</ele>
        <time>2026-07-29T12:21:10Z</time>
      </trkpt>
      <trkpt lat="21.202148" lon="105.862808">
        <ele>906.7800000000001</ele>
        <time>2026-07-29T12:21:10Z</time>
      </trkpt>
      <trkpt lat="21.200447" lon="105.868477">
        <ele>998.22</ele>
        <time>2026-07-29T12:21:10Z</time>
      </trkpt>
      <trkpt lat="21.198866" lon="105.874123">
        <ele>1082.04</ele>
        <time>2026-07-29T12:21:10Z</time>
      </trkpt>
      <trkpt lat="21.198532" lon="105.876091">
        <ele>1104.9</ele>
        <time>2026-07-29T12:21:10Z</time>
      </trkpt>
      <trkpt lat="21.198399" lon="105.87809">
        <ele>1127.76</ele>
        <time>2026-07-29T12:21:10Z</time>
      </trkpt>
      <trkpt lat="21.198446" lon="105.879921">
        <ele>1143.0</ele>
        <time>2026-07-29T12:21:10Z</time>
      </trkpt>
      <trkpt lat="21.198679" lon="105.881859">
        <ele>1165.8600000000001</ele>
        <time>2026-07-29T12:21:10Z</time>
      </trkpt>
      <trkpt lat="21.199144" lon="105.883888">
        <ele>1188.72</ele>
        <time>2026-07-29T12:21:10Z</time>
      </trkpt>
      <trkpt lat="21.199749" lon="105.885719">
        <ele>1203.96</ele>
        <time>2026-07-29T12:21:10Z</time>
      </trkpt>
      <trkpt lat="21.200363" lon="105.887177">
        <ele>1211.5800000000002</ele>
        <time>2026-07-29T12:21:10Z</time>
      </trkpt>
      <trkpt lat="21.201239" lon="105.888878">
        <ele>1226.8200000000002</ele>
        <time>2026-07-29T12:21:10Z</time>
      </trkpt>
      <trkpt lat="21.202543" lon="105.890907">
        <ele>1242.0600000000002</ele>
        <time>2026-07-29T12:21:10Z</time>
      </trkpt>
      <trkpt lat="21.203796" lon="105.892426">
        <ele>1257.3</ele>
        <time>2026-07-29T12:21:10Z</time>
      </trkpt>
      <trkpt lat="21.20517" lon="105.893867">
        <ele>1272.54</ele>
        <time>2026-07-29T12:21:10Z</time>
      </trkpt>
      <trkpt lat="21.206593" lon="105.895134">
        <ele>1287.78</ele>
        <time>2026-07-29T12:21:10Z</time>
      </trkpt>
      <trkpt lat="21.208269" lon="105.896301">
        <ele>1303.02</ele>
        <time>2026-07-29T12:21:10Z</time>
      </trkpt>
      <trkpt lat="21.210526" lon="105.897667">
        <ele>1318.26</ele>
        <time>2026-07-29T12:21:10Z</time>
      </trkpt>
      <trkpt lat="21.212599" lon="105.89859">
        <ele>1333.5</ele>
        <time>2026-07-29T12:21:10Z</time>
      </trkpt>
      <trkpt lat="21.214417" lon="105.899261">
        <ele>1348.74</ele>
        <time>2026-07-29T12:21:10Z</time>
      </trkpt>
      <trkpt lat="21.216368" lon="105.899811">
        <ele>1363.98</ele>
        <time>2026-07-29T12:21:10Z</time>
      </trkpt>
      <trkpt lat="21.219023" lon="105.900322">
        <ele>1379.22</ele>
        <time>2026-07-29T12:21:10Z</time>
      </trkpt>
      <trkpt lat="21.221191" lon="105.900566">
        <ele>1394.46</ele>
        <time>2026-07-29T12:21:10Z</time>
      </trkpt>
      <trkpt lat="21.223259" lon="105.900673">
        <ele>1409.7</ele>
        <time>2026-07-29T12:21:10Z</time>
      </trkpt>
      <trkpt lat="21.226051" lon="105.900726">
        <ele>1432.5600000000002</ele>
        <time>2026-07-29T12:21:10Z</time>
      </trkpt>
      <trkpt lat="21.228378" lon="105.900665">
        <ele>1455.42</ele>
        <time>2026-07-29T12:21:10Z</time>
      </trkpt>
      <trkpt lat="21.230753" lon="105.900574">
        <ele>1478.28</ele>
        <time>2026-07-29T12:21:10Z</time>
      </trkpt>
      <trkpt lat="21.233173" lon="105.900475">
        <ele>1493.52</ele>
        <time>2026-07-29T12:21:10Z</time>
      </trkpt>
      <trkpt lat="21.235548" lon="105.900368">
        <ele>1508.76</ele>
        <time>2026-07-29T12:21:10Z</time>
      </trkpt>
      <trkpt lat="21.237923" lon="105.900269">
        <ele>1531.6200000000001</ele>
        <time>2026-07-29T12:21:10Z</time>
      </trkpt>
      <trkpt lat="21.24025" lon="105.900215">
        <ele>1546.8600000000001</ele>
        <time>2026-07-29T12:21:10Z</time>
      </trkpt>
      <trkpt lat="21.242996" lon="105.900116">
        <ele>1569.72</ele>
        <time>2026-07-29T12:21:10Z</time>
      </trkpt>
      <trkpt lat="21.245407" lon="105.900063">
        <ele>1592.5800000000002</ele>
        <time>2026-07-29T12:21:10Z</time>
      </trkpt>
      <trkpt lat="21.247513" lon="105.900063">
        <ele>1607.8200000000002</ele>
        <time>2026-07-29T12:21:10Z</time>
      </trkpt>
      <trkpt lat="21.250031" lon="105.900017">
        <ele>1630.68</ele>
        <time>2026-07-29T12:21:10Z</time>
      </trkpt>
      <trkpt lat="21.251749" lon="105.900017">
        <ele>1645.92</ele>
        <time>2026-07-29T12:21:10Z</time>
      </trkpt>
      <trkpt lat="21.254728" lon="105.899963">
        <ele>1676.4</ele>
        <time>2026-07-29T12:21:10Z</time>
      </trkpt>
      <trkpt lat="21.270538" lon="105.899864">
        <ele>1859.2800000000002</ele>
        <time>2026-07-29T12:21:10Z</time>
      </trkpt>
      <trkpt lat="21.286337" lon="105.89859">
        <ele>2026.92</ele>
        <time>2026-07-29T12:21:10Z</time>
      </trkpt>
      <trkpt lat="21.288849" lon="105.897919">
        <ele>2057.4</ele>
        <time>2026-07-29T12:21:10Z</time>
      </trkpt>
      <trkpt lat="21.292063" lon="105.896812">
        <ele>2095.5</ele>
        <time>2026-07-29T12:21:10Z</time>
      </trkpt>
      <trkpt lat="21.29467" lon="105.895744">
        <ele>2125.98</ele>
        <time>2026-07-29T12:21:10Z</time>
      </trkpt>
      <trkpt lat="21.297091" lon="105.89447">
        <ele>2156.46</ele>
        <time>2026-07-29T12:21:10Z</time>
      </trkpt>
      <trkpt lat="21.299377" lon="105.893074">
        <ele>2186.94</ele>
        <time>2026-07-29T12:21:10Z</time>
      </trkpt>
      <trkpt lat="21.301666" lon="105.891525">
        <ele>2217.42</ele>
        <time>2026-07-29T12:21:10Z</time>
      </trkpt>
      <trkpt lat="21.303701" lon="105.889992">
        <ele>2240.28</ele>
        <time>2026-07-29T12:21:10Z</time>
      </trkpt>
      <trkpt lat="21.306355" lon="105.887756">
        <ele>2278.38</ele>
        <time>2026-07-29T12:21:10Z</time>
      </trkpt>
      <trkpt lat="21.308212" lon="105.886131">
        <ele>2308.86</ele>
        <time>2026-07-29T12:21:10Z</time>
      </trkpt>
      <trkpt lat="21.310547" lon="105.883934">
        <ele>2339.34</ele>
        <time>2026-07-29T12:21:10Z</time>
      </trkpt>
      <trkpt lat="21.313797" lon="105.880737">
        <ele>2392.6800000000003</ele>
        <time>2026-07-29T12:21:10Z</time>
      </trkpt>
      <trkpt lat="21.315811" lon="105.878738">
        <ele>2423.1600000000003</ele>
        <time>2026-07-29T12:21:10Z</time>
      </trkpt>
      <trkpt lat="21.317734" lon="105.876839">
        <ele>2461.26</ele>
        <time>2026-07-29T12:21:10Z</time>
      </trkpt>
      <trkpt lat="21.319611" lon="105.874947">
        <ele>2491.7400000000002</ele>
        <time>2026-07-29T12:21:10Z</time>
      </trkpt>
      <trkpt lat="21.321856" lon="105.872749">
        <ele>2529.84</ele>
        <time>2026-07-29T12:21:10Z</time>
      </trkpt>
      <trkpt lat="21.324097" lon="105.870499">
        <ele>2567.94</ele>
        <time>2026-07-29T12:21:10Z</time>
      </trkpt>
      <trkpt lat="21.326111" lon="105.868553">
        <ele>2598.42</ele>
        <time>2026-07-29T12:21:10Z</time>
      </trkpt>
      <trkpt lat="21.327675" lon="105.866951">
        <ele>2613.6600000000003</ele>
        <time>2026-07-29T12:21:10Z</time>
      </trkpt>
      <trkpt lat="21.340897" lon="105.854034">
        <ele>2766.06</ele>
        <time>2026-07-29T12:21:10Z</time>
      </trkpt>
      <trkpt lat="21.355095" lon="105.840202">
        <ele>2887.98</ele>
        <time>2026-07-29T12:21:10Z</time>
      </trkpt>
      <trkpt lat="21.365383" lon="105.828346">
        <ele>3009.9</ele>
        <time>2026-07-29T12:21:10Z</time>
      </trkpt>
      <trkpt lat="21.367813" lon="105.824509">
        <ele>3048.0</ele>
        <time>2026-07-29T12:21:10Z</time>
      </trkpt>
      <trkpt lat="21.371853" lon="105.816093">
        <ele>3124.2000000000003</ele>
        <time>2026-07-29T12:21:10Z</time>
      </trkpt>
      <trkpt lat="21.373489" lon="105.811722">
        <ele>3154.6800000000003</ele>
        <time>2026-07-29T12:21:10Z</time>
      </trkpt>
      <trkpt lat="21.374725" lon="105.808228">
        <ele>3177.54</ele>
        <time>2026-07-29T12:21:10Z</time>
      </trkpt>
      <trkpt lat="21.375717" lon="105.805153">
        <ele>3192.78</ele>
        <time>2026-07-29T12:21:10Z</time>
      </trkpt>
      <trkpt lat="21.376831" lon="105.801689">
        <ele>3223.26</ele>
        <time>2026-07-29T12:21:10Z</time>
      </trkpt>
      <trkpt lat="21.377533" lon="105.799355">
        <ele>3238.5</ele>
        <time>2026-07-29T12:21:10Z</time>
      </trkpt>
      <trkpt lat="21.378696" lon="105.795593">
        <ele>3268.98</ele>
        <time>2026-07-29T12:21:10Z</time>
      </trkpt>
      <trkpt lat="21.379627" lon="105.792595">
        <ele>3291.84</ele>
        <time>2026-07-29T12:21:10Z</time>
      </trkpt>
      <trkpt lat="21.380539" lon="105.789497">
        <ele>3314.7000000000003</ele>
        <time>2026-07-29T12:21:10Z</time>
      </trkpt>
      <trkpt lat="21.3815" lon="105.786308">
        <ele>3337.56</ele>
        <time>2026-07-29T12:21:10Z</time>
      </trkpt>
      <trkpt lat="21.382607" lon="105.782722">
        <ele>3360.42</ele>
        <time>2026-07-29T12:21:10Z</time>
      </trkpt>
      <trkpt lat="21.383444" lon="105.779823">
        <ele>3383.28</ele>
        <time>2026-07-29T12:21:10Z</time>
      </trkpt>
      <trkpt lat="21.38475" lon="105.775665">
        <ele>3421.38</ele>
        <time>2026-07-29T12:21:10Z</time>
      </trkpt>
      <trkpt lat="21.385586" lon="105.772804">
        <ele>3444.2400000000002</ele>
        <time>2026-07-29T12:21:10Z</time>
      </trkpt>
      <trkpt lat="21.392662" lon="105.750122">
        <ele>3627.1200000000003</ele>
        <time>2026-07-29T12:21:10Z</time>
      </trkpt>
      <trkpt lat="21.398987" lon="105.729874">
        <ele>3787.1400000000003</ele>
        <time>2026-07-29T12:21:10Z</time>
      </trkpt>
      <trkpt lat="21.4151" lon="105.67907">
        <ele>4084.32</ele>
        <time>2026-07-29T12:21:10Z</time>
      </trkpt>
      <trkpt lat="21.430462" lon="105.630699">
        <ele>4457.7</ele>
        <time>2026-07-29T12:21:10Z</time>
      </trkpt>
      <trkpt lat="21.446802" lon="105.579323">
        <ele>4846.320000000001</ele>
        <time>2026-07-29T12:21:10Z</time>
      </trkpt>
      <trkpt lat="21.452637" lon="105.55529">
        <ele>5013.96</ele>
        <time>2026-07-29T12:21:10Z</time>
      </trkpt>
      <trkpt lat="21.452948" lon="105.550995">
        <ele>5036.820000000001</ele>
        <time>2026-07-29T12:21:10Z</time>
      </trkpt>
      <trkpt lat="21.453003" lon="105.546654">
        <ele>5067.3</ele>
        <time>2026-07-29T12:21:10Z</time>
      </trkpt>
      <trkpt lat="21.452854" lon="105.54306">
        <ele>5090.16</ele>
        <time>2026-07-29T12:21:10Z</time>
      </trkpt>
      <trkpt lat="21.452621" lon="105.540161">
        <ele>5105.400000000001</ele>
        <time>2026-07-29T12:21:10Z</time>
      </trkpt>
      <trkpt lat="21.452017" lon="105.535835">
        <ele>5135.88</ele>
        <time>2026-07-29T12:21:10Z</time>
      </trkpt>
      <trkpt lat="21.451355" lon="105.532471">
        <ele>5166.360000000001</ele>
        <time>2026-07-29T12:21:10Z</time>
      </trkpt>
      <trkpt lat="21.450531" lon="105.529076">
        <ele>5189.22</ele>
        <time>2026-07-29T12:21:10Z</time>
      </trkpt>
      <trkpt lat="21.449316" lon="105.525154">
        <ele>5219.7</ele>
        <time>2026-07-29T12:21:10Z</time>
      </trkpt>
      <trkpt lat="21.448153" lon="105.521904">
        <ele>5242.56</ele>
        <time>2026-07-29T12:21:10Z</time>
      </trkpt>
      <trkpt lat="21.446663" lon="105.518394">
        <ele>5265.42</ele>
        <time>2026-07-29T12:21:10Z</time>
      </trkpt>
      <trkpt lat="21.445267" lon="105.515495">
        <ele>5288.280000000001</ele>
        <time>2026-07-29T12:21:10Z</time>
      </trkpt>
      <trkpt lat="21.443357" lon="105.511932">
        <ele>5311.14</ele>
        <time>2026-07-29T12:21:10Z</time>
      </trkpt>
      <trkpt lat="21.4422" lon="105.510048">
        <ele>5318.76</ele>
        <time>2026-07-29T12:21:10Z</time>
      </trkpt>
      <trkpt lat="21.439726" lon="105.506287">
        <ele>5341.62</ele>
        <time>2026-07-29T12:21:10Z</time>
      </trkpt>
      <trkpt lat="21.437351" lon="105.503181">
        <ele>5364.4800000000005</ele>
        <time>2026-07-29T12:21:10Z</time>
      </trkpt>
      <trkpt lat="21.435211" lon="105.500694">
        <ele>5379.72</ele>
        <time>2026-07-29T12:21:10Z</time>
      </trkpt>
      <trkpt lat="21.432632" lon="105.497917">
        <ele>5402.58</ele>
        <time>2026-07-29T12:21:10Z</time>
      </trkpt>
      <trkpt lat="21.430847" lon="105.496269">
        <ele>5410.2</ele>
        <time>2026-07-29T12:21:10Z</time>
      </trkpt>
      <trkpt lat="21.427622" lon="105.493523">
        <ele>5433.06</ele>
        <time>2026-07-29T12:21:10Z</time>
      </trkpt>
      <trkpt lat="21.425674" lon="105.49202">
        <ele>5448.3</ele>
        <time>2026-07-29T12:21:10Z</time>
      </trkpt>
      <trkpt lat="21.420364" lon="105.488525">
        <ele>5486.400000000001</ele>
        <time>2026-07-29T12:21:10Z</time>
      </trkpt>
      <trkpt lat="21.412075" lon="105.48452">
        <ele>5539.740000000001</ele>
        <time>2026-07-29T12:21:10Z</time>
      </trkpt>
      <trkpt lat="21.407513" lon="105.482994">
        <ele>5577.84</ele>
        <time>2026-07-29T12:21:10Z</time>
      </trkpt>
      <trkpt lat="21.404392" lon="105.482124">
        <ele>5593.08</ele>
        <time>2026-07-29T12:21:10Z</time>
      </trkpt>
      <trkpt lat="21.400621" lon="105.481415">
        <ele>5623.56</ele>
        <time>2026-07-29T12:21:10Z</time>
      </trkpt>
      <trkpt lat="21.397551" lon="105.48101">
        <ele>5638.8</ele>
        <time>2026-07-29T12:21:10Z</time>
      </trkpt>
      <trkpt lat="21.394272" lon="105.480736">
        <ele>5661.66</ele>
        <time>2026-07-29T12:21:10Z</time>
      </trkpt>
      <trkpt lat="21.390659" lon="105.480705">
        <ele>5684.52</ele>
        <time>2026-07-29T12:21:10Z</time>
      </trkpt>
      <trkpt lat="21.387774" lon="105.480858">
        <ele>5707.38</ele>
        <time>2026-07-29T12:21:10Z</time>
      </trkpt>
      <trkpt lat="21.384701" lon="105.481163">
        <ele>5722.62</ele>
        <time>2026-07-29T12:21:10Z</time>
      </trkpt>
      <trkpt lat="21.380186" lon="105.481926">
        <ele>5753.1</ele>
        <time>2026-07-29T12:21:10Z</time>
      </trkpt>
      <trkpt lat="21.377068" lon="105.482635">
        <ele>5768.34</ele>
        <time>2026-07-29T12:21:10Z</time>
      </trkpt>
      <trkpt lat="21.374039" lon="105.483582">
        <ele>5791.200000000001</ele>
        <time>2026-07-29T12:21:10Z</time>
      </trkpt>
      <trkpt lat="21.370644" lon="105.484825">
        <ele>5806.4400000000005</ele>
        <time>2026-07-29T12:21:10Z</time>
      </trkpt>
      <trkpt lat="21.368082" lon="105.485893">
        <ele>5821.68</ele>
        <time>2026-07-29T12:21:10Z</time>
      </trkpt>
      <trkpt lat="21.36068" lon="105.48996">
        <ele>5867.400000000001</ele>
        <time>2026-07-29T12:21:10Z</time>
      </trkpt>
      <trkpt lat="21.357981" lon="105.491791">
        <ele>5882.64</ele>
        <time>2026-07-29T12:21:10Z</time>
      </trkpt>
      <trkpt lat="21.353622" lon="105.495316">
        <ele>5920.740000000001</ele>
        <time>2026-07-29T12:21:10Z</time>
      </trkpt>
      <trkpt lat="21.351974" lon="105.496819">
        <ele>5928.360000000001</ele>
        <time>2026-07-29T12:21:10Z</time>
      </trkpt>
      <trkpt lat="21.347738" lon="105.501251">
        <ele>5966.46</ele>
        <time>2026-07-29T12:21:10Z</time>
      </trkpt>
      <trkpt lat="21.345598" lon="105.503845">
        <ele>5989.320000000001</ele>
        <time>2026-07-29T12:21:10Z</time>
      </trkpt>
      <trkpt lat="21.343735" lon="105.506355">
        <ele>6004.56</ele>
        <time>2026-07-29T12:21:10Z</time>
      </trkpt>
      <trkpt lat="21.341454" lon="105.509743">
        <ele>6027.42</ele>
        <time>2026-07-29T12:21:10Z</time>
      </trkpt>
      <trkpt lat="21.339752" lon="105.512642">
        <ele>6042.66</ele>
        <time>2026-07-29T12:21:10Z</time>
      </trkpt>
      <trkpt lat="21.33815" lon="105.515694">
        <ele>6057.900000000001</ele>
        <time>2026-07-29T12:21:10Z</time>
      </trkpt>
      <trkpt lat="21.336567" lon="105.519203">
        <ele>6080.76</ele>
        <time>2026-07-29T12:21:10Z</time>
      </trkpt>
      <trkpt lat="21.335449" lon="105.522102">
        <ele>6088.38</ele>
        <time>2026-07-29T12:21:10Z</time>
      </trkpt>
      <trkpt lat="21.334259" lon="105.525482">
        <ele>6111.240000000001</ele>
        <time>2026-07-29T12:21:10Z</time>
      </trkpt>
      <trkpt lat="21.333168" lon="105.529381">
        <ele>6126.4800000000005</ele>
        <time>2026-07-29T12:21:10Z</time>
      </trkpt>
      <trkpt lat="21.332428" lon="105.53257">
        <ele>6141.72</ele>
        <time>2026-07-29T12:21:10Z</time>
      </trkpt>
      <trkpt lat="21.331696" lon="105.536713">
        <ele>6156.96</ele>
        <time>2026-07-29T12:21:10Z</time>
      </trkpt>
      <trkpt lat="21.331284" lon="105.540062">
        <ele>6172.200000000001</ele>
        <time>2026-07-29T12:21:10Z</time>
      </trkpt>
      <trkpt lat="21.331055" lon="105.542908">
        <ele>6187.4400000000005</ele>
        <time>2026-07-29T12:21:10Z</time>
      </trkpt>
      <trkpt lat="21.330963" lon="105.547501">
        <ele>6202.68</ele>
        <time>2026-07-29T12:21:10Z</time>
      </trkpt>
      <trkpt lat="21.331055" lon="105.550697">
        <ele>6217.92</ele>
        <time>2026-07-29T12:21:10Z</time>
      </trkpt>
      <trkpt lat="21.331306" lon="105.554199">
        <ele>6233.160000000001</ele>
        <time>2026-07-29T12:21:10Z</time>
      </trkpt>
      <trkpt lat="21.331741" lon="105.557838">
        <ele>6256.02</ele>
        <time>2026-07-29T12:21:10Z</time>
      </trkpt>
      <trkpt lat="21.332563" lon="105.562439">
        <ele>6278.88</ele>
        <time>2026-07-29T12:21:10Z</time>
      </trkpt>
      <trkpt lat="21.333389" lon="105.565826">
        <ele>6294.12</ele>
        <time>2026-07-29T12:21:10Z</time>
      </trkpt>
      <trkpt lat="21.334396" lon="105.569275">
        <ele>6309.360000000001</ele>
        <time>2026-07-29T12:21:10Z</time>
      </trkpt>
      <trkpt lat="21.335449" lon="105.572411">
        <ele>6324.6</ele>
        <time>2026-07-29T12:21:10Z</time>
      </trkpt>
      <trkpt lat="21.336731" lon="105.575668">
        <ele>6347.46</ele>
        <time>2026-07-29T12:21:10Z</time>
      </trkpt>
      <trkpt lat="21.338196" lon="105.578964">
        <ele>6362.700000000001</ele>
        <time>2026-07-29T12:21:10Z</time>
      </trkpt>
      <trkpt lat="21.339981" lon="105.582458">
        <ele>6377.9400000000005</ele>
        <time>2026-07-29T12:21:10Z</time>
      </trkpt>
      <trkpt lat="21.34164" lon="105.585327">
        <ele>6400.8</ele>
        <time>2026-07-29T12:21:10Z</time>
      </trkpt>
      <trkpt lat="21.343918" lon="105.588852">
        <ele>6416.04</ele>
        <time>2026-07-29T12:21:10Z</time>
      </trkpt>
      <trkpt lat="21.345795" lon="105.591499">
        <ele>6438.900000000001</ele>
        <time>2026-07-29T12:21:10Z</time>
      </trkpt>
      <trkpt lat="21.348129" lon="105.594391">
        <ele>6454.14</ele>
        <time>2026-07-29T12:21:10Z</time>
      </trkpt>
      <trkpt lat="21.350372" lon="105.596939">
        <ele>6469.38</ele>
        <time>2026-07-29T12:21:10Z</time>
      </trkpt>
      <trkpt lat="21.352615" lon="105.599289">
        <ele>6484.62</ele>
        <time>2026-07-29T12:21:10Z</time>
      </trkpt>
      <trkpt lat="21.355513" lon="105.602013">
        <ele>6499.860000000001</ele>
        <time>2026-07-29T12:21:10Z</time>
      </trkpt>
      <trkpt lat="21.35812" lon="105.604195">
        <ele>6515.1</ele>
        <time>2026-07-29T12:21:10Z</time>
      </trkpt>
      <trkpt lat="21.36096" lon="105.606384">
        <ele>6537.96</ele>
        <time>2026-07-29T12:21:10Z</time>
      </trkpt>
      <trkpt lat="21.363894" lon="105.608368">
        <ele>6553.200000000001</ele>
        <time>2026-07-29T12:21:10Z</time>
      </trkpt>
      <trkpt lat="21.36664" lon="105.6101">
        <ele>6568.4400000000005</ele>
        <time>2026-07-29T12:21:10Z</time>
      </trkpt>
      <trkpt lat="21.369759" lon="105.611824">
        <ele>6583.68</ele>
        <time>2026-07-29T12:21:10Z</time>
      </trkpt>
      <trkpt lat="21.373995" lon="105.613861">
        <ele>6606.54</ele>
        <time>2026-07-29T12:21:10Z</time>
      </trkpt>
      <trkpt lat="21.377197" lon="105.615219">
        <ele>6614.160000000001</ele>
        <time>2026-07-29T12:21:10Z</time>
      </trkpt>
      <trkpt lat="21.380651" lon="105.616455">
        <ele>6629.400000000001</ele>
        <time>2026-07-29T12:21:10Z</time>
      </trkpt>
      <trkpt lat="21.384476" lon="105.617615">
        <ele>6644.64</ele>
        <time>2026-07-29T12:21:10Z</time>
      </trkpt>
      <trkpt lat="21.387314" lon="105.618317">
        <ele>6652.26</ele>
        <time>2026-07-29T12:21:10Z</time>
      </trkpt>
      <trkpt lat="21.391525" lon="105.61911">
        <ele>6659.88</ele>
        <time>2026-07-29T12:21:10Z</time>
      </trkpt>
      <trkpt lat="21.394913" lon="105.619614">
        <ele>6675.12</ele>
        <time>2026-07-29T12:21:10Z</time>
      </trkpt>
      <trkpt lat="21.398575" lon="105.619911">
        <ele>6682.740000000001</ele>
        <time>2026-07-29T12:21:10Z</time>
      </trkpt>
      <trkpt lat="21.401693" lon="105.620064">
        <ele>6690.360000000001</ele>
        <time>2026-07-29T12:21:10Z</time>
      </trkpt>
      <trkpt lat="21.405075" lon="105.620163">
        <ele>6705.6</ele>
        <time>2026-07-29T12:21:10Z</time>
      </trkpt>
      <trkpt lat="21.409378" lon="105.62011">
        <ele>6720.84</ele>
        <time>2026-07-29T12:21:10Z</time>
      </trkpt>
      <trkpt lat="21.41217" lon="105.620064">
        <ele>6728.46</ele>
        <time>2026-07-29T12:21:10Z</time>
      </trkpt>
      <trkpt lat="21.415565" lon="105.619911">
        <ele>6743.700000000001</ele>
        <time>2026-07-29T12:21:10Z</time>
      </trkpt>
      <trkpt lat="21.419128" lon="105.619812">
        <ele>6766.56</ele>
        <time>2026-07-29T12:21:10Z</time>
      </trkpt>
      <trkpt lat="21.422745" lon="105.619659">
        <ele>6781.8</ele>
        <time>2026-07-29T12:21:10Z</time>
      </trkpt>
      <trkpt lat="21.426691" lon="105.619606">
        <ele>6797.04</ele>
        <time>2026-07-29T12:21:10Z</time>
      </trkpt>
      <trkpt lat="21.43051" lon="105.619713">
        <ele>6819.900000000001</ele>
        <time>2026-07-29T12:21:10Z</time>
      </trkpt>
      <trkpt lat="21.433954" lon="105.619965">
        <ele>6835.14</ele>
        <time>2026-07-29T12:21:10Z</time>
      </trkpt>
      <trkpt lat="21.437531" lon="105.620308">
        <ele>6858.0</ele>
        <time>2026-07-29T12:21:10Z</time>
      </trkpt>
      <trkpt lat="21.442017" lon="105.62101">
        <ele>6873.240000000001</ele>
        <time>2026-07-29T12:21:10Z</time>
      </trkpt>
      <trkpt lat="21.445499" lon="105.621742">
        <ele>6888.4800000000005</ele>
        <time>2026-07-29T12:21:10Z</time>
      </trkpt>
      <trkpt lat="21.448792" lon="105.622612">
        <ele>6903.72</ele>
        <time>2026-07-29T12:21:10Z</time>
      </trkpt>
      <trkpt lat="21.452063" lon="105.623627">
        <ele>6911.34</ele>
        <time>2026-07-29T12:21:10Z</time>
      </trkpt>
      <trkpt lat="21.456066" lon="105.625053">
        <ele>6918.96</ele>
        <time>2026-07-29T12:21:10Z</time>
      </trkpt>
      <trkpt lat="21.459465" lon="105.626526">
        <ele>6926.58</ele>
        <time>2026-07-29T12:21:10Z</time>
      </trkpt>
      <trkpt lat="21.46249" lon="105.628052">
        <ele>6934.200000000001</ele>
        <time>2026-07-29T12:21:10Z</time>
      </trkpt>
      <trkpt lat="21.465609" lon="105.629784">
        <ele>6934.200000000001</ele>
        <time>2026-07-29T12:21:10Z</time>
      </trkpt>
      <trkpt lat="21.46875" lon="105.631699">
        <ele>6941.820000000001</ele>
        <time>2026-07-29T12:21:10Z</time>
      </trkpt>
      <trkpt lat="21.471754" lon="105.633797">
        <ele>6949.4400000000005</ele>
        <time>2026-07-29T12:21:10Z</time>
      </trkpt>
      <trkpt lat="21.47525" lon="105.636543">
        <ele>6964.68</ele>
        <time>2026-07-29T12:21:10Z</time>
      </trkpt>
      <trkpt lat="21.477945" lon="105.638885">
        <ele>6972.3</ele>
        <time>2026-07-29T12:21:10Z</time>
      </trkpt>
      <trkpt lat="21.480652" lon="105.641434">
        <ele>6979.92</ele>
        <time>2026-07-29T12:21:10Z</time>
      </trkpt>
      <trkpt lat="21.483307" lon="105.644234">
        <ele>6987.54</ele>
        <time>2026-07-29T12:21:10Z</time>
      </trkpt>
      <trkpt lat="21.486139" lon="105.647484">
        <ele>7002.780000000001</ele>
        <time>2026-07-29T12:21:10Z</time>
      </trkpt>
      <trkpt lat="21.48848" lon="105.650475">
        <ele>7010.400000000001</ele>
        <time>2026-07-29T12:21:10Z</time>
      </trkpt>
      <trkpt lat="21.490677" lon="105.653473">
        <ele>7018.02</ele>
        <time>2026-07-29T12:21:10Z</time>
      </trkpt>
      <trkpt lat="21.492889" lon="105.656586">
        <ele>7025.64</ele>
        <time>2026-07-29T12:21:10Z</time>
      </trkpt>
      <trkpt lat="21.495117" lon="105.659966">
        <ele>7033.26</ele>
        <time>2026-07-29T12:21:10Z</time>
      </trkpt>
      <trkpt lat="21.497358" lon="105.6633">
        <ele>7040.88</ele>
        <time>2026-07-29T12:21:10Z</time>
      </trkpt>
      <trkpt lat="21.499878" lon="105.667206">
        <ele>7048.5</ele>
        <time>2026-07-29T12:21:10Z</time>
      </trkpt>
      <trkpt lat="21.502029" lon="105.670547">
        <ele>7056.120000000001</ele>
        <time>2026-07-29T12:21:10Z</time>
      </trkpt>
      <trkpt lat="21.504248" lon="105.673927">
        <ele>7071.360000000001</ele>
        <time>2026-07-29T12:21:10Z</time>
      </trkpt>
      <trkpt lat="21.506435" lon="105.677284">
        <ele>7078.9800000000005</ele>
        <time>2026-07-29T12:21:10Z</time>
      </trkpt>
      <trkpt lat="21.508575" lon="105.680588">
        <ele>7086.6</ele>
        <time>2026-07-29T12:21:10Z</time>
      </trkpt>
      <trkpt lat="21.5103" lon="105.683235">
        <ele>7094.22</ele>
        <time>2026-07-29T12:21:10Z</time>
      </trkpt>
      <trkpt lat="21.51297" lon="105.687325">
        <ele>7117.08</ele>
        <time>2026-07-29T12:21:10Z</time>
      </trkpt>
      <trkpt lat="21.515076" lon="105.690475">
        <ele>7132.320000000001</ele>
        <time>2026-07-29T12:21:10Z</time>
      </trkpt>
      <trkpt lat="21.535355" lon="105.72438">
        <ele>7299.96</ele>
        <time>2026-07-29T12:21:10Z</time>
      </trkpt>
      <trkpt lat="21.536865" lon="105.72818">
        <ele>7315.200000000001</ele>
        <time>2026-07-29T12:21:10Z</time>
      </trkpt>
      <trkpt lat="21.538193" lon="105.732071">
        <ele>7338.06</ele>
        <time>2026-07-29T12:21:10Z</time>
      </trkpt>
      <trkpt lat="21.53952" lon="105.736519">
        <ele>7360.92</ele>
        <time>2026-07-29T12:21:10Z</time>
      </trkpt>
      <trkpt lat="21.540527" lon="105.740311">
        <ele>7383.780000000001</ele>
        <time>2026-07-29T12:21:10Z</time>
      </trkpt>
      <trkpt lat="21.54158" lon="105.744858">
        <ele>7406.64</ele>
        <time>2026-07-29T12:21:10Z</time>
      </trkpt>
      <trkpt lat="21.542421" lon="105.748749">
        <ele>7429.5</ele>
        <time>2026-07-29T12:21:10Z</time>
      </trkpt>
      <trkpt lat="21.543274" lon="105.752846">
        <ele>7444.740000000001</ele>
        <time>2026-07-29T12:21:10Z</time>
      </trkpt>
      <trkpt lat="21.544189" lon="105.757439">
        <ele>7467.6</ele>
        <time>2026-07-29T12:21:10Z</time>
      </trkpt>
      <trkpt lat="21.544794" lon="105.760551">
        <ele>7475.22</ele>
        <time>2026-07-29T12:21:10Z</time>
      </trkpt>
      <trkpt lat="21.545725" lon="105.765381">
        <ele>7498.08</ele>
        <time>2026-07-29T12:21:10Z</time>
      </trkpt>
      <trkpt lat="21.546471" lon="105.769196">
        <ele>7505.700000000001</ele>
        <time>2026-07-29T12:21:10Z</time>
      </trkpt>
      <trkpt lat="21.54744" lon="105.774269">
        <ele>7520.9400000000005</ele>
        <time>2026-07-29T12:21:10Z</time>
      </trkpt>
      <trkpt lat="21.548355" lon="105.778915">
        <ele>7536.18</ele>
        <time>2026-07-29T12:21:10Z</time>
      </trkpt>
      <trkpt lat="21.549179" lon="105.783356">
        <ele>7543.8</ele>
        <time>2026-07-29T12:21:10Z</time>
      </trkpt>
      <trkpt lat="21.558714" lon="105.844673">
        <ele>7741.92</ele>
        <time>2026-07-29T12:21:10Z</time>
      </trkpt>
      <trkpt lat="21.559086" lon="105.852661">
        <ele>7772.400000000001</ele>
        <time>2026-07-29T12:21:10Z</time>
      </trkpt>
      <trkpt lat="21.559179" lon="105.856834">
        <ele>7787.64</ele>
        <time>2026-07-29T12:21:10Z</time>
      </trkpt>
      <trkpt lat="21.559204" lon="105.86171">
        <ele>7810.5</ele>
        <time>2026-07-29T12:21:10Z</time>
      </trkpt>
      <trkpt lat="21.559179" lon="105.865578">
        <ele>7833.360000000001</ele>
        <time>2026-07-29T12:21:10Z</time>
      </trkpt>
      <trkpt lat="21.559179" lon="105.869347">
        <ele>7848.6</ele>
        <time>2026-07-29T12:21:10Z</time>
      </trkpt>
      <trkpt lat="21.559158" lon="105.874748">
        <ele>7886.700000000001</ele>
        <time>2026-07-29T12:21:10Z</time>
      </trkpt>
      <trkpt lat="21.559134" lon="105.878395">
        <ele>7909.56</ele>
        <time>2026-07-29T12:21:10Z</time>
      </trkpt>
      <trkpt lat="21.559113" lon="105.882233">
        <ele>7932.42</ele>
        <time>2026-07-29T12:21:10Z</time>
      </trkpt>
      <trkpt lat="21.559113" lon="105.941261">
        <ele>8191.5</ele>
        <time>2026-07-29T12:21:10Z</time>
      </trkpt>
      <trkpt lat="21.560944" lon="106.00573">
        <ele>8343.9</ele>
        <time>2026-07-29T12:21:10Z</time>
      </trkpt>
      <trkpt lat="21.562857" lon="106.066132">
        <ele>8412.48</ele>
        <time>2026-07-29T12:21:10Z</time>
      </trkpt>
      <trkpt lat="21.564926" lon="106.133423">
        <ele>8519.16</ele>
        <time>2026-07-29T12:21:10Z</time>
      </trkpt>
      <trkpt lat="21.57012" lon="106.201073">
        <ele>8717.28</ele>
        <time>2026-07-29T12:21:10Z</time>
      </trkpt>
      <trkpt lat="21.571014" lon="106.204987">
        <ele>8724.9</ele>
        <time>2026-07-29T12:21:10Z</time>
      </trkpt>
      <trkpt lat="21.57193" lon="106.208778">
        <ele>8740.140000000001</ele>
        <time>2026-07-29T12:21:10Z</time>
      </trkpt>
      <trkpt lat="21.573238" lon="106.213684">
        <ele>8747.76</ele>
        <time>2026-07-29T12:21:10Z</time>
      </trkpt>
      <trkpt lat="21.574493" lon="106.218117">
        <ele>8763.0</ele>
        <time>2026-07-29T12:21:10Z</time>
      </trkpt>
      <trkpt lat="21.575705" lon="106.221977">
        <ele>8770.62</ele>
        <time>2026-07-29T12:21:10Z</time>
      </trkpt>
      <trkpt lat="21.576962" lon="106.225685">
        <ele>8778.24</ele>
        <time>2026-07-29T12:21:10Z</time>
      </trkpt>
      <trkpt lat="21.578568" lon="106.230255">
        <ele>8785.86</ele>
        <time>2026-07-29T12:21:10Z</time>
      </trkpt>
      <trkpt lat="21.580406" lon="106.235146">
        <ele>8793.48</ele>
        <time>2026-07-29T12:21:10Z</time>
      </trkpt>
      <trkpt lat="21.581497" lon="106.238144">
        <ele>8801.1</ele>
        <time>2026-07-29T12:21:10Z</time>
      </trkpt>
      <trkpt lat="21.583054" lon="106.242188">
        <ele>8808.720000000001</ele>
        <time>2026-07-29T12:21:10Z</time>
      </trkpt>
      <trkpt lat="21.584839" lon="106.246834">
        <ele>8816.34</ele>
        <time>2026-07-29T12:21:10Z</time>
      </trkpt>
      <trkpt lat="21.586645" lon="106.251526">
        <ele>8823.960000000001</ele>
        <time>2026-07-29T12:21:10Z</time>
      </trkpt>
      <trkpt lat="21.608963" lon="106.310455">
        <ele>8915.4</ele>
        <time>2026-07-29T12:21:10Z</time>
      </trkpt>
      <trkpt lat="21.634872" lon="106.364189">
        <ele>9083.04</ele>
        <time>2026-07-29T12:21:10Z</time>
      </trkpt>
      <trkpt lat="21.637108" lon="106.367897">
        <ele>9098.28</ele>
        <time>2026-07-29T12:21:10Z</time>
      </trkpt>
      <trkpt lat="21.639202" lon="106.371254">
        <ele>9105.9</ele>
        <time>2026-07-29T12:21:10Z</time>
      </trkpt>
      <trkpt lat="21.641949" lon="106.37558">
        <ele>9121.140000000001</ele>
        <time>2026-07-29T12:21:10Z</time>
      </trkpt>
      <trkpt lat="21.644852" lon="106.380013">
        <ele>9136.380000000001</ele>
        <time>2026-07-29T12:21:10Z</time>
      </trkpt>
      <trkpt lat="21.647116" lon="106.383308">
        <ele>9144.0</ele>
        <time>2026-07-29T12:21:10Z</time>
      </trkpt>
      <trkpt lat="21.649979" lon="106.387459">
        <ele>9151.62</ele>
        <time>2026-07-29T12:21:10Z</time>
      </trkpt>
      <trkpt lat="21.65233" lon="106.390739">
        <ele>9159.24</ele>
        <time>2026-07-29T12:21:10Z</time>
      </trkpt>
      <trkpt lat="21.655497" lon="106.395111">
        <ele>9166.86</ele>
        <time>2026-07-29T12:21:10Z</time>
      </trkpt>
      <trkpt lat="21.658173" lon="106.398643">
        <ele>9174.48</ele>
        <time>2026-07-29T12:21:10Z</time>
      </trkpt>
      <trkpt lat="21.660919" lon="106.402237">
        <ele>9189.720000000001</ele>
        <time>2026-07-29T12:21:10Z</time>
      </trkpt>
      <trkpt lat="21.664169" lon="106.406235">
        <ele>9197.34</ele>
        <time>2026-07-29T12:21:10Z</time>
      </trkpt>
      <trkpt lat="21.666807" lon="106.409508">
        <ele>9204.960000000001</ele>
        <time>2026-07-29T12:21:10Z</time>
      </trkpt>
      <trkpt lat="21.669601" lon="106.412865">
        <ele>9212.58</ele>
        <time>2026-07-29T12:21:10Z</time>
      </trkpt>
      <trkpt lat="21.672581" lon="106.416267">
        <ele>9220.2</ele>
        <time>2026-07-29T12:21:10Z</time>
      </trkpt>
      <trkpt lat="21.674698" lon="106.418671">
        <ele>9227.82</ele>
        <time>2026-07-29T12:21:10Z</time>
      </trkpt>
      <trkpt lat="21.678314" lon="106.422661">
        <ele>9235.44</ele>
        <time>2026-07-29T12:21:10Z</time>
      </trkpt>
      <trkpt lat="21.68189" lon="106.426491">
        <ele>9243.060000000001</ele>
        <time>2026-07-29T12:21:10Z</time>
      </trkpt>
      <trkpt lat="21.684814" lon="106.429504">
        <ele>9258.300000000001</ele>
        <time>2026-07-29T12:21:10Z</time>
      </trkpt>
      <trkpt lat="21.687616" lon="106.432343">
        <ele>9265.92</ele>
        <time>2026-07-29T12:21:10Z</time>
      </trkpt>
      <trkpt lat="21.6919" lon="106.436516">
        <ele>9281.16</ele>
        <time>2026-07-29T12:21:10Z</time>
      </trkpt>
      <trkpt lat="21.694656" lon="106.43914">
        <ele>9296.4</ele>
        <time>2026-07-29T12:21:10Z</time>
      </trkpt>
      <trkpt lat="21.698324" lon="106.442566">
        <ele>9304.02</ele>
        <time>2026-07-29T12:21:10Z</time>
      </trkpt>
      <trkpt lat="21.70149" lon="106.445412">
        <ele>9319.26</ele>
        <time>2026-07-29T12:21:10Z</time>
      </trkpt>
      <trkpt lat="21.704636" lon="106.448181">
        <ele>9326.880000000001</ele>
        <time>2026-07-29T12:21:10Z</time>
      </trkpt>
      <trkpt lat="21.706833" lon="106.450081">
        <ele>9334.5</ele>
        <time>2026-07-29T12:21:10Z</time>
      </trkpt>
      <trkpt lat="21.711365" lon="106.453873">
        <ele>9342.12</ele>
        <time>2026-07-29T12:21:10Z</time>
      </trkpt>
      <trkpt lat="21.715164" lon="106.45697">
        <ele>9349.74</ele>
        <time>2026-07-29T12:21:10Z</time>
      </trkpt>
      <trkpt lat="21.718552" lon="106.459618">
        <ele>9357.36</ele>
        <time>2026-07-29T12:21:10Z</time>
      </trkpt>
      <trkpt lat="21.722019" lon="106.462303">
        <ele>9364.98</ele>
        <time>2026-07-29T12:21:10Z</time>
      </trkpt>
      <trkpt lat="21.726013" lon="106.465309">
        <ele>9372.6</ele>
        <time>2026-07-29T12:21:10Z</time>
      </trkpt>
      <trkpt lat="21.73233" lon="106.469803">
        <ele>9395.460000000001</ele>
        <time>2026-07-29T12:21:10Z</time>
      </trkpt>
      <trkpt lat="21.787052" lon="106.50843">
        <ele>9448.800000000001</ele>
        <time>2026-07-29T12:21:10Z</time>
      </trkpt>
      <trkpt lat="21.841141" lon="106.546661">
        <ele>9448.800000000001</ele>
        <time>2026-07-29T12:21:10Z</time>
      </trkpt>
      <trkpt lat="21.897263" lon="106.586159">
        <ele>9448.800000000001</ele>
        <time>2026-07-29T12:21:10Z</time>
      </trkpt>
      <trkpt lat="21.952194" lon="106.624863">
        <ele>9448.800000000001</ele>
        <time>2026-07-29T12:21:10Z</time>
      </trkpt>
      <trkpt lat="22.009014" lon="106.665039">
        <ele>9448.800000000001</ele>
        <time>2026-07-29T12:21:10Z</time>
      </trkpt>
      <trkpt lat="22.065388" lon="106.704865">
        <ele>9448.800000000001</ele>
        <time>2026-07-29T12:21:10Z</time>
      </trkpt>
      <trkpt lat="22.118319" lon="106.7453">
        <ele>9448.800000000001</ele>
        <time>2026-07-29T12:21:10Z</time>
      </trkpt>
      <trkpt lat="22.167059" lon="106.792854">
        <ele>9448.800000000001</ele>
        <time>2026-07-29T12:21:10Z</time>
      </trkpt>
      <trkpt lat="22.215147" lon="106.844383">
        <ele>9448.800000000001</ele>
        <time>2026-07-29T12:21:10Z</time>
      </trkpt>
      <trkpt lat="22.242846" lon="106.880592">
        <ele>9464.04</ele>
        <time>2026-07-29T12:21:10Z</time>
      </trkpt>
      <trkpt lat="22.245964" lon="106.885429">
        <ele>9464.04</ele>
        <time>2026-07-29T12:21:10Z</time>
      </trkpt>
      <trkpt lat="22.247726" lon="106.888184">
        <ele>9464.04</ele>
        <time>2026-07-29T12:21:10Z</time>
      </trkpt>
      <trkpt lat="22.251272" lon="106.893921">
        <ele>9471.66</ele>
        <time>2026-07-29T12:21:10Z</time>
      </trkpt>
      <trkpt lat="22.253586" lon="106.897873">
        <ele>9471.66</ele>
        <time>2026-07-29T12:21:10Z</time>
      </trkpt>
      <trkpt lat="22.25588" lon="106.901802">
        <ele>9471.66</ele>
        <time>2026-07-29T12:21:10Z</time>
      </trkpt>
      <trkpt lat="22.257835" lon="106.905312">
        <ele>9479.28</ele>
        <time>2026-07-29T12:21:10Z</time>
      </trkpt>
      <trkpt lat="22.260536" lon="106.910194">
        <ele>9479.28</ele>
        <time>2026-07-29T12:21:10Z</time>
      </trkpt>
      <trkpt lat="22.262146" lon="106.913254">
        <ele>9479.28</ele>
        <time>2026-07-29T12:21:10Z</time>
      </trkpt>
      <trkpt lat="22.264709" lon="106.918198">
        <ele>9479.28</ele>
        <time>2026-07-29T12:21:10Z</time>
      </trkpt>
      <trkpt lat="22.267611" lon="106.924133">
        <ele>9479.28</ele>
        <time>2026-07-29T12:21:10Z</time>
      </trkpt>
      <trkpt lat="22.26952" lon="106.928154">
        <ele>9479.28</ele>
        <time>2026-07-29T12:21:10Z</time>
      </trkpt>
      <trkpt lat="22.27194" lon="106.933441">
        <ele>9479.28</ele>
        <time>2026-07-29T12:21:10Z</time>
      </trkpt>
      <trkpt lat="22.273911" lon="106.937874">
        <ele>9479.28</ele>
        <time>2026-07-29T12:21:10Z</time>
      </trkpt>
      <trkpt lat="22.275339" lon="106.941223">
        <ele>9479.28</ele>
        <time>2026-07-29T12:21:10Z</time>
      </trkpt>
      <trkpt lat="22.277481" lon="106.946411">
        <ele>9479.28</ele>
        <time>2026-07-29T12:21:10Z</time>
      </trkpt>
      <trkpt lat="22.279587" lon="106.951706">
        <ele>9479.28</ele>
        <time>2026-07-29T12:21:10Z</time>
      </trkpt>
      <trkpt lat="22.280869" lon="106.955048">
        <ele>9479.28</ele>
        <time>2026-07-29T12:21:10Z</time>
      </trkpt>
      <trkpt lat="22.282928" lon="106.960747">
        <ele>9479.28</ele>
        <time>2026-07-29T12:21:10Z</time>
      </trkpt>
      <trkpt lat="22.284464" lon="106.96508">
        <ele>9479.28</ele>
        <time>2026-07-29T12:21:10Z</time>
      </trkpt>
      <trkpt lat="22.286041" lon="106.969681">
        <ele>9479.28</ele>
        <time>2026-07-29T12:21:10Z</time>
      </trkpt>
      <trkpt lat="22.287722" lon="106.974892">
        <ele>9479.28</ele>
        <time>2026-07-29T12:21:10Z</time>
      </trkpt>
      <trkpt lat="22.289444" lon="106.980492">
        <ele>9479.28</ele>
        <time>2026-07-29T12:21:10Z</time>
      </trkpt>
      <trkpt lat="22.290665" lon="106.984711">
        <ele>9479.28</ele>
        <time>2026-07-29T12:21:10Z</time>
      </trkpt>
      <trkpt lat="22.291809" lon="106.988861">
        <ele>9479.28</ele>
        <time>2026-07-29T12:21:10Z</time>
      </trkpt>
      <trkpt lat="22.293137" lon="106.993851">
        <ele>9479.28</ele>
        <time>2026-07-29T12:21:10Z</time>
      </trkpt>
      <trkpt lat="22.296381" lon="107.007393">
        <ele>9479.28</ele>
        <time>2026-07-29T12:21:10Z</time>
      </trkpt>
      <trkpt lat="22.297302" lon="107.011681">
        <ele>9479.28</ele>
        <time>2026-07-29T12:21:10Z</time>
      </trkpt>
      <trkpt lat="22.298569" lon="107.018028">
        <ele>9479.28</ele>
        <time>2026-07-29T12:21:10Z</time>
      </trkpt>
      <trkpt lat="22.299591" lon="107.023468">
        <ele>9479.28</ele>
        <time>2026-07-29T12:21:10Z</time>
      </trkpt>
      <trkpt lat="22.314489" lon="107.10556">
        <ele>9479.28</ele>
        <time>2026-07-29T12:21:10Z</time>
      </trkpt>
      <trkpt lat="22.326731" lon="107.172798">
        <ele>9479.28</ele>
        <time>2026-07-29T12:21:10Z</time>
      </trkpt>
      <trkpt lat="22.34079" lon="107.250877">
        <ele>9486.9</ele>
        <time>2026-07-29T12:21:10Z</time>
      </trkpt>
      <trkpt lat="22.355129" lon="107.329712">
        <ele>9494.52</ele>
        <time>2026-07-29T12:21:10Z</time>
      </trkpt>
      <trkpt lat="22.371889" lon="107.42289">
        <ele>9494.52</ele>
        <time>2026-07-29T12:21:10Z</time>
      </trkpt>
      <trkpt lat="22.384504" lon="107.492676">
        <ele>9494.52</ele>
        <time>2026-07-29T12:21:10Z</time>
      </trkpt>
      <trkpt lat="22.397186" lon="107.563293">
        <ele>9486.9</ele>
        <time>2026-07-29T12:21:10Z</time>
      </trkpt>
      <trkpt lat="22.409828" lon="107.63372">
        <ele>9486.9</ele>
        <time>2026-07-29T12:21:10Z</time>
      </trkpt>
      <trkpt lat="22.423325" lon="107.709259">
        <ele>9479.28</ele>
        <time>2026-07-29T12:21:10Z</time>
      </trkpt>
      <trkpt lat="22.435867" lon="107.779625">
        <ele>9471.66</ele>
        <time>2026-07-29T12:21:10Z</time>
      </trkpt>
      <trkpt lat="22.448467" lon="107.850441">
        <ele>9464.04</ele>
        <time>2026-07-29T12:21:10Z</time>
      </trkpt>
      <trkpt lat="22.460663" lon="107.919106">
        <ele>9464.04</ele>
        <time>2026-07-29T12:21:10Z</time>
      </trkpt>
      <trkpt lat="22.473558" lon="107.992195">
        <ele>9471.66</ele>
        <time>2026-07-29T12:21:10Z</time>
      </trkpt>
      <trkpt lat="22.485809" lon="108.061523">
        <ele>9471.66</ele>
        <time>2026-07-29T12:21:10Z</time>
      </trkpt>
      <trkpt lat="22.504715" lon="108.137527">
        <ele>9479.28</ele>
        <time>2026-07-29T12:21:10Z</time>
      </trkpt>
      <trkpt lat="22.512177" lon="108.156105">
        <ele>9479.28</ele>
        <time>2026-07-29T12:21:10Z</time>
      </trkpt>
      <trkpt lat="22.515316" lon="108.163147">
        <ele>9479.28</ele>
        <time>2026-07-29T12:21:10Z</time>
      </trkpt>
      <trkpt lat="22.517643" lon="108.16803">
        <ele>9479.28</ele>
        <time>2026-07-29T12:21:10Z</time>
      </trkpt>
      <trkpt lat="22.520111" lon="108.173065">
        <ele>9479.28</ele>
        <time>2026-07-29T12:21:10Z</time>
      </trkpt>
      <trkpt lat="22.522293" lon="108.177376">
        <ele>9479.28</ele>
        <time>2026-07-29T12:21:10Z</time>
      </trkpt>
      <trkpt lat="22.524347" lon="108.181206">
        <ele>9479.28</ele>
        <time>2026-07-29T12:21:10Z</time>
      </trkpt>
      <trkpt lat="22.52593" lon="108.184151">
        <ele>9479.28</ele>
        <time>2026-07-29T12:21:10Z</time>
      </trkpt>
      <trkpt lat="22.529001" lon="108.189644">
        <ele>9479.28</ele>
        <time>2026-07-29T12:21:10Z</time>
      </trkpt>
      <trkpt lat="22.531376" lon="108.193665">
        <ele>9479.28</ele>
        <time>2026-07-29T12:21:10Z</time>
      </trkpt>
      <trkpt lat="22.533737" lon="108.197601">
        <ele>9479.28</ele>
        <time>2026-07-29T12:21:10Z</time>
      </trkpt>
      <trkpt lat="22.536301" lon="108.201752">
        <ele>9486.9</ele>
        <time>2026-07-29T12:21:10Z</time>
      </trkpt>
      <trkpt lat="22.538589" lon="108.205345">
        <ele>9479.28</ele>
        <time>2026-07-29T12:21:10Z</time>
      </trkpt>
      <trkpt lat="22.542297" lon="108.210884">
        <ele>9479.28</ele>
        <time>2026-07-29T12:21:10Z</time>
      </trkpt>
      <trkpt lat="22.54632" lon="108.216652">
        <ele>9479.28</ele>
        <time>2026-07-29T12:21:10Z</time>
      </trkpt>
      <trkpt lat="22.550125" lon="108.221924">
        <ele>9486.9</ele>
        <time>2026-07-29T12:21:10Z</time>
      </trkpt>
      <trkpt lat="22.558136" lon="108.232307">
        <ele>9486.9</ele>
        <time>2026-07-29T12:21:10Z</time>
      </trkpt>
      <trkpt lat="22.562485" lon="108.237602">
        <ele>9486.9</ele>
        <time>2026-07-29T12:21:10Z</time>
      </trkpt>
      <trkpt lat="22.565266" lon="108.240868">
        <ele>9486.9</ele>
        <time>2026-07-29T12:21:10Z</time>
      </trkpt>
      <trkpt lat="22.568338" lon="108.244324">
        <ele>9486.9</ele>
        <time>2026-07-29T12:21:10Z</time>
      </trkpt>
      <trkpt lat="22.570908" lon="108.247192">
        <ele>9486.9</ele>
        <time>2026-07-29T12:21:10Z</time>
      </trkpt>
      <trkpt lat="22.574903" lon="108.251495">
        <ele>9486.9</ele>
        <time>2026-07-29T12:21:10Z</time>
      </trkpt>
      <trkpt lat="22.579605" lon="108.256378">
        <ele>9486.9</ele>
        <time>2026-07-29T12:21:10Z</time>
      </trkpt>
      <trkpt lat="22.586105" lon="108.262772">
        <ele>9486.9</ele>
        <time>2026-07-29T12:21:10Z</time>
      </trkpt>
      <trkpt lat="22.592377" lon="108.268562">
        <ele>9486.9</ele>
        <time>2026-07-29T12:21:10Z</time>
      </trkpt>
      <trkpt lat="22.598785" lon="108.274208">
        <ele>9486.9</ele>
        <time>2026-07-29T12:21:10Z</time>
      </trkpt>
      <trkpt lat="22.607117" lon="108.28125">
        <ele>9486.9</ele>
        <time>2026-07-29T12:21:10Z</time>
      </trkpt>
      <trkpt lat="22.610561" lon="108.284096">
        <ele>9486.9</ele>
        <time>2026-07-29T12:21:10Z</time>
      </trkpt>
      <trkpt lat="22.665073" lon="108.330132">
        <ele>9486.9</ele>
        <time>2026-07-29T12:21:10Z</time>
      </trkpt>
      <trkpt lat="22.718307" lon="108.375084">
        <ele>9479.28</ele>
        <time>2026-07-29T12:21:10Z</time>
      </trkpt>
      <trkpt lat="22.769957" lon="108.418579">
        <ele>9479.28</ele>
        <time>2026-07-29T12:21:10Z</time>
      </trkpt>
      <trkpt lat="22.820745" lon="108.461555">
        <ele>9479.28</ele>
        <time>2026-07-29T12:21:10Z</time>
      </trkpt>
      <trkpt lat="22.876747" lon="108.508759">
        <ele>9479.28</ele>
        <time>2026-07-29T12:21:10Z</time>
      </trkpt>
      <trkpt lat="22.928001" lon="108.551994">
        <ele>9471.66</ele>
        <time>2026-07-29T12:21:10Z</time>
      </trkpt>
      <trkpt lat="22.981522" lon="108.597305">
        <ele>9471.66</ele>
        <time>2026-07-29T12:21:10Z</time>
      </trkpt>
      <trkpt lat="23.033936" lon="108.641655">
        <ele>9479.28</ele>
        <time>2026-07-29T12:21:10Z</time>
      </trkpt>
      <trkpt lat="23.081018" lon="108.681541">
        <ele>9479.28</ele>
        <time>2026-07-29T12:21:10Z</time>
      </trkpt>
      <trkpt lat="23.141144" lon="108.732536">
        <ele>9479.28</ele>
        <time>2026-07-29T12:21:10Z</time>
      </trkpt>
      <trkpt lat="23.180145" lon="108.765648">
        <ele>9479.28</ele>
        <time>2026-07-29T12:21:10Z</time>
      </trkpt>
      <trkpt lat="23.288317" lon="108.857323">
        <ele>9479.28</ele>
        <time>2026-07-29T12:21:10Z</time>
      </trkpt>
      <trkpt lat="23.358353" lon="108.916809">
        <ele>9479.28</ele>
        <time>2026-07-29T12:21:10Z</time>
      </trkpt>
      <trkpt lat="23.384262" lon="108.938782">
        <ele>9479.28</ele>
        <time>2026-07-29T12:21:10Z</time>
      </trkpt>
      <trkpt lat="23.41699" lon="108.966652">
        <ele>9479.28</ele>
        <time>2026-07-29T12:21:10Z</time>
      </trkpt>
      <trkpt lat="23.450689" lon="108.995308">
        <ele>9479.28</ele>
        <time>2026-07-29T12:21:10Z</time>
      </trkpt>
      <trkpt lat="23.573219" lon="109.099678">
        <ele>9479.28</ele>
        <time>2026-07-29T12:21:10Z</time>
      </trkpt>
      <trkpt lat="23.629539" lon="109.14782">
        <ele>9479.28</ele>
        <time>2026-07-29T12:21:10Z</time>
      </trkpt>
      <trkpt lat="23.68515" lon="109.195251">
        <ele>9486.9</ele>
        <time>2026-07-29T12:21:10Z</time>
      </trkpt>
      <trkpt lat="23.726513" lon="109.22908">
        <ele>9479.28</ele>
        <time>2026-07-29T12:21:10Z</time>
      </trkpt>
      <trkpt lat="23.971939" lon="109.408821">
        <ele>9471.66</ele>
        <time>2026-07-29T12:21:10Z</time>
      </trkpt>
      <trkpt lat="24.025223" lon="109.447937">
        <ele>9479.28</ele>
        <time>2026-07-29T12:21:10Z</time>
      </trkpt>
      <trkpt lat="24.086407" lon="109.492905">
        <ele>9479.28</ele>
        <time>2026-07-29T12:21:10Z</time>
      </trkpt>
      <trkpt lat="24.148132" lon="109.538322">
        <ele>9471.66</ele>
        <time>2026-07-29T12:21:10Z</time>
      </trkpt>
      <trkpt lat="24.200787" lon="109.577065">
        <ele>9471.66</ele>
        <time>2026-07-29T12:21:10Z</time>
      </trkpt>
      <trkpt lat="24.262794" lon="109.622772">
        <ele>9479.28</ele>
        <time>2026-07-29T12:21:10Z</time>
      </trkpt>
      <trkpt lat="24.324383" lon="109.668221">
        <ele>9486.9</ele>
        <time>2026-07-29T12:21:10Z</time>
      </trkpt>
      <trkpt lat="24.386436" lon="109.714294">
        <ele>9486.9</ele>
        <time>2026-07-29T12:21:10Z</time>
      </trkpt>
      <trkpt lat="24.439785" lon="109.753883">
        <ele>9479.28</ele>
        <time>2026-07-29T12:21:10Z</time>
      </trkpt>
      <trkpt lat="24.501617" lon="109.799805">
        <ele>9494.52</ele>
        <time>2026-07-29T12:21:10Z</time>
      </trkpt>
      <trkpt lat="24.563416" lon="109.845787">
        <ele>9494.52</ele>
        <time>2026-07-29T12:21:10Z</time>
      </trkpt>
      <trkpt lat="24.624023" lon="109.890999">
        <ele>9479.28</ele>
        <time>2026-07-29T12:21:10Z</time>
      </trkpt>
      <trkpt lat="24.685318" lon="109.936371">
        <ele>9471.66</ele>
        <time>2026-07-29T12:21:10Z</time>
      </trkpt>
      <trkpt lat="24.747496" lon="109.982521">
        <ele>9479.28</ele>
        <time>2026-07-29T12:21:10Z</time>
      </trkpt>
      <trkpt lat="24.808502" lon="110.027718">
        <ele>9479.28</ele>
        <time>2026-07-29T12:21:10Z</time>
      </trkpt>
      <trkpt lat="24.861053" lon="110.066887">
        <ele>9479.28</ele>
        <time>2026-07-29T12:21:10Z</time>
      </trkpt>
      <trkpt lat="24.922806" lon="110.112862">
        <ele>9471.66</ele>
        <time>2026-07-29T12:21:10Z</time>
      </trkpt>
      <trkpt lat="24.983688" lon="110.158134">
        <ele>9471.66</ele>
        <time>2026-07-29T12:21:10Z</time>
      </trkpt>
      <trkpt lat="25.045532" lon="110.204262">
        <ele>9471.66</ele>
        <time>2026-07-29T12:21:10Z</time>
      </trkpt>
      <trkpt lat="25.108612" lon="110.251312">
        <ele>9471.66</ele>
        <time>2026-07-29T12:21:10Z</time>
      </trkpt>
      <trkpt lat="25.170191" lon="110.297394">
        <ele>9486.9</ele>
        <time>2026-07-29T12:21:10Z</time>
      </trkpt>
      <trkpt lat="25.232151" lon="110.343414">
        <ele>9494.52</ele>
        <time>2026-07-29T12:21:10Z</time>
      </trkpt>
      <trkpt lat="25.295368" lon="110.390419">
        <ele>9494.52</ele>
        <time>2026-07-29T12:21:10Z</time>
      </trkpt>
      <trkpt lat="25.356949" lon="110.436249">
        <ele>9486.9</ele>
        <time>2026-07-29T12:21:10Z</time>
      </trkpt>
      <trkpt lat="25.419523" lon="110.482765">
        <ele>9479.28</ele>
        <time>2026-07-29T12:21:10Z</time>
      </trkpt>
      <trkpt lat="25.481735" lon="110.528412">
        <ele>9471.66</ele>
        <time>2026-07-29T12:21:10Z</time>
      </trkpt>
      <trkpt lat="25.54422" lon="110.574089">
        <ele>9464.04</ele>
        <time>2026-07-29T12:21:10Z</time>
      </trkpt>
      <trkpt lat="25.608385" lon="110.617867">
        <ele>9471.66</ele>
        <time>2026-07-29T12:21:10Z</time>
      </trkpt>
      <trkpt lat="25.669601" lon="110.660309">
        <ele>9479.28</ele>
        <time>2026-07-29T12:21:10Z</time>
      </trkpt>
      <trkpt lat="25.730209" lon="110.702309">
        <ele>9479.28</ele>
        <time>2026-07-29T12:21:10Z</time>
      </trkpt>
      <trkpt lat="25.75577" lon="110.719589">
        <ele>9479.28</ele>
        <time>2026-07-29T12:21:10Z</time>
      </trkpt>
      <trkpt lat="25.912745" lon="110.825745">
        <ele>9479.28</ele>
        <time>2026-07-29T12:21:10Z</time>
      </trkpt>
      <trkpt lat="26.049179" lon="110.918381">
        <ele>9479.28</ele>
        <time>2026-07-29T12:21:10Z</time>
      </trkpt>
      <trkpt lat="26.11249" lon="110.961601">
        <ele>9479.28</ele>
        <time>2026-07-29T12:21:10Z</time>
      </trkpt>
      <trkpt lat="26.16836" lon="110.99968">
        <ele>9486.9</ele>
        <time>2026-07-29T12:21:10Z</time>
      </trkpt>
      <trkpt lat="26.231091" lon="111.042549">
        <ele>9494.52</ele>
        <time>2026-07-29T12:21:10Z</time>
      </trkpt>
      <trkpt lat="26.286091" lon="111.080116">
        <ele>9494.52</ele>
        <time>2026-07-29T12:21:10Z</time>
      </trkpt>
      <trkpt lat="26.349541" lon="111.123169">
        <ele>9494.52</ele>
        <time>2026-07-29T12:21:10Z</time>
      </trkpt>
      <trkpt lat="26.415119" lon="111.167747">
        <ele>9486.9</ele>
        <time>2026-07-29T12:21:10Z</time>
      </trkpt>
      <trkpt lat="26.47468" lon="111.208214">
        <ele>9479.28</ele>
        <time>2026-07-29T12:21:10Z</time>
      </trkpt>
      <trkpt lat="26.53409" lon="111.248703">
        <ele>9479.28</ele>
        <time>2026-07-29T12:21:10Z</time>
      </trkpt>
      <trkpt lat="26.609528" lon="111.303268">
        <ele>9479.28</ele>
        <time>2026-07-29T12:21:10Z</time>
      </trkpt>
      <trkpt lat="26.64846" lon="111.332069">
        <ele>9479.28</ele>
        <time>2026-07-29T12:21:10Z</time>
      </trkpt>
      <trkpt lat="26.70932" lon="111.376747">
        <ele>9479.28</ele>
        <time>2026-07-29T12:21:10Z</time>
      </trkpt>
      <trkpt lat="26.75629" lon="111.411324">
        <ele>9479.28</ele>
        <time>2026-07-29T12:21:10Z</time>
      </trkpt>
      <trkpt lat="26.799801" lon="111.443199">
        <ele>9479.28</ele>
        <time>2026-07-29T12:21:10Z</time>
      </trkpt>
      <trkpt lat="26.92067" lon="111.528442">
        <ele>9624.060000000001</ele>
        <time>2026-07-29T12:21:10Z</time>
      </trkpt>
      <trkpt lat="26.975531" lon="111.564743">
        <ele>9768.84</ele>
        <time>2026-07-29T12:21:10Z</time>
      </trkpt>
      <trkpt lat="27.043991" lon="111.609901">
        <ele>9966.960000000001</ele>
        <time>2026-07-29T12:21:10Z</time>
      </trkpt>
      <trkpt lat="27.097309" lon="111.645073">
        <ele>10088.880000000001</ele>
        <time>2026-07-29T12:21:10Z</time>
      </trkpt>
      <trkpt lat="27.172485" lon="111.695511">
        <ele>10088.880000000001</ele>
        <time>2026-07-29T12:21:10Z</time>
      </trkpt>
      <trkpt lat="27.20993" lon="111.721626">
        <ele>10088.880000000001</ele>
        <time>2026-07-29T12:21:10Z</time>
      </trkpt>
      <trkpt lat="27.279612" lon="111.769989">
        <ele>10088.880000000001</ele>
        <time>2026-07-29T12:21:10Z</time>
      </trkpt>
      <trkpt lat="27.340759" lon="111.812317">
        <ele>10088.880000000001</ele>
        <time>2026-07-29T12:21:10Z</time>
      </trkpt>
      <trkpt lat="27.396364" lon="111.85096">
        <ele>10081.26</ele>
        <time>2026-07-29T12:21:10Z</time>
      </trkpt>
      <trkpt lat="27.437098" lon="111.879272">
        <ele>10073.640000000001</ele>
        <time>2026-07-29T12:21:10Z</time>
      </trkpt>
      <trkpt lat="27.452274" lon="111.889839">
        <ele>10073.640000000001</ele>
        <time>2026-07-29T12:21:10Z</time>
      </trkpt>
      <trkpt lat="27.539232" lon="111.950317">
        <ele>10081.26</ele>
        <time>2026-07-29T12:21:10Z</time>
      </trkpt>
      <trkpt lat="27.638626" lon="112.019661">
        <ele>10081.26</ele>
        <time>2026-07-29T12:21:10Z</time>
      </trkpt>
      <trkpt lat="27.689758" lon="112.055367">
        <ele>10081.26</ele>
        <time>2026-07-29T12:21:10Z</time>
      </trkpt>
      <trkpt lat="27.7537" lon="112.100006">
        <ele>10096.5</ele>
        <time>2026-07-29T12:21:10Z</time>
      </trkpt>
      <trkpt lat="27.810104" lon="112.13942">
        <ele>10104.12</ele>
        <time>2026-07-29T12:21:10Z</time>
      </trkpt>
      <trkpt lat="27.862957" lon="112.17643">
        <ele>10104.12</ele>
        <time>2026-07-29T12:21:10Z</time>
      </trkpt>
      <trkpt lat="27.917982" lon="112.214989">
        <ele>10104.12</ele>
        <time>2026-07-29T12:21:10Z</time>
      </trkpt>
      <trkpt lat="27.969891" lon="112.250977">
        <ele>10096.5</ele>
        <time>2026-07-29T12:21:10Z</time>
      </trkpt>
      <trkpt lat="28.031338" lon="112.294327">
        <ele>10096.5</ele>
        <time>2026-07-29T12:21:10Z</time>
      </trkpt>
      <trkpt lat="28.083847" lon="112.336998">
        <ele>10096.5</ele>
        <time>2026-07-29T12:21:10Z</time>
      </trkpt>
      <trkpt lat="28.136406" lon="112.379578">
        <ele>10088.880000000001</ele>
        <time>2026-07-29T12:21:10Z</time>
      </trkpt>
      <trkpt lat="28.187943" lon="112.420349">
        <ele>10081.26</ele>
        <time>2026-07-29T12:21:10Z</time>
      </trkpt>
      <trkpt lat="28.242033" lon="112.463112">
        <ele>10073.640000000001</ele>
        <time>2026-07-29T12:21:10Z</time>
      </trkpt>
      <trkpt lat="28.281044" lon="112.494133">
        <ele>10073.640000000001</ele>
        <time>2026-07-29T12:21:10Z</time>
      </trkpt>
      <trkpt lat="28.34063" lon="112.54158">
        <ele>10073.640000000001</ele>
        <time>2026-07-29T12:21:10Z</time>
      </trkpt>
      <trkpt lat="28.401426" lon="112.589989">
        <ele>10081.26</ele>
        <time>2026-07-29T12:21:10Z</time>
      </trkpt>
      <trkpt lat="28.454357" lon="112.632263">
        <ele>10088.880000000001</ele>
        <time>2026-07-29T12:21:10Z</time>
      </trkpt>
      <trkpt lat="28.506546" lon="112.674042">
        <ele>10088.880000000001</ele>
        <time>2026-07-29T12:21:10Z</time>
      </trkpt>
      <trkpt lat="28.560961" lon="112.717522">
        <ele>10096.5</ele>
        <time>2026-07-29T12:21:10Z</time>
      </trkpt>
      <trkpt lat="28.609222" lon="112.756226">
        <ele>10096.5</ele>
        <time>2026-07-29T12:21:10Z</time>
      </trkpt>
      <trkpt lat="28.67683" lon="112.810417">
        <ele>10088.880000000001</ele>
        <time>2026-07-29T12:21:10Z</time>
      </trkpt>
      <trkpt lat="28.731436" lon="112.854256">
        <ele>10088.880000000001</ele>
        <time>2026-07-29T12:21:10Z</time>
      </trkpt>
      <trkpt lat="28.785645" lon="112.897835">
        <ele>10088.880000000001</ele>
        <time>2026-07-29T12:21:10Z</time>
      </trkpt>
      <trkpt lat="28.840942" lon="112.942413">
        <ele>10088.880000000001</ele>
        <time>2026-07-29T12:21:10Z</time>
      </trkpt>
      <trkpt lat="28.89592" lon="112.986725">
        <ele>10088.880000000001</ele>
        <time>2026-07-29T12:21:10Z</time>
      </trkpt>
      <trkpt lat="28.951443" lon="113.031548">
        <ele>10088.880000000001</ele>
        <time>2026-07-29T12:21:10Z</time>
      </trkpt>
      <trkpt lat="29.007257" lon="113.076675">
        <ele>10088.880000000001</ele>
        <time>2026-07-29T12:21:10Z</time>
      </trkpt>
      <trkpt lat="29.063553" lon="113.122261">
        <ele>10088.880000000001</ele>
        <time>2026-07-29T12:21:10Z</time>
      </trkpt>
      <trkpt lat="29.118439" lon="113.165627">
        <ele>10096.5</ele>
        <time>2026-07-29T12:21:10Z</time>
      </trkpt>
      <trkpt lat="29.159317" lon="113.190552">
        <ele>10096.5</ele>
        <time>2026-07-29T12:21:10Z</time>
      </trkpt>
      <trkpt lat="29.224045" lon="113.223564">
        <ele>10088.880000000001</ele>
        <time>2026-07-29T12:21:10Z</time>
      </trkpt>
      <trkpt lat="29.284849" lon="113.254822">
        <ele>10096.5</ele>
        <time>2026-07-29T12:21:10Z</time>
      </trkpt>
      <trkpt lat="29.344574" lon="113.285522">
        <ele>10096.5</ele>
        <time>2026-07-29T12:21:10Z</time>
      </trkpt>
      <trkpt lat="29.403671" lon="113.315948">
        <ele>10088.880000000001</ele>
        <time>2026-07-29T12:21:10Z</time>
      </trkpt>
      <trkpt lat="29.464495" lon="113.347183">
        <ele>10081.26</ele>
        <time>2026-07-29T12:21:10Z</time>
      </trkpt>
      <trkpt lat="29.527618" lon="113.379608">
        <ele>10081.26</ele>
        <time>2026-07-29T12:21:10Z</time>
      </trkpt>
      <trkpt lat="29.594515" lon="113.41407">
        <ele>10081.26</ele>
        <time>2026-07-29T12:21:10Z</time>
      </trkpt>
      <trkpt lat="29.661438" lon="113.448624">
        <ele>10081.26</ele>
        <time>2026-07-29T12:21:10Z</time>
      </trkpt>
      <trkpt lat="29.720078" lon="113.478943">
        <ele>10081.26</ele>
        <time>2026-07-29T12:21:10Z</time>
      </trkpt>
      <trkpt lat="29.781096" lon="113.510529">
        <ele>10081.26</ele>
        <time>2026-07-29T12:21:10Z</time>
      </trkpt>
      <trkpt lat="29.843445" lon="113.542801">
        <ele>10088.880000000001</ele>
        <time>2026-07-29T12:21:10Z</time>
      </trkpt>
      <trkpt lat="29.915131" lon="113.580002">
        <ele>10096.5</ele>
        <time>2026-07-29T12:21:10Z</time>
      </trkpt>
      <trkpt lat="29.972008" lon="113.609398">
        <ele>10096.5</ele>
        <time>2026-07-29T12:21:10Z</time>
      </trkpt>
      <trkpt lat="30.059711" lon="113.65274">
        <ele>10096.5</ele>
        <time>2026-07-29T12:21:10Z</time>
      </trkpt>
      <trkpt lat="30.130051" lon="113.687759">
        <ele>10088.880000000001</ele>
        <time>2026-07-29T12:21:10Z</time>
      </trkpt>
      <trkpt lat="30.16794" lon="113.70668">
        <ele>10088.880000000001</ele>
        <time>2026-07-29T12:21:10Z</time>
      </trkpt>
      <trkpt lat="30.251646" lon="113.748596">
        <ele>10096.5</ele>
        <time>2026-07-29T12:21:10Z</time>
      </trkpt>
      <trkpt lat="30.319521" lon="113.7826">
        <ele>10096.5</ele>
        <time>2026-07-29T12:21:10Z</time>
      </trkpt>
      <trkpt lat="30.38604" lon="113.815887">
        <ele>10096.5</ele>
        <time>2026-07-29T12:21:10Z</time>
      </trkpt>
      <trkpt lat="30.453869" lon="113.850052">
        <ele>10088.880000000001</ele>
        <time>2026-07-29T12:21:10Z</time>
      </trkpt>
      <trkpt lat="30.521669" lon="113.884171">
        <ele>10081.26</ele>
        <time>2026-07-29T12:21:10Z</time>
      </trkpt>
      <trkpt lat="30.587847" lon="113.924049">
        <ele>10073.640000000001</ele>
        <time>2026-07-29T12:21:10Z</time>
      </trkpt>
      <trkpt lat="30.60614" lon="113.938766">
        <ele>10073.640000000001</ele>
        <time>2026-07-29T12:21:10Z</time>
      </trkpt>
      <trkpt lat="30.613859" lon="113.945511">
        <ele>10073.640000000001</ele>
        <time>2026-07-29T12:21:10Z</time>
      </trkpt>
      <trkpt lat="30.621084" lon="113.952225">
        <ele>10081.26</ele>
        <time>2026-07-29T12:21:10Z</time>
      </trkpt>
      <trkpt lat="30.643894" lon="113.975632">
        <ele>10081.26</ele>
        <time>2026-07-29T12:21:10Z</time>
      </trkpt>
      <trkpt lat="30.668015" lon="114.005234">
        <ele>10081.26</ele>
        <time>2026-07-29T12:21:10Z</time>
      </trkpt>
      <trkpt lat="30.707579" lon="114.068954">
        <ele>10088.880000000001</ele>
        <time>2026-07-29T12:21:10Z</time>
      </trkpt>
      <trkpt lat="30.788858" lon="114.228256">
        <ele>10088.880000000001</ele>
        <time>2026-07-29T12:21:10Z</time>
      </trkpt>
      <trkpt lat="30.815161" lon="114.304062">
        <ele>10088.880000000001</ele>
        <time>2026-07-29T12:21:10Z</time>
      </trkpt>
      <trkpt lat="30.842672" lon="114.388992">
        <ele>10088.880000000001</ele>
        <time>2026-07-29T12:21:10Z</time>
      </trkpt>
      <trkpt lat="30.867371" lon="114.465691">
        <ele>10088.880000000001</ele>
        <time>2026-07-29T12:21:10Z</time>
      </trkpt>
      <trkpt lat="30.878036" lon="114.498596">
        <ele>10088.880000000001</ele>
        <time>2026-07-29T12:21:10Z</time>
      </trkpt>
      <trkpt lat="30.922319" lon="114.634644">
        <ele>10104.12</ele>
        <time>2026-07-29T12:21:10Z</time>
      </trkpt>
      <trkpt lat="30.948299" lon="114.715012">
        <ele>10096.5</ele>
        <time>2026-07-29T12:21:10Z</time>
      </trkpt>
      <trkpt lat="30.973721" lon="114.793777">
        <ele>10096.5</ele>
        <time>2026-07-29T12:21:10Z</time>
      </trkpt>
      <trkpt lat="31.009319" lon="114.904167">
        <ele>10096.5</ele>
        <time>2026-07-29T12:21:10Z</time>
      </trkpt>
      <trkpt lat="31.033541" lon="114.979683">
        <ele>10088.880000000001</ele>
        <time>2026-07-29T12:21:10Z</time>
      </trkpt>
      <trkpt lat="31.05584" lon="115.049316">
        <ele>10081.26</ele>
        <time>2026-07-29T12:21:10Z</time>
      </trkpt>
      <trkpt lat="31.081512" lon="115.129936">
        <ele>10081.26</ele>
        <time>2026-07-29T12:21:10Z</time>
      </trkpt>
      <trkpt lat="31.107241" lon="115.210823">
        <ele>10081.26</ele>
        <time>2026-07-29T12:21:10Z</time>
      </trkpt>
      <trkpt lat="31.132271" lon="115.290314">
        <ele>10081.26</ele>
        <time>2026-07-29T12:21:10Z</time>
      </trkpt>
      <trkpt lat="31.160477" lon="115.377235">
        <ele>10081.26</ele>
        <time>2026-07-29T12:21:10Z</time>
      </trkpt>
      <trkpt lat="31.185745" lon="115.454948">
        <ele>10081.26</ele>
        <time>2026-07-29T12:21:10Z</time>
      </trkpt>
      <trkpt lat="31.210968" lon="115.533249">
        <ele>10088.880000000001</ele>
        <time>2026-07-29T12:21:10Z</time>
      </trkpt>
      <trkpt lat="31.236601" lon="115.612923">
        <ele>10088.880000000001</ele>
        <time>2026-07-29T12:21:10Z</time>
      </trkpt>
      <trkpt lat="31.262342" lon="115.693283">
        <ele>10096.5</ele>
        <time>2026-07-29T12:21:10Z</time>
      </trkpt>
      <trkpt lat="31.283798" lon="115.760193">
        <ele>10096.5</ele>
        <time>2026-07-29T12:21:10Z</time>
      </trkpt>
      <trkpt lat="31.30957" lon="115.840759">
        <ele>10088.880000000001</ele>
        <time>2026-07-29T12:21:10Z</time>
      </trkpt>
      <trkpt lat="31.335567" lon="115.922241">
        <ele>10088.880000000001</ele>
        <time>2026-07-29T12:21:10Z</time>
      </trkpt>
      <trkpt lat="31.34223" lon="115.942787">
        <ele>10088.880000000001</ele>
        <time>2026-07-29T12:21:10Z</time>
      </trkpt>
      <trkpt lat="31.386339" lon="116.078957">
        <ele>10096.5</ele>
        <time>2026-07-29T12:21:10Z</time>
      </trkpt>
      <trkpt lat="31.4111" lon="116.15538">
        <ele>10104.12</ele>
        <time>2026-07-29T12:21:10Z</time>
      </trkpt>
      <trkpt lat="31.437057" lon="116.236427">
        <ele>10104.12</ele>
        <time>2026-07-29T12:21:10Z</time>
      </trkpt>
      <trkpt lat="31.459488" lon="116.306061">
        <ele>10088.880000000001</ele>
        <time>2026-07-29T12:21:10Z</time>
      </trkpt>
      <trkpt lat="31.484341" lon="116.384148">
        <ele>10088.880000000001</ele>
        <time>2026-07-29T12:21:10Z</time>
      </trkpt>
      <trkpt lat="31.50325" lon="116.449203">
        <ele>10088.880000000001</ele>
        <time>2026-07-29T12:21:10Z</time>
      </trkpt>
      <trkpt lat="31.52051" lon="116.607857">
        <ele>10096.5</ele>
        <time>2026-07-29T12:21:10Z</time>
      </trkpt>
      <trkpt lat="31.533461" lon="116.69101">
        <ele>10104.12</ele>
        <time>2026-07-29T12:21:10Z</time>
      </trkpt>
      <trkpt lat="31.555847" lon="116.773949">
        <ele>10088.880000000001</ele>
        <time>2026-07-29T12:21:10Z</time>
      </trkpt>
      <trkpt lat="31.577957" lon="116.842453">
        <ele>10088.880000000001</ele>
        <time>2026-07-29T12:21:10Z</time>
      </trkpt>
      <trkpt lat="31.602859" lon="116.920059">
        <ele>10096.5</ele>
        <time>2026-07-29T12:21:10Z</time>
      </trkpt>
      <trkpt lat="31.629684" lon="117.003899">
        <ele>10096.5</ele>
        <time>2026-07-29T12:21:10Z</time>
      </trkpt>
      <trkpt lat="31.654264" lon="117.081573">
        <ele>10088.880000000001</ele>
        <time>2026-07-29T12:21:10Z</time>
      </trkpt>
      <trkpt lat="31.675632" lon="117.151169">
        <ele>10088.880000000001</ele>
        <time>2026-07-29T12:21:10Z</time>
      </trkpt>
      <trkpt lat="31.694916" lon="117.215828">
        <ele>10088.880000000001</ele>
        <time>2026-07-29T12:21:10Z</time>
      </trkpt>
      <trkpt lat="31.714508" lon="117.332909">
        <ele>10088.880000000001</ele>
        <time>2026-07-29T12:21:10Z</time>
      </trkpt>
      <trkpt lat="31.716888" lon="117.390587">
        <ele>10088.880000000001</ele>
        <time>2026-07-29T12:21:10Z</time>
      </trkpt>
      <trkpt lat="31.698442" lon="117.683517">
        <ele>10081.26</ele>
        <time>2026-07-29T12:21:10Z</time>
      </trkpt>
      <trkpt lat="31.692299" lon="117.769699">
        <ele>10081.26</ele>
        <time>2026-07-29T12:21:10Z</time>
      </trkpt>
      <trkpt lat="31.686584" lon="117.849915">
        <ele>10073.640000000001</ele>
        <time>2026-07-29T12:21:10Z</time>
      </trkpt>
      <trkpt lat="31.679264" lon="117.951035">
        <ele>9898.380000000001</ele>
        <time>2026-07-29T12:21:10Z</time>
      </trkpt>
      <trkpt lat="31.672979" lon="118.035843">
        <ele>9738.36</ele>
        <time>2026-07-29T12:21:10Z</time>
      </trkpt>
      <trkpt lat="31.666786" lon="118.1194">
        <ele>9563.1</ele>
        <time>2026-07-29T12:21:10Z</time>
      </trkpt>
      <trkpt lat="31.661316" lon="118.200722">
        <ele>9479.28</ele>
        <time>2026-07-29T12:21:10Z</time>
      </trkpt>
      <trkpt lat="31.655476" lon="118.284576">
        <ele>9479.28</ele>
        <time>2026-07-29T12:21:10Z</time>
      </trkpt>
      <trkpt lat="31.649597" lon="118.369926">
        <ele>9479.28</ele>
        <time>2026-07-29T12:21:10Z</time>
      </trkpt>
      <trkpt lat="31.647562" lon="118.454483">
        <ele>9479.28</ele>
        <time>2026-07-29T12:21:10Z</time>
      </trkpt>
      <trkpt lat="31.646257" lon="118.525452">
        <ele>9479.28</ele>
        <time>2026-07-29T12:21:10Z</time>
      </trkpt>
      <trkpt lat="31.644379" lon="118.624451">
        <ele>9471.66</ele>
        <time>2026-07-29T12:21:10Z</time>
      </trkpt>
      <trkpt lat="31.642685" lon="118.712769">
        <ele>9471.66</ele>
        <time>2026-07-29T12:21:10Z</time>
      </trkpt>
      <trkpt lat="31.640997" lon="118.795822">
        <ele>9471.66</ele>
        <time>2026-07-29T12:21:10Z</time>
      </trkpt>
      <trkpt lat="31.639572" lon="118.863129">
        <ele>9471.66</ele>
        <time>2026-07-29T12:21:10Z</time>
      </trkpt>
      <trkpt lat="31.63839" lon="118.921455">
        <ele>9471.66</ele>
        <time>2026-07-29T12:21:10Z</time>
      </trkpt>
      <trkpt lat="31.635178" lon="119.065651">
        <ele>9464.04</ele>
        <time>2026-07-29T12:21:10Z</time>
      </trkpt>
      <trkpt lat="31.633347" lon="119.150017">
        <ele>9281.16</ele>
        <time>2026-07-29T12:21:10Z</time>
      </trkpt>
      <trkpt lat="31.63129" lon="119.235641">
        <ele>9105.9</ele>
        <time>2026-07-29T12:21:10Z</time>
      </trkpt>
      <trkpt lat="31.62941" lon="119.316628">
        <ele>8930.640000000001</ele>
        <time>2026-07-29T12:21:10Z</time>
      </trkpt>
      <trkpt lat="31.627716" lon="119.387672">
        <ele>8862.060000000001</ele>
        <time>2026-07-29T12:21:10Z</time>
      </trkpt>
      <trkpt lat="31.625427" lon="119.47702">
        <ele>8602.98</ele>
        <time>2026-07-29T12:21:10Z</time>
      </trkpt>
      <trkpt lat="31.623493" lon="119.552345">
        <ele>8343.9</ele>
        <time>2026-07-29T12:21:10Z</time>
      </trkpt>
      <trkpt lat="31.621677" lon="119.621445">
        <ele>8092.4400000000005</ele>
        <time>2026-07-29T12:21:10Z</time>
      </trkpt>
      <trkpt lat="31.619909" lon="119.68676">
        <ele>7856.22</ele>
        <time>2026-07-29T12:21:10Z</time>
      </trkpt>
      <trkpt lat="31.615906" lon="119.770699">
        <ele>7551.42</ele>
        <time>2026-07-29T12:21:10Z</time>
      </trkpt>
      <trkpt lat="31.612839" lon="119.835907">
        <ele>7307.58</ele>
        <time>2026-07-29T12:21:10Z</time>
      </trkpt>
      <trkpt lat="31.609543" lon="119.905754">
        <ele>7040.88</ele>
        <time>2026-07-29T12:21:10Z</time>
      </trkpt>
      <trkpt lat="31.606293" lon="119.975716">
        <ele>6774.18</ele>
        <time>2026-07-29T12:21:10Z</time>
      </trkpt>
      <trkpt lat="31.60437" lon="120.016106">
        <ele>6659.88</ele>
        <time>2026-07-29T12:21:10Z</time>
      </trkpt>
      <trkpt lat="31.597425" lon="120.157417">
        <ele>6316.9800000000005</ele>
        <time>2026-07-29T12:21:10Z</time>
      </trkpt>
      <trkpt lat="31.553421" lon="120.441284">
        <ele>6004.56</ele>
        <time>2026-07-29T12:21:10Z</time>
      </trkpt>
      <trkpt lat="31.536068" lon="120.500298">
        <ele>6004.56</ele>
        <time>2026-07-29T12:21:10Z</time>
      </trkpt>
      <trkpt lat="31.517853" lon="120.561867">
        <ele>6004.56</ele>
        <time>2026-07-29T12:21:10Z</time>
      </trkpt>
      <trkpt lat="31.500504" lon="120.620186">
        <ele>6004.56</ele>
        <time>2026-07-29T12:21:10Z</time>
      </trkpt>
      <trkpt lat="31.483232" lon="120.678604">
        <ele>6004.56</ele>
        <time>2026-07-29T12:21:10Z</time>
      </trkpt>
      <trkpt lat="31.46521" lon="120.739319">
        <ele>5951.22</ele>
        <time>2026-07-29T12:21:10Z</time>
      </trkpt>
      <trkpt lat="31.446899" lon="120.800819">
        <ele>5699.76</ele>
        <time>2026-07-29T12:21:10Z</time>
      </trkpt>
      <trkpt lat="31.42951" lon="120.85675">
        <ele>5448.3</ele>
        <time>2026-07-29T12:21:10Z</time>
      </trkpt>
      <trkpt lat="31.410891" lon="120.916023">
        <ele>5189.22</ele>
        <time>2026-07-29T12:21:10Z</time>
      </trkpt>
      <trkpt lat="31.391922" lon="120.97757">
        <ele>4914.900000000001</ele>
        <time>2026-07-29T12:21:10Z</time>
      </trkpt>
      <trkpt lat="31.3743" lon="121.035774">
        <ele>4655.820000000001</ele>
        <time>2026-07-29T12:21:10Z</time>
      </trkpt>
      <trkpt lat="31.35791" lon="121.089798">
        <ele>4404.360000000001</ele>
        <time>2026-07-29T12:21:10Z</time>
      </trkpt>
      <trkpt lat="31.340549" lon="121.146896">
        <ele>4145.280000000001</ele>
        <time>2026-07-29T12:21:10Z</time>
      </trkpt>
      <trkpt lat="31.316116" lon="121.228745">
        <ele>3741.42</ele>
        <time>2026-07-29T12:21:10Z</time>
      </trkpt>
      <trkpt lat="31.300278" lon="121.281311">
        <ele>3482.34</ele>
        <time>2026-07-29T12:21:10Z</time>
      </trkpt>
      <trkpt lat="31.292973" lon="121.305595">
        <ele>3383.28</ele>
        <time>2026-07-29T12:21:10Z</time>
      </trkpt>
      <trkpt lat="31.285198" lon="121.331139">
        <ele>3322.32</ele>
        <time>2026-07-29T12:21:10Z</time>
      </trkpt>
      <trkpt lat="31.281143" lon="121.349648">
        <ele>3238.5</ele>
        <time>2026-07-29T12:21:10Z</time>
      </trkpt>
      <trkpt lat="31.280777" lon="121.354599">
        <ele>3208.02</ele>
        <time>2026-07-29T12:21:10Z</time>
      </trkpt>
      <trkpt lat="31.280731" lon="121.358696">
        <ele>3185.1600000000003</ele>
        <time>2026-07-29T12:21:10Z</time>
      </trkpt>
      <trkpt lat="31.280869" lon="121.361847">
        <ele>3169.92</ele>
        <time>2026-07-29T12:21:10Z</time>
      </trkpt>
      <trkpt lat="31.281143" lon="121.364998">
        <ele>3154.6800000000003</ele>
        <time>2026-07-29T12:21:10Z</time>
      </trkpt>
      <trkpt lat="31.281693" lon="121.36898">
        <ele>3131.82</ele>
        <time>2026-07-29T12:21:10Z</time>
      </trkpt>
      <trkpt lat="31.282219" lon="121.371628">
        <ele>3124.2000000000003</ele>
        <time>2026-07-29T12:21:10Z</time>
      </trkpt>
      <trkpt lat="31.283104" lon="121.375198">
        <ele>3101.34</ele>
        <time>2026-07-29T12:21:10Z</time>
      </trkpt>
      <trkpt lat="31.284851" lon="121.380508">
        <ele>3078.48</ele>
        <time>2026-07-29T12:21:10Z</time>
      </trkpt>
      <trkpt lat="31.285995" lon="121.383469">
        <ele>3055.6200000000003</ele>
        <time>2026-07-29T12:21:10Z</time>
      </trkpt>
      <trkpt lat="31.28746" lon="121.386536">
        <ele>3040.38</ele>
        <time>2026-07-29T12:21:10Z</time>
      </trkpt>
      <trkpt lat="31.288643" lon="121.388817">
        <ele>3025.1400000000003</ele>
        <time>2026-07-29T12:21:10Z</time>
      </trkpt>
      <trkpt lat="31.290482" lon="121.39209">
        <ele>3009.9</ele>
        <time>2026-07-29T12:21:10Z</time>
      </trkpt>
      <trkpt lat="31.307962" lon="121.420074">
        <ele>2857.5</ele>
        <time>2026-07-29T12:21:10Z</time>
      </trkpt>
      <trkpt lat="31.320719" lon="121.441116">
        <ele>2712.7200000000003</ele>
        <time>2026-07-29T12:21:10Z</time>
      </trkpt>
      <trkpt lat="31.333557" lon="121.462257">
        <ele>2567.94</ele>
        <time>2026-07-29T12:21:10Z</time>
      </trkpt>
      <trkpt lat="31.346601" lon="121.483574">
        <ele>2407.92</ele>
        <time>2026-07-29T12:21:10Z</time>
      </trkpt>
      <trkpt lat="31.359217" lon="121.50412">
        <ele>2232.6600000000003</ele>
        <time>2026-07-29T12:21:10Z</time>
      </trkpt>
      <trkpt lat="31.406839" lon="121.601898">
        <ele>1661.16</ele>
        <time>2026-07-29T12:21:10Z</time>
      </trkpt>
      <trkpt lat="31.409819" lon="121.619698">
        <ele>1600.2</ele>
        <time>2026-07-29T12:21:10Z</time>
      </trkpt>
      <trkpt lat="31.412565" lon="121.643593">
        <ele>1516.38</ele>
        <time>2026-07-29T12:21:10Z</time>
      </trkpt>
      <trkpt lat="31.41238" lon="121.646118">
        <ele>1508.76</ele>
        <time>2026-07-29T12:21:10Z</time>
      </trkpt>
      <trkpt lat="31.411867" lon="121.649307">
        <ele>1493.52</ele>
        <time>2026-07-29T12:21:10Z</time>
      </trkpt>
      <trkpt lat="31.411148" lon="121.65258">
        <ele>1485.9</ele>
        <time>2026-07-29T12:21:10Z</time>
      </trkpt>
      <trkpt lat="31.410416" lon="121.654953">
        <ele>1470.66</ele>
        <time>2026-07-29T12:21:10Z</time>
      </trkpt>
      <trkpt lat="31.408676" lon="121.659149">
        <ele>1455.42</ele>
        <time>2026-07-29T12:21:10Z</time>
      </trkpt>
      <trkpt lat="31.403395" lon="121.667595">
        <ele>1424.94</ele>
        <time>2026-07-29T12:21:10Z</time>
      </trkpt>
      <trkpt lat="31.397324" lon="121.675308">
        <ele>1394.46</ele>
        <time>2026-07-29T12:21:10Z</time>
      </trkpt>
      <trkpt lat="31.395901" lon="121.677048">
        <ele>1386.8400000000001</ele>
        <time>2026-07-29T12:21:10Z</time>
      </trkpt>
      <trkpt lat="31.391052" lon="121.682953">
        <ele>1356.3600000000001</ele>
        <time>2026-07-29T12:21:10Z</time>
      </trkpt>
      <trkpt lat="31.383865" lon="121.691299">
        <ele>1318.26</ele>
        <time>2026-07-29T12:21:10Z</time>
      </trkpt>
      <trkpt lat="31.382446" lon="121.69265">
        <ele>1310.64</ele>
        <time>2026-07-29T12:21:10Z</time>
      </trkpt>
      <trkpt lat="31.380203" lon="121.694588">
        <ele>1295.4</ele>
        <time>2026-07-29T12:21:10Z</time>
      </trkpt>
      <trkpt lat="31.378489" lon="121.695885">
        <ele>1280.16</ele>
        <time>2026-07-29T12:21:10Z</time>
      </trkpt>
      <trkpt lat="31.376301" lon="121.697372">
        <ele>1264.92</ele>
        <time>2026-07-29T12:21:10Z</time>
      </trkpt>
      <trkpt lat="31.373415" lon="121.699074">
        <ele>1242.0600000000002</ele>
        <time>2026-07-29T12:21:10Z</time>
      </trkpt>
      <trkpt lat="31.371599" lon="121.700058">
        <ele>1226.8200000000002</ele>
        <time>2026-07-29T12:21:10Z</time>
      </trkpt>
      <trkpt lat="31.369738" lon="121.700943">
        <ele>1211.5800000000002</ele>
        <time>2026-07-29T12:21:10Z</time>
      </trkpt>
      <trkpt lat="31.367922" lon="121.701767">
        <ele>1196.3400000000001</ele>
        <time>2026-07-29T12:21:10Z</time>
      </trkpt>
      <trkpt lat="31.36615" lon="121.70256">
        <ele>1181.1000000000001</ele>
        <time>2026-07-29T12:21:10Z</time>
      </trkpt>
      <trkpt lat="31.363358" lon="121.703743">
        <ele>1158.24</ele>
        <time>2026-07-29T12:21:10Z</time>
      </trkpt>
      <trkpt lat="31.360748" lon="121.704872">
        <ele>1143.0</ele>
        <time>2026-07-29T12:21:10Z</time>
      </trkpt>
      <trkpt lat="31.357355" lon="121.706215">
        <ele>1112.52</ele>
        <time>2026-07-29T12:21:10Z</time>
      </trkpt>
      <trkpt lat="31.323761" lon="121.719414">
        <ele>944.88</ele>
        <time>2026-07-29T12:21:10Z</time>
      </trkpt>
      <trkpt lat="31.318205" lon="121.721481">
        <ele>937.26</ele>
        <time>2026-07-29T12:21:10Z</time>
      </trkpt>
      <trkpt lat="31.310896" lon="121.724228">
        <ele>929.6400000000001</ele>
        <time>2026-07-29T12:21:10Z</time>
      </trkpt>
      <trkpt lat="31.304443" lon="121.726685">
        <ele>899.1600000000001</ele>
        <time>2026-07-29T12:21:10Z</time>
      </trkpt>
      <trkpt lat="31.29657" lon="121.729752">
        <ele>861.0600000000001</ele>
        <time>2026-07-29T12:21:10Z</time>
      </trkpt>
      <trkpt lat="31.291111" lon="121.731812">
        <ele>830.58</ele>
        <time>2026-07-29T12:21:10Z</time>
      </trkpt>
      <trkpt lat="31.284164" lon="121.734436">
        <ele>784.86</ele>
        <time>2026-07-29T12:21:10Z</time>
      </trkpt>
      <trkpt lat="31.277889" lon="121.736809">
        <ele>746.76</ele>
        <time>2026-07-29T12:21:10Z</time>
      </trkpt>
      <trkpt lat="31.272163" lon="121.738953">
        <ele>716.2800000000001</ele>
        <time>2026-07-29T12:21:10Z</time>
      </trkpt>
      <trkpt lat="31.268738" lon="121.740257">
        <ele>693.4200000000001</ele>
        <time>2026-07-29T12:21:10Z</time>
      </trkpt>
      <trkpt lat="31.266951" lon="121.740929">
        <ele>685.8000000000001</ele>
        <time>2026-07-29T12:21:10Z</time>
      </trkpt>
      <trkpt lat="31.264893" lon="121.741707">
        <ele>670.5600000000001</ele>
        <time>2026-07-29T12:21:10Z</time>
      </trkpt>
      <trkpt lat="31.263226" lon="121.742355">
        <ele>662.94</ele>
        <time>2026-07-29T12:21:10Z</time>
      </trkpt>
      <trkpt lat="31.261459" lon="121.743004">
        <ele>655.32</ele>
        <time>2026-07-29T12:21:10Z</time>
      </trkpt>
      <trkpt lat="31.256058" lon="121.745049">
        <ele>624.84</ele>
        <time>2026-07-29T12:21:10Z</time>
      </trkpt>
      <trkpt lat="31.250198" lon="121.747253">
        <ele>586.74</ele>
        <time>2026-07-29T12:21:10Z</time>
      </trkpt>
      <trkpt lat="31.24379" lon="121.74968">
        <ele>556.26</ele>
        <time>2026-07-29T12:21:10Z</time>
      </trkpt>
      <trkpt lat="31.238754" lon="121.751617">
        <ele>525.78</ele>
        <time>2026-07-29T12:21:10Z</time>
      </trkpt>
      <trkpt lat="31.233107" lon="121.753731">
        <ele>495.3</ele>
        <time>2026-07-29T12:21:10Z</time>
      </trkpt>
      <trkpt lat="31.228266" lon="121.7556">
        <ele>464.82000000000005</ele>
        <time>2026-07-29T12:21:10Z</time>
      </trkpt>
      <trkpt lat="31.224728" lon="121.756912">
        <ele>441.96000000000004</ele>
        <time>2026-07-29T12:21:10Z</time>
      </trkpt>
      <trkpt lat="31.22081" lon="121.758408">
        <ele>381.0</ele>
        <time>2026-07-29T12:21:10Z</time>
      </trkpt>
      <trkpt lat="31.195259" lon="121.76812">
        <ele>274.32</ele>
        <time>2026-07-29T12:21:10Z</time>
      </trkpt>
      <trkpt lat="31.150803" lon="121.784821">
        <ele>30.48</ele>
        <time>2026-07-29T12:21:10Z</time>
      </trkpt>
      <trkpt lat="31.140514" lon="121.788719">
        <ele>0.0</ele>
        <time>2026-07-29T12:21:10Z</time>
      </trkpt>
      <trkpt lat="31.138653" lon="121.789436">
        <ele>0.0</ele>
        <time>2026-07-29T12:21:10Z</time>
      </trkpt>
      <trkpt lat="31.137047" lon="121.790039">
        <ele>0.0</ele>
        <time>2026-07-29T12:21:10Z</time>
      </trkpt>
      <trkpt lat="31.136021" lon="121.790581">
        <ele>0.0</ele>
        <time>2026-07-29T12:21:10Z</time>
      </trkpt>
      <trkpt lat="31.135546" lon="121.790985">
        <ele>0.0</ele>
        <time>2026-07-29T12:21:10Z</time>
      </trkpt>
      <trkpt lat="31.134624" lon="121.792046">
        <ele>0.0</ele>
        <time>2026-07-29T12:21:10Z</time>
      </trkpt>
      <trkpt lat="31.134346" lon="121.792389">
        <ele>0.0</ele>
        <time>2026-07-29T12:21:10Z</time>
      </trkpt>
      <trkpt lat="31.133732" lon="121.793129">
        <ele>0.0</ele>
        <time>2026-07-29T12:21:10Z</time>
      </trkpt>
      <trkpt lat="31.133297" lon="121.793533">
        <ele>0.0</ele>
        <time>2026-07-29T12:21:10Z</time>
      </trkpt>
      <trkpt lat="31.133078" lon="121.79364">
        <ele>0.0</ele>
        <time>2026-07-29T12:21:10Z</time>
      </trkpt>
      <trkpt lat="31.132748" lon="121.793762">
        <ele>0.0</ele>
        <time>2026-07-29T12:21:10Z</time>
      </trkpt>
      <trkpt lat="31.132416" lon="121.793884">
        <ele>0.0</ele>
        <time>2026-07-29T12:21:10Z</time>
      </trkpt>
      <trkpt lat="31.132147" lon="121.793983">
        <ele>0.0</ele>
        <time>2026-07-29T12:21:10Z</time>
      </trkpt>
      <trkpt lat="31.131786" lon="121.794113">
        <ele>0.0</ele>
        <time>2026-07-29T12:21:10Z</time>
      </trkpt>
      <trkpt lat="31.131437" lon="121.794258">
        <ele>0.0</ele>
        <time>2026-07-29T12:21:10Z</time>
      </trkpt>
      <trkpt lat="31.131054" lon="121.794403">
        <ele>0.0</ele>
        <time>2026-07-29T12:21:10Z</time>
      </trkpt>
      <trkpt lat="31.130388" lon="121.794655">
        <ele>0.0</ele>
        <time>2026-07-29T12:21:10Z</time>
      </trkpt>
      <trkpt lat="31.129452" lon="121.794998">
        <ele>0.0</ele>
        <time>2026-07-29T12:21:10Z</time>
      </trkpt>
      <trkpt lat="31.128834" lon="121.795242">
        <ele>0.0</ele>
        <time>2026-07-29T12:21:10Z</time>
      </trkpt>
      <trkpt lat="31.128525" lon="121.795349">
        <ele>0.0</ele>
        <time>2026-07-29T12:21:10Z</time>
      </trkpt>
      <trkpt lat="31.128101" lon="121.795509">
        <ele>0.0</ele>
        <time>2026-07-29T12:21:10Z</time>
      </trkpt>
      <trkpt lat="31.12738" lon="121.795776">
        <ele>0.0</ele>
        <time>2026-07-29T12:21:10Z</time>
      </trkpt>
      <trkpt lat="31.127083" lon="121.795898">
        <ele>0.0</ele>
        <time>2026-07-29T12:21:10Z</time>
      </trkpt>
      <trkpt lat="31.12682" lon="121.795998">
        <ele>0.0</ele>
        <time>2026-07-29T12:21:10Z</time>
      </trkpt>
      <trkpt lat="31.126614" lon="121.796074">
        <ele>0.0</ele>
        <time>2026-07-29T12:21:10Z</time>
      </trkpt>
      <trkpt lat="31.126387" lon="121.796326">
        <ele>0.0</ele>
        <time>2026-07-29T12:21:10Z</time>
      </trkpt>
      <trkpt lat="31.126444" lon="121.796684">
        <ele>0.0</ele>
        <time>2026-07-29T12:21:10Z</time>
      </trkpt>
      <trkpt lat="31.126526" lon="121.79689">
        <ele>0.0</ele>
        <time>2026-07-29T12:21:10Z</time>
      </trkpt>
      <trkpt lat="31.126579" lon="121.797096">
        <ele>0.0</ele>
        <time>2026-07-29T12:21:10Z</time>
      </trkpt>
      <trkpt lat="31.126642" lon="121.797333">
        <ele>0.0</ele>
        <time>2026-07-29T12:21:10Z</time>
      </trkpt>
      <trkpt lat="31.126759" lon="121.797745">
        <ele>0.0</ele>
        <time>2026-07-29T12:21:10Z</time>
      </trkpt>
      <trkpt lat="31.127003" lon="121.798592">
        <ele>0.0</ele>
        <time>2026-07-29T12:21:10Z</time>
      </trkpt>
      <trkpt lat="31.127094" lon="121.798927">
        <ele>0.0</ele>
        <time>2026-07-29T12:21:10Z</time>
      </trkpt>
      <trkpt lat="31.127445" lon="121.800201">
        <ele>0.0</ele>
        <time>2026-07-29T12:21:10Z</time>
      </trkpt>
      <trkpt lat="31.127747" lon="121.800713">
        <ele>0.0</ele>
        <time>2026-07-29T12:21:10Z</time>
      </trkpt>
      <trkpt lat="31.128021" lon="121.80072">
        <ele>0.0</ele>
        <time>2026-07-29T12:21:10Z</time>
      </trkpt>
      <trkpt lat="31.128365" lon="121.800583">
        <ele>0.0</ele>
        <time>2026-07-29T12:21:10Z</time>
      </trkpt>
      <trkpt lat="31.128643" lon="121.800491">
        <ele>0.0</ele>
        <time>2026-07-29T12:21:10Z</time>
      </trkpt>
      <trkpt lat="31.129145" lon="121.800301">
        <ele>0.0</ele>
        <time>2026-07-29T12:21:10Z</time>
      </trkpt>
      <trkpt lat="31.129457" lon="121.800186">
        <ele>0.0</ele>
        <time>2026-07-29T12:21:10Z</time>
      </trkpt>
      <trkpt lat="31.130192" lon="121.799911">
        <ele>0.0</ele>
        <time>2026-07-29T12:21:10Z</time>
      </trkpt>
      <trkpt lat="31.131517" lon="121.799408">
        <ele>0.0</ele>
        <time>2026-07-29T12:21:10Z</time>
      </trkpt>
      <trkpt lat="31.132008" lon="121.799225">
        <ele>0.0</ele>
        <time>2026-07-29T12:21:10Z</time>
      </trkpt>
      <trkpt lat="31.132996" lon="121.798859">
        <ele>0.0</ele>
        <time>2026-07-29T12:21:10Z</time>
      </trkpt>
      <trkpt lat="31.133648" lon="121.798607">
        <ele>0.0</ele>
        <time>2026-07-29T12:21:10Z</time>
      </trkpt>
      <trkpt lat="31.137163" lon="121.797279">
        <ele>0.0</ele>
        <time>2026-07-29T12:21:10Z</time>
      </trkpt>
      <trkpt lat="31.137966" lon="121.796967">
        <ele>0.0</ele>
        <time>2026-07-29T12:21:10Z</time>
      </trkpt>
      <trkpt lat="31.13871" lon="121.796692">
        <ele>0.0</ele>
        <time>2026-07-29T12:21:10Z</time>
      </trkpt>
      <trkpt lat="31.139511" lon="121.796387">
        <ele>0.0</ele>
        <time>2026-07-29T12:21:10Z</time>
      </trkpt>
      <trkpt lat="31.140701" lon="121.795944">
        <ele>0.0</ele>
        <time>2026-07-29T12:21:10Z</time>
      </trkpt>
      <trkpt lat="31.141516" lon="121.795631">
        <ele>0.0</ele>
        <time>2026-07-29T12:21:10Z</time>
      </trkpt>
      <trkpt lat="31.141981" lon="121.795448">
        <ele>0.0</ele>
        <time>2026-07-29T12:21:10Z</time>
      </trkpt>
      <trkpt lat="31.142223" lon="121.795364">
        <ele>0.0</ele>
        <time>2026-07-29T12:21:10Z</time>
      </trkpt>
      <trkpt lat="31.142563" lon="121.795227">
        <ele>0.0</ele>
        <time>2026-07-29T12:21:10Z</time>
      </trkpt>
      <trkpt lat="31.143265" lon="121.794975">
        <ele>0.0</ele>
        <time>2026-07-29T12:21:10Z</time>
      </trkpt>
      <trkpt lat="31.143599" lon="121.79509">
        <ele>0.0</ele>
        <time>2026-07-29T12:21:10Z</time>
      </trkpt>
      <trkpt lat="31.143726" lon="121.795479">
        <ele>0.0</ele>
        <time>2026-07-29T12:21:10Z</time>
      </trkpt>
      <trkpt lat="31.143785" lon="121.7957">
        <ele>0.0</ele>
        <time>2026-07-29T12:21:10Z</time>
      </trkpt>
      <trkpt lat="31.143837" lon="121.795914">
        <ele>0.0</ele>
        <time>2026-07-29T12:21:10Z</time>
      </trkpt>
      <trkpt lat="31.143906" lon="121.796143">
        <ele>0.0</ele>
        <time>2026-07-29T12:21:10Z</time>
      </trkpt>
      <trkpt lat="31.14397" lon="121.796394">
        <ele>0.0</ele>
        <time>2026-07-29T12:21:10Z</time>
      </trkpt>
      <trkpt lat="31.144043" lon="121.796638">
        <ele>0.0</ele>
        <time>2026-07-29T12:21:10Z</time>
      </trkpt>
      <trkpt lat="31.14418" lon="121.79715">
        <ele>0.0</ele>
        <time>2026-07-29T12:21:10Z</time>
      </trkpt>
      <trkpt lat="31.144251" lon="121.797417">
        <ele>0.0</ele>
        <time>2026-07-29T12:21:10Z</time>
      </trkpt>
      <trkpt lat="31.144283" lon="121.797668">
        <ele>0.0</ele>
        <time>2026-07-29T12:21:10Z</time>
      </trkpt>
      <trkpt lat="31.144215" lon="121.797882">
        <ele>0.0</ele>
        <time>2026-07-29T12:21:10Z</time>
      </trkpt>
      <trkpt lat="31.144098" lon="121.798347">
        <ele>0.0</ele>
        <time>2026-07-29T12:21:10Z</time>
      </trkpt>
      <trkpt lat="31.144157" lon="121.798569">
        <ele>0.0</ele>
        <time>2026-07-29T12:21:10Z</time>
      </trkpt>
      <trkpt lat="31.144226" lon="121.798813">
        <ele>0.0</ele>
        <time>2026-07-29T12:21:10Z</time>
      </trkpt>
      <trkpt lat="31.144306" lon="121.799065">
        <ele>0.0</ele>
        <time>2026-07-29T12:21:10Z</time>
      </trkpt>
      <trkpt lat="31.144375" lon="121.799332">
        <ele>0.0</ele>
        <time>2026-07-29T12:21:10Z</time>
      </trkpt>
      <trkpt lat="31.144512" lon="121.799789">
        <ele>0.0</ele>
        <time>2026-07-29T12:21:10Z</time>
      </trkpt>
      <trkpt lat="31.144707" lon="121.800507">
        <ele>0.0</ele>
        <time>2026-07-29T12:21:10Z</time>
      </trkpt>
      <trkpt lat="31.144901" lon="121.801178">
        <ele>0.0</ele>
        <time>2026-07-29T12:21:10Z</time>
      </trkpt>
      <trkpt lat="31.145679" lon="121.80114">
        <ele>0.0</ele>
        <time>2026-07-29T12:21:10Z</time>
      </trkpt>
      <trkpt lat="31.14608" lon="121.800987">
        <ele>0.0</ele>
        <time>2026-07-29T12:21:10Z</time>
      </trkpt>
      <trkpt lat="31.146427" lon="121.800858">
        <ele>0.0</ele>
        <time>2026-07-29T12:21:10Z</time>
      </trkpt>
      <trkpt lat="31.146355" lon="121.80024">
        <ele>0.0</ele>
        <time>2026-07-29T12:21:10Z</time>
      </trkpt>
    </trkseg>
  </trk>
</gpx>