<?xml version="1.0" encoding="UTF-8"?>
<gpx xmlns="http://www.topografix.com/GPX/1/1" xmlns:xsi="http://www.w3.org/2001/XMLSchema-instance" xsi:schemaLocation="http://www.topografix.com/GPX/1/1 http://www.topografix.com/GPX/1/1/gpx.xsd" version="1.1" creator="gpx.py -- https://github.com/tkrajina/gpxpy">
  <metadata>
    <name>U21477_402b7683</name>
    <time>2026-06-13T14:01:35Z</time>
  </metadata>
  <trk>
    <name>U21477_402b7683</name>
    <cmt>2026-06-13</cmt>
    <type>Plane</type>
    <trkseg>
      <trkpt lat="46.232323" lon="6.104396">
        <ele>0.0</ele>
        <time>2026-06-13T14:01:35Z</time>
      </trkpt>
      <trkpt lat="46.23262" lon="6.104416">
        <ele>0.0</ele>
        <time>2026-06-13T14:01:35Z</time>
      </trkpt>
      <trkpt lat="46.232769" lon="6.10463">
        <ele>0.0</ele>
        <time>2026-06-13T14:01:35Z</time>
      </trkpt>
      <trkpt lat="46.23296" lon="6.104914">
        <ele>0.0</ele>
        <time>2026-06-13T14:01:35Z</time>
      </trkpt>
      <trkpt lat="46.233112" lon="6.105133">
        <ele>0.0</ele>
        <time>2026-06-13T14:01:35Z</time>
      </trkpt>
      <trkpt lat="46.23325" lon="6.105334">
        <ele>0.0</ele>
        <time>2026-06-13T14:01:35Z</time>
      </trkpt>
      <trkpt lat="46.23341" lon="6.105535">
        <ele>0.0</ele>
        <time>2026-06-13T14:01:35Z</time>
      </trkpt>
      <trkpt lat="46.23357" lon="6.105769">
        <ele>0.0</ele>
        <time>2026-06-13T14:01:35Z</time>
      </trkpt>
      <trkpt lat="46.233749" lon="6.105995">
        <ele>0.0</ele>
        <time>2026-06-13T14:01:35Z</time>
      </trkpt>
      <trkpt lat="46.234043" lon="6.106373">
        <ele>0.0</ele>
        <time>2026-06-13T14:01:35Z</time>
      </trkpt>
      <trkpt lat="46.234287" lon="6.106716">
        <ele>0.0</ele>
        <time>2026-06-13T14:01:35Z</time>
      </trkpt>
      <trkpt lat="46.234718" lon="6.107334">
        <ele>0.0</ele>
        <time>2026-06-13T14:01:35Z</time>
      </trkpt>
      <trkpt lat="46.234901" lon="6.107609">
        <ele>0.0</ele>
        <time>2026-06-13T14:01:35Z</time>
      </trkpt>
      <trkpt lat="46.235081" lon="6.107896">
        <ele>0.0</ele>
        <time>2026-06-13T14:01:35Z</time>
      </trkpt>
      <trkpt lat="46.235241" lon="6.108124">
        <ele>0.0</ele>
        <time>2026-06-13T14:01:35Z</time>
      </trkpt>
      <trkpt lat="46.235504" lon="6.108499">
        <ele>0.0</ele>
        <time>2026-06-13T14:01:35Z</time>
      </trkpt>
      <trkpt lat="46.235767" lon="6.108884">
        <ele>0.0</ele>
        <time>2026-06-13T14:01:35Z</time>
      </trkpt>
      <trkpt lat="46.23608" lon="6.109343">
        <ele>0.0</ele>
        <time>2026-06-13T14:01:35Z</time>
      </trkpt>
      <trkpt lat="46.236382" lon="6.109806">
        <ele>0.0</ele>
        <time>2026-06-13T14:01:35Z</time>
      </trkpt>
      <trkpt lat="46.236717" lon="6.110291">
        <ele>0.0</ele>
        <time>2026-06-13T14:01:35Z</time>
      </trkpt>
      <trkpt lat="46.237091" lon="6.110819">
        <ele>0.0</ele>
        <time>2026-06-13T14:01:35Z</time>
      </trkpt>
      <trkpt lat="46.237724" lon="6.111748">
        <ele>0.0</ele>
        <time>2026-06-13T14:01:35Z</time>
      </trkpt>
      <trkpt lat="46.238148" lon="6.112384">
        <ele>0.0</ele>
        <time>2026-06-13T14:01:35Z</time>
      </trkpt>
      <trkpt lat="46.238663" lon="6.113138">
        <ele>0.0</ele>
        <time>2026-06-13T14:01:35Z</time>
      </trkpt>
      <trkpt lat="46.239178" lon="6.113892">
        <ele>0.0</ele>
        <time>2026-06-13T14:01:35Z</time>
      </trkpt>
      <trkpt lat="46.239895" lon="6.114956">
        <ele>0.0</ele>
        <time>2026-06-13T14:01:35Z</time>
      </trkpt>
      <trkpt lat="46.24118" lon="6.116839">
        <ele>0.0</ele>
        <time>2026-06-13T14:01:35Z</time>
      </trkpt>
      <trkpt lat="46.242016" lon="6.118078">
        <ele>0.0</ele>
        <time>2026-06-13T14:01:35Z</time>
      </trkpt>
      <trkpt lat="46.242828" lon="6.119267">
        <ele>0.0</ele>
        <time>2026-06-13T14:01:35Z</time>
      </trkpt>
      <trkpt lat="46.243572" lon="6.120363">
        <ele>0.0</ele>
        <time>2026-06-13T14:01:35Z</time>
      </trkpt>
      <trkpt lat="46.245586" lon="6.123316">
        <ele>0.0</ele>
        <time>2026-06-13T14:01:35Z</time>
      </trkpt>
      <trkpt lat="46.246296" lon="6.124359">
        <ele>0.0</ele>
        <time>2026-06-13T14:01:35Z</time>
      </trkpt>
      <trkpt lat="46.247955" lon="6.126637">
        <ele>0.0</ele>
        <time>2026-06-13T14:01:35Z</time>
      </trkpt>
      <trkpt lat="46.248611" lon="6.126955">
        <ele>0.0</ele>
        <time>2026-06-13T14:01:35Z</time>
      </trkpt>
      <trkpt lat="46.248928" lon="6.127089">
        <ele>0.0</ele>
        <time>2026-06-13T14:01:35Z</time>
      </trkpt>
      <trkpt lat="46.249191" lon="6.127206">
        <ele>0.0</ele>
        <time>2026-06-13T14:01:35Z</time>
      </trkpt>
      <trkpt lat="46.249409" lon="6.127306">
        <ele>0.0</ele>
        <time>2026-06-13T14:01:35Z</time>
      </trkpt>
      <trkpt lat="46.249626" lon="6.127384">
        <ele>0.0</ele>
        <time>2026-06-13T14:01:35Z</time>
      </trkpt>
      <trkpt lat="46.249939" lon="6.127333">
        <ele>0.0</ele>
        <time>2026-06-13T14:01:35Z</time>
      </trkpt>
      <trkpt lat="46.250172" lon="6.127127">
        <ele>0.0</ele>
        <time>2026-06-13T14:01:35Z</time>
      </trkpt>
      <trkpt lat="46.25029" lon="6.126921">
        <ele>0.0</ele>
        <time>2026-06-13T14:01:35Z</time>
      </trkpt>
      <trkpt lat="46.250267" lon="6.126687">
        <ele>0.0</ele>
        <time>2026-06-13T14:01:35Z</time>
      </trkpt>
      <trkpt lat="46.250027" lon="6.126452">
        <ele>0.0</ele>
        <time>2026-06-13T14:01:35Z</time>
      </trkpt>
      <trkpt lat="46.249741" lon="6.126062">
        <ele>0.0</ele>
        <time>2026-06-13T14:01:35Z</time>
      </trkpt>
      <trkpt lat="46.249542" lon="6.125771">
        <ele>0.0</ele>
        <time>2026-06-13T14:01:35Z</time>
      </trkpt>
      <trkpt lat="46.24926" lon="6.125364">
        <ele>0.0</ele>
        <time>2026-06-13T14:01:35Z</time>
      </trkpt>
      <trkpt lat="46.248997" lon="6.124964">
        <ele>0.0</ele>
        <time>2026-06-13T14:01:35Z</time>
      </trkpt>
      <trkpt lat="46.248596" lon="6.124375">
        <ele>0.0</ele>
        <time>2026-06-13T14:01:35Z</time>
      </trkpt>
      <trkpt lat="46.248379" lon="6.124057">
        <ele>0.0</ele>
        <time>2026-06-13T14:01:35Z</time>
      </trkpt>
      <trkpt lat="46.247856" lon="6.123281">
        <ele>0.0</ele>
        <time>2026-06-13T14:01:35Z</time>
      </trkpt>
      <trkpt lat="46.247334" lon="6.122509">
        <ele>0.0</ele>
        <time>2026-06-13T14:01:35Z</time>
      </trkpt>
      <trkpt lat="46.242062" lon="6.114784">
        <ele>350.52000000000004</ele>
        <time>2026-06-13T14:01:35Z</time>
      </trkpt>
      <trkpt lat="46.235916" lon="6.105789">
        <ele>358.14000000000004</ele>
        <time>2026-06-13T14:01:35Z</time>
      </trkpt>
      <trkpt lat="46.231213" lon="6.098923">
        <ele>464.82000000000005</ele>
        <time>2026-06-13T14:01:35Z</time>
      </trkpt>
      <trkpt lat="46.226395" lon="6.092187">
        <ele>586.74</ele>
        <time>2026-06-13T14:01:35Z</time>
      </trkpt>
      <trkpt lat="46.22139" lon="6.085052">
        <ele>739.14</ele>
        <time>2026-06-13T14:01:35Z</time>
      </trkpt>
      <trkpt lat="46.217926" lon="6.080062">
        <ele>838.2</ele>
        <time>2026-06-13T14:01:35Z</time>
      </trkpt>
      <trkpt lat="46.2132" lon="6.07338">
        <ele>929.6400000000001</ele>
        <time>2026-06-13T14:01:35Z</time>
      </trkpt>
      <trkpt lat="46.208405" lon="6.066513">
        <ele>1021.08</ele>
        <time>2026-06-13T14:01:35Z</time>
      </trkpt>
      <trkpt lat="46.204865" lon="6.061295">
        <ele>1074.42</ele>
        <time>2026-06-13T14:01:35Z</time>
      </trkpt>
      <trkpt lat="46.200397" lon="6.054634">
        <ele>1135.38</ele>
        <time>2026-06-13T14:01:35Z</time>
      </trkpt>
      <trkpt lat="46.19545" lon="6.04717">
        <ele>1211.5800000000002</ele>
        <time>2026-06-13T14:01:35Z</time>
      </trkpt>
      <trkpt lat="46.190945" lon="6.040352">
        <ele>1295.4</ele>
        <time>2026-06-13T14:01:35Z</time>
      </trkpt>
      <trkpt lat="46.186199" lon="6.033279">
        <ele>1348.74</ele>
        <time>2026-06-13T14:01:35Z</time>
      </trkpt>
      <trkpt lat="46.180984" lon="6.025658">
        <ele>1379.22</ele>
        <time>2026-06-13T14:01:35Z</time>
      </trkpt>
      <trkpt lat="46.176888" lon="6.019684">
        <ele>1402.0800000000002</ele>
        <time>2026-06-13T14:01:35Z</time>
      </trkpt>
      <trkpt lat="46.171627" lon="6.011925">
        <ele>1447.8000000000002</ele>
        <time>2026-06-13T14:01:35Z</time>
      </trkpt>
      <trkpt lat="46.165421" lon="6.002822">
        <ele>1478.28</ele>
        <time>2026-06-13T14:01:35Z</time>
      </trkpt>
      <trkpt lat="46.159382" lon="5.994141">
        <ele>1501.14</ele>
        <time>2026-06-13T14:01:35Z</time>
      </trkpt>
      <trkpt lat="46.1521" lon="5.984066">
        <ele>1546.8600000000001</ele>
        <time>2026-06-13T14:01:35Z</time>
      </trkpt>
      <trkpt lat="46.139099" lon="5.966313">
        <ele>1645.92</ele>
        <time>2026-06-13T14:01:35Z</time>
      </trkpt>
      <trkpt lat="46.127609" lon="5.950571">
        <ele>1775.46</ele>
        <time>2026-06-13T14:01:35Z</time>
      </trkpt>
      <trkpt lat="46.116165" lon="5.934761">
        <ele>1950.72</ele>
        <time>2026-06-13T14:01:35Z</time>
      </trkpt>
      <trkpt lat="46.10096" lon="5.916275">
        <ele>2148.84</ele>
        <time>2026-06-13T14:01:35Z</time>
      </trkpt>
      <trkpt lat="46.098724" lon="5.914558">
        <ele>2171.7000000000003</ele>
        <time>2026-06-13T14:01:35Z</time>
      </trkpt>
      <trkpt lat="46.095932" lon="5.912636">
        <ele>2202.1800000000003</ele>
        <time>2026-06-13T14:01:35Z</time>
      </trkpt>
      <trkpt lat="46.093414" lon="5.91118">
        <ele>2225.04</ele>
        <time>2026-06-13T14:01:35Z</time>
      </trkpt>
      <trkpt lat="46.090767" lon="5.909958">
        <ele>2255.52</ele>
        <time>2026-06-13T14:01:35Z</time>
      </trkpt>
      <trkpt lat="46.087967" lon="5.908903">
        <ele>2286.0</ele>
        <time>2026-06-13T14:01:35Z</time>
      </trkpt>
      <trkpt lat="46.085506" lon="5.908241">
        <ele>2308.86</ele>
        <time>2026-06-13T14:01:35Z</time>
      </trkpt>
      <trkpt lat="46.082527" lon="5.907692">
        <ele>2346.96</ele>
        <time>2026-06-13T14:01:35Z</time>
      </trkpt>
      <trkpt lat="46.07991" lon="5.907429">
        <ele>2377.44</ele>
        <time>2026-06-13T14:01:35Z</time>
      </trkpt>
      <trkpt lat="46.076336" lon="5.907417">
        <ele>2415.54</ele>
        <time>2026-06-13T14:01:35Z</time>
      </trkpt>
      <trkpt lat="46.073635" lon="5.907761">
        <ele>2446.02</ele>
        <time>2026-06-13T14:01:35Z</time>
      </trkpt>
      <trkpt lat="46.071121" lon="5.908241">
        <ele>2476.5</ele>
        <time>2026-06-13T14:01:35Z</time>
      </trkpt>
      <trkpt lat="46.068649" lon="5.908903">
        <ele>2506.98</ele>
        <time>2026-06-13T14:01:35Z</time>
      </trkpt>
      <trkpt lat="46.065952" lon="5.909821">
        <ele>2537.46</ele>
        <time>2026-06-13T14:01:35Z</time>
      </trkpt>
      <trkpt lat="46.062744" lon="5.911247">
        <ele>2567.94</ele>
        <time>2026-06-13T14:01:35Z</time>
      </trkpt>
      <trkpt lat="46.060089" lon="5.912721">
        <ele>2590.8</ele>
        <time>2026-06-13T14:01:35Z</time>
      </trkpt>
      <trkpt lat="46.057571" lon="5.914329">
        <ele>2613.6600000000003</ele>
        <time>2026-06-13T14:01:35Z</time>
      </trkpt>
      <trkpt lat="46.054455" lon="5.91655">
        <ele>2644.1400000000003</ele>
        <time>2026-06-13T14:01:35Z</time>
      </trkpt>
      <trkpt lat="46.052406" lon="5.918266">
        <ele>2667.0</ele>
        <time>2026-06-13T14:01:35Z</time>
      </trkpt>
      <trkpt lat="46.049927" lon="5.920492">
        <ele>2697.48</ele>
        <time>2026-06-13T14:01:35Z</time>
      </trkpt>
      <trkpt lat="46.047455" lon="5.923038">
        <ele>2727.96</ele>
        <time>2026-06-13T14:01:35Z</time>
      </trkpt>
      <trkpt lat="46.045166" lon="5.925583">
        <ele>2758.44</ele>
        <time>2026-06-13T14:01:35Z</time>
      </trkpt>
      <trkpt lat="46.043015" lon="5.92833">
        <ele>2788.92</ele>
        <time>2026-06-13T14:01:35Z</time>
      </trkpt>
      <trkpt lat="46.040634" lon="5.931679">
        <ele>2827.02</ele>
        <time>2026-06-13T14:01:35Z</time>
      </trkpt>
      <trkpt lat="46.038757" lon="5.93456">
        <ele>2857.5</ele>
        <time>2026-06-13T14:01:35Z</time>
      </trkpt>
      <trkpt lat="46.036953" lon="5.93763">
        <ele>2895.6000000000004</ele>
        <time>2026-06-13T14:01:35Z</time>
      </trkpt>
      <trkpt lat="46.034996" lon="5.941269">
        <ele>2926.08</ele>
        <time>2026-06-13T14:01:35Z</time>
      </trkpt>
      <trkpt lat="46.033367" lon="5.944633">
        <ele>2956.56</ele>
        <time>2026-06-13T14:01:35Z</time>
      </trkpt>
      <trkpt lat="46.031551" lon="5.948685">
        <ele>2987.04</ele>
        <time>2026-06-13T14:01:35Z</time>
      </trkpt>
      <trkpt lat="46.03006" lon="5.952111">
        <ele>3009.9</ele>
        <time>2026-06-13T14:01:35Z</time>
      </trkpt>
      <trkpt lat="46.028549" lon="5.955729">
        <ele>3032.76</ele>
        <time>2026-06-13T14:01:35Z</time>
      </trkpt>
      <trkpt lat="46.027084" lon="5.959145">
        <ele>3063.2400000000002</ele>
        <time>2026-06-13T14:01:35Z</time>
      </trkpt>
      <trkpt lat="46.025639" lon="5.962486">
        <ele>3086.1000000000004</ele>
        <time>2026-06-13T14:01:35Z</time>
      </trkpt>
      <trkpt lat="46.024288" lon="5.965782">
        <ele>3108.96</ele>
        <time>2026-06-13T14:01:35Z</time>
      </trkpt>
      <trkpt lat="46.02269" lon="5.969461">
        <ele>3131.82</ele>
        <time>2026-06-13T14:01:35Z</time>
      </trkpt>
      <trkpt lat="46.020889" lon="5.973679">
        <ele>3162.3</ele>
        <time>2026-06-13T14:01:35Z</time>
      </trkpt>
      <trkpt lat="46.01944" lon="5.977098">
        <ele>3177.54</ele>
        <time>2026-06-13T14:01:35Z</time>
      </trkpt>
      <trkpt lat="46.018005" lon="5.980476">
        <ele>3200.4</ele>
        <time>2026-06-13T14:01:35Z</time>
      </trkpt>
      <trkpt lat="46.016556" lon="5.983864">
        <ele>3223.26</ele>
        <time>2026-06-13T14:01:35Z</time>
      </trkpt>
      <trkpt lat="46.006805" lon="6.00644">
        <ele>3368.04</ele>
        <time>2026-06-13T14:01:35Z</time>
      </trkpt>
      <trkpt lat="45.995499" lon="6.032633">
        <ele>3535.6800000000003</ele>
        <time>2026-06-13T14:01:35Z</time>
      </trkpt>
      <trkpt lat="45.983974" lon="6.059303">
        <ele>3726.1800000000003</ele>
        <time>2026-06-13T14:01:35Z</time>
      </trkpt>
      <trkpt lat="45.959564" lon="6.11704">
        <ele>4107.18</ele>
        <time>2026-06-13T14:01:35Z</time>
      </trkpt>
      <trkpt lat="45.935093" lon="6.178024">
        <ele>4503.42</ele>
        <time>2026-06-13T14:01:35Z</time>
      </trkpt>
      <trkpt lat="45.910355" lon="6.239832">
        <ele>4853.9400000000005</ele>
        <time>2026-06-13T14:01:35Z</time>
      </trkpt>
      <trkpt lat="45.888794" lon="6.28907">
        <ele>5113.02</ele>
        <time>2026-06-13T14:01:35Z</time>
      </trkpt>
      <trkpt lat="45.886047" lon="6.29329">
        <ele>5128.26</ele>
        <time>2026-06-13T14:01:35Z</time>
      </trkpt>
      <trkpt lat="45.884354" lon="6.295769">
        <ele>5135.88</ele>
        <time>2026-06-13T14:01:35Z</time>
      </trkpt>
      <trkpt lat="45.881512" lon="6.299492">
        <ele>5151.12</ele>
        <time>2026-06-13T14:01:35Z</time>
      </trkpt>
      <trkpt lat="45.878487" lon="6.303062">
        <ele>5166.360000000001</ele>
        <time>2026-06-13T14:01:35Z</time>
      </trkpt>
      <trkpt lat="45.875835" lon="6.306084">
        <ele>5181.6</ele>
        <time>2026-06-13T14:01:35Z</time>
      </trkpt>
      <trkpt lat="45.873047" lon="6.309234">
        <ele>5196.84</ele>
        <time>2026-06-13T14:01:35Z</time>
      </trkpt>
      <trkpt lat="45.87048" lon="6.312057">
        <ele>5204.46</ele>
        <time>2026-06-13T14:01:35Z</time>
      </trkpt>
      <trkpt lat="45.867874" lon="6.314873">
        <ele>5219.7</ele>
        <time>2026-06-13T14:01:35Z</time>
      </trkpt>
      <trkpt lat="45.864799" lon="6.318169">
        <ele>5234.9400000000005</ele>
        <time>2026-06-13T14:01:35Z</time>
      </trkpt>
      <trkpt lat="45.862007" lon="6.32119">
        <ele>5250.18</ele>
        <time>2026-06-13T14:01:35Z</time>
      </trkpt>
      <trkpt lat="45.859268" lon="6.324106">
        <ele>5257.8</ele>
        <time>2026-06-13T14:01:35Z</time>
      </trkpt>
      <trkpt lat="45.856293" lon="6.327254">
        <ele>5273.04</ele>
        <time>2026-06-13T14:01:35Z</time>
      </trkpt>
      <trkpt lat="45.853729" lon="6.330001">
        <ele>5288.280000000001</ele>
        <time>2026-06-13T14:01:35Z</time>
      </trkpt>
      <trkpt lat="45.851028" lon="6.332814">
        <ele>5303.52</ele>
        <time>2026-06-13T14:01:35Z</time>
      </trkpt>
      <trkpt lat="45.847389" lon="6.336639">
        <ele>5326.38</ele>
        <time>2026-06-13T14:01:35Z</time>
      </trkpt>
      <trkpt lat="45.803467" lon="6.382454">
        <ele>5600.700000000001</ele>
        <time>2026-06-13T14:01:35Z</time>
      </trkpt>
      <trkpt lat="45.756847" lon="6.431465">
        <ele>5715.0</ele>
        <time>2026-06-13T14:01:35Z</time>
      </trkpt>
      <trkpt lat="45.709671" lon="6.481264">
        <ele>5974.08</ele>
        <time>2026-06-13T14:01:35Z</time>
      </trkpt>
      <trkpt lat="45.660416" lon="6.533248">
        <ele>6225.54</ele>
        <time>2026-06-13T14:01:35Z</time>
      </trkpt>
      <trkpt lat="45.61095" lon="6.585411">
        <ele>6499.860000000001</ele>
        <time>2026-06-13T14:01:35Z</time>
      </trkpt>
      <trkpt lat="45.560909" lon="6.638077">
        <ele>6804.660000000001</ele>
        <time>2026-06-13T14:01:35Z</time>
      </trkpt>
      <trkpt lat="45.510086" lon="6.691393">
        <ele>7071.360000000001</ele>
        <time>2026-06-13T14:01:35Z</time>
      </trkpt>
      <trkpt lat="45.458633" lon="6.745082">
        <ele>7330.4400000000005</ele>
        <time>2026-06-13T14:01:35Z</time>
      </trkpt>
      <trkpt lat="45.405563" lon="6.799331">
        <ele>7475.22</ele>
        <time>2026-06-13T14:01:35Z</time>
      </trkpt>
      <trkpt lat="45.352066" lon="6.85233">
        <ele>7673.34</ele>
        <time>2026-06-13T14:01:35Z</time>
      </trkpt>
      <trkpt lat="45.297981" lon="6.911003">
        <ele>7848.6</ele>
        <time>2026-06-13T14:01:35Z</time>
      </trkpt>
      <trkpt lat="45.294537" lon="6.916094">
        <ele>7863.84</ele>
        <time>2026-06-13T14:01:35Z</time>
      </trkpt>
      <trkpt lat="45.29155" lon="6.920798">
        <ele>7879.080000000001</ele>
        <time>2026-06-13T14:01:35Z</time>
      </trkpt>
      <trkpt lat="45.28862" lon="6.925768">
        <ele>7886.700000000001</ele>
        <time>2026-06-13T14:01:35Z</time>
      </trkpt>
      <trkpt lat="45.285873" lon="6.930607">
        <ele>7901.9400000000005</ele>
        <time>2026-06-13T14:01:35Z</time>
      </trkpt>
      <trkpt lat="45.283264" lon="6.935577">
        <ele>7909.56</ele>
        <time>2026-06-13T14:01:35Z</time>
      </trkpt>
      <trkpt lat="45.280293" lon="6.941483">
        <ele>7924.8</ele>
        <time>2026-06-13T14:01:35Z</time>
      </trkpt>
      <trkpt lat="45.277908" lon="6.946564">
        <ele>7932.42</ele>
        <time>2026-06-13T14:01:35Z</time>
      </trkpt>
      <trkpt lat="45.275635" lon="6.951666">
        <ele>7947.660000000001</ele>
        <time>2026-06-13T14:01:35Z</time>
      </trkpt>
      <trkpt lat="45.273216" lon="6.957494">
        <ele>7962.900000000001</ele>
        <time>2026-06-13T14:01:35Z</time>
      </trkpt>
      <trkpt lat="45.270981" lon="6.963255">
        <ele>7970.52</ele>
        <time>2026-06-13T14:01:35Z</time>
      </trkpt>
      <trkpt lat="45.268616" lon="6.969714">
        <ele>7985.76</ele>
        <time>2026-06-13T14:01:35Z</time>
      </trkpt>
      <trkpt lat="45.266884" lon="6.974912">
        <ele>8001.0</ele>
        <time>2026-06-13T14:01:35Z</time>
      </trkpt>
      <trkpt lat="45.265045" lon="6.9807">
        <ele>8016.240000000001</ele>
        <time>2026-06-13T14:01:35Z</time>
      </trkpt>
      <trkpt lat="45.263348" lon="6.986568">
        <ele>8023.860000000001</ele>
        <time>2026-06-13T14:01:35Z</time>
      </trkpt>
      <trkpt lat="45.261623" lon="6.992999">
        <ele>8039.1</ele>
        <time>2026-06-13T14:01:35Z</time>
      </trkpt>
      <trkpt lat="45.260319" lon="6.998224">
        <ele>8054.34</ele>
        <time>2026-06-13T14:01:35Z</time>
      </trkpt>
      <trkpt lat="45.258831" lon="7.004722">
        <ele>8061.96</ele>
        <time>2026-06-13T14:01:35Z</time>
      </trkpt>
      <trkpt lat="45.257622" lon="7.010684">
        <ele>8077.200000000001</ele>
        <time>2026-06-13T14:01:35Z</time>
      </trkpt>
      <trkpt lat="45.256504" lon="7.016713">
        <ele>8092.4400000000005</ele>
        <time>2026-06-13T14:01:35Z</time>
      </trkpt>
      <trkpt lat="45.255432" lon="7.023141">
        <ele>8100.06</ele>
        <time>2026-06-13T14:01:35Z</time>
      </trkpt>
      <trkpt lat="45.25436" lon="7.030312">
        <ele>8115.3</ele>
        <time>2026-06-13T14:01:35Z</time>
      </trkpt>
      <trkpt lat="45.253571" lon="7.036073">
        <ele>8130.54</ele>
        <time>2026-06-13T14:01:35Z</time>
      </trkpt>
      <trkpt lat="45.252686" lon="7.04217">
        <ele>8145.780000000001</ele>
        <time>2026-06-13T14:01:35Z</time>
      </trkpt>
      <trkpt lat="45.251678" lon="7.049561">
        <ele>8161.02</ele>
        <time>2026-06-13T14:01:35Z</time>
      </trkpt>
      <trkpt lat="45.251011" lon="7.054629">
        <ele>8168.64</ele>
        <time>2026-06-13T14:01:35Z</time>
      </trkpt>
      <trkpt lat="45.249985" lon="7.062116">
        <ele>8183.88</ele>
        <time>2026-06-13T14:01:35Z</time>
      </trkpt>
      <trkpt lat="45.2491" lon="7.06863">
        <ele>8199.12</ele>
        <time>2026-06-13T14:01:35Z</time>
      </trkpt>
      <trkpt lat="45.248215" lon="7.075061">
        <ele>8214.36</ele>
        <time>2026-06-13T14:01:35Z</time>
      </trkpt>
      <trkpt lat="45.24733" lon="7.081604">
        <ele>8229.6</ele>
        <time>2026-06-13T14:01:35Z</time>
      </trkpt>
      <trkpt lat="45.234009" lon="7.179173">
        <ele>8442.960000000001</ele>
        <time>2026-06-13T14:01:35Z</time>
      </trkpt>
      <trkpt lat="45.220192" lon="7.275562">
        <ele>8648.7</ele>
        <time>2026-06-13T14:01:35Z</time>
      </trkpt>
      <trkpt lat="45.205204" lon="7.374707">
        <ele>8862.060000000001</ele>
        <time>2026-06-13T14:01:35Z</time>
      </trkpt>
      <trkpt lat="45.187912" lon="7.469722">
        <ele>9037.32</ele>
        <time>2026-06-13T14:01:35Z</time>
      </trkpt>
      <trkpt lat="45.167496" lon="7.565695">
        <ele>9197.34</ele>
        <time>2026-06-13T14:01:35Z</time>
      </trkpt>
      <trkpt lat="45.147125" lon="7.664141">
        <ele>9372.6</ele>
        <time>2026-06-13T14:01:35Z</time>
      </trkpt>
      <trkpt lat="45.127041" lon="7.761975">
        <ele>9563.1</ele>
        <time>2026-06-13T14:01:35Z</time>
      </trkpt>
      <trkpt lat="45.106697" lon="7.859043">
        <ele>9730.74</ele>
        <time>2026-06-13T14:01:35Z</time>
      </trkpt>
      <trkpt lat="45.086609" lon="7.956325">
        <ele>9913.62</ele>
        <time>2026-06-13T14:01:35Z</time>
      </trkpt>
      <trkpt lat="45.066833" lon="8.051605">
        <ele>10081.26</ele>
        <time>2026-06-13T14:01:35Z</time>
      </trkpt>
      <trkpt lat="45.0466" lon="8.147903">
        <ele>10256.52</ele>
        <time>2026-06-13T14:01:35Z</time>
      </trkpt>
      <trkpt lat="45.026413" lon="8.243081">
        <ele>10454.640000000001</ele>
        <time>2026-06-13T14:01:35Z</time>
      </trkpt>
      <trkpt lat="45.00605" lon="8.337954">
        <ele>10584.18</ele>
        <time>2026-06-13T14:01:35Z</time>
      </trkpt>
      <trkpt lat="44.986034" lon="8.43194">
        <ele>10812.78</ele>
        <time>2026-06-13T14:01:35Z</time>
      </trkpt>
      <trkpt lat="44.966484" lon="8.526128">
        <ele>10957.560000000001</ele>
        <time>2026-06-13T14:01:35Z</time>
      </trkpt>
      <trkpt lat="44.94735" lon="8.619244">
        <ele>11064.24</ele>
        <time>2026-06-13T14:01:35Z</time>
      </trkpt>
      <trkpt lat="44.927811" lon="8.713466">
        <ele>11178.54</ele>
        <time>2026-06-13T14:01:35Z</time>
      </trkpt>
      <trkpt lat="44.90831" lon="8.805869">
        <ele>11269.980000000001</ele>
        <time>2026-06-13T14:01:35Z</time>
      </trkpt>
      <trkpt lat="44.887207" lon="8.90468">
        <ele>11277.6</ele>
        <time>2026-06-13T14:01:35Z</time>
      </trkpt>
      <trkpt lat="44.86853" lon="8.997084">
        <ele>11277.6</ele>
        <time>2026-06-13T14:01:35Z</time>
      </trkpt>
      <trkpt lat="44.855118" lon="9.090729">
        <ele>11277.6</ele>
        <time>2026-06-13T14:01:35Z</time>
      </trkpt>
      <trkpt lat="44.842209" lon="9.184701">
        <ele>11277.6</ele>
        <time>2026-06-13T14:01:35Z</time>
      </trkpt>
      <trkpt lat="44.828407" lon="9.278423">
        <ele>11277.6</ele>
        <time>2026-06-13T14:01:35Z</time>
      </trkpt>
      <trkpt lat="44.814102" lon="9.371599">
        <ele>11277.6</ele>
        <time>2026-06-13T14:01:35Z</time>
      </trkpt>
      <trkpt lat="44.799313" lon="9.4672">
        <ele>11277.6</ele>
        <time>2026-06-13T14:01:35Z</time>
      </trkpt>
      <trkpt lat="44.784668" lon="9.56144">
        <ele>11277.6</ele>
        <time>2026-06-13T14:01:35Z</time>
      </trkpt>
      <trkpt lat="44.770031" lon="9.655308">
        <ele>11277.6</ele>
        <time>2026-06-13T14:01:35Z</time>
      </trkpt>
      <trkpt lat="44.755554" lon="9.747418">
        <ele>11277.6</ele>
        <time>2026-06-13T14:01:35Z</time>
      </trkpt>
      <trkpt lat="44.740238" lon="9.844621">
        <ele>11277.6</ele>
        <time>2026-06-13T14:01:35Z</time>
      </trkpt>
      <trkpt lat="44.725571" lon="9.937395">
        <ele>11277.6</ele>
        <time>2026-06-13T14:01:35Z</time>
      </trkpt>
      <trkpt lat="44.710556" lon="10.031564">
        <ele>11277.6</ele>
        <time>2026-06-13T14:01:35Z</time>
      </trkpt>
      <trkpt lat="44.695686" lon="10.124169">
        <ele>11277.6</ele>
        <time>2026-06-13T14:01:35Z</time>
      </trkpt>
      <trkpt lat="44.680527" lon="10.218266">
        <ele>11277.6</ele>
        <time>2026-06-13T14:01:35Z</time>
      </trkpt>
      <trkpt lat="44.6651" lon="10.313154">
        <ele>11277.6</ele>
        <time>2026-06-13T14:01:35Z</time>
      </trkpt>
      <trkpt lat="44.649719" lon="10.407715">
        <ele>11277.6</ele>
        <time>2026-06-13T14:01:35Z</time>
      </trkpt>
      <trkpt lat="44.634155" lon="10.502995">
        <ele>11285.220000000001</ele>
        <time>2026-06-13T14:01:35Z</time>
      </trkpt>
      <trkpt lat="44.618412" lon="10.598189">
        <ele>11285.220000000001</ele>
        <time>2026-06-13T14:01:35Z</time>
      </trkpt>
      <trkpt lat="44.60257" lon="10.693294">
        <ele>11285.220000000001</ele>
        <time>2026-06-13T14:01:35Z</time>
      </trkpt>
      <trkpt lat="44.587143" lon="10.786155">
        <ele>11277.6</ele>
        <time>2026-06-13T14:01:35Z</time>
      </trkpt>
      <trkpt lat="44.571209" lon="10.881289">
        <ele>11277.6</ele>
        <time>2026-06-13T14:01:35Z</time>
      </trkpt>
      <trkpt lat="44.555328" lon="10.975276">
        <ele>11277.6</ele>
        <time>2026-06-13T14:01:35Z</time>
      </trkpt>
      <trkpt lat="44.539536" lon="11.068398">
        <ele>11277.6</ele>
        <time>2026-06-13T14:01:35Z</time>
      </trkpt>
      <trkpt lat="44.523193" lon="11.164332">
        <ele>11277.6</ele>
        <time>2026-06-13T14:01:35Z</time>
      </trkpt>
      <trkpt lat="44.506851" lon="11.259352">
        <ele>11277.6</ele>
        <time>2026-06-13T14:01:35Z</time>
      </trkpt>
      <trkpt lat="44.490875" lon="11.351885">
        <ele>11277.6</ele>
        <time>2026-06-13T14:01:35Z</time>
      </trkpt>
      <trkpt lat="44.474705" lon="11.445275">
        <ele>11285.220000000001</ele>
        <time>2026-06-13T14:01:35Z</time>
      </trkpt>
      <trkpt lat="44.458038" lon="11.541138">
        <ele>11285.220000000001</ele>
        <time>2026-06-13T14:01:35Z</time>
      </trkpt>
      <trkpt lat="44.441422" lon="11.635795">
        <ele>11277.6</ele>
        <time>2026-06-13T14:01:35Z</time>
      </trkpt>
      <trkpt lat="44.425079" lon="11.728441">
        <ele>11277.6</ele>
        <time>2026-06-13T14:01:35Z</time>
      </trkpt>
      <trkpt lat="44.40818" lon="11.824237">
        <ele>11277.6</ele>
        <time>2026-06-13T14:01:35Z</time>
      </trkpt>
      <trkpt lat="44.39209" lon="11.915458">
        <ele>11269.980000000001</ele>
        <time>2026-06-13T14:01:35Z</time>
      </trkpt>
      <trkpt lat="44.375336" lon="12.009038">
        <ele>11277.6</ele>
        <time>2026-06-13T14:01:35Z</time>
      </trkpt>
      <trkpt lat="44.358418" lon="12.10278">
        <ele>11277.6</ele>
        <time>2026-06-13T14:01:35Z</time>
      </trkpt>
      <trkpt lat="44.341473" lon="12.196499">
        <ele>11277.6</ele>
        <time>2026-06-13T14:01:35Z</time>
      </trkpt>
      <trkpt lat="44.324707" lon="12.288862">
        <ele>11277.6</ele>
        <time>2026-06-13T14:01:35Z</time>
      </trkpt>
      <trkpt lat="44.307674" lon="12.382061">
        <ele>11277.6</ele>
        <time>2026-06-13T14:01:35Z</time>
      </trkpt>
      <trkpt lat="44.290741" lon="12.47406">
        <ele>11277.6</ele>
        <time>2026-06-13T14:01:35Z</time>
      </trkpt>
      <trkpt lat="44.273739" lon="12.566483">
        <ele>11277.6</ele>
        <time>2026-06-13T14:01:35Z</time>
      </trkpt>
      <trkpt lat="44.256454" lon="12.659978">
        <ele>11285.220000000001</ele>
        <time>2026-06-13T14:01:35Z</time>
      </trkpt>
      <trkpt lat="44.23938" lon="12.751661">
        <ele>11285.220000000001</ele>
        <time>2026-06-13T14:01:35Z</time>
      </trkpt>
      <trkpt lat="44.221741" lon="12.846233">
        <ele>11285.220000000001</ele>
        <time>2026-06-13T14:01:35Z</time>
      </trkpt>
      <trkpt lat="44.204636" lon="12.93699">
        <ele>11277.6</ele>
        <time>2026-06-13T14:01:35Z</time>
      </trkpt>
      <trkpt lat="44.187286" lon="13.028763">
        <ele>11277.6</ele>
        <time>2026-06-13T14:01:35Z</time>
      </trkpt>
      <trkpt lat="44.169891" lon="13.120422">
        <ele>11269.980000000001</ele>
        <time>2026-06-13T14:01:35Z</time>
      </trkpt>
      <trkpt lat="44.152515" lon="13.211517">
        <ele>11277.6</ele>
        <time>2026-06-13T14:01:35Z</time>
      </trkpt>
      <trkpt lat="44.135101" lon="13.302655">
        <ele>11277.6</ele>
        <time>2026-06-13T14:01:35Z</time>
      </trkpt>
      <trkpt lat="44.117508" lon="13.393838">
        <ele>11277.6</ele>
        <time>2026-06-13T14:01:35Z</time>
      </trkpt>
      <trkpt lat="44.09967" lon="13.486101">
        <ele>11277.6</ele>
        <time>2026-06-13T14:01:35Z</time>
      </trkpt>
      <trkpt lat="44.081818" lon="13.578143">
        <ele>11277.6</ele>
        <time>2026-06-13T14:01:35Z</time>
      </trkpt>
      <trkpt lat="44.064114" lon="13.668954">
        <ele>11277.6</ele>
        <time>2026-06-13T14:01:35Z</time>
      </trkpt>
      <trkpt lat="44.046749" lon="13.759199">
        <ele>11277.6</ele>
        <time>2026-06-13T14:01:35Z</time>
      </trkpt>
      <trkpt lat="44.029129" lon="13.851333">
        <ele>11277.6</ele>
        <time>2026-06-13T14:01:35Z</time>
      </trkpt>
      <trkpt lat="44.010811" lon="13.948256">
        <ele>11285.220000000001</ele>
        <time>2026-06-13T14:01:35Z</time>
      </trkpt>
      <trkpt lat="43.993698" lon="14.037653">
        <ele>11277.6</ele>
        <time>2026-06-13T14:01:35Z</time>
      </trkpt>
      <trkpt lat="43.97612" lon="14.128546">
        <ele>11269.980000000001</ele>
        <time>2026-06-13T14:01:35Z</time>
      </trkpt>
      <trkpt lat="43.958439" lon="14.220298">
        <ele>11277.6</ele>
        <time>2026-06-13T14:01:35Z</time>
      </trkpt>
      <trkpt lat="43.940937" lon="14.310477">
        <ele>11277.6</ele>
        <time>2026-06-13T14:01:35Z</time>
      </trkpt>
      <trkpt lat="43.917023" lon="14.398158">
        <ele>11277.6</ele>
        <time>2026-06-13T14:01:35Z</time>
      </trkpt>
      <trkpt lat="43.888229" lon="14.48426">
        <ele>11277.6</ele>
        <time>2026-06-13T14:01:35Z</time>
      </trkpt>
      <trkpt lat="43.859612" lon="14.570356">
        <ele>11277.6</ele>
        <time>2026-06-13T14:01:35Z</time>
      </trkpt>
      <trkpt lat="43.827438" lon="14.654484">
        <ele>11277.6</ele>
        <time>2026-06-13T14:01:35Z</time>
      </trkpt>
      <trkpt lat="43.791412" lon="14.734955">
        <ele>11277.6</ele>
        <time>2026-06-13T14:01:35Z</time>
      </trkpt>
      <trkpt lat="43.755157" lon="14.816724">
        <ele>11277.6</ele>
        <time>2026-06-13T14:01:35Z</time>
      </trkpt>
      <trkpt lat="43.718445" lon="14.899441">
        <ele>11277.6</ele>
        <time>2026-06-13T14:01:35Z</time>
      </trkpt>
      <trkpt lat="43.681915" lon="14.981263">
        <ele>11277.6</ele>
        <time>2026-06-13T14:01:35Z</time>
      </trkpt>
      <trkpt lat="43.645424" lon="15.062714">
        <ele>11277.6</ele>
        <time>2026-06-13T14:01:35Z</time>
      </trkpt>
      <trkpt lat="43.608555" lon="15.14485">
        <ele>11277.6</ele>
        <time>2026-06-13T14:01:35Z</time>
      </trkpt>
      <trkpt lat="43.572144" lon="15.225646">
        <ele>11277.6</ele>
        <time>2026-06-13T14:01:35Z</time>
      </trkpt>
      <trkpt lat="43.535385" lon="15.306957">
        <ele>11285.220000000001</ele>
        <time>2026-06-13T14:01:35Z</time>
      </trkpt>
      <trkpt lat="43.498352" lon="15.38878">
        <ele>11285.220000000001</ele>
        <time>2026-06-13T14:01:35Z</time>
      </trkpt>
      <trkpt lat="43.461868" lon="15.469011">
        <ele>11277.6</ele>
        <time>2026-06-13T14:01:35Z</time>
      </trkpt>
      <trkpt lat="43.425339" lon="15.549359">
        <ele>11277.6</ele>
        <time>2026-06-13T14:01:35Z</time>
      </trkpt>
      <trkpt lat="43.389038" lon="15.628755">
        <ele>11277.6</ele>
        <time>2026-06-13T14:01:35Z</time>
      </trkpt>
      <trkpt lat="43.352005" lon="15.709427">
        <ele>11285.220000000001</ele>
        <time>2026-06-13T14:01:35Z</time>
      </trkpt>
      <trkpt lat="43.31546" lon="15.789054">
        <ele>11277.6</ele>
        <time>2026-06-13T14:01:35Z</time>
      </trkpt>
      <trkpt lat="43.278172" lon="15.870012">
        <ele>11269.980000000001</ele>
        <time>2026-06-13T14:01:35Z</time>
      </trkpt>
      <trkpt lat="43.241814" lon="15.948813">
        <ele>11269.980000000001</ele>
        <time>2026-06-13T14:01:35Z</time>
      </trkpt>
      <trkpt lat="43.205017" lon="16.028479">
        <ele>11277.6</ele>
        <time>2026-06-13T14:01:35Z</time>
      </trkpt>
      <trkpt lat="43.167847" lon="16.108576">
        <ele>11277.6</ele>
        <time>2026-06-13T14:01:35Z</time>
      </trkpt>
      <trkpt lat="43.130741" lon="16.188158">
        <ele>11277.6</ele>
        <time>2026-06-13T14:01:35Z</time>
      </trkpt>
      <trkpt lat="43.094479" lon="16.265717">
        <ele>11277.6</ele>
        <time>2026-06-13T14:01:35Z</time>
      </trkpt>
      <trkpt lat="43.057327" lon="16.344975">
        <ele>11277.6</ele>
        <time>2026-06-13T14:01:35Z</time>
      </trkpt>
      <trkpt lat="43.020218" lon="16.423986">
        <ele>11277.6</ele>
        <time>2026-06-13T14:01:35Z</time>
      </trkpt>
      <trkpt lat="42.983551" lon="16.502104">
        <ele>11277.6</ele>
        <time>2026-06-13T14:01:35Z</time>
      </trkpt>
      <trkpt lat="42.946518" lon="16.580605">
        <ele>11277.6</ele>
        <time>2026-06-13T14:01:35Z</time>
      </trkpt>
      <trkpt lat="42.909714" lon="16.658339">
        <ele>11277.6</ele>
        <time>2026-06-13T14:01:35Z</time>
      </trkpt>
      <trkpt lat="42.871632" lon="16.738586">
        <ele>11277.6</ele>
        <time>2026-06-13T14:01:35Z</time>
      </trkpt>
      <trkpt lat="42.834229" lon="16.817259">
        <ele>11285.220000000001</ele>
        <time>2026-06-13T14:01:35Z</time>
      </trkpt>
      <trkpt lat="42.797607" lon="16.894102">
        <ele>11277.6</ele>
        <time>2026-06-13T14:01:35Z</time>
      </trkpt>
      <trkpt lat="42.760094" lon="16.972536">
        <ele>11277.6</ele>
        <time>2026-06-13T14:01:35Z</time>
      </trkpt>
      <trkpt lat="42.722527" lon="17.050909">
        <ele>11277.6</ele>
        <time>2026-06-13T14:01:35Z</time>
      </trkpt>
      <trkpt lat="42.685188" lon="17.128515">
        <ele>11269.980000000001</ele>
        <time>2026-06-13T14:01:35Z</time>
      </trkpt>
      <trkpt lat="42.647484" lon="17.206825">
        <ele>11269.980000000001</ele>
        <time>2026-06-13T14:01:35Z</time>
      </trkpt>
      <trkpt lat="42.6091" lon="17.286238">
        <ele>11277.6</ele>
        <time>2026-06-13T14:01:35Z</time>
      </trkpt>
      <trkpt lat="42.571701" lon="17.363329">
        <ele>11277.6</ele>
        <time>2026-06-13T14:01:35Z</time>
      </trkpt>
      <trkpt lat="42.533478" lon="17.441946">
        <ele>11277.6</ele>
        <time>2026-06-13T14:01:35Z</time>
      </trkpt>
      <trkpt lat="42.495941" lon="17.519136">
        <ele>11277.6</ele>
        <time>2026-06-13T14:01:35Z</time>
      </trkpt>
      <trkpt lat="42.457783" lon="17.597288">
        <ele>11277.6</ele>
        <time>2026-06-13T14:01:35Z</time>
      </trkpt>
      <trkpt lat="42.419655" lon="17.675406">
        <ele>11277.6</ele>
        <time>2026-06-13T14:01:35Z</time>
      </trkpt>
      <trkpt lat="42.381668" lon="17.752821">
        <ele>11285.220000000001</ele>
        <time>2026-06-13T14:01:35Z</time>
      </trkpt>
      <trkpt lat="42.342224" lon="17.83287">
        <ele>11285.220000000001</ele>
        <time>2026-06-13T14:01:35Z</time>
      </trkpt>
      <trkpt lat="42.303955" lon="17.910212">
        <ele>11277.6</ele>
        <time>2026-06-13T14:01:35Z</time>
      </trkpt>
      <trkpt lat="42.265427" lon="17.988068">
        <ele>11277.6</ele>
        <time>2026-06-13T14:01:35Z</time>
      </trkpt>
      <trkpt lat="42.226639" lon="18.06633">
        <ele>11285.220000000001</ele>
        <time>2026-06-13T14:01:35Z</time>
      </trkpt>
      <trkpt lat="42.187912" lon="18.144234">
        <ele>11285.220000000001</ele>
        <time>2026-06-13T14:01:35Z</time>
      </trkpt>
      <trkpt lat="42.149887" lon="18.220697">
        <ele>11285.220000000001</ele>
        <time>2026-06-13T14:01:35Z</time>
      </trkpt>
      <trkpt lat="42.109665" lon="18.295046">
        <ele>11277.6</ele>
        <time>2026-06-13T14:01:35Z</time>
      </trkpt>
      <trkpt lat="42.066139" lon="18.366713">
        <ele>11277.6</ele>
        <time>2026-06-13T14:01:35Z</time>
      </trkpt>
      <trkpt lat="42.022331" lon="18.439466">
        <ele>11277.6</ele>
        <time>2026-06-13T14:01:35Z</time>
      </trkpt>
      <trkpt lat="41.979225" lon="18.512218">
        <ele>11277.6</ele>
        <time>2026-06-13T14:01:35Z</time>
      </trkpt>
      <trkpt lat="41.936783" lon="18.584311">
        <ele>11277.6</ele>
        <time>2026-06-13T14:01:35Z</time>
      </trkpt>
      <trkpt lat="41.893848" lon="18.657085">
        <ele>11277.6</ele>
        <time>2026-06-13T14:01:35Z</time>
      </trkpt>
      <trkpt lat="41.852325" lon="18.727154">
        <ele>11269.980000000001</ele>
        <time>2026-06-13T14:01:35Z</time>
      </trkpt>
      <trkpt lat="41.810303" lon="18.797981">
        <ele>11269.980000000001</ele>
        <time>2026-06-13T14:01:35Z</time>
      </trkpt>
      <trkpt lat="41.767319" lon="18.870205">
        <ele>11269.980000000001</ele>
        <time>2026-06-13T14:01:35Z</time>
      </trkpt>
      <trkpt lat="41.724426" lon="18.94199">
        <ele>11277.6</ele>
        <time>2026-06-13T14:01:35Z</time>
      </trkpt>
      <trkpt lat="41.681755" lon="19.013309">
        <ele>11285.220000000001</ele>
        <time>2026-06-13T14:01:35Z</time>
      </trkpt>
      <trkpt lat="41.635948" lon="19.081079">
        <ele>11277.6</ele>
        <time>2026-06-13T14:01:35Z</time>
      </trkpt>
      <trkpt lat="41.586411" lon="19.147297">
        <ele>11277.6</ele>
        <time>2026-06-13T14:01:35Z</time>
      </trkpt>
      <trkpt lat="41.537117" lon="19.214386">
        <ele>11277.6</ele>
        <time>2026-06-13T14:01:35Z</time>
      </trkpt>
      <trkpt lat="41.487076" lon="19.283815">
        <ele>11277.6</ele>
        <time>2026-06-13T14:01:35Z</time>
      </trkpt>
      <trkpt lat="41.438507" lon="19.351543">
        <ele>11277.6</ele>
        <time>2026-06-13T14:01:35Z</time>
      </trkpt>
      <trkpt lat="41.389572" lon="19.419458">
        <ele>11277.6</ele>
        <time>2026-06-13T14:01:35Z</time>
      </trkpt>
      <trkpt lat="41.339645" lon="19.488436">
        <ele>11277.6</ele>
        <time>2026-06-13T14:01:35Z</time>
      </trkpt>
      <trkpt lat="41.290329" lon="19.556396">
        <ele>11285.220000000001</ele>
        <time>2026-06-13T14:01:35Z</time>
      </trkpt>
      <trkpt lat="41.241257" lon="19.623962">
        <ele>11277.6</ele>
        <time>2026-06-13T14:01:35Z</time>
      </trkpt>
      <trkpt lat="41.190399" lon="19.693743">
        <ele>11277.6</ele>
        <time>2026-06-13T14:01:35Z</time>
      </trkpt>
      <trkpt lat="41.140686" lon="19.761902">
        <ele>11277.6</ele>
        <time>2026-06-13T14:01:35Z</time>
      </trkpt>
      <trkpt lat="41.091381" lon="19.829386">
        <ele>11277.6</ele>
        <time>2026-06-13T14:01:35Z</time>
      </trkpt>
      <trkpt lat="41.041058" lon="19.89805">
        <ele>11277.6</ele>
        <time>2026-06-13T14:01:35Z</time>
      </trkpt>
      <trkpt lat="40.990177" lon="19.967215">
        <ele>11277.6</ele>
        <time>2026-06-13T14:01:35Z</time>
      </trkpt>
      <trkpt lat="40.939899" lon="20.035442">
        <ele>11277.6</ele>
        <time>2026-06-13T14:01:35Z</time>
      </trkpt>
      <trkpt lat="40.887909" lon="20.105835">
        <ele>11277.6</ele>
        <time>2026-06-13T14:01:35Z</time>
      </trkpt>
      <trkpt lat="40.83728" lon="20.174194">
        <ele>11277.6</ele>
        <time>2026-06-13T14:01:35Z</time>
      </trkpt>
      <trkpt lat="40.786148" lon="20.243103">
        <ele>11285.220000000001</ele>
        <time>2026-06-13T14:01:35Z</time>
      </trkpt>
      <trkpt lat="40.735611" lon="20.311035">
        <ele>11285.220000000001</ele>
        <time>2026-06-13T14:01:35Z</time>
      </trkpt>
      <trkpt lat="40.685852" lon="20.377625">
        <ele>11285.220000000001</ele>
        <time>2026-06-13T14:01:35Z</time>
      </trkpt>
      <trkpt lat="40.633484" lon="20.447693">
        <ele>11277.6</ele>
        <time>2026-06-13T14:01:35Z</time>
      </trkpt>
      <trkpt lat="40.583221" lon="20.514832">
        <ele>11277.6</ele>
        <time>2026-06-13T14:01:35Z</time>
      </trkpt>
      <trkpt lat="40.532822" lon="20.582031">
        <ele>11277.6</ele>
        <time>2026-06-13T14:01:35Z</time>
      </trkpt>
      <trkpt lat="40.483429" lon="20.647644">
        <ele>11277.6</ele>
        <time>2026-06-13T14:01:35Z</time>
      </trkpt>
      <trkpt lat="40.433506" lon="20.713911">
        <ele>11269.980000000001</ele>
        <time>2026-06-13T14:01:35Z</time>
      </trkpt>
      <trkpt lat="40.383453" lon="20.78009">
        <ele>11277.6</ele>
        <time>2026-06-13T14:01:35Z</time>
      </trkpt>
      <trkpt lat="40.332779" lon="20.846924">
        <ele>11277.6</ele>
        <time>2026-06-13T14:01:35Z</time>
      </trkpt>
      <trkpt lat="40.282349" lon="20.913412">
        <ele>11277.6</ele>
        <time>2026-06-13T14:01:35Z</time>
      </trkpt>
      <trkpt lat="40.231522" lon="20.980286">
        <ele>11277.6</ele>
        <time>2026-06-13T14:01:35Z</time>
      </trkpt>
      <trkpt lat="40.180866" lon="21.046558">
        <ele>11277.6</ele>
        <time>2026-06-13T14:01:35Z</time>
      </trkpt>
      <trkpt lat="40.13031" lon="21.112726">
        <ele>11285.220000000001</ele>
        <time>2026-06-13T14:01:35Z</time>
      </trkpt>
      <trkpt lat="40.079849" lon="21.178707">
        <ele>11285.220000000001</ele>
        <time>2026-06-13T14:01:35Z</time>
      </trkpt>
      <trkpt lat="40.028458" lon="21.245605">
        <ele>11277.6</ele>
        <time>2026-06-13T14:01:35Z</time>
      </trkpt>
      <trkpt lat="39.977665" lon="21.311604">
        <ele>11277.6</ele>
        <time>2026-06-13T14:01:35Z</time>
      </trkpt>
      <trkpt lat="39.926785" lon="21.377398">
        <ele>11277.6</ele>
        <time>2026-06-13T14:01:35Z</time>
      </trkpt>
      <trkpt lat="39.875473" lon="21.44364">
        <ele>11285.220000000001</ele>
        <time>2026-06-13T14:01:35Z</time>
      </trkpt>
      <trkpt lat="39.826538" lon="21.506811">
        <ele>11285.220000000001</ele>
        <time>2026-06-13T14:01:35Z</time>
      </trkpt>
      <trkpt lat="39.775909" lon="21.572083">
        <ele>11277.6</ele>
        <time>2026-06-13T14:01:35Z</time>
      </trkpt>
      <trkpt lat="39.723629" lon="21.639343">
        <ele>11277.6</ele>
        <time>2026-06-13T14:01:35Z</time>
      </trkpt>
      <trkpt lat="39.672653" lon="21.704773">
        <ele>11269.980000000001</ele>
        <time>2026-06-13T14:01:35Z</time>
      </trkpt>
      <trkpt lat="39.621552" lon="21.770245">
        <ele>11269.980000000001</ele>
        <time>2026-06-13T14:01:35Z</time>
      </trkpt>
      <trkpt lat="39.569641" lon="21.836641">
        <ele>11277.6</ele>
        <time>2026-06-13T14:01:35Z</time>
      </trkpt>
      <trkpt lat="39.519882" lon="21.899872">
        <ele>11277.6</ele>
        <time>2026-06-13T14:01:35Z</time>
      </trkpt>
      <trkpt lat="39.467266" lon="21.966675">
        <ele>11285.220000000001</ele>
        <time>2026-06-13T14:01:35Z</time>
      </trkpt>
      <trkpt lat="39.415466" lon="22.032543">
        <ele>11285.220000000001</ele>
        <time>2026-06-13T14:01:35Z</time>
      </trkpt>
      <trkpt lat="39.363098" lon="22.09864">
        <ele>11285.220000000001</ele>
        <time>2026-06-13T14:01:35Z</time>
      </trkpt>
      <trkpt lat="39.310898" lon="22.164429">
        <ele>11285.220000000001</ele>
        <time>2026-06-13T14:01:35Z</time>
      </trkpt>
      <trkpt lat="39.258957" lon="22.229939">
        <ele>11277.6</ele>
        <time>2026-06-13T14:01:35Z</time>
      </trkpt>
      <trkpt lat="39.207504" lon="22.294373">
        <ele>11277.6</ele>
        <time>2026-06-13T14:01:35Z</time>
      </trkpt>
      <trkpt lat="39.155739" lon="22.359375">
        <ele>11285.220000000001</ele>
        <time>2026-06-13T14:01:35Z</time>
      </trkpt>
      <trkpt lat="39.103508" lon="22.424866">
        <ele>11277.6</ele>
        <time>2026-06-13T14:01:35Z</time>
      </trkpt>
      <trkpt lat="39.052368" lon="22.488775">
        <ele>11269.980000000001</ele>
        <time>2026-06-13T14:01:35Z</time>
      </trkpt>
      <trkpt lat="38.999954" lon="22.554035">
        <ele>11277.6</ele>
        <time>2026-06-13T14:01:35Z</time>
      </trkpt>
      <trkpt lat="38.946812" lon="22.620117">
        <ele>11277.6</ele>
        <time>2026-06-13T14:01:35Z</time>
      </trkpt>
      <trkpt lat="38.894161" lon="22.685425">
        <ele>11285.220000000001</ele>
        <time>2026-06-13T14:01:35Z</time>
      </trkpt>
      <trkpt lat="38.841751" lon="22.750357">
        <ele>11285.220000000001</ele>
        <time>2026-06-13T14:01:35Z</time>
      </trkpt>
      <trkpt lat="38.789654" lon="22.814575">
        <ele>11285.220000000001</ele>
        <time>2026-06-13T14:01:35Z</time>
      </trkpt>
      <trkpt lat="38.735886" lon="22.880737">
        <ele>11277.6</ele>
        <time>2026-06-13T14:01:35Z</time>
      </trkpt>
      <trkpt lat="38.68222" lon="22.946857">
        <ele>11170.92</ele>
        <time>2026-06-13T14:01:35Z</time>
      </trkpt>
      <trkpt lat="38.632168" lon="23.008118">
        <ele>11033.76</ele>
        <time>2026-06-13T14:01:35Z</time>
      </trkpt>
      <trkpt lat="38.578812" lon="23.073318">
        <ele>10873.74</ele>
        <time>2026-06-13T14:01:35Z</time>
      </trkpt>
      <trkpt lat="38.526028" lon="23.138">
        <ele>10706.1</ele>
        <time>2026-06-13T14:01:35Z</time>
      </trkpt>
      <trkpt lat="38.475174" lon="23.200199">
        <ele>10660.380000000001</ele>
        <time>2026-06-13T14:01:35Z</time>
      </trkpt>
      <trkpt lat="38.421158" lon="23.265938">
        <ele>10668.0</ele>
        <time>2026-06-13T14:01:35Z</time>
      </trkpt>
      <trkpt lat="38.369427" lon="23.328812">
        <ele>10668.0</ele>
        <time>2026-06-13T14:01:35Z</time>
      </trkpt>
      <trkpt lat="38.316193" lon="23.393341">
        <ele>10668.0</ele>
        <time>2026-06-13T14:01:35Z</time>
      </trkpt>
      <trkpt lat="38.262863" lon="23.457914">
        <ele>10668.0</ele>
        <time>2026-06-13T14:01:35Z</time>
      </trkpt>
      <trkpt lat="38.208866" lon="23.523043">
        <ele>10668.0</ele>
        <time>2026-06-13T14:01:35Z</time>
      </trkpt>
      <trkpt lat="38.154465" lon="23.588406">
        <ele>10668.0</ele>
        <time>2026-06-13T14:01:35Z</time>
      </trkpt>
      <trkpt lat="38.100166" lon="23.653803">
        <ele>10668.0</ele>
        <time>2026-06-13T14:01:35Z</time>
      </trkpt>
      <trkpt lat="38.046478" lon="23.718138">
        <ele>10683.24</ele>
        <time>2026-06-13T14:01:35Z</time>
      </trkpt>
      <trkpt lat="37.993469" lon="23.781544">
        <ele>10675.62</ele>
        <time>2026-06-13T14:01:35Z</time>
      </trkpt>
      <trkpt lat="37.939842" lon="23.845407">
        <ele>10668.0</ele>
        <time>2026-06-13T14:01:35Z</time>
      </trkpt>
      <trkpt lat="37.885803" lon="23.909639">
        <ele>10660.380000000001</ele>
        <time>2026-06-13T14:01:35Z</time>
      </trkpt>
      <trkpt lat="37.831238" lon="23.974564">
        <ele>10652.76</ele>
        <time>2026-06-13T14:01:35Z</time>
      </trkpt>
      <trkpt lat="37.776947" lon="24.039137">
        <ele>10660.380000000001</ele>
        <time>2026-06-13T14:01:35Z</time>
      </trkpt>
      <trkpt lat="37.721375" lon="24.105114">
        <ele>10668.0</ele>
        <time>2026-06-13T14:01:35Z</time>
      </trkpt>
      <trkpt lat="37.666809" lon="24.169571">
        <ele>10668.0</ele>
        <time>2026-06-13T14:01:35Z</time>
      </trkpt>
      <trkpt lat="37.612701" lon="24.233152">
        <ele>10675.62</ele>
        <time>2026-06-13T14:01:35Z</time>
      </trkpt>
      <trkpt lat="37.557495" lon="24.293283">
        <ele>10683.24</ele>
        <time>2026-06-13T14:01:35Z</time>
      </trkpt>
      <trkpt lat="37.495731" lon="24.346956">
        <ele>10668.0</ele>
        <time>2026-06-13T14:01:35Z</time>
      </trkpt>
      <trkpt lat="37.432888" lon="24.396097">
        <ele>10668.0</ele>
        <time>2026-06-13T14:01:35Z</time>
      </trkpt>
      <trkpt lat="37.369949" lon="24.445536">
        <ele>10660.380000000001</ele>
        <time>2026-06-13T14:01:35Z</time>
      </trkpt>
      <trkpt lat="37.308174" lon="24.493959">
        <ele>10660.380000000001</ele>
        <time>2026-06-13T14:01:35Z</time>
      </trkpt>
      <trkpt lat="37.245941" lon="24.542522">
        <ele>10668.0</ele>
        <time>2026-06-13T14:01:35Z</time>
      </trkpt>
      <trkpt lat="37.183319" lon="24.591284">
        <ele>10660.380000000001</ele>
        <time>2026-06-13T14:01:35Z</time>
      </trkpt>
      <trkpt lat="37.119312" lon="24.64102">
        <ele>10660.380000000001</ele>
        <time>2026-06-13T14:01:35Z</time>
      </trkpt>
      <trkpt lat="37.057571" lon="24.689201">
        <ele>10675.62</ele>
        <time>2026-06-13T14:01:35Z</time>
      </trkpt>
      <trkpt lat="36.994503" lon="24.738106">
        <ele>10675.62</ele>
        <time>2026-06-13T14:01:35Z</time>
      </trkpt>
      <trkpt lat="36.931778" lon="24.786207">
        <ele>10660.380000000001</ele>
        <time>2026-06-13T14:01:35Z</time>
      </trkpt>
      <trkpt lat="36.896652" lon="24.80707">
        <ele>10660.380000000001</ele>
        <time>2026-06-13T14:01:35Z</time>
      </trkpt>
      <trkpt lat="36.891403" lon="24.809525">
        <ele>10652.76</ele>
        <time>2026-06-13T14:01:35Z</time>
      </trkpt>
      <trkpt lat="36.886738" lon="24.811548">
        <ele>10645.140000000001</ele>
        <time>2026-06-13T14:01:35Z</time>
      </trkpt>
      <trkpt lat="36.882523" lon="24.813324">
        <ele>10637.52</ele>
        <time>2026-06-13T14:01:35Z</time>
      </trkpt>
      <trkpt lat="36.877846" lon="24.815189">
        <ele>10629.9</ele>
        <time>2026-06-13T14:01:35Z</time>
      </trkpt>
      <trkpt lat="36.873329" lon="24.817041">
        <ele>10622.28</ele>
        <time>2026-06-13T14:01:35Z</time>
      </trkpt>
      <trkpt lat="36.868652" lon="24.818874">
        <ele>10607.04</ele>
        <time>2026-06-13T14:01:35Z</time>
      </trkpt>
      <trkpt lat="36.863892" lon="24.820803">
        <ele>10591.800000000001</ele>
        <time>2026-06-13T14:01:35Z</time>
      </trkpt>
      <trkpt lat="36.85936" lon="24.822615">
        <ele>10576.560000000001</ele>
        <time>2026-06-13T14:01:35Z</time>
      </trkpt>
      <trkpt lat="36.85601" lon="24.823967">
        <ele>10561.32</ele>
        <time>2026-06-13T14:01:35Z</time>
      </trkpt>
      <trkpt lat="36.785156" lon="24.852734">
        <ele>10149.84</ele>
        <time>2026-06-13T14:01:35Z</time>
      </trkpt>
      <trkpt lat="36.715759" lon="24.881229">
        <ele>9677.4</ele>
        <time>2026-06-13T14:01:35Z</time>
      </trkpt>
      <trkpt lat="36.648529" lon="24.908518">
        <ele>9227.82</ele>
        <time>2026-06-13T14:01:35Z</time>
      </trkpt>
      <trkpt lat="36.576141" lon="24.938107">
        <ele>8732.52</ele>
        <time>2026-06-13T14:01:35Z</time>
      </trkpt>
      <trkpt lat="36.505005" lon="24.967175">
        <ele>8153.400000000001</ele>
        <time>2026-06-13T14:01:35Z</time>
      </trkpt>
      <trkpt lat="36.438263" lon="24.994354">
        <ele>7551.42</ele>
        <time>2026-06-13T14:01:35Z</time>
      </trkpt>
      <trkpt lat="36.368271" lon="25.02285">
        <ele>6926.58</ele>
        <time>2026-06-13T14:01:35Z</time>
      </trkpt>
      <trkpt lat="36.296906" lon="25.051746">
        <ele>6370.320000000001</ele>
        <time>2026-06-13T14:01:35Z</time>
      </trkpt>
      <trkpt lat="36.228378" lon="25.079441">
        <ele>5928.360000000001</ele>
        <time>2026-06-13T14:01:35Z</time>
      </trkpt>
      <trkpt lat="36.161591" lon="25.105991">
        <ele>5501.64</ele>
        <time>2026-06-13T14:01:35Z</time>
      </trkpt>
      <trkpt lat="36.095768" lon="25.131109">
        <ele>5074.92</ele>
        <time>2026-06-13T14:01:35Z</time>
      </trkpt>
      <trkpt lat="36.03241" lon="25.154686">
        <ele>4625.34</ele>
        <time>2026-06-13T14:01:35Z</time>
      </trkpt>
      <trkpt lat="35.970703" lon="25.177746">
        <ele>4175.76</ele>
        <time>2026-06-13T14:01:35Z</time>
      </trkpt>
      <trkpt lat="35.910908" lon="25.200182">
        <ele>3939.5400000000004</ele>
        <time>2026-06-13T14:01:35Z</time>
      </trkpt>
      <trkpt lat="35.857281" lon="25.220051">
        <ele>3741.42</ele>
        <time>2026-06-13T14:01:35Z</time>
      </trkpt>
      <trkpt lat="35.808838" lon="25.238171">
        <ele>3566.1600000000003</ele>
        <time>2026-06-13T14:01:35Z</time>
      </trkpt>
      <trkpt lat="35.791035" lon="25.244886">
        <ele>3489.96</ele>
        <time>2026-06-13T14:01:35Z</time>
      </trkpt>
      <trkpt lat="35.773865" lon="25.251331">
        <ele>3375.6600000000003</ele>
        <time>2026-06-13T14:01:35Z</time>
      </trkpt>
      <trkpt lat="35.75412" lon="25.258562">
        <ele>3230.88</ele>
        <time>2026-06-13T14:01:35Z</time>
      </trkpt>
      <trkpt lat="35.733498" lon="25.266216">
        <ele>3048.0</ele>
        <time>2026-06-13T14:01:35Z</time>
      </trkpt>
      <trkpt lat="35.716412" lon="25.272703">
        <ele>2910.84</ele>
        <time>2026-06-13T14:01:35Z</time>
      </trkpt>
      <trkpt lat="35.698864" lon="25.279366">
        <ele>2750.82</ele>
        <time>2026-06-13T14:01:35Z</time>
      </trkpt>
      <trkpt lat="35.681404" lon="25.286379">
        <ele>2590.8</ele>
        <time>2026-06-13T14:01:35Z</time>
      </trkpt>
      <trkpt lat="35.675587" lon="25.289825">
        <ele>2545.08</ele>
        <time>2026-06-13T14:01:35Z</time>
      </trkpt>
      <trkpt lat="35.672928" lon="25.291786">
        <ele>2537.46</ele>
        <time>2026-06-13T14:01:35Z</time>
      </trkpt>
      <trkpt lat="35.670746" lon="25.293682">
        <ele>2522.2200000000003</ele>
        <time>2026-06-13T14:01:35Z</time>
      </trkpt>
      <trkpt lat="35.668232" lon="25.296021">
        <ele>2514.6</ele>
        <time>2026-06-13T14:01:35Z</time>
      </trkpt>
      <trkpt lat="35.665421" lon="25.298939">
        <ele>2499.36</ele>
        <time>2026-06-13T14:01:35Z</time>
      </trkpt>
      <trkpt lat="35.66325" lon="25.301338">
        <ele>2491.7400000000002</ele>
        <time>2026-06-13T14:01:35Z</time>
      </trkpt>
      <trkpt lat="35.661156" lon="25.303734">
        <ele>2476.5</ele>
        <time>2026-06-13T14:01:35Z</time>
      </trkpt>
      <trkpt lat="35.658688" lon="25.306656">
        <ele>2461.26</ele>
        <time>2026-06-13T14:01:35Z</time>
      </trkpt>
      <trkpt lat="35.656872" lon="25.308876">
        <ele>2446.02</ele>
        <time>2026-06-13T14:01:35Z</time>
      </trkpt>
      <trkpt lat="35.654732" lon="25.311449">
        <ele>2430.78</ele>
        <time>2026-06-13T14:01:35Z</time>
      </trkpt>
      <trkpt lat="35.652786" lon="25.313873">
        <ele>2423.1600000000003</ele>
        <time>2026-06-13T14:01:35Z</time>
      </trkpt>
      <trkpt lat="35.650726" lon="25.316505">
        <ele>2407.92</ele>
        <time>2026-06-13T14:01:35Z</time>
      </trkpt>
      <trkpt lat="35.648712" lon="25.318966">
        <ele>2392.6800000000003</ele>
        <time>2026-06-13T14:01:35Z</time>
      </trkpt>
      <trkpt lat="35.645794" lon="25.322609">
        <ele>2369.82</ele>
        <time>2026-06-13T14:01:35Z</time>
      </trkpt>
      <trkpt lat="35.643604" lon="25.325356">
        <ele>2354.58</ele>
        <time>2026-06-13T14:01:35Z</time>
      </trkpt>
      <trkpt lat="35.6418" lon="25.327663">
        <ele>2346.96</ele>
        <time>2026-06-13T14:01:35Z</time>
      </trkpt>
      <trkpt lat="35.639694" lon="25.330296">
        <ele>2331.7200000000003</ele>
        <time>2026-06-13T14:01:35Z</time>
      </trkpt>
      <trkpt lat="35.625359" lon="25.348146">
        <ele>2263.1400000000003</ele>
        <time>2026-06-13T14:01:35Z</time>
      </trkpt>
      <trkpt lat="35.611221" lon="25.365715">
        <ele>2148.84</ele>
        <time>2026-06-13T14:01:35Z</time>
      </trkpt>
      <trkpt lat="35.598221" lon="25.38168">
        <ele>2065.02</ele>
        <time>2026-06-13T14:01:35Z</time>
      </trkpt>
      <trkpt lat="35.586021" lon="25.396534">
        <ele>2004.0600000000002</ele>
        <time>2026-06-13T14:01:35Z</time>
      </trkpt>
      <trkpt lat="35.572998" lon="25.412407">
        <ele>1943.1000000000001</ele>
        <time>2026-06-13T14:01:35Z</time>
      </trkpt>
      <trkpt lat="35.559021" lon="25.429552">
        <ele>1844.0400000000002</ele>
        <time>2026-06-13T14:01:35Z</time>
      </trkpt>
      <trkpt lat="35.546684" lon="25.445095">
        <ele>1775.46</ele>
        <time>2026-06-13T14:01:35Z</time>
      </trkpt>
      <trkpt lat="35.534637" lon="25.460529">
        <ele>1691.64</ele>
        <time>2026-06-13T14:01:35Z</time>
      </trkpt>
      <trkpt lat="35.521965" lon="25.476768">
        <ele>1592.5800000000002</ele>
        <time>2026-06-13T14:01:35Z</time>
      </trkpt>
      <trkpt lat="35.510193" lon="25.491657">
        <ele>1508.76</ele>
        <time>2026-06-13T14:01:35Z</time>
      </trkpt>
      <trkpt lat="35.502552" lon="25.501137">
        <ele>1478.28</ele>
        <time>2026-06-13T14:01:35Z</time>
      </trkpt>
      <trkpt lat="35.494358" lon="25.511013">
        <ele>1447.8000000000002</ele>
        <time>2026-06-13T14:01:35Z</time>
      </trkpt>
      <trkpt lat="35.490601" lon="25.515232">
        <ele>1432.5600000000002</ele>
        <time>2026-06-13T14:01:35Z</time>
      </trkpt>
      <trkpt lat="35.488541" lon="25.517235">
        <ele>1424.94</ele>
        <time>2026-06-13T14:01:35Z</time>
      </trkpt>
      <trkpt lat="35.486679" lon="25.518845">
        <ele>1417.3200000000002</ele>
        <time>2026-06-13T14:01:35Z</time>
      </trkpt>
      <trkpt lat="35.484512" lon="25.520496">
        <ele>1409.7</ele>
        <time>2026-06-13T14:01:35Z</time>
      </trkpt>
      <trkpt lat="35.481789" lon="25.522175">
        <ele>1402.0800000000002</ele>
        <time>2026-06-13T14:01:35Z</time>
      </trkpt>
      <trkpt lat="35.480022" lon="25.523169">
        <ele>1394.46</ele>
        <time>2026-06-13T14:01:35Z</time>
      </trkpt>
      <trkpt lat="35.476959" lon="25.524559">
        <ele>1386.8400000000001</ele>
        <time>2026-06-13T14:01:35Z</time>
      </trkpt>
      <trkpt lat="35.474575" lon="25.525389">
        <ele>1379.22</ele>
        <time>2026-06-13T14:01:35Z</time>
      </trkpt>
      <trkpt lat="35.472153" lon="25.526047">
        <ele>1371.6000000000001</ele>
        <time>2026-06-13T14:01:35Z</time>
      </trkpt>
      <trkpt lat="35.469635" lon="25.526505">
        <ele>1363.98</ele>
        <time>2026-06-13T14:01:35Z</time>
      </trkpt>
      <trkpt lat="35.466381" lon="25.526793">
        <ele>1356.3600000000001</ele>
        <time>2026-06-13T14:01:35Z</time>
      </trkpt>
      <trkpt lat="35.464008" lon="25.526793">
        <ele>1348.74</ele>
        <time>2026-06-13T14:01:35Z</time>
      </trkpt>
      <trkpt lat="35.46154" lon="25.526617">
        <ele>1341.1200000000001</ele>
        <time>2026-06-13T14:01:35Z</time>
      </trkpt>
      <trkpt lat="35.459061" lon="25.526276">
        <ele>1333.5</ele>
        <time>2026-06-13T14:01:35Z</time>
      </trkpt>
      <trkpt lat="35.456909" lon="25.525761">
        <ele>1325.88</ele>
        <time>2026-06-13T14:01:35Z</time>
      </trkpt>
      <trkpt lat="35.453999" lon="25.524864">
        <ele>1310.64</ele>
        <time>2026-06-13T14:01:35Z</time>
      </trkpt>
      <trkpt lat="35.451462" lon="25.523815">
        <ele>1303.02</ele>
        <time>2026-06-13T14:01:35Z</time>
      </trkpt>
      <trkpt lat="35.449528" lon="25.522877">
        <ele>1295.4</ele>
        <time>2026-06-13T14:01:35Z</time>
      </trkpt>
      <trkpt lat="35.44762" lon="25.521767">
        <ele>1287.78</ele>
        <time>2026-06-13T14:01:35Z</time>
      </trkpt>
      <trkpt lat="35.445236" lon="25.52021">
        <ele>1280.16</ele>
        <time>2026-06-13T14:01:35Z</time>
      </trkpt>
      <trkpt lat="35.443176" lon="25.518665">
        <ele>1272.54</ele>
        <time>2026-06-13T14:01:35Z</time>
      </trkpt>
      <trkpt lat="35.441391" lon="25.51712">
        <ele>1264.92</ele>
        <time>2026-06-13T14:01:35Z</time>
      </trkpt>
      <trkpt lat="35.43924" lon="25.515221">
        <ele>1257.3</ele>
        <time>2026-06-13T14:01:35Z</time>
      </trkpt>
      <trkpt lat="35.437637" lon="25.513802">
        <ele>1249.68</ele>
        <time>2026-06-13T14:01:35Z</time>
      </trkpt>
      <trkpt lat="35.435486" lon="25.511856">
        <ele>1242.0600000000002</ele>
        <time>2026-06-13T14:01:35Z</time>
      </trkpt>
      <trkpt lat="35.433655" lon="25.510197">
        <ele>1234.44</ele>
        <time>2026-06-13T14:01:35Z</time>
      </trkpt>
      <trkpt lat="35.43187" lon="25.508595">
        <ele>1234.44</ele>
        <time>2026-06-13T14:01:35Z</time>
      </trkpt>
      <trkpt lat="35.429764" lon="25.506706">
        <ele>1219.2</ele>
        <time>2026-06-13T14:01:35Z</time>
      </trkpt>
      <trkpt lat="35.42765" lon="25.50482">
        <ele>1211.5800000000002</ele>
        <time>2026-06-13T14:01:35Z</time>
      </trkpt>
      <trkpt lat="35.425552" lon="25.502987">
        <ele>1203.96</ele>
        <time>2026-06-13T14:01:35Z</time>
      </trkpt>
      <trkpt lat="35.423786" lon="25.501431">
        <ele>1196.3400000000001</ele>
        <time>2026-06-13T14:01:35Z</time>
      </trkpt>
      <trkpt lat="35.422348" lon="25.500183">
        <ele>1188.72</ele>
        <time>2026-06-13T14:01:35Z</time>
      </trkpt>
      <trkpt lat="35.420296" lon="25.49839">
        <ele>1181.1000000000001</ele>
        <time>2026-06-13T14:01:35Z</time>
      </trkpt>
      <trkpt lat="35.418385" lon="25.496756">
        <ele>1173.48</ele>
        <time>2026-06-13T14:01:35Z</time>
      </trkpt>
      <trkpt lat="35.416664" lon="25.495235">
        <ele>1165.8600000000001</ele>
        <time>2026-06-13T14:01:35Z</time>
      </trkpt>
      <trkpt lat="35.410938" lon="25.490385">
        <ele>1143.0</ele>
        <time>2026-06-13T14:01:35Z</time>
      </trkpt>
      <trkpt lat="35.403908" lon="25.484484">
        <ele>1104.9</ele>
        <time>2026-06-13T14:01:35Z</time>
      </trkpt>
      <trkpt lat="35.39809" lon="25.479633">
        <ele>1082.04</ele>
        <time>2026-06-13T14:01:35Z</time>
      </trkpt>
      <trkpt lat="35.390305" lon="25.473175">
        <ele>1051.56</ele>
        <time>2026-06-13T14:01:35Z</time>
      </trkpt>
      <trkpt lat="35.385239" lon="25.469055">
        <ele>1043.94</ele>
        <time>2026-06-13T14:01:35Z</time>
      </trkpt>
      <trkpt lat="35.377747" lon="25.462919">
        <ele>1021.08</ele>
        <time>2026-06-13T14:01:35Z</time>
      </trkpt>
      <trkpt lat="35.372269" lon="25.458412">
        <ele>998.22</ele>
        <time>2026-06-13T14:01:35Z</time>
      </trkpt>
      <trkpt lat="35.366993" lon="25.453978">
        <ele>982.98</ele>
        <time>2026-06-13T14:01:35Z</time>
      </trkpt>
      <trkpt lat="35.365494" lon="25.452576">
        <ele>982.98</ele>
        <time>2026-06-13T14:01:35Z</time>
      </trkpt>
      <trkpt lat="35.363594" lon="25.450531">
        <ele>975.36</ele>
        <time>2026-06-13T14:01:35Z</time>
      </trkpt>
      <trkpt lat="35.362244" lon="25.448799">
        <ele>967.74</ele>
        <time>2026-06-13T14:01:35Z</time>
      </trkpt>
      <trkpt lat="35.360615" lon="25.446323">
        <ele>960.12</ele>
        <time>2026-06-13T14:01:35Z</time>
      </trkpt>
      <trkpt lat="35.359543" lon="25.444336">
        <ele>960.12</ele>
        <time>2026-06-13T14:01:35Z</time>
      </trkpt>
      <trkpt lat="35.358379" lon="25.441765">
        <ele>952.5</ele>
        <time>2026-06-13T14:01:35Z</time>
      </trkpt>
      <trkpt lat="35.357681" lon="25.440128">
        <ele>952.5</ele>
        <time>2026-06-13T14:01:35Z</time>
      </trkpt>
      <trkpt lat="35.356567" lon="25.437355">
        <ele>944.88</ele>
        <time>2026-06-13T14:01:35Z</time>
      </trkpt>
      <trkpt lat="35.355789" lon="25.435295">
        <ele>937.26</ele>
        <time>2026-06-13T14:01:35Z</time>
      </trkpt>
      <trkpt lat="35.355011" lon="25.433121">
        <ele>937.26</ele>
        <time>2026-06-13T14:01:35Z</time>
      </trkpt>
      <trkpt lat="35.354191" lon="25.430895">
        <ele>937.26</ele>
        <time>2026-06-13T14:01:35Z</time>
      </trkpt>
      <trkpt lat="35.353317" lon="25.428371">
        <ele>937.26</ele>
        <time>2026-06-13T14:01:35Z</time>
      </trkpt>
      <trkpt lat="35.352539" lon="25.426254">
        <ele>937.26</ele>
        <time>2026-06-13T14:01:35Z</time>
      </trkpt>
      <trkpt lat="35.351677" lon="25.423824">
        <ele>937.26</ele>
        <time>2026-06-13T14:01:35Z</time>
      </trkpt>
      <trkpt lat="35.351166" lon="25.422363">
        <ele>929.6400000000001</ele>
        <time>2026-06-13T14:01:35Z</time>
      </trkpt>
      <trkpt lat="35.35014" lon="25.419441">
        <ele>929.6400000000001</ele>
        <time>2026-06-13T14:01:35Z</time>
      </trkpt>
      <trkpt lat="35.349243" lon="25.416927">
        <ele>929.6400000000001</ele>
        <time>2026-06-13T14:01:35Z</time>
      </trkpt>
      <trkpt lat="35.348419" lon="25.414696">
        <ele>929.6400000000001</ele>
        <time>2026-06-13T14:01:35Z</time>
      </trkpt>
      <trkpt lat="35.347733" lon="25.412693">
        <ele>929.6400000000001</ele>
        <time>2026-06-13T14:01:35Z</time>
      </trkpt>
      <trkpt lat="35.345253" lon="25.405825">
        <ele>929.6400000000001</ele>
        <time>2026-06-13T14:01:35Z</time>
      </trkpt>
      <trkpt lat="35.342102" lon="25.397129">
        <ele>929.6400000000001</ele>
        <time>2026-06-13T14:01:35Z</time>
      </trkpt>
      <trkpt lat="35.339264" lon="25.389462">
        <ele>929.6400000000001</ele>
        <time>2026-06-13T14:01:35Z</time>
      </trkpt>
      <trkpt lat="35.336967" lon="25.383268">
        <ele>929.6400000000001</ele>
        <time>2026-06-13T14:01:35Z</time>
      </trkpt>
      <trkpt lat="35.333359" lon="25.373955">
        <ele>929.6400000000001</ele>
        <time>2026-06-13T14:01:35Z</time>
      </trkpt>
      <trkpt lat="35.330246" lon="25.365772">
        <ele>929.6400000000001</ele>
        <time>2026-06-13T14:01:35Z</time>
      </trkpt>
      <trkpt lat="35.328819" lon="25.361412">
        <ele>922.0200000000001</ele>
        <time>2026-06-13T14:01:35Z</time>
      </trkpt>
      <trkpt lat="35.328278" lon="25.359192">
        <ele>922.0200000000001</ele>
        <time>2026-06-13T14:01:35Z</time>
      </trkpt>
      <trkpt lat="35.327957" lon="25.357132">
        <ele>914.4000000000001</ele>
        <time>2026-06-13T14:01:35Z</time>
      </trkpt>
      <trkpt lat="35.32782" lon="25.355015">
        <ele>906.7800000000001</ele>
        <time>2026-06-13T14:01:35Z</time>
      </trkpt>
      <trkpt lat="35.327747" lon="25.35294">
        <ele>906.7800000000001</ele>
        <time>2026-06-13T14:01:35Z</time>
      </trkpt>
      <trkpt lat="35.327843" lon="25.350544">
        <ele>891.5400000000001</ele>
        <time>2026-06-13T14:01:35Z</time>
      </trkpt>
      <trkpt lat="35.327957" lon="25.348606">
        <ele>883.9200000000001</ele>
        <time>2026-06-13T14:01:35Z</time>
      </trkpt>
      <trkpt lat="35.32814" lon="25.346203">
        <ele>868.6800000000001</ele>
        <time>2026-06-13T14:01:35Z</time>
      </trkpt>
      <trkpt lat="35.328278" lon="25.344143">
        <ele>861.0600000000001</ele>
        <time>2026-06-13T14:01:35Z</time>
      </trkpt>
      <trkpt lat="35.328445" lon="25.342245">
        <ele>845.82</ele>
        <time>2026-06-13T14:01:35Z</time>
      </trkpt>
      <trkpt lat="35.328598" lon="25.340195">
        <ele>838.2</ele>
        <time>2026-06-13T14:01:35Z</time>
      </trkpt>
      <trkpt lat="35.328781" lon="25.338249">
        <ele>830.58</ele>
        <time>2026-06-13T14:01:35Z</time>
      </trkpt>
      <trkpt lat="35.32896" lon="25.336226">
        <ele>815.34</ele>
        <time>2026-06-13T14:01:35Z</time>
      </trkpt>
      <trkpt lat="35.329144" lon="25.333889">
        <ele>800.1</ele>
        <time>2026-06-13T14:01:35Z</time>
      </trkpt>
      <trkpt lat="35.32933" lon="25.331902">
        <ele>792.48</ele>
        <time>2026-06-13T14:01:35Z</time>
      </trkpt>
      <trkpt lat="35.329563" lon="25.32933">
        <ele>777.24</ele>
        <time>2026-06-13T14:01:35Z</time>
      </trkpt>
      <trkpt lat="35.329697" lon="25.327435">
        <ele>769.62</ele>
        <time>2026-06-13T14:01:35Z</time>
      </trkpt>
      <trkpt lat="35.32988" lon="25.325489">
        <ele>754.38</ele>
        <time>2026-06-13T14:01:35Z</time>
      </trkpt>
      <trkpt lat="35.330063" lon="25.323086">
        <ele>739.14</ele>
        <time>2026-06-13T14:01:35Z</time>
      </trkpt>
      <trkpt lat="35.330727" lon="25.314955">
        <ele>693.4200000000001</ele>
        <time>2026-06-13T14:01:35Z</time>
      </trkpt>
      <trkpt lat="35.331333" lon="25.306248">
        <ele>647.7</ele>
        <time>2026-06-13T14:01:35Z</time>
      </trkpt>
      <trkpt lat="35.331707" lon="25.300344">
        <ele>617.22</ele>
        <time>2026-06-13T14:01:35Z</time>
      </trkpt>
      <trkpt lat="35.332169" lon="25.29213">
        <ele>571.5</ele>
        <time>2026-06-13T14:01:35Z</time>
      </trkpt>
      <trkpt lat="35.332497" lon="25.286028">
        <ele>541.02</ele>
        <time>2026-06-13T14:01:35Z</time>
      </trkpt>
      <trkpt lat="35.332855" lon="25.279999">
        <ele>502.92</ele>
        <time>2026-06-13T14:01:35Z</time>
      </trkpt>
      <trkpt lat="35.333286" lon="25.272646">
        <ele>464.82000000000005</ele>
        <time>2026-06-13T14:01:35Z</time>
      </trkpt>
      <trkpt lat="35.333633" lon="25.267639">
        <ele>441.96000000000004</ele>
        <time>2026-06-13T14:01:35Z</time>
      </trkpt>
      <trkpt lat="35.33408" lon="25.260315">
        <ele>396.24</ele>
        <time>2026-06-13T14:01:35Z</time>
      </trkpt>
      <trkpt lat="35.334591" lon="25.253477">
        <ele>358.14000000000004</ele>
        <time>2026-06-13T14:01:35Z</time>
      </trkpt>
      <trkpt lat="35.335011" lon="25.247049">
        <ele>327.66</ele>
        <time>2026-06-13T14:01:35Z</time>
      </trkpt>
      <trkpt lat="35.335476" lon="25.240387">
        <ele>289.56</ele>
        <time>2026-06-13T14:01:35Z</time>
      </trkpt>
      <trkpt lat="35.335754" lon="25.235888">
        <ele>266.7</ele>
        <time>2026-06-13T14:01:35Z</time>
      </trkpt>
      <trkpt lat="35.336197" lon="25.229645">
        <ele>220.98000000000002</ele>
        <time>2026-06-13T14:01:35Z</time>
      </trkpt>
      <trkpt lat="35.336594" lon="25.224669">
        <ele>190.5</ele>
        <time>2026-06-13T14:01:35Z</time>
      </trkpt>
      <trkpt lat="35.337105" lon="25.218414">
        <ele>160.02</ele>
        <time>2026-06-13T14:01:35Z</time>
      </trkpt>
      <trkpt lat="35.33757" lon="25.211987">
        <ele>129.54000000000002</ele>
        <time>2026-06-13T14:01:35Z</time>
      </trkpt>
      <trkpt lat="35.337849" lon="25.207779">
        <ele>106.68</ele>
        <time>2026-06-13T14:01:35Z</time>
      </trkpt>
      <trkpt lat="35.338268" lon="25.201468">
        <ele>76.2</ele>
        <time>2026-06-13T14:01:35Z</time>
      </trkpt>
      <trkpt lat="35.338734" lon="25.195156">
        <ele>45.72</ele>
        <time>2026-06-13T14:01:35Z</time>
      </trkpt>
      <trkpt lat="35.339062" lon="25.19054">
        <ele>22.86</ele>
        <time>2026-06-13T14:01:35Z</time>
      </trkpt>
      <trkpt lat="35.339481" lon="25.184345">
        <ele>7.62</ele>
        <time>2026-06-13T14:01:35Z</time>
      </trkpt>
      <trkpt lat="35.33979" lon="25.180019">
        <ele>0.0</ele>
        <time>2026-06-13T14:01:35Z</time>
      </trkpt>
      <trkpt lat="35.340004" lon="25.176836">
        <ele>0.0</ele>
        <time>2026-06-13T14:01:35Z</time>
      </trkpt>
      <trkpt lat="35.340168" lon="25.174572">
        <ele>0.0</ele>
        <time>2026-06-13T14:01:35Z</time>
      </trkpt>
      <trkpt lat="35.340271" lon="25.172876">
        <ele>0.0</ele>
        <time>2026-06-13T14:01:35Z</time>
      </trkpt>
      <trkpt lat="35.340294" lon="25.172117">
        <ele>0.0</ele>
        <time>2026-06-13T14:01:35Z</time>
      </trkpt>
      <trkpt lat="35.340248" lon="25.171867">
        <ele>0.0</ele>
        <time>2026-06-13T14:01:35Z</time>
      </trkpt>
      <trkpt lat="35.340179" lon="25.171621">
        <ele>0.0</ele>
        <time>2026-06-13T14:01:35Z</time>
      </trkpt>
      <trkpt lat="35.340054" lon="25.171309">
        <ele>0.0</ele>
        <time>2026-06-13T14:01:35Z</time>
      </trkpt>
      <trkpt lat="35.339939" lon="25.171009">
        <ele>0.0</ele>
        <time>2026-06-13T14:01:35Z</time>
      </trkpt>
      <trkpt lat="35.339825" lon="25.170708">
        <ele>0.0</ele>
        <time>2026-06-13T14:01:35Z</time>
      </trkpt>
      <trkpt lat="35.339725" lon="25.170467">
        <ele>0.0</ele>
        <time>2026-06-13T14:01:35Z</time>
      </trkpt>
      <trkpt lat="35.33963" lon="25.170233">
        <ele>0.0</ele>
        <time>2026-06-13T14:01:35Z</time>
      </trkpt>
      <trkpt lat="35.33955" lon="25.17">
        <ele>0.0</ele>
        <time>2026-06-13T14:01:35Z</time>
      </trkpt>
      <trkpt lat="35.339516" lon="25.169777">
        <ele>0.0</ele>
        <time>2026-06-13T14:01:35Z</time>
      </trkpt>
      <trkpt lat="35.339516" lon="25.169531">
        <ele>0.0</ele>
        <time>2026-06-13T14:01:35Z</time>
      </trkpt>
      <trkpt lat="35.339527" lon="25.169262">
        <ele>0.0</ele>
        <time>2026-06-13T14:01:35Z</time>
      </trkpt>
      <trkpt lat="35.339539" lon="25.169035">
        <ele>0.0</ele>
        <time>2026-06-13T14:01:35Z</time>
      </trkpt>
      <trkpt lat="35.339561" lon="25.168819">
        <ele>0.0</ele>
        <time>2026-06-13T14:01:35Z</time>
      </trkpt>
      <trkpt lat="35.339573" lon="25.168591">
        <ele>0.0</ele>
        <time>2026-06-13T14:01:35Z</time>
      </trkpt>
      <trkpt lat="35.339596" lon="25.168304">
        <ele>0.0</ele>
        <time>2026-06-13T14:01:35Z</time>
      </trkpt>
      <trkpt lat="35.33963" lon="25.167896">
        <ele>0.0</ele>
        <time>2026-06-13T14:01:35Z</time>
      </trkpt>
      <trkpt lat="35.339493" lon="25.167677">
        <ele>0.0</ele>
        <time>2026-06-13T14:01:35Z</time>
      </trkpt>
      <trkpt lat="35.339287" lon="25.16769">
        <ele>0.0</ele>
        <time>2026-06-13T14:01:35Z</time>
      </trkpt>
      <trkpt lat="35.339085" lon="25.167677">
        <ele>0.0</ele>
        <time>2026-06-13T14:01:35Z</time>
      </trkpt>
      <trkpt lat="35.339012" lon="25.167475">
        <ele>0.0</ele>
        <time>2026-06-13T14:01:35Z</time>
      </trkpt>
      <trkpt lat="35.339218" lon="25.167332">
        <ele>0.0</ele>
        <time>2026-06-13T14:01:35Z</time>
      </trkpt>
    </trkseg>
  </trk>
</gpx>