{"type": "FeatureCollection", "name": "TrackSet", "crs": {"type": "name", "properties": {"name": "urn:ogc:def:crs:OGC:1.3:CRS84"}}, "bbox": [6.149784, 46.331306, 6.261354, 46.489772], "features": [{"type": "Feature", "bbox": [6.149784, 46.331306, 6.261354, 46.489772], "geometry": {"type": "LineString", "coordinates": [[6.194649, 46.331487], [6.194602, 46.331474], [6.194664, 46.33153], [6.1947, 46.331655], [6.194329, 46.331797], [6.194069, 46.331851], [6.19375, 46.331795], [6.192999, 46.33194], [6.192947, 46.33197], [6.193, 46.332076], [6.192973, 46.33215], [6.192477, 46.332243], [6.192436, 46.332278], [6.192666, 46.332825], [6.192745, 46.333168], [6.192884, 46.333393], [6.193351, 46.333806], [6.193926, 46.33406], [6.194191, 46.334212], [6.194652, 46.334576], [6.194648, 46.334619], [6.192709, 46.336007], [6.19177, 46.336568], [6.191515, 46.337084], [6.191216, 46.337543], [6.190883, 46.337943], [6.190575, 46.338386], [6.190147, 46.338796], [6.189768, 46.339025], [6.189185, 46.339202], [6.18892, 46.339322], [6.187313, 46.340233], [6.186515, 46.340726], [6.185171, 46.341472], [6.184905, 46.341602], [6.184107, 46.34191], [6.183426, 46.342227], [6.183214, 46.342417], [6.183052, 46.342659], [6.182985, 46.342815], [6.182828, 46.343003], [6.182457, 46.343237], [6.181843, 46.343551], [6.181674, 46.343576], [6.181515, 46.343489], [6.180819, 46.342903], [6.180265, 46.342513], [6.180115, 46.342436], [6.180025, 46.342417], [6.179838, 46.342449], [6.179286, 46.342766], [6.179005, 46.342899], [6.177798, 46.343305], [6.177704, 46.343401], [6.177554, 46.345006], [6.17747, 46.345105], [6.177331, 46.345199], [6.176751, 46.345463], [6.176633, 46.345553], [6.176569, 46.345647], [6.176555, 46.345731], [6.176582, 46.345802], [6.176828, 46.346034], [6.177384, 46.346441], [6.177797, 46.346704], [6.177962, 46.346777], [6.179748, 46.347347], [6.180119, 46.347556], [6.180808, 46.348137], [6.181139, 46.348539], [6.181436, 46.34898], [6.181798, 46.349461], [6.181989, 46.349666], [6.182135, 46.349889], [6.182674, 46.350369], [6.183096, 46.350818], [6.183404, 46.351204], [6.184452, 46.352233], [6.184807, 46.352799], [6.184884, 46.352851], [6.185319, 46.352915], [6.186082, 46.353126], [6.186377, 46.353232], [6.187002, 46.353737], [6.187045, 46.353821], [6.187028, 46.353864], [6.186651, 46.353897], [6.186462, 46.353971], [6.186408, 46.353938], [6.186277, 46.353952], [6.186041, 46.354041], [6.184828, 46.354701], [6.183155, 46.355513], [6.183098, 46.355583], [6.184124, 46.356846], [6.18429, 46.357011], [6.185144, 46.357634], [6.185702, 46.357924], [6.186025, 46.358043], [6.18608, 46.358096], [6.186104, 46.358164], [6.186075, 46.358554], [6.186115, 46.358904], [6.18657, 46.360498], [6.186514, 46.360745], [6.18636, 46.360921], [6.185944, 46.361181], [6.184044, 46.362516], [6.183056, 46.363153], [6.181615, 46.363804], [6.180657, 46.364354], [6.18032, 46.364516], [6.180015, 46.364608], [6.179626, 46.364664], [6.17924, 46.364804], [6.178703, 46.365136], [6.17853, 46.365216], [6.177653, 46.365878], [6.177258, 46.366105], [6.176849, 46.366216], [6.176093, 46.366257], [6.175666, 46.366323], [6.17538, 46.366435], [6.173654, 46.367264], [6.173227, 46.367409], [6.170685, 46.367645], [6.170403, 46.367641], [6.170147, 46.367586], [6.170055, 46.367595], [6.169981, 46.367639], [6.169847, 46.367865], [6.169848, 46.36792], [6.169896, 46.36797], [6.172136, 46.368986], [6.172668, 46.369265], [6.178179, 46.373122], [6.179985, 46.374277], [6.18, 46.374355], [6.179935, 46.374437], [6.178019, 46.37581], [6.177817, 46.375987], [6.177663, 46.376071], [6.177274, 46.37637], [6.177135, 46.376541], [6.177154, 46.376643], [6.177272, 46.376765], [6.177539, 46.376887], [6.178317, 46.377478], [6.178533, 46.377719], [6.178567, 46.377799], [6.178547, 46.377841], [6.178467, 46.377919], [6.177823, 46.378335], [6.177578, 46.378596], [6.177249, 46.378867], [6.176767, 46.379414], [6.175893, 46.380141], [6.174732, 46.381245], [6.173993, 46.381785], [6.173604, 46.382159], [6.173108, 46.382716], [6.172829, 46.38297], [6.17228, 46.383389], [6.172123, 46.383579], [6.172011, 46.384163], [6.171934, 46.3843], [6.171834, 46.384397], [6.170136, 46.385783], [6.169547, 46.38613], [6.168976, 46.386608], [6.167514, 46.387435], [6.165794, 46.388243], [6.164263, 46.389213], [6.163784, 46.389417], [6.163405, 46.389658], [6.16261, 46.390013], [6.162268, 46.390193], [6.161944, 46.390415], [6.160922, 46.391243], [6.160753, 46.391286], [6.160659, 46.391275], [6.160573, 46.391244], [6.160411, 46.391083], [6.160279, 46.391002], [6.160116, 46.390969], [6.159884, 46.390998], [6.158677, 46.391301], [6.157979, 46.391539], [6.156984, 46.391948], [6.15627, 46.392193], [6.155854, 46.392297], [6.155412, 46.392376], [6.155114, 46.392456], [6.154852, 46.392571], [6.15445, 46.39286], [6.154084, 46.393276], [6.153914, 46.393428], [6.152214, 46.394725], [6.151308, 46.395452], [6.151175, 46.395595], [6.151059, 46.395794], [6.150793, 46.396598], [6.150626, 46.39688], [6.15035, 46.397189], [6.150111, 46.397365], [6.149818, 46.397536], [6.149784, 46.39758], [6.149933, 46.397744], [6.150822, 46.398378], [6.151429, 46.398917], [6.151597, 46.399108], [6.151988, 46.399724], [6.152481, 46.400202], [6.152844, 46.400641], [6.153666, 46.401289], [6.154045, 46.40155], [6.154808, 46.401937], [6.155205, 46.402068], [6.155573, 46.402255], [6.156665, 46.402865], [6.157446, 46.403334], [6.158748, 46.403798], [6.159204, 46.404002], [6.160068, 46.404448], [6.160443, 46.404674], [6.161212, 46.405244], [6.162015, 46.40573], [6.162426, 46.406138], [6.162711, 46.406333], [6.163525, 46.406537], [6.164106, 46.406728], [6.164437, 46.406866], [6.165153, 46.407237], [6.165504, 46.407452], [6.165744, 46.407679], [6.165954, 46.407779], [6.166704, 46.408315], [6.167195, 46.408705], [6.16779, 46.409114], [6.167929, 46.409173], [6.168292, 46.409223], [6.169024, 46.409209], [6.171682, 46.409865], [6.172057, 46.410016], [6.172628, 46.410341], [6.173116, 46.410502], [6.173832, 46.41079], [6.17419, 46.410991], [6.174643, 46.411141], [6.174926, 46.411368], [6.175492, 46.411651], [6.175927, 46.411831], [6.176306, 46.411935], [6.176606, 46.411993], [6.17704, 46.411994], [6.177374, 46.411877], [6.177754, 46.411844], [6.17812, 46.411945], [6.178615, 46.412016], [6.179273, 46.412029], [6.179335, 46.412039], [6.179419, 46.412119], [6.179475, 46.412391], [6.179514, 46.412436], [6.179439, 46.412383], [6.179436, 46.412244], [6.179359, 46.412007], [6.179409, 46.411875], [6.179547, 46.411848], [6.179601, 46.411858], [6.17973, 46.411984], [6.180324, 46.412251], [6.180634, 46.412339], [6.181444, 46.412456], [6.181431, 46.412527], [6.181481, 46.412582], [6.182221, 46.412864], [6.182554, 46.413031], [6.18329, 46.413598], [6.183479, 46.413678], [6.184423, 46.413947], [6.185103, 46.414367], [6.186588, 46.415068], [6.186951, 46.415327], [6.18706, 46.415376], [6.187114, 46.415451], [6.187289, 46.41554], [6.188716, 46.415912], [6.189135, 46.416053], [6.189807, 46.416326], [6.190595, 46.416608], [6.191925, 46.417278], [6.19222, 46.417479], [6.19307, 46.418143], [6.193477, 46.418523], [6.194729, 46.419319], [6.195501, 46.419876], [6.196025, 46.420292], [6.1965, 46.420728], [6.197263, 46.42194], [6.197573, 46.422651], [6.198142, 46.423705], [6.19842, 46.424388], [6.198667, 46.424839], [6.199068, 46.425797], [6.199092, 46.425978], [6.199058, 46.426159], [6.198955, 46.426329], [6.198475, 46.426929], [6.198081, 46.427326], [6.197994, 46.427405], [6.197445, 46.427752], [6.197193, 46.42788], [6.197078, 46.427958], [6.197001, 46.428051], [6.196945, 46.428255], [6.196977, 46.428446], [6.197328, 46.428982], [6.197867, 46.429152], [6.198441, 46.429213], [6.19883, 46.429203], [6.199171, 46.429167], [6.200875, 46.42867], [6.201008, 46.428661], [6.201222, 46.428696], [6.201687, 46.428965], [6.202018, 46.429037], [6.202203, 46.429118], [6.203594, 46.429809], [6.203773, 46.429962], [6.204023, 46.430241], [6.204219, 46.43039], [6.206273, 46.431783], [6.206651, 46.431986], [6.209424, 46.433238], [6.209804, 46.433354], [6.21027, 46.433443], [6.210732, 46.433488], [6.211003, 46.433487], [6.211842, 46.433417], [6.213112, 46.43308], [6.213326, 46.433066], [6.213612, 46.433093], [6.214001, 46.433224], [6.215986, 46.434209], [6.216165, 46.434247], [6.216589, 46.434471], [6.216763, 46.434537], [6.217158, 46.434608], [6.217209, 46.4346], [6.217187, 46.434599], [6.21721, 46.434567], [6.21718, 46.434578], [6.217222, 46.434583], [6.217178, 46.434602], [6.217213, 46.434616], [6.217225, 46.434598], [6.217182, 46.434611], [6.217233, 46.43466], [6.2175, 46.43476], [6.217848, 46.435007], [6.21787, 46.435046], [6.217825, 46.435135], [6.217356, 46.435398], [6.217334, 46.435442], [6.217403, 46.435647], [6.21742, 46.436182], [6.217471, 46.436252], [6.21767, 46.436332], [6.218451, 46.436334], [6.218877, 46.436399], [6.220581, 46.437199], [6.220835, 46.437378], [6.220963, 46.437526], [6.221056, 46.43777], [6.221056, 46.438032], [6.220682, 46.439674], [6.220654, 46.439916], [6.220695, 46.440103], [6.220782, 46.440295], [6.221038, 46.440587], [6.221296, 46.440756], [6.221663, 46.440891], [6.222848, 46.44116], [6.223706, 46.441272], [6.2251, 46.441389], [6.225967, 46.441534], [6.227003, 46.441757], [6.22749, 46.441919], [6.22805, 46.442145], [6.230418, 46.443275], [6.231013, 46.443673], [6.231431, 46.443904], [6.23162, 46.444068], [6.231752, 46.444275], [6.231818, 46.44452], [6.231869, 46.446226], [6.231902, 46.446321], [6.231994, 46.446394], [6.232263, 46.446453], [6.232494, 46.446453], [6.232666, 46.446417], [6.233205, 46.446011], [6.234199, 46.445532], [6.235648, 46.444657], [6.235942, 46.444548], [6.236101, 46.444542], [6.236259, 46.444583], [6.236396, 46.444649], [6.236579, 46.444812], [6.236629, 46.445171], [6.23689, 46.446021], [6.236966, 46.446104], [6.237083, 46.446155], [6.237224, 46.446164], [6.237362, 46.44613], [6.23747, 46.446065], [6.237532, 46.445972], [6.237529, 46.445869], [6.237164, 46.445323], [6.237097, 46.445005], [6.237143, 46.44479], [6.237373, 46.444513], [6.238612, 46.443758], [6.239774, 46.443308], [6.240864, 46.442794], [6.241541, 46.442505], [6.242195, 46.44217], [6.242386, 46.442089], [6.243023, 46.441935], [6.243559, 46.441777], [6.244016, 46.441604], [6.244178, 46.441466], [6.244716, 46.440767], [6.244913, 46.440658], [6.245088, 46.440642], [6.246361, 46.440755], [6.246944, 46.440764], [6.247695, 46.440854], [6.247755, 46.440905], [6.24782, 46.441044], [6.248018, 46.441266], [6.24832, 46.441551], [6.248534, 46.441715], [6.249305, 46.44216], [6.249514, 46.442308], [6.249578, 46.442438], [6.249527, 46.442659], [6.249333, 46.442929], [6.249249, 46.443011], [6.249147, 46.443055], [6.247836, 46.44307], [6.247233, 46.443042], [6.246278, 46.442945], [6.245622, 46.442907], [6.245068, 46.442966], [6.24477, 46.443035], [6.244113, 46.44324], [6.243581, 46.443447], [6.243368, 46.443478], [6.243266, 46.443521], [6.243138, 46.443793], [6.243169, 46.443911], [6.243075, 46.444006], [6.243026, 46.444573], [6.242855, 46.445855], [6.242814, 46.445956], [6.242796, 46.446345], [6.242725, 46.446604], [6.242694, 46.447014], [6.242786, 46.447079], [6.243245, 46.447285], [6.24326, 46.447315], [6.243452, 46.447421], [6.243531, 46.447508], [6.243742, 46.447624], [6.243878, 46.447672], [6.24423, 46.4477], [6.244433, 46.447752], [6.244584, 46.447821], [6.244754, 46.447995], [6.244902, 46.448069], [6.246263, 46.448546], [6.246526, 46.448658], [6.247427, 46.44895], [6.247931, 46.44916], [6.248259, 46.449376], [6.250064, 46.450918], [6.250112, 46.450934], [6.250451, 46.451224], [6.250701, 46.451385], [6.2511, 46.451613], [6.25136, 46.451725], [6.252014, 46.45197], [6.252421, 46.452091], [6.252839, 46.452266], [6.253263, 46.452533], [6.253491, 46.452732], [6.255721, 46.455404], [6.256305, 46.456175], [6.256555, 46.456564], [6.256793, 46.457174], [6.257378, 46.459535], [6.257627, 46.46015], [6.257809, 46.460463], [6.258128, 46.460905], [6.258517, 46.461303], [6.26057, 46.462994], [6.260789, 46.463219], [6.261096, 46.463708], [6.261354, 46.464662], [6.261243, 46.464849], [6.261099, 46.464954], [6.261005, 46.464991], [6.259959, 46.465191], [6.259622, 46.465329], [6.259346, 46.465494], [6.258964, 46.465845], [6.258856, 46.465911], [6.258789, 46.465899], [6.258763, 46.465822], [6.259032, 46.465374], [6.259057, 46.465167], [6.259123, 46.465179], [6.25904, 46.46526], [6.259053, 46.465362], [6.258849, 46.465711], [6.258728, 46.465995], [6.257745, 46.467042], [6.257561, 46.467187], [6.257319, 46.467297], [6.257134, 46.467295], [6.257046, 46.467233], [6.256982, 46.46724], [6.256929, 46.467208], [6.256878, 46.46723], [6.256913, 46.467226], [6.256941, 46.467283], [6.257102, 46.467272], [6.257159, 46.467381], [6.256708, 46.467797], [6.256189, 46.468506], [6.255676, 46.469352], [6.255575, 46.46984], [6.255604, 46.47034], [6.255553, 46.470732], [6.255401, 46.47096], [6.255294, 46.471063], [6.255109, 46.471203], [6.254514, 46.471525], [6.254251, 46.471714], [6.253895, 46.472011], [6.25364, 46.472313], [6.253339, 46.472852], [6.251652, 46.476309], [6.251546, 46.476719], [6.251561, 46.477078], [6.251655, 46.47738], [6.251987, 46.477897], [6.252048, 46.478049], [6.252064, 46.478342], [6.251991, 46.478586], [6.251116, 46.479817], [6.250919, 46.480267], [6.250652, 46.481058], [6.250501, 46.481373], [6.250407, 46.481489], [6.250206, 46.481656], [6.249156, 46.482354], [6.249196, 46.482406], [6.249287, 46.482393], [6.249517, 46.482439], [6.250702, 46.482694], [6.250879, 46.482763], [6.251028, 46.482869], [6.251089, 46.482949], [6.251095, 46.483015], [6.251154, 46.483056], [6.25116, 46.48313], [6.251221, 46.483172], [6.251227, 46.483246], [6.251281, 46.483275], [6.251282, 46.483336], [6.251338, 46.483378], [6.251341, 46.483441], [6.251413, 46.483496], [6.251411, 46.483545], [6.251476, 46.483595], [6.25148, 46.483658], [6.251533, 46.483701], [6.25153, 46.483758], [6.251601, 46.483818], [6.251597, 46.48388], [6.251655, 46.483928], [6.251663, 46.483988], [6.251909, 46.484104], [6.252018, 46.484124], [6.252103, 46.484188], [6.252205, 46.484212], [6.252316, 46.48428], [6.254416, 46.484938], [6.254444, 46.485024], [6.254059, 46.48586], [6.252379, 46.489276], [6.252332, 46.489303], [6.252184, 46.489323], [6.251509, 46.489325], [6.250353, 46.489092], [6.250162, 46.489136], [6.249894, 46.489343], [6.249738, 46.489413], [6.24956, 46.489449], [6.249297, 46.489461], [6.248992, 46.489428], [6.248543, 46.489257], [6.248301, 46.489197], [6.24775, 46.48911], [6.247207, 46.48911], [6.247026, 46.489148], [6.247051, 46.489164], [6.247048, 46.489148], [6.246963, 46.489144], [6.246154, 46.489226], [6.24595, 46.489087], [6.245776, 46.48883], [6.245626, 46.488755], [6.245644, 46.48874], [6.24567, 46.488755], [6.24562, 46.488794], [6.245036, 46.489146], [6.244736, 46.489383], [6.244543, 46.489579], [6.244227, 46.489771], [6.244189, 46.489772], [6.244175, 46.489748]]}, "properties": {"name": "1785577428.Marchissy", "cmt": "2026-08-01", "tstamp": 1785542400, "desc": "UpHill", "src": "6.149784/46.331306/6.261354/46.489772", "bbox": "6.149784/46.331306/6.261354/46.489772"}}, {"type": "Feature", "bbox": [6.149784, 46.331306, 6.261354, 46.489772], "geometry": {"type": "LineString", "coordinates": [[6.244191, 46.489731], [6.244378, 46.489692], [6.244545, 46.489584], [6.244603, 46.489589], [6.244817, 46.489376], [6.245169, 46.489133], [6.245499, 46.488833], [6.245711, 46.488702], [6.246131, 46.488369], [6.246651, 46.487859], [6.246754, 46.487825], [6.246849, 46.487877], [6.246943, 46.487821], [6.246927, 46.487846], [6.246881, 46.487833], [6.246743, 46.487889], [6.246737, 46.487922], [6.24678, 46.48792], [6.246829, 46.487963], [6.246784, 46.487916], [6.246745, 46.487912], [6.246804, 46.487954], [6.246847, 46.487953], [6.246802, 46.487968], [6.246848, 46.487948], [6.246863, 46.48797], [6.246876, 46.487941], [6.246846, 46.487957], [6.246854, 46.487927], [6.246868, 46.487941], [6.24685, 46.487955], [6.246843, 46.487933], [6.246874, 46.487944], [6.246845, 46.487967], [6.246864, 46.487945], [6.246838, 46.487937], [6.246862, 46.48795], [6.246885, 46.487934], [6.24686, 46.48794], [6.246838, 46.487989], [6.246862, 46.487984], [6.246779, 46.487885], [6.246759, 46.487911], [6.246726, 46.487872], [6.246754, 46.487869], [6.246744, 46.487891], [6.247013, 46.487865], [6.247103, 46.487569], [6.247284, 46.487434], [6.247774, 46.487168], [6.247831, 46.487108], [6.247852, 46.487031], [6.247806, 46.486861], [6.247728, 46.486786], [6.247506, 46.486676], [6.247364, 46.486656], [6.247215, 46.486653], [6.246924, 46.48669], [6.245777, 46.486905], [6.245649, 46.486913], [6.245532, 46.486886], [6.245437, 46.486825], [6.24538, 46.486739], [6.245377, 46.486647], [6.245438, 46.486566], [6.245767, 46.486389], [6.246067, 46.486179], [6.246205, 46.485991], [6.246214, 46.485768], [6.246043, 46.485115], [6.245683, 46.484104], [6.245619, 46.483637], [6.245572, 46.483527], [6.24483, 46.482657], [6.244578, 46.482427], [6.243692, 46.481829], [6.243309, 46.481658], [6.243122, 46.481633], [6.242831, 46.48165], [6.241949, 46.48191], [6.241763, 46.481916], [6.241582, 46.481878], [6.241489, 46.481833], [6.241336, 46.481669], [6.241296, 46.481545], [6.241465, 46.481195], [6.241835, 46.480879], [6.24199, 46.480785], [6.242064, 46.48069], [6.241984, 46.480469], [6.2413, 46.479847], [6.241195, 46.479714], [6.241293, 46.479535], [6.24115, 46.47915], [6.241179, 46.479022], [6.241315, 46.478911], [6.241814, 46.478663], [6.242514, 46.478386], [6.243344, 46.478143], [6.243519, 46.478056], [6.243644, 46.477942], [6.24363, 46.477719], [6.243752, 46.477237], [6.243749, 46.47698], [6.24372, 46.476903], [6.243626, 46.476745], [6.243546, 46.476674], [6.243179, 46.476428], [6.243014, 46.476282], [6.242822, 46.476023], [6.242704, 46.475746], [6.242664, 46.47524], [6.24275, 46.474796], [6.242757, 46.474574], [6.242716, 46.474297], [6.242676, 46.473417], [6.242553, 46.472953], [6.242434, 46.472196], [6.242551, 46.471351], [6.24269, 46.470864], [6.24285, 46.470667], [6.243399, 46.470504], [6.24349, 46.470446], [6.243547, 46.470376], [6.243556, 46.470311], [6.24352, 46.470245], [6.242514, 46.469482], [6.241518, 46.468918], [6.240642, 46.46832], [6.240562, 46.468287], [6.240375, 46.468265], [6.239887, 46.468329], [6.239779, 46.46833], [6.239616, 46.468278], [6.239596, 46.468312], [6.239257, 46.467968], [6.238939, 46.467405], [6.238673, 46.467074], [6.238229, 46.466555], [6.237762, 46.466134], [6.237484, 46.466024], [6.237059, 46.46604], [6.236708, 46.465999], [6.236359, 46.465899], [6.236108, 46.46576], [6.234847, 46.464735], [6.234743, 46.464536], [6.234807, 46.464268], [6.234779, 46.464161], [6.234692, 46.46407], [6.23438, 46.463891], [6.233407, 46.463426], [6.232638, 46.463121], [6.232543, 46.463102], [6.232065, 46.463137], [6.231965, 46.463192], [6.231885, 46.463298], [6.231578, 46.463917], [6.231237, 46.464094], [6.231048, 46.464278], [6.230626, 46.465052], [6.2303, 46.4659], [6.230062, 46.466009], [6.229931, 46.46604], [6.229642, 46.466026], [6.22906, 46.466061], [6.228081, 46.466053], [6.227418, 46.466172], [6.227269, 46.466233], [6.227149, 46.466321], [6.227056, 46.466423], [6.226929, 46.466644], [6.226807, 46.466727], [6.226661, 46.466794], [6.226495, 46.466832], [6.225843, 46.466853], [6.225705, 46.466893], [6.225579, 46.46696], [6.225346, 46.467252], [6.225244, 46.467331], [6.225103, 46.467386], [6.224953, 46.46742], [6.224798, 46.467416], [6.224243, 46.467323], [6.223837, 46.467308], [6.222942, 46.467401], [6.221936, 46.467563], [6.221687, 46.467555], [6.221201, 46.467446], [6.220973, 46.467349], [6.219755, 46.466646], [6.219583, 46.466491], [6.219562, 46.46639], [6.219642, 46.466187], [6.219809, 46.466045], [6.220008, 46.465964], [6.220171, 46.465953], [6.220335, 46.465981], [6.220689, 46.466106], [6.221029, 46.466159], [6.221238, 46.466121], [6.222043, 46.465827], [6.222563, 46.465773], [6.222788, 46.465714], [6.223459, 46.465352], [6.223532, 46.465285], [6.223722, 46.464996], [6.223893, 46.464869], [6.224237, 46.464683], [6.224373, 46.464555], [6.224469, 46.464309], [6.224459, 46.463963], [6.224538, 46.463835], [6.224796, 46.463601], [6.224912, 46.463308], [6.225063, 46.463125], [6.225084, 46.462942], [6.225025, 46.462837], [6.224747, 46.46261], [6.224696, 46.462497], [6.224683, 46.462374], [6.224734, 46.462162], [6.224756, 46.461856], [6.22459, 46.461463], [6.224315, 46.461044], [6.224064, 46.460736], [6.224041, 46.460662], [6.223707, 46.460292], [6.22365, 46.460173], [6.223769, 46.460092], [6.223881, 46.459876], [6.224124, 46.459533], [6.224601, 46.458943], [6.2247, 46.458715], [6.22508, 46.458093], [6.22513, 46.457931], [6.225045, 46.457808], [6.224745, 46.457594], [6.224121, 46.457235], [6.22299, 46.45648], [6.222213, 46.456175], [6.221857, 46.455981], [6.221519, 46.455712], [6.221195, 46.455327], [6.221005, 46.455048], [6.220858, 46.454926], [6.220677, 46.454821], [6.220062, 46.454578], [6.219693, 46.454354], [6.219732, 46.454267], [6.220056, 46.454037], [6.220197, 46.453877], [6.220337, 46.45359], [6.220361, 46.453375], [6.220321, 46.453084], [6.220267, 46.452965], [6.219382, 46.451609], [6.219341, 46.451341], [6.219513, 46.450677], [6.219458, 46.449942], [6.219366, 46.449831], [6.2193, 46.449812], [6.219233, 46.449829], [6.219187, 46.449935], [6.219168, 46.450149], [6.219005, 46.450396], [6.218773, 46.450611], [6.218719, 46.450631], [6.218591, 46.450581], [6.218493, 46.450422], [6.218387, 46.450085], [6.218045, 46.449486], [6.217905, 46.449152], [6.217832, 46.448697], [6.217847, 46.448517], [6.21792, 46.448274], [6.218607, 46.44756], [6.218973, 46.447223], [6.219183, 46.446935], [6.219294, 46.446401], [6.219253, 46.446172], [6.219148, 46.445959], [6.219, 46.445762], [6.218807, 46.445578], [6.218534, 46.445448], [6.218193, 46.445387], [6.218053, 46.445326], [6.217932, 46.445238], [6.217844, 46.445134], [6.217666, 46.444702], [6.217615, 46.444279], [6.217509, 46.444084], [6.217376, 46.444019], [6.216912, 46.44391], [6.216697, 46.443759], [6.216521, 46.443474], [6.216456, 46.443266], [6.21631, 46.442979], [6.216186, 46.442799], [6.216083, 46.442719], [6.215949, 46.442667], [6.215623, 46.442616], [6.215349, 46.442528], [6.215151, 46.442396], [6.214961, 46.442189], [6.214592, 46.441553], [6.214309, 46.441296], [6.213883, 46.441064], [6.213503, 46.440924], [6.212286, 46.440678], [6.211989, 46.440572], [6.211866, 46.440489], [6.211767, 46.44039], [6.211648, 46.440161], [6.211474, 46.439685], [6.211439, 46.43944], [6.211489, 46.439192], [6.211555, 46.439072], [6.2124, 46.438179], [6.213196, 46.437858], [6.213891, 46.437477], [6.21554, 46.43625], [6.216017, 46.435935], [6.216753, 46.4355], [6.217219, 46.435418], [6.217462, 46.435331], [6.217631, 46.435226], [6.217732, 46.435122], [6.21778, 46.43502], [6.217657, 46.434875], [6.217225, 46.434632], [6.216672, 46.434501], [6.216192, 46.434325], [6.215937, 46.434265], [6.215613, 46.434027], [6.214696, 46.433599], [6.21433, 46.433453], [6.213716, 46.433091], [6.213184, 46.432722], [6.212708, 46.432312], [6.212062, 46.431614], [6.211096, 46.43028], [6.210789, 46.42979], [6.210618, 46.42927], [6.210546, 46.428521], [6.210458, 46.428221], [6.209713, 46.426986], [6.209142, 46.425353], [6.208362, 46.423614], [6.208116, 46.423289], [6.207608, 46.422892], [6.207484, 46.422724], [6.207465, 46.422625], [6.207489, 46.422522], [6.2079, 46.421998], [6.207918, 46.421737], [6.207809, 46.421483], [6.207709, 46.421368], [6.20736, 46.421101], [6.207188, 46.420924], [6.207146, 46.420825], [6.207113, 46.420547], [6.207218, 46.420137], [6.207307, 46.419923], [6.207731, 46.419081], [6.207745, 46.418898], [6.207687, 46.418714], [6.207322, 46.418265], [6.205555, 46.416251], [6.205133, 46.415864], [6.204823, 46.415201], [6.204666, 46.414987], [6.20472, 46.414802], [6.204608, 46.414627], [6.204608, 46.414502], [6.204731, 46.414399], [6.205081, 46.414211], [6.205763, 46.413666], [6.205909, 46.413482], [6.205989, 46.413175], [6.205979, 46.412975], [6.20549, 46.410906], [6.205333, 46.41051], [6.205153, 46.410207], [6.204705, 46.409729], [6.204109, 46.409309], [6.19943, 46.406548], [6.199176, 46.406464], [6.199135, 46.40629], [6.197395, 46.403798], [6.197239, 46.403524], [6.197162, 46.403281], [6.197129, 46.402898], [6.197248, 46.402117], [6.197256, 46.401627], [6.197162, 46.401178], [6.196979, 46.400768], [6.196733, 46.400426], [6.194685, 46.397947], [6.194277, 46.397413], [6.194097, 46.397245], [6.193075, 46.395987], [6.192713, 46.395604], [6.192464, 46.395188], [6.19193, 46.394846], [6.191722, 46.394612], [6.191018, 46.393422], [6.190832, 46.393218], [6.190821, 46.39311], [6.191018, 46.392822], [6.190955, 46.392716], [6.189893, 46.392161], [6.18949, 46.391928], [6.189155, 46.391698], [6.188812, 46.391256], [6.188418, 46.390449], [6.188219, 46.390145], [6.187928, 46.389809], [6.187576, 46.389524], [6.187186, 46.389274], [6.184163, 46.387594], [6.182474, 46.386591], [6.181818, 46.386115], [6.181326, 46.385694], [6.180191, 46.384896], [6.178932, 46.383878], [6.178692, 46.383738], [6.177048, 46.382561], [6.177072, 46.382483], [6.177127, 46.382447], [6.179769, 46.380874], [6.179863, 46.380763], [6.179913, 46.380461], [6.180042, 46.380431], [6.180299, 46.380457], [6.180936, 46.380453], [6.181368, 46.380524], [6.181677, 46.380633], [6.182182, 46.380189], [6.182584, 46.38022], [6.182976, 46.380207], [6.183107, 46.380172], [6.183184, 46.380117], [6.183384, 46.380118], [6.18349, 46.380078], [6.183564, 46.380013], [6.183451, 46.379895], [6.183053, 46.379752], [6.182589, 46.37952], [6.182091, 46.379222], [6.18187, 46.379054], [6.181532, 46.378754], [6.181198, 46.378354], [6.1808, 46.378023], [6.180765, 46.377971], [6.180776, 46.377923], [6.180834, 46.377888], [6.180919, 46.377873], [6.181133, 46.377896], [6.181352, 46.378063], [6.181674, 46.378127], [6.183093, 46.378062], [6.184709, 46.377775], [6.185278, 46.377562], [6.186457, 46.377039], [6.187091, 46.376716], [6.188711, 46.376153], [6.188998, 46.376022], [6.189291, 46.375787], [6.189586, 46.375285], [6.189724, 46.375143], [6.189839, 46.375126], [6.189946, 46.375146], [6.190307, 46.375559], [6.190402, 46.375601], [6.190676, 46.37565], [6.19145, 46.375252], [6.192254, 46.375002], [6.192736, 46.374874], [6.193376, 46.374784], [6.193932, 46.374655], [6.194096, 46.374643], [6.194079, 46.374622], [6.194235, 46.374631], [6.194515, 46.374512], [6.195045, 46.374429], [6.195905, 46.374226], [6.198721, 46.373658], [6.199591, 46.373456], [6.200303, 46.373254], [6.202418, 46.3725], [6.202515, 46.372446], [6.202562, 46.372363], [6.202531, 46.372271], [6.202333, 46.372084], [6.201382, 46.370632], [6.20134, 46.370531], [6.201365, 46.370473], [6.202832, 46.369819], [6.203779, 46.369376], [6.204302, 46.369102], [6.204509, 46.368965], [6.204817, 46.368694], [6.206157, 46.36745], [6.207548, 46.366798], [6.208114, 46.366566], [6.208304, 46.366416], [6.208765, 46.365187], [6.20881, 46.364841], [6.208777, 46.364572], [6.208592, 46.364144], [6.208439, 46.363924], [6.207065, 46.362247], [6.206858, 46.361912], [6.206705, 46.361491], [6.206679, 46.360605], [6.20664, 46.360353], [6.206497, 46.359955], [6.20623, 46.359514], [6.205372, 46.358538], [6.204193, 46.357506], [6.203447, 46.357064], [6.20274, 46.356359], [6.202292, 46.355995], [6.201722, 46.355667], [6.200717, 46.354917], [6.199548, 46.354098], [6.199599, 46.354027], [6.200776, 46.353377], [6.201455, 46.352968], [6.201982, 46.352603], [6.202135, 46.35245], [6.202758, 46.351994], [6.202889, 46.351945], [6.203035, 46.351923], [6.203355, 46.351961], [6.204667, 46.352443], [6.204759, 46.352454], [6.204866, 46.352413], [6.205183, 46.352208], [6.206451, 46.351558], [6.206528, 46.351514], [6.206568, 46.351454], [6.206567, 46.351384], [6.206521, 46.351313], [6.206058, 46.351004], [6.205865, 46.350831], [6.205579, 46.350672], [6.204872, 46.35037], [6.204121, 46.349957], [6.202708, 46.348893], [6.201987, 46.348508], [6.200897, 46.34817], [6.200626, 46.348044], [6.200368, 46.347762], [6.200019, 46.347083], [6.199851, 46.346409], [6.199703, 46.345289], [6.199771, 46.345134], [6.199863, 46.345039], [6.200457, 46.344607], [6.201026, 46.344235], [6.20135, 46.344133], [6.201866, 46.344034], [6.203222, 46.343688], [6.20406, 46.34351], [6.204127, 46.343475]]}, "properties": {"name": "1785577428.Marchissy", "cmt": "2026-08-01", "tstamp": 1785542400, "desc": "DownHill", "src": "6.149784/46.331306/6.261354/46.489772", "bbox": "6.149784/46.331306/6.261354/46.489772"}}, {"type": "Feature", "bbox": [6.149784, 46.331306, 6.261354, 46.489772], "geometry": {"type": "LineString", "coordinates": [[6.204152, 46.343416], [6.204129, 46.343357], [6.203946, 46.34323], [6.203491, 46.342767], [6.2031, 46.34251], [6.202738, 46.342324], [6.202472, 46.342098], [6.202363, 46.341946], [6.202065, 46.341383], [6.201722, 46.340614], [6.201624, 46.340265], [6.201447, 46.339975], [6.201273, 46.339758], [6.201099, 46.339629], [6.200364, 46.338827], [6.199926, 46.338422], [6.199064, 46.337693], [6.198845, 46.337416], [6.198599, 46.336998], [6.19836, 46.33672], [6.197975, 46.336464], [6.196079, 46.335321], [6.195707, 46.335137], [6.195539, 46.335082], [6.195417, 46.334973], [6.194638, 46.334533], [6.194228, 46.334207], [6.193965, 46.334064], [6.193343, 46.333786], [6.192852, 46.333373], [6.192754, 46.333199], [6.192534, 46.332472], [6.192456, 46.332338], [6.192457, 46.332239], [6.192535, 46.332202], [6.192592, 46.332125], [6.192976, 46.332075], [6.193005, 46.332032], [6.192985, 46.331959], [6.193012, 46.331945], [6.193239, 46.331934], [6.193778, 46.331828], [6.194054, 46.331885], [6.194348, 46.331828], [6.194614, 46.331737], [6.194705, 46.331678], [6.19474, 46.331576], [6.194608, 46.331411], [6.194536, 46.331395], [6.194284, 46.331458], [6.194298, 46.331604], [6.194273, 46.331506], [6.194373, 46.331306], [6.194144, 46.331562], [6.194358, 46.331643], [6.194194, 46.331673], [6.194399, 46.331665], [6.194208, 46.331671], [6.194379, 46.331666], [6.194182, 46.331717], [6.194121, 46.33171], [6.194182, 46.331717], [6.1943, 46.331672], [6.19453, 46.331651]]}, "properties": {"name": "1785577428.Marchissy", "cmt": "2026-08-01", "tstamp": 1785542400, "desc": "UpHill", "src": "6.149784/46.331306/6.261354/46.489772", "bbox": "6.149784/46.331306/6.261354/46.489772"}}]}