{"type": "FeatureCollection", "name": "TrackSet", "crs": {"type": "name", "properties": {"name": "urn:ogc:def:crs:OGC:1.3:CRS84"}}, "bbox": [6.135035, 46.307688, 6.199861, 46.355896], "features": [{"type": "Feature", "bbox": [6.135035, 46.307688, 6.199861, 46.355896], "geometry": {"type": "LineString", "coordinates": [[6.194241, 46.331677], [6.19427, 46.331681], [6.194241, 46.331677], [6.194297, 46.331747], [6.194272, 46.331786], [6.194117, 46.331846], [6.193821, 46.331817], [6.193, 46.331939], [6.19297, 46.33196], [6.193003, 46.332103], [6.192936, 46.332166], [6.192477, 46.33224], [6.192437, 46.332306], [6.192675, 46.33285], [6.192592, 46.332915], [6.191963, 46.33304], [6.190906, 46.333158], [6.190579, 46.333172], [6.189955, 46.333275], [6.189923, 46.333319], [6.190281, 46.333971], [6.190417, 46.334148], [6.191641, 46.336398], [6.191712, 46.33669], [6.191578, 46.336971], [6.191197, 46.337582], [6.190492, 46.338497], [6.190023, 46.338896], [6.189763, 46.339045], [6.189111, 46.339244], [6.188844, 46.339377], [6.187223, 46.34029], [6.186464, 46.340763], [6.184972, 46.341592], [6.184059, 46.341945], [6.183423, 46.342241], [6.183215, 46.342422], [6.182938, 46.342892], [6.182822, 46.343018], [6.182544, 46.343199], [6.1818, 46.343553], [6.181665, 46.343574], [6.181534, 46.343526], [6.180655, 46.342804], [6.180196, 46.342476], [6.180018, 46.342423], [6.179827, 46.342467], [6.179363, 46.342732], [6.178959, 46.342923], [6.178318, 46.343121], [6.177749, 46.343337], [6.177708, 46.343424], [6.177659, 46.343811], [6.177578, 46.344928], [6.177534, 46.345046], [6.177307, 46.34519], [6.176777, 46.34542], [6.176645, 46.345522], [6.176537, 46.345724], [6.176575, 46.345821], [6.176685, 46.34593], [6.176694, 46.345962], [6.176659, 46.345986], [6.176412, 46.346028], [6.175104, 46.34673], [6.174452, 46.347011], [6.174644, 46.347252], [6.174737, 46.347426], [6.174848, 46.347844], [6.174903, 46.348248], [6.17474, 46.348776], [6.174435, 46.349221], [6.174399, 46.349409], [6.174693, 46.349854], [6.174729, 46.350064], [6.174699, 46.35045], [6.174891, 46.350701], [6.175152, 46.351183], [6.17513, 46.351308], [6.175076, 46.351371], [6.175013, 46.351405], [6.174586, 46.351507], [6.174237, 46.351627], [6.173107, 46.351943], [6.172964, 46.35202], [6.169519, 46.353055], [6.169311, 46.35306], [6.168947, 46.352835], [6.168705, 46.352761], [6.168434, 46.352743], [6.168242, 46.352762], [6.167786, 46.352893], [6.167138, 46.353015], [6.166374, 46.353271], [6.166193, 46.353434], [6.165683, 46.353801], [6.165554, 46.353857], [6.165467, 46.353848], [6.165358, 46.353653], [6.165189, 46.353495], [6.16504, 46.353513], [6.164747, 46.35349], [6.16473, 46.353469], [6.165138, 46.353498], [6.165337, 46.353601], [6.165486, 46.353802], [6.165564, 46.353859], [6.165681, 46.354132], [6.1658, 46.354289], [6.165896, 46.354538], [6.165867, 46.354535], [6.165877, 46.354475], [6.165985, 46.354415], [6.166261, 46.354374], [6.166496, 46.354302], [6.166528, 46.354361], [6.16653, 46.354279], [6.166605, 46.354331], [6.166553, 46.354303], [6.166495, 46.354336], [6.166441, 46.354317], [6.165925, 46.354434], [6.165891, 46.354475], [6.165896, 46.354531], [6.166107, 46.355042], [6.166127, 46.355219], [6.166089, 46.35533], [6.165858, 46.355492], [6.165511, 46.355668], [6.165234, 46.355874], [6.165181, 46.355896], [6.165041, 46.355888], [6.164794, 46.355822], [6.164334, 46.355546], [6.163342, 46.355054], [6.16321, 46.354955], [6.16197, 46.353554], [6.161925, 46.353345], [6.161801, 46.353121], [6.161817, 46.353065], [6.1619, 46.353007], [6.161816, 46.35284], [6.161102, 46.352369], [6.160327, 46.351702], [6.159331, 46.350597], [6.159104, 46.350309], [6.158899, 46.349934], [6.158798, 46.349813], [6.157014, 46.348521], [6.155398, 46.347661], [6.154107, 46.34653], [6.153389, 46.345634], [6.1532, 46.345287], [6.153198, 46.34511], [6.153143, 46.345007], [6.15293, 46.344835], [6.152393, 46.34431], [6.150914, 46.343056], [6.150308, 46.342577], [6.149936, 46.34234], [6.148779, 46.341875], [6.147617, 46.341251], [6.147035, 46.341065], [6.146579, 46.340859], [6.146081, 46.340485], [6.145986, 46.340273], [6.145816, 46.339368], [6.145311, 46.338148], [6.144486, 46.337425], [6.144199, 46.337279], [6.143834, 46.336893], [6.143413, 46.336167], [6.142132, 46.33371], [6.140788, 46.332031], [6.140201, 46.331324], [6.140025, 46.33115], [6.139554, 46.330584], [6.139231, 46.330145], [6.138476, 46.329265], [6.137105, 46.327501], [6.136494, 46.326783], [6.136375, 46.326607], [6.135937, 46.326116], [6.135581, 46.325643], [6.135498, 46.325482], [6.135068, 46.324289], [6.135035, 46.323985], [6.135106, 46.323913], [6.135778, 46.323544], [6.136159, 46.323277], [6.13705, 46.322759], [6.137309, 46.322578], [6.137376, 46.322454]]}, "properties": {"name": "1785495547.Lunch_break_spin", "cmt": "2026-07-31", "tstamp": 1785456000, "desc": "UpHill", "src": "6.135035/46.307688/6.199861/46.355896", "bbox": "6.135035/46.307688/6.199861/46.355896"}}, {"type": "Feature", "bbox": [6.135035, 46.307688, 6.199861, 46.355896], "geometry": {"type": "LineString", "coordinates": [[6.137398, 46.322428], [6.13739, 46.32237], [6.137142, 46.322174], [6.137057, 46.322057], [6.137056, 46.32193], [6.137086, 46.321892], [6.137199, 46.321807], [6.137259, 46.321804], [6.137277, 46.32177], [6.137316, 46.321765], [6.137367, 46.321694], [6.137558, 46.321585], [6.13773, 46.321445], [6.13875, 46.320806], [6.141651, 46.318752], [6.14201, 46.318534], [6.142686, 46.318193], [6.145436, 46.317], [6.146089, 46.316685], [6.14688, 46.316373], [6.147846, 46.31611], [6.148291, 46.315968], [6.148389, 46.315908], [6.149028, 46.315761], [6.151397, 46.315051], [6.152281, 46.314737], [6.153482, 46.314241], [6.154107, 46.314097], [6.154614, 46.314064], [6.155119, 46.314113], [6.156715, 46.31442], [6.157198, 46.314473], [6.158637, 46.31457], [6.159692, 46.314766], [6.159843, 46.314773], [6.160127, 46.314702], [6.160241, 46.31463], [6.160584, 46.314318], [6.160642, 46.314233], [6.160756, 46.313863], [6.160753, 46.313676], [6.160544, 46.313181], [6.160347, 46.312894], [6.160169, 46.312696], [6.16007, 46.312655], [6.159943, 46.312643], [6.159688, 46.312674], [6.159572, 46.312639], [6.159103, 46.312239], [6.158424, 46.311565], [6.158017, 46.311046], [6.157944, 46.310974], [6.157665, 46.310828], [6.157611, 46.310765], [6.157434, 46.310245], [6.157476, 46.310174], [6.157557, 46.310117], [6.157669, 46.310083], [6.157904, 46.310049], [6.158705, 46.309854], [6.159477, 46.309628], [6.159859, 46.309473], [6.161587, 46.308661], [6.161666, 46.308666], [6.161738, 46.308703], [6.161867, 46.308826], [6.162372, 46.30914], [6.162902, 46.30934], [6.163418, 46.309645], [6.163794, 46.309933], [6.164167, 46.310341], [6.164262, 46.310384], [6.164384, 46.310389], [6.164726, 46.310286], [6.166343, 46.309952], [6.166966, 46.309893], [6.167931, 46.30993], [6.168515, 46.309995], [6.169664, 46.31019], [6.170527, 46.3104], [6.171319, 46.310463], [6.171799, 46.310427], [6.172214, 46.310353], [6.1729, 46.310157], [6.173281, 46.310024], [6.17365, 46.309855], [6.174385, 46.309653], [6.17493, 46.309431], [6.175524, 46.309254], [6.175908, 46.3091], [6.176195, 46.308949], [6.176165, 46.308845], [6.176188, 46.308836], [6.176217, 46.308857], [6.176157, 46.308908], [6.176196, 46.308893], [6.176218, 46.30884], [6.176299, 46.308848], [6.17645, 46.308907], [6.176623, 46.30894], [6.177525, 46.309034], [6.177833, 46.309104], [6.177954, 46.309091], [6.17893, 46.308737], [6.1798, 46.308286], [6.180564, 46.307789], [6.180809, 46.307688], [6.180951, 46.307707], [6.181078, 46.307753], [6.182051, 46.308626], [6.182255, 46.308758], [6.182393, 46.308775], [6.182533, 46.308746], [6.183012, 46.308545], [6.183292, 46.308387], [6.183435, 46.308234], [6.183524, 46.308212], [6.183612, 46.308234], [6.183678, 46.308307], [6.183734, 46.308461], [6.183793, 46.308523], [6.183959, 46.308616], [6.184053, 46.30875], [6.186749, 46.311687], [6.187645, 46.31265], [6.188123, 46.31311], [6.188408, 46.313326], [6.18873, 46.313519], [6.190165, 46.314321], [6.190373, 46.314465], [6.192614, 46.315696], [6.192838, 46.315845], [6.193174, 46.316147], [6.193476, 46.316471]]}, "properties": {"name": "1785495547.Lunch_break_spin", "cmt": "2026-07-31", "tstamp": 1785456000, "desc": "DownHill", "src": "6.135035/46.307688/6.199861/46.355896", "bbox": "6.135035/46.307688/6.199861/46.355896"}}, {"type": "Feature", "bbox": [6.135035, 46.307688, 6.199861, 46.355896], "geometry": {"type": "LineString", "coordinates": [[6.193506, 46.316534], [6.193688, 46.316793], [6.193917, 46.317049], [6.194182, 46.31729], [6.194435, 46.317677], [6.195662, 46.319929], [6.197015, 46.322283], [6.198023, 46.324159], [6.198869, 46.326166], [6.199729, 46.327673], [6.199856, 46.327826], [6.199861, 46.327887], [6.199805, 46.327936], [6.199703, 46.327956], [6.199443, 46.327922], [6.199281, 46.327942], [6.197487, 46.328614], [6.195802, 46.329159], [6.194432, 46.32945], [6.193635, 46.329593], [6.193419, 46.329643], [6.193277, 46.329706], [6.193209, 46.329771], [6.19318, 46.329849], [6.193153, 46.33009], [6.193175, 46.33013], [6.193239, 46.330152], [6.193865, 46.33007], [6.193954, 46.330084], [6.194031, 46.330126], [6.194455, 46.330938], [6.194748, 46.331635], [6.194719, 46.331678], [6.194557, 46.331711], [6.194354, 46.331803], [6.194244, 46.331803], [6.194209, 46.331768], [6.194258, 46.331785], [6.194252, 46.331742]]}, "properties": {"name": "1785495547.Lunch_break_spin", "cmt": "2026-07-31", "tstamp": 1785456000, "desc": "UpHill", "src": "6.135035/46.307688/6.199861/46.355896", "bbox": "6.135035/46.307688/6.199861/46.355896"}}]}