{"type": "FeatureCollection", "name": "TrackSet", "crs": {"type": "name", "properties": {"name": "urn:ogc:def:crs:OGC:1.3:CRS84"}}, "bbox": [6.193149, 46.327762, 6.238317, 46.378443], "features": [{"type": "Feature", "bbox": [6.193149, 46.327762, 6.238317, 46.378443], "geometry": {"type": "LineString", "coordinates": [[6.19471, 46.331509], [6.194634, 46.331332], [6.194592, 46.33131], [6.194507, 46.331165], [6.194063, 46.330238], [6.193994, 46.330153], [6.193933, 46.330127], [6.193791, 46.330119], [6.1933, 46.330195], [6.193241, 46.330192], [6.193162, 46.330145], [6.193149, 46.329853], [6.1932, 46.329744], [6.193313, 46.329649], [6.19361, 46.329561], [6.195328, 46.329235], [6.195983, 46.329077], [6.197259, 46.328667], [6.199432, 46.327868], [6.19967, 46.327762], [6.199839, 46.327774], [6.199901, 46.327812], [6.199958, 46.327923], [6.20021, 46.328129], [6.200931, 46.328988], [6.201297, 46.329484], [6.201777, 46.33032], [6.202012, 46.330808], [6.202206, 46.33131], [6.20239, 46.331992], [6.202476, 46.332704], [6.202507, 46.334202], [6.202478, 46.334884], [6.202507, 46.3355], [6.202602, 46.336111], [6.202844, 46.337014], [6.203016, 46.337461], [6.203461, 46.338348], [6.204107, 46.339317], [6.204554, 46.339919], [6.204991, 46.340652], [6.205168, 46.341044], [6.205314, 46.341445], [6.205529, 46.34227], [6.206195, 46.345141], [6.206955, 46.348215], [6.207126, 46.34872], [6.207458, 46.349458], [6.207809, 46.350086], [6.208119, 46.350536], [6.208956, 46.351533], [6.213375, 46.356187], [6.215587, 46.358431], [6.215819, 46.358728], [6.216302, 46.359116], [6.21766, 46.36034], [6.218141, 46.360807], [6.219043, 46.361766], [6.219912, 46.362832], [6.222305, 46.366213], [6.222738, 46.366731], [6.223233, 46.367219], [6.223848, 46.367747], [6.225075, 46.368585], [6.226087, 46.369122], [6.227959, 46.370026], [6.22886, 46.37049], [6.229489, 46.370865], [6.230296, 46.371412], [6.231717, 46.372617], [6.232872, 46.373747], [6.234936, 46.376428], [6.235169, 46.376684], [6.23547, 46.376915], [6.235702, 46.377039], [6.237449, 46.377861], [6.23788, 46.378092], [6.238267, 46.378242], [6.238317, 46.378294], [6.238304, 46.378408], [6.238172, 46.378443], [6.238096, 46.378422], [6.237811, 46.378165], [6.237503, 46.377969], [6.235688, 46.377107], [6.235336, 46.376917], [6.23519, 46.376805], [6.234933, 46.376553], [6.233647, 46.37488], [6.232685, 46.373723], [6.231908, 46.372989], [6.231714, 46.372865], [6.230859, 46.372052], [6.229874, 46.371281], [6.229198, 46.370848], [6.228613, 46.370511], [6.227655, 46.37007], [6.227264, 46.369922], [6.227051, 46.369742], [6.225592, 46.369025], [6.224983, 46.368696], [6.223978, 46.36804], [6.223137, 46.367357], [6.222659, 46.366883], [6.22217, 46.366315], [6.219706, 46.362841], [6.219168, 46.362162], [6.218655, 46.361576], [6.217674, 46.36057], [6.216819, 46.359778], [6.216155, 46.359192], [6.215859, 46.359044], [6.215781, 46.358981], [6.215698, 46.358741], [6.215633, 46.35867], [6.214851, 46.357938], [6.212815, 46.355835], [6.211147, 46.354076], [6.210744, 46.353685], [6.208832, 46.35168], [6.208045, 46.350765], [6.20768, 46.350246], [6.207368, 46.349717], [6.207064, 46.349086], [6.206778, 46.348356], [6.206457, 46.347132], [6.205318, 46.342273], [6.205004, 46.341218], [6.204611, 46.340321], [6.204287, 46.339797], [6.203561, 46.338756], [6.203132, 46.338025], [6.202749, 46.337172], [6.202612, 46.336786], [6.202465, 46.33624], [6.202363, 46.335397], [6.202332, 46.332626], [6.202193, 46.331732], [6.202094, 46.331391], [6.201652, 46.330357], [6.201165, 46.329516], [6.200672, 46.328861], [6.200029, 46.32811], [6.199882, 46.328004], [6.19979, 46.327972], [6.199587, 46.327937], [6.19939, 46.327943], [6.197525, 46.328634], [6.195842, 46.329182], [6.195441, 46.329278], [6.19344, 46.329656], [6.193317, 46.329707], [6.193224, 46.329832], [6.193201, 46.330116], [6.193239, 46.33015], [6.193374, 46.330155], [6.193772, 46.330079], [6.193868, 46.330079], [6.193962, 46.330102], [6.194078, 46.330204], [6.194362, 46.330711], [6.194767, 46.331558], [6.194728, 46.331675], [6.19428, 46.331826]]}, "properties": {"name": "1785752663.Lunch_Ride", "cmt": "2026-08-03", "tstamp": 1785715200, "desc": "---", "src": "6.193149/46.327762/6.238317/46.378443", "bbox": "6.193149/46.327762/6.238317/46.378443"}}]}