{"type": "FeatureCollection", "name": "TrackSet", "crs": {"type": "name", "properties": {"name": "urn:ogc:def:crs:OGC:1.3:CRS84"}}, "bbox": [6.19312, 46.327741, 6.238341, 46.378454], "features": [{"type": "Feature", "bbox": [6.19312, 46.327741, 6.238341, 46.378454], "geometry": {"type": "LineString", "coordinates": [[6.194315, 46.331832], [6.194305, 46.331871], [6.194316, 46.331823], [6.194406, 46.331778], [6.194675, 46.33169], [6.194726, 46.331661], [6.194737, 46.331606], [6.194395, 46.330858], [6.194013, 46.330143], [6.193963, 46.330108], [6.193808, 46.330097], [6.193232, 46.330181], [6.193159, 46.330147], [6.19312, 46.330068], [6.193153, 46.329858], [6.193232, 46.32969], [6.193308, 46.329638], [6.193506, 46.32958], [6.195034, 46.329295], [6.195921, 46.329097], [6.197279, 46.328666], [6.19922, 46.327938], [6.199549, 46.327836], [6.1997, 46.327754], [6.199791, 46.327741], [6.19988, 46.327771], [6.199942, 46.327828], [6.199988, 46.327981], [6.200201, 46.328118], [6.201253, 46.329444], [6.201564, 46.329948], [6.201942, 46.330697], [6.202097, 46.331078], [6.202323, 46.331776], [6.202445, 46.332481], [6.202487, 46.333339], [6.20249, 46.334221], [6.20246, 46.334587], [6.202483, 46.335401], [6.202597, 46.336174], [6.2028, 46.336927], [6.203078, 46.337636], [6.203387, 46.338243], [6.203897, 46.339047], [6.204504, 46.339884], [6.204788, 46.340366], [6.205148, 46.341108], [6.20531, 46.341565], [6.205711, 46.343067], [6.206227, 46.345248], [6.206278, 46.345641], [6.206633, 46.347001], [6.206777, 46.347724], [6.207025, 46.348582], [6.207532, 46.349637], [6.20814, 46.350591], [6.209274, 46.351909], [6.210308, 46.352946], [6.211072, 46.353794], [6.214408, 46.357263], [6.215613, 46.358458], [6.215889, 46.358796], [6.216219, 46.359024], [6.217084, 46.359802], [6.217864, 46.360529], [6.21875, 46.361452], [6.219498, 46.362314], [6.219999, 46.362965], [6.222439, 46.3664], [6.223094, 46.367098], [6.223476, 46.367459], [6.223825, 46.367752], [6.224621, 46.368272], [6.224917, 46.368506], [6.225836, 46.369001], [6.228939, 46.370529], [6.229881, 46.37112], [6.230198, 46.371346], [6.231424, 46.372403], [6.232841, 46.373721], [6.234988, 46.376499], [6.235193, 46.376714], [6.235552, 46.376962], [6.237564, 46.377912], [6.238038, 46.378166], [6.238303, 46.378246], [6.238341, 46.378303], [6.238284, 46.378423], [6.238127, 46.378454], [6.238053, 46.378425], [6.237703, 46.378084], [6.236561, 46.377495], [6.235536, 46.377023], [6.235052, 46.376662], [6.233735, 46.374985], [6.232659, 46.373704], [6.231861, 46.372928], [6.231676, 46.372817], [6.231494, 46.372601], [6.23119, 46.372324], [6.230606, 46.371822], [6.229878, 46.371268], [6.228674, 46.370536], [6.228177, 46.370287], [6.227948, 46.370209], [6.227223, 46.369864], [6.226865, 46.369634], [6.225515, 46.368979], [6.224804, 46.368585], [6.223858, 46.367944], [6.223285, 46.367459], [6.222676, 46.36687], [6.222161, 46.366273], [6.221452, 46.365269], [6.221263, 46.365044], [6.221126, 46.364801], [6.219589, 46.362654], [6.218532, 46.361408], [6.217644, 46.360513], [6.216798, 46.359741], [6.216476, 46.359497], [6.216145, 46.359181], [6.215759, 46.358971], [6.215722, 46.358755], [6.215672, 46.358688], [6.215174, 46.358246], [6.212127, 46.355102], [6.211196, 46.354111], [6.210386, 46.353313], [6.208789, 46.351633], [6.208079, 46.350803], [6.207668, 46.350223], [6.207358, 46.349698], [6.207159, 46.349312], [6.206813, 46.348456], [6.206549, 46.347481], [6.206126, 46.345623], [6.205999, 46.344907], [6.205822, 46.344299], [6.205609, 46.343322], [6.205161, 46.341682], [6.204971, 46.341099], [6.204544, 46.340138], [6.204135, 46.339509], [6.203669, 46.33889], [6.203191, 46.338099], [6.202959, 46.33763], [6.202673, 46.336893], [6.20252, 46.336373], [6.202423, 46.335861], [6.202361, 46.334525], [6.202364, 46.332671], [6.202246, 46.331862], [6.202158, 46.331507], [6.20178, 46.330596], [6.201383, 46.329831], [6.200873, 46.32908], [6.200078, 46.328153], [6.199971, 46.328049], [6.199826, 46.327973], [6.199566, 46.327924], [6.199318, 46.327943], [6.197479, 46.328631], [6.196159, 46.32906], [6.195515, 46.329232], [6.193521, 46.329627], [6.193305, 46.329708], [6.193208, 46.329831], [6.193185, 46.330121], [6.193268, 46.330161], [6.193789, 46.33008], [6.193935, 46.330083], [6.193998, 46.330112], [6.194605, 46.331245], [6.194762, 46.331612], [6.194744, 46.331654], [6.194353, 46.331797], [6.194297, 46.331781], [6.194262, 46.331735], [6.194311, 46.331601], [6.194279, 46.331711], [6.194261, 46.331668], [6.194345, 46.331705], [6.194371, 46.331658], [6.19428, 46.331582], [6.1943, 46.331617], [6.194212, 46.331657]]}, "properties": {"name": "1785437454.A_quick_bit_of_air_in_the_lungs", "cmt": "2026-07-30", "tstamp": 1785369600, "desc": "---", "src": "6.19312/46.327741/6.238341/46.378454", "bbox": "6.19312/46.327741/6.238341/46.378454"}}]}