{"type": "FeatureCollection", "name": "TrackSet", "crs": {"type": "name", "properties": {"name": "urn:ogc:def:crs:OGC:1.3:CRS84"}}, "bbox": [6.19313, 46.327741, 6.238331, 46.37845], "features": [{"type": "Feature", "bbox": [6.19313, 46.327741, 6.238331, 46.37845], "geometry": {"type": "LineString", "coordinates": [[6.194461, 46.331743], [6.194374, 46.331741], [6.194347, 46.331763], [6.194461, 46.331743], [6.194715, 46.331633], [6.194729, 46.33151], [6.194601, 46.331312], [6.194427, 46.330898], [6.194065, 46.330237], [6.193997, 46.330148], [6.193864, 46.330099], [6.193226, 46.330191], [6.193183, 46.330177], [6.19313, 46.330057], [6.193163, 46.329793], [6.193183, 46.329736], [6.193286, 46.329639], [6.193482, 46.32957], [6.194841, 46.329326], [6.195109, 46.329254], [6.195548, 46.329182], [6.196063, 46.329047], [6.197664, 46.328526], [6.199534, 46.32783], [6.199676, 46.327759], [6.19974, 46.327741], [6.199898, 46.327794], [6.199992, 46.327983], [6.200205, 46.32813], [6.200984, 46.329058], [6.201337, 46.329559], [6.201686, 46.330162], [6.202099, 46.331056], [6.202314, 46.331728], [6.202439, 46.332515], [6.202477, 46.333417], [6.202461, 46.334022], [6.202487, 46.334195], [6.202454, 46.334541], [6.202461, 46.335227], [6.202548, 46.335933], [6.202711, 46.336623], [6.202913, 46.337243], [6.203303, 46.338078], [6.20374, 46.338803], [6.204578, 46.339993], [6.204999, 46.340731], [6.205166, 46.341122], [6.205312, 46.341521], [6.205551, 46.342427], [6.206408, 46.346168], [6.206923, 46.348204], [6.207092, 46.348717], [6.207435, 46.34945], [6.207845, 46.350153], [6.208163, 46.350604], [6.209058, 46.35168], [6.213435, 46.356261], [6.215647, 46.358502], [6.215878, 46.358797], [6.216226, 46.359042], [6.216989, 46.359723], [6.218005, 46.360675], [6.218589, 46.361282], [6.219332, 46.362122], [6.21996, 46.362915], [6.222289, 46.366205], [6.222783, 46.366792], [6.223287, 46.367282], [6.223847, 46.36775], [6.22464, 46.368281], [6.224877, 46.368477], [6.225349, 46.368748], [6.228698, 46.37041], [6.229552, 46.370914], [6.230286, 46.371408], [6.231723, 46.372625], [6.232028, 46.372953], [6.232954, 46.373832], [6.234116, 46.375367], [6.235163, 46.376677], [6.235578, 46.376976], [6.237567, 46.377917], [6.23798, 46.378142], [6.23826, 46.378245], [6.238326, 46.378285], [6.238331, 46.378405], [6.23827, 46.378441], [6.238181, 46.37845], [6.238091, 46.378435], [6.237711, 46.378115], [6.237327, 46.377872], [6.235681, 46.377097], [6.235261, 46.37686], [6.234878, 46.376471], [6.233646, 46.37487], [6.233446, 46.374654], [6.23307, 46.374127], [6.232704, 46.373698], [6.23187, 46.372931], [6.231681, 46.372807], [6.231549, 46.372645], [6.230839, 46.371977], [6.230049, 46.37137], [6.229571, 46.371049], [6.228627, 46.370494], [6.228202, 46.370286], [6.227861, 46.370159], [6.227557, 46.370013], [6.227271, 46.369918], [6.227178, 46.369871], [6.226981, 46.369669], [6.225481, 46.368949], [6.224878, 46.368611], [6.223988, 46.368024], [6.223061, 46.367267], [6.222597, 46.36679], [6.22218, 46.366301], [6.219665, 46.362728], [6.219126, 46.36205], [6.218526, 46.361386], [6.217611, 46.36047], [6.216668, 46.359606], [6.216093, 46.359106], [6.215791, 46.358973], [6.21573, 46.358904], [6.215678, 46.358644], [6.215215, 46.358267], [6.214088, 46.357123], [6.211161, 46.354057], [6.210607, 46.353513], [6.209152, 46.351987], [6.208402, 46.351171], [6.208062, 46.350747], [6.207641, 46.350141], [6.207335, 46.349611], [6.207033, 46.34898], [6.206796, 46.348341], [6.206424, 46.346931], [6.205338, 46.34226], [6.204997, 46.341116], [6.204603, 46.340217], [6.204339, 46.339762], [6.203698, 46.338891], [6.203206, 46.338094], [6.202714, 46.33701], [6.202515, 46.336425], [6.202413, 46.33582], [6.202348, 46.334962], [6.202356, 46.332617], [6.202286, 46.332069], [6.202151, 46.331462], [6.201998, 46.331052], [6.201499, 46.330035], [6.201017, 46.32929], [6.200221, 46.328293], [6.199894, 46.327998], [6.199705, 46.327937], [6.199408, 46.327923], [6.197357, 46.32867], [6.195821, 46.32915], [6.19443, 46.329464], [6.193505, 46.329629], [6.193306, 46.329695], [6.193212, 46.329822], [6.193177, 46.330102], [6.193202, 46.330148], [6.193358, 46.330166], [6.193591, 46.330101], [6.193856, 46.330071], [6.193949, 46.330069], [6.194025, 46.330113], [6.194092, 46.330182], [6.194178, 46.330403], [6.194547, 46.331097], [6.19476, 46.331609], [6.19467, 46.331698], [6.194451, 46.331741], [6.19435, 46.331791], [6.193995, 46.331857], [6.193926, 46.331852], [6.193933, 46.331819], [6.194, 46.331815], [6.194058, 46.331863], [6.194098, 46.331857], [6.194288, 46.331808], [6.194261, 46.331734], [6.1943, 46.331719]]}, "properties": {"name": "1785752701.Tele_lunch_break", "cmt": "2026-08-03", "tstamp": 1785715200, "desc": "---", "src": "6.19313/46.327741/6.238331/46.37845", "bbox": "6.19313/46.327741/6.238331/46.37845"}}]}