{"type": "FeatureCollection", "name": "TrackSet", "crs": {"type": "name", "properties": {"name": "urn:ogc:def:crs:OGC:1.3:CRS84"}}, "bbox": [6.177877, 46.331402, 6.338333, 46.559981], "features": [{"type": "Feature", "bbox": [6.177877, 46.331402, 6.338333, 46.559981], "geometry": {"type": "LineString", "coordinates": [[6.222806, 46.460826], [6.22284, 46.460807], [6.222806, 46.460826], [6.222693, 46.460807], [6.222654, 46.460824], [6.222692, 46.460835], [6.222933, 46.460792], [6.223245, 46.460897], [6.223407, 46.460964], [6.223749, 46.46119], [6.223823, 46.461201], [6.223884, 46.461162], [6.223877, 46.461023], [6.223794, 46.46079], [6.223553, 46.46035], [6.223629, 46.460294], [6.223724, 46.46032], [6.223863, 46.460573], [6.224496, 46.461463], [6.224723, 46.461861], [6.224777, 46.462053], [6.224734, 46.462439], [6.224773, 46.462533], [6.224857, 46.462613], [6.225066, 46.462749], [6.225134, 46.462834], [6.225143, 46.462933], [6.225065, 46.463118], [6.224858, 46.463266], [6.224672, 46.463639], [6.224412, 46.46387], [6.224382, 46.463971], [6.224469, 46.46427], [6.224426, 46.464457], [6.224371, 46.464543], [6.223839, 46.464878], [6.223684, 46.465045], [6.223516, 46.465309], [6.222779, 46.465731], [6.222508, 46.465795], [6.22207, 46.465832], [6.221181, 46.466173], [6.221048, 46.466204], [6.220783, 46.466205], [6.220255, 46.466065], [6.219992, 46.46605], [6.219867, 46.466066], [6.219679, 46.466194], [6.21964, 46.466284], [6.219657, 46.466461], [6.219769, 46.46661], [6.220988, 46.467328], [6.221297, 46.467442], [6.22177, 46.467522], [6.221948, 46.467532], [6.222644, 46.467406], [6.223811, 46.467279], [6.224245, 46.467285], [6.224883, 46.467372], [6.225094, 46.467349], [6.225264, 46.467257], [6.225589, 46.466934], [6.225716, 46.46686], [6.225963, 46.466802], [6.226506, 46.466783], [6.226775, 46.466689], [6.226918, 46.466586], [6.227185, 46.466275], [6.227429, 46.46618], [6.228099, 46.466057], [6.229206, 46.466042], [6.229822, 46.466009], [6.230165, 46.465918], [6.230264, 46.465836], [6.230379, 46.465664], [6.230765, 46.464826], [6.23111, 46.464252], [6.231329, 46.464061], [6.231496, 46.464018], [6.231543, 46.46405], [6.231562, 46.464127], [6.231496, 46.464258], [6.231434, 46.464871], [6.231488, 46.465621], [6.231521, 46.46572], [6.231532, 46.466263], [6.231459, 46.46651], [6.231501, 46.466888], [6.231249, 46.467153], [6.230548, 46.467644], [6.229931, 46.468241], [6.229655, 46.468433], [6.229082, 46.468755], [6.22887, 46.468931], [6.22876, 46.469061], [6.228674, 46.469229], [6.228384, 46.47014], [6.227897, 46.470919], [6.227641, 46.471181], [6.227446, 46.47133], [6.226664, 46.4718], [6.226464, 46.471891], [6.22573, 46.472083], [6.224945, 46.472044], [6.22418, 46.472047], [6.224127, 46.472021], [6.223678, 46.472], [6.222594, 46.472001], [6.222076, 46.471837], [6.221783, 46.471775], [6.221454, 46.471776], [6.221332, 46.471756], [6.221081, 46.471783], [6.218667, 46.472512], [6.21707, 46.472947], [6.216764, 46.473051], [6.216378, 46.473294], [6.216252, 46.473454], [6.216156, 46.473502], [6.216064, 46.47362], [6.215864, 46.473778], [6.215643, 46.474048], [6.215619, 46.47413], [6.215557, 46.474191], [6.215497, 46.474538], [6.215606, 46.474767], [6.215706, 46.474871], [6.216119, 46.475095], [6.216268, 46.475229], [6.216989, 46.476123], [6.217193, 46.47626], [6.217359, 46.476411], [6.217581, 46.47655], [6.217679, 46.476692], [6.217683, 46.476749], [6.217669, 46.476808], [6.217552, 46.476875], [6.217419, 46.476892], [6.217341, 46.476865], [6.217076, 46.476721], [6.216995, 46.47665], [6.216645, 46.476513], [6.216494, 46.476483], [6.216381, 46.476486], [6.216244, 46.476428], [6.215691, 46.476461], [6.215416, 46.47641], [6.215091, 46.476265], [6.215071, 46.476216], [6.214838, 46.476144], [6.214651, 46.476112], [6.214214, 46.476127], [6.213965, 46.476205], [6.213827, 46.476277], [6.213742, 46.476366], [6.213666, 46.476391], [6.213582, 46.476487], [6.213215, 46.47674], [6.212981, 46.476851], [6.21288, 46.476863], [6.212815, 46.476924], [6.212507, 46.477003], [6.212382, 46.477066], [6.212122, 46.477125], [6.211956, 46.477128], [6.21138, 46.477284], [6.211208, 46.477339], [6.210999, 46.477492], [6.210929, 46.477686], [6.210947, 46.478609], [6.21085, 46.479029], [6.210525, 46.479428], [6.210085, 46.480118], [6.208907, 46.481713], [6.208691, 46.482054], [6.208595, 46.482325], [6.208548, 46.483021], [6.208619, 46.483528], [6.208959, 46.484378], [6.209046, 46.484732], [6.20908, 46.48498], [6.209008, 46.485585], [6.209046, 46.485752], [6.209247, 46.48592], [6.210129, 46.486323], [6.210818, 46.486451], [6.210913, 46.486492], [6.211025, 46.486658], [6.211005, 46.486784], [6.2109, 46.486838], [6.210645, 46.486836], [6.210195, 46.486787], [6.209773, 46.486844], [6.209501, 46.486845], [6.209114, 46.486726], [6.208953, 46.486721], [6.208255, 46.486799], [6.207855, 46.486896], [6.207641, 46.486906], [6.207489, 46.486856], [6.20736, 46.486693], [6.207418, 46.486285], [6.207361, 46.486103], [6.20726, 46.485976], [6.207069, 46.48583], [6.206854, 46.485726], [6.206661, 46.485579], [6.206453, 46.485495], [6.205501, 46.485288], [6.204862, 46.48512], [6.204152, 46.48488], [6.20367, 46.484686], [6.203493, 46.484655], [6.203316, 46.484544], [6.20329, 46.484472], [6.203089, 46.484394], [6.202988, 46.484267], [6.202766, 46.484163], [6.202544, 46.483987], [6.20231, 46.483922], [6.202207, 46.483854], [6.202133, 46.483759], [6.201336, 46.48357], [6.201203, 46.483523], [6.200848, 46.483327], [6.200638, 46.483097], [6.200552, 46.482889], [6.200246, 46.482486], [6.199132, 46.481671], [6.199074, 46.481364], [6.199101, 46.481267], [6.19924, 46.48108], [6.19929, 46.480946], [6.199257, 46.48076], [6.199222, 46.480702], [6.199043, 46.480602], [6.198901, 46.480463], [6.198519, 46.480197], [6.198465, 46.480133], [6.198383, 46.480105], [6.198241, 46.480107], [6.197929, 46.480043], [6.197645, 46.480016], [6.196839, 46.47978], [6.196557, 46.479722], [6.196353, 46.479709], [6.196174, 46.479747], [6.195851, 46.479914], [6.195337, 46.480338], [6.195061, 46.480453], [6.194709, 46.480672], [6.194233, 46.480924], [6.1936, 46.481126], [6.193385, 46.481264], [6.193084, 46.481688], [6.192856, 46.482099], [6.192824, 46.482279], [6.192876, 46.482728], [6.192839, 46.482924], [6.192652, 46.483175], [6.192119, 46.483661], [6.191982, 46.483886], [6.191979, 46.484145], [6.192297, 46.484814], [6.192457, 46.485081], [6.192557, 46.485334], [6.193698, 46.486588], [6.19377, 46.486757], [6.193771, 46.486963], [6.193647, 46.487346], [6.193362, 46.487782], [6.192779, 46.488297], [6.192585, 46.488422], [6.192491, 46.488526], [6.192443, 46.488649], [6.192467, 46.488889], [6.192526, 46.489051], [6.192512, 46.489257], [6.19239, 46.489424], [6.192156, 46.489557], [6.192071, 46.489723], [6.191972, 46.490205], [6.191988, 46.49049], [6.191885, 46.490721], [6.191792, 46.4908], [6.191665, 46.490854], [6.191425, 46.490867], [6.191275, 46.490828], [6.191141, 46.490846], [6.191031, 46.490926], [6.191004, 46.491198], [6.190955, 46.491346], [6.190873, 46.491438], [6.190694, 46.491483], [6.190479, 46.491457], [6.190374, 46.491492], [6.190282, 46.491572], [6.190255, 46.491708], [6.190093, 46.491858], [6.189776, 46.491927], [6.189649, 46.491979], [6.189525, 46.492114], [6.189659, 46.492388], [6.190033, 46.492569], [6.190176, 46.492682], [6.190195, 46.492785], [6.190352, 46.493071], [6.1905, 46.493253], [6.190535, 46.493256], [6.190501, 46.493236], [6.190536, 46.493231], [6.190508, 46.493252], [6.190535, 46.49325], [6.190531, 46.493269], [6.190517, 46.493242], [6.190502, 46.493269], [6.190516, 46.49325], [6.19055, 46.493262], [6.190519, 46.493248], [6.190572, 46.493201], [6.190561, 46.493245], [6.190538, 46.493247], [6.190533, 46.49321], [6.190525, 46.493242], [6.190495, 46.493243], [6.190517, 46.493232], [6.190549, 46.493259], [6.190542, 46.493285], [6.190513, 46.493227], [6.190527, 46.49324], [6.190603, 46.493189], [6.190553, 46.493226], [6.190562, 46.493251], [6.190482, 46.493288], [6.190559, 46.493455], [6.190564, 46.49358], [6.1905, 46.493682], [6.190085, 46.493931], [6.189623, 46.494079], [6.188052, 46.49477], [6.187136, 46.495141], [6.186444, 46.495509], [6.185608, 46.496051], [6.184758, 46.496678], [6.184047, 46.497318], [6.182836, 46.498252], [6.182185, 46.498713], [6.181845, 46.498779], [6.18143, 46.498805], [6.180463, 46.498915], [6.1801, 46.499034], [6.179743, 46.499237], [6.179414, 46.499474], [6.178802, 46.500021], [6.178136, 46.500719], [6.178045, 46.500853], [6.177938, 46.501127], [6.177877, 46.501395], [6.177891, 46.501527], [6.178035, 46.501962], [6.17818, 46.502194], [6.178323, 46.502347], [6.178713, 46.502622], [6.179902, 46.503333], [6.18019, 46.503558], [6.180362, 46.503804], [6.180555, 46.503965], [6.180919, 46.504148], [6.181513, 46.504378], [6.181701, 46.504489], [6.181852, 46.504612], [6.182277, 46.50508], [6.182537, 46.505317], [6.184713, 46.507189], [6.185397, 46.50773], [6.185732, 46.508081], [6.186215, 46.508356], [6.186842, 46.508838], [6.187, 46.508981], [6.187414, 46.50949], [6.187736, 46.509798], [6.188279, 46.510192], [6.18915, 46.510741], [6.189621, 46.511176], [6.190791, 46.511994], [6.191584, 46.512675], [6.191933, 46.513033], [6.192113, 46.513358], [6.192235, 46.513475], [6.192494, 46.513649], [6.192631, 46.513789], [6.192753, 46.514025], [6.193217, 46.514738], [6.193531, 46.515318], [6.193778, 46.515567], [6.194479, 46.516161], [6.195712, 46.517097], [6.195938, 46.517243], [6.196353, 46.517423], [6.196885, 46.51744], [6.197082, 46.517488], [6.198311, 46.518186], [6.198867, 46.518427], [6.199335, 46.518721], [6.199762, 46.51893], [6.200113, 46.519137], [6.200565, 46.519445], [6.20086, 46.519708], [6.201237, 46.520224], [6.201456, 46.520462], [6.20221, 46.520845], [6.202554, 46.521122], [6.202857, 46.521247], [6.203244, 46.521288], [6.203362, 46.521276], [6.203862, 46.521338], [6.20431, 46.521554], [6.204422, 46.521684], [6.204526, 46.522068], [6.204657, 46.52226], [6.204809, 46.522356], [6.205265, 46.522547], [6.205447, 46.522697], [6.205537, 46.522853], [6.205751, 46.523451], [6.206154, 46.523954], [6.206327, 46.524409], [6.206795, 46.524738], [6.207064, 46.525002], [6.207665, 46.525483], [6.207993, 46.525802], [6.208523, 46.526501], [6.208804, 46.526755], [6.209386, 46.52716], [6.209941, 46.527728], [6.210462, 46.528153], [6.210592, 46.528308], [6.210739, 46.528622], [6.210845, 46.528746], [6.211637, 46.529205], [6.212144, 46.529722], [6.213218, 46.530356], [6.213578, 46.530596], [6.213878, 46.530697], [6.214545, 46.530652], [6.215558, 46.530921], [6.215742, 46.531012], [6.21604, 46.531239], [6.216337, 46.531349], [6.216666, 46.531559], [6.216927, 46.531822], [6.217046, 46.532213], [6.217192, 46.532426], [6.217783, 46.532931], [6.217982, 46.533042], [6.218423, 46.533218], [6.218564, 46.533353], [6.2188, 46.533975], [6.219024, 46.534386], [6.219185, 46.534606], [6.219891, 46.535206], [6.220244, 46.535447], [6.220808, 46.535895], [6.22127, 46.536194], [6.222193, 46.536698], [6.222699, 46.537089], [6.223408, 46.537552], [6.223474, 46.537684], [6.223521, 46.537963], [6.223725, 46.538664], [6.223862, 46.538954], [6.224243, 46.539618], [6.224803, 46.540212], [6.225, 46.540693], [6.225267, 46.541042], [6.226309, 46.541715], [6.22749, 46.542596], [6.228094, 46.54311], [6.22855, 46.543403], [6.228875, 46.543704], [6.229212, 46.543963], [6.229484, 46.544245], [6.229752, 46.544579], [6.230165, 46.544888], [6.230662, 46.545183], [6.231327, 46.545781], [6.231543, 46.545943], [6.231798, 46.546099], [6.232523, 46.546392], [6.233201, 46.546752], [6.233438, 46.546842], [6.23397, 46.54698], [6.234148, 46.547048], [6.234672, 46.547363], [6.236489, 46.548735], [6.237128, 46.54928], [6.237706, 46.549846], [6.238129, 46.550165], [6.239057, 46.550966], [6.239469, 46.551246], [6.240073, 46.551529], [6.240278, 46.551654], [6.241303, 46.552414], [6.241621, 46.552703], [6.241877, 46.553099], [6.242146, 46.553373], [6.242631, 46.553677], [6.243611, 46.554073], [6.243935, 46.554292], [6.24413, 46.55451], [6.244353, 46.555129], [6.244724, 46.555735], [6.245832, 46.556802], [6.246029, 46.557059], [6.246171, 46.557342], [6.246998, 46.558572], [6.247464, 46.559118], [6.247872, 46.559446], [6.24824, 46.559692], [6.248375, 46.55973], [6.248676, 46.559563], [6.249327, 46.559405], [6.251703, 46.559], [6.252303, 46.558947], [6.252574, 46.558971], [6.252799, 46.559019], [6.253593, 46.559296], [6.254324, 46.559621], [6.254752, 46.559915], [6.254864, 46.559967], [6.25505, 46.559981], [6.25515, 46.559944], [6.255236, 46.559875], [6.255217, 46.559792], [6.255089, 46.559598], [6.254797, 46.559332], [6.254818, 46.559298], [6.254696, 46.559163], [6.25467, 46.559069], [6.254227, 46.558543], [6.253334, 46.557683], [6.252846, 46.557166], [6.252752, 46.556923], [6.252663, 46.55652], [6.25253, 46.556186], [6.252334, 46.555801], [6.252185, 46.555616], [6.252098, 46.555442], [6.251954, 46.555324], [6.251715, 46.555038], [6.251525, 46.554868], [6.250974, 46.554444], [6.25068, 46.554099], [6.250418, 46.553711], [6.250249, 46.553355], [6.250333, 46.552655], [6.250281, 46.552565], [6.250178, 46.55251], [6.250189, 46.552455], [6.250153, 46.552442], [6.250122, 46.552462], [6.250147, 46.552455], [6.250134, 46.552433], [6.250149, 46.552455], [6.25002, 46.552453], [6.24999, 46.55244], [6.250009, 46.552427], [6.250078, 46.552452]]}, "properties": {"name": "1785668072.Col_de_Marchairuz", "cmt": "2026-08-02", "tstamp": 1785628800, "desc": "UpHill", "src": "6.177877/46.331402/6.338333/46.559981", "bbox": "6.177877/46.331402/6.338333/46.559981"}}, {"type": "Feature", "bbox": [6.177877, 46.331402, 6.338333, 46.559981], "geometry": {"type": "LineString", "coordinates": [[6.250104, 46.552462], [6.250129, 46.552471], [6.250044, 46.552555], [6.250067, 46.552498], [6.250118, 46.552576], [6.250207, 46.552639], [6.250346, 46.552688], [6.250508, 46.552573], [6.250774, 46.552451], [6.252906, 46.552298], [6.253189, 46.552255], [6.253452, 46.55216], [6.253763, 46.551944], [6.254127, 46.551618], [6.254246, 46.551421], [6.254284, 46.551201], [6.254209, 46.550975], [6.25284, 46.54923], [6.252697, 46.54881], [6.252574, 46.548094], [6.252098, 46.547177], [6.252006, 46.546768], [6.251938, 46.544624], [6.252014, 46.544314], [6.25218, 46.544029], [6.252828, 46.543164], [6.253086, 46.542902], [6.253363, 46.542785], [6.254201, 46.542686], [6.254482, 46.542578], [6.254581, 46.542478], [6.254669, 46.542244], [6.254589, 46.541756], [6.254538, 46.541134], [6.254627, 46.540914], [6.254736, 46.540825], [6.254881, 46.54076], [6.255042, 46.540718], [6.25539, 46.540706], [6.256054, 46.540823], [6.256725, 46.540908], [6.257067, 46.54093], [6.258593, 46.540936], [6.259119, 46.540991], [6.259591, 46.54119], [6.260836, 46.541797], [6.261528, 46.542068], [6.262295, 46.542476], [6.262643, 46.5426], [6.263568, 46.542829], [6.264325, 46.543264], [6.264862, 46.543461], [6.265997, 46.543842], [6.267208, 46.544136], [6.268008, 46.544265], [6.268613, 46.544303], [6.269646, 46.544256], [6.270268, 46.544196], [6.272484, 46.54376], [6.273242, 46.543705], [6.273584, 46.543649], [6.273881, 46.543532], [6.274137, 46.543368], [6.275206, 46.542504], [6.275714, 46.542126], [6.275994, 46.541955], [6.276457, 46.541767], [6.276933, 46.541652], [6.278036, 46.541516], [6.278211, 46.541434], [6.278297, 46.541293], [6.278243, 46.54114], [6.278081, 46.541035], [6.277713, 46.540992], [6.277006, 46.541005], [6.276699, 46.540945], [6.274644, 46.540095], [6.274223, 46.539797], [6.272692, 46.538385], [6.272401, 46.538241], [6.271899, 46.538101], [6.271609, 46.53796], [6.27151, 46.537857], [6.271268, 46.537379], [6.27108, 46.537155], [6.270813, 46.536963], [6.270225, 46.536634], [6.270129, 46.536529], [6.270077, 46.536412], [6.270061, 46.536294], [6.270094, 46.536179], [6.270239, 46.535959], [6.270339, 46.535865], [6.270703, 46.535645], [6.27102, 46.535382], [6.271097, 46.535284], [6.271177, 46.535067], [6.271161, 46.534958], [6.2711, 46.534852], [6.271003, 46.534763], [6.270727, 46.534622], [6.269051, 46.533979], [6.268495, 46.533628], [6.268109, 46.533224], [6.267555, 46.53241], [6.266123, 46.531103], [6.265979, 46.530861], [6.265876, 46.530532], [6.265731, 46.530237], [6.2654, 46.529947], [6.264995, 46.529661], [6.264827, 46.52949], [6.264724, 46.529286], [6.264706, 46.529071], [6.264966, 46.52761], [6.265033, 46.52741], [6.265222, 46.52712], [6.265907, 46.526355], [6.266124, 46.526185], [6.26639, 46.526047], [6.266511, 46.525994], [6.2667, 46.526012], [6.267473, 46.525946], [6.267621, 46.525917], [6.267883, 46.525797], [6.268059, 46.525619], [6.268173, 46.525423], [6.268179, 46.525203], [6.268066, 46.525001], [6.26746, 46.524312], [6.267234, 46.523965], [6.266543, 46.522281], [6.266363, 46.521957], [6.266068, 46.521542], [6.265607, 46.521039], [6.264153, 46.519754], [6.263916, 46.519562], [6.263657, 46.519397], [6.263513, 46.519326], [6.263185, 46.519223], [6.261813, 46.518928], [6.261675, 46.518868], [6.261566, 46.51878], [6.261498, 46.518677], [6.261476, 46.518454], [6.261635, 46.518261], [6.261869, 46.51813], [6.262434, 46.518145], [6.262544, 46.518188], [6.262954, 46.51826], [6.26295, 46.518308], [6.263306, 46.518336], [6.263434, 46.518297], [6.263621, 46.518161], [6.263665, 46.518099], [6.263687, 46.517947], [6.263602, 46.517789], [6.263525, 46.517719], [6.262908, 46.517355], [6.262722, 46.517211], [6.262401, 46.516813], [6.26224, 46.516673], [6.261641, 46.515915], [6.261479, 46.515739], [6.261274, 46.515575], [6.26093, 46.515348], [6.260431, 46.515091], [6.260129, 46.515024], [6.25951, 46.515005], [6.259393, 46.514971], [6.2593, 46.514911], [6.259246, 46.51483], [6.259238, 46.514741], [6.259295, 46.514573], [6.259977, 46.513883], [6.260104, 46.513828], [6.260223, 46.513843], [6.260275, 46.513929], [6.260323, 46.514159], [6.26043, 46.514266], [6.260545, 46.514294], [6.26103, 46.514253], [6.262412, 46.514212], [6.262694, 46.514237], [6.262944, 46.514334], [6.263787, 46.515024], [6.264074, 46.515321], [6.264207, 46.515663], [6.26434, 46.516371], [6.264479, 46.516591], [6.264865, 46.516964], [6.264982, 46.517012], [6.265282, 46.517002], [6.26542, 46.516958], [6.265533, 46.516879], [6.265991, 46.516382], [6.266252, 46.516039], [6.266395, 46.515558], [6.266323, 46.514595], [6.266359, 46.514417], [6.266466, 46.514256], [6.266722, 46.514047], [6.267099, 46.513947], [6.269463, 46.513657], [6.269918, 46.513562], [6.270451, 46.513342], [6.270746, 46.513148], [6.271213, 46.512779], [6.271455, 46.512677], [6.271604, 46.512665], [6.272258, 46.512757], [6.272586, 46.512734], [6.272898, 46.51266], [6.275054, 46.511961], [6.275349, 46.511834], [6.275575, 46.511649], [6.275907, 46.511104], [6.27612, 46.51093], [6.276268, 46.510871], [6.276616, 46.510824], [6.277309, 46.51085], [6.277653, 46.510828], [6.277964, 46.510725], [6.278513, 46.510421], [6.27884, 46.510324], [6.279201, 46.510295], [6.279567, 46.510325], [6.284368, 46.511081], [6.284553, 46.511078], [6.284916, 46.511029], [6.286131, 46.510721], [6.286684, 46.510666], [6.288579, 46.510707], [6.290831, 46.510611], [6.291225, 46.510641], [6.292318, 46.51083], [6.292593, 46.51083], [6.292715, 46.510784], [6.292802, 46.51071], [6.292841, 46.510624], [6.292806, 46.510467], [6.292702, 46.510343], [6.292323, 46.510128], [6.292097, 46.509964], [6.291894, 46.509759], [6.291807, 46.509598], [6.291789, 46.509316], [6.291838, 46.509129], [6.292022, 46.508848], [6.292219, 46.508708], [6.292474, 46.50862], [6.293459, 46.508424], [6.29547, 46.507951], [6.296149, 46.507868], [6.296894, 46.507818], [6.298917, 46.507735], [6.299754, 46.507774], [6.301386, 46.507938], [6.301815, 46.507934], [6.302529, 46.507881], [6.302779, 46.507897], [6.304169, 46.508145], [6.305269, 46.508313], [6.306227, 46.508504], [6.306576, 46.508633], [6.306904, 46.508875], [6.307026, 46.508901], [6.307173, 46.50888], [6.30757, 46.508733], [6.308257, 46.508434], [6.308611, 46.508326], [6.308903, 46.50827], [6.309227, 46.508267], [6.309793, 46.508315], [6.310403, 46.508334], [6.311199, 46.508331], [6.311324, 46.508254], [6.311479, 46.507829], [6.311789, 46.506021], [6.311883, 46.505777], [6.312022, 46.505637], [6.312279, 46.505474], [6.313531, 46.504855], [6.316132, 46.50351], [6.317782, 46.502672], [6.318022, 46.502557], [6.31808, 46.502551], [6.319004, 46.502035], [6.319931, 46.50138], [6.320571, 46.500854], [6.321077, 46.500348], [6.321726, 46.499522], [6.321982, 46.499243], [6.323397, 46.498], [6.323568, 46.497754], [6.324773, 46.495381], [6.324881, 46.495121], [6.324893, 46.494959], [6.324834, 46.494752], [6.324637, 46.494523], [6.324341, 46.49436], [6.323664, 46.494066], [6.323408, 46.493924], [6.323074, 46.493813], [6.323018, 46.493781], [6.323012, 46.493672], [6.323069, 46.493634], [6.323295, 46.493593], [6.323969, 46.49332], [6.325301, 46.492471], [6.325559, 46.492332], [6.327035, 46.491919], [6.327398, 46.491776], [6.327686, 46.49158], [6.328608, 46.490854], [6.328842, 46.490712], [6.329186, 46.4906], [6.330183, 46.490428], [6.331484, 46.490149], [6.332865, 46.489726], [6.33374, 46.48936], [6.33435, 46.489055], [6.335018, 46.488662], [6.335776, 46.488137], [6.336699, 46.487342], [6.336899, 46.487127], [6.338088, 46.485381], [6.338136, 46.485247], [6.338177, 46.484905], [6.338333, 46.482768], [6.338321, 46.482525], [6.338219, 46.482371], [6.338038, 46.482256], [6.337932, 46.482215], [6.337342, 46.482112], [6.336999, 46.482015], [6.336593, 46.481825], [6.336322, 46.481641], [6.336041, 46.481359], [6.335929, 46.481199], [6.335473, 46.480273], [6.335301, 46.480131], [6.335164, 46.480096], [6.335008, 46.480095], [6.334408, 46.480234], [6.333741, 46.480229], [6.333243, 46.480149], [6.332944, 46.480018], [6.332731, 46.479809], [6.33249, 46.479483], [6.332377, 46.479415], [6.332228, 46.479375], [6.332062, 46.479375], [6.331748, 46.47946], [6.331588, 46.479473], [6.331424, 46.479446], [6.331129, 46.479336], [6.330971, 46.479315], [6.330791, 46.479334], [6.33046, 46.479422], [6.330292, 46.479437], [6.330116, 46.479409], [6.329832, 46.479237], [6.329721, 46.479133], [6.329493, 46.478809], [6.329368, 46.478726], [6.328885, 46.478558], [6.328381, 46.478443], [6.328243, 46.478368], [6.328146, 46.47826], [6.328086, 46.478137], [6.328058, 46.477881], [6.328106, 46.477759], [6.328203, 46.477656], [6.328604, 46.477432], [6.328707, 46.477338], [6.329048, 46.476785], [6.329179, 46.476482], [6.329173, 46.476379], [6.329119, 46.476287], [6.328901, 46.476146], [6.328755, 46.476102], [6.328293, 46.476062], [6.327993, 46.47599], [6.327709, 46.475867], [6.327276, 46.475525], [6.327007, 46.475442], [6.326065, 46.475402], [6.325311, 46.475453], [6.325122, 46.475358], [6.325013, 46.475227], [6.325086, 46.475088], [6.324967, 46.475145], [6.324479, 46.47507], [6.324406, 46.47503], [6.324324, 46.475027], [6.323812, 46.474876], [6.32357, 46.474752], [6.322622, 46.474427], [6.32176, 46.474305], [6.321263, 46.474174], [6.320961, 46.474033], [6.320548, 46.473793], [6.320541, 46.473834], [6.320593, 46.473832], [6.320548, 46.473857], [6.320571, 46.473809], [6.320524, 46.473797], [6.320295, 46.473807], [6.320082, 46.473876], [6.319751, 46.474056], [6.319676, 46.474078], [6.319573, 46.474044], [6.319553, 46.47401], [6.319578, 46.473967], [6.319852, 46.473777], [6.320191, 46.47344], [6.320482, 46.473245], [6.321005, 46.47305], [6.321527, 46.472983], [6.321576, 46.473003], [6.321653, 46.472989], [6.322078, 46.472839], [6.322093, 46.472803], [6.322196, 46.472801], [6.32235, 46.472724], [6.322436, 46.472643], [6.322736, 46.472182], [6.322779, 46.47209], [6.322684, 46.471917], [6.322101, 46.471578], [6.321533, 46.471202], [6.321515, 46.471125], [6.321959, 46.470739], [6.322339, 46.470361], [6.322355, 46.470293], [6.322266, 46.469908], [6.322294, 46.469755], [6.322457, 46.469472], [6.322991, 46.468822], [6.322996, 46.468717], [6.322963, 46.468649], [6.322738, 46.468478], [6.322391, 46.468295], [6.320947, 46.467375], [6.320573, 46.46726], [6.319968, 46.467253], [6.319845, 46.467238], [6.319621, 46.467166], [6.319345, 46.467025], [6.318915, 46.466683], [6.318776, 46.466604], [6.318308, 46.46653], [6.317939, 46.466527], [6.317653, 46.46657], [6.317346, 46.466691], [6.317123, 46.466677], [6.316937, 46.46661], [6.316714, 46.466461], [6.316045, 46.466166], [6.315571, 46.466071], [6.315364, 46.466077], [6.314811, 46.466027], [6.314056, 46.465697], [6.313799, 46.465649], [6.313824, 46.465625], [6.313993, 46.465623], [6.314135, 46.465661], [6.314789, 46.465987], [6.315239, 46.466031], [6.315233, 46.466101], [6.314964, 46.466038], [6.314878, 46.465976], [6.314765, 46.465941], [6.314725, 46.46586], [6.3151, 46.46536], [6.315157, 46.465336], [6.315193, 46.465223], [6.315874, 46.464333], [6.315893, 46.464266], [6.315852, 46.464234], [6.315186, 46.463931], [6.314672, 46.463652], [6.311606, 46.461757], [6.309974, 46.460771], [6.307072, 46.459393], [6.303893, 46.458211], [6.301384, 46.457243], [6.301376, 46.457198], [6.301413, 46.457166], [6.301882, 46.456901], [6.302343, 46.456212], [6.302459, 46.456157], [6.302649, 46.456165], [6.303469, 46.456294], [6.303893, 46.456386], [6.304584, 46.456622], [6.304717, 46.456599], [6.305824, 46.455619], [6.30674, 46.454737], [6.307219, 46.454361], [6.308951, 46.452875], [6.309245, 46.452687], [6.3106, 46.452042], [6.311109, 46.451672], [6.311079, 46.451003], [6.311121, 46.450625], [6.311032, 46.450504], [6.304193, 46.447143], [6.304194, 46.447068], [6.30475, 46.446442], [6.305825, 46.444935], [6.306674, 46.444019], [6.306766, 46.443765], [6.307015, 46.443492], [6.306997, 46.443091], [6.306901, 46.442633], [6.306353, 46.441832], [6.306299, 46.441696], [6.306306, 46.441623], [6.306405, 46.441492], [6.306972, 46.441192], [6.307177, 46.441052], [6.307388, 46.440858], [6.307579, 46.440586], [6.307622, 46.440469], [6.307576, 46.44029], [6.307454, 46.44013], [6.307326, 46.440048], [6.306482, 46.439704], [6.305254, 46.438898], [6.305, 46.438801], [6.304794, 46.438678], [6.304591, 46.43847], [6.304265, 46.438], [6.304134, 46.437868], [6.303388, 46.437309], [6.302843, 46.436957], [6.30235, 46.436585], [6.302013, 46.436407], [6.301971, 46.436361], [6.301827, 46.436297], [6.301665, 46.436261], [6.301034, 46.436265], [6.300658, 46.436207], [6.300457, 46.436112], [6.299792, 46.435643], [6.299674, 46.435608], [6.299534, 46.435657], [6.299132, 46.43589], [6.299018, 46.435886], [6.298962, 46.435856], [6.298946, 46.435813], [6.299001, 46.435763], [6.29916, 46.435693], [6.299186, 46.435715], [6.299153, 46.435723], [6.299152, 46.435704], [6.299149, 46.435747], [6.29923, 46.43573], [6.299167, 46.435731], [6.299187, 46.435685], [6.299139, 46.435661], [6.29898, 46.435736], [6.299048, 46.435703], [6.299025, 46.435692], [6.299056, 46.435678], [6.299045, 46.435658], [6.29912, 46.435695], [6.30016, 46.435369], [6.300023, 46.4354], [6.299869, 46.435522], [6.299843, 46.435487], [6.29977, 46.435475], [6.299661, 46.43551], [6.299504, 46.435626], [6.299497, 46.435587], [6.299533, 46.435593], [6.299518, 46.435617], [6.29942, 46.435632], [6.299488, 46.435632], [6.299402, 46.43563], [6.299362, 46.435654], [6.299397, 46.43567], [6.299376, 46.435731], [6.299347, 46.435633], [6.299369, 46.43557], [6.299403, 46.435577], [6.299372, 46.43563], [6.299148, 46.435656], [6.299196, 46.435643], [6.299203, 46.435611], [6.299195, 46.435677], [6.299207, 46.435623], [6.299248, 46.43566], [6.299208, 46.435677], [6.299229, 46.435694], [6.299185, 46.435696], [6.299213, 46.435696], [6.299237, 46.435761], [6.299271, 46.435718], [6.299229, 46.435765], [6.299284, 46.435783], [6.299253, 46.435777], [6.299276, 46.435658], [6.299257, 46.435684], [6.299269, 46.435662], [6.299238, 46.435684], [6.299187, 46.43568], [6.299245, 46.435665], [6.299181, 46.435624], [6.299185, 46.435653], [6.299221, 46.435626], [6.299191, 46.435627], [6.299182, 46.435665], [6.299207, 46.435694], [6.299217, 46.435656], [6.299169, 46.435665], [6.29922, 46.435645], [6.299175, 46.435661], [6.299147, 46.435636], [6.299196, 46.43566], [6.29916, 46.435676], [6.299194, 46.435647], [6.299161, 46.435651], [6.299169, 46.435676], [6.29917, 46.43565], [6.299143, 46.435654], [6.299187, 46.435693], [6.299202, 46.435658], [6.29925, 46.435663], [6.299216, 46.435674], [6.299191, 46.435653], [6.29915, 46.435682], [6.299142, 46.435665], [6.299101, 46.435681], [6.299171, 46.435715], [6.29924, 46.435714], [6.299216, 46.435703], [6.299249, 46.435695], [6.299185, 46.435648], [6.299187, 46.435673], [6.299208, 46.435663], [6.299178, 46.435631], [6.299215, 46.435626], [6.299217, 46.43566], [6.299281, 46.435675], [6.299237, 46.435702], [6.299185, 46.435655], [6.299218, 46.435654], [6.299239, 46.43569], [6.299233, 46.435645], [6.299167, 46.435633], [6.299085, 46.435656], [6.299097, 46.435641], [6.299101, 46.435661], [6.299221, 46.435677], [6.29913, 46.435681], [6.299189, 46.435693], [6.299078, 46.435675], [6.299072, 46.435649], [6.299091, 46.435688], [6.29911, 46.435674], [6.299066, 46.435666], [6.299137, 46.435684], [6.299181, 46.435656], [6.299159, 46.435618], [6.299134, 46.435637], [6.29908, 46.435628], [6.299151, 46.43565], [6.299107, 46.435661], [6.299116, 46.435642], [6.299164, 46.435672], [6.299149, 46.435649], [6.299152, 46.435685], [6.299106, 46.435682], [6.299157, 46.435638], [6.299134, 46.435647], [6.299195, 46.43568], [6.299149, 46.435696], [6.29921, 46.435683], [6.299188, 46.435699], [6.299221, 46.43573], [6.299175, 46.435765], [6.299203, 46.435744], [6.299213, 46.435763], [6.299214, 46.435736], [6.299224, 46.43577], [6.2992, 46.435702], [6.299239, 46.435682], [6.299255, 46.435726], [6.299179, 46.435731], [6.299191, 46.435761], [6.299253, 46.435723], [6.299278, 46.435741], [6.299258, 46.43577], [6.299325, 46.435829], [6.299292, 46.435719], [6.299311, 46.435676], [6.299336, 46.435685], [6.299258, 46.435678], [6.299244, 46.435586], [6.299273, 46.435654], [6.299325, 46.435686], [6.29891, 46.435969], [6.2992, 46.435684], [6.299222, 46.435689], [6.299167, 46.435724], [6.299201, 46.435719], [6.299186, 46.435739], [6.299173, 46.435713], [6.299231, 46.435732], [6.299267, 46.435712], [6.299109, 46.435675], [6.299093, 46.435758], [6.299012, 46.435791], [6.298991, 46.435833], [6.299028, 46.435929], [6.298693, 46.43604], [6.298046, 46.436357], [6.296935, 46.43696], [6.294663, 46.438106], [6.292577, 46.43936], [6.29249, 46.439357], [6.292452, 46.439329], [6.292062, 46.43865], [6.291545, 46.438024], [6.290822, 46.437458], [6.290724, 46.437481], [6.289776, 46.438103], [6.289492, 46.438259], [6.289295, 46.438268], [6.288846, 46.438161], [6.288742, 46.438117], [6.288561, 46.438019], [6.287271, 46.437096], [6.286523, 46.43652], [6.285819, 46.43591], [6.283986, 46.434099], [6.282894, 46.433082], [6.282454, 46.432626], [6.280685, 46.430939], [6.280449, 46.430693], [6.28032, 46.430483], [6.280011, 46.430288], [6.27915, 46.429473], [6.277884, 46.428191], [6.27635, 46.426732], [6.274509, 46.424903], [6.272995, 46.423459], [6.271785, 46.422259], [6.270465, 46.420875], [6.270289, 46.420725], [6.270081, 46.42049], [6.269966, 46.42028], [6.269795, 46.420173], [6.269596, 46.419997], [6.26867, 46.419093], [6.267346, 46.417908], [6.267266, 46.417785], [6.267297, 46.417701], [6.26748, 46.417609], [6.267977, 46.417221], [6.26927, 46.41632], [6.269277, 46.416244], [6.268708, 46.415767], [6.266712, 46.41419], [6.264038, 46.412126], [6.2639, 46.412109], [6.263781, 46.412175], [6.262737, 46.413321], [6.262728, 46.413299], [6.26278, 46.413255], [6.262578, 46.413258], [6.262243, 46.412946], [6.262148, 46.412816], [6.262138, 46.412751], [6.262004, 46.412651], [6.261517, 46.412044], [6.261411, 46.411838], [6.261416, 46.411792], [6.261367, 46.411767], [6.261398, 46.411741], [6.261335, 46.411765], [6.261266, 46.411745], [6.261147, 46.411777], [6.260865, 46.411915], [6.260816, 46.41204], [6.260639, 46.412159], [6.260527, 46.412408], [6.260267, 46.412835], [6.260093, 46.412967], [6.259466, 46.413147], [6.259117, 46.413283], [6.258985, 46.413298], [6.258631, 46.413504], [6.258366, 46.413737], [6.257746, 46.414035], [6.257676, 46.414084], [6.257608, 46.414185], [6.25754, 46.414201], [6.256724, 46.413712], [6.256421, 46.413592], [6.256074, 46.413532], [6.255079, 46.413473], [6.25492, 46.413428], [6.254842, 46.413364], [6.254765, 46.413253], [6.253971, 46.41153], [6.253976, 46.411441], [6.254092, 46.411386], [6.254311, 46.411339], [6.255457, 46.410861], [6.255823, 46.410742], [6.256315, 46.410659], [6.257349, 46.410545], [6.257641, 46.410469], [6.260036, 46.409427], [6.260448, 46.409151], [6.260483, 46.409094], [6.260468, 46.409034], [6.26012, 46.408783], [6.25785, 46.407299], [6.257683, 46.407236], [6.257288, 46.407244], [6.257099, 46.407219], [6.256953, 46.407136], [6.255109, 46.40505], [6.254424, 46.404313], [6.253392, 46.403114], [6.252414, 46.402095], [6.25231, 46.40192], [6.252264, 46.401089], [6.252116, 46.400847], [6.252011, 46.40082], [6.251581, 46.401014], [6.251413, 46.401032], [6.25015, 46.400009], [6.249892, 46.399845], [6.249414, 46.399426], [6.249105, 46.399222], [6.248263, 46.398536], [6.247895, 46.398195], [6.247461, 46.397889], [6.247334, 46.397767], [6.246091, 46.396816], [6.244771, 46.395717], [6.244556, 46.395577], [6.244237, 46.395314], [6.2436, 46.394735], [6.243457, 46.394571], [6.24336, 46.394401], [6.242958, 46.394015], [6.242585, 46.393497], [6.242344, 46.393098], [6.241773, 46.391955], [6.24142, 46.390955], [6.241307, 46.390797], [6.241329, 46.390713], [6.241302, 46.390591], [6.241032, 46.389884], [6.240661, 46.388743], [6.240568, 46.388508], [6.240427, 46.388362], [6.240433, 46.388176], [6.240376, 46.388177], [6.240335, 46.388287], [6.240261, 46.388287], [6.240185, 46.388252], [6.240128, 46.388195], [6.239998, 46.387902], [6.240006, 46.387779], [6.240238, 46.387458], [6.24015, 46.387359], [6.24017, 46.387268], [6.241101, 46.386134], [6.241168, 46.385899], [6.241149, 46.38562], [6.24093, 46.384856], [6.240691, 46.384353], [6.240375, 46.383971], [6.239655, 46.383409], [6.239428, 46.383196], [6.23926, 46.382796], [6.239235, 46.38251], [6.238927, 46.38211], [6.238583, 46.381418], [6.238576, 46.381332], [6.23842, 46.38095], [6.238412, 46.380713], [6.238334, 46.380475], [6.238199, 46.380276], [6.238205, 46.380103], [6.238459, 46.379549], [6.238469, 46.379449], [6.238397, 46.378947], [6.23832, 46.378762], [6.238164, 46.378518], [6.237821, 46.378174], [6.237575, 46.378006], [6.23565, 46.377077], [6.235269, 46.376849], [6.234616, 46.376124], [6.233778, 46.375028], [6.233392, 46.374588], [6.232769, 46.373754], [6.2319, 46.372949], [6.231722, 46.372843], [6.231622, 46.372716], [6.230779, 46.371955], [6.230178, 46.37148], [6.229348, 46.370932], [6.228674, 46.370535], [6.228202, 46.370291], [6.227882, 46.37018], [6.227612, 46.370042], [6.227228, 46.369901], [6.227013, 46.369702], [6.226754, 46.369602], [6.225439, 46.368929], [6.224635, 46.368465], [6.223713, 46.367808], [6.222826, 46.367017], [6.222353, 46.366502], [6.22189, 46.365909], [6.221426, 46.365215], [6.219749, 46.362848], [6.218756, 46.36165], [6.217973, 46.360826], [6.216892, 46.359816], [6.216153, 46.359183], [6.215753, 46.358956], [6.215705, 46.358717], [6.214903, 46.357967], [6.213364, 46.356383], [6.211186, 46.354093], [6.209315, 46.352172], [6.208714, 46.351528], [6.208158, 46.350875], [6.20756, 46.350018], [6.207224, 46.349399], [6.20696, 46.348812], [6.206708, 46.348059], [6.206214, 46.345981]]}, "properties": {"name": "1785668072.Col_de_Marchairuz", "cmt": "2026-08-02", "tstamp": 1785628800, "desc": "DownHill", "src": "6.177877/46.331402/6.338333/46.559981", "bbox": "6.177877/46.331402/6.338333/46.559981"}}, {"type": "Feature", "bbox": [6.177877, 46.331402, 6.338333, 46.559981], "geometry": {"type": "LineString", "coordinates": [[6.206186, 46.345868], [6.206009, 46.345187], [6.205858, 46.344381], [6.205483, 46.342861], [6.205438, 46.342807], [6.205352, 46.34278], [6.205264, 46.342794], [6.205197, 46.342837], [6.20508, 46.343027], [6.204786, 46.343248], [6.204306, 46.343449], [6.204168, 46.343456], [6.203504, 46.342787], [6.203204, 46.34258], [6.202756, 46.342344], [6.202436, 46.342072], [6.202026, 46.341308], [6.201818, 46.340806], [6.201643, 46.340257], [6.201515, 46.340032], [6.201269, 46.339721], [6.20099, 46.339456], [6.200467, 46.338879], [6.200026, 46.338476], [6.199094, 46.337696], [6.198921, 46.33749], [6.198668, 46.337088], [6.198369, 46.336728], [6.197923, 46.336432], [6.19609, 46.335333], [6.195512, 46.335063], [6.19537, 46.334949], [6.194729, 46.334603], [6.194191, 46.334194], [6.193373, 46.333818], [6.192823, 46.333339], [6.192529, 46.332456], [6.192442, 46.332308], [6.192442, 46.332237], [6.192769, 46.332198], [6.193, 46.332143], [6.193026, 46.332099], [6.192978, 46.331957], [6.193151, 46.331907], [6.193518, 46.331871], [6.193838, 46.331808], [6.193983, 46.331854], [6.194162, 46.331853], [6.194606, 46.331713], [6.194721, 46.331599], [6.194613, 46.331402], [6.194203, 46.331465], [6.194073, 46.331507], [6.193949, 46.331607], [6.193987, 46.331593], [6.194219, 46.331698], [6.194176, 46.3317], [6.194219, 46.331698], [6.194186, 46.331684], [6.194219, 46.331698]]}, "properties": {"name": "1785668072.Col_de_Marchairuz", "cmt": "2026-08-02", "tstamp": 1785628800, "desc": "UpHill", "src": "6.177877/46.331402/6.338333/46.559981", "bbox": "6.177877/46.331402/6.338333/46.559981"}}]}