{"type": "FeatureCollection", "name": "TrackSet", "crs": {"type": "name", "properties": {"name": "urn:ogc:def:crs:OGC:1.3:CRS84"}}, "bbox": [-0.285057, 51.041808, -0.229186, 51.08146], "features": [{"type": "Feature", "bbox": [-0.285057, 51.041808, -0.229186, 51.08146], "geometry": {"type": "LineString", "coordinates": [[-0.284988, 51.045574], [-0.285026, 51.045552], [-0.284983, 51.045289], [-0.284953, 51.045261], [-0.284768, 51.045219], [-0.284452, 51.045259], [-0.283889, 51.045272], [-0.283105, 51.045193], [-0.282971, 51.045207], [-0.282915, 51.045241], [-0.282386, 51.045871], [-0.282174, 51.04617], [-0.282041, 51.046429], [-0.281788, 51.047041], [-0.281676, 51.047415], [-0.281562, 51.047892], [-0.281547, 51.048282], [-0.281238, 51.048771], [-0.281002, 51.048996], [-0.280807, 51.049155], [-0.280415, 51.049373], [-0.27981, 51.049664], [-0.279485, 51.049775], [-0.278956, 51.049849], [-0.278007, 51.049814], [-0.277467, 51.049841], [-0.27689, 51.049947], [-0.276597, 51.050052], [-0.276302, 51.050197], [-0.276148, 51.050431], [-0.276032, 51.050511], [-0.275885, 51.050737], [-0.275593, 51.051013], [-0.275444, 51.051239], [-0.275239, 51.051434], [-0.27501, 51.051713], [-0.274936, 51.051896], [-0.274783, 51.052076], [-0.274654, 51.052337], [-0.274367, 51.052703], [-0.274195, 51.052673], [-0.273006, 51.052154], [-0.272776, 51.052079], [-0.271684, 51.051813], [-0.271452, 51.051722], [-0.270803, 51.051352], [-0.269833, 51.050549], [-0.269221, 51.050126], [-0.269096, 51.050081], [-0.26911, 51.050099], [-0.269014, 51.050129], [-0.269013, 51.050165], [-0.268815, 51.050362], [-0.268786, 51.050523], [-0.26862, 51.050841], [-0.268432, 51.051028], [-0.268117, 51.051471], [-0.267563, 51.052031], [-0.267172, 51.052586], [-0.266987, 51.052942], [-0.266703, 51.053181], [-0.266474, 51.053535], [-0.266221, 51.05383], [-0.265891, 51.054293], [-0.265803, 51.054367], [-0.264851, 51.055586], [-0.264511, 51.056139], [-0.264213, 51.056449], [-0.264005, 51.05676], [-0.263827, 51.056937], [-0.263765, 51.0571], [-0.263344, 51.057614], [-0.263215, 51.057835], [-0.262984, 51.058069], [-0.262999, 51.058212], [-0.26383, 51.058417], [-0.264015, 51.058407], [-0.26426, 51.058291], [-0.264467, 51.058268], [-0.264587, 51.058282], [-0.264687, 51.058359], [-0.264785, 51.058729], [-0.264836, 51.059415], [-0.264782, 51.06038], [-0.264809, 51.061148], [-0.264768, 51.062144], [-0.264796, 51.062383], [-0.264756, 51.062699], [-0.264807, 51.063301], [-0.264787, 51.065158], [-0.264829, 51.065546], [-0.264804, 51.066803], [-0.264747, 51.067695], [-0.264805, 51.068231], [-0.264793, 51.068542], [-0.264843, 51.068845], [-0.264796, 51.069246], [-0.264861, 51.069406], [-0.264869, 51.069682], [-0.264795, 51.070011], [-0.264829, 51.070439], [-0.264745, 51.071137], [-0.264789, 51.071488], [-0.264781, 51.072085], [-0.26484, 51.072406], [-0.264773, 51.072918], [-0.264787, 51.073086], [-0.264711, 51.073205], [-0.264515, 51.073285], [-0.264144, 51.073376], [-0.263967, 51.073446], [-0.263387, 51.073761], [-0.262946, 51.073932], [-0.262295, 51.074235], [-0.261413, 51.074815], [-0.260862, 51.075223], [-0.260664, 51.075414], [-0.260129, 51.075812], [-0.259467, 51.076377], [-0.259323, 51.076463], [-0.25855, 51.077196], [-0.257635, 51.077915], [-0.25747, 51.078079], [-0.257017, 51.078342], [-0.256902, 51.078483], [-0.256668, 51.07861], [-0.255882, 51.07921], [-0.255448, 51.079452], [-0.255074, 51.079814], [-0.254383, 51.080267], [-0.254267, 51.080437], [-0.252612, 51.080383], [-0.251403, 51.080433], [-0.250463, 51.080518], [-0.249099, 51.080697], [-0.248771, 51.080719], [-0.248065, 51.080865], [-0.247316, 51.08095], [-0.245535, 51.08131], [-0.245246, 51.081325], [-0.244559, 51.081432], [-0.244226, 51.08146], [-0.243498, 51.08107], [-0.242969, 51.080853], [-0.24122, 51.080057], [-0.240985, 51.07997], [-0.239462, 51.079545], [-0.238387, 51.079012], [-0.237597, 51.078691], [-0.235871, 51.078243], [-0.235534, 51.078107], [-0.233736, 51.0776], [-0.233221, 51.077377], [-0.232808, 51.077158], [-0.231976, 51.076644], [-0.231396, 51.076176], [-0.231028, 51.075768], [-0.230814, 51.075471], [-0.230553, 51.075205], [-0.229186, 51.07363], [-0.229291, 51.0735], [-0.229952, 51.073068], [-0.230076, 51.072954], [-0.23068, 51.072589], [-0.232278, 51.071438], [-0.233508, 51.070638], [-0.23382, 51.070407], [-0.23478, 51.069811], [-0.235477, 51.069296], [-0.236096, 51.069038], [-0.236536, 51.068815], [-0.237059, 51.068518], [-0.237743, 51.068081], [-0.238096, 51.067798], [-0.239143, 51.066808], [-0.239585, 51.066431], [-0.241001, 51.065368], [-0.241204, 51.065255], [-0.242367, 51.064406], [-0.245058, 51.062385], [-0.245615, 51.062031], [-0.245979, 51.061834], [-0.246418, 51.061538], [-0.248372, 51.059896], [-0.248884, 51.059359], [-0.249297, 51.059051], [-0.251035, 51.057945], [-0.251371, 51.057701], [-0.251762, 51.057271], [-0.252014, 51.056939], [-0.252186, 51.056642], [-0.252666, 51.055975], [-0.253382, 51.055308], [-0.254028, 51.054632], [-0.254323, 51.054361], [-0.25496, 51.053862], [-0.255546, 51.05354], [-0.257824, 51.05244], [-0.258417, 51.05204], [-0.260617, 51.050748], [-0.261354, 51.050349], [-0.26239, 51.049677], [-0.263367, 51.04912], [-0.263783, 51.048783], [-0.263786, 51.048704], [-0.263732, 51.048669], [-0.263318, 51.048651], [-0.262975, 51.048585], [-0.262424, 51.048427], [-0.262135, 51.048284], [-0.262031, 51.048099], [-0.262009, 51.047894], [-0.262008, 51.047789], [-0.262223, 51.047367], [-0.262211, 51.047287], [-0.262121, 51.04715], [-0.261816, 51.046923], [-0.261628, 51.04683], [-0.261421, 51.046779], [-0.260935, 51.04672], [-0.260749, 51.046649], [-0.260641, 51.04665], [-0.260457, 51.046574], [-0.260217, 51.046368], [-0.260102, 51.046157], [-0.260113, 51.046025], [-0.260071, 51.045884], [-0.2602, 51.045236], [-0.260172, 51.044888], [-0.26024, 51.044596], [-0.260395, 51.044263], [-0.260633, 51.044011], [-0.260768, 51.043796], [-0.261004, 51.043236], [-0.260983, 51.042684], [-0.260888, 51.042318], [-0.260777, 51.042119], [-0.260768, 51.041962], [-0.260819, 51.041857], [-0.260973, 51.041822], [-0.261117, 51.041838], [-0.261394, 51.041808], [-0.263122, 51.041909], [-0.264016, 51.041914], [-0.264485, 51.041949], [-0.266514, 51.042483], [-0.267413, 51.04281], [-0.268009, 51.043081], [-0.268742, 51.043321], [-0.268891, 51.0434], [-0.269082, 51.043609], [-0.2691, 51.043692], [-0.269406, 51.044143], [-0.269723, 51.044323], [-0.269861, 51.044471], [-0.270083, 51.044581], [-0.270345, 51.044793], [-0.270445, 51.044921], [-0.270746, 51.04519], [-0.271188, 51.045334], [-0.271481, 51.045346], [-0.271559, 51.045379], [-0.271697, 51.045364], [-0.271794, 51.0454], [-0.272422, 51.045236], [-0.272918, 51.045139], [-0.274886, 51.044974], [-0.275659, 51.045027], [-0.277661, 51.045307], [-0.278561, 51.045293], [-0.278999, 51.045243], [-0.280057, 51.045067], [-0.281532, 51.044972], [-0.282695, 51.04481], [-0.28298, 51.044843], [-0.283058, 51.044888], [-0.283075, 51.044977], [-0.283029, 51.045092], [-0.283059, 51.045143], [-0.283151, 51.045183], [-0.284086, 51.045232], [-0.284939, 51.045192], [-0.285017, 51.04522], [-0.285057, 51.045277], [-0.28503, 51.045574]]}, "properties": {"name": "1786605829.Thursday_Whale_🐋", "cmt": "2026-08-13", "tstamp": 1786579200, "desc": "---", "src": "-0.285057/51.041808/-0.229186/51.08146", "bbox": "-0.285057/51.041808/-0.229186/51.08146"}}]}