{"type": "FeatureCollection", "name": "TrackSet", "crs": {"type": "name", "properties": {"name": "urn:ogc:def:crs:OGC:1.3:CRS84"}}, "bbox": [6.193109, 46.327755, 6.229132, 46.370674], "features": [{"type": "Feature", "bbox": [6.193109, 46.327755, 6.229132, 46.370674], "geometry": {"type": "LineString", "coordinates": [[6.194657, 46.331482], [6.19441, 46.330915], [6.193957, 46.330149], [6.193761, 46.330111], [6.193227, 46.330186], [6.193151, 46.330143], [6.193109, 46.330009], [6.193135, 46.329793], [6.193295, 46.329638], [6.193603, 46.329556], [6.195349, 46.32922], [6.196045, 46.329042], [6.197668, 46.328508], [6.199614, 46.327767], [6.1997, 46.327755], [6.199863, 46.327799], [6.19992, 46.327908], [6.200151, 46.328097], [6.200645, 46.328665], [6.201274, 46.329493], [6.201631, 46.330085], [6.201925, 46.330692], [6.202237, 46.331484], [6.202383, 46.332145], [6.202448, 46.332709], [6.202452, 46.333936], [6.202481, 46.334183], [6.202449, 46.33451], [6.202458, 46.335331], [6.202594, 46.336219], [6.202799, 46.336965], [6.202968, 46.33743], [6.203396, 46.33828], [6.203868, 46.339022], [6.204728, 46.34022], [6.205157, 46.341084], [6.205491, 46.342235], [6.206825, 46.347879], [6.207041, 46.348566], [6.207219, 46.349015], [6.207509, 46.349607], [6.207884, 46.350241], [6.208332, 46.350842], [6.209011, 46.351631], [6.211105, 46.353839], [6.214715, 46.357593], [6.215531, 46.358399], [6.21579, 46.358716], [6.216309, 46.359143], [6.217896, 46.360562], [6.21882, 46.361545], [6.219271, 46.362063], [6.220039, 46.363045], [6.222401, 46.366381], [6.223186, 46.367211], [6.223814, 46.367736], [6.224777, 46.368412], [6.225232, 46.36869], [6.225924, 46.36905], [6.228747, 46.370419], [6.229048, 46.370607], [6.229132, 46.370552], [6.229121, 46.370429], [6.228837, 46.370025], [6.228809, 46.370017], [6.227931, 46.370628], [6.227789, 46.370674], [6.227643, 46.370637]]}, "properties": {"name": "1786165543.To_the_Triathlon", "cmt": "2026-08-08", "tstamp": 1786147200, "desc": "---", "src": "6.193109/46.327755/6.229132/46.370674", "bbox": "6.193109/46.327755/6.229132/46.370674"}}]}