{"type": "FeatureCollection", "name": "TrackSet", "crs": {"type": "name", "properties": {"name": "urn:ogc:def:crs:OGC:1.3:CRS84"}}, "bbox": [-0.285052, 51.041806, -0.229186, 51.081476], "features": [{"type": "Feature", "bbox": [-0.285052, 51.041806, -0.229186, 51.081476], "geometry": {"type": "LineString", "coordinates": [[-0.285001, 51.045554], [-0.285051, 51.045559], [-0.284993, 51.045567], [-0.284984, 51.045332], [-0.284948, 51.045241], [-0.284905, 51.045223], [-0.284255, 51.045279], [-0.283829, 51.045273], [-0.283073, 51.045201], [-0.28295, 51.045225], [-0.282382, 51.045885], [-0.282018, 51.046464], [-0.281646, 51.047489], [-0.281561, 51.047933], [-0.28155, 51.048327], [-0.281275, 51.048713], [-0.280983, 51.049031], [-0.280618, 51.049306], [-0.279499, 51.04981], [-0.279094, 51.049865], [-0.27811, 51.049842], [-0.277455, 51.049861], [-0.277089, 51.049912], [-0.276624, 51.050077], [-0.276307, 51.050288], [-0.275979, 51.050688], [-0.275601, 51.05101], [-0.275561, 51.051141], [-0.275195, 51.051493], [-0.274938, 51.051879], [-0.274825, 51.051989], [-0.274444, 51.052611], [-0.274341, 51.052695], [-0.274174, 51.052678], [-0.272773, 51.052072], [-0.272036, 51.051936], [-0.271321, 51.051659], [-0.271052, 51.051513], [-0.270868, 51.051347], [-0.270626, 51.051205], [-0.26955, 51.050364], [-0.269164, 51.0501], [-0.269048, 51.0501], [-0.268983, 51.050218], [-0.268797, 51.050345], [-0.268794, 51.050438], [-0.268665, 51.050679], [-0.268101, 51.051482], [-0.267983, 51.051618], [-0.267507, 51.052026], [-0.266995, 51.052849], [-0.266598, 51.053315], [-0.266403, 51.053606], [-0.266204, 51.053835], [-0.266116, 51.053997], [-0.265509, 51.054715], [-0.26516, 51.055216], [-0.264898, 51.055514], [-0.264533, 51.056096], [-0.264195, 51.056482], [-0.263632, 51.057281], [-0.262973, 51.058094], [-0.262989, 51.058164], [-0.263167, 51.058229], [-0.263882, 51.058411], [-0.264023, 51.058405], [-0.264378, 51.058271], [-0.264581, 51.058272], [-0.26472, 51.058418], [-0.264786, 51.058651], [-0.264806, 51.060045], [-0.264759, 51.063136], [-0.264812, 51.064349], [-0.264802, 51.06526], [-0.264764, 51.065652], [-0.264791, 51.066075], [-0.264772, 51.068211], [-0.264825, 51.0687], [-0.264792, 51.06945], [-0.264839, 51.069714], [-0.264782, 51.070019], [-0.264849, 51.070357], [-0.264778, 51.071153], [-0.264834, 51.072265], [-0.264827, 51.072947], [-0.264795, 51.073058], [-0.26465, 51.073251], [-0.26405, 51.073424], [-0.26358, 51.073677], [-0.262276, 51.074253], [-0.261819, 51.074515], [-0.26091, 51.075166], [-0.259669, 51.076216], [-0.259172, 51.076612], [-0.259066, 51.076669], [-0.258799, 51.077012], [-0.25769, 51.077898], [-0.257551, 51.077983], [-0.257472, 51.078077], [-0.256964, 51.078395], [-0.256961, 51.07843], [-0.256864, 51.078511], [-0.256575, 51.078694], [-0.255999, 51.079147], [-0.255463, 51.079463], [-0.255007, 51.079868], [-0.254731, 51.080014], [-0.254482, 51.080184], [-0.254249, 51.080444], [-0.254112, 51.080453], [-0.253908, 51.08039], [-0.253659, 51.080369], [-0.253467, 51.080395], [-0.253063, 51.080388], [-0.252611, 51.080431], [-0.25142, 51.080382], [-0.251164, 51.080407], [-0.250794, 51.080485], [-0.249327, 51.08068], [-0.248701, 51.080698], [-0.248426, 51.080765], [-0.248201, 51.080791], [-0.247892, 51.080891], [-0.246486, 51.081096], [-0.245964, 51.081223], [-0.245583, 51.081247], [-0.244847, 51.081391], [-0.244239, 51.081476], [-0.244033, 51.08139], [-0.243874, 51.08127], [-0.243303, 51.080987], [-0.241626, 51.080225], [-0.241039, 51.07999], [-0.239389, 51.079525], [-0.238192, 51.078907], [-0.237544, 51.078658], [-0.23732, 51.078585], [-0.236665, 51.078439], [-0.236489, 51.078371], [-0.236025, 51.078283], [-0.234691, 51.077879], [-0.233292, 51.077408], [-0.232457, 51.076968], [-0.23191, 51.076596], [-0.231505, 51.07628], [-0.231038, 51.075845], [-0.230831, 51.075567], [-0.230418, 51.075137], [-0.229796, 51.074302], [-0.229186, 51.073656], [-0.229244, 51.073555], [-0.230581, 51.072663], [-0.232392, 51.071355], [-0.233521, 51.070633], [-0.234081, 51.070234], [-0.234705, 51.069863], [-0.235496, 51.0693], [-0.236167, 51.069022], [-0.237163, 51.068462], [-0.237824, 51.068048], [-0.238146, 51.06779], [-0.238382, 51.067508], [-0.239399, 51.066607], [-0.241593, 51.064961], [-0.241889, 51.064781], [-0.242271, 51.064458], [-0.245057, 51.062396], [-0.246336, 51.061612], [-0.248085, 51.060143], [-0.249074, 51.059201], [-0.250052, 51.058561], [-0.251098, 51.057939], [-0.251267, 51.057796], [-0.251747, 51.057302], [-0.252311, 51.056407], [-0.252597, 51.056084], [-0.253217, 51.055458], [-0.254032, 51.054703], [-0.254334, 51.054364], [-0.254944, 51.053867], [-0.255195, 51.053711], [-0.256141, 51.053245], [-0.257956, 51.052297], [-0.259648, 51.051325], [-0.263258, 51.049156], [-0.263539, 51.04896], [-0.263776, 51.04873], [-0.26377, 51.048652], [-0.263675, 51.048632], [-0.263411, 51.048637], [-0.263119, 51.048594], [-0.262592, 51.048476], [-0.262224, 51.048332], [-0.262076, 51.048169], [-0.262004, 51.047982], [-0.262028, 51.047679], [-0.262136, 51.047448], [-0.262162, 51.047308], [-0.262136, 51.047227], [-0.262016, 51.047087], [-0.261809, 51.046911], [-0.261625, 51.046819], [-0.261161, 51.04676], [-0.261044, 51.046701], [-0.260736, 51.046629], [-0.260365, 51.046472], [-0.260176, 51.046311], [-0.260123, 51.046162], [-0.26012, 51.045991], [-0.260153, 51.045636], [-0.26013, 51.045439], [-0.260169, 51.045257], [-0.260137, 51.04493], [-0.260169, 51.04477], [-0.260268, 51.044456], [-0.260649, 51.043883], [-0.260846, 51.043421], [-0.260872, 51.042585], [-0.260767, 51.04206], [-0.260809, 51.04183], [-0.260949, 51.041806], [-0.26118, 51.041846], [-0.263918, 51.041914], [-0.264383, 51.041951], [-0.265657, 51.042249], [-0.266739, 51.042598], [-0.26883, 51.043372], [-0.269027, 51.04355], [-0.269333, 51.044099], [-0.269726, 51.044362], [-0.270082, 51.044674], [-0.270356, 51.044833], [-0.270589, 51.045056], [-0.270795, 51.045196], [-0.270994, 51.045259], [-0.27134, 51.045302], [-0.271464, 51.04528], [-0.27159, 51.045299], [-0.27181, 51.045285], [-0.272847, 51.04512], [-0.273974, 51.04505], [-0.274589, 51.044971], [-0.274889, 51.044957], [-0.275454, 51.045005], [-0.275963, 51.0451], [-0.276788, 51.045197], [-0.277066, 51.045251], [-0.27764, 51.045311], [-0.27794, 51.045302], [-0.278526, 51.045268], [-0.279782, 51.045086], [-0.280608, 51.045008], [-0.281406, 51.044968], [-0.282427, 51.044833], [-0.282776, 51.04481], [-0.283055, 51.04486], [-0.283077, 51.044893], [-0.283028, 51.045097], [-0.283167, 51.045175], [-0.284013, 51.045241], [-0.284972, 51.045198], [-0.285033, 51.045234], [-0.285052, 51.045289], [-0.285033, 51.045583]]}, "properties": {"name": "1786519282.Wake_up_Whale", "cmt": "2026-08-12", "tstamp": 1786492800, "desc": "---", "src": "-0.285052/51.041806/-0.229186/51.081476", "bbox": "-0.285052/51.041806/-0.229186/51.081476"}}]}