{"type": "FeatureCollection", "name": "TrackSet", "crs": {"type": "name", "properties": {"name": "urn:ogc:def:crs:OGC:1.3:CRS84"}}, "bbox": [-0.341951, 51.044448, -0.284618, 51.065722], "features": [{"type": "Feature", "bbox": [-0.341951, 51.044448, -0.284618, 51.065722], "geometry": {"type": "LineString", "coordinates": [[-0.285082, 51.045365], [-0.285165, 51.045443], [-0.28504, 51.045568], [-0.284934, 51.04559], [-0.285015, 51.045583], [-0.284994, 51.045506], [-0.285033, 51.045457], [-0.284968, 51.045263], [-0.285039, 51.045196], [-0.286763, 51.044987], [-0.28774, 51.044829], [-0.288189, 51.044692], [-0.288289, 51.044619], [-0.288387, 51.044455], [-0.288547, 51.044448], [-0.289156, 51.044779], [-0.290694, 51.045468], [-0.292098, 51.046155], [-0.292428, 51.046341], [-0.293291, 51.046923], [-0.293593, 51.047082], [-0.294179, 51.047353], [-0.295162, 51.047729], [-0.296244, 51.048186], [-0.29726, 51.048724], [-0.298119, 51.049368], [-0.298472, 51.049569], [-0.298842, 51.049846], [-0.299234, 51.050241], [-0.299335, 51.050433], [-0.299346, 51.050684], [-0.299317, 51.050736], [-0.299421, 51.050979], [-0.299445, 51.051298], [-0.299543, 51.051554], [-0.299694, 51.051759], [-0.300154, 51.052082], [-0.300282, 51.052139], [-0.300639, 51.052482], [-0.300929, 51.052646], [-0.30153, 51.052825], [-0.303403, 51.053233], [-0.304355, 51.053548], [-0.304824, 51.053661], [-0.305688, 51.053844], [-0.306711, 51.054014], [-0.308441, 51.054503], [-0.311175, 51.055224], [-0.312377, 51.055645], [-0.312827, 51.055825], [-0.313062, 51.055975], [-0.314401, 51.057003], [-0.31455, 51.057153], [-0.314917, 51.057407], [-0.315867, 51.058192], [-0.316153, 51.058372], [-0.31618, 51.058345], [-0.31614, 51.05834], [-0.31614, 51.058368], [-0.316226, 51.058302], [-0.316698, 51.057697], [-0.317558, 51.056862], [-0.317702, 51.056674], [-0.317775, 51.056518], [-0.317803, 51.056543], [-0.317735, 51.056671], [-0.317595, 51.056772], [-0.317365, 51.057092], [-0.31729, 51.057129], [-0.317236, 51.057221], [-0.31712, 51.057298], [-0.317035, 51.057434], [-0.316728, 51.057721], [-0.316145, 51.058416], [-0.316475, 51.058657], [-0.316931, 51.058858], [-0.317217, 51.058955], [-0.318705, 51.059294], [-0.319339, 51.059473], [-0.321801, 51.060076], [-0.324255, 51.06093], [-0.324923, 51.061141], [-0.325652, 51.061322], [-0.326033, 51.061443], [-0.326166, 51.061444], [-0.326246, 51.061498], [-0.32646, 51.061535], [-0.326993, 51.061708], [-0.327461, 51.061819], [-0.328021, 51.062052], [-0.328114, 51.062038], [-0.328274, 51.061937], [-0.32839, 51.061964], [-0.328434, 51.061944], [-0.328655, 51.061715], [-0.328843, 51.061655], [-0.32898, 51.061683], [-0.329093, 51.061736], [-0.329185, 51.061999], [-0.329269, 51.062054], [-0.33012, 51.062206], [-0.330872, 51.062424], [-0.331313, 51.062482], [-0.331551, 51.062548], [-0.331784, 51.062655], [-0.332209, 51.062755], [-0.332287, 51.06282], [-0.332521, 51.062916], [-0.332623, 51.063017], [-0.332546, 51.063155], [-0.332565, 51.063206], [-0.332375, 51.063447], [-0.332425, 51.063496], [-0.332568, 51.063524], [-0.332603, 51.063505], [-0.332743, 51.063521], [-0.332793, 51.06357], [-0.332957, 51.063581], [-0.333084, 51.063667], [-0.333168, 51.06366], [-0.333269, 51.06374], [-0.333416, 51.063818], [-0.333446, 51.063813], [-0.333514, 51.063876], [-0.33439, 51.064212], [-0.335582, 51.064545], [-0.336616, 51.064734], [-0.338035, 51.065229], [-0.338399, 51.065306], [-0.340446, 51.065594], [-0.341788, 51.065661], [-0.341903, 51.065604], [-0.341886, 51.06526], [-0.341778, 51.065154], [-0.341589, 51.065169], [-0.341495, 51.065132], [-0.341563, 51.06497], [-0.341544, 51.064918], [-0.341608, 51.064919], [-0.341511, 51.065131], [-0.341554, 51.065173], [-0.341768, 51.065162], [-0.341873, 51.065211], [-0.341911, 51.065594], [-0.341919, 51.065633], [-0.341951, 51.065632], [-0.341926, 51.065697], [-0.341796, 51.065722], [-0.341234, 51.065722], [-0.340751, 51.065687], [-0.339379, 51.065527], [-0.338101, 51.065337], [-0.336618, 51.064865], [-0.335917, 51.064692], [-0.335504, 51.064619], [-0.334585, 51.064342], [-0.333281, 51.063999], [-0.333147, 51.064023], [-0.332975, 51.064241], [-0.332667, 51.064408], [-0.332389, 51.064529], [-0.332034, 51.064587], [-0.331439, 51.064589], [-0.329174, 51.064402], [-0.327939, 51.064224], [-0.327936, 51.064288], [-0.32764, 51.064391], [-0.327452, 51.064501], [-0.327442, 51.06446], [-0.327599, 51.064302], [-0.328045, 51.064163], [-0.327913, 51.064179], [-0.328216, 51.063973], [-0.328403, 51.064008], [-0.328448, 51.063998], [-0.328366, 51.063949], [-0.328188, 51.063953], [-0.328224, 51.063718], [-0.328292, 51.063609], [-0.328306, 51.063448], [-0.328359, 51.063345], [-0.328331, 51.063315], [-0.328188, 51.063273], [-0.32797, 51.063118], [-0.32777, 51.063052], [-0.327753, 51.063035], [-0.327784, 51.063043], [-0.327827, 51.062985], [-0.327748, 51.062996], [-0.327796, 51.062899], [-0.327711, 51.062983], [-0.327511, 51.062932], [-0.327465, 51.062955], [-0.327498, 51.063189], [-0.327887, 51.06314], [-0.327852, 51.06311], [-0.327803, 51.062866], [-0.32785, 51.063098], [-0.327801, 51.063106], [-0.327791, 51.063073], [-0.327847, 51.063221], [-0.327538, 51.063496], [-0.327581, 51.063404], [-0.327546, 51.063362], [-0.327572, 51.063335], [-0.327625, 51.063332], [-0.327594, 51.063292], [-0.327694, 51.063125], [-0.327752, 51.063107], [-0.327793, 51.063125], [-0.32775, 51.063097], [-0.327953, 51.063136], [-0.328069, 51.063214], [-0.3282, 51.063184], [-0.328247, 51.063214], [-0.3283, 51.063213], [-0.327571, 51.063331], [-0.32737, 51.063292], [-0.327439, 51.063333], [-0.327441, 51.063297], [-0.327353, 51.063251], [-0.32751, 51.063114], [-0.327758, 51.063121], [-0.327776, 51.063096], [-0.327797, 51.063141], [-0.327812, 51.063089], [-0.327589, 51.062941], [-0.327465, 51.062793], [-0.327619, 51.062721], [-0.327631, 51.062609], [-0.327674, 51.062624], [-0.327635, 51.062593], [-0.327684, 51.062594], [-0.327818, 51.062332], [-0.327975, 51.062178], [-0.327969, 51.062075], [-0.327842, 51.061995], [-0.327644, 51.061912], [-0.327506, 51.061903], [-0.327348, 51.061859], [-0.32718, 51.061776], [-0.326535, 51.061631], [-0.326428, 51.06157], [-0.326194, 51.061532], [-0.326088, 51.061539], [-0.325194, 51.06138], [-0.323802, 51.060841], [-0.322628, 51.060441], [-0.32245, 51.060402], [-0.321916, 51.060197], [-0.316694, 51.058862], [-0.316469, 51.058761], [-0.316241, 51.058613], [-0.314645, 51.057337], [-0.314199, 51.056944], [-0.312981, 51.056013], [-0.312727, 51.055861], [-0.312419, 51.055735], [-0.310744, 51.055196], [-0.307875, 51.054401], [-0.306685, 51.054114], [-0.304732, 51.053715], [-0.303588, 51.053357], [-0.303139, 51.05325], [-0.302813, 51.053204], [-0.301475, 51.052893], [-0.300755, 51.052677], [-0.300252, 51.052244], [-0.299696, 51.051889], [-0.299425, 51.051662], [-0.299309, 51.051412], [-0.299238, 51.050741], [-0.299119, 51.050311], [-0.298979, 51.050019], [-0.298732, 51.04971], [-0.298627, 51.049606], [-0.29826, 51.049384], [-0.297685, 51.048977], [-0.297602, 51.048949], [-0.297482, 51.048852], [-0.297013, 51.048577], [-0.296876, 51.048403], [-0.296783, 51.048382], [-0.296655, 51.048303], [-0.296393, 51.04824], [-0.296215, 51.048124], [-0.295972, 51.048022], [-0.295307, 51.047831], [-0.294804, 51.047651], [-0.293547, 51.047135], [-0.293081, 51.046871], [-0.292093, 51.046222], [-0.291627, 51.045982], [-0.290705, 51.045591], [-0.288833, 51.044675], [-0.288661, 51.044646], [-0.288442, 51.044649], [-0.287966, 51.04482], [-0.28718, 51.044972], [-0.285067, 51.045223], [-0.285012, 51.045264], [-0.285, 51.045325], [-0.285046, 51.045479], [-0.285016, 51.045532], [-0.285038, 51.045589], [-0.284882, 51.045598], [-0.284884, 51.045629], [-0.284921, 51.045598], [-0.284845, 51.045597], [-0.284893, 51.045598], [-0.284861, 51.045638], [-0.284927, 51.045591], [-0.284836, 51.045615], [-0.284814, 51.045556], [-0.284769, 51.045561], [-0.284823, 51.045581], [-0.284812, 51.045606], [-0.284882, 51.045652], [-0.284847, 51.045616], [-0.284849, 51.045589], [-0.284882, 51.045617], [-0.284857, 51.045624], [-0.284883, 51.045677], [-0.284835, 51.04545], [-0.284835, 51.045823], [-0.28498, 51.045901], [-0.285002, 51.045946], [-0.285022, 51.045846], [-0.284991, 51.045778], [-0.285041, 51.045835], [-0.285059, 51.045815], [-0.285028, 51.045828], [-0.285015, 51.045739], [-0.284933, 51.045677], [-0.284949, 51.045657], [-0.284906, 51.045686], [-0.284909, 51.045663], [-0.284995, 51.04564], [-0.284948, 51.045616], [-0.285038, 51.045659], [-0.285139, 51.045629], [-0.285026, 51.045654], [-0.284904, 51.045648], [-0.28485, 51.045697], [-0.284761, 51.045645], [-0.284814, 51.045607], [-0.284917, 51.045604], [-0.284954, 51.045625], [-0.284944, 51.045597], [-0.28488, 51.045665], [-0.284852, 51.045677], [-0.284843, 51.045643], [-0.284842, 51.045668], [-0.284821, 51.045654], [-0.28486, 51.045621], [-0.2849, 51.045682], [-0.284867, 51.045641], [-0.284882, 51.045654], [-0.284891, 51.045624], [-0.284844, 51.045653], [-0.284964, 51.045747], [-0.284854, 51.045689], [-0.284837, 51.045646], [-0.284952, 51.045701], [-0.284939, 51.045733], [-0.284888, 51.045647], [-0.284912, 51.045712], [-0.28481, 51.045749], [-0.284879, 51.045611], [-0.28489, 51.045684], [-0.284891, 51.045658], [-0.284957, 51.045685], [-0.284961, 51.045704], [-0.284913, 51.04566], [-0.284876, 51.045671], [-0.284866, 51.045721], [-0.284894, 51.045786], [-0.284975, 51.045809], [-0.284975, 51.045837], [-0.28492, 51.045776], [-0.284879, 51.045773], [-0.284939, 51.045761], [-0.284922, 51.045837], [-0.284969, 51.045893], [-0.284928, 51.045805], [-0.284941, 51.045714], [-0.284944, 51.045752], [-0.284858, 51.045711], [-0.284849, 51.045635], [-0.284875, 51.045627], [-0.284862, 51.045654], [-0.284889, 51.045661], [-0.284878, 51.045633], [-0.284891, 51.045653], [-0.284838, 51.045619], [-0.284835, 51.045643], [-0.284861, 51.0457], [-0.284933, 51.045728], [-0.284884, 51.045658], [-0.284868, 51.045684], [-0.284915, 51.045684], [-0.284864, 51.045642], [-0.284904, 51.04569], [-0.2849, 51.045654], [-0.28499, 51.045704], [-0.284962, 51.0457], [-0.284946, 51.045633], [-0.284887, 51.045609], [-0.284856, 51.045534], [-0.284861, 51.045556], [-0.284887, 51.045548], [-0.284869, 51.045573], [-0.28492, 51.045693], [-0.284852, 51.045631], [-0.284843, 51.045698], [-0.284876, 51.045693], [-0.284866, 51.045666], [-0.284852, 51.045689], [-0.284865, 51.045633], [-0.284809, 51.045641], [-0.284855, 51.04566], [-0.284859, 51.045627], [-0.284824, 51.045683], [-0.28483, 51.04563], [-0.285008, 51.045518], [-0.284898, 51.0455], [-0.284872, 51.04547], [-0.284929, 51.045501], [-0.284929, 51.045587], [-0.284964, 51.045615], [-0.285096, 51.045629], [-0.284638, 51.045571], [-0.284693, 51.045484], [-0.284618, 51.045521], [-0.284697, 51.045513], [-0.284693, 51.045461], [-0.284809, 51.0456], [-0.284798, 51.045739], [-0.284728, 51.045743], [-0.284735, 51.045784], [-0.284639, 51.045676], [-0.2849, 51.045737], [-0.284784, 51.045689], [-0.284802, 51.045634], [-0.28484, 51.045688], [-0.28476, 51.045676], [-0.284751, 51.045691], [-0.284775, 51.045708], [-0.284836, 51.045656], [-0.284789, 51.045662], [-0.284892, 51.045706], [-0.284795, 51.045685], [-0.284731, 51.045726], [-0.284822, 51.045739], [-0.284796, 51.045727], [-0.284841, 51.045675], [-0.284968, 51.045676], [-0.284951, 51.045707], [-0.284732, 51.045574], [-0.284793, 51.045614], [-0.284977, 51.045621], [-0.284866, 51.045588], [-0.284791, 51.045607], [-0.284841, 51.045615]]}, "properties": {"name": "1786532725.Wednesday_Afternoon_Cycle", "cmt": "2026-08-12", "tstamp": 1786492800, "desc": "---", "src": "-0.341951/51.044448/-0.284618/51.065722", "bbox": "-0.341951/51.044448/-0.284618/51.065722"}}]}