{"type": "FeatureCollection", "name": "TrackSet", "crs": {"type": "name", "properties": {"name": "urn:ogc:def:crs:OGC:1.3:CRS84"}}, "bbox": [6.19431, 46.358374, 6.237891, 46.382568], "features": [{"type": "Feature", "bbox": [6.19431, 46.358374, 6.237891, 46.382568], "geometry": {"type": "LineString", "coordinates": [[6.225614, 46.37048], [6.225885, 46.370409], [6.226515, 46.370178], [6.226777, 46.370187], [6.226974, 46.370284], [6.227033, 46.370299], [6.227077, 46.370285], [6.227102, 46.370226], [6.226979, 46.370141], [6.226926, 46.370047], [6.226942, 46.369993], [6.22708, 46.369864], [6.227066, 46.369766], [6.224828, 46.368623], [6.223821, 46.367925], [6.223017, 46.367242], [6.222497, 46.366706], [6.222107, 46.366248], [6.220403, 46.363805], [6.220047, 46.363224], [6.219386, 46.362368], [6.218512, 46.361374], [6.218096, 46.360942], [6.21682, 46.359744], [6.216146, 46.359186], [6.215746, 46.359005], [6.21524, 46.358847], [6.213398, 46.358503], [6.212684, 46.358396], [6.212332, 46.358394], [6.211782, 46.35843], [6.21121, 46.358531], [6.210667, 46.358702], [6.210087, 46.358963], [6.209851, 46.359038], [6.209535, 46.359046], [6.209169, 46.359015], [6.208576, 46.358875], [6.208468, 46.358873], [6.20659, 46.359777], [6.206504, 46.359862], [6.206683, 46.360449], [6.206716, 46.361255], [6.206766, 46.361581], [6.206856, 46.361819], [6.207098, 46.362212], [6.208519, 46.363958], [6.208755, 46.364394], [6.208842, 46.364672], [6.208826, 46.365047], [6.208704, 46.365495], [6.207868, 46.367472], [6.207738, 46.367922], [6.207224, 46.371547], [6.207408, 46.372225], [6.208564, 46.375247], [6.208532, 46.375392], [6.208462, 46.375435], [6.208375, 46.375445], [6.208087, 46.375433], [6.207216, 46.375501], [6.206727, 46.375502], [6.204987, 46.375289], [6.2041, 46.375107], [6.203898, 46.375034], [6.203774, 46.374898], [6.202661, 46.372611], [6.202602, 46.372553], [6.202416, 46.372504], [6.201997, 46.372628], [6.200356, 46.373237], [6.199741, 46.373415], [6.198702, 46.373662], [6.196167, 46.374172], [6.195146, 46.3744], [6.194524, 46.374503], [6.194423, 46.374526], [6.194348, 46.374572], [6.19431, 46.374633], [6.194372, 46.374774], [6.195864, 46.376139], [6.196249, 46.376425], [6.196893, 46.376717], [6.1983, 46.377247], [6.198858, 46.377432], [6.199255, 46.377518], [6.200894, 46.377675], [6.201474, 46.377787], [6.201971, 46.377934], [6.202241, 46.378051], [6.202451, 46.378182], [6.202801, 46.378533], [6.202984, 46.378809], [6.203061, 46.378853], [6.203239, 46.378876], [6.203922, 46.378691], [6.20409, 46.378713], [6.204223, 46.378805], [6.204699, 46.379269], [6.205811, 46.380607], [6.206524, 46.381197], [6.206852, 46.381388], [6.207124, 46.381462], [6.207905, 46.381534], [6.209205, 46.381597], [6.209663, 46.381662], [6.21292, 46.382413], [6.213369, 46.382509], [6.213832, 46.382562], [6.214271, 46.382521], [6.215043, 46.38231], [6.21776, 46.381737], [6.221897, 46.381264], [6.222379, 46.381269], [6.222849, 46.381316], [6.22328, 46.38142], [6.223793, 46.381625], [6.224223, 46.381688], [6.225901, 46.38161], [6.226517, 46.381606], [6.226976, 46.381643], [6.228036, 46.381806], [6.228499, 46.381775], [6.229083, 46.381611], [6.229997, 46.381198], [6.230676, 46.380935], [6.23133, 46.380727], [6.232109, 46.380527], [6.232493, 46.380386], [6.23284, 46.380196], [6.233708, 46.37945], [6.234163, 46.379149], [6.234561, 46.378969], [6.235485, 46.378671], [6.236278, 46.378309], [6.236609, 46.378238], [6.236784, 46.378238], [6.236958, 46.378257], [6.237544, 46.378428], [6.237672, 46.378433], [6.237785, 46.378406], [6.237861, 46.378352], [6.237882, 46.378202], [6.237752, 46.378086], [6.235607, 46.377061], [6.235266, 46.376856], [6.235052, 46.37668], [6.234771, 46.376353], [6.232771, 46.373762], [6.231273, 46.372374], [6.23011, 46.371422], [6.229313, 46.370887], [6.228615, 46.370481], [6.225635, 46.369015], [6.225026, 46.368676], [6.224028, 46.368022], [6.223257, 46.367404], [6.222688, 46.366848], [6.222209, 46.366274], [6.220003, 46.363167], [6.219098, 46.362007], [6.218558, 46.361395], [6.2179, 46.360723], [6.216872, 46.359788], [6.216124, 46.359162], [6.215527, 46.358927], [6.214959, 46.358789], [6.213014, 46.358429], [6.21226, 46.358374], [6.211546, 46.35846], [6.211002, 46.358576], [6.210275, 46.358838], [6.209988, 46.358992], [6.209843, 46.359025], [6.209302, 46.359017], [6.209019, 46.35897], [6.208636, 46.358866], [6.208466, 46.358867], [6.208213, 46.358969], [6.207175, 46.359502], [6.206561, 46.35978], [6.206494, 46.359883], [6.206635, 46.360282], [6.206692, 46.360597], [6.206706, 46.361449], [6.20687, 46.361876], [6.207161, 46.362295], [6.208498, 46.363933], [6.208721, 46.364305], [6.208834, 46.364702], [6.208842, 46.364999], [6.208754, 46.365374], [6.208028, 46.367109], [6.207862, 46.367538], [6.207769, 46.36788], [6.207385, 46.370398], [6.207242, 46.371575], [6.207251, 46.371746], [6.207319, 46.372003], [6.208554, 46.375208], [6.208577, 46.37529], [6.208557, 46.375364], [6.208502, 46.375418], [6.208414, 46.375438], [6.208095, 46.375428], [6.206949, 46.375508], [6.206556, 46.375497], [6.204909, 46.37527], [6.204016, 46.375073], [6.203916, 46.375031], [6.203791, 46.374901], [6.202665, 46.372636], [6.202541, 46.372522], [6.202445, 46.3725], [6.202257, 46.37253], [6.200388, 46.373229], [6.200061, 46.37333], [6.199238, 46.37354], [6.197247, 46.373939], [6.195907, 46.37424], [6.194439, 46.374517], [6.194355, 46.374565], [6.194311, 46.374632], [6.194363, 46.374774], [6.195926, 46.376181], [6.196311, 46.376455], [6.196783, 46.376671], [6.198337, 46.377259], [6.198892, 46.377435], [6.199487, 46.377548], [6.200723, 46.377653], [6.201111, 46.377709], [6.201974, 46.377955], [6.202239, 46.378068], [6.202441, 46.3782], [6.203054, 46.378848], [6.203231, 46.378865], [6.203952, 46.378695], [6.204105, 46.378725], [6.204277, 46.378864], [6.204871, 46.379455], [6.205792, 46.380574], [6.20656, 46.381222], [6.206766, 46.381352], [6.207021, 46.381436], [6.207168, 46.381454], [6.20796, 46.381532], [6.209255, 46.381591], [6.209567, 46.381634], [6.213419, 46.382528], [6.213738, 46.382568], [6.213896, 46.382565], [6.214473, 46.382462], [6.215138, 46.382299], [6.217673, 46.381764], [6.221815, 46.381284], [6.222502, 46.38129], [6.222833, 46.381323], [6.223278, 46.381433], [6.2238, 46.381634], [6.224081, 46.381675], [6.224658, 46.381683], [6.225263, 46.381631], [6.226479, 46.381604], [6.227078, 46.381647], [6.228008, 46.381802], [6.228328, 46.381796], [6.228788, 46.381707], [6.229073, 46.381605], [6.230265, 46.381084], [6.230825, 46.380881], [6.232448, 46.380399], [6.232694, 46.380277], [6.233015, 46.380052], [6.23377, 46.37937], [6.23411, 46.379139], [6.234514, 46.378962], [6.234972, 46.378838], [6.235448, 46.378674], [6.236244, 46.378313], [6.236406, 46.37826], [6.236744, 46.37822], [6.237078, 46.37828], [6.237512, 46.378416], [6.237646, 46.37843], [6.237764, 46.378412], [6.237851, 46.378363], [6.237891, 46.378292], [6.237887, 46.37822], [6.23784, 46.378153], [6.237411, 46.377911], [6.235692, 46.377103], [6.235355, 46.376912], [6.235138, 46.376738], [6.234157, 46.37554], [6.233611, 46.374789], [6.232833, 46.373839], [6.232448, 46.373455], [6.231452, 46.37255], [6.23122, 46.372387], [6.230563, 46.37181], [6.23, 46.371362], [6.229088, 46.370779], [6.228914, 46.370691], [6.228813, 46.370691], [6.228264, 46.370756], [6.228064, 46.370846], [6.227817, 46.371015], [6.227509, 46.37107], [6.225974, 46.371637], [6.225789, 46.371625], [6.225693, 46.371537], [6.225638, 46.371434], [6.225682, 46.371343], [6.226728, 46.370967]]}, "properties": {"name": "1786170330.Nyon_Triathlon_2026_Ride", "cmt": "2026-08-08", "tstamp": 1786147200, "desc": "---", "src": "6.19431/46.358374/6.237891/46.382568", "bbox": "6.19431/46.358374/6.237891/46.382568"}}]}