{"type": "FeatureCollection", "name": "TrackSet", "crs": {"type": "name", "properties": {"name": "urn:ogc:def:crs:OGC:1.3:CRS84"}}, "bbox": [-0.341977, 51.061674, -0.326431, 51.065706], "features": [{"type": "Feature", "bbox": [-0.341977, 51.061674, -0.326431, 51.065706], "geometry": {"type": "LineString", "coordinates": [[-0.341739, 51.065185], [-0.341868, 51.065211], [-0.341931, 51.065307], [-0.341977, 51.065623], [-0.341893, 51.065692], [-0.341612, 51.065706], [-0.340495, 51.065652], [-0.339317, 51.065518], [-0.33807, 51.065328], [-0.336262, 51.064755], [-0.335877, 51.064706], [-0.335392, 51.064603], [-0.334538, 51.064349], [-0.334548, 51.064274], [-0.334477, 51.064205], [-0.334419, 51.064189], [-0.334449, 51.064186], [-0.334433, 51.064164], [-0.334356, 51.064228], [-0.334349, 51.064212], [-0.334398, 51.064281], [-0.334357, 51.064292], [-0.334364, 51.064322], [-0.333876, 51.064081], [-0.333676, 51.064048], [-0.333555, 51.064054], [-0.333434, 51.063985], [-0.33339, 51.063877], [-0.333261, 51.063758], [-0.333213, 51.063739], [-0.333006, 51.063746], [-0.332879, 51.06371], [-0.332757, 51.063658], [-0.332611, 51.063535], [-0.332362, 51.063469], [-0.332368, 51.063313], [-0.332438, 51.063168], [-0.332396, 51.063111], [-0.332532, 51.063045], [-0.332575, 51.062992], [-0.332485, 51.062966], [-0.33248, 51.063028], [-0.332435, 51.063034], [-0.332214, 51.062904], [-0.33206, 51.06285], [-0.331697, 51.062789], [-0.331109, 51.062536], [-0.330275, 51.062256], [-0.329371, 51.062119], [-0.329179, 51.062064], [-0.329136, 51.061801], [-0.329038, 51.061737], [-0.328947, 51.061715], [-0.328789, 51.061703], [-0.328716, 51.061723], [-0.328422, 51.061973], [-0.328243, 51.061992], [-0.328088, 51.062071], [-0.327785, 51.061984], [-0.32769, 51.061981], [-0.327461, 51.061868], [-0.327026, 51.061722], [-0.32704, 51.061755], [-0.327025, 51.06173], [-0.326926, 51.061731], [-0.326822, 51.0617], [-0.32685, 51.061674], [-0.326843, 51.061711], [-0.32689, 51.061723], [-0.326898, 51.061752], [-0.326832, 51.061846], [-0.326819, 51.061808], [-0.326741, 51.061816], [-0.326834, 51.061908], [-0.326739, 51.062045], [-0.32661, 51.062075], [-0.326473, 51.062147], [-0.326431, 51.062134], [-0.326453, 51.062209], [-0.326607, 51.062268], [-0.326822, 51.062408], [-0.326784, 51.06247], [-0.326799, 51.062519], [-0.326875, 51.062537], [-0.326905, 51.062578], [-0.326974, 51.062585], [-0.327053, 51.062667], [-0.327149, 51.06266], [-0.327181, 51.062722], [-0.327553, 51.062776], [-0.327677, 51.062911], [-0.327806, 51.063002], [-0.327809, 51.062981], [-0.3278, 51.063002], [-0.327862, 51.062992], [-0.327922, 51.062938], [-0.327659, 51.063054], [-0.327693, 51.063048], [-0.327672, 51.063056], [-0.327758, 51.063097], [-0.327597, 51.063042], [-0.327741, 51.063087], [-0.327723, 51.063066], [-0.327741, 51.063087], [-0.327869, 51.063095], [-0.32779, 51.063091], [-0.327634, 51.063025], [-0.327646, 51.063059], [-0.32803, 51.062803], [-0.328005, 51.062781], [-0.32803, 51.062819], [-0.327843, 51.062959], [-0.32786, 51.06298], [-0.327951, 51.062955], [-0.327775, 51.063055], [-0.327764, 51.063114], [-0.327759, 51.063081], [-0.327782, 51.06306], [-0.327764, 51.06312], [-0.327815, 51.063172]]}, "properties": {"name": "1786449512.Tuesday_Afternoon_Cycle", "cmt": "2026-08-11", "tstamp": 1786406400, "desc": "---", "src": "-0.341977/51.061674/-0.326431/51.065706", "bbox": "-0.341977/51.061674/-0.326431/51.065706"}}]}