{"type": "FeatureCollection", "name": "TrackSet", "crs": {"type": "name", "properties": {"name": "urn:ogc:def:crs:OGC:1.3:CRS84"}}, "bbox": [6.177606, 46.331398, 6.2434, 46.403857], "features": [{"type": "Feature", "bbox": [6.177606, 46.331398, 6.2434, 46.403857], "geometry": {"type": "LineString", "coordinates": [[6.19464, 46.331516], [6.194684, 46.331592], [6.194671, 46.331678], [6.194508, 46.331774], [6.193965, 46.331866], [6.193925, 46.331866], [6.193867, 46.331802], [6.193797, 46.331792], [6.192997, 46.331937], [6.19297, 46.331949], [6.193013, 46.332063], [6.192971, 46.332149], [6.192931, 46.332174], [6.192477, 46.332258], [6.19245, 46.33235], [6.192651, 46.332781], [6.192756, 46.333197], [6.192892, 46.33342], [6.193043, 46.333576], [6.193393, 46.333823], [6.194162, 46.334177], [6.194358, 46.334305], [6.194567, 46.334491], [6.195453, 46.334985], [6.195506, 46.33504], [6.195487, 46.335186], [6.195164, 46.335454], [6.194842, 46.335864], [6.194774, 46.336054], [6.194812, 46.336379], [6.195254, 46.337434], [6.195274, 46.337967], [6.195315, 46.338193], [6.195443, 46.338494], [6.195833, 46.339028], [6.196221, 46.339682], [6.196613, 46.340503], [6.196847, 46.340873], [6.197087, 46.341131], [6.197318, 46.341327], [6.198145, 46.341932], [6.198351, 46.342165], [6.198422, 46.342366], [6.199105, 46.345566], [6.199593, 46.347563], [6.200009, 46.348406], [6.200003, 46.348592], [6.199939, 46.348767], [6.199888, 46.348856], [6.199823, 46.348903], [6.199622, 46.348895], [6.199389, 46.34885], [6.199179, 46.34887], [6.198966, 46.348927], [6.198394, 46.349239], [6.197976, 46.349569], [6.197673, 46.349642], [6.196347, 46.349234], [6.196094, 46.349194], [6.19592, 46.349229], [6.195844, 46.349317], [6.195834, 46.349408], [6.196314, 46.349926], [6.196343, 46.349997], [6.196326, 46.35007], [6.196196, 46.350178], [6.195469, 46.350366], [6.19535, 46.350428], [6.195325, 46.350478], [6.19556, 46.350695], [6.195674, 46.350864], [6.195659, 46.350945], [6.195416, 46.351113], [6.195382, 46.351185], [6.196146, 46.352196], [6.196143, 46.352226], [6.195934, 46.352275], [6.194748, 46.352988], [6.193037, 46.35386], [6.192411, 46.35413], [6.190683, 46.354774], [6.189695, 46.355203], [6.187835, 46.356218], [6.187014, 46.356751], [6.186558, 46.357141], [6.186353, 46.357401], [6.186146, 46.357803], [6.186068, 46.35817], [6.186074, 46.358599], [6.186128, 46.358984], [6.186572, 46.360477], [6.186534, 46.360722], [6.186431, 46.360855], [6.183231, 46.363075], [6.1828, 46.363301], [6.181566, 46.363836], [6.180692, 46.364341], [6.180321, 46.364522], [6.179534, 46.364717], [6.179405, 46.364716], [6.179033, 46.364914], [6.178547, 46.365236], [6.177728, 46.365868], [6.177732, 46.365929], [6.177779, 46.365986], [6.178226, 46.366223], [6.179017, 46.366895], [6.179714, 46.367299], [6.18075, 46.367815], [6.181131, 46.36796], [6.181492, 46.368133], [6.181973, 46.368423], [6.18233, 46.368561], [6.183129, 46.368795], [6.183428, 46.368908], [6.183991, 46.369161], [6.184599, 46.369481], [6.184844, 46.369639], [6.185613, 46.370285], [6.18614, 46.370687], [6.187751, 46.371846], [6.188699, 46.372354], [6.188878, 46.372496], [6.18894, 46.372494], [6.189736, 46.37287], [6.189979, 46.373102], [6.190961, 46.374451], [6.191544, 46.3752], [6.191469, 46.375268], [6.191182, 46.37539], [6.190726, 46.375675], [6.190622, 46.37569], [6.190401, 46.375635], [6.190225, 46.375534], [6.190156, 46.375478], [6.190042, 46.375266], [6.1899, 46.375159], [6.189779, 46.375151], [6.189661, 46.375194], [6.189586, 46.375272], [6.189444, 46.375551], [6.189222, 46.375864], [6.18897, 46.376037], [6.187064, 46.376731], [6.186492, 46.377066], [6.18613, 46.37716], [6.185156, 46.377608], [6.184721, 46.377752], [6.183022, 46.37805], [6.181702, 46.378127], [6.181425, 46.378089], [6.18113, 46.377926], [6.181077, 46.377921], [6.180967, 46.377999], [6.180867, 46.378029], [6.180501, 46.37794], [6.179395, 46.378107], [6.179192, 46.378111], [6.178956, 46.37803], [6.178735, 46.377904], [6.178601, 46.377879], [6.17847, 46.377917], [6.177846, 46.378336], [6.177682, 46.378473], [6.177606, 46.378611], [6.178027, 46.378882], [6.178429, 46.379186], [6.178589, 46.379272], [6.178605, 46.379321], [6.178527, 46.379464], [6.17851, 46.379562], [6.178546, 46.379664], [6.178652, 46.379747], [6.179884, 46.380401], [6.180182, 46.380448], [6.180844, 46.380442], [6.181189, 46.38047], [6.181601, 46.380602], [6.181862, 46.380734], [6.182881, 46.381303], [6.183513, 46.381688], [6.184818, 46.382582], [6.185437, 46.383055], [6.186581, 46.383717], [6.187315, 46.384257], [6.187575, 46.384418], [6.187738, 46.384634], [6.187908, 46.384779], [6.188339, 46.385072], [6.189678, 46.385781], [6.189948, 46.385959], [6.19031, 46.386088], [6.196678, 46.389452], [6.196857, 46.389526], [6.197206, 46.389547], [6.197301, 46.389631], [6.197258, 46.389818], [6.197285, 46.389857], [6.197928, 46.390404], [6.198469, 46.390819], [6.199587, 46.391526], [6.199813, 46.391696], [6.204701, 46.397219], [6.20538, 46.397925], [6.205334, 46.39794], [6.205277, 46.397923], [6.205093, 46.397988], [6.204887, 46.398156], [6.204856, 46.398294], [6.205027, 46.398483], [6.20502, 46.398562], [6.203945, 46.399759], [6.203086, 46.400755], [6.203004, 46.400887]]}, "properties": {"name": "1786796229.Ice_cream_hunt", "cmt": "2026-08-15", "tstamp": 1786752000, "desc": "UpHill", "src": "6.177606/46.331398/6.2434/46.403857", "bbox": "6.177606/46.331398/6.2434/46.403857"}}, {"type": "Feature", "bbox": [6.177606, 46.331398, 6.2434, 46.403857], "geometry": {"type": "LineString", "coordinates": [[6.202993, 46.400922], [6.203124, 46.401165], [6.203311, 46.401416], [6.203338, 46.401658], [6.203402, 46.401711], [6.204038, 46.401758], [6.204907, 46.401612], [6.205386, 46.401556], [6.205938, 46.401575], [6.206071, 46.401618], [6.206075, 46.401641], [6.205861, 46.401776], [6.205844, 46.401981], [6.205721, 46.402242], [6.205804, 46.402515], [6.205739, 46.40273], [6.205746, 46.402927], [6.20589, 46.403031], [6.206255, 46.403092], [6.209572, 46.403807], [6.209844, 46.403857], [6.209925, 46.40385], [6.210011, 46.403813], [6.210075, 46.403673], [6.210208, 46.403111], [6.210216, 46.402875], [6.210401, 46.402757], [6.210572, 46.402733], [6.211012, 46.402886], [6.211089, 46.402897], [6.211236, 46.402875], [6.211366, 46.402811], [6.211492, 46.402647], [6.211647, 46.402519], [6.212232, 46.402181], [6.212723, 46.401993], [6.21508, 46.401341], [6.215468, 46.401215], [6.21714, 46.400803], [6.217899, 46.400639], [6.218736, 46.400414], [6.219024, 46.400308], [6.219356, 46.40033], [6.219458, 46.400307], [6.220167, 46.400085], [6.220752, 46.399835], [6.221244, 46.399586], [6.22205, 46.399108], [6.222355, 46.398896], [6.222519, 46.398724], [6.223108, 46.397942], [6.223398, 46.397657], [6.226606, 46.395796], [6.227187, 46.395508], [6.228136, 46.394974], [6.228475, 46.394708], [6.229374, 46.394266], [6.229578, 46.394111], [6.23015, 46.393861], [6.230441, 46.393678], [6.230688, 46.393472], [6.230964, 46.393099], [6.231289, 46.39219], [6.231539, 46.392354], [6.232096, 46.392615], [6.232433, 46.39271], [6.232762, 46.392657], [6.233207, 46.392442], [6.233643, 46.391997], [6.234115, 46.391326], [6.234362, 46.391052], [6.234653, 46.390614], [6.23497, 46.389992], [6.235082, 46.389847], [6.235182, 46.389887], [6.235346, 46.39008], [6.235832, 46.390326], [6.235875, 46.390433], [6.235362, 46.391214], [6.23499, 46.391703], [6.234999, 46.391725], [6.236396, 46.392596], [6.236503, 46.392635], [6.236592, 46.392601], [6.236618, 46.392727], [6.236701, 46.392775], [6.237043, 46.39292], [6.237933, 46.393185], [6.23814, 46.393229], [6.238285, 46.393215], [6.238389, 46.393112], [6.238394, 46.393004], [6.238236, 46.392439], [6.238086, 46.391554], [6.238033, 46.391019], [6.238038, 46.390672], [6.23811, 46.390316], [6.238461, 46.389492], [6.238582, 46.388996], [6.238711, 46.388645], [6.238854, 46.388372], [6.239044, 46.388154], [6.239598, 46.387755], [6.239844, 46.387614], [6.240063, 46.387394], [6.241052, 46.386206], [6.241184, 46.385864], [6.241172, 46.385681], [6.240999, 46.385081], [6.240831, 46.384659], [6.240656, 46.384321], [6.240462, 46.384026], [6.239943, 46.383583], [6.23993, 46.383597], [6.239813, 46.383515], [6.239771, 46.383446], [6.24031, 46.383245], [6.240439, 46.383143], [6.241196, 46.382767], [6.241537, 46.382522], [6.241929, 46.382292], [6.242294, 46.382119], [6.242589, 46.382087], [6.242755, 46.382225], [6.242796, 46.382302], [6.242915, 46.382382], [6.243034, 46.382585], [6.243142, 46.382612], [6.243167, 46.38259], [6.243114, 46.38261], [6.243071, 46.382595], [6.243096, 46.382581], [6.243163, 46.382627], [6.243249, 46.382632], [6.243182, 46.382589], [6.243094, 46.38261], [6.243218, 46.38254], [6.243173, 46.382545], [6.243244, 46.382578], [6.243191, 46.38259], [6.243193, 46.382565], [6.243181, 46.382581], [6.243213, 46.382586], [6.243163, 46.382622], [6.243166, 46.382586], [6.243135, 46.382644], [6.243149, 46.382618], [6.243159, 46.382637], [6.24319, 46.382612], [6.243189, 46.382647], [6.243207, 46.382621], [6.24317, 46.382612], [6.243191, 46.38259], [6.24317, 46.382604], [6.243193, 46.382623], [6.24315, 46.382631], [6.243152, 46.38258], [6.243232, 46.382625], [6.243185, 46.382568], [6.243226, 46.382569], [6.243198, 46.382544], [6.24319, 46.38258], [6.243318, 46.382604], [6.243344, 46.382589], [6.243337, 46.382617], [6.243363, 46.382596], [6.243346, 46.382615], [6.2434, 46.382625], [6.243393, 46.382505], [6.243307, 46.382272], [6.242946, 46.381845], [6.241994, 46.380835]]}, "properties": {"name": "1786796229.Ice_cream_hunt", "cmt": "2026-08-15", "tstamp": 1786752000, "desc": "DownHill", "src": "6.177606/46.331398/6.2434/46.403857", "bbox": "6.177606/46.331398/6.2434/46.403857"}}, {"type": "Feature", "bbox": [6.177606, 46.331398, 6.2434, 46.403857], "geometry": {"type": "LineString", "coordinates": [[6.241939, 46.380779], [6.241592, 46.380445], [6.241338, 46.380328], [6.240883, 46.38019], [6.240654, 46.380087], [6.238519, 46.378523], [6.238069, 46.378371], [6.237701, 46.378058], [6.237429, 46.377885], [6.235681, 46.377081], [6.235271, 46.376837], [6.234979, 46.376566], [6.232691, 46.373672], [6.231904, 46.372916], [6.231772, 46.37285], [6.231673, 46.372717], [6.230544, 46.371766], [6.229683, 46.371123], [6.228797, 46.370584], [6.22826, 46.370305], [6.227965, 46.370194], [6.227194, 46.369827], [6.226987, 46.369674], [6.225512, 46.368957], [6.224555, 46.368406], [6.224057, 46.368073], [6.223624, 46.367742], [6.223235, 46.367409], [6.222735, 46.366925], [6.222476, 46.366643], [6.222023, 46.366066], [6.220386, 46.363723], [6.219508, 46.362532], [6.218595, 46.361469], [6.217575, 46.360436], [6.216752, 46.359673], [6.216153, 46.359167], [6.215987, 46.359075], [6.215761, 46.358999], [6.21571, 46.358944], [6.215715, 46.358739], [6.215675, 46.358679], [6.214501, 46.357563], [6.210379, 46.353226], [6.209143, 46.351984], [6.208309, 46.351039], [6.207904, 46.350518], [6.207552, 46.349985], [6.207164, 46.349243], [6.206757, 46.348144], [6.205468, 46.342827], [6.205401, 46.342788], [6.205306, 46.342788], [6.205228, 46.342815], [6.205128, 46.34297], [6.20489, 46.343192], [6.204415, 46.343408], [6.204241, 46.343456], [6.204189, 46.343459], [6.204135, 46.343428], [6.203498, 46.342764], [6.203279, 46.342604], [6.202767, 46.34233], [6.202463, 46.342073], [6.201935, 46.341049], [6.201692, 46.340311], [6.201446, 46.339907], [6.201271, 46.339706], [6.201103, 46.339579], [6.200329, 46.338742], [6.199051, 46.337652], [6.198568, 46.336937], [6.198361, 46.336702], [6.196318, 46.33545], [6.196011, 46.335287], [6.195526, 46.335078], [6.195335, 46.33493], [6.19468, 46.334558], [6.194187, 46.334182], [6.193378, 46.333791], [6.193025, 46.333513], [6.192889, 46.333364], [6.192753, 46.333103], [6.192709, 46.332889], [6.19248, 46.33227], [6.192557, 46.332214], [6.192674, 46.332176], [6.193009, 46.332142], [6.193024, 46.332021], [6.192995, 46.331966], [6.193035, 46.331941], [6.193792, 46.331811], [6.193867, 46.331815], [6.193866, 46.331865], [6.193962, 46.331869], [6.194266, 46.331816], [6.19465, 46.331707], [6.194714, 46.331622], [6.19462, 46.331409], [6.194285, 46.331437], [6.194284, 46.331495], [6.194243, 46.331505], [6.194319, 46.331494], [6.194327, 46.33152], [6.194281, 46.331537], [6.194305, 46.331519], [6.194244, 46.331398], [6.194223, 46.331433], [6.194244, 46.331398]]}, "properties": {"name": "1786796229.Ice_cream_hunt", "cmt": "2026-08-15", "tstamp": 1786752000, "desc": "UpHill", "src": "6.177606/46.331398/6.2434/46.403857", "bbox": "6.177606/46.331398/6.2434/46.403857"}}]}