{"type": "FeatureCollection", "name": "TrackSet", "crs": {"type": "name", "properties": {"name": "urn:ogc:def:crs:OGC:1.3:CRS84"}}, "bbox": [6.19243, 46.327721, 6.231655, 46.379238], "features": [{"type": "Feature", "bbox": [6.19243, 46.327721, 6.231655, 46.379238], "geometry": {"type": "LineString", "coordinates": [[6.194286, 46.331775], [6.19424, 46.33176], [6.194283, 46.331766], [6.194294, 46.331792], [6.194458, 46.331777], [6.194625, 46.33172], [6.19472, 46.331667], [6.194739, 46.331617], [6.194404, 46.330869], [6.193958, 46.33013], [6.19383, 46.330093], [6.193246, 46.33018], [6.193156, 46.330154], [6.19313, 46.330101], [6.193151, 46.329868], [6.193185, 46.329759], [6.19327, 46.329662], [6.193547, 46.329576], [6.19551, 46.329204], [6.197293, 46.328648], [6.199565, 46.327813], [6.199743, 46.327721], [6.199898, 46.327763], [6.199968, 46.327951], [6.200172, 46.328074], [6.20121, 46.329348], [6.201846, 46.330426], [6.202124, 46.331072], [6.202308, 46.331686], [6.202449, 46.33263], [6.20247, 46.33399], [6.202501, 46.334275], [6.202464, 46.33456], [6.202474, 46.335365], [6.202539, 46.335895], [6.202677, 46.336566], [6.202985, 46.337468], [6.203277, 46.338047], [6.203682, 46.338715], [6.204548, 46.339929], [6.204991, 46.340765], [6.205243, 46.341339], [6.205534, 46.342357], [6.205952, 46.344207], [6.206673, 46.347073], [6.206841, 46.34791], [6.207008, 46.348437], [6.207324, 46.34919], [6.20759, 46.349719], [6.207862, 46.350168], [6.208397, 46.350887], [6.208924, 46.351492], [6.215546, 46.358406], [6.215842, 46.358764], [6.216055, 46.358901], [6.216843, 46.359587], [6.218267, 46.360916], [6.21834, 46.360952], [6.219217, 46.361948], [6.219838, 46.36274], [6.222307, 46.366227], [6.222814, 46.366798], [6.223251, 46.367227], [6.223815, 46.367715], [6.224656, 46.368274], [6.224821, 46.368414], [6.225403, 46.368747], [6.227153, 46.369639], [6.227167, 46.369654], [6.227046, 46.369734], [6.227109, 46.369794], [6.227098, 46.369861], [6.226997, 46.36997], [6.226976, 46.370036], [6.227072, 46.370124], [6.227084, 46.370183], [6.227256, 46.370322], [6.227357, 46.370458], [6.227433, 46.370437], [6.227507, 46.370356], [6.227491, 46.370296], [6.22743, 46.370382], [6.227418, 46.370456], [6.227442, 46.370464], [6.227404, 46.370486], [6.227619, 46.370378], [6.227661, 46.370379], [6.227656, 46.370362], [6.227698, 46.370365], [6.227673, 46.370398], [6.227705, 46.370431], [6.227866, 46.370534], [6.227755, 46.370636], [6.227817, 46.370724], [6.22795, 46.370712], [6.228035, 46.370761], [6.228844, 46.370687], [6.22894, 46.370702], [6.229736, 46.371193], [6.230042, 46.371401], [6.230192, 46.371542], [6.230335, 46.371616], [6.230568, 46.371842], [6.231236, 46.372397], [6.231655, 46.372809], [6.231613, 46.372853], [6.231127, 46.373082], [6.230827, 46.373262], [6.230688, 46.373397], [6.230336, 46.373588], [6.229496, 46.373974], [6.229393, 46.37406], [6.229016, 46.374242], [6.228861, 46.374296], [6.228702, 46.374399], [6.227163, 46.375182], [6.226482, 46.375578], [6.226428, 46.375674], [6.226429, 46.375768], [6.226501, 46.37589], [6.226765, 46.376124], [6.226822, 46.37628], [6.226784, 46.376426], [6.226006, 46.376885], [6.225252, 46.377383], [6.224671, 46.377718], [6.224196, 46.378041], [6.224087, 46.378077], [6.223854, 46.378283], [6.22356, 46.378488], [6.223358, 46.378591], [6.222015, 46.379013], [6.221394, 46.379238], [6.221112, 46.379216], [6.221032, 46.379187], [6.221036, 46.379165], [6.220443, 46.379154], [6.220082, 46.379185], [6.219503, 46.379143], [6.219367, 46.379159], [6.21882, 46.379089], [6.218319, 46.37896], [6.216083, 46.378051], [6.214591, 46.377394], [6.212066, 46.376708], [6.210756, 46.376301], [6.209995, 46.37602], [6.209525, 46.375798], [6.209509, 46.375719], [6.209551, 46.375684], [6.209715, 46.375602], [6.210514, 46.375074], [6.211844, 46.374261], [6.211845, 46.374164], [6.21154, 46.373829], [6.211327, 46.373493], [6.211226, 46.37324], [6.211117, 46.372735], [6.211037, 46.372159], [6.210998, 46.371515], [6.211008, 46.371261], [6.211142, 46.370809], [6.211128, 46.370087], [6.211316, 46.369492], [6.211575, 46.369104], [6.211727, 46.368921], [6.211868, 46.368807], [6.21253, 46.368441], [6.212718, 46.368308], [6.212812, 46.368135], [6.212782, 46.367932], [6.212455, 46.367392], [6.212107, 46.36704], [6.211187, 46.366393], [6.210634, 46.365968], [6.209065, 46.364657], [6.208851, 46.364581], [6.208762, 46.364506], [6.208563, 46.364089], [6.20839, 46.363847], [6.207086, 46.362254], [6.206875, 46.361938], [6.206706, 46.361492], [6.206667, 46.360456], [6.206532, 46.360007], [6.206231, 46.359525], [6.205325, 46.358515], [6.204132, 46.357463], [6.2036, 46.357185], [6.20346, 46.357087], [6.202706, 46.356336], [6.202475, 46.356141], [6.201423, 46.355465], [6.200734, 46.354918], [6.199936, 46.35436], [6.199726, 46.354223], [6.198678, 46.35366], [6.197556, 46.352909], [6.196554, 46.35246], [6.196126, 46.352178], [6.195429, 46.351204], [6.195409, 46.351153], [6.195471, 46.351049], [6.195616, 46.350999], [6.195672, 46.350947], [6.195686, 46.350886], [6.195628, 46.350763], [6.195329, 46.350528], [6.195286, 46.350482], [6.195285, 46.350429], [6.195405, 46.350343], [6.196089, 46.350211], [6.196266, 46.350137], [6.196323, 46.350071], [6.196338, 46.349987], [6.196305, 46.3499], [6.196053, 46.349696], [6.195771, 46.349403], [6.195746, 46.349324], [6.195783, 46.349244], [6.195861, 46.349174], [6.195966, 46.349139], [6.196098, 46.349132], [6.196371, 46.349169], [6.197506, 46.349542], [6.197742, 46.3496], [6.197874, 46.349593], [6.198, 46.349546], [6.1981, 46.349469], [6.198359, 46.349213], [6.198958, 46.348856], [6.199231, 46.348777], [6.199515, 46.348757], [6.199785, 46.34883], [6.200837, 46.34935], [6.20099, 46.349388], [6.201336, 46.349399], [6.201662, 46.349316], [6.201805, 46.349246], [6.201898, 46.349024], [6.202129, 46.348643], [6.202111, 46.348573], [6.201991, 46.348482], [6.200966, 46.348188], [6.200654, 46.348052], [6.200419, 46.347842], [6.200043, 46.347147], [6.199787, 46.346047], [6.199712, 46.345309], [6.199735, 46.345193], [6.199864, 46.345031], [6.200797, 46.344358], [6.201058, 46.344216], [6.203655, 46.34358], [6.204034, 46.343508], [6.204115, 46.343484], [6.204155, 46.343433], [6.204138, 46.343371], [6.204014, 46.343282], [6.203471, 46.342745], [6.203141, 46.342528], [6.20272, 46.342308], [6.202477, 46.342104], [6.202152, 46.34154], [6.201861, 46.340905], [6.201672, 46.34025], [6.201408, 46.339881], [6.201055, 46.339562], [6.200299, 46.338744], [6.199933, 46.338412], [6.199079, 46.337714], [6.19888, 46.337471], [6.198592, 46.336999], [6.198306, 46.336682], [6.197878, 46.336408], [6.196935, 46.335865], [6.196288, 46.335411], [6.195497, 46.33505], [6.194995, 46.334725], [6.194686, 46.334572], [6.194115, 46.334157], [6.193333, 46.333802], [6.192813, 46.333345], [6.192707, 46.333061], [6.192738, 46.332811], [6.192717, 46.332798], [6.192734, 46.332841], [6.192749, 46.33281], [6.19266, 46.332747], [6.192613, 46.33274], [6.192632, 46.332765], [6.192592, 46.332772], [6.192478, 46.332634], [6.192459, 46.332542], [6.19243, 46.33254], [6.192487, 46.332638], [6.192815, 46.332786], [6.192758, 46.332847], [6.192761, 46.332783], [6.192696, 46.332842], [6.192733, 46.33281], [6.192731, 46.332912], [6.19276, 46.332795], [6.192743, 46.33284], [6.192795, 46.332767], [6.192759, 46.332788], [6.192736, 46.332876], [6.192718, 46.332846], [6.19276, 46.33262], [6.192808, 46.332635], [6.192773, 46.332513], [6.192832, 46.332605], [6.192838, 46.332667], [6.192789, 46.332621], [6.192711, 46.332797], [6.192678, 46.332793], [6.1927, 46.332834], [6.192687, 46.332686], [6.192623, 46.332502], [6.192683, 46.332417], [6.192601, 46.332274], [6.192668, 46.332232], [6.193022, 46.332147], [6.193042, 46.332101], [6.193008, 46.331967], [6.193819, 46.331817], [6.194045, 46.331885], [6.19435, 46.331817], [6.19466, 46.331702], [6.19473, 46.331618], [6.194631, 46.331406], [6.194594, 46.331398], [6.194227, 46.331485], [6.194154, 46.331479], [6.194252, 46.331662], [6.194156, 46.331665], [6.19429, 46.331662], [6.19425, 46.331731], [6.194189, 46.331665], [6.194195, 46.331684], [6.194189, 46.331665], [6.194195, 46.331684], [6.194189, 46.331665], [6.194195, 46.331684], [6.194189, 46.331665], [6.194195, 46.331684], [6.194189, 46.331665], [6.194195, 46.331684], [6.194189, 46.331665], [6.194195, 46.331684], [6.194189, 46.331665], [6.194195, 46.331684], [6.194189, 46.331665], [6.194417, 46.33166], [6.194184, 46.331693], [6.194314, 46.331754], [6.194319, 46.331813], [6.194376, 46.3317], [6.19441, 46.331717], [6.194476, 46.331676], [6.194449, 46.33162], [6.194373, 46.33161], [6.194397, 46.331567], [6.194331, 46.331585], [6.194369, 46.331537], [6.194329, 46.331556], [6.194319, 46.33153], [6.194303, 46.331584], [6.194335, 46.331535], [6.194298, 46.331533], [6.194271, 46.331543], [6.194249, 46.331733], [6.19426, 46.331614], [6.19425, 46.331722], [6.194432, 46.331343], [6.194345, 46.331318], [6.194254, 46.331192], [6.194261, 46.331258], [6.194183, 46.331211], [6.194166, 46.331229], [6.194169, 46.331246], [6.194194, 46.331235], [6.19425, 46.331731], [6.194261, 46.331603], [6.194252, 46.331709], [6.194328, 46.331558], [6.194284, 46.331527], [6.194328, 46.331509], [6.194415, 46.331584], [6.194282, 46.331568], [6.194361, 46.331496], [6.194242, 46.331541], [6.194353, 46.331619], [6.194334, 46.331598], [6.194276, 46.331622], [6.194137, 46.331546], [6.194101, 46.331569], [6.194137, 46.331546], [6.194249, 46.331604], [6.194249, 46.331731], [6.19419, 46.331667], [6.194396, 46.33166], [6.19425, 46.33173], [6.194261, 46.331602], [6.19425, 46.331729], [6.19426, 46.331609], [6.194251, 46.331715], [6.194247, 46.331618], [6.194258, 46.331708], [6.194201, 46.331671], [6.194169, 46.331677], [6.194214, 46.331673], [6.194465, 46.331927], [6.194455, 46.331958], [6.19436, 46.331872], [6.194288, 46.331863], [6.19423, 46.331818], [6.194296, 46.331864], [6.194261, 46.331837], [6.194261, 46.331602], [6.19425, 46.33173], [6.194364, 46.331792], [6.194308, 46.331741], [6.194291, 46.331769], [6.194262, 46.331607], [6.19425, 46.331723], [6.19426, 46.331606]]}, "properties": {"name": "1786118696.Dossard_pick_up", "cmt": "2026-08-07", "tstamp": 1786060800, "desc": "---", "src": "6.19243/46.327721/6.231655/46.379238", "bbox": "6.19243/46.327721/6.231655/46.379238"}}]}