{"type": "FeatureCollection", "name": "TrackSet", "crs": {"type": "name", "properties": {"name": "urn:ogc:def:crs:OGC:1.3:CRS84"}}, "bbox": [-0.342201, 51.044419, -0.284957, 51.065734], "features": [{"type": "Feature", "bbox": [-0.342201, 51.044419, -0.284957, 51.065734], "geometry": {"type": "LineString", "coordinates": [[-0.28502, 51.045519], [-0.284973, 51.04525], [-0.28503, 51.045193], [-0.287358, 51.0449], [-0.288134, 51.044701], [-0.288235, 51.044643], [-0.288422, 51.044421], [-0.288577, 51.044419], [-0.289362, 51.044857], [-0.29227, 51.046226], [-0.293482, 51.047007], [-0.294475, 51.047453], [-0.29642, 51.04826], [-0.297102, 51.04864], [-0.297446, 51.048871], [-0.297895, 51.049234], [-0.298245, 51.049476], [-0.298513, 51.049618], [-0.29907, 51.050115], [-0.299294, 51.050367], [-0.299419, 51.050629], [-0.299467, 51.050891], [-0.299436, 51.051278], [-0.299491, 51.051474], [-0.299596, 51.051637], [-0.299923, 51.051921], [-0.300327, 51.05217], [-0.300716, 51.052524], [-0.300945, 51.052666], [-0.301209, 51.052762], [-0.302028, 51.052915], [-0.303696, 51.053301], [-0.30437, 51.053545], [-0.304878, 51.053681], [-0.305512, 51.053813], [-0.306523, 51.053966], [-0.306772, 51.054023], [-0.309023, 51.054656], [-0.311223, 51.055238], [-0.312726, 51.055766], [-0.312933, 51.055868], [-0.313789, 51.056516], [-0.315914, 51.058237], [-0.316559, 51.058693], [-0.316806, 51.058805], [-0.317335, 51.058967], [-0.318718, 51.059301], [-0.319239, 51.059455], [-0.319767, 51.059567], [-0.321745, 51.060067], [-0.32473, 51.06108], [-0.326268, 51.061482], [-0.326442, 51.061551], [-0.32663, 51.061579], [-0.326735, 51.061626], [-0.327604, 51.061859], [-0.327946, 51.06203], [-0.328109, 51.062031], [-0.328275, 51.061953], [-0.32838, 51.061985], [-0.32843, 51.061969], [-0.328531, 51.06191], [-0.328713, 51.061662], [-0.328861, 51.06165], [-0.329009, 51.061691], [-0.329073, 51.061712], [-0.329158, 51.061796], [-0.329155, 51.061995], [-0.329253, 51.062061], [-0.329685, 51.062123], [-0.330299, 51.062249], [-0.331766, 51.062699], [-0.332098, 51.062754], [-0.332594, 51.062951], [-0.332614, 51.063138], [-0.332458, 51.063414], [-0.332456, 51.063442], [-0.332529, 51.063489], [-0.332712, 51.063515], [-0.333079, 51.063657], [-0.333199, 51.063641], [-0.333284, 51.063661], [-0.333563, 51.063877], [-0.334497, 51.064213], [-0.335629, 51.064543], [-0.336668, 51.06474], [-0.337669, 51.065104], [-0.338116, 51.065241], [-0.340505, 51.065589], [-0.341337, 51.065643], [-0.341798, 51.065647], [-0.34186, 51.065629], [-0.341915, 51.065545], [-0.34188, 51.065245], [-0.341822, 51.06518], [-0.341576, 51.06519], [-0.341491, 51.065152], [-0.341542, 51.064932], [-0.34174, 51.064916], [-0.342201, 51.064795], [-0.342167, 51.064829], [-0.342049, 51.064758], [-0.341825, 51.064864], [-0.341792, 51.064937], [-0.341877, 51.065083], [-0.341807, 51.064887], [-0.341841, 51.065044], [-0.341834, 51.064888], [-0.341907, 51.065206], [-0.341826, 51.064865], [-0.341802, 51.064862], [-0.341872, 51.065081], [-0.341807, 51.064895], [-0.341813, 51.064923], [-0.34183, 51.064895], [-0.341825, 51.065095], [-0.341805, 51.064906], [-0.341839, 51.065007], [-0.341829, 51.064864], [-0.341814, 51.06482], [-0.341829, 51.064864], [-0.341787, 51.064843], [-0.341829, 51.064864], [-0.341829, 51.064737], [-0.341798, 51.064852], [-0.341826, 51.064937], [-0.341901, 51.064797], [-0.34179, 51.064843], [-0.34184, 51.064878], [-0.341806, 51.064865], [-0.341866, 51.065058], [-0.341817, 51.064938], [-0.341837, 51.065015], [-0.341849, 51.064977], [-0.341823, 51.064843], [-0.34182, 51.064961], [-0.341786, 51.064846], [-0.341849, 51.064942], [-0.341791, 51.064853], [-0.341833, 51.065002], [-0.341789, 51.064858], [-0.341877, 51.065128], [-0.341807, 51.064824], [-0.341841, 51.065008], [-0.341786, 51.064859], [-0.341839, 51.065005], [-0.341801, 51.064842], [-0.341817, 51.064932], [-0.341699, 51.065191], [-0.341905, 51.06521], [-0.341957, 51.065252], [-0.341981, 51.065351], [-0.341955, 51.065641], [-0.341988, 51.065668], [-0.341968, 51.06565], [-0.341911, 51.065703], [-0.34167, 51.065734], [-0.340737, 51.065686], [-0.338692, 51.065438], [-0.338112, 51.065343], [-0.336731, 51.064893], [-0.336213, 51.064748], [-0.335567, 51.064634], [-0.334756, 51.064387], [-0.334104, 51.064225], [-0.33371, 51.064094], [-0.333214, 51.063977], [-0.333111, 51.064033], [-0.33297, 51.064214], [-0.332655, 51.064414], [-0.332278, 51.064547], [-0.331809, 51.064597], [-0.330139, 51.064476], [-0.328532, 51.064301], [-0.327446, 51.064118], [-0.326862, 51.06398], [-0.326743, 51.063918], [-0.32673, 51.063871], [-0.326781, 51.063773], [-0.32699, 51.063676], [-0.327263, 51.063661], [-0.327373, 51.063707], [-0.327674, 51.063921], [-0.328128, 51.064015], [-0.328455, 51.064053], [-0.328478, 51.064036], [-0.328471, 51.06396], [-0.32832, 51.06393], [-0.32834, 51.063891], [-0.328253, 51.063764], [-0.328353, 51.063503], [-0.328352, 51.063287], [-0.328292, 51.063247], [-0.327904, 51.063133], [-0.327779, 51.063034], [-0.327623, 51.062978], [-0.327523, 51.062836], [-0.327668, 51.062696], [-0.327708, 51.062589], [-0.327834, 51.062433], [-0.327866, 51.062326], [-0.327973, 51.062203], [-0.327996, 51.062084], [-0.327934, 51.062033], [-0.327649, 51.061929], [-0.326808, 51.061688], [-0.326648, 51.06162], [-0.326043, 51.061541], [-0.32588, 51.061487], [-0.325387, 51.061398], [-0.3248, 51.061215], [-0.324061, 51.060905], [-0.323272, 51.060666], [-0.322583, 51.060401], [-0.321399, 51.060022], [-0.319279, 51.059522], [-0.317148, 51.058987], [-0.316632, 51.058832], [-0.316327, 51.058664], [-0.316016, 51.058443], [-0.31559, 51.058062], [-0.314342, 51.05706], [-0.312911, 51.055966], [-0.312444, 51.055739], [-0.31178, 51.055524], [-0.311428, 51.055377], [-0.311031, 51.055265], [-0.310615, 51.055105], [-0.308446, 51.054562], [-0.307065, 51.054177], [-0.306546, 51.054094], [-0.30507, 51.05379], [-0.304503, 51.053648], [-0.303555, 51.053355], [-0.302548, 51.053121], [-0.301291, 51.052873], [-0.300867, 51.052746], [-0.300624, 51.052632], [-0.30024, 51.052267], [-0.299448, 51.051693], [-0.299335, 51.051462], [-0.299266, 51.051137], [-0.299169, 51.050893], [-0.299082, 51.050373], [-0.298905, 51.050109], [-0.298411, 51.049657], [-0.297176, 51.048788], [-0.296945, 51.048663], [-0.296802, 51.048624], [-0.296308, 51.048269], [-0.296026, 51.048132], [-0.295475, 51.04794], [-0.294235, 51.047411], [-0.293616, 51.047178], [-0.293333, 51.047034], [-0.292115, 51.046227], [-0.29134, 51.04584], [-0.289909, 51.045199], [-0.289739, 51.045149], [-0.288822, 51.044671], [-0.288705, 51.044647], [-0.288458, 51.044653], [-0.288007, 51.044813], [-0.287297, 51.044959], [-0.286769, 51.045041], [-0.285104, 51.045221], [-0.28501, 51.045292], [-0.285057, 51.045485], [-0.285022, 51.045553], [-0.28506, 51.045595], [-0.284957, 51.045591]]}, "properties": {"name": "1786552761.Eclipsing", "cmt": "2026-08-12", "tstamp": 1786492800, "desc": "---", "src": "-0.342201/51.044419/-0.284957/51.065734", "bbox": "-0.342201/51.044419/-0.284957/51.065734"}}]}