{"type": "FeatureCollection", "name": "TrackSet", "crs": {"type": "name", "properties": {"name": "urn:ogc:def:crs:OGC:1.3:CRS84"}}, "bbox": [-0.342028, 51.044425, -0.284958, 51.065643], "features": [{"type": "Feature", "bbox": [-0.342028, 51.044425, -0.284958, 51.065643], "geometry": {"type": "LineString", "coordinates": [[-0.285011, 51.045464], [-0.284958, 51.045505], [-0.284984, 51.045535], [-0.285011, 51.045464], [-0.284979, 51.045239], [-0.285049, 51.045187], [-0.285319, 51.045127], [-0.28666, 51.044995], [-0.287781, 51.044815], [-0.288109, 51.044723], [-0.288267, 51.044631], [-0.288406, 51.044425], [-0.288552, 51.044431], [-0.289228, 51.044823], [-0.292046, 51.046128], [-0.292626, 51.046464], [-0.293302, 51.046921], [-0.294029, 51.047293], [-0.295791, 51.047986], [-0.296479, 51.048287], [-0.297422, 51.048886], [-0.298172, 51.049415], [-0.298608, 51.049685], [-0.298982, 51.050012], [-0.299155, 51.050201], [-0.29937, 51.050544], [-0.299477, 51.051136], [-0.299596, 51.051564], [-0.299855, 51.051846], [-0.300195, 51.05207], [-0.300595, 51.052448], [-0.30083, 51.052596], [-0.301047, 51.052696], [-0.301365, 51.052799], [-0.301738, 51.05285], [-0.303264, 51.053204], [-0.303765, 51.05334], [-0.304629, 51.053623], [-0.305713, 51.053856], [-0.306657, 51.054009], [-0.307829, 51.05432], [-0.310325, 51.055026], [-0.310992, 51.055189], [-0.312743, 51.055793], [-0.312925, 51.055889], [-0.313798, 51.05654], [-0.315932, 51.058267], [-0.316423, 51.058622], [-0.316852, 51.058838], [-0.317339, 51.058979], [-0.318463, 51.059242], [-0.319172, 51.059444], [-0.321559, 51.060027], [-0.322102, 51.060186], [-0.323333, 51.060634], [-0.324485, 51.061008], [-0.32479, 51.061133], [-0.325985, 51.061455], [-0.326123, 51.061481], [-0.326188, 51.061463], [-0.326247, 51.061498], [-0.326597, 51.061576], [-0.327041, 51.061737], [-0.327231, 51.061766], [-0.327617, 51.061875], [-0.328024, 51.062068], [-0.328133, 51.062069], [-0.328167, 51.062007], [-0.328234, 51.061967], [-0.328408, 51.061986], [-0.328697, 51.061688], [-0.328906, 51.061679], [-0.328933, 51.061585], [-0.329071, 51.061468], [-0.329163, 51.061453], [-0.329206, 51.0615], [-0.329156, 51.061607], [-0.32915, 51.061807], [-0.329184, 51.061987], [-0.329258, 51.062047], [-0.329989, 51.062172], [-0.330237, 51.062235], [-0.33047, 51.062326], [-0.330757, 51.062378], [-0.330841, 51.062427], [-0.33114, 51.062511], [-0.331589, 51.062579], [-0.331822, 51.062693], [-0.332278, 51.062785], [-0.332572, 51.062918], [-0.332606, 51.063003], [-0.332414, 51.063442], [-0.332473, 51.063518], [-0.332948, 51.06367], [-0.33321, 51.063693], [-0.333242, 51.063749], [-0.333337, 51.063764], [-0.333486, 51.063891], [-0.334294, 51.064177], [-0.335453, 51.064515], [-0.336571, 51.064719], [-0.338068, 51.065239], [-0.340212, 51.06556], [-0.340957, 51.065621], [-0.34173, 51.065643], [-0.341853, 51.065626], [-0.341878, 51.065589], [-0.341852, 51.065219], [-0.341776, 51.065158], [-0.34155, 51.065158], [-0.34148, 51.065116], [-0.341533, 51.064909], [-0.341601, 51.06495], [-0.341662, 51.06495], [-0.341635, 51.064961], [-0.341655, 51.064908], [-0.341464, 51.064887], [-0.341305, 51.064912], [-0.34126, 51.064851], [-0.341441, 51.06492], [-0.34149, 51.064895], [-0.341422, 51.064854], [-0.341448, 51.064922], [-0.341492, 51.065013], [-0.341557, 51.06504], [-0.341699, 51.065043], [-0.341788, 51.064983], [-0.341952, 51.065017], [-0.341982, 51.06508], [-0.342028, 51.065043], [-0.341919, 51.064964], [-0.341813, 51.064945], [-0.341796, 51.064982], [-0.341867, 51.064958], [-0.341839, 51.064925], [-0.341881, 51.064938], [-0.341857, 51.064965], [-0.341903, 51.065026], [-0.341805, 51.064994], [-0.341834, 51.064913], [-0.341847, 51.065023], [-0.341846, 51.064938], [-0.341799, 51.064829], [-0.3418, 51.064924], [-0.341531, 51.065267], [-0.341789, 51.064935], [-0.341717, 51.065], [-0.341784, 51.064857], [-0.341848, 51.064991], [-0.341811, 51.064923], [-0.341884, 51.064847], [-0.341847, 51.064877], [-0.341884, 51.064847], [-0.341807, 51.064857], [-0.341923, 51.064897], [-0.341836, 51.064901], [-0.341824, 51.064849], [-0.341805, 51.064948], [-0.341863, 51.064843], [-0.341862, 51.064889], [-0.341807, 51.064915], [-0.341862, 51.064889], [-0.34182, 51.064859], [-0.341904, 51.064953], [-0.341851, 51.064874], [-0.341882, 51.065045], [-0.341843, 51.064903], [-0.341805, 51.064959], [-0.341902, 51.064877], [-0.341809, 51.064932], [-0.341848, 51.064981], [-0.341806, 51.064878], [-0.341837, 51.065044], [-0.341885, 51.065079], [-0.341822, 51.064916], [-0.341799, 51.064931], [-0.341822, 51.064916], [-0.341867, 51.065148], [-0.341862, 51.065058], [-0.341894, 51.065151], [-0.341816, 51.064957], [-0.34183, 51.064858], [-0.341807, 51.064911], [-0.341794, 51.064845], [-0.341842, 51.065009], [-0.34179, 51.06485], [-0.341846, 51.064903], [-0.341883, 51.06507], [-0.34179, 51.064859], [-0.341835, 51.064903], [-0.341829, 51.064855], [-0.341794, 51.06489], [-0.34181, 51.065033]]}, "properties": {"name": "1786445392.Quick_lunch_between_teleconfs", "cmt": "2026-08-11", "tstamp": 1786406400, "desc": "---", "src": "-0.342028/51.044425/-0.284958/51.065643", "bbox": "-0.342028/51.044425/-0.284958/51.065643"}}]}