{"type": "FeatureCollection", "name": "TrackSet", "crs": {"type": "name", "properties": {"name": "urn:ogc:def:crs:OGC:1.3:CRS84"}}, "bbox": [-0.285059, 51.041787, -0.229157, 51.081456], "features": [{"type": "Feature", "bbox": [-0.285059, 51.041787, -0.229157, 51.081456], "geometry": {"type": "LineString", "coordinates": [[-0.285016, 51.045565], [-0.284983, 51.045271], [-0.284897, 51.045184], [-0.284548, 51.045226], [-0.283976, 51.045239], [-0.283783, 51.045274], [-0.283549, 51.04526], [-0.283081, 51.045187], [-0.282936, 51.045209], [-0.282814, 51.045313], [-0.282536, 51.045722], [-0.282387, 51.045866], [-0.282146, 51.046201], [-0.281915, 51.04669], [-0.281656, 51.047374], [-0.281571, 51.047861], [-0.281559, 51.048338], [-0.281403, 51.048578], [-0.281009, 51.048996], [-0.280781, 51.049169], [-0.280368, 51.049407], [-0.27986, 51.04963], [-0.279247, 51.049845], [-0.279046, 51.049869], [-0.278128, 51.049849], [-0.277652, 51.049865], [-0.276866, 51.049968], [-0.276607, 51.050075], [-0.276292, 51.050298], [-0.276111, 51.0505], [-0.276062, 51.050625], [-0.275953, 51.050753], [-0.27573, 51.050901], [-0.275416, 51.051285], [-0.275234, 51.051432], [-0.274443, 51.05261], [-0.274323, 51.052709], [-0.274078, 51.052664], [-0.272909, 51.052103], [-0.272571, 51.051996], [-0.271756, 51.051814], [-0.27124, 51.051612], [-0.270424, 51.051042], [-0.269499, 51.050324], [-0.269084, 51.05005], [-0.268975, 51.050059], [-0.268864, 51.050285], [-0.268829, 51.050486], [-0.268522, 51.050948], [-0.267918, 51.05167], [-0.267482, 51.052072], [-0.26707, 51.052744], [-0.266717, 51.053103], [-0.265841, 51.054318], [-0.265577, 51.054596], [-0.265145, 51.055206], [-0.264754, 51.055677], [-0.264702, 51.0558], [-0.264495, 51.056088], [-0.264134, 51.056481], [-0.264027, 51.056657], [-0.263715, 51.057033], [-0.263668, 51.057154], [-0.263474, 51.057361], [-0.262936, 51.058088], [-0.263004, 51.058193], [-0.263188, 51.05822], [-0.263347, 51.058295], [-0.263559, 51.058318], [-0.263766, 51.05839], [-0.263952, 51.058414], [-0.264018, 51.058405], [-0.264271, 51.058271], [-0.264453, 51.058244], [-0.26458, 51.058301], [-0.264636, 51.058377], [-0.264636, 51.058514], [-0.264672, 51.058547], [-0.264724, 51.058747], [-0.264705, 51.059146], [-0.264766, 51.059292], [-0.264781, 51.059551], [-0.264783, 51.060263], [-0.264749, 51.060447], [-0.264818, 51.06085], [-0.264763, 51.061509], [-0.264754, 51.063114], [-0.264804, 51.063355], [-0.264807, 51.063615], [-0.264744, 51.064196], [-0.26478, 51.064363], [-0.264767, 51.065069], [-0.26483, 51.066623], [-0.2648, 51.068545], [-0.264858, 51.068941], [-0.264796, 51.069241], [-0.264814, 51.069721], [-0.264784, 51.069932], [-0.264887, 51.070239], [-0.264816, 51.071023], [-0.264842, 51.071158], [-0.264784, 51.071614], [-0.264792, 51.071895], [-0.264869, 51.072228], [-0.264797, 51.072953], [-0.264747, 51.073128], [-0.264677, 51.073227], [-0.264599, 51.073273], [-0.264086, 51.073433], [-0.263625, 51.073682], [-0.263208, 51.073839], [-0.262587, 51.07415], [-0.262071, 51.074365], [-0.2614, 51.074833], [-0.261292, 51.074956], [-0.260901, 51.075208], [-0.260476, 51.075546], [-0.260356, 51.075676], [-0.259737, 51.076169], [-0.259583, 51.076328], [-0.259334, 51.076493], [-0.259046, 51.076812], [-0.258702, 51.077091], [-0.258438, 51.077384], [-0.258261, 51.077482], [-0.257868, 51.077825], [-0.257536, 51.078051], [-0.257415, 51.078177], [-0.2572, 51.078308], [-0.25702, 51.07838], [-0.256939, 51.078466], [-0.256795, 51.078535], [-0.255626, 51.079353], [-0.255067, 51.079817], [-0.254687, 51.080039], [-0.254433, 51.080224], [-0.254308, 51.080393], [-0.254202, 51.080458], [-0.254034, 51.080479], [-0.25386, 51.080446], [-0.252872, 51.080417], [-0.252252, 51.080453], [-0.25189, 51.080436], [-0.250317, 51.080547], [-0.249438, 51.080661], [-0.248987, 51.080669], [-0.248351, 51.080737], [-0.247697, 51.08084], [-0.247107, 51.081029], [-0.246262, 51.081184], [-0.245656, 51.08124], [-0.24539, 51.081298], [-0.244926, 51.081347], [-0.24463, 51.081419], [-0.244224, 51.081456], [-0.243178, 51.080927], [-0.241793, 51.080285], [-0.241138, 51.080019], [-0.23938, 51.079503], [-0.238148, 51.078857], [-0.237041, 51.078521], [-0.236727, 51.078478], [-0.236225, 51.078326], [-0.235909, 51.078196], [-0.235123, 51.077988], [-0.234637, 51.077827], [-0.234411, 51.077781], [-0.233872, 51.077615], [-0.233472, 51.077466], [-0.233001, 51.077251], [-0.232461, 51.076953], [-0.232062, 51.076692], [-0.231486, 51.07624], [-0.230332, 51.075043], [-0.229721, 51.07426], [-0.229177, 51.073647], [-0.229157, 51.073606], [-0.229195, 51.073557], [-0.229488, 51.073354], [-0.230727, 51.072556], [-0.231712, 51.07184], [-0.233495, 51.070675], [-0.23392, 51.070351], [-0.235333, 51.069409], [-0.235747, 51.06917], [-0.236355, 51.068912], [-0.236982, 51.068593], [-0.237767, 51.068103], [-0.238559, 51.067534], [-0.238904, 51.067127], [-0.239904, 51.066235], [-0.241855, 51.064821], [-0.24491, 51.062502], [-0.245469, 51.062118], [-0.246215, 51.0617], [-0.246865, 51.06121], [-0.247888, 51.06036], [-0.248347, 51.059928], [-0.248687, 51.059554], [-0.249281, 51.059046], [-0.249599, 51.058826], [-0.250829, 51.058126], [-0.251121, 51.057921], [-0.25152, 51.057581], [-0.251656, 51.057446], [-0.252284, 51.056481], [-0.252855, 51.055795], [-0.253006, 51.055654], [-0.253178, 51.055555], [-0.253313, 51.055421], [-0.253481, 51.055187], [-0.253994, 51.054606], [-0.254354, 51.05423], [-0.254608, 51.054035], [-0.25488, 51.053847], [-0.255293, 51.053613], [-0.255419, 51.053572], [-0.256309, 51.053106], [-0.25753, 51.052555], [-0.258956, 51.051739], [-0.259816, 51.051309], [-0.260156, 51.051082], [-0.261464, 51.050376], [-0.261988, 51.050072], [-0.262435, 51.049739], [-0.262795, 51.049532], [-0.263464, 51.049056], [-0.263669, 51.048944], [-0.263804, 51.048821], [-0.263816, 51.048728], [-0.263722, 51.048669], [-0.263662, 51.048652], [-0.26347, 51.048661], [-0.26263, 51.048508], [-0.262264, 51.048371], [-0.262089, 51.04825], [-0.261987, 51.048065], [-0.261974, 51.047953], [-0.26203, 51.047748], [-0.262209, 51.047378], [-0.262208, 51.047302], [-0.26206, 51.047088], [-0.261801, 51.046902], [-0.261598, 51.046809], [-0.261273, 51.046769], [-0.260959, 51.046698], [-0.260562, 51.046554], [-0.260325, 51.04643], [-0.260153, 51.046262], [-0.26009, 51.046147], [-0.260069, 51.046012], [-0.260135, 51.045762], [-0.260227, 51.044638], [-0.260365, 51.044318], [-0.260742, 51.043684], [-0.260907, 51.043158], [-0.260876, 51.042757], [-0.260732, 51.042099], [-0.260736, 51.041809], [-0.260927, 51.041787], [-0.261189, 51.041821], [-0.261842, 51.041823], [-0.26446, 51.04196], [-0.265837, 51.042283], [-0.26682, 51.042578], [-0.267291, 51.042757], [-0.267827, 51.043009], [-0.268814, 51.043322], [-0.269007, 51.043485], [-0.269105, 51.043615], [-0.269199, 51.043839], [-0.269239, 51.044065], [-0.269301, 51.044148], [-0.269821, 51.044434], [-0.269991, 51.04463], [-0.270326, 51.044869], [-0.270573, 51.045091], [-0.270751, 51.0452], [-0.270945, 51.045261], [-0.271455, 51.045282], [-0.272741, 51.045128], [-0.273818, 51.045058], [-0.274491, 51.044977], [-0.274829, 51.044968], [-0.275581, 51.045002], [-0.275833, 51.045055], [-0.277693, 51.045297], [-0.278653, 51.045282], [-0.278975, 51.04523], [-0.279258, 51.045215], [-0.279687, 51.045115], [-0.280297, 51.045041], [-0.281488, 51.044973], [-0.28256, 51.04481], [-0.282789, 51.044805], [-0.28296, 51.044837], [-0.283047, 51.044889], [-0.283076, 51.04493], [-0.283031, 51.0451], [-0.283082, 51.045149], [-0.283182, 51.045179], [-0.284274, 51.045234], [-0.284915, 51.045197], [-0.284988, 51.045209], [-0.285056, 51.045318], [-0.28502, 51.045524], [-0.285059, 51.04564]]}, "properties": {"name": "1786689759.Whale_sprint_🐋", "cmt": "2026-08-14", "tstamp": 1786665600, "desc": "---", "src": "-0.285059/51.041787/-0.229157/51.081456", "bbox": "-0.285059/51.041787/-0.229157/51.081456"}}]}