{"type": "FeatureCollection", "name": "TrackSet", "crs": {"type": "name", "properties": {"name": "urn:ogc:def:crs:OGC:1.3:CRS84"}}, "bbox": [-0.285041, 51.034171, -0.229176, 51.081626], "features": [{"type": "Feature", "bbox": [-0.285041, 51.034171, -0.229176, 51.081626], "geometry": {"type": "LineString", "coordinates": [[-0.284984, 51.045477], [-0.284963, 51.045286], [-0.2849, 51.045239], [-0.284794, 51.045225], [-0.284276, 51.045275], [-0.283811, 51.045268], [-0.283064, 51.045191], [-0.282901, 51.045243], [-0.282251, 51.046038], [-0.282091, 51.046333], [-0.281749, 51.047161], [-0.281605, 51.047623], [-0.281556, 51.047905], [-0.281554, 51.048293], [-0.281328, 51.048668], [-0.280996, 51.049014], [-0.280594, 51.049277], [-0.279522, 51.049759], [-0.279163, 51.04983], [-0.278047, 51.049827], [-0.277505, 51.049849], [-0.276903, 51.049953], [-0.276641, 51.050059], [-0.276249, 51.050353], [-0.276024, 51.050629], [-0.275786, 51.050827], [-0.27555, 51.051122], [-0.27522, 51.051422], [-0.274932, 51.051893], [-0.274823, 51.051998], [-0.274417, 51.052644], [-0.274347, 51.052701], [-0.274174, 51.052684], [-0.272928, 51.052128], [-0.272709, 51.052058], [-0.271779, 51.05186], [-0.271388, 51.051713], [-0.270803, 51.05136], [-0.26949, 51.05031], [-0.269193, 51.05012], [-0.269127, 51.050109], [-0.269088, 51.050045], [-0.26906, 51.050045], [-0.269026, 51.050145], [-0.268779, 51.050386], [-0.268813, 51.050467], [-0.268547, 51.050889], [-0.26779, 51.051825], [-0.267624, 51.05195], [-0.267392, 51.052198], [-0.267267, 51.052359], [-0.26704, 51.052784], [-0.266813, 51.053072], [-0.266599, 51.053263], [-0.266484, 51.053489], [-0.266187, 51.053812], [-0.266005, 51.054042], [-0.265853, 51.054301], [-0.265563, 51.054628], [-0.264738, 51.055689], [-0.264522, 51.056041], [-0.264181, 51.056438], [-0.264072, 51.056652], [-0.263775, 51.057003], [-0.263694, 51.057167], [-0.262994, 51.05796], [-0.26294, 51.05812], [-0.262977, 51.058234], [-0.263116, 51.05824], [-0.263896, 51.058411], [-0.26406, 51.058404], [-0.264237, 51.058339], [-0.264525, 51.058286], [-0.264628, 51.058313], [-0.264769, 51.058412], [-0.264803, 51.058627], [-0.264774, 51.061125], [-0.264804, 51.062312], [-0.264751, 51.063245], [-0.264798, 51.064578], [-0.264767, 51.06799], [-0.264812, 51.068565], [-0.264784, 51.069186], [-0.26484, 51.069819], [-0.264806, 51.070017], [-0.264859, 51.070444], [-0.264783, 51.07119], [-0.264803, 51.072286], [-0.264748, 51.072588], [-0.264799, 51.073038], [-0.264707, 51.073201], [-0.264584, 51.073275], [-0.264145, 51.073426], [-0.26393, 51.07347], [-0.263475, 51.073743], [-0.263142, 51.073869], [-0.262428, 51.074226], [-0.262101, 51.074349], [-0.261472, 51.074748], [-0.261268, 51.074931], [-0.260614, 51.075417], [-0.260348, 51.075645], [-0.260238, 51.075777], [-0.259623, 51.07629], [-0.259375, 51.07646], [-0.258864, 51.076962], [-0.258099, 51.077597], [-0.257709, 51.077831], [-0.257418, 51.078084], [-0.256952, 51.078419], [-0.256887, 51.078508], [-0.256347, 51.078839], [-0.256197, 51.078974], [-0.25593, 51.079111], [-0.255559, 51.079374], [-0.255119, 51.079794], [-0.254482, 51.080171], [-0.254417, 51.080225], [-0.254337, 51.080382], [-0.254225, 51.080451], [-0.253727, 51.080494], [-0.252751, 51.080482], [-0.252575, 51.08046], [-0.252248, 51.080484], [-0.251919, 51.080465], [-0.251476, 51.08048], [-0.251023, 51.080515], [-0.250818, 51.080553], [-0.249257, 51.080659], [-0.248456, 51.0808], [-0.247578, 51.080888], [-0.246129, 51.081171], [-0.245023, 51.081333], [-0.244757, 51.081403], [-0.244197, 51.081495], [-0.243861, 51.081626], [-0.243889, 51.081611], [-0.243858, 51.081597], [-0.243874, 51.081576], [-0.244183, 51.081467], [-0.244129, 51.081398], [-0.243966, 51.081342], [-0.243179, 51.080937], [-0.241244, 51.080066], [-0.240806, 51.079919], [-0.239471, 51.07954], [-0.238186, 51.07891], [-0.237014, 51.078493], [-0.236439, 51.078368], [-0.236101, 51.078258], [-0.235731, 51.078176], [-0.233795, 51.077572], [-0.233444, 51.077398], [-0.233243, 51.077348], [-0.232432, 51.076934], [-0.232029, 51.076681], [-0.231638, 51.076368], [-0.231187, 51.075959], [-0.230901, 51.075618], [-0.230634, 51.075401], [-0.22998, 51.074568], [-0.229176, 51.073625], [-0.229555, 51.073353], [-0.229935, 51.073134], [-0.232627, 51.071188], [-0.234069, 51.070234], [-0.234411, 51.070043], [-0.234998, 51.069616], [-0.235697, 51.069195], [-0.236158, 51.069003], [-0.236727, 51.0687], [-0.236953, 51.068541], [-0.237681, 51.068121], [-0.238015, 51.067867], [-0.238491, 51.067426], [-0.238811, 51.067059], [-0.240001, 51.066128], [-0.243077, 51.063841], [-0.243575, 51.063496], [-0.244851, 51.062525], [-0.245579, 51.062042], [-0.246047, 51.061791], [-0.246464, 51.061495], [-0.247738, 51.060413], [-0.248868, 51.059338], [-0.250321, 51.058362], [-0.250928, 51.058011], [-0.251256, 51.057759], [-0.252117, 51.056749], [-0.252538, 51.056141], [-0.252736, 51.055952], [-0.253171, 51.055625], [-0.253745, 51.05498], [-0.254551, 51.054194], [-0.254789, 51.054011], [-0.255305, 51.053686], [-0.256205, 51.053201], [-0.257245, 51.052694], [-0.257899, 51.052412], [-0.258597, 51.05198], [-0.259884, 51.051257], [-0.261186, 51.050437], [-0.261431, 51.050314], [-0.261969, 51.049946], [-0.263499, 51.049003], [-0.263772, 51.048723], [-0.263781, 51.048682], [-0.263623, 51.048643], [-0.263361, 51.048637], [-0.262652, 51.048501], [-0.262444, 51.048443], [-0.262229, 51.048336], [-0.262091, 51.048194], [-0.26204, 51.048002], [-0.262037, 51.047812], [-0.262201, 51.047409], [-0.262138, 51.047201], [-0.261826, 51.046952], [-0.261648, 51.04685], [-0.26154, 51.046813], [-0.260895, 51.046701], [-0.26072, 51.046645], [-0.260394, 51.046461], [-0.260214, 51.046304], [-0.260127, 51.046139], [-0.260178, 51.045693], [-0.260176, 51.044837], [-0.260256, 51.044567], [-0.260451, 51.044157], [-0.260831, 51.043545], [-0.26088, 51.043286], [-0.26087, 51.043031], [-0.260912, 51.042863], [-0.26087, 51.042422], [-0.260733, 51.042122], [-0.260699, 51.041764], [-0.260785, 51.041337], [-0.260891, 51.040242], [-0.260986, 51.039801], [-0.261042, 51.03925], [-0.261027, 51.038907], [-0.261085, 51.038391], [-0.26102, 51.038208], [-0.260924, 51.038064], [-0.26073, 51.03792], [-0.260026, 51.037605], [-0.25975, 51.037455], [-0.259474, 51.037263], [-0.259128, 51.036944], [-0.258807, 51.036695], [-0.258508, 51.036326], [-0.258131, 51.035767], [-0.257901, 51.035588], [-0.257623, 51.035436], [-0.257395, 51.035265], [-0.256644, 51.034249], [-0.256557, 51.034238], [-0.255997, 51.034419], [-0.253233, 51.035453], [-0.252966, 51.035584], [-0.252256, 51.035866], [-0.250341, 51.036597], [-0.249778, 51.036791], [-0.244976, 51.037992], [-0.24469, 51.038066], [-0.244662, 51.038103], [-0.244623, 51.038099], [-0.244675, 51.038068], [-0.24467, 51.038095], [-0.244598, 51.038092], [-0.244609, 51.038034], [-0.245331, 51.037826], [-0.249608, 51.03679], [-0.250367, 51.036527], [-0.252826, 51.035557], [-0.253286, 51.035399], [-0.256407, 51.034181], [-0.256649, 51.034171], [-0.256746, 51.034248], [-0.256785, 51.034353], [-0.257457, 51.035258], [-0.257589, 51.035351], [-0.258021, 51.035542], [-0.258135, 51.03564], [-0.258241, 51.035758], [-0.258522, 51.036252], [-0.258694, 51.03648], [-0.258822, 51.036575], [-0.259122, 51.036886], [-0.259763, 51.037395], [-0.260135, 51.037591], [-0.260634, 51.037796], [-0.260952, 51.037979], [-0.261133, 51.038164], [-0.261184, 51.038292], [-0.261125, 51.038554], [-0.261125, 51.039008], [-0.261082, 51.039365], [-0.261083, 51.039459], [-0.261127, 51.039465], [-0.261053, 51.039768], [-0.260815, 51.041387], [-0.260789, 51.041753], [-0.260834, 51.041793], [-0.260914, 51.041816], [-0.261146, 51.0418], [-0.262287, 51.041858], [-0.26338, 51.04188], [-0.264469, 51.041951], [-0.265977, 51.042341], [-0.26706, 51.042692], [-0.267812, 51.042995], [-0.268738, 51.04333], [-0.268842, 51.04339], [-0.269025, 51.043555], [-0.269097, 51.043719], [-0.269374, 51.044117], [-0.269795, 51.044385], [-0.270663, 51.045129], [-0.270853, 51.04522], [-0.271019, 51.045252], [-0.271403, 51.045291], [-0.271775, 51.045256], [-0.271868, 51.045223], [-0.272075, 51.04522], [-0.27284, 51.045135], [-0.274943, 51.044976], [-0.275338, 51.044991], [-0.276117, 51.045136], [-0.27657, 51.045164], [-0.277309, 51.045277], [-0.277956, 51.045299], [-0.278919, 51.045237], [-0.279952, 51.045077], [-0.280824, 51.044997], [-0.281428, 51.044975], [-0.282005, 51.044907], [-0.28247, 51.044822], [-0.282681, 51.044811], [-0.282901, 51.044829], [-0.283008, 51.04486], [-0.283053, 51.044931], [-0.283008, 51.045085], [-0.283043, 51.045134], [-0.283123, 51.045166], [-0.283677, 51.045227], [-0.284071, 51.045242], [-0.28479, 51.045204], [-0.285011, 51.045228], [-0.285041, 51.045576], [-0.284916, 51.045601]]}, "properties": {"name": "1786431545.Windy_Whale_🐳_💨", "cmt": "2026-08-11", "tstamp": 1786406400, "desc": "---", "src": "-0.285041/51.034171/-0.229176/51.081626", "bbox": "-0.285041/51.034171/-0.229176/51.081626"}}]}