{"type": "FeatureCollection", "name": "TrackSet", "crs": {"type": "name", "properties": {"name": "urn:ogc:def:crs:OGC:1.3:CRS84"}}, "bbox": [-0.34209, 51.044418, -0.284971, 51.065716], "features": [{"type": "Feature", "bbox": [-0.34209, 51.044418, -0.284971, 51.065716], "geometry": {"type": "LineString", "coordinates": [[-0.285077, 51.045535], [-0.285032, 51.045576], [-0.285057, 51.045568], [-0.28502, 51.045518], [-0.28508, 51.045447], [-0.284971, 51.045271], [-0.285051, 51.045192], [-0.285249, 51.045146], [-0.285859, 51.045093], [-0.286846, 51.044969], [-0.287803, 51.044804], [-0.288162, 51.044704], [-0.288318, 51.044584], [-0.288435, 51.044418], [-0.288531, 51.044421], [-0.289501, 51.044935], [-0.290819, 51.045533], [-0.292295, 51.046256], [-0.293293, 51.046905], [-0.293602, 51.047071], [-0.293918, 51.047222], [-0.296336, 51.048217], [-0.296842, 51.048466], [-0.297472, 51.048879], [-0.298026, 51.049301], [-0.298476, 51.049583], [-0.298836, 51.049876], [-0.299142, 51.050175], [-0.299177, 51.050295], [-0.299367, 51.050593], [-0.299406, 51.050819], [-0.299398, 51.051075], [-0.299542, 51.051574], [-0.299734, 51.051773], [-0.300074, 51.051969], [-0.300332, 51.052158], [-0.300677, 51.052492], [-0.30092, 51.052625], [-0.30118, 51.05272], [-0.301732, 51.052857], [-0.303644, 51.053296], [-0.304277, 51.053518], [-0.304891, 51.053684], [-0.306813, 51.054037], [-0.310778, 51.055137], [-0.311835, 51.05546], [-0.312711, 51.055769], [-0.312925, 51.055871], [-0.313239, 51.056097], [-0.315155, 51.057603], [-0.315878, 51.058205], [-0.316583, 51.058705], [-0.316959, 51.058854], [-0.32175, 51.060069], [-0.322122, 51.060181], [-0.323128, 51.060556], [-0.324008, 51.060838], [-0.324237, 51.06089], [-0.324394, 51.060958], [-0.324625, 51.061028], [-0.324717, 51.061032], [-0.325024, 51.061149], [-0.325728, 51.061361], [-0.326243, 51.061471], [-0.327647, 51.061897], [-0.327904, 51.061997], [-0.32803, 51.062119], [-0.327932, 51.062279], [-0.327899, 51.062402], [-0.3278, 51.062491], [-0.327543, 51.062617], [-0.327523, 51.062681], [-0.327585, 51.062765], [-0.327576, 51.062841], [-0.327872, 51.063031], [-0.328196, 51.063112], [-0.328231, 51.0631], [-0.328221, 51.063043], [-0.328267, 51.063081], [-0.328196, 51.063102], [-0.328281, 51.063082], [-0.328283, 51.062997], [-0.328399, 51.062969], [-0.328522, 51.062983], [-0.328583, 51.062946], [-0.328631, 51.062891], [-0.328637, 51.06279], [-0.328759, 51.062487], [-0.32902, 51.062266], [-0.329062, 51.062133], [-0.329227, 51.062054], [-0.330226, 51.062249], [-0.330783, 51.062441], [-0.331027, 51.062487], [-0.331879, 51.062751], [-0.332069, 51.062747], [-0.332519, 51.062922], [-0.332584, 51.06298], [-0.332536, 51.063207], [-0.332416, 51.063372], [-0.332472, 51.063491], [-0.332814, 51.063553], [-0.33298, 51.06364], [-0.333239, 51.06365], [-0.333415, 51.063763], [-0.333469, 51.063856], [-0.334441, 51.064212], [-0.335553, 51.064523], [-0.336724, 51.064757], [-0.337629, 51.065092], [-0.33818, 51.065254], [-0.339996, 51.065526], [-0.341348, 51.065621], [-0.341769, 51.065631], [-0.341843, 51.065597], [-0.341856, 51.065551], [-0.341875, 51.065396], [-0.341833, 51.065231], [-0.341692, 51.065163], [-0.341521, 51.065176], [-0.34146, 51.065122], [-0.341547, 51.06492], [-0.341647, 51.064913], [-0.341911, 51.064954], [-0.341941, 51.064947], [-0.341925, 51.064861], [-0.342003, 51.064889], [-0.342086, 51.06486], [-0.34209, 51.064916], [-0.341853, 51.064803], [-0.34168, 51.064836], [-0.341666, 51.064858], [-0.341703, 51.064876], [-0.341636, 51.064855], [-0.341734, 51.064932], [-0.341759, 51.064869], [-0.341852, 51.064844], [-0.341626, 51.065121], [-0.341615, 51.064988], [-0.341786, 51.064975], [-0.341869, 51.065003], [-0.341882, 51.064817], [-0.341823, 51.06484], [-0.341861, 51.064834], [-0.341824, 51.065081], [-0.341857, 51.064866], [-0.341801, 51.064861], [-0.341857, 51.064866], [-0.341802, 51.064898], [-0.341805, 51.064961], [-0.341794, 51.064872], [-0.341822, 51.065047], [-0.341816, 51.064858], [-0.341785, 51.064843], [-0.341808, 51.064869], [-0.341786, 51.064846], [-0.341803, 51.064864], [-0.341821, 51.064846], [-0.341796, 51.064901], [-0.341816, 51.064858], [-0.341783, 51.064848], [-0.341816, 51.064858], [-0.341799, 51.06483], [-0.341816, 51.064858], [-0.341785, 51.064848], [-0.341823, 51.065093], [-0.341793, 51.064715], [-0.341761, 51.064738], [-0.341735, 51.064713], [-0.341333, 51.064853], [-0.341355, 51.064679], [-0.341284, 51.064673], [-0.34131, 51.064695], [-0.341273, 51.064668], [-0.341176, 51.064764], [-0.341199, 51.06477], [-0.341149, 51.064767], [-0.341226, 51.064728], [-0.341204, 51.064773], [-0.341191, 51.064714], [-0.341845, 51.064848], [-0.341788, 51.064846], [-0.341841, 51.064848], [-0.341799, 51.06483], [-0.341841, 51.064848], [-0.341799, 51.064941], [-0.341577, 51.065272], [-0.341281, 51.064827], [-0.341177, 51.064816], [-0.341244, 51.064812], [-0.34127, 51.064837], [-0.341288, 51.064762], [-0.341169, 51.064703], [-0.341804, 51.064937], [-0.341799, 51.064829], [-0.34154, 51.065102], [-0.341557, 51.065158], [-0.341851, 51.065196], [-0.341913, 51.065251], [-0.341921, 51.065593], [-0.341969, 51.065586], [-0.341935, 51.065656], [-0.341815, 51.065705], [-0.341644, 51.065716], [-0.340766, 51.06571], [-0.338259, 51.065354], [-0.337842, 51.065252], [-0.336581, 51.064846], [-0.336053, 51.064714], [-0.33538, 51.064582], [-0.333979, 51.064154], [-0.333269, 51.063994], [-0.333217, 51.063995], [-0.333138, 51.064038], [-0.332991, 51.064209], [-0.332779, 51.064351], [-0.332381, 51.064532], [-0.332127, 51.064576], [-0.331786, 51.064595], [-0.329931, 51.064442], [-0.328472, 51.064293], [-0.327292, 51.064105], [-0.326803, 51.063963], [-0.326753, 51.063932], [-0.326733, 51.063841], [-0.326769, 51.0638], [-0.327124, 51.063655], [-0.32705, 51.063577], [-0.327258, 51.063322], [-0.327354, 51.063096], [-0.327049, 51.0629], [-0.327042, 51.062785], [-0.327788, 51.062406], [-0.327831, 51.062302], [-0.327977, 51.062139], [-0.327981, 51.062078], [-0.327921, 51.062033], [-0.327668, 51.061935], [-0.327365, 51.061872], [-0.326618, 51.061595], [-0.326332, 51.061537], [-0.326169, 51.061519], [-0.326137, 51.061535], [-0.325704, 51.06144], [-0.325439, 51.06141], [-0.325076, 51.061318], [-0.323829, 51.06084], [-0.321854, 51.060172], [-0.320523, 51.059817], [-0.317465, 51.059067], [-0.316691, 51.05885], [-0.316463, 51.058746], [-0.316189, 51.058571], [-0.314856, 51.057478], [-0.312987, 51.056003], [-0.31276, 51.055864], [-0.312437, 51.055728], [-0.310205, 51.054988], [-0.309199, 51.054744], [-0.308899, 51.054628], [-0.306974, 51.054164], [-0.306933, 51.054134], [-0.305781, 51.053931], [-0.304605, 51.053681], [-0.303727, 51.053395], [-0.303032, 51.053219], [-0.30222, 51.053034], [-0.301362, 51.052873], [-0.300682, 51.052629], [-0.300171, 51.052159], [-0.2997, 51.051832], [-0.29942, 51.051585], [-0.299302, 51.051357], [-0.299149, 51.050341], [-0.299022, 51.050011], [-0.298262, 51.049464], [-0.297418, 51.048957], [-0.297171, 51.048838], [-0.297015, 51.048704], [-0.296895, 51.048651], [-0.296486, 51.048381], [-0.296356, 51.048264], [-0.296044, 51.048113], [-0.29438, 51.04747], [-0.293479, 51.047077], [-0.293065, 51.046835], [-0.292359, 51.046358], [-0.291835, 51.046074], [-0.291168, 51.045741], [-0.290908, 51.045653], [-0.290025, 51.045236], [-0.289826, 51.045165], [-0.288937, 51.044712], [-0.288667, 51.044648], [-0.288401, 51.044647], [-0.288047, 51.044795], [-0.287545, 51.044912], [-0.286523, 51.045064], [-0.285157, 51.045207], [-0.285049, 51.045259], [-0.285027, 51.045306], [-0.285066, 51.045438], [-0.285051, 51.045586]]}, "properties": {"name": "1786464828.Quiche_extravaganza_😉", "cmt": "2026-08-11", "tstamp": 1786406400, "desc": "---", "src": "-0.34209/51.044418/-0.284971/51.065716", "bbox": "-0.34209/51.044418/-0.284971/51.065716"}}]}