{"type": "FeatureCollection", "name": "TrackSet", "crs": {"type": "name", "properties": {"name": "urn:ogc:def:crs:OGC:1.3:CRS84"}}, "bbox": [-0.342458, 51.044441, -0.274309, 51.065709], "features": [{"type": "Feature", "bbox": [-0.342458, 51.044441, -0.274309, 51.065709], "geometry": {"type": "LineString", "coordinates": [[-0.284937, 51.045757], [-0.28507, 51.04565], [-0.28503, 51.045627], [-0.285054, 51.045632], [-0.285038, 51.045465], [-0.28496, 51.045308], [-0.285024, 51.04519], [-0.28688, 51.044978], [-0.287732, 51.04484], [-0.288003, 51.04477], [-0.288192, 51.044691], [-0.288405, 51.044441], [-0.288546, 51.044454], [-0.28942, 51.044906], [-0.291064, 51.045647], [-0.29224, 51.046232], [-0.293321, 51.046945], [-0.293917, 51.047247], [-0.294349, 51.047404], [-0.296232, 51.048183], [-0.296654, 51.048377], [-0.297264, 51.048769], [-0.297953, 51.049278], [-0.298517, 51.049652], [-0.299172, 51.050204], [-0.299366, 51.050518], [-0.299384, 51.050649], [-0.299462, 51.050822], [-0.299442, 51.051282], [-0.29956, 51.05155], [-0.299825, 51.05184], [-0.300091, 51.052009], [-0.300492, 51.052364], [-0.300823, 51.052605], [-0.300986, 51.052682], [-0.301307, 51.052771], [-0.30347, 51.05325], [-0.304332, 51.053534], [-0.304935, 51.053688], [-0.30672, 51.054016], [-0.309825, 51.054895], [-0.310998, 51.055193], [-0.312719, 51.055792], [-0.312905, 51.055878], [-0.313187, 51.056064], [-0.313872, 51.056585], [-0.31593, 51.058273], [-0.316512, 51.058681], [-0.316849, 51.058827], [-0.319221, 51.059449], [-0.32163, 51.060035], [-0.322239, 51.060227], [-0.323314, 51.060617], [-0.324277, 51.0609], [-0.324749, 51.061079], [-0.325992, 51.061441], [-0.326524, 51.061551], [-0.326674, 51.061561], [-0.326855, 51.061659], [-0.32759, 51.061869], [-0.327969, 51.062042], [-0.328036, 51.062047], [-0.328112, 51.062], [-0.328193, 51.062002], [-0.328261, 51.061966], [-0.328366, 51.061993], [-0.328478, 51.06193], [-0.328686, 51.061711], [-0.328806, 51.061697], [-0.328954, 51.061723], [-0.329061, 51.061766], [-0.329143, 51.061927], [-0.329156, 51.062035], [-0.329197, 51.062053], [-0.33018, 51.062221], [-0.331209, 51.062542], [-0.331582, 51.062609], [-0.331787, 51.062702], [-0.332124, 51.062757], [-0.332326, 51.062765], [-0.332359, 51.062904], [-0.332514, 51.062947], [-0.332562, 51.063017], [-0.332467, 51.063159], [-0.332404, 51.063389], [-0.332351, 51.063428], [-0.332391, 51.063496], [-0.332673, 51.063504], [-0.33289, 51.063623], [-0.333051, 51.063668], [-0.333186, 51.063622], [-0.333253, 51.063625], [-0.333386, 51.063693], [-0.333431, 51.063811], [-0.333541, 51.063885], [-0.334302, 51.064159], [-0.335538, 51.064519], [-0.336602, 51.064722], [-0.338094, 51.065241], [-0.340374, 51.065585], [-0.341166, 51.065641], [-0.341782, 51.065645], [-0.341838, 51.065631], [-0.341881, 51.065536], [-0.341871, 51.065224], [-0.341766, 51.065179], [-0.341518, 51.065161], [-0.341483, 51.065132], [-0.341542, 51.064935], [-0.341619, 51.064926], [-0.341618, 51.064894], [-0.341678, 51.064931], [-0.341651, 51.06496], [-0.341722, 51.064948], [-0.341805, 51.065035], [-0.341717, 51.064977], [-0.341502, 51.064922], [-0.34164, 51.064978], [-0.341792, 51.064972], [-0.341792, 51.064929], [-0.341806, 51.06496], [-0.341773, 51.064976], [-0.341805, 51.06495], [-0.341774, 51.064913], [-0.341708, 51.064896], [-0.341856, 51.06483], [-0.341817, 51.064881], [-0.341846, 51.064889], [-0.341803, 51.064835], [-0.341799, 51.064928], [-0.341736, 51.064974], [-0.342012, 51.065011], [-0.341666, 51.065076], [-0.341837, 51.06503], [-0.341891, 51.064993], [-0.341938, 51.065005], [-0.341854, 51.064843], [-0.341928, 51.064908], [-0.34191, 51.064881], [-0.341857, 51.064889], [-0.34169, 51.064979], [-0.341692, 51.064944], [-0.342458, 51.064681], [-0.341883, 51.065055], [-0.341804, 51.064864], [-0.341831, 51.064972], [-0.341791, 51.064854], [-0.341801, 51.064938], [-0.341789, 51.064857], [-0.341819, 51.064959], [-0.341817, 51.06488], [-0.341846, 51.064985], [-0.341808, 51.064911], [-0.341813, 51.064962], [-0.341802, 51.064874], [-0.341818, 51.06494], [-0.341833, 51.064854], [-0.341797, 51.064841], [-0.341523, 51.065098], [-0.341525, 51.065134], [-0.341853, 51.065165], [-0.341905, 51.065214], [-0.341948, 51.065539], [-0.341902, 51.065601], [-0.341955, 51.065667], [-0.341793, 51.065709], [-0.341329, 51.065702], [-0.340233, 51.06563], [-0.338427, 51.065383], [-0.338077, 51.065315], [-0.336334, 51.064781], [-0.335308, 51.064563], [-0.334486, 51.064312], [-0.33325, 51.063994], [-0.333113, 51.064038], [-0.332899, 51.064291], [-0.332518, 51.064487], [-0.332296, 51.064557], [-0.331753, 51.064603], [-0.329582, 51.064426], [-0.328494, 51.06431], [-0.327367, 51.064106], [-0.327304, 51.064117], [-0.327188, 51.064074], [-0.326818, 51.064008], [-0.32649, 51.063849], [-0.326042, 51.063675], [-0.325627, 51.063443], [-0.325214, 51.063104], [-0.325041, 51.06302], [-0.324828, 51.062749], [-0.324733, 51.062468], [-0.324785, 51.062184], [-0.324913, 51.061975], [-0.325303, 51.061484], [-0.325307, 51.061425], [-0.325232, 51.061344], [-0.324991, 51.061289], [-0.323858, 51.060837], [-0.323289, 51.060667], [-0.321842, 51.06016], [-0.321443, 51.060048], [-0.320934, 51.059943], [-0.320482, 51.059808], [-0.320195, 51.059761], [-0.317236, 51.059002], [-0.316577, 51.058793], [-0.316267, 51.058609], [-0.315935, 51.058361], [-0.314269, 51.057016], [-0.314168, 51.056975], [-0.31405, 51.056967], [-0.31391, 51.057001], [-0.313485, 51.057016], [-0.309355, 51.057031], [-0.308202, 51.057061], [-0.306867, 51.057254], [-0.305811, 51.057439], [-0.304469, 51.057814], [-0.304403, 51.057796], [-0.304342, 51.057692], [-0.304255, 51.057623], [-0.30338, 51.057263], [-0.302884, 51.056811], [-0.302713, 51.056701], [-0.301868, 51.056402], [-0.301454, 51.056221], [-0.30107, 51.055904], [-0.300782, 51.055724], [-0.300059, 51.05554], [-0.298095, 51.055601], [-0.29787, 51.055653], [-0.296977, 51.055711], [-0.296034, 51.055647], [-0.295368, 51.055657], [-0.294957, 51.055538], [-0.294419, 51.055481], [-0.294241, 51.05542], [-0.293586, 51.05533], [-0.292725, 51.055344], [-0.292466, 51.05532], [-0.290727, 51.055478], [-0.290179, 51.055516], [-0.289867, 51.055513], [-0.289677, 51.055547], [-0.28936, 51.05555], [-0.28906, 51.055589], [-0.286946, 51.055658], [-0.285684, 51.05576], [-0.285123, 51.055753], [-0.284792, 51.055736], [-0.283561, 51.055577], [-0.282157, 51.055459], [-0.281875, 51.055382], [-0.281152, 51.055266], [-0.280881, 51.055192], [-0.280446, 51.055123], [-0.280171, 51.055128], [-0.279309, 51.055239], [-0.278918, 51.05525], [-0.278473, 51.05511], [-0.278298, 51.055083], [-0.278232, 51.055094], [-0.278092, 51.055031], [-0.277959, 51.0549], [-0.277895, 51.054708], [-0.277713, 51.054502], [-0.277577, 51.054405], [-0.277441, 51.054194], [-0.277014, 51.053866], [-0.276264, 51.053601], [-0.276083, 51.053492], [-0.274876, 51.053004], [-0.274333, 51.052744], [-0.274309, 51.052704], [-0.274505, 51.052382], [-0.274901, 51.051864], [-0.275321, 51.051217], [-0.275809, 51.050613], [-0.276646, 51.049993], [-0.277207, 51.049767], [-0.277687, 51.049704], [-0.278149, 51.049764], [-0.27892, 51.049817], [-0.279255, 51.049772], [-0.279535, 51.049707], [-0.279897, 51.049581], [-0.280222, 51.049385], [-0.280669, 51.049167], [-0.28084, 51.048924], [-0.28123, 51.048614], [-0.281368, 51.048459], [-0.281479, 51.048103], [-0.281462, 51.047897], [-0.28153, 51.047624], [-0.282018, 51.046368], [-0.282322, 51.045906], [-0.282906, 51.04523], [-0.283058, 51.045173], [-0.283409, 51.045226], [-0.284077, 51.045259], [-0.284968, 51.045216], [-0.285036, 51.045234], [-0.285051, 51.04529], [-0.285062, 51.045501], [-0.285007, 51.045547], [-0.285026, 51.045592], [-0.284937, 51.045609], [-0.284958, 51.0456], [-0.284926, 51.045591], [-0.284955, 51.045612], [-0.284926, 51.045623], [-0.284863, 51.045604], [-0.284904, 51.045615], [-0.284859, 51.045636], [-0.284965, 51.045605], [-0.284902, 51.045608], [-0.284955, 51.045624], [-0.284918, 51.045639], [-0.284913, 51.045597], [-0.28485, 51.045599], [-0.284887, 51.045594], [-0.284888, 51.045629], [-0.284926, 51.045634], [-0.284864, 51.045614], [-0.284937, 51.04561], [-0.284901, 51.04559], [-0.284803, 51.04563], [-0.284846, 51.045649], [-0.284864, 51.045752], [-0.28492, 51.045674], [-0.28485, 51.045644], [-0.284924, 51.045631], [-0.284919, 51.045689], [-0.284928, 51.045576], [-0.284947, 51.045745], [-0.284744, 51.045818], [-0.284674, 51.045737], [-0.284446, 51.045602], [-0.284727, 51.045598]]}, "properties": {"name": "1786360665.MDs_for_lunch", "cmt": "2026-08-10", "tstamp": 1786320000, "desc": "---", "src": "-0.342458/51.044441/-0.274309/51.065709", "bbox": "-0.342458/51.044441/-0.274309/51.065709"}}]}