{"type": "FeatureCollection", "name": "TrackSet", "crs": {"type": "name", "properties": {"name": "urn:ogc:def:crs:OGC:1.3:CRS84"}}, "bbox": [6.193125, 46.327754, 6.238313, 46.378428], "features": [{"type": "Feature", "bbox": [6.193125, 46.327754, 6.238313, 46.378428], "geometry": {"type": "LineString", "coordinates": [[6.194313, 46.331796], [6.194299, 46.331774], [6.194375, 46.331791], [6.194611, 46.331705], [6.194702, 46.331621], [6.194439, 46.330992], [6.194012, 46.330186], [6.19391, 46.330125], [6.193841, 46.33012], [6.193222, 46.330191], [6.193125, 46.330158], [6.193134, 46.32982], [6.193227, 46.329698], [6.193397, 46.329611], [6.195393, 46.329218], [6.196263, 46.328996], [6.197483, 46.328585], [6.19968, 46.327754], [6.199848, 46.327789], [6.199968, 46.327942], [6.200103, 46.328025], [6.200926, 46.328976], [6.201318, 46.329528], [6.201655, 46.330101], [6.202034, 46.33088], [6.202302, 46.331633], [6.202411, 46.332155], [6.202479, 46.332865], [6.202466, 46.333798], [6.202497, 46.334213], [6.202467, 46.33502], [6.20252, 46.335756], [6.202676, 46.336485], [6.202857, 46.337084], [6.203069, 46.337616], [6.203487, 46.338424], [6.204189, 46.339451], [6.204501, 46.339839], [6.204927, 46.340559], [6.205137, 46.341015], [6.205488, 46.342174], [6.206796, 46.347729], [6.206982, 46.34834], [6.207159, 46.348858], [6.207502, 46.349567], [6.207879, 46.350198], [6.208168, 46.350613], [6.209282, 46.3519], [6.215503, 46.358352], [6.215876, 46.35879], [6.216131, 46.358968], [6.217607, 46.360301], [6.21834, 46.361014], [6.218901, 46.361613], [6.219547, 46.362373], [6.220054, 46.363038], [6.222309, 46.366232], [6.222727, 46.366722], [6.223266, 46.367255], [6.22379, 46.367707], [6.224967, 46.368517], [6.225744, 46.368946], [6.228677, 46.370388], [6.229652, 46.370963], [6.230077, 46.371252], [6.230847, 46.37188], [6.232779, 46.373659], [6.234958, 46.376449], [6.235185, 46.376691], [6.23558, 46.376967], [6.237507, 46.377894], [6.237906, 46.378114], [6.238184, 46.378209], [6.23831, 46.378308], [6.238313, 46.378365], [6.238268, 46.37841], [6.2382, 46.378428], [6.238066, 46.37839], [6.237841, 46.378183], [6.237508, 46.37797], [6.236063, 46.377294], [6.235595, 46.377056], [6.235235, 46.376835], [6.234996, 46.376626], [6.234798, 46.376394], [6.233721, 46.374987], [6.233384, 46.374608], [6.232824, 46.37388], [6.232052, 46.373128], [6.231719, 46.372883], [6.23149, 46.372624], [6.230631, 46.371864], [6.229913, 46.371315], [6.229323, 46.370926], [6.228526, 46.370467], [6.227247, 46.369889], [6.227018, 46.369733], [6.225625, 46.369049], [6.224791, 46.368585], [6.223812, 46.367912], [6.223422, 46.367605], [6.222983, 46.367206], [6.222506, 46.366716], [6.222156, 46.366287], [6.219834, 46.363018], [6.219184, 46.362181], [6.218594, 46.361512], [6.217796, 46.360688], [6.216805, 46.359761], [6.216462, 46.359488], [6.216177, 46.359218], [6.215831, 46.359034], [6.215766, 46.358972], [6.215692, 46.358747], [6.21558, 46.358617], [6.215238, 46.358325], [6.214611, 46.357702], [6.21106, 46.353991], [6.209347, 46.35223], [6.208794, 46.351642], [6.207908, 46.350583], [6.207532, 46.350022], [6.207215, 46.349435], [6.207024, 46.349009], [6.206713, 46.348135], [6.205705, 46.344009], [6.205428, 46.342733], [6.205025, 46.341283], [6.204543, 46.340227], [6.203574, 46.33878], [6.203156, 46.338073], [6.202887, 46.337511], [6.202663, 46.336922], [6.202445, 46.336108], [6.202363, 46.335489], [6.202327, 46.334553], [6.202339, 46.332736], [6.202284, 46.332259], [6.202135, 46.331544], [6.201874, 46.330866], [6.201399, 46.329904], [6.200784, 46.329016], [6.200041, 46.328138], [6.199907, 46.328024], [6.199818, 46.327983], [6.199513, 46.327925], [6.19932, 46.327944], [6.197167, 46.32875], [6.19588, 46.329153], [6.195232, 46.329309], [6.193482, 46.329643], [6.193296, 46.329719], [6.193203, 46.329851], [6.193176, 46.330088], [6.193196, 46.330128], [6.193306, 46.330148], [6.193849, 46.330079], [6.194006, 46.330144], [6.194455, 46.330911], [6.194753, 46.33156], [6.194751, 46.33162], [6.194658, 46.331695], [6.194462, 46.331781], [6.194378, 46.331806], [6.194294, 46.331772]]}, "properties": {"name": "1787031057.Morning_Ride", "cmt": "2026-08-18", "tstamp": 1787011200, "desc": "---", "src": "6.193125/46.327754/6.238313/46.378428", "bbox": "6.193125/46.327754/6.238313/46.378428"}}]}