{"type": "FeatureCollection", "name": "TrackSet", "crs": {"type": "name", "properties": {"name": "urn:ogc:def:crs:OGC:1.3:CRS84"}}, "bbox": [24.739252, 59.43674, 24.753711, 59.443013], "features": [{"type": "Feature", "bbox": [24.739252, 59.43674, 24.753711, 59.443013], "geometry": {"type": "LineString", "coordinates": [[24.742993, 59.438127], [24.742959, 59.438224], [24.743018, 59.438352], [24.742986, 59.438431], [24.742825, 59.438641], [24.742641, 59.438746], [24.742373, 59.438775], [24.742004, 59.438753], [24.741153, 59.438883], [24.740755, 59.438967], [24.740371, 59.439115], [24.739998, 59.439368], [24.739332, 59.439733], [24.73937, 59.439813], [24.739505, 59.439909], [24.739471, 59.440068], [24.739502, 59.440126], [24.741665, 59.440895], [24.74362, 59.441647], [24.744146, 59.441813], [24.744426, 59.44199], [24.74459, 59.442008], [24.745344, 59.441933], [24.745668, 59.441939], [24.745989, 59.441981], [24.747406, 59.442389], [24.749424, 59.442919], [24.749969, 59.442999], [24.750288, 59.443002], [24.750574, 59.442965], [24.750768, 59.442919], [24.750771, 59.442878], [24.751013, 59.442754], [24.752241, 59.44168], [24.753358, 59.440463], [24.753453, 59.440321], [24.753685, 59.438809], [24.753686, 59.438498], [24.753565, 59.438155], [24.752949, 59.437345], [24.75286, 59.437081], [24.752884, 59.436954], [24.752851, 59.436843], [24.752721, 59.436743], [24.752778, 59.43674], [24.752822, 59.436774], [24.752892, 59.436889], [24.752893, 59.437139], [24.752994, 59.437393], [24.753263, 59.43778], [24.753536, 59.438093], [24.753711, 59.438605], [24.753524, 59.440219], [24.753445, 59.440386], [24.752222, 59.441725], [24.751023, 59.442762], [24.750801, 59.442906], [24.750637, 59.442967], [24.750455, 59.443001], [24.750176, 59.443013], [24.749875, 59.442995], [24.749476, 59.442932], [24.747173, 59.442359], [24.746275, 59.442061], [24.745932, 59.441973], [24.74547, 59.441937], [24.744568, 59.44202], [24.744227, 59.442002], [24.744066, 59.441926], [24.744055, 59.441807], [24.741725, 59.440913], [24.739571, 59.440178], [24.73949, 59.440096], [24.73956, 59.439933], [24.739271, 59.439803], [24.739252, 59.439771], [24.740644, 59.438964], [24.740754, 59.438916], [24.741392, 59.438835], [24.741665, 59.438776], [24.742103, 59.438728], [24.74253, 59.438726], [24.742755, 59.438662], [24.742933, 59.43856], [24.742998, 59.438487]]}, "properties": {"name": "1787313845.Bike_technical_check", "cmt": "2026-08-21", "tstamp": 1787270400, "desc": "---", "src": "24.739252/59.43674/24.753711/59.443013", "bbox": "24.739252/59.43674/24.753711/59.443013"}}]}