{"type": "FeatureCollection", "name": "TrackSet", "crs": {"type": "name", "properties": {"name": "urn:ogc:def:crs:OGC:1.3:CRS84"}}, "bbox": [6.045125, 46.228981, 6.194749, 46.331804], "features": [{"type": "Feature", "bbox": [6.045125, 46.228981, 6.194749, 46.331804], "geometry": {"type": "LineString", "coordinates": [[6.045165, 46.232365], [6.045232, 46.232349], [6.045243, 46.232382], [6.045165, 46.232365], [6.045132, 46.232326], [6.045125, 46.232294], [6.045174, 46.232238], [6.04624, 46.231751], [6.046186, 46.231659], [6.045974, 46.231598], [6.045913, 46.231533], [6.04591, 46.231478], [6.046068, 46.231275], [6.046233, 46.230916], [6.046377, 46.230814], [6.048721, 46.229806], [6.050528, 46.229073], [6.050773, 46.228992], [6.051044, 46.228981], [6.051573, 46.229046], [6.05169, 46.229085], [6.051845, 46.229241], [6.05193, 46.229486], [6.052124, 46.229825], [6.052355, 46.230024], [6.052506, 46.230091], [6.05276, 46.23014], [6.053369, 46.230203], [6.055057, 46.230318], [6.055245, 46.230316], [6.055486, 46.230218], [6.055653, 46.230256], [6.05571, 46.230395], [6.055691, 46.230526], [6.056519, 46.231894], [6.05676, 46.232116], [6.057117, 46.232337], [6.05712, 46.232381], [6.057341, 46.232571], [6.057535, 46.232697], [6.057773, 46.23277], [6.057868, 46.232837], [6.057901, 46.232928], [6.057848, 46.233015], [6.057742, 46.233067], [6.057706, 46.233116], [6.057731, 46.233154], [6.057837, 46.233227], [6.05805, 46.233286], [6.058206, 46.233293], [6.05852, 46.233222], [6.059196, 46.233013], [6.059301, 46.233013], [6.059396, 46.233043], [6.059463, 46.233099], [6.059585, 46.233375], [6.059923, 46.233909], [6.06032, 46.234645], [6.060389, 46.234689], [6.060482, 46.234698], [6.060584, 46.234671], [6.060736, 46.234597], [6.061977, 46.234262], [6.062611, 46.233955], [6.062802, 46.233822], [6.062857, 46.233807], [6.062932, 46.233824], [6.06426, 46.234813], [6.064752, 46.235283], [6.066307, 46.236383], [6.066453, 46.236537], [6.067208, 46.237659], [6.068361, 46.23898], [6.068622, 46.239123], [6.068895, 46.239449], [6.069821, 46.240223], [6.069906, 46.240244], [6.07, 46.240235], [6.070083, 46.240197], [6.070838, 46.239655], [6.070905, 46.239629], [6.071043, 46.239675], [6.071198, 46.239808], [6.071764, 46.240186], [6.073008, 46.241086], [6.073044, 46.241178], [6.073029, 46.241349], [6.073177, 46.241503], [6.073281, 46.241674], [6.073684, 46.242164], [6.074016, 46.242512], [6.074252, 46.242703], [6.074334, 46.242729], [6.074428, 46.242727], [6.074506, 46.242698], [6.074891, 46.242377], [6.075049, 46.242355], [6.075122, 46.242379], [6.076002, 46.243012], [6.077215, 46.243819], [6.077761, 46.244165], [6.078416, 46.244522], [6.078725, 46.244851], [6.079521, 46.245365], [6.080161, 46.245519], [6.081296, 46.245624], [6.081632, 46.245673], [6.081728, 46.245713], [6.08179, 46.245807], [6.081648, 46.246113], [6.081724, 46.246262], [6.081918, 46.246366], [6.082511, 46.246607], [6.083286, 46.246865], [6.0837, 46.247058], [6.084272, 46.247262], [6.084317, 46.247318], [6.084322, 46.247389], [6.08424, 46.24757], [6.084267, 46.247627], [6.08456, 46.247915], [6.084938, 46.248124], [6.085714, 46.24842], [6.086148, 46.248525], [6.086538, 46.248553], [6.086825, 46.248677], [6.088121, 46.249007], [6.08945, 46.249435], [6.090305, 46.249761], [6.09038, 46.249805], [6.090584, 46.250014], [6.090962, 46.250087], [6.092029, 46.250555], [6.092221, 46.250663], [6.092586, 46.250951], [6.092984, 46.251382], [6.093136, 46.251486], [6.093326, 46.251888], [6.093422, 46.252002], [6.093564, 46.252094], [6.093742, 46.252147], [6.093939, 46.252162], [6.094705, 46.2521], [6.095553, 46.252072], [6.095645, 46.252054], [6.095879, 46.251941], [6.09605, 46.251927], [6.096353, 46.252079], [6.097174, 46.252373], [6.097221, 46.252445], [6.097112, 46.252646], [6.097028, 46.252907], [6.097165, 46.25329], [6.097442, 46.253543], [6.099113, 46.254498], [6.099811, 46.254844], [6.100014, 46.25499], [6.100532, 46.255073], [6.10169, 46.255401], [6.102069, 46.255467], [6.102108, 46.255498], [6.1021, 46.255537], [6.10128, 46.256233], [6.100688, 46.25665], [6.100569, 46.256774], [6.100496, 46.256914], [6.101246, 46.257456], [6.10161, 46.257665], [6.102491, 46.258284], [6.102572, 46.258297], [6.103185, 46.258268], [6.103359, 46.258313], [6.105296, 46.259508], [6.105766, 46.259649], [6.106242, 46.259714], [6.107273, 46.260103], [6.107637, 46.260216], [6.108157, 46.260305], [6.108532, 46.260331], [6.108833, 46.260325], [6.108993, 46.260297], [6.109211, 46.260354], [6.109253, 46.260394], [6.109319, 46.260577], [6.110242, 46.261276], [6.111249, 46.262115], [6.112942, 46.26339], [6.114361, 46.264299], [6.114524, 46.264352], [6.114798, 46.264341], [6.114862, 46.264374], [6.114917, 46.264433], [6.114898, 46.264567], [6.114926, 46.264619], [6.115188, 46.264857], [6.115264, 46.264961], [6.115288, 46.265071], [6.115191, 46.265169], [6.114705, 46.265489], [6.114689, 46.26553], [6.114721, 46.265581], [6.116054, 46.266183], [6.11618, 46.266267], [6.116191, 46.26633], [6.116778, 46.266705], [6.117889, 46.267666], [6.118172, 46.267823], [6.118421, 46.267916], [6.119383, 46.268196], [6.121008, 46.269075], [6.12154, 46.269283], [6.121782, 46.269472], [6.122073, 46.269817], [6.122441, 46.27008], [6.123316, 46.270525], [6.1246, 46.270975], [6.125013, 46.271357], [6.125519, 46.27169], [6.125714, 46.271741], [6.125953, 46.271856], [6.127359, 46.272105], [6.128179, 46.272351], [6.128395, 46.272446], [6.128962, 46.272812], [6.129455, 46.273068], [6.130347, 46.273438], [6.130581, 46.273563], [6.131298, 46.274162], [6.131565, 46.274419], [6.131738, 46.274632], [6.13181, 46.274789], [6.131836, 46.274956], [6.131771, 46.275377], [6.131784, 46.275546], [6.13193, 46.275943], [6.132149, 46.276317], [6.132445, 46.276636], [6.133819, 46.277925], [6.134046, 46.278068], [6.134597, 46.278896], [6.134678, 46.278963], [6.135089, 46.279645], [6.135234, 46.279814], [6.135441, 46.279967], [6.136207, 46.280367], [6.136627, 46.280541], [6.138081, 46.281032], [6.139407, 46.281642], [6.139608, 46.281674], [6.140404, 46.281686], [6.141093, 46.281645], [6.141384, 46.281657], [6.144376, 46.282051], [6.145477, 46.282375], [6.145863, 46.282529], [6.146015, 46.282616], [6.147221, 46.283709], [6.14752, 46.283915], [6.147843, 46.283998], [6.147902, 46.284044], [6.147925, 46.284108], [6.147839, 46.284295], [6.147844, 46.284352], [6.148029, 46.284479], [6.150941, 46.287238], [6.151066, 46.287342], [6.15131, 46.287454], [6.151366, 46.28751], [6.151439, 46.287716], [6.151699, 46.288014], [6.151899, 46.28834], [6.153069, 46.290673], [6.153226, 46.291063], [6.153467, 46.291818], [6.153531, 46.291947], [6.153697, 46.292117], [6.153815, 46.292447], [6.157296, 46.296038], [6.157752, 46.296361], [6.158378, 46.296664], [6.158861, 46.296828], [6.159673, 46.297042], [6.160373, 46.297306], [6.161434, 46.297661], [6.162276, 46.297985], [6.162674, 46.298214], [6.163447, 46.298788], [6.16392, 46.299089], [6.164329, 46.299395], [6.164646, 46.299711], [6.165672, 46.300905], [6.165944, 46.301185], [6.168849, 46.303163], [6.16917, 46.303284], [6.169616, 46.303394], [6.170151, 46.304382], [6.17042, 46.304674], [6.17086, 46.305026], [6.171479, 46.305459], [6.171856, 46.305665], [6.172455, 46.305939], [6.172519, 46.306056], [6.172397, 46.306637], [6.172375, 46.307641], [6.172397, 46.307875], [6.172481, 46.308084], [6.172644, 46.308333], [6.173188, 46.308972], [6.17336, 46.309382], [6.173404, 46.309619], [6.173577, 46.309936], [6.173546, 46.310169], [6.173588, 46.310456], [6.174487, 46.314807], [6.174675, 46.315522], [6.1749, 46.315748], [6.175973, 46.317078], [6.176463, 46.317633], [6.177372, 46.318532], [6.177487, 46.318615], [6.177709, 46.318881], [6.177962, 46.319518], [6.178391, 46.319985], [6.178735, 46.320424], [6.178958, 46.320514], [6.179391, 46.32051], [6.179753, 46.320534], [6.179874, 46.320602], [6.179981, 46.32075], [6.180465, 46.321006], [6.180668, 46.321243], [6.181335, 46.322452], [6.181445, 46.32258], [6.181655, 46.322746], [6.181747, 46.322793], [6.181971, 46.322839], [6.182686, 46.322884], [6.183048, 46.322885], [6.183528, 46.322953], [6.183757, 46.323017], [6.184067, 46.32315], [6.184325, 46.323328], [6.186351, 46.325273], [6.18667, 46.325678], [6.186889, 46.32603], [6.187061, 46.326227], [6.18844, 46.327494], [6.18887, 46.327871], [6.189713, 46.328346], [6.19036, 46.328827], [6.190679, 46.329118], [6.191139, 46.329623], [6.191674, 46.330078], [6.191765, 46.330249], [6.191927, 46.330764], [6.19202, 46.330798], [6.192123, 46.330787], [6.192834, 46.330467], [6.192991, 46.330354], [6.193132, 46.330173], [6.193214, 46.330147], [6.193884, 46.330088], [6.193978, 46.330108], [6.194051, 46.330158], [6.194561, 46.331171], [6.194749, 46.331608], [6.194748, 46.331656], [6.194695, 46.331696], [6.194331, 46.331804], [6.194259, 46.331758], [6.194288, 46.331723], [6.194251, 46.331663], [6.194293, 46.331702]]}, "properties": {"name": "1787673417.Tuesday_Evening_Cycle", "cmt": "2026-08-25", "tstamp": 1787616000, "desc": "---", "src": "6.045125/46.228981/6.194749/46.331804", "bbox": "6.045125/46.228981/6.194749/46.331804"}}]}