{"type": "FeatureCollection", "name": "TrackSet", "crs": {"type": "name", "properties": {"name": "urn:ogc:def:crs:OGC:1.3:CRS84"}}, "bbox": [24.647609, 59.424981, 24.745054, 59.441818], "features": [{"type": "Feature", "bbox": [24.647609, 59.424981, 24.745054, 59.441818], "geometry": {"type": "LineString", "coordinates": [[24.743951, 59.437905], [24.743737, 59.437812], [24.743539, 59.437771], [24.743152, 59.437751], [24.743008, 59.437799], [24.742974, 59.43779], [24.742983, 59.438063], [24.743036, 59.438106], [24.743371, 59.438215], [24.743735, 59.43843], [24.744595, 59.43884], [24.745036, 59.439247], [24.745054, 59.439291], [24.744981, 59.439339], [24.744262, 59.439425], [24.743601, 59.43943], [24.743307, 59.439393], [24.742657, 59.43938], [24.74201, 59.439308], [24.742243, 59.439373], [24.742578, 59.439359], [24.743027, 59.439461], [24.743275, 59.439441], [24.743755, 59.439466], [24.743227, 59.439413], [24.742599, 59.439401], [24.742389, 59.439324], [24.742192, 59.439295], [24.741665, 59.439291], [24.741094, 59.439199], [24.740694, 59.439221], [24.740489, 59.439172], [24.740199, 59.439332], [24.740073, 59.43947], [24.739811, 59.439614], [24.739616, 59.439768], [24.739129, 59.440052], [24.738948, 59.440098], [24.738808, 59.440088], [24.738631, 59.440035], [24.738471, 59.440049], [24.738376, 59.440025], [24.738329, 59.44005], [24.73838, 59.440237], [24.738672, 59.440426], [24.738489, 59.440629], [24.738285, 59.440786], [24.738362, 59.440884], [24.738615, 59.440943], [24.738582, 59.441101], [24.738512, 59.441188], [24.738159, 59.44119], [24.73758, 59.441144], [24.737199, 59.441167], [24.736811, 59.441269], [24.735225, 59.441774], [24.734959, 59.441818], [24.732284, 59.441722], [24.731887, 59.441687], [24.731635, 59.441646], [24.731385, 59.441568], [24.729579, 59.440541], [24.727675, 59.439522], [24.726991, 59.439188], [24.726746, 59.439096], [24.725836, 59.438595], [24.723754, 59.437643], [24.72217, 59.43682], [24.721043, 59.436313], [24.719771, 59.435682], [24.719632, 59.435576], [24.719446, 59.435349], [24.718105, 59.433448], [24.717864, 59.433249], [24.716449, 59.432818], [24.715449, 59.432648], [24.714594, 59.432446], [24.71241, 59.431737], [24.712269, 59.431619], [24.712182, 59.43144], [24.712099, 59.431403], [24.70748, 59.429936], [24.70721, 59.42981], [24.705645, 59.429441], [24.705018, 59.42921], [24.704457, 59.42917], [24.701648, 59.429158], [24.701456, 59.429173], [24.700984, 59.429285], [24.700528, 59.429332], [24.694881, 59.429721], [24.693285, 59.429804], [24.692684, 59.429892], [24.692079, 59.429917], [24.690306, 59.429929], [24.68856, 59.429882], [24.686725, 59.429746], [24.684826, 59.429566], [24.684657, 59.429529], [24.684545, 59.429461], [24.684406, 59.429438], [24.681858, 59.429203], [24.681184, 59.429113], [24.680732, 59.42911], [24.680118, 59.429027], [24.679387, 59.428961], [24.67917, 59.428913], [24.678671, 59.42887], [24.67806, 59.428757], [24.677274, 59.428654], [24.674464, 59.428319], [24.67368, 59.428287], [24.672417, 59.428138], [24.671117, 59.428035], [24.670658, 59.428028], [24.669481, 59.427949], [24.66581, 59.427665], [24.665594, 59.427606], [24.664653, 59.427491], [24.663966, 59.42742], [24.663451, 59.427407], [24.663062, 59.427333], [24.66272, 59.427314], [24.662127, 59.427238], [24.661402, 59.42709], [24.660948, 59.427032], [24.660252, 59.427021], [24.660076, 59.426997], [24.65983, 59.426916], [24.659529, 59.426877], [24.659483, 59.426764], [24.659391, 59.426722], [24.657876, 59.426423], [24.657066, 59.42621], [24.656791, 59.426161], [24.656617, 59.426176], [24.656368, 59.426418], [24.655484, 59.426759], [24.655366, 59.426841], [24.655267, 59.42698], [24.655141, 59.427001], [24.654784, 59.42694], [24.65473, 59.426798], [24.654779, 59.426756], [24.655015, 59.426714], [24.655187, 59.426571], [24.65527, 59.426469], [24.655273, 59.426394], [24.655193, 59.426338], [24.654312, 59.426128], [24.654117, 59.426049], [24.653763, 59.425971], [24.653429, 59.42586], [24.652828, 59.425751], [24.649902, 59.425062], [24.64927, 59.425053], [24.649155, 59.425072], [24.649061, 59.425197], [24.649091, 59.425336], [24.648976, 59.425433], [24.648735, 59.425471], [24.648276, 59.42545], [24.648134, 59.425464], [24.647914, 59.425629], [24.647609, 59.425769], [24.647741, 59.425684], [24.647775, 59.425623], [24.648095, 59.425695], [24.648248, 59.425689], [24.648305, 59.425653], [24.648131, 59.425695], [24.647856, 59.425697], [24.647763, 59.425735], [24.647824, 59.425666], [24.648012, 59.425698], [24.648364, 59.425644], [24.648188, 59.425662], [24.647915, 59.425652], [24.647667, 59.425796], [24.648291, 59.425642], [24.648385, 59.425598], [24.648313, 59.425636], [24.648399, 59.425627], [24.648382, 59.425652], [24.648882, 59.425533], [24.649089, 59.425348], [24.649236, 59.425063], [24.649452, 59.424982], [24.649778, 59.424981], [24.651683, 59.425407], [24.654466, 59.426079], [24.654999, 59.426167], [24.655563, 59.426294], [24.655998, 59.42628], [24.656168, 59.426296], [24.656463, 59.426021], [24.656641, 59.425905], [24.657103, 59.425857], [24.657574, 59.425933], [24.658827, 59.426237], [24.66102, 59.426605], [24.661185, 59.426594], [24.661246, 59.426544], [24.661255, 59.426458], [24.661292, 59.426455], [24.662257, 59.42669], [24.663896, 59.426925], [24.665733, 59.427141], [24.667931, 59.427436], [24.669162, 59.427544], [24.671239, 59.427667], [24.671443, 59.427671], [24.6717, 59.42762], [24.671858, 59.427623], [24.672615, 59.427735], [24.674803, 59.427916], [24.67593, 59.427981], [24.677185, 59.428153], [24.67782, 59.428284], [24.682716, 59.428871], [24.684019, 59.428996], [24.684272, 59.428982], [24.684487, 59.429], [24.6848, 59.429095], [24.686254, 59.429257], [24.688306, 59.429383], [24.689507, 59.429423], [24.689873, 59.429413], [24.692834, 59.429514], [24.694099, 59.429474], [24.694577, 59.429439], [24.695156, 59.429475], [24.697984, 59.429296], [24.698552, 59.429235], [24.69957, 59.429164], [24.699831, 59.429165], [24.701222, 59.429039], [24.701924, 59.429], [24.703434, 59.42903], [24.70401, 59.429017], [24.70431, 59.42906], [24.704933, 59.428965], [24.705079, 59.428865], [24.70553, 59.428913], [24.705987, 59.428901], [24.706237, 59.428837], [24.706459, 59.428893], [24.706596, 59.428879], [24.707638, 59.428676], [24.707785, 59.428629], [24.70794, 59.428525], [24.708146, 59.428513], [24.708624, 59.428423], [24.709596, 59.428193], [24.709868, 59.428195], [24.710529, 59.428084], [24.712028, 59.427705], [24.712171, 59.427734], [24.713202, 59.427726], [24.713862, 59.427689], [24.714855, 59.427682], [24.715339, 59.427652], [24.715986, 59.427651], [24.716022, 59.427598], [24.71608, 59.427585], [24.716279, 59.427605], [24.716867, 59.427594], [24.717508, 59.427556], [24.717735, 59.427561], [24.717859, 59.427588], [24.717884, 59.42762], [24.718037, 59.427638], [24.718382, 59.427629], [24.719108, 59.42754], [24.719763, 59.427316], [24.720135, 59.427256], [24.720483, 59.427272], [24.722975, 59.427758], [24.723713, 59.427767], [24.724709, 59.427967], [24.725078, 59.428113], [24.725331, 59.428164], [24.725513, 59.428166], [24.725654, 59.428141], [24.72585, 59.428064], [24.72601, 59.427961], [24.726151, 59.427982], [24.726282, 59.428053], [24.726797, 59.428075], [24.726924, 59.428117], [24.727155, 59.428129], [24.729106, 59.428428], [24.730065, 59.428615], [24.731909, 59.428885], [24.73303, 59.429081], [24.73441, 59.42939], [24.735027, 59.429596], [24.736174, 59.430055], [24.737073, 59.430352], [24.738504, 59.430893], [24.739014, 59.431225], [24.739556, 59.431468], [24.739833, 59.43165], [24.740092, 59.431763], [24.740413, 59.431839], [24.740432, 59.431883], [24.740398, 59.431874], [24.740187, 59.432278], [24.740251, 59.432325], [24.743384, 59.433126], [24.743591, 59.4333], [24.743558, 59.433824], [24.743512, 59.433931], [24.743595, 59.434038], [24.74358, 59.434327], [24.743706, 59.434583], [24.743677, 59.434744], [24.743816, 59.434979], [24.743894, 59.435235], [24.743821, 59.435419], [24.744327, 59.435977], [24.744623, 59.436401], [24.744764, 59.436743], [24.744752, 59.437047], [24.744635, 59.437134], [24.7445, 59.437392], [24.744323, 59.437375], [24.743962, 59.437588], [24.743556, 59.437692], [24.743615, 59.437755], [24.743993, 59.437889], [24.743979, 59.437867], [24.74405, 59.437878], [24.743952, 59.437858], [24.74392, 59.437812]]}, "properties": {"name": "1787232293.Bib_Pickup_in_a_down_pour_🌧️", "cmt": "2026-08-20", "tstamp": 1787184000, "desc": "---", "src": "24.647609/59.424981/24.745054/59.441818", "bbox": "24.647609/59.424981/24.745054/59.441818"}}]}