{"type": "FeatureCollection", "name": "TrackSet", "crs": {"type": "name", "properties": {"name": "urn:ogc:def:crs:OGC:1.3:CRS84"}}, "bbox": [24.72651, 59.370479, 24.752809, 59.437879], "features": [{"type": "Feature", "bbox": [24.72651, 59.370479, 24.752809, 59.437879], "geometry": {"type": "LineString", "coordinates": [[24.743938, 59.43785], [24.744291, 59.437879], [24.74439, 59.437847], [24.744474, 59.437647], [24.744764, 59.437341], [24.74488, 59.436981], [24.744842, 59.436854], [24.74465, 59.436562], [24.744708, 59.436347], [24.744297, 59.435984], [24.744008, 59.435642], [24.743857, 59.435425], [24.743772, 59.435236], [24.743737, 59.435011], [24.743648, 59.434868], [24.743631, 59.434696], [24.743712, 59.434624], [24.743718, 59.434502], [24.743515, 59.433935], [24.743552, 59.433849], [24.743547, 59.433253], [24.743591, 59.432903], [24.743818, 59.432812], [24.744036, 59.43278], [24.744983, 59.432805], [24.745413, 59.432843], [24.745612, 59.432822], [24.745683, 59.432717], [24.745676, 59.432144], [24.745299, 59.430788], [24.745199, 59.430579], [24.744968, 59.430394], [24.744129, 59.429911], [24.743807, 59.429688], [24.742987, 59.428948], [24.742576, 59.428637], [24.742472, 59.428517], [24.742385, 59.428307], [24.742327, 59.427411], [24.74244, 59.426599], [24.742413, 59.425337], [24.742456, 59.423948], [24.742406, 59.423137], [24.742448, 59.422059], [24.74236, 59.421564], [24.742164, 59.421068], [24.740358, 59.417045], [24.739796, 59.415953], [24.739176, 59.414419], [24.73792, 59.411659], [24.737552, 59.411133], [24.736646, 59.410137], [24.734483, 59.408019], [24.733688, 59.407191], [24.732959, 59.406514], [24.732493, 59.405993], [24.731697, 59.405229], [24.73161, 59.405198], [24.731046, 59.404541], [24.730319, 59.40389], [24.729303, 59.402632], [24.728323, 59.401649], [24.728111, 59.401394], [24.727392, 59.400245], [24.727046, 59.399572], [24.726943, 59.399455], [24.727048, 59.399421], [24.727702, 59.399329], [24.727549, 59.399083], [24.72651, 59.396925], [24.726568, 59.396811], [24.726994, 59.396653], [24.727278, 59.396475], [24.727485, 59.3964], [24.728053, 59.396387], [24.728859, 59.39616], [24.729088, 59.396122], [24.729303, 59.396143], [24.729662, 59.396255], [24.730558, 59.396293], [24.730803, 59.39625], [24.730915, 59.396206], [24.731193, 59.396013], [24.73137, 59.395771], [24.73141, 59.39559], [24.731326, 59.395302], [24.731201, 59.395118], [24.731177, 59.395022], [24.731214, 59.394844], [24.733683, 59.390703], [24.733824, 59.390573], [24.734439, 59.390154], [24.734803, 59.389607], [24.735456, 59.389123], [24.735808, 59.388724], [24.735805, 59.388569], [24.735584, 59.388297], [24.735625, 59.388162], [24.736314, 59.387518], [24.736704, 59.387007], [24.73744, 59.38641], [24.738129, 59.385701], [24.739201, 59.384789], [24.740644, 59.383345], [24.741353, 59.382834], [24.741679, 59.382477], [24.742146, 59.381827], [24.742325, 59.381634], [24.743501, 59.380661], [24.74449, 59.379733], [24.744953, 59.379207], [24.746035, 59.378342], [24.746908, 59.377485], [24.747312, 59.377165], [24.747365, 59.377054], [24.747273, 59.376691], [24.747188, 59.376661], [24.746834, 59.376672], [24.746683, 59.376649], [24.746686, 59.376502], [24.746744, 59.376436], [24.747646, 59.375615], [24.748304, 59.375086], [24.749436, 59.374075], [24.749781, 59.373808], [24.750032, 59.373511], [24.751254, 59.372387], [24.751802, 59.371793], [24.751916, 59.371748], [24.7522, 59.371782], [24.752394, 59.371739], [24.752708, 59.371424], [24.75262, 59.371219], [24.752809, 59.370846], [24.752725, 59.370736], [24.752621, 59.37068], [24.752076, 59.370708], [24.749709, 59.370612], [24.749329, 59.370575], [24.748928, 59.370593], [24.747683, 59.370517], [24.747238, 59.370523], [24.746427, 59.370479]]}, "properties": {"name": "1787393079.Bike_check_in_to_T1", "cmt": "2026-08-22", "tstamp": 1787356800, "desc": "---", "src": "24.72651/59.370479/24.752809/59.437879", "bbox": "24.72651/59.370479/24.752809/59.437879"}}]}