{"type": "FeatureCollection", "name": "TrackSet", "crs": {"type": "name", "properties": {"name": "urn:ogc:def:crs:OGC:1.3:CRS84"}}, "bbox": [6.045133, 46.228982, 6.194758, 46.331805], "features": [{"type": "Feature", "bbox": [6.045133, 46.228982, 6.194758, 46.331805], "geometry": {"type": "LineString", "coordinates": [[6.045479, 46.232442], [6.045414, 46.232438], [6.045507, 46.232452], [6.045501, 46.232417], [6.045381, 46.2323], [6.045253, 46.232257], [6.045211, 46.232113], [6.045133, 46.232056], [6.04514, 46.232002], [6.045902, 46.231594], [6.046169, 46.231027], [6.04628, 46.230875], [6.046368, 46.230809], [6.048211, 46.230017], [6.050619, 46.229034], [6.050868, 46.228982], [6.051275, 46.228997], [6.051644, 46.229057], [6.051736, 46.22911], [6.052127, 46.229814], [6.052276, 46.229959], [6.052575, 46.230086], [6.053581, 46.230207], [6.054938, 46.230297], [6.055221, 46.230301], [6.055464, 46.230206], [6.055556, 46.230208], [6.05563, 46.230244], [6.055682, 46.230309], [6.055673, 46.230513], [6.056514, 46.23188], [6.056696, 46.232063], [6.057059, 46.232286], [6.057244, 46.232481], [6.057506, 46.232675], [6.057778, 46.232748], [6.057869, 46.23282], [6.057891, 46.232924], [6.057863, 46.232974], [6.057718, 46.233081], [6.05772, 46.23312], [6.057845, 46.233201], [6.058136, 46.233274], [6.058564, 46.233205], [6.05923, 46.233012], [6.059334, 46.233017], [6.059426, 46.233058], [6.059529, 46.233197], [6.059576, 46.233325], [6.060358, 46.234671], [6.060438, 46.234699], [6.060536, 46.234693], [6.060786, 46.234596], [6.061959, 46.234265], [6.062523, 46.233997], [6.062847, 46.233806], [6.062996, 46.233855], [6.063336, 46.234144], [6.064318, 46.23486], [6.064745, 46.235282], [6.066307, 46.236385], [6.067367, 46.237835], [6.067523, 46.237968], [6.068335, 46.238946], [6.06868, 46.239174], [6.068862, 46.23941], [6.069792, 46.240207], [6.069862, 46.240239], [6.070047, 46.240216], [6.070841, 46.239662], [6.070906, 46.239636], [6.071056, 46.239668], [6.071529, 46.240043], [6.072329, 46.240579], [6.073023, 46.241089], [6.073051, 46.241189], [6.073027, 46.241306], [6.07308, 46.241418], [6.073759, 46.242253], [6.07427, 46.242703], [6.074439, 46.24272], [6.074507, 46.242689], [6.074918, 46.242362], [6.074993, 46.242352], [6.075148, 46.242384], [6.075529, 46.242689], [6.075715, 46.242781], [6.075933, 46.242957], [6.077717, 46.244145], [6.078363, 46.244502], [6.078732, 46.244837], [6.079531, 46.245324], [6.079744, 46.245409], [6.079873, 46.245415], [6.080268, 46.245501], [6.081334, 46.24563], [6.081662, 46.245692], [6.081802, 46.245742], [6.081841, 46.24582], [6.081749, 46.245948], [6.081674, 46.246136], [6.081781, 46.24627], [6.082407, 46.246563], [6.083234, 46.246843], [6.083555, 46.246997], [6.084335, 46.247266], [6.084342, 46.247328], [6.084229, 46.247525], [6.084246, 46.247588], [6.084548, 46.247897], [6.084819, 46.248054], [6.085109, 46.248187], [6.085761, 46.248412], [6.086177, 46.248517], [6.086531, 46.248539], [6.086772, 46.248662], [6.087333, 46.248779], [6.088019, 46.248959], [6.089142, 46.24931], [6.090328, 46.249755], [6.090401, 46.249797], [6.090595, 46.250007], [6.09067, 46.250032], [6.090915, 46.250043], [6.091907, 46.250479], [6.092119, 46.250595], [6.092429, 46.250815], [6.093023, 46.251414], [6.093144, 46.251498], [6.093284, 46.251724], [6.093363, 46.251924], [6.093556, 46.252091], [6.093755, 46.25215], [6.093969, 46.252162], [6.094761, 46.252094], [6.095474, 46.252079], [6.095673, 46.252045], [6.095838, 46.25196], [6.096011, 46.251917], [6.096651, 46.252188], [6.097147, 46.252368], [6.09724, 46.25245], [6.0971, 46.252601], [6.097001, 46.252888], [6.097167, 46.253249], [6.097307, 46.253404], [6.097477, 46.253538], [6.099456, 46.254662], [6.099844, 46.254851], [6.100061, 46.254997], [6.1003, 46.255021], [6.100908, 46.255166], [6.101947, 46.255485], [6.101999, 46.255545], [6.101978, 46.255682], [6.101445, 46.256086], [6.10135, 46.256187], [6.101065, 46.256365], [6.100827, 46.256556], [6.100583, 46.256784], [6.100516, 46.25687], [6.10052, 46.256921], [6.101305, 46.257467], [6.101906, 46.25783], [6.102523, 46.258265], [6.102589, 46.258283], [6.103084, 46.258248], [6.103335, 46.25828], [6.105239, 46.259482], [6.105539, 46.259555], [6.105786, 46.25965], [6.106187, 46.259681], [6.107456, 46.260185], [6.10787, 46.26028], [6.108141, 46.260317], [6.108613, 46.260329], [6.109042, 46.260295], [6.109126, 46.260311], [6.109194, 46.260358], [6.109371, 46.260601], [6.10959, 46.260742], [6.110296, 46.261334], [6.111598, 46.262357], [6.11296, 46.263382], [6.114345, 46.264277], [6.114496, 46.264337], [6.114586, 46.264349], [6.114769, 46.264328], [6.114847, 46.264351], [6.114908, 46.264406], [6.114924, 46.264605], [6.115236, 46.264902], [6.115301, 46.265013], [6.1153, 46.265077], [6.115262, 46.26514], [6.114739, 46.265467], [6.114707, 46.265507], [6.114722, 46.26556], [6.114853, 46.26565], [6.115589, 46.265924], [6.116145, 46.266163], [6.116301, 46.266346], [6.116402, 46.266399], [6.117053, 46.2669], [6.117921, 46.267691], [6.118461, 46.267915], [6.119083, 46.268064], [6.119268, 46.268131], [6.120901, 46.269012], [6.121579, 46.269296], [6.122086, 46.269815], [6.122507, 46.270097], [6.123203, 46.270462], [6.123823, 46.270699], [6.124612, 46.270957], [6.125035, 46.271354], [6.125528, 46.271683], [6.125684, 46.271702], [6.125975, 46.271849], [6.127379, 46.272098], [6.128187, 46.272345], [6.128463, 46.272478], [6.128966, 46.272802], [6.129372, 46.273021], [6.130419, 46.273468], [6.130641, 46.273595], [6.131445, 46.274285], [6.131626, 46.27446], [6.131762, 46.274661], [6.131824, 46.274808], [6.131845, 46.274961], [6.131773, 46.275354], [6.131775, 46.275513], [6.131976, 46.276031], [6.132192, 46.276364], [6.133828, 46.277937], [6.134059, 46.278045], [6.134178, 46.278275], [6.134994, 46.279498], [6.13518, 46.279752], [6.135359, 46.279915], [6.136245, 46.280379], [6.1368, 46.280602], [6.138172, 46.281071], [6.139436, 46.281651], [6.139728, 46.281691], [6.140532, 46.281689], [6.141117, 46.28165], [6.141503, 46.281668], [6.144381, 46.282045], [6.145578, 46.282408], [6.146009, 46.282603], [6.147257, 46.283717], [6.147546, 46.283914], [6.147787, 46.283965], [6.147907, 46.28403], [6.147923, 46.284155], [6.14785, 46.284264], [6.147908, 46.284378], [6.151, 46.287295], [6.151307, 46.287471], [6.151444, 46.287737], [6.151746, 46.288101], [6.152365, 46.28926], [6.153202, 46.290936], [6.153506, 46.291856], [6.153737, 46.292117], [6.153757, 46.292314], [6.153822, 46.292433], [6.155569, 46.294262], [6.157327, 46.296038], [6.157706, 46.296308], [6.158319, 46.296627], [6.158805, 46.296796], [6.159821, 46.297091], [6.160231, 46.29726], [6.161423, 46.297661], [6.162259, 46.297987], [6.162662, 46.298215], [6.163633, 46.298909], [6.164007, 46.299144], [6.164462, 46.299509], [6.164756, 46.299809], [6.165681, 46.300898], [6.16602, 46.301227], [6.1688, 46.303122], [6.169014, 46.303228], [6.169623, 46.303404], [6.169669, 46.303543], [6.170167, 46.304398], [6.170557, 46.304787], [6.171411, 46.305416], [6.171872, 46.305666], [6.172435, 46.305911], [6.172498, 46.305963], [6.17254, 46.3061], [6.172433, 46.306371], [6.172378, 46.306804], [6.172407, 46.307039], [6.17237, 46.307157], [6.172389, 46.307843], [6.17249, 46.308097], [6.172721, 46.308431], [6.173178, 46.308932], [6.173274, 46.309084], [6.173372, 46.309298], [6.173471, 46.309701], [6.173617, 46.309949], [6.173573, 46.310234], [6.173715, 46.311013], [6.174497, 46.314848], [6.174665, 46.315522], [6.175055, 46.315942], [6.176176, 46.317295], [6.177211, 46.31837], [6.177538, 46.318649], [6.177611, 46.318771], [6.177759, 46.318909], [6.177891, 46.319337], [6.177993, 46.319519], [6.178305, 46.319852], [6.178678, 46.32033], [6.178802, 46.320442], [6.178898, 46.320484], [6.179745, 46.320528], [6.179869, 46.320596], [6.17997, 46.320739], [6.180457, 46.320985], [6.180654, 46.32121], [6.18131, 46.322425], [6.181406, 46.322546], [6.181678, 46.322758], [6.181886, 46.322813], [6.182113, 46.32284], [6.18305, 46.322869], [6.183516, 46.322932], [6.183938, 46.323069], [6.184279, 46.323274], [6.184943, 46.323884], [6.186361, 46.325276], [6.187011, 46.326163], [6.188596, 46.327631], [6.188924, 46.327899], [6.189617, 46.32828], [6.190054, 46.328578], [6.190557, 46.328987], [6.19112, 46.329584], [6.191598, 46.329989], [6.191715, 46.33013], [6.19189, 46.330608], [6.191895, 46.330726], [6.191943, 46.330772], [6.192043, 46.330786], [6.192138, 46.330759], [6.192855, 46.330443], [6.193014, 46.330329], [6.193088, 46.330198], [6.193149, 46.330155], [6.193812, 46.330078], [6.193911, 46.330077], [6.193997, 46.330104], [6.194095, 46.33023], [6.194445, 46.330907], [6.194758, 46.331635], [6.194707, 46.331686], [6.194333, 46.331805], [6.194257, 46.331794], [6.194245, 46.331649]]}, "properties": {"name": "1789404170.Monday_Evening_Cycle", "cmt": "2026-09-14", "tstamp": 1789344000, "desc": "---", "src": "6.045133/46.228982/6.194758/46.331805", "bbox": "6.045133/46.228982/6.194758/46.331805"}}]}