{"type": "FeatureCollection", "name": "TrackSet", "crs": {"type": "name", "properties": {"name": "urn:ogc:def:crs:OGC:1.3:CRS84"}}, "bbox": [24.747837, 59.369167, 24.748212, 59.369647], "features": [{"type": "Feature", "bbox": [24.747837, 59.369167, 24.748212, 59.369647], "geometry": {"type": "LineString", "coordinates": [[24.748155, 59.369167], [24.748123, 59.369236], [24.748172, 59.369246], [24.74809, 59.369281], [24.74807, 59.369238], [24.747837, 59.369313], [24.747907, 59.369294], [24.747966, 59.369381], [24.748055, 59.369295], [24.748146, 59.369273], [24.748212, 59.369298], [24.748096, 59.369462], [24.747924, 59.369589], [24.747921, 59.369647]]}, "properties": {"name": "1787469544.Sunday_Morning_Outdoor_Swim", "cmt": "2026-08-23", "tstamp": 1787443200, "desc": "---", "src": "24.747837/59.369167/24.748212/59.369647", "bbox": "24.747837/59.369167/24.748212/59.369647"}}]}