{"type": "FeatureCollection", "name": "TrackSet", "crs": {"type": "name", "properties": {"name": "urn:ogc:def:crs:OGC:1.3:CRS84"}}, "bbox": [6.191622, 46.324201, 6.196325, 46.331793], "features": [{"type": "Feature", "bbox": [6.191622, 46.324201, 6.196325, 46.331793], "geometry": {"type": "LineString", "coordinates": [[6.191622, 46.324201], [6.191624, 46.324237], [6.191695, 46.324242], [6.191657, 46.324282], [6.191685, 46.324352], [6.191761, 46.32445], [6.191798, 46.324449], [6.191785, 46.324479], [6.192262, 46.325116], [6.192356, 46.325291], [6.192486, 46.325424], [6.192731, 46.325847], [6.192776, 46.325848], [6.192897, 46.325788], [6.192979, 46.325721], [6.193389, 46.325578], [6.1935, 46.325594], [6.193604, 46.325675], [6.193957, 46.3261], [6.194163, 46.32623], [6.194277, 46.326339], [6.194487, 46.32664], [6.194748, 46.326887], [6.195354, 46.32784], [6.195521, 46.327964], [6.195672, 46.328174], [6.195948, 46.32842], [6.196063, 46.328626], [6.196154, 46.328698], [6.196325, 46.328918], [6.196289, 46.328967], [6.196131, 46.329014], [6.196046, 46.329127], [6.19578, 46.329206], [6.194702, 46.329422], [6.194566, 46.329395], [6.194566, 46.329425], [6.194293, 46.329504], [6.193517, 46.329658], [6.193336, 46.329729], [6.193289, 46.329774], [6.193197, 46.330006], [6.193219, 46.330114], [6.193274, 46.330164], [6.193358, 46.330167], [6.193434, 46.330128], [6.193682, 46.330119], [6.193816, 46.330086], [6.193919, 46.330102], [6.193989, 46.330158], [6.194158, 46.33054], [6.194338, 46.330786], [6.194586, 46.331263], [6.194622, 46.331424], [6.19471, 46.33156], [6.194686, 46.331685], [6.194351, 46.331793], [6.194288, 46.33177], [6.194363, 46.331758], [6.194466, 46.331698], [6.194409, 46.331593]]}, "properties": {"name": "1785392451.Morning_Hike", "cmt": "2026-07-30", "tstamp": 1785369600, "desc": "---", "src": "6.191622/46.324201/6.196325/46.331793", "bbox": "6.191622/46.324201/6.196325/46.331793"}}]}