{"type": "FeatureCollection", "name": "TrackSet", "crs": {"type": "name", "properties": {"name": "urn:ogc:def:crs:OGC:1.3:CRS84"}}, "bbox": [109.212325, 13.744974, 109.222153, 13.76062], "features": [{"type": "Feature", "bbox": [109.212325, 13.744974, 109.222153, 13.76062], "geometry": {"type": "LineString", "coordinates": [[109.212716, 13.745225], [109.212697, 13.745185], [109.212679, 13.745227], [109.212676, 13.745211], [109.21275, 13.745235], [109.212784, 13.745283], [109.212843, 13.745285], [109.212888, 13.745341], [109.213021, 13.745306], [109.213048, 13.745353], [109.21309, 13.745369], [109.213402, 13.7459], [109.21345, 13.745931], [109.213572, 13.746108], [109.213661, 13.74634], [109.213677, 13.74646], [109.213762, 13.746517], [109.213833, 13.746697], [109.213892, 13.746765], [109.213874, 13.746778], [109.214012, 13.746954], [109.214303, 13.747497], [109.214427, 13.747873], [109.214478, 13.747954], [109.214485, 13.748052], [109.214534, 13.748107], [109.21454, 13.748188], [109.214644, 13.748441], [109.214685, 13.748482], [109.21468, 13.748594], [109.214869, 13.749086], [109.214919, 13.749139], [109.214981, 13.749113], [109.215002, 13.749129], [109.214998, 13.749276], [109.215058, 13.749428], [109.215191, 13.749621], [109.215289, 13.749715], [109.215379, 13.749889], [109.215537, 13.750028], [109.215654, 13.750282], [109.215709, 13.750338], [109.215789, 13.750575], [109.21579, 13.750655], [109.215851, 13.750717], [109.215974, 13.750969], [109.21608, 13.751311], [109.216156, 13.751418], [109.216162, 13.751499], [109.216254, 13.751664], [109.216288, 13.751821], [109.216347, 13.751892], [109.216497, 13.752182], [109.216637, 13.752539], [109.216821, 13.752907], [109.216829, 13.752998], [109.21687, 13.753024], [109.216945, 13.753142], [109.217038, 13.753332], [109.21703, 13.753383], [109.2171, 13.753454], [109.217097, 13.753509], [109.217192, 13.753611], [109.217258, 13.753749], [109.217276, 13.753857], [109.217365, 13.753941], [109.217592, 13.754293], [109.217646, 13.754455], [109.21775, 13.754599], [109.217815, 13.754767], [109.217932, 13.754924], [109.217989, 13.755068], [109.218118, 13.755252], [109.218121, 13.755296], [109.218196, 13.755381], [109.218289, 13.755602], [109.218586, 13.756005], [109.218692, 13.756264], [109.21878, 13.756353], [109.218797, 13.756412], [109.218907, 13.756495], [109.219111, 13.756741], [109.219151, 13.756832], [109.219222, 13.756903], [109.219351, 13.757158], [109.219617, 13.757507], [109.219693, 13.757571], [109.219722, 13.757634], [109.219939, 13.757862], [109.220073, 13.758038], [109.220167, 13.758207], [109.220354, 13.758397], [109.220751, 13.758949], [109.220864, 13.759051], [109.220967, 13.759195], [109.22097, 13.759241], [109.221062, 13.759315], [109.221126, 13.759439], [109.221257, 13.75953], [109.221449, 13.759743], [109.221525, 13.759846], [109.221539, 13.759907], [109.2216, 13.759963], [109.221648, 13.759973], [109.221809, 13.760184], [109.222055, 13.760418], [109.222152, 13.760548], [109.222153, 13.760604], [109.222132, 13.76062], [109.22189, 13.760514], [109.221629, 13.760492], [109.221592, 13.760425], [109.221229, 13.76032], [109.221193, 13.760156], [109.221075, 13.760024], [109.220924, 13.759986], [109.220768, 13.760032], [109.220662, 13.759808], [109.220647, 13.759748], [109.220665, 13.759657], [109.220494, 13.759511], [109.219924, 13.758476], [109.219878, 13.758445], [109.219773, 13.758426], [109.219684, 13.758342], [109.219669, 13.758277], [109.219713, 13.758139], [109.219478, 13.757728], [109.21938, 13.757483], [109.219188, 13.757231], [109.21916, 13.757132], [109.219069, 13.756975], [109.219027, 13.756942], [109.219151, 13.756851], [109.219166, 13.756796], [109.219136, 13.75674], [109.219017, 13.756634], [109.218935, 13.756488], [109.218853, 13.756415], [109.218671, 13.756137], [109.218549, 13.756301], [109.218501, 13.756308], [109.218448, 13.756365], [109.218408, 13.756353], [109.218389, 13.756228], [109.218159, 13.755789], [109.218143, 13.755653], [109.218008, 13.75556], [109.217929, 13.755362], [109.217786, 13.755153], [109.217875, 13.755098], [109.217875, 13.755047], [109.217966, 13.755013], [109.217895, 13.754822], [109.217652, 13.754412], [109.217483, 13.754071], [109.217293, 13.753806], [109.217149, 13.75349], [109.217028, 13.75346], [109.216934, 13.753497], [109.216838, 13.753416], [109.216785, 13.753254], [109.216751, 13.753221], [109.216703, 13.753076], [109.216601, 13.752903], [109.216559, 13.752762], [109.216489, 13.752658], [109.216264, 13.752127], [109.216185, 13.752029], [109.216028, 13.751612], [109.215853, 13.751296], [109.215824, 13.751187], [109.215824, 13.751059], [109.215702, 13.750864], [109.21571, 13.75077], [109.215652, 13.75073], [109.215622, 13.750667], [109.215566, 13.750392], [109.215416, 13.750149], [109.215233, 13.749933], [109.215238, 13.749861], [109.215318, 13.749784], [109.215324, 13.749731], [109.215133, 13.749503], [109.215073, 13.749393], [109.214999, 13.749117], [109.214953, 13.749089], [109.214898, 13.749092], [109.214523, 13.748107], [109.214437, 13.74776], [109.214362, 13.747618], [109.21423, 13.747259], [109.214017, 13.746903], [109.213988, 13.746897], [109.21389, 13.746946], [109.213799, 13.746825], [109.213749, 13.746643], [109.213696, 13.746596], [109.213667, 13.746481], [109.213606, 13.746416], [109.213571, 13.746267], [109.213431, 13.746122], [109.21334, 13.745866], [109.213249, 13.745727], [109.213189, 13.745676], [109.213144, 13.745523], [109.213053, 13.745418], [109.212988, 13.745402], [109.212915, 13.745242], [109.212764, 13.745138], [109.212624, 13.745188], [109.212417, 13.745137], [109.212405, 13.745121], [109.212493, 13.745005], [109.212429, 13.745005], [109.21241, 13.744974], [109.212325, 13.745013], [109.21233, 13.745036], [109.212325, 13.745012], [109.21254, 13.745052], [109.212666, 13.745099]]}, "properties": {"name": "1785235035.Fresh_air_in_between_official_ceremonies_😅", "cmt": "2026-07-28", "tstamp": 1785196800, "desc": "---", "src": "109.212325/13.744974/109.222153/13.76062", "bbox": "109.212325/13.744974/109.222153/13.76062"}}]}