{"type": "FeatureCollection", "name": "TrackSet", "crs": {"type": "name", "properties": {"name": "urn:ogc:def:crs:OGC:1.3:CRS84"}}, "bbox": [109.228766, 13.598954, 109.229226, 13.599093], "features": [{"type": "Feature", "bbox": [109.228766, 13.598954, 109.229226, 13.599093], "geometry": {"type": "LineString", "coordinates": [[109.229226, 13.599093], [109.228994, 13.59897], [109.228862, 13.598985], [109.228786, 13.598977], [109.228766, 13.598968], [109.228777, 13.598954], [109.228788, 13.599009]]}, "properties": {"name": "1785157929.Monday_Evening_Walk", "cmt": "2026-07-27", "tstamp": 1785110400, "desc": "---", "src": "109.228766/13.598954/109.229226/13.599093", "bbox": "109.228766/13.598954/109.229226/13.599093"}}]}