{"type": "FeatureCollection", "name": "TrackSet", "crs": {"type": "name", "properties": {"name": "urn:ogc:def:crs:OGC:1.3:CRS84"}}, "bbox": [109.223211, 13.771505, 109.238909, 13.774546], "features": [{"type": "Feature", "bbox": [109.223211, 13.771505, 109.238909, 13.774546], "geometry": {"type": "LineString", "coordinates": [[109.22322, 13.774546], [109.223211, 13.774517], [109.22322, 13.774546], [109.223269, 13.774533], [109.223279, 13.774441], [109.22337, 13.774448], [109.223364, 13.77443], [109.223439, 13.774386], [109.223398, 13.774206], [109.223413, 13.774167], [109.223733, 13.774194], [109.223879, 13.774146], [109.223968, 13.774164], [109.224129, 13.774115], [109.224145, 13.774016], [109.224232, 13.773961], [109.224291, 13.77366], [109.22433, 13.773599], [109.224333, 13.773508], [109.224398, 13.773432], [109.224461, 13.773443], [109.224482, 13.773424], [109.224633, 13.773522], [109.224981, 13.773617], [109.225028, 13.773683], [109.225203, 13.773779], [109.225261, 13.773781], [109.225342, 13.773832], [109.225866, 13.774], [109.225895, 13.774067], [109.225868, 13.774046], [109.225913, 13.773895], [109.225887, 13.773737], [109.225943, 13.773625], [109.225944, 13.773541], [109.225976, 13.773489], [109.225989, 13.773389], [109.226027, 13.773362], [109.226058, 13.773251], [109.226147, 13.773185], [109.226218, 13.773093], [109.226328, 13.772824], [109.226431, 13.772758], [109.226664, 13.772878], [109.226717, 13.772956], [109.226806, 13.772963], [109.226846, 13.773005], [109.226814, 13.773009], [109.227189, 13.773069], [109.227253, 13.773139], [109.227452, 13.773242], [109.227598, 13.773361], [109.227678, 13.773384], [109.227787, 13.773379], [109.227825, 13.773346], [109.227889, 13.773335], [109.227874, 13.773312], [109.227936, 13.773337], [109.228027, 13.773326], [109.228236, 13.77337], [109.228329, 13.773314], [109.228406, 13.773298], [109.228437, 13.773325], [109.228477, 13.773301], [109.228597, 13.773316], [109.228679, 13.773297], [109.228736, 13.773331], [109.228807, 13.773332], [109.228994, 13.77328], [109.22904, 13.773303], [109.229088, 13.773279], [109.229166, 13.773306], [109.229221, 13.773261], [109.229327, 13.773277], [109.229381, 13.773236], [109.229498, 13.773249], [109.22965, 13.773223], [109.229744, 13.773258], [109.229926, 13.773212], [109.229999, 13.77325], [109.230035, 13.773368], [109.230239, 13.773273], [109.230527, 13.773262], [109.230476, 13.773235], [109.230477, 13.773215], [109.230679, 13.773247], [109.230998, 13.773197], [109.231137, 13.773222], [109.231162, 13.773255], [109.231183, 13.773221], [109.231321, 13.773198], [109.231418, 13.773138], [109.231498, 13.773141], [109.231565, 13.773187], [109.231616, 13.773188], [109.231654, 13.77318], [109.231753, 13.773074], [109.231791, 13.773096], [109.231828, 13.773185], [109.231908, 13.773211], [109.232042, 13.773159], [109.232212, 13.773157], [109.232261, 13.773115], [109.232374, 13.773112], [109.2324, 13.773117], [109.232402, 13.773156], [109.232488, 13.773158], [109.232546, 13.773119], [109.23262, 13.773143], [109.232731, 13.773096], [109.232898, 13.77313], [109.232976, 13.773081], [109.233042, 13.773182], [109.233189, 13.773184], [109.233257, 13.773125], [109.233307, 13.773118], [109.233425, 13.773185], [109.233516, 13.773191], [109.233596, 13.773248], [109.233734, 13.773277], [109.23394, 13.773202], [109.234022, 13.773136], [109.234141, 13.773151], [109.234254, 13.773211], [109.234463, 13.773173], [109.234535, 13.773116], [109.234755, 13.773027], [109.234813, 13.772968], [109.234938, 13.772919], [109.235228, 13.772997], [109.235519, 13.772966], [109.235706, 13.772982], [109.235756, 13.772956], [109.235861, 13.772964], [109.236033, 13.772933], [109.236089, 13.772955], [109.236151, 13.772932], [109.236238, 13.772958], [109.236233, 13.772976], [109.236336, 13.77299], [109.236413, 13.772981], [109.236557, 13.772916], [109.236574, 13.772946], [109.236736, 13.77293], [109.236844, 13.77287], [109.236875, 13.772904], [109.236948, 13.772926], [109.237035, 13.772939], [109.237111, 13.772921], [109.237263, 13.772842], [109.237284, 13.772799], [109.237332, 13.772639], [109.237345, 13.772498], [109.237264, 13.772325], [109.237293, 13.772309], [109.237379, 13.772137], [109.237368, 13.772027], [109.23742, 13.771891], [109.237413, 13.771838], [109.237476, 13.771658], [109.237481, 13.771567], [109.237579, 13.771505], [109.237812, 13.77161], [109.237898, 13.771604], [109.237974, 13.77164], [109.238107, 13.771655], [109.238328, 13.771761], [109.238451, 13.77177], [109.238497, 13.77181], [109.23864, 13.771845], [109.238693, 13.771969], [109.238688, 13.772028], [109.238722, 13.772065], [109.238778, 13.772065], [109.238771, 13.772141], [109.238827, 13.772202], [109.238848, 13.772277], [109.238725, 13.77219], [109.238691, 13.77222], [109.238909, 13.77211], [109.238818, 13.772027], [109.238774, 13.772104], [109.238808, 13.77212], [109.238774, 13.772104], [109.238806, 13.772097], [109.238774, 13.772104], [109.238776, 13.772138], [109.238791, 13.772078], [109.238774, 13.772104], [109.238802, 13.77211], [109.238774, 13.772104], [109.238799, 13.772138], [109.238774, 13.772104], [109.238781, 13.772169], [109.23878, 13.772129], [109.23881, 13.772104], [109.2388, 13.772149], [109.23881, 13.772114], [109.238779, 13.772154], [109.2388, 13.772149], [109.238789, 13.772103], [109.2388, 13.772116], [109.238789, 13.772103], [109.238772, 13.772149], [109.238793, 13.772144], [109.238772, 13.772149], [109.238789, 13.772137], [109.238772, 13.772149], [109.238776, 13.772093], [109.238793, 13.772108], [109.238776, 13.772093], [109.238796, 13.772091], [109.238776, 13.772093], [109.238782, 13.772144], [109.238804, 13.772084], [109.238782, 13.772145], [109.238752, 13.772159], [109.238782, 13.772145], [109.23876, 13.772131], [109.238782, 13.772145], [109.23877, 13.772108], [109.238769, 13.772202], [109.238785, 13.772127], [109.238779, 13.772142], [109.238769, 13.77212], [109.23878, 13.772162], [109.23877, 13.772133], [109.238774, 13.772152], [109.238799, 13.772116], [109.238774, 13.772171], [109.238768, 13.772154], [109.238791, 13.772119], [109.23879, 13.772167]]}, "properties": {"name": "1785053732.From_the_bus_station_to_the_wrong_hotel_😅", "cmt": "2026-07-26", "tstamp": 1785024000, "desc": "---", "src": "109.223211/13.771505/109.238909/13.774546", "bbox": "109.223211/13.771505/109.238909/13.774546"}}]}