{"type": "FeatureCollection", "name": "TrackSet", "crs": {"type": "name", "properties": {"name": "urn:ogc:def:crs:OGC:1.3:CRS84"}}, "bbox": [109.210528, 13.744819, 109.213922, 13.751926], "features": [{"type": "Feature", "bbox": [109.210528, 13.744819, 109.213922, 13.751926], "geometry": {"type": "LineString", "coordinates": [[109.212642, 13.745195], [109.212659, 13.745207], [109.212643, 13.745235], [109.21274, 13.74519], [109.212799, 13.745211], [109.212869, 13.745325], [109.213036, 13.745506], [109.213095, 13.745642], [109.213165, 13.745694], [109.213181, 13.74577], [109.213229, 13.745845], [109.213265, 13.745846], [109.213332, 13.745945], [109.213437, 13.746171], [109.213451, 13.746252], [109.213534, 13.746351], [109.21356, 13.746459], [109.213633, 13.746551], [109.213622, 13.746618], [109.213676, 13.74665], [109.213682, 13.7467], [109.21375, 13.746782], [109.213741, 13.746803], [109.213789, 13.746873], [109.213886, 13.74717], [109.213793, 13.747342], [109.213698, 13.747386], [109.213628, 13.747473], [109.21347, 13.747565], [109.213436, 13.747628], [109.213413, 13.747568], [109.213363, 13.747603], [109.213314, 13.747664], [109.213281, 13.747772], [109.21319, 13.74788], [109.213116, 13.747955], [109.213076, 13.747967], [109.212748, 13.74832], [109.21264, 13.748491], [109.212665, 13.748528], [109.212786, 13.748559], [109.212827, 13.748614], [109.212821, 13.74869], [109.212749, 13.748757], [109.212679, 13.748777], [109.212688, 13.748813], [109.212599, 13.748833], [109.212583, 13.748875], [109.212537, 13.748902], [109.212492, 13.748968], [109.212496, 13.749034], [109.212374, 13.749248], [109.212112, 13.749536], [109.212095, 13.749584], [109.212044, 13.749582], [109.211987, 13.749651], [109.211868, 13.749942], [109.211831, 13.749925], [109.211753, 13.749808], [109.211811, 13.750041], [109.211713, 13.749868], [109.211954, 13.749976], [109.211909, 13.749995], [109.211958, 13.750089], [109.21196, 13.750144], [109.21193, 13.750124], [109.211975, 13.75025], [109.21197, 13.750276], [109.211937, 13.750211], [109.211945, 13.750142], [109.211913, 13.750061], [109.211924, 13.750077], [109.211929, 13.750061], [109.21203, 13.750327], [109.211887, 13.750027], [109.211918, 13.750077], [109.211915, 13.749973], [109.211806, 13.749631], [109.211799, 13.749764], [109.211827, 13.74984], [109.211778, 13.749839], [109.211703, 13.74997], [109.211658, 13.750005], [109.21166, 13.750146], [109.21162, 13.75025], [109.211561, 13.750335], [109.211518, 13.750358], [109.211501, 13.750417], [109.211399, 13.750539], [109.211361, 13.75065], [109.211273, 13.750753], [109.211132, 13.751042], [109.211, 13.751253], [109.210984, 13.751318], [109.210859, 13.751466], [109.210782, 13.7517], [109.210608, 13.751922], [109.210581, 13.751926], [109.210579, 13.751903], [109.210677, 13.751825], [109.210555, 13.751714], [109.210528, 13.75166], [109.210537, 13.751618], [109.210588, 13.751559], [109.210623, 13.75156], [109.210675, 13.751484], [109.210674, 13.75144], [109.210786, 13.751205], [109.210908, 13.751023], [109.210968, 13.750863], [109.211043, 13.750778], [109.211253, 13.750429], [109.211311, 13.750202], [109.211466, 13.750058], [109.211599, 13.749816], [109.211749, 13.749683], [109.211771, 13.749587], [109.211806, 13.749564], [109.211925, 13.749366], [109.212037, 13.749282], [109.212235, 13.748971], [109.212245, 13.748921], [109.212329, 13.748851], [109.212379, 13.748841], [109.212403, 13.748761], [109.212704, 13.748487], [109.212742, 13.748406], [109.212843, 13.748316], [109.21289, 13.748219], [109.212973, 13.748164], [109.213096, 13.748013], [109.213241, 13.747923], [109.213359, 13.74775], [109.213437, 13.747706], [109.213483, 13.747644], [109.213543, 13.747633], [109.213578, 13.747564], [109.213621, 13.747545], [109.213688, 13.74741], [109.213811, 13.747362], [109.213893, 13.747203], [109.213922, 13.747195], [109.213901, 13.747062], [109.213854, 13.746987], [109.213847, 13.746941], [109.213869, 13.74693], [109.213766, 13.746818], [109.21371, 13.746642], [109.213598, 13.746463], [109.213602, 13.746408], [109.213561, 13.746359], [109.213567, 13.746307], [109.213419, 13.746131], [109.213418, 13.746052], [109.213349, 13.745974], [109.213358, 13.745927], [109.213273, 13.745793], [109.2132, 13.745726], [109.213118, 13.74557], [109.213046, 13.745519], [109.212882, 13.745281], [109.212821, 13.745252], [109.212747, 13.745151], [109.212701, 13.745133], [109.212569, 13.745175], [109.212503, 13.745162], [109.212484, 13.745133], [109.212482, 13.745157], [109.212446, 13.745146], [109.212507, 13.74509], [109.212477, 13.745093], [109.212468, 13.745048], [109.212483, 13.745117], [109.212417, 13.745055], [109.212424, 13.745069], [109.212395, 13.745072], [109.212445, 13.744888], [109.212412, 13.74486], [109.212434, 13.744819], [109.212369, 13.744832], [109.212273, 13.744919], [109.212312, 13.744952], [109.2123, 13.744981], [109.212345, 13.744883], [109.21239, 13.744878], [109.212634, 13.744954], [109.212731, 13.74502], [109.212739, 13.745006], [109.212678, 13.745075], [109.21271, 13.745042], [109.212709, 13.745168], [109.212749, 13.74511], [109.212664, 13.745128], [109.212719, 13.745057], [109.212752, 13.745038], [109.212661, 13.745164], [109.212671, 13.745193], [109.212522, 13.745158], [109.21253, 13.74519], [109.212564, 13.745179], [109.212495, 13.745225], [109.212471, 13.745206], [109.212498, 13.745205], [109.212375, 13.745127], [109.212243, 13.745116], [109.2123, 13.745143], [109.21242, 13.745143], [109.212583, 13.745045], [109.212591, 13.745114], [109.212708, 13.745196], [109.212749, 13.745103], [109.212799, 13.745152], [109.212667, 13.745166], [109.212553, 13.745143], [109.21263, 13.745164], [109.21262, 13.745189], [109.212705, 13.74517], [109.212633, 13.745157], [109.212714, 13.745076], [109.212678, 13.745161], [109.212875, 13.744944], [109.212723, 13.745146], [109.212676, 13.745165], [109.21275, 13.745123], [109.212803, 13.74505], [109.212748, 13.745123], [109.212753, 13.745078], [109.212853, 13.745277], [109.212879, 13.745212], [109.212817, 13.745241], [109.212815, 13.745164], [109.212428, 13.745208], [109.212395, 13.745189]]}, "properties": {"name": "1785069724.Sunday_Evening_Walk", "cmt": "2026-07-26", "tstamp": 1785024000, "desc": "---", "src": "109.210528/13.744819/109.213922/13.751926", "bbox": "109.210528/13.744819/109.213922/13.751926"}}]}