{"type": "FeatureCollection", "name": "TrackSet", "crs": {"type": "name", "properties": {"name": "urn:ogc:def:crs:OGC:1.3:CRS84"}}, "bbox": [6.160418, 46.428415, 6.204905, 46.448493], "features": [{"type": "Feature", "bbox": [6.160418, 46.428415, 6.204905, 46.448493], "geometry": {"type": "LineString", "coordinates": [[6.204316, 46.428444], [6.204372, 46.428415], [6.20431, 46.42845], [6.204341, 46.428485], [6.204341, 46.428452], [6.204421, 46.428495], [6.204518, 46.428477], [6.204861, 46.428849], [6.204905, 46.428964], [6.204837, 46.429009], [6.204695, 46.429039], [6.204362, 46.429163], [6.204231, 46.429227], [6.20403, 46.42938], [6.203983, 46.429475], [6.203821, 46.429614], [6.203684, 46.429817], [6.203693, 46.429888], [6.203798, 46.430054], [6.2038, 46.430136], [6.203268, 46.430466], [6.203164, 46.430457], [6.202791, 46.430273], [6.202483, 46.430215], [6.202199, 46.430221], [6.201183, 46.430374], [6.201011, 46.430376], [6.200814, 46.430451], [6.200593, 46.430575], [6.200474, 46.430609], [6.199884, 46.430956], [6.199453, 46.431344], [6.199091, 46.431552], [6.19789, 46.431925], [6.19764, 46.431986], [6.19724, 46.431993], [6.196265, 46.432062], [6.195506, 46.432074], [6.19476, 46.432172], [6.194593, 46.432222], [6.194355, 46.432357], [6.194147, 46.432408], [6.194085, 46.432464], [6.194091, 46.432516], [6.193688, 46.432762], [6.191754, 46.433686], [6.189945, 46.434673], [6.189339, 46.435078], [6.188925, 46.435313], [6.188806, 46.435449], [6.188639, 46.435806], [6.188454, 46.435815], [6.188253, 46.435708], [6.188014, 46.435822], [6.187704, 46.435869], [6.187281, 46.435843], [6.186819, 46.435775], [6.18639, 46.435896], [6.185899, 46.436111], [6.185758, 46.436151], [6.185549, 46.436159], [6.185439, 46.436289], [6.185382, 46.436304], [6.185209, 46.436459], [6.185112, 46.43651], [6.185062, 46.436507], [6.184934, 46.436555], [6.184819, 46.436552], [6.184584, 46.436681], [6.184553, 46.436741], [6.184335, 46.436905], [6.184278, 46.436997], [6.183852, 46.437374], [6.183488, 46.437625], [6.183305, 46.437679], [6.183153, 46.437756], [6.182827, 46.43801], [6.182541, 46.438117], [6.182247, 46.438157], [6.182118, 46.438213], [6.182048, 46.438218], [6.182003, 46.43832], [6.181804, 46.438319], [6.181739, 46.438347], [6.181767, 46.43852], [6.181822, 46.438479], [6.181865, 46.438488], [6.181767, 46.438519], [6.181824, 46.438529], [6.181797, 46.438574], [6.18184, 46.438749], [6.181912, 46.438844], [6.181962, 46.438989], [6.181988, 46.439184], [6.182041, 46.439297], [6.182017, 46.439391], [6.181913, 46.439525], [6.181871, 46.439535], [6.181826, 46.439676], [6.181673, 46.439898], [6.181596, 46.439934], [6.181466, 46.440057], [6.181236, 46.440126], [6.181139, 46.440191], [6.180906, 46.440253], [6.180658, 46.440261], [6.180363, 46.440195], [6.180079, 46.440226], [6.179982, 46.440288], [6.179934, 46.440382], [6.179954, 46.440473], [6.180077, 46.440587], [6.180289, 46.440901], [6.180314, 46.44112], [6.180282, 46.441262], [6.180062, 46.441479], [6.179832, 46.441641], [6.179552, 46.441935], [6.179347, 46.442073], [6.179299, 46.442212], [6.179337, 46.442331], [6.179457, 46.44244], [6.179554, 46.442495], [6.179907, 46.442553], [6.180002, 46.442605], [6.180331, 46.442907], [6.180441, 46.443064], [6.180829, 46.443848], [6.1809, 46.443889], [6.180949, 46.443976], [6.181078, 46.444097], [6.181236, 46.444196], [6.181303, 46.444295], [6.181563, 46.444532], [6.181899, 46.445074], [6.182144, 46.44531], [6.1822, 46.445473], [6.182254, 46.445482], [6.182374, 46.445806], [6.182359, 46.445791], [6.182194, 46.445827], [6.181834, 46.445784], [6.18187, 46.445787], [6.181872, 46.44584], [6.181842, 46.445824], [6.18188, 46.4458], [6.181839, 46.44579], [6.181801, 46.445732], [6.181657, 46.445729], [6.181552, 46.4457], [6.180814, 46.445443], [6.180702, 46.445383], [6.180537, 46.445347], [6.180478, 46.445284], [6.180039, 46.445167], [6.179856, 46.445156], [6.17961, 46.445101], [6.179037, 46.445141], [6.178659, 46.445093], [6.178532, 46.445037], [6.178197, 46.445036], [6.177907, 46.444988], [6.177639, 46.445009], [6.177327, 46.44495], [6.177196, 46.444903], [6.177007, 46.444792], [6.176687, 46.444717], [6.176469, 46.444716], [6.175883, 46.444628], [6.175509, 46.444736], [6.175293, 46.444756], [6.175161, 46.444802], [6.174652, 46.444881], [6.174474, 46.44497], [6.174346, 46.44499], [6.174209, 46.445051], [6.173978, 46.445081], [6.173404, 46.445208], [6.172911, 46.445275], [6.171908, 46.445271], [6.170895, 46.445353], [6.170812, 46.445385], [6.170574, 46.445405], [6.170386, 46.44536], [6.169977, 46.445362], [6.169628, 46.445443], [6.169481, 46.445443], [6.169334, 46.445398], [6.169089, 46.445403], [6.168663, 46.445545], [6.168324, 46.445735], [6.16816, 46.445789], [6.168075, 46.445862], [6.167999, 46.445869], [6.167817, 46.445955], [6.167684, 46.446075], [6.167611, 46.446094], [6.167518, 46.446203], [6.167162, 46.44638], [6.166887, 46.446571], [6.166739, 46.446796], [6.166599, 46.446858], [6.166407, 46.447106], [6.166139, 46.44731], [6.165896, 46.447408], [6.165799, 46.4474], [6.165672, 46.447482], [6.165434, 46.44748], [6.165253, 46.447517], [6.165101, 46.4477], [6.164997, 46.447762], [6.164729, 46.44786], [6.16456, 46.447905], [6.164493, 46.447902], [6.164345, 46.447987], [6.164218, 46.448018], [6.16415, 46.448015], [6.164112, 46.447971], [6.163807, 46.448043], [6.163731, 46.448016], [6.163698, 46.44796], [6.16359, 46.44793], [6.163538, 46.447942], [6.163228, 46.447843], [6.162925, 46.447827], [6.162629, 46.448025], [6.16263, 46.448229], [6.162424, 46.448325], [6.162218, 46.448353], [6.162061, 46.448296], [6.161927, 46.448281], [6.161457, 46.448324], [6.161358, 46.448308], [6.161307, 46.448324], [6.161196, 46.448287], [6.160853, 46.448396], [6.160787, 46.448392], [6.160763, 46.448416], [6.160522, 46.448454], [6.160559, 46.448469], [6.160479, 46.44846], [6.160418, 46.44848], [6.160503, 46.448493]]}, "properties": {"name": "1786880770.St_Cergue", "cmt": "2026-08-16", "tstamp": 1786838400, "desc": "UpHill", "src": "6.160418/46.428415/6.204905/46.448493", "bbox": "6.160418/46.428415/6.204905/46.448493"}}, {"type": "Feature", "bbox": [6.160418, 46.428415, 6.204905, 46.448493], "geometry": {"type": "LineString", "coordinates": [[6.160509, 46.44849], [6.160501, 46.448483]]}, "properties": {"name": "1786880770.St_Cergue", "cmt": "2026-08-16", "tstamp": 1786838400, "desc": "DownHill", "src": "6.160418/46.428415/6.204905/46.448493", "bbox": "6.160418/46.428415/6.204905/46.448493"}}]}