{"type": "FeatureCollection", "name": "TrackSet", "crs": {"type": "name", "properties": {"name": "urn:ogc:def:crs:OGC:1.3:CRS84"}}, "bbox": [6.158307, 46.415753, 6.18616, 46.448568], "features": [{"type": "Feature", "bbox": [6.158307, 46.415753, 6.18616, 46.448568], "geometry": {"type": "LineString", "coordinates": [[6.177446, 46.417393], [6.177493, 46.41735], [6.177436, 46.41736], [6.177472, 46.417382], [6.177227, 46.417607], [6.177111, 46.417653], [6.176974, 46.417762], [6.176736, 46.417815], [6.176705, 46.417848], [6.176301, 46.417978], [6.175615, 46.418313], [6.175617, 46.418371], [6.17564, 46.418349], [6.175587, 46.418375], [6.175591, 46.418405], [6.175283, 46.418768], [6.174489, 46.419397], [6.174074, 46.419658], [6.173841, 46.419768], [6.172921, 46.420098], [6.171747, 46.420619], [6.170761, 46.420962], [6.170376, 46.421066], [6.170127, 46.421103], [6.169922, 46.421209], [6.169875, 46.421291], [6.169831, 46.421517], [6.169594, 46.421832], [6.16924, 46.422111], [6.168276, 46.422697], [6.16814, 46.422823], [6.168083, 46.422919], [6.168084, 46.423132], [6.168164, 46.423321], [6.168262, 46.423459], [6.168378, 46.423894], [6.168492, 46.424031], [6.168612, 46.424095], [6.168716, 46.424231], [6.168792, 46.424514], [6.16888, 46.424603], [6.168882, 46.424656], [6.16876, 46.424747], [6.168627, 46.42491], [6.16859, 46.424999], [6.168428, 46.425141], [6.168128, 46.425335], [6.168129, 46.425361], [6.167831, 46.425633], [6.167327, 46.426246], [6.167219, 46.426499], [6.16695, 46.426688], [6.166819, 46.42685], [6.166567, 46.427065], [6.166359, 46.427145], [6.166324, 46.427183], [6.166276, 46.427184], [6.166017, 46.427377], [6.165443, 46.427557], [6.165384, 46.427542], [6.165372, 46.427559], [6.165135, 46.427579], [6.164685, 46.427571], [6.163813, 46.427381], [6.163495, 46.427376], [6.163506, 46.427407], [6.163576, 46.427434], [6.163605, 46.427513], [6.163915, 46.427821], [6.164018, 46.427962], [6.164046, 46.428097], [6.163836, 46.428451], [6.163772, 46.428847], [6.163613, 46.428977], [6.163375, 46.429045], [6.16332, 46.429029], [6.163286, 46.429048], [6.163236, 46.429168], [6.163278, 46.429336], [6.163253, 46.429441], [6.163212, 46.429463], [6.163162, 46.429592], [6.162988, 46.429726], [6.162941, 46.429795], [6.162999, 46.429907], [6.162959, 46.430122], [6.162851, 46.430266], [6.162842, 46.430311], [6.162887, 46.430338], [6.162862, 46.430442], [6.162865, 46.430427], [6.162782, 46.430419], [6.162815, 46.430422], [6.162782, 46.430419], [6.162821, 46.43047], [6.162807, 46.430499], [6.162835, 46.430475], [6.162879, 46.430551], [6.163044, 46.430661], [6.16309, 46.430724], [6.163311, 46.430759], [6.163462, 46.430704], [6.163586, 46.430691], [6.163657, 46.430636], [6.164363, 46.430613], [6.166273, 46.43029], [6.167015, 46.430059], [6.167612, 46.429836], [6.168452, 46.429429], [6.168974, 46.429215], [6.169081, 46.429282], [6.169135, 46.429264], [6.169423, 46.429284], [6.169304, 46.429478], [6.1693, 46.429542], [6.169274, 46.429542], [6.1693, 46.429535], [6.169303, 46.429559], [6.169281, 46.429539], [6.169263, 46.429571], [6.169316, 46.429565], [6.169326, 46.429653], [6.169391, 46.429738], [6.169446, 46.430029], [6.169419, 46.430494], [6.169254, 46.431204], [6.169282, 46.431326], [6.169407, 46.431482], [6.169524, 46.43172], [6.169513, 46.431806], [6.169211, 46.432073], [6.169115, 46.432256], [6.169105, 46.432412], [6.169154, 46.432759], [6.169236, 46.433015], [6.169171, 46.43322], [6.168811, 46.433724], [6.168784, 46.434056], [6.168651, 46.434426], [6.168647, 46.434595], [6.168579, 46.434834], [6.168581, 46.435084], [6.168525, 46.435236], [6.168296, 46.435444], [6.167685, 46.435737], [6.167529, 46.435891], [6.16727, 46.436079], [6.16715, 46.436313], [6.166867, 46.436516], [6.166563, 46.436685], [6.16626, 46.436909], [6.165995, 46.437063], [6.165502, 46.437296], [6.165445, 46.437346], [6.165463, 46.437401], [6.165371, 46.437603], [6.165386, 46.43769], [6.165497, 46.437896], [6.165578, 46.437938], [6.165787, 46.438173], [6.165835, 46.438191], [6.166037, 46.438539], [6.166078, 46.438666], [6.16619, 46.438799], [6.166432, 46.438934], [6.166825, 46.439015], [6.166997, 46.439014], [6.167235, 46.439077], [6.167303, 46.439205], [6.167458, 46.439266], [6.167745, 46.43951], [6.167893, 46.439775], [6.167816, 46.439982], [6.167517, 46.440176], [6.166471, 46.440548], [6.166144, 46.440754], [6.166378, 46.441022], [6.166387, 46.441083], [6.166411, 46.441073], [6.166444, 46.441108], [6.166447, 46.441088], [6.166518, 46.441113], [6.166723, 46.441238], [6.166762, 46.44129], [6.166796, 46.44147], [6.166856, 46.441477], [6.166915, 46.441518], [6.166907, 46.441565], [6.166952, 46.4416], [6.166941, 46.441666], [6.167013, 46.441729], [6.166971, 46.441888], [6.166995, 46.441898], [6.166966, 46.441942], [6.166925, 46.441947], [6.166744, 46.442276], [6.166709, 46.44228], [6.16652, 46.442445], [6.166497, 46.442494], [6.166517, 46.442513], [6.166548, 46.442497], [6.16654, 46.442553], [6.166574, 46.442514], [6.166439, 46.442543], [6.166233, 46.442696], [6.166156, 46.442685], [6.166001, 46.442867], [6.16598, 46.442846], [6.165935, 46.442865], [6.16588, 46.442957], [6.165817, 46.442977], [6.16583, 46.442956], [6.165798, 46.442988], [6.165799, 46.442956], [6.165765, 46.442956], [6.165734, 46.443101], [6.165603, 46.44317], [6.165588, 46.443157], [6.16554, 46.443239], [6.165488, 46.443253], [6.165337, 46.443384], [6.165364, 46.443388], [6.165294, 46.443443], [6.165268, 46.44351], [6.164951, 46.443571], [6.164742, 46.443683], [6.164576, 46.443715], [6.164471, 46.443845], [6.164339, 46.443883], [6.164102, 46.444028], [6.163648, 46.444098], [6.163163, 46.444088], [6.162859, 46.444185], [6.162887, 46.444178], [6.162838, 46.444162], [6.162793, 46.444197], [6.162133, 46.4443], [6.161254, 46.444331], [6.161054, 46.444374], [6.1609, 46.444444], [6.160857, 46.444512], [6.160909, 46.444556], [6.161758, 46.444749], [6.16187, 46.444826], [6.161817, 46.444934], [6.162075, 46.445014], [6.162303, 46.445001], [6.162468, 46.445031], [6.162913, 46.445209], [6.163112, 46.445362], [6.163299, 46.445565], [6.163411, 46.445719], [6.163514, 46.445942], [6.163483, 46.446169], [6.163316, 46.446557], [6.163225, 46.446644], [6.16306, 46.446669], [6.162917, 46.446657], [6.16286, 46.446631], [6.162774, 46.446639], [6.162721, 46.446669], [6.162742, 46.446697], [6.162696, 46.446685], [6.162598, 46.446717], [6.162555, 46.446675], [6.162437, 46.446677], [6.162369, 46.446639], [6.162358, 46.44667], [6.162276, 46.446639], [6.162141, 46.446667], [6.162018, 46.446663], [6.162004, 46.446692], [6.161992, 46.446666], [6.16195, 46.446684], [6.161981, 46.446715], [6.16196, 46.446694], [6.161997, 46.446659], [6.161949, 46.446639], [6.161958, 46.446547], [6.16193, 46.446531], [6.161971, 46.44644], [6.16192, 46.446339], [6.161801, 46.446327], [6.1618, 46.446373], [6.161776, 46.446347], [6.161726, 46.446345], [6.161665, 46.446234], [6.161591, 46.446207], [6.161586, 46.446164], [6.161553, 46.446156], [6.161514, 46.446156], [6.161469, 46.446193], [6.161305, 46.446194]]}, "properties": {"name": "1787996870.St_Cergue_loop", "cmt": "2026-08-29", "tstamp": 1787961600, "desc": "UpHill", "src": "6.158307/46.415753/6.18616/46.448568", "bbox": "6.158307/46.415753/6.18616/46.448568"}}, {"type": "Feature", "bbox": [6.158307, 46.415753, 6.18616, 46.448568], "geometry": {"type": "LineString", "coordinates": [[6.161286, 46.446196], [6.161146, 46.446226], [6.161134, 46.446275], [6.161079, 46.446296], [6.160995, 46.446261], [6.16073, 46.446237], [6.160604, 46.446299], [6.160471, 46.4463], [6.160369, 46.446466], [6.160422, 46.446567], [6.1605, 46.446585], [6.160514, 46.446614], [6.160447, 46.446664], [6.16049, 46.446689], [6.160518, 46.446658], [6.160442, 46.446612], [6.160169, 46.446574], [6.160131, 46.446594], [6.160007, 46.446529], [6.159836, 46.446522], [6.159792, 46.446465], [6.159667, 46.44649], [6.159591, 46.446452], [6.15962, 46.446403], [6.159584, 46.446368], [6.158914, 46.446094], [6.158797, 46.44612], [6.158438, 46.446335], [6.158307, 46.446368], [6.158445, 46.44652], [6.158427, 46.446648], [6.158469, 46.446735], [6.158435, 46.446775], [6.158436, 46.44686], [6.158704, 46.447172], [6.158754, 46.447276], [6.158593, 46.4474], [6.158604, 46.447446], [6.158752, 46.447336], [6.158805, 46.447327], [6.158759, 46.447338], [6.158808, 46.44729], [6.158839, 46.44746], [6.158804, 46.447388], [6.158715, 46.447423], [6.158753, 46.447387], [6.158742, 46.4473], [6.158742, 46.447328], [6.158844, 46.447391], [6.15884, 46.447359], [6.15888, 46.447344], [6.15885, 46.447364], [6.158841, 46.447323], [6.158854, 46.447342], [6.158765, 46.447383], [6.158757, 46.447462], [6.158815, 46.447546], [6.158821, 46.447663], [6.158884, 46.447771], [6.15887, 46.447812], [6.159021, 46.448116], [6.159092, 46.448231], [6.159209, 46.448315], [6.159252, 46.448402], [6.159284, 46.448401], [6.15946, 46.448553], [6.159525, 46.448568], [6.159709, 46.448532], [6.159768, 46.44847], [6.159864, 46.448449], [6.160102, 46.448447], [6.160343, 46.448403], [6.160683, 46.448441], [6.161188, 46.448252], [6.161342, 46.448326], [6.161541, 46.448361], [6.161672, 46.448354], [6.161771, 46.448377], [6.161872, 46.448436], [6.162176, 46.448341], [6.162394, 46.448386], [6.16271, 46.448247], [6.16274, 46.448055], [6.16285, 46.447926], [6.163133, 46.447908], [6.16347, 46.447961], [6.163529, 46.448001], [6.16363, 46.448004], [6.163693, 46.448057], [6.163838, 46.448104], [6.164104, 46.448016], [6.164221, 46.448047], [6.16432, 46.447993], [6.164395, 46.447991], [6.164483, 46.44793], [6.164645, 46.447913], [6.164884, 46.44779], [6.164887, 46.447739], [6.164909, 46.447737], [6.164908, 46.447773], [6.164999, 46.447797], [6.16515, 46.447746], [6.165249, 46.44764], [6.165279, 46.447538], [6.165593, 46.44748], [6.165622, 46.4474], [6.165676, 46.447469], [6.165781, 46.447469], [6.165919, 46.447436], [6.165978, 46.44739], [6.166044, 46.447396], [6.166227, 46.447337], [6.166294, 46.447257], [6.166446, 46.447199], [6.166522, 46.447041], [6.166587, 46.446976], [6.166732, 46.446892], [6.166805, 46.446811], [6.166855, 46.446799], [6.166876, 46.446669], [6.166998, 46.446533], [6.167125, 46.446477], [6.167154, 46.446437], [6.167339, 46.44637], [6.1674, 46.446303], [6.167532, 46.44624], [6.167611, 46.446142], [6.167776, 46.446089], [6.167828, 46.445998], [6.167987, 46.445934], [6.168164, 46.445791], [6.168691, 46.445617], [6.168744, 46.44555], [6.168992, 46.445454], [6.169219, 46.445441], [6.169277, 46.445416], [6.169401, 46.445468], [6.169547, 46.445488], [6.169794, 46.445406], [6.169849, 46.445417], [6.16998, 46.445374], [6.170109, 46.445363], [6.170423, 46.445371], [6.170556, 46.44541], [6.170819, 46.445425], [6.171403, 46.445327], [6.1719, 46.445347], [6.172051, 46.445298], [6.172268, 46.445273], [6.172869, 46.445279], [6.173475, 46.445202], [6.173938, 46.445089], [6.174261, 46.445036], [6.174318, 46.445047], [6.174793, 46.444875], [6.175464, 46.444765], [6.175821, 46.44465], [6.17587, 46.444658], [6.175877, 46.44464], [6.176062, 46.444683], [6.176194, 46.444678], [6.176338, 46.444722], [6.176459, 46.444714], [6.176613, 46.44479], [6.176708, 46.444809], [6.176776, 46.444775], [6.17693, 46.444755], [6.177227, 46.444765], [6.177389, 46.444714], [6.1777, 46.444694], [6.177771, 46.444643], [6.177976, 46.444606], [6.178272, 46.444644], [6.178366, 46.444619], [6.178435, 46.444639], [6.17867, 46.444626], [6.178716, 46.444595], [6.178856, 46.444596], [6.179043, 46.444545], [6.179303, 46.444405], [6.179426, 46.444441], [6.179504, 46.444428], [6.179558, 46.444467], [6.179857, 46.444544], [6.179894, 46.444579], [6.180054, 46.444626], [6.180452, 46.444803], [6.180696, 46.444957], [6.181047, 46.445085], [6.1811, 46.445135], [6.18124, 46.445185], [6.18135, 46.445215], [6.181698, 46.445202], [6.181871, 46.445279], [6.182197, 46.445353], [6.182191, 46.445226], [6.181953, 46.445003], [6.18184, 46.444769], [6.181784, 46.444675], [6.181706, 46.444621], [6.181647, 46.444482], [6.180931, 46.443837], [6.180799, 46.443625], [6.180724, 46.443467], [6.180729, 46.443413], [6.180523, 46.443002], [6.180379, 46.442802], [6.179984, 46.442521], [6.179774, 46.44245], [6.179531, 46.442414], [6.179416, 46.442311], [6.179419, 46.442171], [6.179473, 46.441999], [6.179641, 46.441948], [6.179828, 46.441711], [6.17992, 46.441624], [6.179981, 46.441611], [6.180322, 46.441317], [6.180359, 46.441238], [6.18038, 46.441069], [6.18035, 46.440876], [6.180239, 46.440639], [6.180068, 46.440442], [6.180057, 46.440383], [6.18004, 46.440403], [6.180059, 46.440303], [6.180237, 46.440223], [6.180477, 46.440282], [6.180513, 46.440268], [6.180541, 46.440288], [6.180877, 46.440324], [6.18117, 46.44025], [6.181484, 46.440093], [6.181688, 46.439932], [6.182071, 46.439435], [6.182098, 46.439315], [6.182068, 46.439125], [6.181937, 46.438697], [6.181864, 46.438583], [6.181824, 46.438367], [6.181743, 46.43836], [6.181568, 46.438442], [6.181511, 46.438526], [6.181499, 46.438838], [6.181461, 46.438806], [6.181453, 46.43884], [6.181432, 46.438806], [6.18113, 46.438764], [6.180988, 46.43869], [6.180657, 46.438413], [6.180387, 46.438264], [6.179509, 46.437874], [6.179419, 46.437841], [6.179367, 46.437859], [6.178844, 46.437652], [6.178519, 46.437774], [6.178538, 46.437816], [6.178532, 46.437779], [6.178615, 46.437748], [6.178577, 46.437722], [6.178591, 46.437694], [6.178562, 46.437738], [6.17859, 46.437741], [6.178583, 46.437762], [6.178568, 46.437734], [6.178584, 46.437747], [6.178321, 46.437853], [6.178148, 46.437881], [6.177997, 46.437962], [6.177961, 46.438011], [6.177852, 46.438046], [6.177795, 46.437999], [6.17764, 46.437996], [6.177599, 46.437941], [6.177628, 46.437868], [6.177591, 46.437895], [6.177604, 46.437821], [6.177692, 46.4378], [6.177903, 46.437619], [6.177663, 46.437812], [6.177601, 46.437804], [6.177493, 46.437916], [6.17728, 46.437898], [6.177178, 46.438002], [6.177087, 46.437979], [6.176982, 46.438029], [6.176817, 46.438046], [6.176746, 46.438107], [6.176573, 46.438112], [6.176429, 46.438171], [6.176413, 46.438214], [6.176297, 46.438231], [6.176232, 46.438271], [6.176222, 46.438172], [6.176168, 46.438185], [6.176136, 46.438126], [6.176278, 46.437835], [6.176235, 46.437812], [6.176661, 46.437197], [6.176787, 46.437097], [6.177028, 46.43703], [6.177191, 46.43677], [6.177245, 46.436603], [6.177195, 46.436245], [6.177398, 46.435854], [6.177532, 46.435225], [6.177629, 46.435018], [6.177785, 46.434938], [6.178306, 46.434848], [6.178599, 46.434746], [6.178668, 46.434631], [6.178635, 46.434381], [6.178702, 46.43408], [6.178901, 46.433844], [6.179227, 46.433656], [6.180144, 46.433323], [6.180823, 46.432901], [6.180839, 46.432774], [6.180769, 46.432691], [6.179882, 46.432317], [6.179793, 46.432225], [6.179802, 46.432117], [6.18016, 46.431815], [6.180444, 46.431471], [6.180539, 46.431398], [6.18075, 46.431296], [6.180997, 46.431214], [6.181526, 46.43108], [6.18169, 46.43101], [6.181816, 46.430922], [6.182036, 46.430482], [6.182245, 46.430146], [6.182783, 46.429394], [6.183187, 46.428892], [6.183421, 46.428741], [6.18362, 46.428685], [6.184134, 46.428725], [6.184373, 46.428693], [6.18434, 46.428668], [6.184338, 46.428511], [6.184436, 46.428169], [6.184534, 46.42803], [6.184886, 46.42776], [6.184921, 46.427665], [6.184902, 46.427552], [6.184779, 46.427317], [6.184631, 46.427177], [6.183929, 46.42682], [6.183533, 46.426682], [6.183534, 46.426605], [6.183661, 46.426376], [6.183661, 46.426229], [6.18374, 46.425945], [6.183721, 46.425864], [6.183816, 46.425409], [6.183863, 46.425311], [6.183859, 46.425177], [6.183967, 46.424985], [6.184232, 46.424853], [6.1845, 46.424832], [6.184622, 46.42474], [6.184705, 46.424756], [6.18477, 46.424725], [6.185105, 46.424684], [6.185343, 46.424622], [6.185566, 46.424662], [6.18593, 46.424635], [6.186006, 46.424598], [6.186095, 46.424487], [6.18616, 46.424465], [6.186108, 46.424469], [6.186129, 46.424468], [6.186093, 46.424409], [6.186009, 46.42433], [6.185848, 46.423817], [6.185643, 46.423321], [6.18568, 46.423243], [6.185639, 46.423208], [6.185698, 46.423194], [6.185508, 46.42297], [6.185486, 46.422861], [6.185392, 46.42269], [6.185308, 46.422358], [6.185384, 46.4221], [6.18543, 46.422045], [6.185423, 46.421916], [6.185469, 46.421781], [6.185309, 46.421485], [6.185247, 46.421502], [6.185342, 46.421525], [6.185423, 46.421458], [6.185588, 46.421463], [6.185651, 46.421435], [6.185728, 46.421327], [6.185756, 46.421204], [6.185864, 46.421097], [6.185988, 46.420878], [6.18592, 46.420773], [6.185796, 46.420746], [6.185684, 46.420677], [6.185621, 46.420533], [6.185428, 46.420374], [6.185448, 46.420331], [6.185424, 46.42022], [6.185302, 46.420211], [6.185256, 46.42013], [6.185228, 46.420137], [6.185182, 46.420101], [6.185182, 46.41996], [6.184644, 46.419765], [6.184556, 46.419777], [6.184417, 46.419746], [6.184147, 46.419597], [6.184137, 46.419517], [6.184096, 46.419468], [6.18407, 46.419258], [6.184028, 46.419194], [6.183881, 46.419164], [6.183722, 46.419181], [6.183548, 46.419155], [6.182703, 46.418818], [6.182283, 46.418561], [6.182167, 46.418535], [6.182145, 46.418479], [6.181973, 46.418352], [6.181909, 46.418269], [6.181882, 46.417992], [6.181613, 46.417455], [6.181459, 46.417255], [6.181355, 46.417179], [6.180681, 46.416837], [6.179656, 46.416198], [6.178887, 46.415766]]}, "properties": {"name": "1787996870.St_Cergue_loop", "cmt": "2026-08-29", "tstamp": 1787961600, "desc": "DownHill", "src": "6.158307/46.415753/6.18616/46.448568", "bbox": "6.158307/46.415753/6.18616/46.448568"}}, {"type": "Feature", "bbox": [6.158307, 46.415753, 6.18616, 46.448568], "geometry": {"type": "LineString", "coordinates": [[6.178873, 46.415753], [6.178803, 46.415755], [6.178704, 46.415803], [6.178628, 46.415901], [6.1785, 46.41651], [6.17844, 46.416569], [6.178358, 46.416586], [6.17831, 46.416626], [6.17781, 46.417111], [6.177548, 46.417312]]}, "properties": {"name": "1787996870.St_Cergue_loop", "cmt": "2026-08-29", "tstamp": 1787961600, "desc": "UpHill", "src": "6.158307/46.415753/6.18616/46.448568", "bbox": "6.158307/46.415753/6.18616/46.448568"}}]}