{"type": "FeatureCollection", "name": "TrackSet", "crs": {"type": "name", "properties": {"name": "urn:ogc:def:crs:OGC:1.3:CRS84"}}, "bbox": [6.191913, 46.32907, 6.199097, 46.336018], "features": [{"type": "Feature", "bbox": [6.191913, 46.32907, 6.199097, 46.336018], "geometry": {"type": "LineString", "coordinates": [[6.194234, 46.331775], [6.194239, 46.33173], [6.194211, 46.331804], [6.194052, 46.331845], [6.193911, 46.331839], [6.193812, 46.331803], [6.193755, 46.331823], [6.193731, 46.331795], [6.193011, 46.331929], [6.192952, 46.331971], [6.192997, 46.332034], [6.192931, 46.332146], [6.192847, 46.332188], [6.192639, 46.332198], [6.19257, 46.332236], [6.192559, 46.332287], [6.192615, 46.332429], [6.192543, 46.332515], [6.192656, 46.332692], [6.192807, 46.333279], [6.192992, 46.333503], [6.193136, 46.333597], [6.193357, 46.333801], [6.193665, 46.333923], [6.194291, 46.334234], [6.194563, 46.334475], [6.19493, 46.334659], [6.195212, 46.334849], [6.195363, 46.334907], [6.195815, 46.335171], [6.195913, 46.335202], [6.196054, 46.335309], [6.196272, 46.335404], [6.196706, 46.335647], [6.197209, 46.335983], [6.197302, 46.336018], [6.197426, 46.335951], [6.197442, 46.335892], [6.197249, 46.335524], [6.197115, 46.334801], [6.197075, 46.334656], [6.196983, 46.334535], [6.196954, 46.334344], [6.197669, 46.334062], [6.198034, 46.333875], [6.198417, 46.333722], [6.19892, 46.33346], [6.198955, 46.333317], [6.198905, 46.33309], [6.199017, 46.33278], [6.199001, 46.332742], [6.199097, 46.332542], [6.199041, 46.332339], [6.198725, 46.331984], [6.198389, 46.331569], [6.198301, 46.331419], [6.198191, 46.331328], [6.197627, 46.330612], [6.197529, 46.330539], [6.197003, 46.329889], [6.196853, 46.329752], [6.196685, 46.329502], [6.196343, 46.329146], [6.196189, 46.32907], [6.195465, 46.329261], [6.195107, 46.329334], [6.194621, 46.329385], [6.194223, 46.329504], [6.193389, 46.32967], [6.193259, 46.329741], [6.193194, 46.329857], [6.19317, 46.330147], [6.193077, 46.330333], [6.192927, 46.330451], [6.192544, 46.330614], [6.192371, 46.330714], [6.192154, 46.330742], [6.192026, 46.330803], [6.191935, 46.330816], [6.191913, 46.33107], [6.19194, 46.331176], [6.192009, 46.331245], [6.192025, 46.331374], [6.192105, 46.331489], [6.192114, 46.331639], [6.192217, 46.331916], [6.192417, 46.332233], [6.192507, 46.332242], [6.192556, 46.332225], [6.192598, 46.332135], [6.192998, 46.332037], [6.193029, 46.332012], [6.192999, 46.331959], [6.193022, 46.331925], [6.193261, 46.331907], [6.193762, 46.331822], [6.19385, 46.331818], [6.194047, 46.331878], [6.194232, 46.331828], [6.194318, 46.331785], [6.194219, 46.331668], [6.194233, 46.331607], [6.194285, 46.33166], [6.194414, 46.33161], [6.194348, 46.331644]]}, "properties": {"name": "1787810109.Thursday_Morning_Walk", "cmt": "2026-08-27", "tstamp": 1787788800, "desc": "---", "src": "6.191913/46.32907/6.199097/46.336018", "bbox": "6.191913/46.32907/6.199097/46.336018"}}]}