{"type": "FeatureCollection", "name": "TrackSet", "crs": {"type": "name", "properties": {"name": "urn:ogc:def:crs:OGC:1.3:CRS84"}}, "bbox": [6.193203, 46.325904, 6.200418, 46.33177], "features": [{"type": "Feature", "bbox": [6.193203, 46.325904, 6.200418, 46.33177], "geometry": {"type": "LineString", "coordinates": [[6.19442, 46.33177], [6.194499, 46.331761], [6.194719, 46.331626], [6.194439, 46.330973], [6.194095, 46.330396], [6.194044, 46.330215], [6.193917, 46.330129], [6.193818, 46.330113], [6.193273, 46.330159], [6.193203, 46.330141], [6.193251, 46.329748], [6.193426, 46.329659], [6.194751, 46.329404], [6.194843, 46.329364], [6.194852, 46.329295], [6.194907, 46.329289], [6.194992, 46.329329], [6.19514, 46.329333], [6.195788, 46.329192], [6.196072, 46.329087], [6.196196, 46.328999], [6.196327, 46.328946], [6.19719, 46.328681], [6.197832, 46.328416], [6.198052, 46.328359], [6.198855, 46.32806], [6.199089, 46.32795], [6.199545, 46.327803], [6.199691, 46.327625], [6.199736, 46.327504], [6.199613, 46.327369], [6.199566, 46.327244], [6.19925, 46.326896], [6.19926, 46.326843], [6.199081, 46.326535], [6.198986, 46.326294], [6.199039, 46.326264], [6.199195, 46.326286], [6.19932, 46.326268], [6.199566, 46.326148], [6.199883, 46.32606], [6.200238, 46.325927], [6.200321, 46.325933], [6.200352, 46.325916], [6.200319, 46.325922], [6.200331, 46.325904], [6.200357, 46.325927], [6.200418, 46.325914], [6.199865, 46.326028], [6.199769, 46.3261], [6.199405, 46.326199], [6.199246, 46.326282], [6.199082, 46.326271], [6.198963, 46.326308], [6.19948, 46.327226], [6.199727, 46.327564], [6.199547, 46.327797], [6.199297, 46.327855], [6.199027, 46.327991], [6.198273, 46.328251], [6.197774, 46.328459], [6.197598, 46.328493], [6.197491, 46.328617], [6.1973, 46.32867], [6.196969, 46.328812], [6.196637, 46.328909], [6.196498, 46.328986], [6.195491, 46.329263], [6.195222, 46.329299], [6.194765, 46.329413], [6.194614, 46.329402], [6.194429, 46.32947], [6.193503, 46.329648], [6.193369, 46.329689], [6.193289, 46.329748], [6.193215, 46.329967], [6.193226, 46.330149], [6.193394, 46.330178], [6.193565, 46.33013], [6.193895, 46.330109], [6.193995, 46.33017], [6.194051, 46.330338], [6.194144, 46.330431], [6.194277, 46.3307], [6.194347, 46.330769], [6.194474, 46.331101], [6.19455, 46.331198], [6.194581, 46.331424], [6.194696, 46.331618], [6.194695, 46.331645], [6.194603, 46.331712], [6.194398, 46.331766], [6.194286, 46.33177], [6.194253, 46.331744], [6.194278, 46.33176], [6.194291, 46.33173], [6.194305, 46.331608], [6.194283, 46.331631], [6.194295, 46.331651], [6.194431, 46.331649]]}, "properties": {"name": "1787944773.Friday_Night_Walk", "cmt": "2026-08-28", "tstamp": 1787875200, "desc": "---", "src": "6.193203/46.325904/6.200418/46.33177", "bbox": "6.193203/46.325904/6.200418/46.33177"}}]}