{"type": "FeatureCollection", "name": "TrackSet", "crs": {"type": "name", "properties": {"name": "urn:ogc:def:crs:OGC:1.3:CRS84"}}, "bbox": [24.742217, 59.436297, 24.748958, 59.440212], "features": [{"type": "Feature", "bbox": [24.742217, 59.436297, 24.748958, 59.440212], "geometry": {"type": "LineString", "coordinates": [[24.743901, 59.437842], [24.743864, 59.437875], [24.743756, 59.437894], [24.743708, 59.437835], [24.743592, 59.437796], [24.74356, 59.437807], [24.743604, 59.437791], [24.743543, 59.43794], [24.743541, 59.43792], [24.743412, 59.437892], [24.743348, 59.437829], [24.743175, 59.437775], [24.74309, 59.437623], [24.743154, 59.437565], [24.743163, 59.43745], [24.743121, 59.43742], [24.743138, 59.437442], [24.743109, 59.437436], [24.743062, 59.43729], [24.742932, 59.437197], [24.742872, 59.437124], [24.742898, 59.437104], [24.74279, 59.437032], [24.742746, 59.4369], [24.742712, 59.436907], [24.742732, 59.436863], [24.742654, 59.436808], [24.742711, 59.436815], [24.742762, 59.436784], [24.742711, 59.436789], [24.742716, 59.436722], [24.742568, 59.436716], [24.742396, 59.436599], [24.742322, 59.436437], [24.742241, 59.436404], [24.742217, 59.436347], [24.742262, 59.436297], [24.74233, 59.436319], [24.742473, 59.436309], [24.742723, 59.436375], [24.743031, 59.436375], [24.743398, 59.436432], [24.743458, 59.436415], [24.743616, 59.436432], [24.743764, 59.436465], [24.743951, 59.436448], [24.744, 59.436463], [24.744018, 59.436437], [24.744286, 59.436411], [24.744514, 59.436452], [24.744631, 59.436441], [24.744658, 59.436466], [24.744637, 59.436439], [24.744864, 59.436404], [24.745108, 59.436464], [24.745424, 59.436502], [24.745504, 59.43649], [24.745613, 59.436525], [24.745975, 59.436517], [24.746435, 59.436742], [24.746413, 59.436791], [24.746362, 59.436801], [24.746379, 59.436837], [24.746232, 59.436818], [24.746324, 59.43678], [24.74645, 59.43681], [24.746595, 59.436992], [24.746587, 59.437016], [24.746564, 59.436999], [24.746627, 59.437021], [24.746582, 59.437044], [24.746681, 59.437144], [24.746669, 59.43718], [24.747039, 59.437304], [24.747104, 59.437351], [24.747044, 59.437382], [24.747436, 59.437364], [24.747435, 59.437276], [24.74738, 59.437253], [24.747469, 59.437221], [24.747503, 59.43722], [24.747541, 59.43727], [24.747717, 59.437222], [24.747686, 59.437261], [24.747767, 59.437259], [24.747654, 59.437251], [24.747738, 59.437278], [24.747705, 59.437287], [24.747657, 59.437153], [24.747697, 59.43724], [24.747695, 59.437193], [24.747553, 59.437122], [24.747619, 59.43713], [24.747643, 59.437231], [24.747711, 59.437235], [24.7477, 59.437255], [24.747739, 59.437225], [24.747821, 59.437246], [24.747764, 59.437231], [24.74785, 59.437217], [24.747789, 59.437226], [24.747792, 59.437269], [24.747723, 59.437233], [24.747724, 59.437193], [24.747746, 59.437213], [24.747837, 59.437203], [24.747809, 59.437236], [24.747847, 59.43722], [24.747842, 59.437166], [24.747796, 59.437179], [24.747826, 59.43722], [24.747897, 59.43722], [24.747861, 59.437223], [24.747816, 59.437316], [24.747766, 59.437275], [24.747827, 59.437268], [24.747807, 59.437232], [24.747743, 59.437217], [24.747826, 59.437237], [24.747789, 59.437278], [24.747827, 59.437261], [24.747785, 59.437236], [24.747856, 59.437234], [24.747755, 59.437247], [24.747819, 59.437239], [24.747845, 59.437209], [24.74778, 59.437235], [24.74781, 59.437228], [24.74778, 59.4373], [24.747772, 59.437231], [24.747795, 59.437247], [24.747835, 59.437221], [24.747752, 59.437213], [24.747812, 59.43726], [24.747844, 59.43723], [24.747781, 59.437212], [24.747785, 59.437234], [24.747832, 59.43723], [24.747809, 59.437204], [24.747854, 59.437208], [24.747849, 59.437243], [24.7478, 59.437225], [24.747827, 59.437232], [24.747809, 59.437203], [24.747836, 59.437224], [24.74783, 59.437271], [24.747734, 59.437191], [24.747712, 59.437251], [24.747668, 59.437262], [24.747517, 59.437215], [24.747331, 59.437249], [24.747274, 59.437285], [24.747039, 59.437269], [24.746915, 59.437284], [24.747032, 59.437375], [24.74708, 59.437354], [24.747058, 59.437339], [24.74705, 59.437363], [24.747087, 59.437458], [24.747036, 59.437513], [24.747113, 59.437535], [24.74713, 59.437598], [24.747253, 59.437687], [24.74728, 59.437832], [24.747306, 59.437842], [24.747326, 59.43781], [24.747379, 59.437827], [24.747364, 59.437861], [24.747455, 59.437842], [24.747521, 59.437863], [24.747608, 59.43793], [24.747672, 59.438097], [24.747809, 59.438182], [24.747887, 59.438189], [24.74793, 59.438166], [24.748023, 59.438241], [24.747997, 59.438272], [24.748021, 59.43824], [24.748052, 59.438281], [24.747992, 59.438264], [24.748093, 59.438262], [24.748021, 59.438265], [24.748025, 59.438323], [24.748063, 59.438255], [24.748069, 59.438302], [24.748357, 59.438565], [24.748341, 59.438583], [24.748379, 59.438563], [24.748413, 59.438589], [24.748444, 59.438652], [24.748381, 59.438732], [24.748457, 59.438742], [24.748507, 59.438788], [24.748562, 59.438959], [24.748613, 59.438962], [24.748644, 59.439018], [24.748629, 59.439173], [24.748686, 59.439219], [24.748638, 59.439242], [24.748646, 59.439299], [24.74876, 59.439326], [24.748748, 59.439373], [24.748823, 59.439404], [24.748958, 59.439423], [24.748947, 59.439565], [24.74887, 59.439612], [24.748811, 59.439739], [24.748884, 59.439823], [24.748891, 59.439903], [24.74884, 59.440086], [24.748382, 59.440212], [24.748284, 59.440212], [24.748, 59.440134], [24.747901, 59.440078], [24.74791, 59.439973], [24.747612, 59.439786], [24.747525, 59.439682], [24.747346, 59.439639], [24.747257, 59.439541], [24.747185, 59.439533], [24.747175, 59.439478], [24.747062, 59.439414], [24.747056, 59.439365], [24.746996, 59.439363], [24.746922, 59.439318], [24.746901, 59.439212], [24.746811, 59.439109], [24.746622, 59.438993], [24.746633, 59.438962], [24.746407, 59.438839], [24.746292, 59.438822], [24.746001, 59.438694], [24.745874, 59.438592], [24.745772, 59.438554], [24.745822, 59.438499], [24.745745, 59.438494], [24.74566, 59.438428], [24.745341, 59.43832], [24.745334, 59.438187], [24.745435, 59.438048], [24.745486, 59.438071], [24.745489, 59.438049], [24.745476, 59.438076], [24.745505, 59.438061], [24.745507, 59.438011], [24.745454, 59.438006], [24.745588, 59.437958], [24.74559, 59.43793], [24.74562, 59.437954], [24.745576, 59.437927], [24.74561, 59.437915], [24.745587, 59.437887], [24.745705, 59.43783], [24.74568, 59.437655], [24.745773, 59.437666], [24.745793, 59.437574], [24.745867, 59.437575], [24.745766, 59.437554], [24.745714, 59.437493], [24.745513, 59.437472], [24.745373, 59.437527], [24.745192, 59.437539], [24.745162, 59.43749], [24.744927, 59.437408], [24.744892, 59.437338], [24.744832, 59.437384], [24.744752, 59.437373], [24.744726, 59.437352], [24.744796, 59.437352], [24.744843, 59.437178], [24.744898, 59.437152], [24.744808, 59.437096], [24.744814, 59.436991], [24.744782, 59.437011], [24.744717, 59.436999], [24.744514, 59.437089], [24.744489, 59.437073], [24.744657, 59.437137], [24.74462, 59.437176], [24.744681, 59.437156], [24.744701, 59.437192], [24.744464, 59.437439], [24.744493, 59.437478], [24.744453, 59.437566], [24.744505, 59.437703], [24.744396, 59.437874], [24.744549, 59.437945], [24.744768, 59.437988], [24.744814, 59.43793], [24.744913, 59.437913], [24.744855, 59.437939], [24.744947, 59.437984], [24.74484, 59.438077], [24.744754, 59.438106], [24.744624, 59.438094], [24.74466, 59.438143], [24.744612, 59.438192], [24.744634, 59.438234], [24.744595, 59.438231], [24.744764, 59.437995], [24.744706, 59.438113], [24.744932, 59.43808], [24.744782, 59.43813], [24.744852, 59.438121], [24.744782, 59.43813], [24.744972, 59.438068], [24.744851, 59.438084], [24.744986, 59.438075], [24.744818, 59.438087], [24.744887, 59.438059], [24.745002, 59.438077], [24.744677, 59.438063], [24.744604, 59.438153], [24.744506, 59.438155], [24.744388, 59.438225], [24.744428, 59.438185], [24.744409, 59.438208], [24.744733, 59.438151], [24.744452, 59.438197], [24.744621, 59.438177], [24.744492, 59.438207], [24.74465, 59.43815], [24.74445, 59.438207], [24.744615, 59.438199], [24.744832, 59.438138], [24.744873, 59.438114], [24.744832, 59.438138], [24.744768, 59.438133], [24.744936, 59.438115], [24.744712, 59.438132], [24.744905, 59.438072], [24.744755, 59.438111], [24.745038, 59.438078], [24.745047, 59.438034], [24.745038, 59.438078], [24.744985, 59.438065], [24.745038, 59.438078], [24.744759, 59.438114], [24.744941, 59.438089], [24.745008, 59.438042], [24.744979, 59.43807], [24.745008, 59.438042], [24.744884, 59.437994], [24.744997, 59.43807], [24.744943, 59.43804], [24.744738, 59.438124], [24.744995, 59.438072], [24.744872, 59.438115], [24.74493, 59.43806], [24.744837, 59.438116], [24.744998, 59.438053], [24.744947, 59.438064], [24.744981, 59.438061], [24.744947, 59.438064], [24.744869, 59.437818], [24.744938, 59.437899], [24.744796, 59.437919], [24.744794, 59.437892], [24.744627, 59.437949], [24.744617, 59.43793], [24.744574, 59.438062], [24.744635, 59.438021], [24.744609, 59.437981], [24.744461, 59.437922], [24.744334, 59.437902], [24.744171, 59.437913], [24.74407, 59.437856], [24.743945, 59.437885], [24.743925, 59.437838], [24.743872, 59.437846], [24.743925, 59.437838], [24.743925, 59.437695], [24.74397, 59.437664], [24.743922, 59.437667], [24.74389, 59.437631], [24.743817, 59.437697], [24.743869, 59.437839], [24.743851, 59.437819], [24.743493, 59.437831], [24.743408, 59.437786], [24.744111, 59.437519], [24.744225, 59.437692], [24.744022, 59.437651], [24.744129, 59.437643], [24.744723, 59.438024], [24.744439, 59.437865], [24.744326, 59.437821], [24.744398, 59.437865], [24.744144, 59.437696], [24.743798, 59.437535], [24.744123, 59.437571], [24.743928, 59.437422], [24.743966, 59.437413], [24.744267, 59.437664], [24.744295, 59.437759], [24.744228, 59.437872], [24.744299, 59.437968], [24.744224, 59.438052], [24.744169, 59.43805], [24.744222, 59.438018], [24.744271, 59.437906], [24.744246, 59.437931], [24.744195, 59.437921], [24.744072, 59.437827], [24.744176, 59.437879], [24.744177, 59.437982], [24.744125, 59.437899], [24.744174, 59.437884], [24.744198, 59.437796], [24.744037, 59.437765], [24.744046, 59.437739], [24.743995, 59.437725], [24.743983, 59.437753], [24.744022, 59.437762], [24.744039, 59.437739], [24.74399, 59.437703], [24.744006, 59.437741], [24.744089, 59.437793], [24.744025, 59.437827], [24.744087, 59.437855], [24.744178, 59.43784], [24.744266, 59.437869], [24.744435, 59.437879], [24.744433, 59.437823], [24.744379, 59.437842], [24.744243, 59.43781], [24.744231, 59.437857], [24.744328, 59.437737], [24.744286, 59.437301], [24.744127, 59.437329], [24.743898, 59.437663], [24.743884, 59.437703], [24.743996, 59.437747], [24.74374, 59.437758], [24.743772, 59.437717], [24.744066, 59.437682], [24.744168, 59.437631], [24.744127, 59.437666], [24.744095, 59.437646], [24.743993, 59.437735], [24.743949, 59.43775], [24.743936, 59.437731], [24.743984, 59.437635], [24.743961, 59.437808], [24.744037, 59.437731], [24.744154, 59.437729], [24.74452, 59.437648], [24.744584, 59.437701], [24.744578, 59.43782], [24.744558, 59.437922], [24.744492, 59.437984], [24.744544, 59.437865], [24.744596, 59.438004], [24.743694, 59.437818], [24.743799, 59.437821], [24.744039, 59.43773], [24.743916, 59.437918], [24.743946, 59.437945], [24.743899, 59.437948], [24.743838, 59.437845], [24.744226, 59.437863], [24.744442, 59.437754], [24.744451, 59.437657], [24.744523, 59.437647], [24.744595, 59.437518], [24.744705, 59.437436], [24.744726, 59.437351], [24.744855, 59.437264], [24.744839, 59.437249], [24.744991, 59.437193], [24.745311, 59.437158], [24.745372, 59.43717], [24.745655, 59.437106], [24.745745, 59.437059], [24.745816, 59.436879], [24.745889, 59.436862], [24.745981, 59.43688], [24.74625, 59.436816], [24.746291, 59.436718], [24.746222, 59.436598], [24.746187, 59.436558], [24.746011, 59.436487], [24.746161, 59.436439], [24.746162, 59.436418], [24.746109, 59.436426], [24.746118, 59.436453], [24.746086, 59.436433], [24.746145, 59.436421], [24.746191, 59.436441], [24.746157, 59.436415], [24.74622, 59.43648], [24.746147, 59.436402], [24.746187, 59.436416]]}, "properties": {"name": "1787153236.Tallinn_leg_stretch", "cmt": "2026-08-19", "tstamp": 1787097600, "desc": "---", "src": "24.742217/59.436297/24.748958/59.440212", "bbox": "24.742217/59.436297/24.748958/59.440212"}}]}