{"type": "FeatureCollection", "name": "TrackSet", "crs": {"type": "name", "properties": {"name": "urn:ogc:def:crs:OGC:1.3:CRS84"}}, "bbox": [-4.535856, 56.332951, -4.515563, 56.37072], "features": [{"type": "Feature", "bbox": [-4.535856, 56.332951, -4.515563, 56.37072], "geometry": {"type": "LineString", "coordinates": [[-4.515696, 56.333052], [-4.515734, 56.333099], [-4.516195, 56.333051], [-4.516744, 56.333058], [-4.517046, 56.333028], [-4.517813, 56.333061], [-4.518591, 56.333027], [-4.518605, 56.333083], [-4.518572, 56.333036], [-4.518611, 56.33304], [-4.518562, 56.333094], [-4.518583, 56.333071], [-4.518483, 56.333107], [-4.518404, 56.333113], [-4.518384, 56.333096], [-4.518033, 56.333197], [-4.517878, 56.333214], [-4.517868, 56.333236], [-4.517751, 56.33322], [-4.517705, 56.333184], [-4.517687, 56.333207], [-4.517444, 56.333231], [-4.517239, 56.333218], [-4.517099, 56.333369], [-4.516958, 56.33344], [-4.51679, 56.33346], [-4.516772, 56.333508], [-4.516711, 56.333507], [-4.516656, 56.333549], [-4.516421, 56.333545], [-4.516266, 56.333568], [-4.516029, 56.33362], [-4.516002, 56.333648], [-4.516089, 56.333691], [-4.516072, 56.333749], [-4.516104, 56.333741], [-4.516071, 56.333755], [-4.516202, 56.333798], [-4.516313, 56.333907], [-4.51631, 56.33398], [-4.516212, 56.33406], [-4.516267, 56.334094], [-4.516218, 56.33414], [-4.516408, 56.334266], [-4.516377, 56.334283], [-4.516426, 56.334367], [-4.516395, 56.334403], [-4.516483, 56.334414], [-4.516581, 56.334482], [-4.516647, 56.334493], [-4.516649, 56.33463], [-4.516722, 56.334733], [-4.516627, 56.334889], [-4.516673, 56.334937], [-4.516613, 56.334982], [-4.516746, 56.335055], [-4.516681, 56.335068], [-4.516768, 56.335111], [-4.516678, 56.335178], [-4.51668, 56.335232], [-4.516801, 56.335265], [-4.516992, 56.335391], [-4.517102, 56.335405], [-4.51712, 56.335455], [-4.517195, 56.335482], [-4.517198, 56.33553], [-4.517305, 56.335592], [-4.51732, 56.335639], [-4.517221, 56.335718], [-4.517269, 56.335844], [-4.517498, 56.33596], [-4.517497, 56.33599], [-4.517325, 56.336067], [-4.517458, 56.336145], [-4.517392, 56.336154], [-4.517441, 56.336211], [-4.517357, 56.336282], [-4.517399, 56.336309], [-4.517116, 56.336461], [-4.51723, 56.336471], [-4.517298, 56.33652], [-4.517315, 56.336559], [-4.517265, 56.336599], [-4.517398, 56.336641], [-4.517485, 56.336635], [-4.517443, 56.336682], [-4.517542, 56.336721], [-4.517489, 56.336776], [-4.517507, 56.336826], [-4.517465, 56.33684], [-4.517565, 56.336857], [-4.517524, 56.336935], [-4.517639, 56.336968], [-4.517607, 56.33707], [-4.517696, 56.337118], [-4.517679, 56.337141], [-4.517719, 56.337173], [-4.517658, 56.337196], [-4.517743, 56.337248], [-4.517663, 56.337277], [-4.517712, 56.33727], [-4.517667, 56.337281], [-4.517654, 56.33732], [-4.517747, 56.337349], [-4.51774, 56.337381], [-4.517843, 56.337402], [-4.517768, 56.337444], [-4.517889, 56.337525], [-4.517861, 56.337534], [-4.517909, 56.337592], [-4.517765, 56.33763], [-4.517836, 56.337672], [-4.51781, 56.33769], [-4.517922, 56.337694], [-4.517973, 56.337736], [-4.517933, 56.337768], [-4.51796, 56.337786], [-4.517883, 56.337826], [-4.517842, 56.337818], [-4.517889, 56.337831], [-4.517852, 56.33788], [-4.517884, 56.337922], [-4.517801, 56.337967], [-4.517884, 56.33798], [-4.517909, 56.338011], [-4.517894, 56.338034], [-4.517823, 56.338041], [-4.517816, 56.338073], [-4.517869, 56.338097], [-4.517816, 56.338118], [-4.517892, 56.338166], [-4.517826, 56.338198], [-4.517925, 56.338211], [-4.517856, 56.338257], [-4.517795, 56.338241], [-4.517717, 56.338268], [-4.518041, 56.338371], [-4.518038, 56.338395], [-4.517991, 56.338401], [-4.51803, 56.338451], [-4.517971, 56.338476], [-4.518031, 56.338506], [-4.51803, 56.338557], [-4.518076, 56.338573], [-4.518051, 56.338585], [-4.51812, 56.338595], [-4.518072, 56.338647], [-4.517998, 56.338657], [-4.518087, 56.338728], [-4.51807, 56.338748], [-4.518158, 56.338747], [-4.518121, 56.338772], [-4.51816, 56.338821], [-4.518095, 56.338844], [-4.518146, 56.338885], [-4.518193, 56.338885], [-4.518225, 56.338942], [-4.518183, 56.338964], [-4.518209, 56.338975], [-4.51818, 56.339014], [-4.518137, 56.339012], [-4.51817, 56.339092], [-4.518082, 56.339223], [-4.518112, 56.339257], [-4.518169, 56.339246], [-4.51815, 56.339284], [-4.518194, 56.339277], [-4.518235, 56.339306], [-4.518198, 56.339352], [-4.51831, 56.339385], [-4.518264, 56.339425], [-4.518536, 56.33952], [-4.51862, 56.339665], [-4.518564, 56.339707], [-4.518625, 56.339727], [-4.518583, 56.339765], [-4.518646, 56.339781], [-4.518629, 56.339812], [-4.518703, 56.339817], [-4.518735, 56.339843], [-4.518641, 56.339875], [-4.518691, 56.339889], [-4.518653, 56.339897], [-4.518655, 56.339927], [-4.518698, 56.339948], [-4.518661, 56.339953], [-4.518735, 56.339969], [-4.518612, 56.340031], [-4.518704, 56.340053], [-4.518612, 56.340087], [-4.518723, 56.340119], [-4.518665, 56.340135], [-4.518647, 56.340176], [-4.518715, 56.340179], [-4.5187, 56.3402], [-4.518739, 56.340213], [-4.518697, 56.340231], [-4.518793, 56.340239], [-4.518715, 56.340275], [-4.51873, 56.340313], [-4.518701, 56.340322], [-4.518749, 56.340382], [-4.518707, 56.340448], [-4.518781, 56.340466], [-4.518692, 56.340501], [-4.519041, 56.340641], [-4.519026, 56.340702], [-4.51909, 56.340785], [-4.519084, 56.340832], [-4.519176, 56.34085], [-4.519166, 56.340876], [-4.519288, 56.340836], [-4.519356, 56.340873], [-4.519456, 56.340849], [-4.519497, 56.340873], [-4.519588, 56.340864], [-4.519669, 56.340925], [-4.51993, 56.340929], [-4.519951, 56.340957], [-4.520024, 56.340947], [-4.520283, 56.340995], [-4.520231, 56.341038], [-4.520351, 56.341122], [-4.520325, 56.341147], [-4.52038, 56.341145], [-4.520369, 56.341181], [-4.520463, 56.3412], [-4.520408, 56.341207], [-4.52043, 56.341262], [-4.520488, 56.341318], [-4.520605, 56.341351], [-4.520704, 56.341456], [-4.52063, 56.341492], [-4.520413, 56.341499], [-4.520356, 56.341621], [-4.520319, 56.341658], [-4.520256, 56.341659], [-4.520223, 56.341713], [-4.520257, 56.341757], [-4.520098, 56.341805], [-4.519916, 56.341932], [-4.519974, 56.341959], [-4.519989, 56.342013], [-4.519849, 56.342068], [-4.519881, 56.342053], [-4.51997, 56.342094], [-4.51994, 56.342112], [-4.520032, 56.342102], [-4.519982, 56.342221], [-4.519763, 56.34224], [-4.519382, 56.342379], [-4.519357, 56.342408], [-4.51931, 56.342403], [-4.519249, 56.342496], [-4.519116, 56.342535], [-4.518995, 56.342628], [-4.518935, 56.342633], [-4.518898, 56.34269], [-4.518951, 56.342684], [-4.518882, 56.34269], [-4.518883, 56.34267], [-4.518854, 56.342698], [-4.518879, 56.342717], [-4.518674, 56.342768], [-4.518606, 56.342867], [-4.518527, 56.342914], [-4.518526, 56.342967], [-4.518388, 56.342992], [-4.518229, 56.3431], [-4.518304, 56.343207], [-4.518458, 56.343275], [-4.518489, 56.343321], [-4.518734, 56.343466], [-4.518702, 56.343495], [-4.518722, 56.343575], [-4.518862, 56.343619], [-4.518888, 56.343655], [-4.518854, 56.343691], [-4.518971, 56.343774], [-4.518923, 56.343899], [-4.518962, 56.344011], [-4.518931, 56.344054], [-4.5192, 56.344194], [-4.519161, 56.344271], [-4.519198, 56.344344], [-4.51916, 56.344442], [-4.519088, 56.344508], [-4.519093, 56.344553], [-4.519195, 56.344688], [-4.519272, 56.344691], [-4.519334, 56.344725], [-4.519274, 56.344768], [-4.51921, 56.344893], [-4.51927, 56.345177], [-4.519338, 56.345251], [-4.519291, 56.345284], [-4.519258, 56.345387], [-4.519283, 56.345552], [-4.519236, 56.345592], [-4.519276, 56.345632], [-4.519218, 56.345681], [-4.519245, 56.345707], [-4.519193, 56.345725], [-4.519181, 56.345934], [-4.519305, 56.346225], [-4.519365, 56.346248], [-4.519334, 56.346338], [-4.519478, 56.346684], [-4.519449, 56.346789], [-4.519486, 56.34692], [-4.519403, 56.346995], [-4.51937, 56.347118], [-4.51928, 56.347203], [-4.519519, 56.347375], [-4.519474, 56.347429], [-4.519583, 56.347566], [-4.519583, 56.347701], [-4.519666, 56.347816], [-4.519668, 56.347858], [-4.519598, 56.347901], [-4.519651, 56.347971], [-4.519643, 56.348051], [-4.519707, 56.348198], [-4.519931, 56.348393], [-4.519985, 56.348525], [-4.520161, 56.348623], [-4.520017, 56.348707], [-4.51986, 56.348731], [-4.519796, 56.348772], [-4.519853, 56.348817], [-4.51983, 56.348954], [-4.519895, 56.348972], [-4.519915, 56.349009], [-4.51988, 56.34908], [-4.51996, 56.349154], [-4.519939, 56.349239], [-4.520107, 56.349422], [-4.520087, 56.349443], [-4.520161, 56.349505], [-4.520187, 56.349583], [-4.520149, 56.349604], [-4.520168, 56.349666], [-4.520125, 56.349746], [-4.52016, 56.349803], [-4.520088, 56.349894], [-4.520085, 56.349948], [-4.52015, 56.349991], [-4.520148, 56.35003], [-4.520064, 56.350037], [-4.520033, 56.350067], [-4.519994, 56.350058], [-4.519969, 56.350096], [-4.519933, 56.350097], [-4.51997, 56.350122], [-4.519917, 56.350184], [-4.519956, 56.350225], [-4.51988, 56.350269], [-4.519865, 56.350385], [-4.519832, 56.350399], [-4.519867, 56.350435], [-4.519824, 56.350588], [-4.519972, 56.350721], [-4.519858, 56.350762], [-4.519899, 56.350866], [-4.519868, 56.350889], [-4.519978, 56.350944], [-4.519786, 56.351024], [-4.519844, 56.351039], [-4.51987, 56.35109], [-4.519821, 56.351148], [-4.520011, 56.351227], [-4.520144, 56.351329], [-4.520217, 56.351459], [-4.520313, 56.351506], [-4.520385, 56.351693], [-4.520451, 56.351712], [-4.520454, 56.35173], [-4.520422, 56.35172], [-4.520757, 56.351803], [-4.520882, 56.351894], [-4.521035, 56.351943], [-4.521321, 56.35209], [-4.521343, 56.352137], [-4.521521, 56.352205], [-4.521816, 56.352403], [-4.521974, 56.352469], [-4.522014, 56.352508], [-4.521991, 56.352533], [-4.521999, 56.352497], [-4.522095, 56.352588], [-4.522171, 56.352596], [-4.522404, 56.352742], [-4.52308, 56.353252], [-4.52322, 56.353323], [-4.523402, 56.353552], [-4.523473, 56.353596], [-4.523799, 56.354116], [-4.524053, 56.354406], [-4.524208, 56.354656], [-4.524229, 56.354766], [-4.524347, 56.354859], [-4.524354, 56.354912], [-4.524545, 56.355099], [-4.524621, 56.355249], [-4.525005, 56.355607], [-4.525103, 56.355634], [-4.525199, 56.355711], [-4.525303, 56.355907], [-4.525387, 56.355946], [-4.525568, 56.356182], [-4.525715, 56.356265], [-4.525791, 56.356391], [-4.525928, 56.356514], [-4.525916, 56.35655], [-4.525985, 56.356573], [-4.52615, 56.356832], [-4.52626, 56.356941], [-4.526243, 56.35689], [-4.526223, 56.356918], [-4.526408, 56.356999], [-4.526556, 56.357135], [-4.526928, 56.357299], [-4.526948, 56.35734], [-4.527075, 56.357403], [-4.527301, 56.35767], [-4.52757, 56.357842], [-4.527715, 56.357979], [-4.527785, 56.358001], [-4.527826, 56.358057], [-4.527807, 56.358087], [-4.527999, 56.358168], [-4.528018, 56.358244], [-4.528094, 56.358305], [-4.528072, 56.358419], [-4.528025, 56.358448], [-4.528077, 56.358521], [-4.528065, 56.358674], [-4.528007, 56.358747], [-4.528076, 56.358784], [-4.528063, 56.358865], [-4.528173, 56.358985], [-4.52833, 56.359078], [-4.528458, 56.359217], [-4.528481, 56.359299], [-4.528587, 56.359362], [-4.528685, 56.359523], [-4.528716, 56.35973], [-4.528776, 56.359782], [-4.528804, 56.359897], [-4.529271, 56.360521], [-4.529313, 56.360634], [-4.529601, 56.36105], [-4.529625, 56.361182], [-4.529832, 56.36141], [-4.529865, 56.361569], [-4.529926, 56.361596], [-4.529874, 56.36161], [-4.529913, 56.361645], [-4.529886, 56.361692], [-4.529941, 56.361749], [-4.529912, 56.361764], [-4.530025, 56.361937], [-4.529978, 56.362013], [-4.530041, 56.362088], [-4.529978, 56.36223], [-4.530013, 56.362361], [-4.529974, 56.362487], [-4.530052, 56.362611], [-4.530112, 56.362866], [-4.530105, 56.363026], [-4.530018, 56.363194], [-4.530054, 56.363453], [-4.529986, 56.363678], [-4.529992, 56.363812], [-4.529908, 56.363935], [-4.529733, 56.364091], [-4.529622, 56.364598], [-4.529568, 56.364683], [-4.52963, 56.36486], [-4.529544, 56.364897], [-4.529987, 56.365145], [-4.530233, 56.365323], [-4.530542, 56.365631], [-4.530724, 56.36578], [-4.530811, 56.365813], [-4.531202, 56.366191], [-4.531268, 56.366216], [-4.531354, 56.366345], [-4.53177, 56.366693], [-4.532301, 56.367219], [-4.532599, 56.367404], [-4.533139, 56.367632], [-4.53404, 56.36812], [-4.534558, 56.368311], [-4.534801, 56.368471], [-4.535271, 56.369088], [-4.535275, 56.369202], [-4.535328, 56.369283], [-4.535291, 56.369323], [-4.535307, 56.369379], [-4.535561, 56.369608], [-4.535625, 56.369616], [-4.535701, 56.369689], [-4.535656, 56.369742], [-4.53573, 56.36977], [-4.535702, 56.36982], [-4.535659, 56.369825], [-4.535631, 56.369909], [-4.535703, 56.369917], [-4.535694, 56.369952], [-4.535782, 56.369985], [-4.535744, 56.370017], [-4.535819, 56.37003], [-4.535752, 56.370099], [-4.535781, 56.370123], [-4.535702, 56.370158], [-4.535765, 56.370179], [-4.535688, 56.370251], [-4.535719, 56.37031], [-4.535742, 56.370303], [-4.535695, 56.370341], [-4.535763, 56.370349], [-4.535749, 56.370407], [-4.535804, 56.370432], [-4.535776, 56.370451], [-4.535856, 56.370487], [-4.535837, 56.370521], [-4.535809, 56.370508], [-4.535695, 56.370536], [-4.535674, 56.370521], [-4.535641, 56.370553], [-4.535747, 56.370597], [-4.535706, 56.370636], [-4.535763, 56.370655], [-4.535802, 56.370643], [-4.535793, 56.37072], [-4.535804, 56.370674], [-4.535777, 56.370693], [-4.535827, 56.370648]]}, "properties": {"name": "1788768228.Stob_Binnein_gale", "cmt": "2026-09-07", "tstamp": 1788739200, "desc": "UpHill", "src": "-4.535856/56.332951/-4.515563/56.37072", "bbox": "-4.535856/56.332951/-4.515563/56.37072"}}, {"type": "Feature", "bbox": [-4.535856, 56.332951, -4.515563, 56.37072], "geometry": {"type": "LineString", "coordinates": [[-4.535836, 56.370644], [-4.535716, 56.37063], [-4.535718, 56.370607], [-4.53577, 56.370604], [-4.53567, 56.370592], [-4.535666, 56.370561], [-4.535607, 56.370547], [-4.535662, 56.370503], [-4.535852, 56.370489], [-4.535766, 56.37045], [-4.53579, 56.370407], [-4.535725, 56.370374], [-4.53577, 56.37036], [-4.535689, 56.37033], [-4.535736, 56.370298], [-4.535688, 56.370286], [-4.535679, 56.370226], [-4.535743, 56.370174], [-4.5357, 56.370124], [-4.53579, 56.370103], [-4.535754, 56.370078], [-4.53582, 56.370037], [-4.535741, 56.370006], [-4.535808, 56.369991], [-4.535713, 56.369941], [-4.5357, 56.369897], [-4.535614, 56.369865], [-4.535725, 56.369761], [-4.535702, 56.369728], [-4.53564, 56.369743], [-4.535741, 56.369693], [-4.535471, 56.369569], [-4.535444, 56.369497], [-4.535288, 56.369361], [-4.535248, 56.369268], [-4.535293, 56.369207], [-4.535267, 56.36908], [-4.534874, 56.368522], [-4.534527, 56.36826], [-4.53394, 56.368065], [-4.533178, 56.367653], [-4.532827, 56.367522], [-4.532352, 56.367229], [-4.531962, 56.366854], [-4.531687, 56.36665], [-4.531756, 56.366667], [-4.531587, 56.366555], [-4.531358, 56.36634], [-4.530905, 56.366039], [-4.530527, 56.365689], [-4.530046, 56.365544], [-4.5299, 56.365326], [-4.529713, 56.365265], [-4.529698, 56.365084], [-4.529588, 56.364998], [-4.529592, 56.36497], [-4.529435, 56.364885], [-4.529523, 56.364744], [-4.529534, 56.364479], [-4.529624, 56.364267], [-4.52975, 56.364051], [-4.529972, 56.363865], [-4.530028, 56.363647], [-4.530062, 56.363388], [-4.53004, 56.363256], [-4.530111, 56.362986], [-4.530103, 56.362724], [-4.529978, 56.362414], [-4.530015, 56.362375], [-4.529979, 56.362265], [-4.530011, 56.362268], [-4.530002, 56.362108], [-4.530054, 56.362037], [-4.53002, 56.362016], [-4.530036, 56.36198], [-4.529982, 56.361952], [-4.530003, 56.361913], [-4.529884, 56.361672], [-4.529918, 56.36156], [-4.529825, 56.361494], [-4.529847, 56.361432], [-4.529686, 56.361262], [-4.529433, 56.360755], [-4.529283, 56.360606], [-4.529234, 56.360455], [-4.528992, 56.360139], [-4.528937, 56.360007], [-4.528783, 56.359881], [-4.528759, 56.35974], [-4.528685, 56.359655], [-4.528719, 56.359606], [-4.528682, 56.359561], [-4.528689, 56.359477], [-4.528611, 56.359413], [-4.52856, 56.359303], [-4.528482, 56.359241], [-4.528414, 56.35923], [-4.528424, 56.359151], [-4.528355, 56.359131], [-4.528339, 56.359066], [-4.528134, 56.358948], [-4.528107, 56.358868], [-4.528018, 56.358788], [-4.528049, 56.358759], [-4.527984, 56.358735], [-4.528096, 56.358638], [-4.528004, 56.358453], [-4.528013, 56.358381], [-4.528083, 56.358365], [-4.528085, 56.35826], [-4.527804, 56.357998], [-4.527673, 56.357951], [-4.527508, 56.357844], [-4.527459, 56.357776], [-4.527301, 56.357694], [-4.527176, 56.35747], [-4.527045, 56.357337], [-4.526934, 56.357324], [-4.526883, 56.357268], [-4.526706, 56.357198], [-4.526489, 56.357072], [-4.526418, 56.356983], [-4.526094, 56.356809], [-4.525834, 56.356355], [-4.525479, 56.35607], [-4.525276, 56.355862], [-4.525204, 56.355699], [-4.524981, 56.355576], [-4.524932, 56.3555], [-4.52468, 56.355305], [-4.524573, 56.355107], [-4.524335, 56.354887], [-4.524327, 56.354809], [-4.524283, 56.354795], [-4.524172, 56.354593], [-4.523617, 56.353917], [-4.523484, 56.353612], [-4.523351, 56.353467], [-4.523266, 56.353422], [-4.523291, 56.353402], [-4.523229, 56.35334], [-4.523144, 56.353268], [-4.523087, 56.353258], [-4.523087, 56.353214], [-4.523023, 56.353215], [-4.522799, 56.353012], [-4.522783, 56.352962], [-4.521223, 56.352028], [-4.520824, 56.351858], [-4.520657, 56.351758], [-4.520467, 56.351698], [-4.520354, 56.351689], [-4.520295, 56.351503], [-4.520183, 56.351434], [-4.520221, 56.351393], [-4.520122, 56.351315], [-4.520123, 56.351283], [-4.520031, 56.35127], [-4.519984, 56.351185], [-4.519804, 56.351132], [-4.519852, 56.351044], [-4.519812, 56.351013], [-4.519832, 56.350992], [-4.519787, 56.351028], [-4.519778, 56.350992], [-4.519975, 56.350933], [-4.519856, 56.350891], [-4.519867, 56.350763], [-4.519965, 56.350712], [-4.519835, 56.350576], [-4.519831, 56.35054], [-4.519883, 56.350507], [-4.51982, 56.350395], [-4.519887, 56.350363], [-4.519856, 56.350321], [-4.519881, 56.35025], [-4.519984, 56.350218], [-4.51993, 56.350179], [-4.519968, 56.350121], [-4.519923, 56.350088], [-4.519987, 56.350085], [-4.520087, 56.350007], [-4.520159, 56.350011], [-4.520087, 56.349922], [-4.520089, 56.349862], [-4.520161, 56.349785], [-4.520095, 56.349728], [-4.520154, 56.34968], [-4.52014, 56.349607], [-4.520191, 56.349553], [-4.520139, 56.349468], [-4.520032, 56.349434], [-4.520085, 56.3494], [-4.52001, 56.349315], [-4.520003, 56.349247], [-4.519847, 56.349074], [-4.519917, 56.349028], [-4.519905, 56.348877], [-4.519804, 56.348721], [-4.519888, 56.34865], [-4.519898, 56.348599], [-4.519863, 56.348537], [-4.519773, 56.348483], [-4.51981, 56.348341], [-4.519865, 56.348305], [-4.519746, 56.348223], [-4.519674, 56.348088], [-4.51959, 56.348068], [-4.519548, 56.347933], [-4.51945, 56.347871], [-4.519435, 56.347814], [-4.519296, 56.347787], [-4.519269, 56.347743], [-4.519195, 56.347744], [-4.519196, 56.347723], [-4.519368, 56.347686], [-4.519573, 56.347666], [-4.519614, 56.347632], [-4.519465, 56.34746], [-4.519439, 56.347371], [-4.519466, 56.347338], [-4.519398, 56.347257], [-4.519305, 56.347208], [-4.519415, 56.346961], [-4.519495, 56.346923], [-4.519508, 56.346867], [-4.519571, 56.346849], [-4.519552, 56.34681], [-4.519678, 56.346686], [-4.51959, 56.3466], [-4.519399, 56.346488], [-4.519345, 56.346255], [-4.519276, 56.346232], [-4.519301, 56.346125], [-4.519217, 56.346095], [-4.519154, 56.345936], [-4.519193, 56.345753], [-4.519245, 56.345707], [-4.519175, 56.345659], [-4.519278, 56.345616], [-4.519239, 56.345528], [-4.519312, 56.345426], [-4.519284, 56.345267], [-4.519314, 56.345209], [-4.519239, 56.345143], [-4.51925, 56.345076], [-4.519189, 56.345035], [-4.519238, 56.344992], [-4.519186, 56.344931], [-4.519215, 56.344901], [-4.51919, 56.344876], [-4.519314, 56.344679], [-4.51928, 56.344658], [-4.519138, 56.344659], [-4.519154, 56.3446], [-4.519083, 56.344565], [-4.519107, 56.344454], [-4.519183, 56.344414], [-4.519201, 56.344298], [-4.519137, 56.344225], [-4.519189, 56.344162], [-4.519095, 56.344088], [-4.518919, 56.344023], [-4.518955, 56.343901], [-4.518918, 56.343818], [-4.51899, 56.343746], [-4.518963, 56.343685], [-4.518884, 56.343662], [-4.51889, 56.343624], [-4.518787, 56.343549], [-4.518667, 56.343545], [-4.518724, 56.343438], [-4.518544, 56.343377], [-4.518455, 56.343259], [-4.518245, 56.343173], [-4.51826, 56.343116], [-4.518179, 56.343053], [-4.518372, 56.343035], [-4.518385, 56.342971], [-4.51853, 56.342967], [-4.518508, 56.342941], [-4.518611, 56.342863], [-4.51865, 56.342767], [-4.518816, 56.342714], [-4.518916, 56.342636], [-4.519031, 56.342634], [-4.519087, 56.342553], [-4.519171, 56.342532], [-4.519224, 56.342442], [-4.519419, 56.342375], [-4.519605, 56.342261], [-4.519898, 56.34224], [-4.519949, 56.342209], [-4.519991, 56.342224], [-4.520015, 56.34211], [-4.519908, 56.342105], [-4.519842, 56.342047], [-4.519982, 56.342026], [-4.520001, 56.342002], [-4.519947, 56.341974], [-4.519937, 56.34191], [-4.520124, 56.341779], [-4.520201, 56.341764], [-4.520253, 56.341641], [-4.520353, 56.341629], [-4.520424, 56.341494], [-4.520587, 56.341493], [-4.520645, 56.341481], [-4.520657, 56.341453], [-4.520712, 56.341457], [-4.520639, 56.341373], [-4.520471, 56.341311], [-4.520456, 56.34125], [-4.52041, 56.341226], [-4.520454, 56.341214], [-4.520435, 56.341171], [-4.520376, 56.341182], [-4.520364, 56.341136], [-4.520327, 56.341129], [-4.520357, 56.341116], [-4.520299, 56.34111], [-4.520247, 56.341045], [-4.520242, 56.341003], [-4.520279, 56.341001], [-4.519919, 56.34093], [-4.519671, 56.34093], [-4.519576, 56.340869], [-4.519307, 56.340861], [-4.519236, 56.340827], [-4.519192, 56.340848], [-4.519093, 56.34084], [-4.519056, 56.340748], [-4.518984, 56.340694], [-4.519024, 56.340633], [-4.518963, 56.340593], [-4.518787, 56.340568], [-4.518785, 56.340508], [-4.51867, 56.340454], [-4.518787, 56.340436], [-4.518696, 56.340399], [-4.518767, 56.340348], [-4.518706, 56.340273], [-4.518745, 56.340279], [-4.518728, 56.340259], [-4.518786, 56.340239], [-4.518662, 56.340191], [-4.518694, 56.340096], [-4.518625, 56.340078], [-4.518698, 56.340049], [-4.518616, 56.340028], [-4.518632, 56.339995], [-4.51876, 56.33995], [-4.518662, 56.339956], [-4.51864, 56.339923], [-4.518676, 56.339922], [-4.518635, 56.339902], [-4.518689, 56.339883], [-4.518651, 56.339867], [-4.518681, 56.339838], [-4.518733, 56.339835], [-4.518636, 56.339796], [-4.518659, 56.339764], [-4.518544, 56.339743], [-4.518587, 56.339692], [-4.518551, 56.339676], [-4.518589, 56.339597], [-4.518528, 56.339562], [-4.518524, 56.339521], [-4.518446, 56.339506], [-4.518421, 56.33946], [-4.518302, 56.339412], [-4.518253, 56.339358], [-4.518228, 56.339375], [-4.518192, 56.339344], [-4.518236, 56.339296], [-4.518027, 56.339249], [-4.518077, 56.339217], [-4.518049, 56.339161], [-4.518175, 56.339133], [-4.518139, 56.33904], [-4.518196, 56.339023], [-4.51818, 56.338967], [-4.518295, 56.33895], [-4.51823, 56.338892], [-4.518055, 56.338839], [-4.518183, 56.338791], [-4.518073, 56.338704], [-4.518126, 56.338681], [-4.518178, 56.338594], [-4.518033, 56.338493], [-4.518104, 56.33847], [-4.517994, 56.338438], [-4.517943, 56.338382], [-4.517885, 56.338376], [-4.517878, 56.338325], [-4.517823, 56.338331], [-4.517812, 56.338298], [-4.517748, 56.33829], [-4.517755, 56.338267], [-4.517921, 56.338246], [-4.517894, 56.338231], [-4.517934, 56.338215], [-4.517869, 56.338191], [-4.51795, 56.338176], [-4.517829, 56.338106], [-4.51781, 56.338035], [-4.517842, 56.338008], [-4.517899, 56.338026], [-4.517944, 56.337994], [-4.517794, 56.337975], [-4.517858, 56.337926], [-4.517895, 56.337928], [-4.51786, 56.337899], [-4.517876, 56.337836], [-4.517963, 56.337782], [-4.517811, 56.337642], [-4.517901, 56.337555], [-4.517843, 56.337523], [-4.517846, 56.337481], [-4.517779, 56.337454], [-4.517849, 56.337437], [-4.517828, 56.337391], [-4.517658, 56.337307], [-4.517752, 56.337252], [-4.517685, 56.337207], [-4.517695, 56.337123], [-4.517568, 56.337068], [-4.517586, 56.337013], [-4.517511, 56.336927], [-4.517566, 56.336864], [-4.517467, 56.336822], [-4.517522, 56.336807], [-4.517487, 56.336771], [-4.517546, 56.336752], [-4.517453, 56.336709], [-4.517484, 56.336649], [-4.517387, 56.336653], [-4.517349, 56.336609], [-4.517261, 56.336596], [-4.517244, 56.336559], [-4.517291, 56.336544], [-4.517187, 56.336516], [-4.517205, 56.33647], [-4.517159, 56.336456], [-4.517193, 56.336398], [-4.517405, 56.336339], [-4.517459, 56.33627], [-4.517394, 56.336156], [-4.517441, 56.336124], [-4.517381, 56.336113], [-4.51733, 56.336065], [-4.517516, 56.335987], [-4.517318, 56.335876], [-4.51722, 56.335774], [-4.517224, 56.335707], [-4.517312, 56.335629], [-4.517201, 56.335489], [-4.517066, 56.335401], [-4.51693, 56.335377], [-4.516882, 56.33532], [-4.516664, 56.335239], [-4.516761, 56.335112], [-4.516685, 56.335078], [-4.516747, 56.335066], [-4.516625, 56.334947], [-4.516686, 56.334842], [-4.516702, 56.334711], [-4.516608, 56.334603], [-4.516638, 56.33455], [-4.516569, 56.334473], [-4.516525, 56.334476], [-4.516372, 56.334407], [-4.516375, 56.334292], [-4.516213, 56.334111], [-4.516215, 56.333989], [-4.516305, 56.333944], [-4.516306, 56.333863], [-4.516127, 56.333786], [-4.516068, 56.333737], [-4.516056, 56.333649], [-4.515899, 56.333585], [-4.515794, 56.333484], [-4.515724, 56.333462], [-4.515786, 56.333322], [-4.515723, 56.333264], [-4.515685, 56.333143], [-4.515707, 56.333123], [-4.515832, 56.333132], [-4.515869, 56.333112], [-4.515801, 56.333086], [-4.515691, 56.333123], [-4.515593, 56.333021], [-4.515587, 56.332951], [-4.515563, 56.332964], [-4.515613, 56.332953], [-4.51558, 56.332952]]}, "properties": {"name": "1788768228.Stob_Binnein_gale", "cmt": "2026-09-07", "tstamp": 1788739200, "desc": "DownHill", "src": "-4.535856/56.332951/-4.515563/56.37072", "bbox": "-4.535856/56.332951/-4.515563/56.37072"}}, {"type": "Feature", "bbox": [-4.535856, 56.332951, -4.515563, 56.37072], "geometry": {"type": "LineString", "coordinates": [[-4.51558, 56.332952], [-4.51558, 56.332952]]}, "properties": {"name": "1788768228.Stob_Binnein_gale", "cmt": "2026-09-07", "tstamp": 1788739200, "desc": "UpHill", "src": "-4.535856/56.332951/-4.515563/56.37072", "bbox": "-4.535856/56.332951/-4.515563/56.37072"}}]}