{"type": "FeatureCollection", "name": "TrackSet", "crs": {"type": "name", "properties": {"name": "urn:ogc:def:crs:OGC:1.3:CRS84"}}, "bbox": [-3.947145, 56.115935, -3.93675, 56.123358], "features": [{"type": "Feature", "bbox": [-3.947145, 56.115935, -3.93675, 56.123358], "geometry": {"type": "LineString", "coordinates": [[-3.939805, 56.116], [-3.939733, 56.116107], [-3.939726, 56.116083], [-3.939639, 56.116078], [-3.939644, 56.116154], [-3.939561, 56.116347], [-3.939228, 56.116694], [-3.939183, 56.1168], [-3.939127, 56.116825], [-3.939044, 56.116967], [-3.938867, 56.11714], [-3.938862, 56.117099], [-3.938091, 56.1169], [-3.937967, 56.11683], [-3.93773, 56.116823], [-3.937673, 56.116748], [-3.937496, 56.116714], [-3.937307, 56.116734], [-3.937095, 56.116678], [-3.93687, 56.116559], [-3.936798, 56.116582], [-3.936849, 56.116688], [-3.936802, 56.116929], [-3.93675, 56.117006], [-3.936885, 56.117209], [-3.93687, 56.117477], [-3.937315, 56.117771], [-3.937339, 56.117789], [-3.937301, 56.117798], [-3.937396, 56.117801], [-3.9374, 56.117828], [-3.937493, 56.117836], [-3.93752, 56.117914], [-3.937592, 56.117912], [-3.937736, 56.117999], [-3.938001, 56.118042], [-3.9381, 56.118099], [-3.938154, 56.118102], [-3.938083, 56.118132], [-3.938089, 56.118182], [-3.938006, 56.11818], [-3.93814, 56.118232], [-3.93782, 56.118334], [-3.937566, 56.118524], [-3.938013, 56.118177], [-3.937475, 56.11827], [-3.937615, 56.118228], [-3.937537, 56.118178], [-3.937718, 56.118123], [-3.937608, 56.118093], [-3.938103, 56.118207], [-3.938104, 56.118156], [-3.938094, 56.118223], [-3.93807, 56.118192], [-3.938092, 56.118219], [-3.938112, 56.11808], [-3.938141, 56.1181], [-3.938112, 56.11808], [-3.938123, 56.118162], [-3.938095, 56.118171], [-3.938111, 56.118129], [-3.938123, 56.118162], [-3.938089, 56.11816], [-3.938123, 56.118162], [-3.938111, 56.118125], [-3.938123, 56.118162], [-3.93809, 56.118178], [-3.938123, 56.118162], [-3.938123, 56.118125], [-3.938097, 56.118164], [-3.938114, 56.11806], [-3.938105, 56.118168], [-3.938111, 56.11811], [-3.938111, 56.118167], [-3.938143, 56.118132], [-3.938111, 56.118167], [-3.938119, 56.118089], [-3.938114, 56.11819], [-3.938095, 56.118136], [-3.938082, 56.118162], [-3.938118, 56.118127], [-3.938102, 56.118189], [-3.938103, 56.118148], [-3.938158, 56.118217], [-3.938112, 56.118184], [-3.938114, 56.1181], [-3.938104, 56.118183], [-3.938134, 56.118112], [-3.938123, 56.118149], [-3.938107, 56.118128], [-3.938146, 56.118129], [-3.938102, 56.11819], [-3.938138, 56.118072], [-3.938093, 56.118207], [-3.938102, 56.118079], [-3.938132, 56.118159], [-3.938103, 56.118131], [-3.938132, 56.118091], [-3.938102, 56.118219], [-3.938111, 56.11807], [-3.938098, 56.118219], [-3.938112, 56.118069], [-3.938133, 56.118121], [-3.938115, 56.118082], [-3.938133, 56.118121], [-3.938091, 56.118147], [-3.938133, 56.118121], [-3.938098, 56.118138], [-3.938133, 56.118121], [-3.938088, 56.118117], [-3.938133, 56.118121], [-3.938134, 56.118048], [-3.93812, 56.118207], [-3.938131, 56.118075], [-3.938104, 56.118177], [-3.938118, 56.118085], [-3.938074, 56.118178], [-3.938122, 56.118068], [-3.938138, 56.118125], [-3.938115, 56.118108], [-3.938105, 56.118178], [-3.93811, 56.118093], [-3.938097, 56.118182], [-3.938128, 56.118041], [-3.938091, 56.118201], [-3.938104, 56.118173], [-3.938125, 56.11822], [-3.938039, 56.118177], [-3.938284, 56.118388], [-3.938366, 56.118365], [-3.938322, 56.118362], [-3.938463, 56.118371], [-3.938598, 56.1185], [-3.938696, 56.118281], [-3.938596, 56.118471], [-3.938647, 56.11844], [-3.93868, 56.118451], [-3.938673, 56.118435], [-3.938746, 56.118459], [-3.938994, 56.118605], [-3.939174, 56.118651], [-3.939444, 56.118763], [-3.939527, 56.118839], [-3.940119, 56.119127], [-3.940685, 56.119341], [-3.940748, 56.119397], [-3.940973, 56.119481], [-3.941194, 56.119526], [-3.9414, 56.119661], [-3.941589, 56.119711], [-3.941709, 56.119797], [-3.941903, 56.119869], [-3.942802, 56.120321], [-3.943013, 56.120389], [-3.943272, 56.120393], [-3.943355, 56.120238], [-3.943458, 56.120264], [-3.943407, 56.120379], [-3.943525, 56.120214], [-3.943515, 56.120257], [-3.943465, 56.120261], [-3.943476, 56.12037], [-3.9435, 56.120341], [-3.943436, 56.120299], [-3.943418, 56.12041], [-3.94332, 56.120439], [-3.943369, 56.120482], [-3.943492, 56.120506], [-3.94355, 56.120553], [-3.943667, 56.120582], [-3.943729, 56.120648], [-3.943776, 56.12065], [-3.943827, 56.120691], [-3.943898, 56.1207], [-3.943953, 56.120671], [-3.944099, 56.120656], [-3.944491, 56.12067], [-3.944793, 56.120654], [-3.944849, 56.120798], [-3.944861, 56.120765], [-3.944807, 56.120722], [-3.944702, 56.120705], [-3.944773, 56.120677], [-3.944744, 56.120702], [-3.944818, 56.120693], [-3.944789, 56.120625], [-3.944549, 56.120668], [-3.944086, 56.120691], [-3.943898, 56.120754], [-3.943938, 56.120845], [-3.94404, 56.120929], [-3.944025, 56.121057], [-3.944073, 56.121122], [-3.944069, 56.121277], [-3.944144, 56.121466], [-3.94414, 56.121759], [-3.94438, 56.122084], [-3.944435, 56.12212], [-3.944496, 56.122117], [-3.944767, 56.122218], [-3.945079, 56.122205], [-3.945268, 56.12217], [-3.945379, 56.122179], [-3.945427, 56.122211], [-3.945428, 56.122232], [-3.94542, 56.122204], [-3.945408, 56.122238], [-3.945406, 56.122223], [-3.945368, 56.122236], [-3.945398, 56.122214], [-3.945431, 56.122223], [-3.945406, 56.122269], [-3.945445, 56.122353], [-3.945852, 56.122609], [-3.946103, 56.12286], [-3.946186, 56.123026], [-3.946291, 56.123072], [-3.94685, 56.123159], [-3.946971, 56.123114], [-3.947116, 56.123099], [-3.947145, 56.123111], [-3.947036, 56.12316], [-3.94712, 56.123219], [-3.946796, 56.123173], [-3.946684, 56.12313], [-3.946539, 56.123129], [-3.946592, 56.12318], [-3.946478, 56.123139], [-3.946255, 56.123135], [-3.946071, 56.123091], [-3.946002, 56.123105], [-3.945969, 56.12315], [-3.946044, 56.123268], [-3.94603, 56.123309], [-3.946125, 56.123358], [-3.946075, 56.123336], [-3.946092, 56.123293], [-3.945993, 56.123163], [-3.94597, 56.123067], [-3.946229, 56.1229], [-3.94635, 56.122872], [-3.946391, 56.12282], [-3.946371, 56.122713], [-3.946481, 56.122657], [-3.946582, 56.122559], [-3.946661, 56.122169], [-3.946601, 56.122054], [-3.946664, 56.12193], [-3.946753, 56.12186], [-3.946792, 56.121706], [-3.9468, 56.121606], [-3.946715, 56.121464], [-3.946728, 56.121446], [-3.946842, 56.12145], [-3.946754, 56.121465], [-3.946526, 56.121366], [-3.946274, 56.121192], [-3.94621, 56.121115], [-3.946207, 56.12098], [-3.946124, 56.120872], [-3.945773, 56.120744], [-3.945453, 56.120574], [-3.945426, 56.1206], [-3.945287, 56.120479], [-3.944966, 56.120341], [-3.944924, 56.120255], [-3.944751, 56.120161], [-3.944665, 56.120043], [-3.944045, 56.119495], [-3.943609, 56.119379], [-3.943444, 56.119361], [-3.943348, 56.119283], [-3.943183, 56.119285], [-3.943055, 56.119228], [-3.942989, 56.119157], [-3.942853, 56.119152], [-3.942423, 56.119036], [-3.942599, 56.119105], [-3.942612, 56.119072], [-3.942553, 56.119073], [-3.942438, 56.118921], [-3.942361, 56.118878], [-3.942381, 56.118842], [-3.942172, 56.118689], [-3.941989, 56.118625], [-3.941951, 56.118572], [-3.941716, 56.11844], [-3.941631, 56.118335], [-3.94151, 56.118305], [-3.941344, 56.118211], [-3.941101, 56.118174], [-3.940964, 56.118078], [-3.940911, 56.117916], [-3.940826, 56.117814], [-3.940913, 56.117741], [-3.940879, 56.117707], [-3.940774, 56.117697], [-3.940493, 56.117517], [-3.940043, 56.117438], [-3.939554, 56.117314], [-3.938889, 56.117091], [-3.938867, 56.117069], [-3.939197, 56.116735], [-3.939365, 56.116485], [-3.939614, 56.11624], [-3.939732, 56.11604], [-3.939845, 56.115949], [-3.939789, 56.115981], [-3.939752, 56.115951], [-3.939806, 56.115945], [-3.939777, 56.115977], [-3.939786, 56.115935], [-3.939893, 56.115959], [-3.939852, 56.115987], [-3.939856, 56.115954], [-3.939845, 56.115969], [-3.939804, 56.115946], [-3.939834, 56.115955], [-3.939784, 56.115963], [-3.939785, 56.115997], [-3.939786, 56.115969], [-3.939692, 56.116003], [-3.939309, 56.116434]]}, "properties": {"name": "1788693167.Stirling_Castle", "cmt": "2026-09-06", "tstamp": 1788652800, "desc": "---", "src": "-3.947145/56.115935/-3.93675/56.123358", "bbox": "-3.947145/56.115935/-3.93675/56.123358"}}]}