{"type": "FeatureCollection", "name": "TrackSet", "crs": {"type": "name", "properties": {"name": "urn:ogc:def:crs:OGC:1.3:CRS84"}}, "bbox": [6.193209, 46.328994, 6.202825, 46.334238], "features": [{"type": "Feature", "bbox": [6.193209, 46.328994, 6.202825, 46.334238], "geometry": {"type": "LineString", "coordinates": [[6.194577, 46.331232], [6.194579, 46.331188], [6.194359, 46.330862], [6.194343, 46.330759], [6.194181, 46.330537], [6.194096, 46.330321], [6.193952, 46.330149], [6.193842, 46.33012], [6.193538, 46.330157], [6.193209, 46.330144], [6.193228, 46.329794], [6.193307, 46.329721], [6.193443, 46.329652], [6.194666, 46.329425], [6.194872, 46.329407], [6.194924, 46.329378], [6.195025, 46.329384], [6.195111, 46.329346], [6.195925, 46.329167], [6.196184, 46.329073], [6.196287, 46.329059], [6.19638, 46.328994], [6.196315, 46.329065], [6.198036, 46.331148], [6.198242, 46.331107], [6.19914, 46.330767], [6.199219, 46.330718], [6.199566, 46.330627], [6.199631, 46.330587], [6.199909, 46.330537], [6.199994, 46.330501], [6.200114, 46.330493], [6.200538, 46.330344], [6.200778, 46.330278], [6.200887, 46.33027], [6.200972, 46.330228], [6.201074, 46.330222], [6.201316, 46.330131], [6.201514, 46.330112], [6.201544, 46.330123], [6.201651, 46.330414], [6.20184, 46.330742], [6.202169, 46.331694], [6.202176, 46.33187], [6.202325, 46.332519], [6.202348, 46.332966], [6.202327, 46.333562], [6.202442, 46.33363], [6.202492, 46.333804], [6.202546, 46.333873], [6.202566, 46.333984], [6.202517, 46.334026], [6.202588, 46.334075], [6.202571, 46.334213], [6.202681, 46.334238], [6.202749, 46.334197], [6.20275, 46.334066], [6.202825, 46.333915], [6.202666, 46.333534], [6.202697, 46.3335], [6.202683, 46.333484], [6.202679, 46.333532]]}, "properties": {"name": "1788083803.To_Paddle", "cmt": "2026-08-30", "tstamp": 1788048000, "desc": "---", "src": "6.193209/46.328994/6.202825/46.334238", "bbox": "6.193209/46.328994/6.202825/46.334238"}}]}