{"type": "FeatureCollection", "name": "TrackSet", "crs": {"type": "name", "properties": {"name": "urn:ogc:def:crs:OGC:1.3:CRS84"}}, "bbox": [-5.0452, 56.794409, -4.986596, 56.842191], "features": [{"type": "Feature", "bbox": [-5.0452, 56.794409, -4.986596, 56.842191], "geometry": {"type": "LineString", "coordinates": [[-5.042847, 56.8417], [-5.042336, 56.84145], [-5.042309, 56.841379], [-5.042165, 56.841286], [-5.041964, 56.841093], [-5.041712, 56.840966], [-5.041626, 56.840872], [-5.041433, 56.840745], [-5.041212, 56.840705], [-5.04115, 56.840718], [-5.041069, 56.840649], [-5.041098, 56.840593], [-5.041018, 56.840511], [-5.041163, 56.840392], [-5.041128, 56.840361], [-5.041216, 56.840242], [-5.04121, 56.840198], [-5.041265, 56.84016], [-5.041355, 56.839939], [-5.04146, 56.839857], [-5.041497, 56.839762], [-5.041474, 56.839592], [-5.041543, 56.839416], [-5.041508, 56.839313], [-5.041533, 56.839322], [-5.041574, 56.839286], [-5.041556, 56.83921], [-5.041636, 56.83909], [-5.04163, 56.838985], [-5.041518, 56.838972], [-5.041466, 56.838878], [-5.041402, 56.838847], [-5.041315, 56.83891], [-5.041243, 56.838926], [-5.041216, 56.838904], [-5.040746, 56.838927], [-5.040697, 56.838893], [-5.040502, 56.838867], [-5.040078, 56.838911], [-5.03997, 56.838873], [-5.03975, 56.83885], [-5.039624, 56.838892], [-5.039557, 56.838734], [-5.039613, 56.838484], [-5.039466, 56.838318], [-5.039492, 56.838287], [-5.03944, 56.838306], [-5.039552, 56.838247], [-5.039325, 56.838168], [-5.039208, 56.838033], [-5.039224, 56.837961], [-5.039317, 56.837903], [-5.039276, 56.837746], [-5.039302, 56.837716], [-5.039254, 56.837681], [-5.039353, 56.837528], [-5.039388, 56.837535], [-5.039374, 56.83764], [-5.039362, 56.837607], [-5.039459, 56.83751], [-5.039549, 56.83748], [-5.03954, 56.837434], [-5.039728, 56.83731], [-5.039742, 56.837282], [-5.039715, 56.837288], [-5.039764, 56.837259], [-5.039736, 56.837198], [-5.039796, 56.837153], [-5.039859, 56.836972], [-5.039839, 56.836913], [-5.039886, 56.836879], [-5.039863, 56.836823], [-5.039896, 56.836786], [-5.040019, 56.836799], [-5.040026, 56.836765], [-5.039959, 56.836732], [-5.040063, 56.836622], [-5.040009, 56.836554], [-5.040023, 56.836497], [-5.040155, 56.836376], [-5.040143, 56.836335], [-5.040023, 56.83626], [-5.040119, 56.836256], [-5.040207, 56.836192], [-5.040128, 56.836111], [-5.040144, 56.836068], [-5.040034, 56.836025], [-5.040028, 56.835967], [-5.039981, 56.835939], [-5.04001, 56.835851], [-5.040239, 56.835805], [-5.040385, 56.835725], [-5.040437, 56.835714], [-5.040418, 56.835729], [-5.040462, 56.835731], [-5.040679, 56.835531], [-5.040814, 56.835463], [-5.04097, 56.83544], [-5.04106, 56.835375], [-5.041152, 56.83537], [-5.041388, 56.83521], [-5.041585, 56.835167], [-5.041641, 56.835097], [-5.041823, 56.834993], [-5.041959, 56.834768], [-5.041941, 56.834631], [-5.042057, 56.834529], [-5.042064, 56.83445], [-5.042115, 56.834431], [-5.042147, 56.834371], [-5.042083, 56.834252], [-5.042114, 56.834105], [-5.042037, 56.833861], [-5.042097, 56.833627], [-5.042081, 56.833606], [-5.042043, 56.833618], [-5.042001, 56.8336], [-5.041988, 56.83354], [-5.041891, 56.833454], [-5.041685, 56.833357], [-5.04153, 56.833318], [-5.041067, 56.83336], [-5.040909, 56.833337], [-5.04056, 56.833405], [-5.040194, 56.833402], [-5.040032, 56.833423], [-5.039894, 56.83339], [-5.039875, 56.833331], [-5.039785, 56.833271], [-5.039598, 56.833222], [-5.039548, 56.833255], [-5.039206, 56.833302], [-5.038989, 56.833373], [-5.038663, 56.833332], [-5.03857, 56.833283], [-5.038464, 56.833127], [-5.038273, 56.833041], [-5.038249, 56.832968], [-5.038392, 56.832734], [-5.03842, 56.832358], [-5.038558, 56.832115], [-5.038554, 56.831889], [-5.038587, 56.831903], [-5.038532, 56.831899], [-5.038564, 56.831802], [-5.03852, 56.831735], [-5.038576, 56.831407], [-5.038508, 56.831273], [-5.038208, 56.830961], [-5.038163, 56.8308], [-5.03801, 56.830592], [-5.037906, 56.830314], [-5.037834, 56.830249], [-5.037724, 56.830212], [-5.037156, 56.830157], [-5.037112, 56.830065], [-5.037366, 56.829761], [-5.037324, 56.829653], [-5.03726, 56.82966], [-5.036897, 56.829447], [-5.036801, 56.829222], [-5.036498, 56.829092], [-5.036139, 56.829024], [-5.036237, 56.828997], [-5.036127, 56.829005], [-5.036108, 56.828961], [-5.035998, 56.82891], [-5.035895, 56.828675], [-5.03577, 56.828538], [-5.035616, 56.828476], [-5.035461, 56.828356], [-5.035082, 56.828231], [-5.03487, 56.828115], [-5.034839, 56.828038], [-5.034874, 56.827978], [-5.034818, 56.827884], [-5.03468, 56.82778], [-5.034587, 56.827758], [-5.034311, 56.827611], [-5.034294, 56.827521], [-5.03436, 56.8274], [-5.034279, 56.827282], [-5.034304, 56.8271], [-5.034205, 56.82692], [-5.034094, 56.826839], [-5.034078, 56.826787], [-5.033964, 56.826761], [-5.033755, 56.826657], [-5.033746, 56.826588], [-5.033658, 56.826528], [-5.033507, 56.826493], [-5.033033, 56.826244], [-5.032697, 56.826163], [-5.03253, 56.826073], [-5.032432, 56.82596], [-5.032306, 56.825895], [-5.032294, 56.825791], [-5.032191, 56.825695], [-5.032152, 56.825571], [-5.031939, 56.825383], [-5.03166, 56.825261], [-5.031366, 56.825012], [-5.031133, 56.82494], [-5.031038, 56.824876], [-5.030945, 56.824878], [-5.030917, 56.824814], [-5.030838, 56.824774], [-5.0307, 56.824746], [-5.030545, 56.824666], [-5.030413, 56.824649], [-5.030266, 56.824588], [-5.030221, 56.824523], [-5.030026, 56.824478], [-5.029859, 56.824382], [-5.029713, 56.824351], [-5.029586, 56.824354], [-5.029536, 56.824378], [-5.02944, 56.824327], [-5.029293, 56.824335], [-5.02921, 56.82428], [-5.029113, 56.82429], [-5.028949, 56.824245], [-5.02888, 56.8242], [-5.028733, 56.824173], [-5.028722, 56.824138], [-5.028658, 56.82412], [-5.028378, 56.824104], [-5.02829, 56.824075], [-5.028147, 56.824069], [-5.028218, 56.824061], [-5.028217, 56.824079], [-5.028207, 56.824058], [-5.028237, 56.824106], [-5.028084, 56.824169], [-5.028025, 56.824127], [-5.027928, 56.824134], [-5.027815, 56.824007], [-5.027689, 56.82396], [-5.027645, 56.823975], [-5.027445, 56.823961], [-5.027361, 56.823909], [-5.027325, 56.82392], [-5.027098, 56.823854], [-5.027027, 56.823872], [-5.026829, 56.823792], [-5.026484, 56.823764], [-5.026424, 56.823741], [-5.026339, 56.823753], [-5.026223, 56.823702], [-5.026055, 56.823741], [-5.025918, 56.823651], [-5.025898, 56.823571], [-5.025877, 56.823609], [-5.025802, 56.823612], [-5.025835, 56.82364], [-5.025774, 56.823665], [-5.025588, 56.823589], [-5.025454, 56.823585], [-5.025377, 56.823624], [-5.025305, 56.82359], [-5.02526, 56.823605], [-5.025133, 56.823576], [-5.025025, 56.823593], [-5.024925, 56.823553], [-5.024704, 56.823572], [-5.02462, 56.823561], [-5.024566, 56.82351], [-5.024514, 56.823521], [-5.024371, 56.823481], [-5.024294, 56.823497], [-5.024212, 56.823482], [-5.023822, 56.823252], [-5.023703, 56.823275], [-5.023483, 56.823269], [-5.023233, 56.823186], [-5.023062, 56.823167], [-5.022979, 56.823186], [-5.022809, 56.823175], [-5.022707, 56.823134], [-5.02267, 56.823057], [-5.022521, 56.823046], [-5.022417, 56.822972], [-5.02236, 56.822981], [-5.022128, 56.822928], [-5.022079, 56.822938], [-5.021943, 56.822873], [-5.021734, 56.822849], [-5.021585, 56.822787], [-5.021406, 56.822766], [-5.0213, 56.822704], [-5.021196, 56.8227], [-5.021059, 56.822646], [-5.020929, 56.822658], [-5.020847, 56.822611], [-5.020698, 56.822575], [-5.020499, 56.822596], [-5.020364, 56.822574], [-5.020195, 56.822582], [-5.020079, 56.822545], [-5.020049, 56.822507], [-5.019656, 56.822442], [-5.01964, 56.822394], [-5.019517, 56.822344], [-5.019381, 56.822345], [-5.019381, 56.822324], [-5.019319, 56.822332], [-5.019293, 56.8223], [-5.019249, 56.822309], [-5.019175, 56.822274], [-5.018874, 56.822238], [-5.018695, 56.822153], [-5.018592, 56.822171], [-5.018411, 56.822129], [-5.018348, 56.822076], [-5.01823, 56.822063], [-5.0182, 56.821981], [-5.018144, 56.821963], [-5.018146, 56.821913], [-5.018085, 56.821877], [-5.018033, 56.821698], [-5.017889, 56.82165], [-5.017876, 56.821529], [-5.017813, 56.821496], [-5.017711, 56.821449], [-5.017472, 56.821417], [-5.017468, 56.821381], [-5.017361, 56.821362], [-5.017258, 56.8213], [-5.017225, 56.821309], [-5.017122, 56.821244], [-5.017001, 56.821249], [-5.016963, 56.821203], [-5.016912, 56.821221], [-5.016796, 56.821183], [-5.016772, 56.821125], [-5.016717, 56.821124], [-5.016607, 56.821048], [-5.016248, 56.821013], [-5.016161, 56.820981], [-5.016067, 56.820899], [-5.015919, 56.820917], [-5.015881, 56.820869], [-5.015713, 56.820853], [-5.015584, 56.820782], [-5.015456, 56.820766], [-5.015356, 56.820718], [-5.015256, 56.820715], [-5.015181, 56.820636], [-5.015018, 56.820623], [-5.014894, 56.82058], [-5.014822, 56.820472], [-5.014764, 56.820446], [-5.014752, 56.82038], [-5.014673, 56.820353], [-5.01468, 56.820297], [-5.014488, 56.820193], [-5.014394, 56.820045], [-5.014317, 56.820006], [-5.014213, 56.820008], [-5.01377, 56.819858], [-5.01367, 56.819717], [-5.013635, 56.819716], [-5.013624, 56.819671], [-5.013454, 56.819538], [-5.013374, 56.819529], [-5.013346, 56.819556], [-5.013274, 56.819564], [-5.013226, 56.819484], [-5.013158, 56.819453], [-5.012945, 56.819483], [-5.012954, 56.819435], [-5.012877, 56.819385], [-5.01288, 56.819345], [-5.01282, 56.819337], [-5.012731, 56.819229], [-5.012625, 56.819191], [-5.012646, 56.819165], [-5.01261, 56.81913], [-5.012528, 56.81914], [-5.012367, 56.819076], [-5.01224, 56.819134], [-5.012102, 56.81914], [-5.011987, 56.819116], [-5.011918, 56.819052], [-5.011937, 56.819017], [-5.011907, 56.819035], [-5.011882, 56.819016], [-5.01191, 56.818963], [-5.011824, 56.818893], [-5.01167, 56.818806], [-5.011667, 56.818778], [-5.011581, 56.818764], [-5.011491, 56.818688], [-5.011406, 56.81867], [-5.011447, 56.818634], [-5.011399, 56.818602], [-5.011389, 56.818511], [-5.011324, 56.818497], [-5.011175, 56.818344], [-5.010982, 56.818231], [-5.010855, 56.817992], [-5.010743, 56.81791], [-5.010704, 56.817826], [-5.010636, 56.817804], [-5.010508, 56.817657], [-5.010359, 56.817628], [-5.010251, 56.817545], [-5.010065, 56.817548], [-5.009776, 56.81737], [-5.009678, 56.817331], [-5.009576, 56.817326], [-5.009494, 56.817253], [-5.009445, 56.817251], [-5.009427, 56.817295], [-5.00928, 56.817258], [-5.009216, 56.817195], [-5.009143, 56.817185], [-5.009028, 56.817103], [-5.008967, 56.817115], [-5.00893, 56.817081], [-5.008892, 56.817103], [-5.008812, 56.81707], [-5.008687, 56.817067], [-5.008663, 56.817084], [-5.00846, 56.817043], [-5.008421, 56.817056], [-5.008268, 56.817033], [-5.008139, 56.817063], [-5.007948, 56.817047], [-5.007836, 56.817068], [-5.007694, 56.817017], [-5.007649, 56.816973], [-5.007514, 56.816978], [-5.007324, 56.8169], [-5.007229, 56.816897], [-5.006967, 56.81676], [-5.006646, 56.816736], [-5.006616, 56.816693], [-5.006522, 56.816681], [-5.006515, 56.81665], [-5.006365, 56.816574], [-5.006148, 56.816553], [-5.006044, 56.816518], [-5.005601, 56.816532], [-5.005573, 56.816556], [-5.005467, 56.816563], [-5.00522, 56.81651], [-5.005081, 56.816417], [-5.005102, 56.816384], [-5.005059, 56.816378], [-5.004839, 56.816374], [-5.004547, 56.816431], [-5.004463, 56.816426], [-5.004199, 56.816264], [-5.004117, 56.816278], [-5.003992, 56.816245], [-5.003892, 56.816259], [-5.003711, 56.816177], [-5.003368, 56.816097], [-5.003356, 56.81604], [-5.003284, 56.816008], [-5.003108, 56.815986], [-5.003045, 56.815953], [-5.002763, 56.815958], [-5.002402, 56.815838], [-5.001905, 56.81562], [-5.001834, 56.815617], [-5.001769, 56.815651], [-5.001598, 56.815605], [-5.001472, 56.815507], [-5.001477, 56.815431], [-5.001411, 56.815445], [-5.001345, 56.8154], [-5.001286, 56.815284], [-5.001271, 56.815299], [-5.001186, 56.815249], [-5.001102, 56.815258], [-5.001018, 56.815201], [-5.001026, 56.815169], [-5.000895, 56.815118], [-5.000854, 56.81507], [-5.000659, 56.815035], [-5.000601, 56.814982], [-5.000391, 56.814928], [-5.000371, 56.814894], [-5.00017, 56.81486], [-5.000119, 56.814783], [-5.000158, 56.814738], [-5.000145, 56.814629], [-5.000194, 56.814474], [-5.000083, 56.814402], [-5.000053, 56.814407], [-5.000084, 56.814407], [-5.000007, 56.814317], [-4.999804, 56.814209], [-4.999472, 56.813912], [-4.999322, 56.813825], [-4.99909, 56.813587], [-4.998805, 56.813422], [-4.998261, 56.812951], [-4.998131, 56.812919], [-4.998057, 56.812925], [-4.997839, 56.812846], [-4.997686, 56.812736], [-4.997616, 56.812723], [-4.997445, 56.812617], [-4.997398, 56.812607], [-4.997345, 56.812631], [-4.997299, 56.812614], [-4.99698, 56.812383], [-4.996866, 56.812372], [-4.99681, 56.812341], [-4.996726, 56.812274], [-4.996636, 56.812116], [-4.996606, 56.81212], [-4.996612, 56.812064], [-4.996531, 56.811958], [-4.996336, 56.811824], [-4.996167, 56.811652], [-4.996023, 56.811643], [-4.99599, 56.811681], [-4.995969, 56.811654], [-4.995926, 56.81167], [-4.995872, 56.811649], [-4.995838, 56.811695], [-4.995735, 56.811697], [-4.995725, 56.811659], [-4.995656, 56.811659], [-4.995565, 56.811563], [-4.995482, 56.811527], [-4.995408, 56.811598], [-4.995363, 56.811591], [-4.995284, 56.811643], [-4.995244, 56.811635], [-4.995226, 56.81167], [-4.995148, 56.811668], [-4.995064, 56.811612], [-4.995084, 56.811488], [-4.994939, 56.811365], [-4.994751, 56.81128], [-4.994608, 56.811157], [-4.994549, 56.811195], [-4.994293, 56.811019], [-4.994154, 56.810982], [-4.99411, 56.811003], [-4.994061, 56.810975], [-4.993952, 56.810982], [-4.993935, 56.810926], [-4.993749, 56.810893], [-4.993454, 56.81075], [-4.993237, 56.810705], [-4.993164, 56.810664], [-4.993065, 56.810664], [-4.992916, 56.81062], [-4.992895, 56.810564], [-4.992696, 56.810446], [-4.992562, 56.810425], [-4.992489, 56.810382], [-4.992208, 56.810345], [-4.992184, 56.810391], [-4.992114, 56.810403], [-4.992014, 56.810376], [-4.99182, 56.810473], [-4.991705, 56.810442], [-4.991571, 56.810465], [-4.991506, 56.810505], [-4.991509, 56.81047], [-4.991515, 56.810511], [-4.991503, 56.810491], [-4.991435, 56.810508], [-4.991279, 56.810441], [-4.99107, 56.810288], [-4.990714, 56.810114], [-4.99065, 56.810049], [-4.990331, 56.809909], [-4.990161, 56.809852], [-4.989961, 56.809823], [-4.989786, 56.809749], [-4.989673, 56.809748], [-4.989506, 56.80971], [-4.989523, 56.809698], [-4.9894, 56.809718], [-4.989319, 56.809705], [-4.989521, 56.809596], [-4.989489, 56.80953], [-4.989525, 56.80948], [-4.989496, 56.809274], [-4.989523, 56.809217], [-4.989595, 56.809181], [-4.989573, 56.809157], [-4.989649, 56.809109], [-4.989597, 56.808996], [-4.989687, 56.808832], [-4.989683, 56.8086], [-4.989724, 56.808494], [-4.989549, 56.808231], [-4.989565, 56.808192], [-4.98952, 56.808129], [-4.989472, 56.808126], [-4.989408, 56.807995], [-4.989312, 56.807942], [-4.989278, 56.807869], [-4.989195, 56.807831], [-4.989115, 56.807743], [-4.988939, 56.807347], [-4.988709, 56.807259], [-4.988687, 56.807187], [-4.988586, 56.807137], [-4.988531, 56.807064], [-4.988536, 56.806998], [-4.988457, 56.806943], [-4.988376, 56.806923], [-4.988291, 56.806938], [-4.988261, 56.806836], [-4.988067, 56.806786], [-4.988095, 56.806734], [-4.988012, 56.80655], [-4.98789, 56.806494], [-4.987869, 56.806446], [-4.987686, 56.806383], [-4.98759, 56.806302], [-4.987499, 56.806284], [-4.987488, 56.806234], [-4.987417, 56.806222], [-4.987409, 56.806183], [-4.987343, 56.806158], [-4.987314, 56.806079], [-4.987233, 56.806056], [-4.987096, 56.805866], [-4.987088, 56.805739], [-4.986973, 56.805703], [-4.986847, 56.80561], [-4.986845, 56.805539], [-4.98671, 56.805395], [-4.986655, 56.805385], [-4.986666, 56.805281], [-4.986603, 56.805245]]}, "properties": {"name": "1788936792.Ben_Nevis_by_the_Càrn_Mòr_Dearg_Arête", "cmt": "2026-09-09", "tstamp": 1788912000, "desc": "UpHill", "src": "-5.0452/56.794409/-4.986596/56.842191", "bbox": "-5.0452/56.794409/-4.986596/56.842191"}}, {"type": "Feature", "bbox": [-5.0452, 56.794409, -4.986596, 56.842191], "geometry": {"type": "LineString", "coordinates": [[-4.986596, 56.805239], [-4.98663, 56.805235], [-4.986614, 56.805254], [-4.986674, 56.805239], [-4.986651, 56.805218], [-4.986723, 56.80519], [-4.986717, 56.805169], [-4.986781, 56.805183], [-4.986788, 56.805157], [-4.98683, 56.805175], [-4.986939, 56.805011], [-4.986971, 56.805005], [-4.986986, 56.805038], [-4.987096, 56.805081], [-4.987132, 56.804992], [-4.987189, 56.80497], [-4.987126, 56.804847], [-4.987172, 56.804828], [-4.987134, 56.804797], [-4.987222, 56.804687], [-4.987182, 56.804578], [-4.987339, 56.804428], [-4.987307, 56.804406], [-4.98735, 56.804354], [-4.987288, 56.804336], [-4.987315, 56.804305], [-4.987276, 56.804281], [-4.987341, 56.804234], [-4.987306, 56.804212], [-4.987346, 56.804169], [-4.987291, 56.804136], [-4.987297, 56.804068], [-4.987358, 56.803971], [-4.9874, 56.803982], [-4.987427, 56.803951], [-4.987434, 56.803852], [-4.98748, 56.803822], [-4.987461, 56.803775], [-4.9875, 56.803753], [-4.987492, 56.803698], [-4.987533, 56.803682], [-4.987486, 56.803659], [-4.98751, 56.803623], [-4.987569, 56.803618], [-4.987515, 56.803567], [-4.987505, 56.803511], [-4.987532, 56.80352], [-4.987539, 56.803498], [-4.987505, 56.80346], [-4.987547, 56.80342], [-4.987496, 56.803366], [-4.987534, 56.803314], [-4.987484, 56.803256], [-4.987522, 56.803207], [-4.98747, 56.803132], [-4.987528, 56.803105], [-4.987458, 56.803058], [-4.987425, 56.802923], [-4.987449, 56.802877], [-4.987376, 56.802798], [-4.987392, 56.802695], [-4.987358, 56.80266], [-4.987397, 56.802598], [-4.98736, 56.802596], [-4.987321, 56.802454], [-4.987357, 56.802459], [-4.987246, 56.802299], [-4.987258, 56.802278], [-4.987285, 56.802289], [-4.987258, 56.802259], [-4.987308, 56.802212], [-4.987281, 56.802198], [-4.987328, 56.802206], [-4.987315, 56.802179], [-4.987353, 56.802164], [-4.987297, 56.802163], [-4.987318, 56.80209], [-4.98728, 56.802085], [-4.987316, 56.802073], [-4.987286, 56.802045], [-4.987307, 56.801906], [-4.98726, 56.801892], [-4.987304, 56.80186], [-4.987294, 56.801774], [-4.987241, 56.801742], [-4.987185, 56.801603], [-4.987187, 56.801445], [-4.987146, 56.801415], [-4.987195, 56.801365], [-4.987147, 56.801301], [-4.987155, 56.80121], [-4.987139, 56.801185], [-4.987075, 56.801177], [-4.98714, 56.801058], [-4.987106, 56.800964], [-4.987082, 56.800979], [-4.987046, 56.800935], [-4.987031, 56.800786], [-4.986981, 56.800735], [-4.987031, 56.80061], [-4.986979, 56.800549], [-4.987005, 56.800517], [-4.986947, 56.800505], [-4.986946, 56.800477], [-4.986991, 56.800467], [-4.986961, 56.800475], [-4.986965, 56.800418], [-4.986893, 56.800364], [-4.986934, 56.800248], [-4.986853, 56.800189], [-4.986912, 56.800181], [-4.986937, 56.800117], [-4.986998, 56.800105], [-4.98697, 56.800085], [-4.98711, 56.799818], [-4.987122, 56.799674], [-4.98719, 56.799626], [-4.98721, 56.799534], [-4.987295, 56.799512], [-4.987303, 56.799443], [-4.987392, 56.799359], [-4.987356, 56.799363], [-4.987343, 56.799324], [-4.987457, 56.799238], [-4.987372, 56.799239], [-4.98738, 56.799158], [-4.987672, 56.798882], [-4.987709, 56.798786], [-4.987836, 56.798709], [-4.987863, 56.798551], [-4.988134, 56.798434], [-4.988179, 56.798402], [-4.988176, 56.798335], [-4.988342, 56.798284], [-4.988341, 56.798228], [-4.98852, 56.798154], [-4.988552, 56.798197], [-4.988564, 56.798154], [-4.988658, 56.798105], [-4.988651, 56.798078], [-4.988732, 56.798049], [-4.988727, 56.798008], [-4.988877, 56.797945], [-4.989047, 56.797818]]}, "properties": {"name": "1788936792.Ben_Nevis_by_the_Càrn_Mòr_Dearg_Arête", "cmt": "2026-09-09", "tstamp": 1788912000, "desc": "DownHill", "src": "-5.0452/56.794409/-4.986596/56.842191", "bbox": "-5.0452/56.794409/-4.986596/56.842191"}}, {"type": "Feature", "bbox": [-5.0452, 56.794409, -4.986596, 56.842191], "geometry": {"type": "LineString", "coordinates": [[-4.98906, 56.797814], [-4.989133, 56.797811], [-4.989216, 56.797742], [-4.989333, 56.797734], [-4.989508, 56.797604], [-4.989509, 56.797563], [-4.989724, 56.797488], [-4.989849, 56.797396], [-4.989978, 56.797362], [-4.990146, 56.797227], [-4.990389, 56.797122], [-4.990565, 56.796978], [-4.990606, 56.796996], [-4.990616, 56.796976], [-4.990707, 56.796965], [-4.990947, 56.796827], [-4.991028, 56.796809], [-4.991068, 56.796666], [-4.991173, 56.796641], [-4.991268, 56.796557], [-4.991375, 56.796566], [-4.9915, 56.796531], [-4.99187, 56.796181], [-4.991944, 56.796174], [-4.992045, 56.796075], [-4.992168, 56.796027], [-4.992236, 56.795961], [-4.992329, 56.795958], [-4.992421, 56.795899], [-4.992467, 56.79591], [-4.992507, 56.795865], [-4.992726, 56.79578], [-4.992805, 56.795669], [-4.992948, 56.795561], [-4.993071, 56.795531], [-4.993077, 56.795477], [-4.993216, 56.79544], [-4.99346, 56.795459], [-4.993816, 56.795321], [-4.993936, 56.795175], [-4.993939, 56.795029], [-4.994037, 56.794921], [-4.994103, 56.794904], [-4.994359, 56.794617], [-4.994415, 56.794608], [-4.994597, 56.794441], [-4.994866, 56.794409], [-4.994904, 56.794425], [-4.995138, 56.794414], [-4.995453, 56.794506], [-4.995508, 56.794495], [-4.995549, 56.79453], [-4.995748, 56.794529], [-4.995802, 56.794563], [-4.995904, 56.794543], [-4.995958, 56.794572], [-4.99611, 56.794569], [-4.996271, 56.794612], [-4.996611, 56.794553], [-4.996714, 56.794596], [-4.996782, 56.794569], [-4.996881, 56.794583], [-4.996991, 56.794562], [-4.997153, 56.794486], [-4.997405, 56.794457], [-4.997617, 56.794516], [-4.997619, 56.794567], [-4.997689, 56.794629], [-4.99793, 56.794582], [-4.997907, 56.794623], [-4.997951, 56.794617], [-4.998089, 56.794706], [-4.998152, 56.794668], [-4.998452, 56.794618], [-4.998562, 56.794641], [-4.998644, 56.794604], [-4.99863, 56.794664], [-4.998688, 56.794694], [-4.998826, 56.794709], [-4.998902, 56.794826], [-4.999085, 56.794824], [-4.999112, 56.794916], [-4.99916, 56.794911], [-4.9992, 56.794946], [-4.999324, 56.794945], [-4.999349, 56.795005], [-4.999614, 56.795021], [-4.999667, 56.795065], [-4.999715, 56.79505], [-4.999821, 56.795113], [-5.000019, 56.795153], [-5.000033, 56.795183], [-5.00025, 56.795285], [-5.000272, 56.795267], [-5.00032, 56.795276], [-5.000306, 56.795362], [-5.000365, 56.795381], [-5.000403, 56.795361], [-5.000457, 56.795472], [-5.000528, 56.795538], [-5.000584, 56.795537], [-5.00062, 56.795605], [-5.000703, 56.795623], [-5.000679, 56.795642], [-5.000758, 56.795697], [-5.00075, 56.795721], [-5.000886, 56.795728], [-5.000843, 56.79581], [-5.001012, 56.795845], [-5.000986, 56.795871], [-5.001041, 56.795904], [-5.001226, 56.795935], [-5.001229, 56.795919], [-5.001333, 56.795926], [-5.001304, 56.795979], [-5.00135, 56.795968], [-5.001373, 56.795999], [-5.001368, 56.796083], [-5.001458, 56.796132], [-5.001452, 56.79618], [-5.001506, 56.796185], [-5.001598, 56.796144], [-5.001638, 56.796167], [-5.001718, 56.796164], [-5.001785, 56.796218], [-5.001893, 56.796205], [-5.002036, 56.796296], [-5.001989, 56.796368], [-5.00202, 56.79641], [-5.002099, 56.796405], [-5.002183, 56.796445], [-5.002222, 56.796438], [-5.002565, 56.79665], [-5.002679, 56.79667], [-5.002888, 56.796775], [-5.00312, 56.796849], [-5.003183, 56.796954], [-5.003359, 56.796918], [-5.003612, 56.796936], [-5.003628, 56.79692], [-5.003708, 56.796991], [-5.003637, 56.796934], [-5.003504, 56.796892], [-5.003496, 56.796859], [-5.00353, 56.79686], [-5.003549, 56.796919], [-5.003652, 56.796925], [-5.003724, 56.796984], [-5.003732, 56.796962], [-5.003721, 56.796983], [-5.003704, 56.796965], [-5.003843, 56.79683]]}, "properties": {"name": "1788936792.Ben_Nevis_by_the_Càrn_Mòr_Dearg_Arête", "cmt": "2026-09-09", "tstamp": 1788912000, "desc": "UpHill", "src": "-5.0452/56.794409/-4.986596/56.842191", "bbox": "-5.0452/56.794409/-4.986596/56.842191"}}, {"type": "Feature", "bbox": [-5.0452, 56.794409, -4.986596, 56.842191], "geometry": {"type": "LineString", "coordinates": [[-5.003868, 56.796819], [-5.004051, 56.796762], [-5.004116, 56.796707], [-5.004196, 56.796494], [-5.004464, 56.796367], [-5.004714, 56.796178], [-5.004915, 56.796106], [-5.005185, 56.79606], [-5.005351, 56.796061], [-5.005387, 56.796102], [-5.005459, 56.79612], [-5.005482, 56.796106], [-5.005483, 56.796129], [-5.00552, 56.796123], [-5.005787, 56.796213], [-5.005889, 56.796268], [-5.006213, 56.796318], [-5.00638, 56.796435], [-5.006457, 56.796554], [-5.00651, 56.796577], [-5.006483, 56.796606], [-5.006415, 56.796592], [-5.006439, 56.796611], [-5.006406, 56.7966], [-5.006456, 56.796594], [-5.006407, 56.796597], [-5.006445, 56.796606], [-5.006554, 56.796481], [-5.006829, 56.796446], [-5.006962, 56.796394], [-5.007157, 56.796358], [-5.007585, 56.796456], [-5.007706, 56.796505], [-5.007835, 56.796505], [-5.008044, 56.796558], [-5.008165, 56.796556], [-5.008542, 56.796523], [-5.008689, 56.796539], [-5.008827, 56.796525], [-5.008879, 56.796476], [-5.009038, 56.796441], [-5.009588, 56.796376], [-5.009746, 56.796312], [-5.00994, 56.796308], [-5.010544, 56.796419], [-5.010647, 56.796483], [-5.010788, 56.796503], [-5.010952, 56.796492], [-5.011137, 56.796644], [-5.011367, 56.796606], [-5.011502, 56.796551], [-5.011546, 56.796601], [-5.011593, 56.79659], [-5.011631, 56.796623], [-5.011809, 56.796565], [-5.011845, 56.796617], [-5.011887, 56.796607], [-5.012157, 56.796668], [-5.012417, 56.796644], [-5.012771, 56.796681], [-5.013004, 56.796677], [-5.013166, 56.796643], [-5.013329, 56.796707], [-5.013421, 56.796695], [-5.013875, 56.796765], [-5.013948, 56.796719], [-5.014014, 56.796714], [-5.014085, 56.796728], [-5.014148, 56.796793], [-5.014224, 56.796819], [-5.014288, 56.796814], [-5.014368, 56.796767], [-5.014476, 56.796761], [-5.014616, 56.796797], [-5.014641, 56.796813], [-5.01458, 56.796813], [-5.0146, 56.796794], [-5.014675, 56.796795], [-5.014863, 56.79687], [-5.014992, 56.796888], [-5.01507, 56.796863], [-5.015389, 56.796876], [-5.015576, 56.796844], [-5.015892, 56.796858], [-5.015929, 56.796901], [-5.016012, 56.796903], [-5.016089, 56.797033], [-5.016184, 56.797013], [-5.016281, 56.797043], [-5.016475, 56.797032], [-5.016743, 56.797104], [-5.017137, 56.797051], [-5.017343, 56.79708], [-5.017394, 56.797132], [-5.017588, 56.797152], [-5.01768, 56.79719], [-5.017857, 56.797165], [-5.018069, 56.797202], [-5.018217, 56.797188], [-5.018421, 56.79723], [-5.018682, 56.797218], [-5.018959, 56.797258], [-5.019258, 56.797378], [-5.019335, 56.797452], [-5.019351, 56.797478], [-5.01933, 56.797457], [-5.019294, 56.797491], [-5.019263, 56.797582], [-5.019309, 56.79773], [-5.019285, 56.797845], [-5.019413, 56.79792], [-5.019393, 56.797985], [-5.019456, 56.798052], [-5.019807, 56.798053], [-5.019941, 56.798022], [-5.020094, 56.79803], [-5.020254, 56.798005], [-5.020295, 56.798097], [-5.020674, 56.798184], [-5.020755, 56.798227], [-5.020749, 56.798262], [-5.020872, 56.798253], [-5.020992, 56.798277], [-5.021028, 56.798317], [-5.021258, 56.798405], [-5.0215, 56.798438], [-5.021541, 56.79847], [-5.021662, 56.798471], [-5.021728, 56.79849], [-5.021747, 56.798524], [-5.021962, 56.798512], [-5.022066, 56.798528], [-5.022234, 56.798501], [-5.022381, 56.798516], [-5.022383, 56.798579], [-5.022495, 56.7986], [-5.02255, 56.798665], [-5.022572, 56.798797], [-5.022532, 56.798873], [-5.022581, 56.798913], [-5.022565, 56.798892], [-5.022894, 56.798853], [-5.022944, 56.798806], [-5.023004, 56.798822], [-5.023092, 56.798789], [-5.023111, 56.798807], [-5.023191, 56.798799], [-5.023303, 56.798713], [-5.023423, 56.798714], [-5.023614, 56.798615], [-5.023736, 56.798618], [-5.024213, 56.798367], [-5.024325, 56.798365], [-5.024384, 56.798341], [-5.024781, 56.797991], [-5.02513, 56.797795], [-5.025257, 56.797648], [-5.025492, 56.797501], [-5.025501, 56.797446], [-5.025572, 56.797425], [-5.025597, 56.797361], [-5.025745, 56.79723], [-5.025733, 56.797163], [-5.025824, 56.797057], [-5.025787, 56.797037], [-5.025816, 56.796995], [-5.025922, 56.797037], [-5.026003, 56.797023], [-5.026085, 56.797066], [-5.026165, 56.797272], [-5.02628, 56.797363], [-5.026286, 56.797419], [-5.026353, 56.797431], [-5.026334, 56.797498], [-5.026429, 56.797582], [-5.026482, 56.797808], [-5.026617, 56.797885], [-5.0266, 56.797965], [-5.026773, 56.798083], [-5.026815, 56.798145], [-5.026862, 56.798382], [-5.026822, 56.798429], [-5.026871, 56.798534], [-5.026811, 56.798719], [-5.026854, 56.79888], [-5.026827, 56.798956], [-5.026882, 56.799016], [-5.027061, 56.798915], [-5.027162, 56.798895], [-5.027236, 56.79881], [-5.027412, 56.798776], [-5.027511, 56.798667], [-5.027708, 56.798557], [-5.027729, 56.798495], [-5.028101, 56.798181], [-5.028142, 56.798061], [-5.028216, 56.798015], [-5.028224, 56.797948], [-5.028293, 56.797935], [-5.028309, 56.797873], [-5.028456, 56.797724], [-5.028562, 56.797485], [-5.02854, 56.797442], [-5.02865, 56.797323], [-5.028645, 56.797217], [-5.028708, 56.797178], [-5.028709, 56.797078], [-5.028746, 56.797044], [-5.028701, 56.796987], [-5.028795, 56.796923], [-5.028813, 56.796873], [-5.028738, 56.796566], [-5.028759, 56.796543], [-5.028861, 56.796544], [-5.029073, 56.796637], [-5.029337, 56.796681], [-5.02948, 56.796768], [-5.029745, 56.796802], [-5.029772, 56.796841], [-5.029894, 56.79684], [-5.029957, 56.796885], [-5.030116, 56.796911], [-5.030187, 56.796985], [-5.030293, 56.797001], [-5.030432, 56.797072], [-5.030486, 56.797167], [-5.030807, 56.797307], [-5.031136, 56.797491], [-5.031221, 56.797566], [-5.03118, 56.797661], [-5.031248, 56.797775], [-5.031519, 56.797918], [-5.031528, 56.797982], [-5.031645, 56.798062], [-5.031719, 56.798301], [-5.031798, 56.798356], [-5.031788, 56.798452], [-5.031888, 56.798523], [-5.031909, 56.798615], [-5.032076, 56.798709], [-5.03193, 56.798905], [-5.031965, 56.798905], [-5.03193, 56.798924], [-5.031932, 56.799023], [-5.032075, 56.799281], [-5.032044, 56.799311], [-5.03209, 56.79935], [-5.032054, 56.799425], [-5.032084, 56.799515], [-5.032186, 56.799653], [-5.032235, 56.799849], [-5.032184, 56.799878], [-5.03218, 56.799974], [-5.03229, 56.800015], [-5.032753, 56.799869], [-5.032847, 56.799767], [-5.032901, 56.799756], [-5.032944, 56.799683], [-5.033106, 56.79961], [-5.033137, 56.799566], [-5.033448, 56.799447], [-5.033753, 56.799217], [-5.034171, 56.799042], [-5.034624, 56.798784], [-5.034774, 56.798768], [-5.034862, 56.798694], [-5.035116, 56.798626], [-5.035394, 56.798514], [-5.035491, 56.798428], [-5.035725, 56.798326], [-5.035764, 56.798335], [-5.035935, 56.798209], [-5.036062, 56.79819], [-5.036134, 56.798219], [-5.036142, 56.798279], [-5.036214, 56.798312], [-5.036303, 56.798535], [-5.036292, 56.798679], [-5.03639, 56.798925], [-5.036338, 56.799089], [-5.036512, 56.799424], [-5.036526, 56.799568], [-5.03643, 56.799695], [-5.036441, 56.79978], [-5.03636, 56.79987], [-5.03634, 56.80009], [-5.036376, 56.800167], [-5.036273, 56.80058], [-5.03627, 56.801028], [-5.036063, 56.801231], [-5.035861, 56.801282], [-5.035448, 56.801331], [-5.035344, 56.801377], [-5.035321, 56.801435], [-5.035654, 56.801615], [-5.035719, 56.801765], [-5.035694, 56.801869], [-5.035534, 56.802109], [-5.035597, 56.802214], [-5.035536, 56.802448], [-5.035542, 56.802615], [-5.035524, 56.802596], [-5.035508, 56.802623], [-5.035503, 56.8026], [-5.035569, 56.802662], [-5.035571, 56.802722], [-5.035527, 56.802717], [-5.035554, 56.802724], [-5.035491, 56.802843], [-5.035531, 56.802897], [-5.035524, 56.803025], [-5.035587, 56.803132], [-5.035539, 56.803464], [-5.03567, 56.803627], [-5.035665, 56.803795], [-5.035738, 56.80397], [-5.035714, 56.804017], [-5.035815, 56.804227], [-5.035881, 56.804287], [-5.035918, 56.804497], [-5.036074, 56.804778], [-5.036069, 56.804911], [-5.036114, 56.80499], [-5.03605, 56.805127], [-5.036126, 56.805178], [-5.036099, 56.80526], [-5.036226, 56.805516], [-5.036313, 56.80587], [-5.036295, 56.806008], [-5.036324, 56.805978], [-5.03633, 56.806042], [-5.036275, 56.806205], [-5.0363, 56.806271], [-5.036243, 56.806412], [-5.036264, 56.806525], [-5.036216, 56.8066], [-5.036376, 56.806925], [-5.036272, 56.806984], [-5.036214, 56.807074], [-5.036329, 56.807402], [-5.036243, 56.807472], [-5.036272, 56.807662], [-5.036213, 56.807734], [-5.036201, 56.807825], [-5.036311, 56.808076], [-5.036246, 56.808194], [-5.036088, 56.808325], [-5.035955, 56.808497], [-5.035998, 56.808627], [-5.036076, 56.808713], [-5.036088, 56.808921], [-5.036335, 56.809353], [-5.036226, 56.80958], [-5.036213, 56.809553], [-5.036162, 56.809609], [-5.035871, 56.809987], [-5.035894, 56.810054], [-5.035725, 56.810313], [-5.035676, 56.810355], [-5.035579, 56.810368], [-5.035526, 56.81044], [-5.035427, 56.810468], [-5.035377, 56.810527], [-5.03516, 56.810648], [-5.035142, 56.8108], [-5.034963, 56.810901], [-5.034895, 56.81105], [-5.034823, 56.811073], [-5.034784, 56.811153], [-5.034596, 56.81125], [-5.034384, 56.811265], [-5.03427, 56.811321], [-5.034225, 56.811393], [-5.03401, 56.811515], [-5.033967, 56.811513], [-5.033864, 56.811615], [-5.033864, 56.811654], [-5.033705, 56.811762], [-5.033554, 56.811961], [-5.033352, 56.812096], [-5.033023, 56.812225], [-5.032893, 56.812344], [-5.032831, 56.812363], [-5.03271, 56.812522], [-5.032601, 56.812578], [-5.032505, 56.812713], [-5.032291, 56.812784], [-5.032271, 56.812813], [-5.032152, 56.812826], [-5.031975, 56.812943], [-5.031635, 56.813041], [-5.031544, 56.813092], [-5.031537, 56.813137], [-5.031353, 56.813217], [-5.031223, 56.813332], [-5.031013, 56.813352], [-5.030931, 56.813335], [-5.03081, 56.813436], [-5.030563, 56.813453], [-5.030466, 56.813429], [-5.030352, 56.813448], [-5.030118, 56.813435], [-5.030017, 56.813484], [-5.02968, 56.813507], [-5.029618, 56.81348], [-5.029485, 56.813526], [-5.02941, 56.813521], [-5.029174, 56.813574], [-5.029088, 56.813555], [-5.029054, 56.813572], [-5.028992, 56.813537], [-5.028728, 56.813531], [-5.028363, 56.813462], [-5.028315, 56.813347], [-5.028092, 56.813262], [-5.028036, 56.813213], [-5.027862, 56.813171], [-5.027674, 56.813027], [-5.027578, 56.813002], [-5.027468, 56.812888], [-5.027146, 56.812869], [-5.026979, 56.812756], [-5.026753, 56.812754], [-5.026659, 56.812729], [-5.026573, 56.812685], [-5.026538, 56.812615], [-5.026492, 56.812626], [-5.02638, 56.812534], [-5.026204, 56.812532], [-5.026127, 56.81247], [-5.026064, 56.812467], [-5.025989, 56.812379], [-5.025899, 56.812383], [-5.025477, 56.812092], [-5.025309, 56.812089], [-5.025143, 56.812048], [-5.024998, 56.812068], [-5.024765, 56.81206], [-5.024558, 56.812012], [-5.024262, 56.811886], [-5.024154, 56.811754], [-5.024058, 56.811752], [-5.02378, 56.811685], [-5.02367, 56.81161], [-5.023597, 56.811605], [-5.023412, 56.811509], [-5.023266, 56.811501], [-5.023226, 56.81146], [-5.022999, 56.811427], [-5.022935, 56.811395], [-5.022773, 56.81144], [-5.022522, 56.811408], [-5.022306, 56.811348], [-5.02208, 56.811395], [-5.022023, 56.811369], [-5.021738, 56.811371], [-5.02151, 56.811413], [-5.021445, 56.811379], [-5.021406, 56.811394], [-5.021348, 56.811377], [-5.021177, 56.811414], [-5.021077, 56.811407], [-5.020858, 56.81147], [-5.02053, 56.811446], [-5.020445, 56.811421], [-5.020326, 56.811439], [-5.020153, 56.811384], [-5.019989, 56.811372], [-5.019904, 56.811391], [-5.019642, 56.811305], [-5.019583, 56.811312], [-5.019545, 56.811288], [-5.01932, 56.811261], [-5.019302, 56.811278], [-5.019087, 56.811265], [-5.019014, 56.811239], [-5.018579, 56.811268], [-5.018419, 56.811217], [-5.018067, 56.811216], [-5.017994, 56.811171], [-5.017956, 56.811189], [-5.017864, 56.811162], [-5.017646, 56.811172], [-5.017573, 56.811139], [-5.017369, 56.811131], [-5.017292, 56.811154], [-5.017024, 56.81114], [-5.016774, 56.811048], [-5.01664, 56.811034]]}, "properties": {"name": "1788936792.Ben_Nevis_by_the_Càrn_Mòr_Dearg_Arête", "cmt": "2026-09-09", "tstamp": 1788912000, "desc": "DownHill", "src": "-5.0452/56.794409/-4.986596/56.842191", "bbox": "-5.0452/56.794409/-4.986596/56.842191"}}, {"type": "Feature", "bbox": [-5.0452, 56.794409, -4.986596, 56.842191], "geometry": {"type": "LineString", "coordinates": [[-5.016628, 56.81103], [-5.016414, 56.810948], [-5.01628, 56.810942], [-5.016104, 56.810793], [-5.016041, 56.810796], [-5.015911, 56.81074], [-5.015707, 56.810706], [-5.015602, 56.810644], [-5.015504, 56.81066], [-5.015316, 56.810615], [-5.015136, 56.810613], [-5.015038, 56.810553], [-5.01498, 56.81057], [-5.014874, 56.810539], [-5.014691, 56.810545], [-5.014351, 56.81045], [-5.01407, 56.810437], [-5.013785, 56.810338], [-5.013659, 56.810353], [-5.013568, 56.810331], [-5.012945, 56.810077], [-5.012929, 56.810035], [-5.01285, 56.810014], [-5.012839, 56.809942], [-5.012759, 56.809869], [-5.012318, 56.809743], [-5.01222, 56.809655], [-5.012126, 56.809645], [-5.011967, 56.809563], [-5.011904, 56.80957], [-5.011856, 56.809534], [-5.011754, 56.809518], [-5.01143, 56.80955], [-5.011168, 56.809525], [-5.011044, 56.809479], [-5.010972, 56.809491], [-5.010844, 56.809457], [-5.010665, 56.809371], [-5.010453, 56.809317], [-5.010282, 56.809217], [-5.010202, 56.809201], [-5.010143, 56.809125], [-5.010077, 56.80911], [-5.009883, 56.808966], [-5.009719, 56.80892], [-5.009696, 56.808891], [-5.009584, 56.808889], [-5.009488, 56.808858], [-5.009492, 56.808841], [-5.009277, 56.808761], [-5.009159, 56.808622], [-5.009095, 56.808641], [-5.008976, 56.808516], [-5.008866, 56.808469], [-5.008856, 56.80844], [-5.008806, 56.808446], [-5.008872, 56.808426], [-5.008881, 56.808395], [-5.008761, 56.808322], [-5.008613, 56.808307], [-5.008608, 56.808276], [-5.008527, 56.808242], [-5.008408, 56.808238], [-5.008242, 56.808118], [-5.008268, 56.808082], [-5.008212, 56.808017], [-5.008006, 56.80787], [-5.007992, 56.807813], [-5.007929, 56.807792], [-5.007924, 56.807655], [-5.00784, 56.807651], [-5.007694, 56.807519], [-5.007605, 56.80752], [-5.007528, 56.807457], [-5.007077, 56.807365], [-5.007021, 56.807313], [-5.006924, 56.807281], [-5.006896, 56.807297], [-5.006757, 56.807238], [-5.006462, 56.807222], [-5.00617, 56.807171], [-5.006062, 56.807183], [-5.0058, 56.807092], [-5.005765, 56.807053], [-5.005509, 56.806952], [-5.005394, 56.806837], [-5.005441, 56.806818], [-5.005336, 56.806827], [-5.005206, 56.806787], [-5.004963, 56.806633], [-5.00478, 56.806581], [-5.004718, 56.80645], [-5.004577, 56.806448], [-5.004521, 56.806418], [-5.004476, 56.806381], [-5.00452, 56.806339], [-5.004455, 56.806239], [-5.004542, 56.806226], [-5.004485, 56.806225], [-5.00434, 56.806066], [-5.004263, 56.806047], [-5.004223, 56.806077], [-5.004145, 56.806067], [-5.003967, 56.805942], [-5.003855, 56.805948], [-5.00379, 56.805878], [-5.003718, 56.805865], [-5.003656, 56.805757], [-5.003498, 56.805645], [-5.003494, 56.805605], [-5.003429, 56.805586], [-5.003308, 56.805305], [-5.003206, 56.805314], [-5.003026, 56.805436], [-5.003146, 56.805488], [-5.003194, 56.805479], [-5.003147, 56.805479], [-5.003156, 56.805537], [-5.003203, 56.805458], [-5.003198, 56.805489], [-5.003192, 56.805456], [-5.003126, 56.805476], [-5.003157, 56.8055], [-5.00305, 56.805443], [-5.002977, 56.805433], [-5.002984, 56.805453], [-5.002975, 56.805424], [-5.002999, 56.805462], [-5.002974, 56.805438], [-5.002912, 56.80546], [-5.00281, 56.805441]]}, "properties": {"name": "1788936792.Ben_Nevis_by_the_Càrn_Mòr_Dearg_Arête", "cmt": "2026-09-09", "tstamp": 1788912000, "desc": "UpHill", "src": "-5.0452/56.794409/-4.986596/56.842191", "bbox": "-5.0452/56.794409/-4.986596/56.842191"}}, {"type": "Feature", "bbox": [-5.0452, 56.794409, -4.986596, 56.842191], "geometry": {"type": "LineString", "coordinates": [[-5.002789, 56.805448], [-5.002819, 56.805437], [-5.002777, 56.805463], [-5.002793, 56.805512], [-5.00268, 56.805609], [-5.002718, 56.805866], [-5.002641, 56.805857], [-5.002683, 56.805839], [-5.00271, 56.805852], [-5.002724, 56.805906], [-5.002838, 56.805934], [-5.002871, 56.806003], [-5.003039, 56.806043], [-5.003154, 56.806106], [-5.003418, 56.806042], [-5.003586, 56.806068], [-5.003561, 56.806116], [-5.00369, 56.806238], [-5.003664, 56.806312], [-5.003733, 56.806399], [-5.003698, 56.806455], [-5.003775, 56.806477], [-5.003809, 56.806532], [-5.004128, 56.806703], [-5.00419, 56.806709], [-5.004174, 56.806722], [-5.004362, 56.806725], [-5.004464, 56.806789], [-5.004546, 56.806741], [-5.004642, 56.806745], [-5.004689, 56.806771], [-5.004675, 56.806827], [-5.004729, 56.806867], [-5.004762, 56.806826], [-5.004803, 56.806847], [-5.004827, 56.806967], [-5.005003, 56.807122], [-5.005036, 56.807117], [-5.005001, 56.807185], [-5.005124, 56.807298], [-5.005259, 56.807602], [-5.005431, 56.807671], [-5.005433, 56.807757], [-5.005553, 56.807836], [-5.005535, 56.807876], [-5.005809, 56.808008], [-5.005955, 56.808181], [-5.006086, 56.808218], [-5.00606, 56.808211], [-5.006103, 56.808199], [-5.006081, 56.808225], [-5.006138, 56.808253], [-5.00613, 56.80827], [-5.0061, 56.80826], [-5.006138, 56.808323], [-5.0063, 56.808367], [-5.006423, 56.808532], [-5.006579, 56.808628], [-5.006689, 56.808655], [-5.006728, 56.808731], [-5.006781, 56.808757], [-5.006799, 56.808854], [-5.006623, 56.808911], [-5.006615, 56.809], [-5.006754, 56.809133], [-5.006737, 56.809189], [-5.007019, 56.809218], [-5.007164, 56.809267], [-5.007255, 56.809348], [-5.007361, 56.809388], [-5.00736, 56.809461], [-5.007411, 56.809477], [-5.007429, 56.809519], [-5.007426, 56.80974], [-5.007467, 56.809775], [-5.007752, 56.809861], [-5.007909, 56.809981], [-5.008132, 56.809974], [-5.008159, 56.810074], [-5.008211, 56.810107], [-5.008322, 56.810056], [-5.008455, 56.810092], [-5.008774, 56.810084], [-5.00888, 56.810108], [-5.008883, 56.810177], [-5.008966, 56.810267], [-5.00912, 56.810294], [-5.009196, 56.810355], [-5.009347, 56.810379], [-5.009371, 56.810408], [-5.009548, 56.81043], [-5.009684, 56.810703], [-5.009928, 56.810697], [-5.010026, 56.810765], [-5.010041, 56.810839], [-5.010073, 56.810798], [-5.010148, 56.810856], [-5.010437, 56.810892], [-5.010487, 56.810926], [-5.010509, 56.811014], [-5.010613, 56.811033], [-5.010997, 56.811247], [-5.011111, 56.811236], [-5.011429, 56.811338], [-5.011503, 56.811331], [-5.011841, 56.811512], [-5.01195, 56.811619], [-5.012145, 56.811711], [-5.012157, 56.811755], [-5.012167, 56.811727], [-5.012162, 56.811749], [-5.012232, 56.811772], [-5.012307, 56.811869], [-5.012548, 56.811886], [-5.012723, 56.811927], [-5.012775, 56.811966], [-5.013139, 56.812049], [-5.013177, 56.812103], [-5.013336, 56.812151], [-5.013549, 56.81232], [-5.013894, 56.812402], [-5.014028, 56.81249], [-5.014175, 56.812514], [-5.014273, 56.812499], [-5.014347, 56.812565], [-5.014671, 56.812576], [-5.014968, 56.812782], [-5.015365, 56.812936], [-5.015597, 56.812993], [-5.015628, 56.813026], [-5.015831, 56.813096], [-5.016131, 56.813348], [-5.016189, 56.813448], [-5.016186, 56.813559], [-5.016255, 56.813624], [-5.01625, 56.813729], [-5.016387, 56.813777], [-5.01643, 56.813821], [-5.016478, 56.813891], [-5.016467, 56.813952], [-5.016682, 56.814206], [-5.01677, 56.814415], [-5.016897, 56.814541], [-5.017023, 56.814592], [-5.017225, 56.814596], [-5.017245, 56.814652], [-5.017505, 56.814767], [-5.01763, 56.814796], [-5.017706, 56.814865], [-5.017836, 56.814845], [-5.017878, 56.814866], [-5.018233, 56.81489], [-5.018508, 56.815025], [-5.018546, 56.815058], [-5.018549, 56.815189], [-5.018667, 56.815251], [-5.018725, 56.815262], [-5.018903, 56.815227], [-5.019016, 56.815251], [-5.019291, 56.815422], [-5.019606, 56.815475], [-5.01972, 56.815636], [-5.019945, 56.815658], [-5.020157, 56.815737], [-5.020292, 56.815758], [-5.020454, 56.815858], [-5.02044, 56.815841], [-5.020507, 56.815845], [-5.020729, 56.815914], [-5.020952, 56.816003], [-5.021058, 56.816082], [-5.02123, 56.81614], [-5.021324, 56.816523], [-5.021598, 56.816869], [-5.021657, 56.817034], [-5.021727, 56.817063], [-5.021889, 56.817271], [-5.021862, 56.817369], [-5.022169, 56.817593], [-5.022573, 56.817722], [-5.022644, 56.81781], [-5.022768, 56.817833], [-5.022909, 56.817915], [-5.022995, 56.818014], [-5.02301, 56.818107], [-5.023119, 56.818212], [-5.023395, 56.818365], [-5.023721, 56.818598], [-5.023887, 56.818858], [-5.02428, 56.818996], [-5.024451, 56.819027], [-5.024507, 56.81912], [-5.024568, 56.819131], [-5.024745, 56.819099], [-5.024778, 56.819119], [-5.024861, 56.81918], [-5.024888, 56.819274], [-5.024995, 56.819328], [-5.025109, 56.819497], [-5.025119, 56.819671], [-5.025247, 56.819874], [-5.025458, 56.81994], [-5.025654, 56.820055], [-5.025813, 56.820195], [-5.02583, 56.820287], [-5.025982, 56.82033], [-5.026108, 56.820429], [-5.026291, 56.820423], [-5.026344, 56.820453], [-5.02642, 56.820608], [-5.026521, 56.820689], [-5.026442, 56.82072], [-5.026529, 56.820865], [-5.026487, 56.820968], [-5.026361, 56.821103], [-5.026468, 56.821151], [-5.026435, 56.821226], [-5.026534, 56.821307], [-5.026866, 56.821458], [-5.026991, 56.821591], [-5.027213, 56.821722], [-5.027213, 56.82177], [-5.027304, 56.821826], [-5.027265, 56.82188], [-5.027308, 56.821972], [-5.027262, 56.822088], [-5.02739, 56.822139], [-5.027704, 56.822197], [-5.027997, 56.822366], [-5.027954, 56.822473], [-5.028044, 56.822606], [-5.028266, 56.822647], [-5.028372, 56.822777], [-5.028359, 56.822839], [-5.028613, 56.823042], [-5.02867, 56.823169], [-5.02863, 56.823251], [-5.028698, 56.823413], [-5.028894, 56.82344], [-5.029083, 56.823638], [-5.029274, 56.823663], [-5.029569, 56.823796], [-5.029668, 56.823994], [-5.029635, 56.824054], [-5.029701, 56.824102], [-5.029771, 56.824282], [-5.029949, 56.824348], [-5.029931, 56.824433], [-5.030296, 56.82454], [-5.030334, 56.824593], [-5.030482, 56.824651], [-5.030538, 56.824645], [-5.030928, 56.824815], [-5.031008, 56.824888], [-5.031139, 56.824902], [-5.031475, 56.825093], [-5.031683, 56.825308], [-5.031894, 56.825377], [-5.032039, 56.825472], [-5.032182, 56.825617], [-5.03221, 56.825726], [-5.032324, 56.825858], [-5.032333, 56.825937], [-5.032486, 56.826004], [-5.032507, 56.826057], [-5.032702, 56.826178], [-5.032847, 56.826219], [-5.032972, 56.826224], [-5.033475, 56.826496], [-5.033699, 56.826551], [-5.033799, 56.82668], [-5.034089, 56.826805], [-5.034318, 56.827144], [-5.034324, 56.827229], [-5.034277, 56.827297], [-5.034379, 56.827421], [-5.034294, 56.827601], [-5.034553, 56.827752], [-5.034729, 56.827811], [-5.034787, 56.827863], [-5.034891, 56.828015], [-5.034848, 56.828108], [-5.034876, 56.828146], [-5.035496, 56.828386], [-5.035685, 56.828524], [-5.035822, 56.828582], [-5.036027, 56.828936], [-5.036148, 56.828984], [-5.036161, 56.829041], [-5.036332, 56.829021], [-5.036553, 56.829056], [-5.03663, 56.829091], [-5.036853, 56.82923], [-5.036968, 56.829521], [-5.037245, 56.829591], [-5.037325, 56.829637], [-5.037387, 56.829714], [-5.037384, 56.829792], [-5.037306, 56.829924], [-5.037159, 56.83006], [-5.03717, 56.830102], [-5.03723, 56.830139], [-5.037809, 56.830203], [-5.037968, 56.830292], [-5.038045, 56.830559], [-5.038204, 56.830789], [-5.038242, 56.830947], [-5.03847, 56.831228], [-5.038572, 56.831292], [-5.038619, 56.831398], [-5.038618, 56.831634], [-5.038563, 56.831792], [-5.038557, 56.831983], [-5.038529, 56.831953], [-5.038596, 56.832158], [-5.038557, 56.832245], [-5.038454, 56.832331], [-5.038438, 56.832708], [-5.038279, 56.832975], [-5.03836, 56.833088], [-5.0385, 56.833128], [-5.038581, 56.833222], [-5.038754, 56.833321], [-5.038882, 56.833353], [-5.038999, 56.833353], [-5.039164, 56.83328], [-5.039717, 56.833186], [-5.03984, 56.833227], [-5.039938, 56.833364], [-5.040022, 56.833402], [-5.040413, 56.833349], [-5.040912, 56.833351], [-5.041322, 56.833293], [-5.041576, 56.833304], [-5.04206, 56.833529], [-5.042204, 56.833739], [-5.042157, 56.834076], [-5.042204, 56.83417], [-5.042184, 56.834322], [-5.042234, 56.834468], [-5.042185, 56.834496], [-5.042207, 56.834575], [-5.04212, 56.834642], [-5.042131, 56.834673], [-5.04195, 56.834913], [-5.041942, 56.834997], [-5.041789, 56.835189], [-5.041848, 56.835244], [-5.041954, 56.835241], [-5.042142, 56.835291], [-5.042107, 56.835352], [-5.041768, 56.835541], [-5.041555, 56.835707], [-5.041465, 56.835892], [-5.041386, 56.835955], [-5.041471, 56.835995], [-5.041471, 56.83602], [-5.041437, 56.835984], [-5.041536, 56.835864], [-5.041826, 56.835867], [-5.04237, 56.835721], [-5.042457, 56.835676], [-5.042645, 56.83552], [-5.042778, 56.835465], [-5.042806, 56.83541], [-5.042896, 56.835379], [-5.043034, 56.835173], [-5.043151, 56.835077], [-5.043483, 56.834932], [-5.043662, 56.834941], [-5.043923, 56.834819], [-5.043983, 56.83482], [-5.044166, 56.83475], [-5.044468, 56.834709], [-5.044595, 56.834575], [-5.044747, 56.834595], [-5.044831, 56.8348], [-5.044909, 56.834877], [-5.045192, 56.834956], [-5.045141, 56.835126], [-5.0452, 56.835266], [-5.045044, 56.835555], [-5.044889, 56.835667], [-5.04494, 56.835637], [-5.044932, 56.835596], [-5.044948, 56.835614], [-5.044949, 56.835595], [-5.044994, 56.835596], [-5.044908, 56.835591], [-5.044911, 56.835616], [-5.044698, 56.835706], [-5.044601, 56.835802], [-5.044656, 56.836044], [-5.044743, 56.836105], [-5.0447, 56.836208], [-5.044578, 56.836283], [-5.04451, 56.836422], [-5.044283, 56.836551], [-5.044104, 56.836605], [-5.043905, 56.836586], [-5.043706, 56.836631], [-5.043447, 56.836935], [-5.043427, 56.837074], [-5.04351, 56.837261], [-5.043151, 56.837504], [-5.042589, 56.837641], [-5.042516, 56.837738], [-5.042433, 56.837765], [-5.042331, 56.838117], [-5.042289, 56.838111], [-5.042318, 56.838118], [-5.042201, 56.838281], [-5.042185, 56.838452], [-5.04182, 56.83882], [-5.041709, 56.838984], [-5.041734, 56.839127], [-5.041675, 56.839321], [-5.041571, 56.839434], [-5.041604, 56.839502], [-5.041539, 56.839666], [-5.041564, 56.839706], [-5.041507, 56.839941], [-5.041395, 56.84007], [-5.041343, 56.840234], [-5.041201, 56.840376], [-5.041158, 56.840544], [-5.041199, 56.840639], [-5.0413, 56.840692], [-5.04151, 56.840735], [-5.041678, 56.840824], [-5.04201, 56.841105], [-5.04218, 56.841191], [-5.042298, 56.841312], [-5.042506, 56.841427]]}, "properties": {"name": "1788936792.Ben_Nevis_by_the_Càrn_Mòr_Dearg_Arête", "cmt": "2026-09-09", "tstamp": 1788912000, "desc": "DownHill", "src": "-5.0452/56.794409/-4.986596/56.842191", "bbox": "-5.0452/56.794409/-4.986596/56.842191"}}, {"type": "Feature", "bbox": [-5.0452, 56.794409, -4.986596, 56.842191], "geometry": {"type": "LineString", "coordinates": [[-5.042529, 56.841435], [-5.042817, 56.841609], [-5.042975, 56.841742], [-5.042999, 56.84178], [-5.042973, 56.841771], [-5.043071, 56.841784], [-5.042928, 56.841929], [-5.042834, 56.841944], [-5.042977, 56.84204], [-5.042985, 56.842191], [-5.043036, 56.842158]]}, "properties": {"name": "1788936792.Ben_Nevis_by_the_Càrn_Mòr_Dearg_Arête", "cmt": "2026-09-09", "tstamp": 1788912000, "desc": "UpHill", "src": "-5.0452/56.794409/-4.986596/56.842191", "bbox": "-5.0452/56.794409/-4.986596/56.842191"}}]}