{"type": "FeatureCollection", "name": "TrackSet", "crs": {"type": "name", "properties": {"name": "urn:ogc:def:crs:OGC:1.3:CRS84"}}, "bbox": [-4.473245, 56.341234, -4.462746, 56.349924], "features": [{"type": "Feature", "bbox": [-4.473245, 56.341234, -4.462746, 56.349924], "geometry": {"type": "LineString", "coordinates": [[-4.46957, 56.345091], [-4.469408, 56.344948], [-4.46957, 56.345091], [-4.469505, 56.345168], [-4.469469, 56.345167], [-4.469604, 56.345134], [-4.469546, 56.345124], [-4.469526, 56.345186], [-4.469373, 56.345269], [-4.469199, 56.345287], [-4.468979, 56.345422], [-4.469006, 56.345503], [-4.469113, 56.345583], [-4.46928, 56.345818], [-4.469271, 56.345994], [-4.469164, 56.346319], [-4.469419, 56.346645], [-4.469697, 56.346809], [-4.469939, 56.34702], [-4.469985, 56.347019], [-4.469964, 56.347039], [-4.470051, 56.347093], [-4.470076, 56.347178], [-4.470081, 56.347242], [-4.469924, 56.347465], [-4.469902, 56.347614], [-4.469904, 56.34781], [-4.469984, 56.348065], [-4.469918, 56.348232], [-4.46996, 56.348288], [-4.469903, 56.348433], [-4.469909, 56.349252], [-4.469837, 56.349545], [-4.469671, 56.349924], [-4.469735, 56.349717], [-4.469714, 56.349621], [-4.469761, 56.349585], [-4.469759, 56.349509], [-4.469794, 56.349508], [-4.469802, 56.349352], [-4.469844, 56.349335], [-4.469826, 56.34936], [-4.469857, 56.349364], [-4.469869, 56.349313], [-4.469868, 56.348357], [-4.469948, 56.348158], [-4.469941, 56.347962], [-4.469864, 56.347743], [-4.469877, 56.347507], [-4.469988, 56.347306], [-4.469975, 56.347092], [-4.469693, 56.346804], [-4.469331, 56.346553], [-4.469282, 56.346442], [-4.469144, 56.346299], [-4.469147, 56.346179], [-4.469285, 56.345868], [-4.469212, 56.345696], [-4.469018, 56.345506], [-4.468879, 56.345265], [-4.468779, 56.345208], [-4.468566, 56.345161], [-4.468106, 56.344978], [-4.467991, 56.344979], [-4.467993, 56.344956], [-4.467905, 56.344942], [-4.467836, 56.344886], [-4.467471, 56.344879], [-4.467336, 56.3449], [-4.467095, 56.344871], [-4.466909, 56.344893], [-4.466495, 56.344828], [-4.466107, 56.344877], [-4.465991, 56.344915], [-4.46581, 56.344888], [-4.465711, 56.344806], [-4.465736, 56.344791], [-4.465619, 56.344742], [-4.46539, 56.34447], [-4.465329, 56.344341], [-4.46537, 56.344103], [-4.465232, 56.344054], [-4.464991, 56.343841], [-4.464951, 56.343763], [-4.464755, 56.343608], [-4.464778, 56.343623], [-4.464774, 56.343589], [-4.46462, 56.343506], [-4.464563, 56.343407], [-4.464487, 56.343401], [-4.464429, 56.343328], [-4.464369, 56.343323], [-4.464412, 56.343295], [-4.464302, 56.343279], [-4.464215, 56.343192], [-4.463946, 56.343103], [-4.463641, 56.343192], [-4.463467, 56.343302], [-4.463143, 56.343342], [-4.463037, 56.343331], [-4.462896, 56.343365], [-4.462753, 56.343335], [-4.462746, 56.343309], [-4.463005, 56.343311], [-4.462962, 56.343261], [-4.462988, 56.343121], [-4.463073, 56.342946], [-4.463402, 56.342939], [-4.463561, 56.343019], [-4.463812, 56.34309], [-4.464006, 56.343054], [-4.464077, 56.343075], [-4.464161, 56.343149], [-4.46418, 56.343228], [-4.464312, 56.343325], [-4.464472, 56.343394], [-4.464479, 56.343473], [-4.464659, 56.343521], [-4.464834, 56.343627], [-4.465274, 56.344064], [-4.465354, 56.344054], [-4.465429, 56.343953], [-4.46548, 56.343587], [-4.465419, 56.343395], [-4.465399, 56.34307], [-4.465448, 56.342752], [-4.465406, 56.342374], [-4.465467, 56.342127], [-4.465362, 56.341974], [-4.46544, 56.341993], [-4.465394, 56.341908], [-4.46559, 56.341851], [-4.465559, 56.341865], [-4.465592, 56.341916], [-4.465802, 56.341866], [-4.465842, 56.341752], [-4.465956, 56.341673], [-4.465942, 56.341656], [-4.465952, 56.341672], [-4.46583, 56.341655], [-4.465827, 56.341616], [-4.465755, 56.341614], [-4.465645, 56.341514], [-4.465754, 56.341376], [-4.465795, 56.34126], [-4.46588, 56.341234], [-4.465897, 56.341251], [-4.465803, 56.341292], [-4.465516, 56.341327], [-4.465353, 56.341428], [-4.465282, 56.341431], [-4.465225, 56.341531], [-4.465232, 56.341636], [-4.465319, 56.341738], [-4.46529, 56.341754], [-4.465459, 56.341994], [-4.465462, 56.34223], [-4.465409, 56.342298], [-4.465475, 56.342485], [-4.465429, 56.343113], [-4.46552, 56.343563], [-4.465475, 56.343939], [-4.465432, 56.343986], [-4.465454, 56.344039], [-4.465345, 56.344294], [-4.465559, 56.344667], [-4.465675, 56.34477], [-4.465753, 56.344782], [-4.465729, 56.344797], [-4.46585, 56.344846], [-4.465993, 56.344865], [-4.46616, 56.344806], [-4.466153, 56.344777], [-4.466249, 56.344789], [-4.466454, 56.344758], [-4.466877, 56.344831], [-4.467222, 56.344857], [-4.46797, 56.344845], [-4.469347, 56.344385], [-4.469655, 56.344343], [-4.469837, 56.344283], [-4.469917, 56.344287], [-4.470087, 56.344245], [-4.470526, 56.344056], [-4.470925, 56.343935], [-4.47122, 56.34389], [-4.471406, 56.343917], [-4.471682, 56.343904], [-4.472018, 56.343836], [-4.472558, 56.343677], [-4.473245, 56.343533], [-4.472839, 56.343617], [-4.471854, 56.343879], [-4.471526, 56.343925], [-4.471112, 56.343924], [-4.470858, 56.343959], [-4.470056, 56.344295], [-4.469852, 56.34434], [-4.469652, 56.344354], [-4.46961, 56.344394], [-4.469643, 56.344393], [-4.469698, 56.34447], [-4.469686, 56.34454], [-4.469371, 56.344883], [-4.469503, 56.344963], [-4.469475, 56.345012], [-4.469501, 56.3451], [-4.469594, 56.345129], [-4.46945, 56.34519], [-4.469311, 56.345187], [-4.469241, 56.345262], [-4.469134, 56.345084], [-4.469045, 56.345113], [-4.469082, 56.345112], [-4.469119, 56.345151], [-4.469092, 56.345122], [-4.469016, 56.345213], [-4.469112, 56.345308], [-4.469566, 56.345267], [-4.469483, 56.345259], [-4.46948, 56.345316], [-4.469541, 56.345272], [-4.469426, 56.345358], [-4.46949, 56.345338], [-4.469426, 56.345358], [-4.469452, 56.345298], [-4.46939, 56.345319], [-4.469452, 56.345298], [-4.469464, 56.345329], [-4.469452, 56.345298], [-4.469511, 56.345335], [-4.469471, 56.345349], [-4.469511, 56.345335], [-4.469507, 56.345354], [-4.469511, 56.345335], [-4.469432, 56.345338], [-4.469527, 56.34533], [-4.469402, 56.345369], [-4.469441, 56.345362], [-4.469481, 56.345282]]}, "properties": {"name": "1788706883.Loch_Doine", "cmt": "2026-09-06", "tstamp": 1788652800, "desc": "---", "src": "-4.473245/56.341234/-4.462746/56.349924", "bbox": "-4.473245/56.341234/-4.462746/56.349924"}}]}