{"type": "FeatureCollection", "name": "TrackSet", "crs": {"type": "name", "properties": {"name": "urn:ogc:def:crs:OGC:1.3:CRS84"}}, "bbox": [-2.722193, 56.04677, -2.710112, 56.060507], "features": [{"type": "Feature", "bbox": [-2.722193, 56.04677, -2.710112, 56.060507], "geometry": {"type": "LineString", "coordinates": [[-2.719103, 56.049074], [-2.719044, 56.049091], [-2.719103, 56.049074], [-2.719128, 56.049017], [-2.719037, 56.048904], [-2.71893, 56.048858], [-2.718871, 56.048757], [-2.718893, 56.048544], [-2.719069, 56.048272], [-2.719173, 56.047933], [-2.719163, 56.047785], [-2.719207, 56.047727], [-2.719082, 56.04747], [-2.719064, 56.047353], [-2.718992, 56.047251], [-2.718893, 56.047217], [-2.718758, 56.047115], [-2.718718, 56.047059], [-2.718787, 56.047045], [-2.718771, 56.047076], [-2.718704, 56.047062], [-2.718449, 56.046882], [-2.718172, 56.046794], [-2.717878, 56.046852], [-2.717789, 56.046831], [-2.717626, 56.046878], [-2.717335, 56.046906], [-2.717126, 56.046901], [-2.716437, 56.04704], [-2.716282, 56.04702], [-2.716346, 56.047078], [-2.716273, 56.047092], [-2.716305, 56.047142], [-2.716206, 56.047178], [-2.716152, 56.047252], [-2.716111, 56.047258], [-2.716166, 56.047274], [-2.716119, 56.047256], [-2.716101, 56.04733], [-2.716241, 56.047448], [-2.716233, 56.04753], [-2.7162, 56.047576], [-2.716033, 56.047664], [-2.716047, 56.047697], [-2.715993, 56.047711], [-2.715985, 56.047757], [-2.715921, 56.04779], [-2.715948, 56.047834], [-2.715908, 56.047874], [-2.715922, 56.048069], [-2.716018, 56.04818], [-2.715822, 56.048234], [-2.715694, 56.048221], [-2.715708, 56.048252], [-2.71565, 56.048312], [-2.715492, 56.048347], [-2.715406, 56.048429], [-2.715411, 56.048571], [-2.715283, 56.048715], [-2.715127, 56.048772], [-2.714939, 56.048905], [-2.714855, 56.048894], [-2.714767, 56.048938], [-2.714625, 56.048917], [-2.714586, 56.048897], [-2.714606, 56.048873], [-2.714541, 56.048867], [-2.714419, 56.048797], [-2.714325, 56.048812], [-2.714247, 56.048877], [-2.714143, 56.048887], [-2.714109, 56.04884], [-2.714007, 56.048829], [-2.713873, 56.048762], [-2.713731, 56.048828], [-2.713764, 56.048779], [-2.713788, 56.048805], [-2.71376, 56.048803], [-2.713788, 56.048758], [-2.713757, 56.048814], [-2.713793, 56.048771], [-2.713705, 56.048808], [-2.713747, 56.048809], [-2.713731, 56.048787], [-2.713759, 56.048814], [-2.713855, 56.048826], [-2.713839, 56.04887], [-2.713641, 56.048916], [-2.713599, 56.048884], [-2.713506, 56.048892], [-2.71325, 56.048949]]}, "properties": {"name": "1788598350.Berwick_Law_and_town", "cmt": "2026-09-05", "tstamp": 1788566400, "desc": "UpHill", "src": "-2.722193/56.04677/-2.710112/56.060507", "bbox": "-2.722193/56.04677/-2.710112/56.060507"}}, {"type": "Feature", "bbox": [-2.722193, 56.04677, -2.710112, 56.060507], "geometry": {"type": "LineString", "coordinates": [[-2.713236, 56.048955], [-2.713324, 56.048971], [-2.713269, 56.048939], [-2.71318, 56.048973], [-2.71319, 56.048943], [-2.713214, 56.048958], [-2.713103, 56.049005], [-2.71307, 56.048987], [-2.712891, 56.048999], [-2.712803, 56.049068], [-2.712731, 56.049055], [-2.712718, 56.049108], [-2.712518, 56.049026], [-2.712468, 56.049089], [-2.71248, 56.049149], [-2.712243, 56.049136], [-2.712208, 56.04911], [-2.712237, 56.049097], [-2.712191, 56.049115], [-2.712176, 56.049055], [-2.712184, 56.049079], [-2.712086, 56.049076], [-2.711949, 56.049131], [-2.711664, 56.049144], [-2.711491, 56.049201], [-2.711141, 56.049256], [-2.710661, 56.049249], [-2.710322, 56.049295], [-2.710112, 56.04926], [-2.71017, 56.049214], [-2.710144, 56.049186], [-2.710365, 56.049056], [-2.710414, 56.048977], [-2.710662, 56.04878], [-2.710633, 56.048818], [-2.710733, 56.048768], [-2.710787, 56.04869], [-2.711251, 56.048334], [-2.711318, 56.04824], [-2.711374, 56.048235], [-2.711445, 56.048131], [-2.711485, 56.048116], [-2.711522, 56.04813], [-2.711717, 56.048063], [-2.711759, 56.048015], [-2.711981, 56.047904], [-2.712037, 56.047905], [-2.712145, 56.047847], [-2.712329, 56.047802], [-2.712476, 56.04767], [-2.712795, 56.047537], [-2.713256, 56.047475], [-2.713429, 56.047415], [-2.714291, 56.047282], [-2.71442, 56.047129], [-2.714756, 56.047066], [-2.715475, 56.046838], [-2.715787, 56.04677], [-2.716465, 56.046829], [-2.717118, 56.04692], [-2.717277, 56.046897], [-2.717496, 56.046904], [-2.717935, 56.046843], [-2.717999, 56.04686], [-2.718168, 56.046845], [-2.718112, 56.046815], [-2.718121, 56.046789], [-2.718181, 56.046779], [-2.718233, 56.046811], [-2.718297, 56.046807], [-2.718671, 56.047022], [-2.718868, 56.047096], [-2.719087, 56.047288], [-2.719237, 56.047558], [-2.719207, 56.047597], [-2.719241, 56.047632], [-2.719226, 56.047752], [-2.719299, 56.047848], [-2.719224, 56.047923], [-2.719225, 56.048045], [-2.718933, 56.048442], [-2.718844, 56.04863], [-2.718875, 56.048786], [-2.718969, 56.048848], [-2.71895, 56.048824], [-2.718992, 56.048839], [-2.718998, 56.048885], [-2.719111, 56.048994], [-2.719115, 56.049047], [-2.719248, 56.049136], [-2.719425, 56.049395], [-2.719408, 56.049633], [-2.719496, 56.050615], [-2.71945, 56.050894], [-2.719409, 56.050892], [-2.719345, 56.051017], [-2.719371, 56.051043], [-2.719342, 56.051189], [-2.719226, 56.051399], [-2.719172, 56.051613], [-2.719197, 56.05188], [-2.719171, 56.051897], [-2.719371, 56.052667], [-2.719334, 56.0529], [-2.719144, 56.053182], [-2.719296, 56.053392], [-2.719142, 56.053738], [-2.71916, 56.053884], [-2.719096, 56.054101], [-2.719155, 56.054228], [-2.719134, 56.05431], [-2.719293, 56.054583], [-2.719405, 56.0549], [-2.719389, 56.054952], [-2.719487, 56.055205], [-2.71946, 56.055319], [-2.719576, 56.055411], [-2.719618, 56.05552], [-2.719679, 56.05556], [-2.719663, 56.055603], [-2.71971, 56.055659], [-2.719685, 56.05577], [-2.719768, 56.055961], [-2.719734, 56.056], [-2.719637, 56.055973], [-2.719339, 56.056134], [-2.719313, 56.056175], [-2.719355, 56.056315], [-2.719287, 56.056483], [-2.718942, 56.056751], [-2.718925, 56.056794], [-2.718567, 56.05704], [-2.718175, 56.05719], [-2.717533, 56.057338], [-2.717372, 56.057417], [-2.71734, 56.057401], [-2.717271, 56.057472], [-2.71726, 56.057554], [-2.716781, 56.057645], [-2.716574, 56.057716], [-2.716528, 56.057796], [-2.716679, 56.05793], [-2.716858, 56.057988], [-2.717077, 56.058022], [-2.717132, 56.058063], [-2.717026, 56.058116], [-2.717147, 56.058474], [-2.71712, 56.058548], [-2.717158, 56.058554], [-2.717114, 56.058596], [-2.71717, 56.058669], [-2.717291, 56.058666], [-2.717622, 56.0586], [-2.717784, 56.058603], [-2.717887, 56.058634], [-2.7182, 56.058574], [-2.718411, 56.058569], [-2.718479, 56.058526], [-2.718632, 56.058524], [-2.718691, 56.0585], [-2.7186, 56.05858], [-2.718637, 56.058528], [-2.718511, 56.058524], [-2.718566, 56.058499], [-2.718692, 56.058509], [-2.718514, 56.058525], [-2.718606, 56.058515], [-2.718558, 56.058526], [-2.718532, 56.058482], [-2.718423, 56.058521], [-2.718536, 56.058527], [-2.718573, 56.058594], [-2.718561, 56.058564], [-2.718573, 56.058594], [-2.718634, 56.058604], [-2.718661, 56.058534], [-2.718843, 56.058665], [-2.718753, 56.058655], [-2.718685, 56.058573], [-2.718946, 56.058695], [-2.718844, 56.058652], [-2.718862, 56.058678], [-2.718912, 56.05867], [-2.718914, 56.058695], [-2.718733, 56.058855], [-2.718624, 56.058786], [-2.718695, 56.058559], [-2.718745, 56.058524], [-2.718744, 56.058541], [-2.718936, 56.058479], [-2.719047, 56.058493], [-2.719051, 56.058467], [-2.719222, 56.058461], [-2.71919, 56.058421], [-2.719234, 56.058399], [-2.719201, 56.058383], [-2.719313, 56.058355], [-2.719358, 56.058367], [-2.719304, 56.058343], [-2.719278, 56.058381], [-2.719304, 56.058419], [-2.719172, 56.05845], [-2.719262, 56.058481], [-2.719233, 56.058394], [-2.71905, 56.058396], [-2.719147, 56.058445], [-2.719128, 56.05837], [-2.719296, 56.058395], [-2.719264, 56.058356], [-2.719226, 56.058361], [-2.719263, 56.05832], [-2.71935, 56.058346], [-2.719284, 56.058297], [-2.719307, 56.058383], [-2.719374, 56.058448], [-2.719333, 56.058389], [-2.719366, 56.058516], [-2.7193, 56.058446], [-2.719283, 56.058467], [-2.719284, 56.058446], [-2.719353, 56.058438], [-2.719307, 56.058388], [-2.719449, 56.058386], [-2.719575, 56.058344], [-2.719684, 56.058347], [-2.719719, 56.058372], [-2.719756, 56.058354], [-2.719807, 56.058368], [-2.719842, 56.058344], [-2.720134, 56.05837], [-2.720151, 56.058277], [-2.720144, 56.058409], [-2.720055, 56.058512], [-2.720209, 56.058484], [-2.72021, 56.058499], [-2.720272, 56.058417], [-2.720246, 56.058431], [-2.720283, 56.058486], [-2.720242, 56.058503], [-2.720275, 56.05853], [-2.72036, 56.05836], [-2.720373, 56.058379], [-2.720313, 56.058378], [-2.720272, 56.058429], [-2.720197, 56.058413], [-2.72018, 56.058432], [-2.720257, 56.058467], [-2.720271, 56.058429], [-2.720361, 56.058507], [-2.720303, 56.058434], [-2.720397, 56.058735], [-2.72028, 56.05858], [-2.719911, 56.058428], [-2.719899, 56.058384], [-2.720074, 56.058426], [-2.72015, 56.058504], [-2.720195, 56.05851], [-2.720082, 56.058439], [-2.720161, 56.058552], [-2.720149, 56.058506], [-2.720217, 56.058455], [-2.720124, 56.058379], [-2.720197, 56.058382], [-2.720215, 56.058447], [-2.720139, 56.058406], [-2.720232, 56.058517], [-2.720192, 56.058448], [-2.720237, 56.058503], [-2.720273, 56.058489], [-2.720372, 56.058512], [-2.720349, 56.058392], [-2.720245, 56.058432], [-2.720147, 56.05843], [-2.720101, 56.058391], [-2.720153, 56.058363], [-2.720237, 56.058657], [-2.720161, 56.058637], [-2.720098, 56.058533], [-2.720086, 56.058406], [-2.720144, 56.058424], [-2.720145, 56.058397], [-2.720105, 56.058306], [-2.720194, 56.058335], [-2.720211, 56.058289], [-2.720364, 56.058359], [-2.720484, 56.058361], [-2.720527, 56.058332], [-2.720995, 56.058273], [-2.721396, 56.058188], [-2.721575, 56.058193], [-2.721615, 56.058159], [-2.721873, 56.058178], [-2.721958, 56.058228], [-2.722028, 56.058587], [-2.722162, 56.058814], [-2.722171, 56.058892], [-2.722132, 56.05893], [-2.722193, 56.058963], [-2.722187, 56.059019], [-2.721913, 56.059106]]}, "properties": {"name": "1788598350.Berwick_Law_and_town", "cmt": "2026-09-05", "tstamp": 1788566400, "desc": "DownHill", "src": "-2.722193/56.04677/-2.710112/56.060507", "bbox": "-2.722193/56.04677/-2.710112/56.060507"}}, {"type": "Feature", "bbox": [-2.722193, 56.04677, -2.710112, 56.060507], "geometry": {"type": "LineString", "coordinates": [[-2.721897, 56.059112], [-2.721297, 56.059173], [-2.720893, 56.059247], [-2.720379, 56.059374], [-2.720337, 56.059406], [-2.720085, 56.059442], [-2.71947, 56.059638], [-2.718976, 56.059858], [-2.718479, 56.060168], [-2.718263, 56.060233], [-2.718072, 56.060359], [-2.718008, 56.06045], [-2.718108, 56.060453], [-2.718144, 56.060496], [-2.718163, 56.060474], [-2.718015, 56.060476], [-2.717987, 56.060507], [-2.717879, 56.060426], [-2.717697, 56.060427], [-2.717791, 56.060396], [-2.717742, 56.060433], [-2.717529, 56.060464], [-2.717312, 56.060442], [-2.716744, 56.06016], [-2.715905, 56.059798], [-2.716016, 56.059577], [-2.716089, 56.058919], [-2.716186, 56.058586], [-2.716156, 56.058399], [-2.716231, 56.058277], [-2.716219, 56.05823], [-2.71628, 56.058193], [-2.716427, 56.058164], [-2.716746, 56.058185], [-2.717028, 56.058131], [-2.716975, 56.05812], [-2.7166, 56.057857], [-2.716493, 56.057713], [-2.716514, 56.057673], [-2.71667, 56.057655], [-2.716753, 56.057603], [-2.716865, 56.057577], [-2.716882, 56.057538], [-2.716808, 56.057537], [-2.716789, 56.057489], [-2.716687, 56.057497], [-2.716606, 56.057486], [-2.716588, 56.057455], [-2.716573, 56.057477], [-2.716519, 56.057458], [-2.716544, 56.057471], [-2.716518, 56.057442], [-2.716549, 56.057388], [-2.71644, 56.057188], [-2.716411, 56.057007], [-2.716191, 56.056865], [-2.715252, 56.056037], [-2.715109, 56.05582], [-2.715117, 56.055291], [-2.715019, 56.055147], [-2.715047, 56.055052], [-2.714998, 56.054858], [-2.715136, 56.054602], [-2.715065, 56.054207], [-2.715157, 56.054081], [-2.715186, 56.053872], [-2.715326, 56.053727], [-2.715268, 56.053598], [-2.715282, 56.053538], [-2.715339, 56.05353], [-2.715261, 56.053496], [-2.715265, 56.053415], [-2.715284, 56.053388], [-2.715519, 56.053317], [-2.71546, 56.053327], [-2.715449, 56.053266], [-2.715475, 56.053273], [-2.715484, 56.053205], [-2.715571, 56.053118], [-2.715626, 56.053109], [-2.715703, 56.053048], [-2.715707, 56.052943], [-2.715601, 56.052814], [-2.715634, 56.052713], [-2.71553, 56.052451], [-2.715526, 56.052291], [-2.715388, 56.052178], [-2.715323, 56.051777], [-2.715244, 56.051689], [-2.715064, 56.051669], [-2.714911, 56.051516], [-2.715095, 56.051493], [-2.715323, 56.051504], [-2.715802, 56.051431], [-2.716763, 56.051256], [-2.717174, 56.051135], [-2.718228, 56.050978], [-2.719398, 56.050883], [-2.719481, 56.050778], [-2.719414, 56.050171], [-2.719456, 56.050069], [-2.719385, 56.049735], [-2.719415, 56.049618], [-2.719398, 56.049366], [-2.719255, 56.049244], [-2.718925, 56.049096], [-2.71894, 56.049081], [-2.718991, 56.049119], [-2.719069, 56.049054], [-2.719173, 56.04902], [-2.719018, 56.049116]]}, "properties": {"name": "1788598350.Berwick_Law_and_town", "cmt": "2026-09-05", "tstamp": 1788566400, "desc": "UpHill", "src": "-2.722193/56.04677/-2.710112/56.060507", "bbox": "-2.722193/56.04677/-2.710112/56.060507"}}]}