{"type": "FeatureCollection", "name": "TrackSet", "crs": {"type": "name", "properties": {"name": "urn:ogc:def:crs:OGC:1.3:CRS84"}}, "bbox": [-5.03686, 56.769125, -4.981544, 56.779463], "features": [{"type": "Feature", "bbox": [-5.03686, 56.769125, -4.981544, 56.779463], "geometry": {"type": "LineString", "coordinates": [[-5.036718, 56.769646], [-5.036728, 56.769611], [-5.036708, 56.769668], [-5.036623, 56.769713], [-5.036548, 56.769875], [-5.036583, 56.770028], [-5.036772, 56.770183], [-5.036791, 56.770359], [-5.036859, 56.7704], [-5.036813, 56.77042], [-5.03686, 56.770463], [-5.03685, 56.770508], [-5.036783, 56.770575], [-5.036515, 56.770675], [-5.036543, 56.770686], [-5.036511, 56.770666], [-5.036082, 56.77077], [-5.035665, 56.770801], [-5.034554, 56.770753], [-5.03406, 56.770775], [-5.033655, 56.770758], [-5.033553, 56.770734], [-5.033349, 56.770731], [-5.032996, 56.770775], [-5.032669, 56.770773], [-5.032491, 56.770743], [-5.0321, 56.770778], [-5.031575, 56.770795], [-5.031426, 56.77078], [-5.031315, 56.770804], [-5.030759, 56.770827], [-5.030635, 56.770856], [-5.030399, 56.770817], [-5.029717, 56.770773], [-5.028152, 56.770796], [-5.027657, 56.770881], [-5.027399, 56.7709], [-5.027156, 56.770973], [-5.025899, 56.771174], [-5.025556, 56.771205], [-5.025102, 56.771308], [-5.024061, 56.771375], [-5.023839, 56.771423], [-5.02373, 56.771423], [-5.023148, 56.771531], [-5.022951, 56.771599], [-5.022788, 56.771616], [-5.022548, 56.771589], [-5.022449, 56.771511], [-5.02235, 56.771481], [-5.022115, 56.771499], [-5.021949, 56.771477], [-5.021624, 56.771382], [-5.021229, 56.771015], [-5.021018, 56.770647], [-5.020912, 56.770561], [-5.020812, 56.770537], [-5.020222, 56.770601], [-5.019714, 56.770688], [-5.019454, 56.7707], [-5.019409, 56.770726], [-5.018968, 56.770745], [-5.018691, 56.770814], [-5.018377, 56.770851], [-5.017849, 56.77098], [-5.017381, 56.77105], [-5.016998, 56.771061], [-5.016775, 56.771004], [-5.016238, 56.770984], [-5.015859, 56.770941], [-5.01521, 56.771158], [-5.014832, 56.771238], [-5.014559, 56.771385], [-5.014345, 56.771456], [-5.013987, 56.771657], [-5.013538, 56.771981], [-5.013351, 56.772041], [-5.013214, 56.772117], [-5.012824, 56.772176], [-5.012705, 56.772245], [-5.012683, 56.772322], [-5.012461, 56.772557], [-5.012161, 56.772753], [-5.012019, 56.772689], [-5.011892, 56.772743], [-5.011844, 56.772672], [-5.011876, 56.772675], [-5.011906, 56.772625], [-5.011871, 56.772684], [-5.011707, 56.772699], [-5.011712, 56.772714], [-5.011771, 56.772703], [-5.011742, 56.772682], [-5.012097, 56.772669], [-5.012154, 56.772724], [-5.011362, 56.773249], [-5.011053, 56.77354], [-5.01067, 56.773736], [-5.010253, 56.773896], [-5.010142, 56.773913], [-5.01005, 56.774003], [-5.010047, 56.774094], [-5.009937, 56.774219], [-5.009345, 56.774566], [-5.009028, 56.774841], [-5.009038, 56.77487], [-5.008856, 56.774944], [-5.008272, 56.775419], [-5.007489, 56.775722], [-5.007163, 56.775998], [-5.006678, 56.776244], [-5.006542, 56.776349], [-5.006254, 56.77639], [-5.006035, 56.776608], [-5.00582, 56.77673], [-5.005382, 56.776818], [-5.004928, 56.77698], [-5.004671, 56.777045], [-5.004194, 56.777077], [-5.003965, 56.777128], [-5.003841, 56.777166], [-5.003616, 56.7773], [-5.003505, 56.777329], [-5.00326, 56.777316], [-5.003075, 56.777267], [-5.002882, 56.777287], [-5.002639, 56.777245], [-5.002399, 56.777331], [-5.002184, 56.777367], [-5.001883, 56.777367], [-5.001518, 56.777312], [-5.001258, 56.777367], [-5.001176, 56.777356], [-5.001024, 56.777383], [-5.000757, 56.777483], [-5.000646, 56.777543], [-5.000622, 56.777574], [-5.000649, 56.777569], [-5.000679, 56.77754], [-5.000599, 56.777519], [-5.000586, 56.777545], [-5.000364, 56.777574], [-5.000294, 56.777606], [-5.00011, 56.777614], [-5.000027, 56.777678], [-4.99992, 56.77765], [-4.999674, 56.777675], [-4.999616, 56.777652], [-4.999407, 56.777689], [-4.999288, 56.777651], [-4.998846, 56.777584], [-4.998589, 56.77763], [-4.998044, 56.777836], [-4.997952, 56.777896], [-4.997754, 56.777951], [-4.997386, 56.777982], [-4.997322, 56.777941], [-4.997199, 56.777917], [-4.996999, 56.777936], [-4.99688, 56.777995], [-4.996687, 56.777995], [-4.996568, 56.777965], [-4.996511, 56.778001], [-4.996405, 56.778012], [-4.996338, 56.778091], [-4.995947, 56.778251], [-4.995582, 56.77828], [-4.995203, 56.778509], [-4.995015, 56.778564], [-4.994837, 56.778683], [-4.994645, 56.778745], [-4.994609, 56.778799], [-4.994416, 56.778863], [-4.994421, 56.778835], [-4.994371, 56.778856], [-4.99436, 56.778815], [-4.994387, 56.778799], [-4.994432, 56.778813], [-4.99445, 56.778789], [-4.994346, 56.778817], [-4.994294, 56.778768], [-4.994195, 56.778749], [-4.994084, 56.778897], [-4.994014, 56.778887], [-4.99395, 56.77891], [-4.993881, 56.778946], [-4.993887, 56.778972], [-4.993799, 56.77902], [-4.993731, 56.779024], [-4.993663, 56.779086], [-4.993638, 56.779071], [-4.993551, 56.779084], [-4.993391, 56.779136], [-4.993224, 56.779237], [-4.99319, 56.779294], [-4.993092, 56.779287], [-4.993029, 56.77933], [-4.992938, 56.779339], [-4.992807, 56.779397], [-4.992696, 56.779348], [-4.992548, 56.779333], [-4.992341, 56.77941], [-4.992095, 56.779423], [-4.99202, 56.779463], [-4.991874, 56.779452], [-4.991617, 56.779333], [-4.99156, 56.779274], [-4.991571, 56.779203], [-4.991493, 56.779148], [-4.99142, 56.779136], [-4.991289, 56.778977], [-4.991197, 56.778949], [-4.991275, 56.778886], [-4.99124, 56.778817], [-4.991319, 56.778717], [-4.991283, 56.77871], [-4.991263, 56.778635], [-4.991223, 56.778623], [-4.991154, 56.778653], [-4.991075, 56.778638], [-4.99111, 56.778566], [-4.990959, 56.778517], [-4.990943, 56.778399], [-4.990832, 56.778356], [-4.990776, 56.778275], [-4.990661, 56.778252], [-4.990641, 56.778135], [-4.990547, 56.778017], [-4.990544, 56.777936], [-4.990436, 56.777923], [-4.990402, 56.777863], [-4.990436, 56.777844], [-4.990356, 56.777823], [-4.990238, 56.777725], [-4.990217, 56.77774], [-4.990203, 56.777721], [-4.990102, 56.777719], [-4.990163, 56.77766], [-4.990124, 56.777579], [-4.990229, 56.777527], [-4.990201, 56.777322], [-4.990152, 56.777235], [-4.990105, 56.777236], [-4.99003, 56.777081], [-4.990009, 56.777063], [-4.989947, 56.777098], [-4.989934, 56.77702], [-4.989887, 56.777007], [-4.989909, 56.776922], [-4.989985, 56.776858], [-4.989898, 56.77679], [-4.989882, 56.776696], [-4.989689, 56.776661], [-4.989707, 56.776623], [-4.989642, 56.77662], [-4.989619, 56.776584], [-4.989555, 56.776591], [-4.989542, 56.77654], [-4.989376, 56.776501], [-4.989327, 56.776357], [-4.989251, 56.776343], [-4.989251, 56.776322], [-4.989204, 56.776327], [-4.989187, 56.776281], [-4.989225, 56.776266], [-4.989198, 56.776275], [-4.989191, 56.776225], [-4.989164, 56.776205], [-4.989043, 56.776205], [-4.989004, 56.776058], [-4.989071, 56.775988], [-4.98898, 56.77601], [-4.988995, 56.775968], [-4.988928, 56.775949], [-4.988883, 56.775802], [-4.988634, 56.775716], [-4.988517, 56.775613], [-4.988514, 56.775554], [-4.988362, 56.775551], [-4.988327, 56.775506], [-4.988123, 56.77546], [-4.988001, 56.775393], [-4.987866, 56.775383], [-4.987809, 56.775316], [-4.98763, 56.775315], [-4.987599, 56.775284], [-4.987517, 56.775283], [-4.987367, 56.775239], [-4.987142, 56.775126], [-4.986991, 56.774921], [-4.986935, 56.774642], [-4.98683, 56.774598], [-4.986794, 56.774507], [-4.986669, 56.774447], [-4.986641, 56.774402], [-4.986501, 56.774328], [-4.986417, 56.774337], [-4.986372, 56.774282], [-4.986333, 56.774287], [-4.986365, 56.774216], [-4.986292, 56.774166], [-4.985829, 56.77397], [-4.985815, 56.773934], [-4.985656, 56.773926], [-4.985469, 56.773857], [-4.985373, 56.773741], [-4.9852, 56.773678], [-4.985121, 56.773619], [-4.98472, 56.773512], [-4.984241, 56.773281], [-4.984015, 56.773255], [-4.983897, 56.773273], [-4.983721, 56.773257], [-4.983598, 56.773216], [-4.983483, 56.773125], [-4.983492, 56.773061], [-4.983262, 56.772895], [-4.983164, 56.772757], [-4.983046, 56.772737], [-4.982954, 56.772674]]}, "properties": {"name": "1788875090.Steall_Falls", "cmt": "2026-09-08", "tstamp": 1788825600, "desc": "UpHill", "src": "-5.03686/56.769125/-4.981544/56.779463", "bbox": "-5.03686/56.769125/-4.981544/56.779463"}}, {"type": "Feature", "bbox": [-5.03686, 56.769125, -4.981544, 56.779463], "geometry": {"type": "LineString", "coordinates": [[-4.98294, 56.772674], [-4.982618, 56.772611], [-4.982515, 56.772558], [-4.982318, 56.772546], [-4.982291, 56.772503], [-4.98224, 56.772543], [-4.982138, 56.772543], [-4.98186, 56.772608], [-4.981659, 56.772686], [-4.981622, 56.77273], [-4.981564, 56.772752], [-4.981544, 56.772733], [-4.981611, 56.77275], [-4.98158, 56.772768], [-4.981612, 56.772683], [-4.981688, 56.772646], [-4.98196, 56.77261], [-4.982223, 56.772532], [-4.982233, 56.772473], [-4.982383, 56.77242], [-4.98237, 56.772383], [-4.98244, 56.772383], [-4.982722, 56.772138], [-4.98295, 56.772024], [-4.983136, 56.771991], [-4.983276, 56.77204], [-4.983361, 56.772042], [-4.983421, 56.772081], [-4.983404, 56.772047], [-4.983363, 56.772067], [-4.983346, 56.772049], [-4.983385, 56.772067], [-4.983354, 56.772079], [-4.983395, 56.772046], [-4.983345, 56.772046], [-4.983336, 56.772076], [-4.983412, 56.772008], [-4.983403, 56.772033], [-4.983436, 56.772006], [-4.98346, 56.772026], [-4.98343, 56.772005], [-4.983468, 56.772003], [-4.983552, 56.771916], [-4.983704, 56.771831], [-4.983655, 56.771685], [-4.98347, 56.771629], [-4.983375, 56.771544], [-4.983268, 56.771515], [-4.983265, 56.771388], [-4.983192, 56.771336], [-4.983118, 56.771326], [-4.983122, 56.771285], [-4.983037, 56.771235], [-4.98305, 56.771169], [-4.98298, 56.771191], [-4.982944, 56.77114], [-4.982847, 56.771135], [-4.982763, 56.7711], [-4.982759, 56.771058], [-4.982681, 56.771002], [-4.982595, 56.771034], [-4.982514, 56.771015], [-4.982521, 56.770999], [-4.982599, 56.771033], [-4.982649, 56.77099], [-4.982717, 56.771063], [-4.982756, 56.771031], [-4.982838, 56.771032], [-4.982838, 56.771088], [-4.9831, 56.771168], [-4.983099, 56.771207], [-4.983152, 56.771228], [-4.983117, 56.771259], [-4.983182, 56.771308], [-4.983315, 56.771324], [-4.98334, 56.771454], [-4.9834, 56.771473], [-4.9834, 56.771515], [-4.98349, 56.771536], [-4.983506, 56.771616], [-4.983668, 56.771684], [-4.983759, 56.771817], [-4.983752, 56.771844], [-4.983712, 56.771834], [-4.983781, 56.771813], [-4.983783, 56.771832], [-4.983751, 56.771861], [-4.983699, 56.771852], [-4.983686, 56.771885], [-4.983474, 56.772022], [-4.983278, 56.772106], [-4.983224, 56.772164], [-4.983267, 56.772189], [-4.983192, 56.772273], [-4.983198, 56.772465], [-4.983115, 56.772641], [-4.983214, 56.772727], [-4.983193, 56.772774], [-4.983321, 56.772935], [-4.983518, 56.773063], [-4.983557, 56.773141], [-4.9837, 56.773233], [-4.983966, 56.773257], [-4.984068, 56.773244], [-4.984253, 56.773273], [-4.984333, 56.773332], [-4.984509, 56.773381], [-4.984705, 56.773489], [-4.985084, 56.773603], [-4.985228, 56.77369], [-4.985415, 56.773732], [-4.985517, 56.773861], [-4.985608, 56.773901], [-4.985702, 56.773932], [-4.985885, 56.773942], [-4.985896, 56.77398], [-4.986269, 56.774143], [-4.986401, 56.77424], [-4.986366, 56.774273], [-4.986441, 56.77434], [-4.986593, 56.774367], [-4.986621, 56.774416], [-4.986653, 56.774416], [-4.986629, 56.774423], [-4.986859, 56.774541], [-4.986988, 56.774667], [-4.987025, 56.77488], [-4.98707, 56.774893], [-4.987113, 56.77503], [-4.987181, 56.775127], [-4.987247, 56.77514], [-4.98724, 56.775178], [-4.987289, 56.775178], [-4.987268, 56.775151], [-4.987489, 56.775243], [-4.987593, 56.77524], [-4.987689, 56.775309], [-4.987902, 56.775395], [-4.988088, 56.775428], [-4.988159, 56.775465], [-4.988206, 56.775459], [-4.988213, 56.775483], [-4.988386, 56.775504], [-4.988603, 56.775671], [-4.988687, 56.775694], [-4.98889, 56.775829], [-4.988905, 56.775907], [-4.989129, 56.776094], [-4.989083, 56.776186], [-4.989142, 56.776208], [-4.989114, 56.776244], [-4.989152, 56.776269], [-4.989237, 56.776262], [-4.989229, 56.776312], [-4.989323, 56.776345], [-4.989358, 56.77643], [-4.989551, 56.77645], [-4.989596, 56.776573], [-4.989681, 56.776617], [-4.989677, 56.776661], [-4.989755, 56.77666], [-4.989824, 56.776693], [-4.989904, 56.776842], [-4.989978, 56.776865], [-4.989991, 56.776981], [-4.990042, 56.776978], [-4.990007, 56.77706], [-4.990052, 56.777067], [-4.990087, 56.777167], [-4.990159, 56.77719], [-4.99012, 56.777246], [-4.990241, 56.777281], [-4.990262, 56.77733], [-4.990285, 56.777555], [-4.990215, 56.777581], [-4.990221, 56.777677], [-4.990298, 56.777704], [-4.990412, 56.777809], [-4.990482, 56.777822], [-4.990458, 56.777881], [-4.990582, 56.777975], [-4.990575, 56.77811], [-4.990658, 56.778134], [-4.990722, 56.778189], [-4.990737, 56.778276], [-4.99081, 56.778288], [-4.991007, 56.7784], [-4.991064, 56.77849], [-4.991048, 56.778555], [-4.991194, 56.778667], [-4.991265, 56.778688], [-4.991293, 56.778754], [-4.991229, 56.778891], [-4.991303, 56.778914], [-4.991272, 56.778955], [-4.991353, 56.778956], [-4.991507, 56.779045], [-4.991724, 56.77928], [-4.991964, 56.779397], [-4.992157, 56.779348], [-4.992276, 56.779351], [-4.992366, 56.779301], [-4.992497, 56.779299], [-4.992573, 56.779273], [-4.992651, 56.779271], [-4.992851, 56.779323], [-4.99296, 56.779247], [-4.993129, 56.779253], [-4.993263, 56.779149], [-4.993564, 56.779078], [-4.993662, 56.778971], [-4.993744, 56.778971], [-4.993825, 56.77894], [-4.993912, 56.778862], [-4.994017, 56.778858], [-4.994093, 56.778784], [-4.994203, 56.77874], [-4.994276, 56.778737], [-4.994323, 56.778794], [-4.994424, 56.778841], [-4.994522, 56.778818], [-4.994584, 56.778787], [-4.994578, 56.77869], [-4.994712, 56.778624], [-4.994807, 56.778617], [-4.994889, 56.778539], [-4.99502, 56.778523], [-4.99511, 56.778439], [-4.995215, 56.77844], [-4.995296, 56.778411], [-4.995482, 56.778318], [-4.995494, 56.778261], [-4.995682, 56.77824], [-4.995808, 56.778192], [-4.99591, 56.778193], [-4.996146, 56.778128], [-4.996359, 56.777971], [-4.99645, 56.777937], [-4.99666, 56.777919], [-4.996718, 56.77794], [-4.996724, 56.777977], [-4.996862, 56.77799], [-4.996957, 56.777905], [-4.997179, 56.777867], [-4.997411, 56.777922], [-4.997488, 56.777966], [-4.997687, 56.777957], [-4.997876, 56.777881], [-4.998, 56.77786], [-4.998107, 56.777775], [-4.99825, 56.777758], [-4.998613, 56.777563], [-4.998919, 56.777565], [-4.99925, 56.777651], [-4.999489, 56.777659], [-4.999672, 56.777614], [-4.999753, 56.777639], [-5.000453, 56.777522], [-5.001109, 56.777314], [-5.001543, 56.777288], [-5.001928, 56.777318], [-5.002188, 56.777312], [-5.002403, 56.777264], [-5.002549, 56.777164], [-5.003274, 56.777265], [-5.003551, 56.777262], [-5.003867, 56.777106], [-5.004522, 56.777001], [-5.004648, 56.776946], [-5.004833, 56.776932], [-5.005741, 56.776667], [-5.005953, 56.776574], [-5.006171, 56.776396], [-5.006536, 56.776246], [-5.006744, 56.776108], [-5.007197, 56.775903], [-5.007355, 56.775742], [-5.00748, 56.775673], [-5.007779, 56.775532], [-5.00816, 56.775417], [-5.008256, 56.775362], [-5.008429, 56.775133], [-5.008673, 56.775008], [-5.008705, 56.774962], [-5.009266, 56.774592], [-5.009427, 56.774466], [-5.009473, 56.774375], [-5.009572, 56.774337], [-5.009662, 56.774249], [-5.009889, 56.774118], [-5.010037, 56.773934], [-5.010188, 56.773822], [-5.010188, 56.773841], [-5.010325, 56.773808], [-5.010929, 56.773569], [-5.011178, 56.7734], [-5.011364, 56.773207], [-5.011979, 56.772836], [-5.012299, 56.772602], [-5.012696, 56.77218], [-5.012924, 56.772092], [-5.013373, 56.771995], [-5.013586, 56.771871], [-5.013828, 56.771653], [-5.014039, 56.77157], [-5.014226, 56.771439], [-5.01433, 56.771412], [-5.014719, 56.771215], [-5.014979, 56.771154], [-5.015039, 56.771114], [-5.015365, 56.771045], [-5.015509, 56.770977], [-5.015552, 56.770813], [-5.015488, 56.770798], [-5.015388, 56.770849], [-5.015254, 56.770858], [-5.015143, 56.77075], [-5.014945, 56.770695], [-5.014899, 56.770643], [-5.015037, 56.770666], [-5.015036, 56.770733], [-5.015092, 56.770713], [-5.015041, 56.770747], [-5.015026, 56.770718], [-5.015052, 56.770741], [-5.015121, 56.77073], [-5.01499, 56.770722], [-5.015062, 56.770573], [-5.015275, 56.7703], [-5.01554, 56.770143], [-5.015561, 56.770033], [-5.015931, 56.769862], [-5.0164, 56.769715], [-5.016517, 56.769717], [-5.016651, 56.769676], [-5.016813, 56.769589], [-5.016882, 56.769497], [-5.016983, 56.769456], [-5.017145, 56.769446], [-5.017305, 56.769366], [-5.01737, 56.769388], [-5.017433, 56.769348], [-5.017488, 56.769353], [-5.017573, 56.769316], [-5.017764, 56.769334], [-5.017971, 56.769291], [-5.018199, 56.769279], [-5.018431, 56.7692], [-5.018524, 56.769212], [-5.018672, 56.769178], [-5.019565, 56.769173], [-5.019999, 56.769125], [-5.020287, 56.76916], [-5.020538, 56.769238], [-5.021032, 56.769323], [-5.021333, 56.769324], [-5.021592, 56.769392], [-5.022048, 56.769435], [-5.022159, 56.769425], [-5.022198, 56.769455], [-5.022303, 56.769473], [-5.022568, 56.769471], [-5.022762, 56.769535], [-5.022811, 56.76962], [-5.022874, 56.76965], [-5.02296, 56.769661], [-5.023266, 56.769779], [-5.023412, 56.769897], [-5.023539, 56.769929], [-5.023594, 56.76997], [-5.023906, 56.770048], [-5.024147, 56.77022], [-5.02422, 56.770381], [-5.024338, 56.770379], [-5.024454, 56.770454], [-5.024597, 56.770501], [-5.024941, 56.770558], [-5.025059, 56.770604], [-5.025244, 56.770609], [-5.025403, 56.770642], [-5.025517, 56.770613], [-5.025567, 56.770654], [-5.025662, 56.770659], [-5.025771, 56.770719], [-5.026114, 56.770755], [-5.026491, 56.770755], [-5.026711, 56.770713], [-5.026973, 56.770701], [-5.027566, 56.770579], [-5.027914, 56.770471], [-5.028076, 56.770382], [-5.028282, 56.770334], [-5.028415, 56.770253], [-5.028876, 56.770109], [-5.029192, 56.769972], [-5.029574, 56.769896], [-5.029851, 56.769901], [-5.030353, 56.769861], [-5.030921, 56.769906], [-5.031554, 56.769895], [-5.032406, 56.769988], [-5.032699, 56.770052], [-5.03319, 56.770108], [-5.033352, 56.770174], [-5.033713, 56.770209], [-5.033932, 56.77027], [-5.034389, 56.770332], [-5.034726, 56.770419], [-5.034808, 56.770399], [-5.034978, 56.770446], [-5.035286, 56.770426], [-5.035421, 56.770463], [-5.035511, 56.77046], [-5.036505, 56.770255], [-5.036603, 56.770277], [-5.036579, 56.770234], [-5.036609, 56.770233]]}, "properties": {"name": "1788875090.Steall_Falls", "cmt": "2026-09-08", "tstamp": 1788825600, "desc": "DownHill", "src": "-5.03686/56.769125/-4.981544/56.779463", "bbox": "-5.03686/56.769125/-4.981544/56.779463"}}, {"type": "Feature", "bbox": [-5.03686, 56.769125, -4.981544, 56.779463], "geometry": {"type": "LineString", "coordinates": [[-5.036644, 56.770231], [-5.036664, 56.770192], [-5.036478, 56.769925], [-5.036471, 56.769826], [-5.036586, 56.769712], [-5.036722, 56.769645], [-5.036657, 56.769535]]}, "properties": {"name": "1788875090.Steall_Falls", "cmt": "2026-09-08", "tstamp": 1788825600, "desc": "UpHill", "src": "-5.03686/56.769125/-4.981544/56.779463", "bbox": "-5.03686/56.769125/-4.981544/56.779463"}}]}