{"type": "FeatureCollection", "name": "TrackSet", "crs": {"type": "name", "properties": {"name": "urn:ogc:def:crs:OGC:1.3:CRS84"}}, "bbox": [-5.117413, 56.814807, -5.107113, 56.820078], "features": [{"type": "Feature", "bbox": [-5.117413, 56.814807, -5.107113, 56.820078], "geometry": {"type": "LineString", "coordinates": [[-5.117413, 56.814807], [-5.117263, 56.815119], [-5.117396, 56.815287], [-5.117347, 56.815326], [-5.117262, 56.815358], [-5.116949, 56.815328], [-5.116506, 56.815595], [-5.116147, 56.815508], [-5.115849, 56.815371], [-5.115442, 56.815661], [-5.115121, 56.81584], [-5.115023, 56.815951], [-5.114917, 56.815953], [-5.114733, 56.816107], [-5.114437, 56.816187], [-5.114321, 56.816266], [-5.114177, 56.816316], [-5.113877, 56.816532], [-5.113877, 56.816507], [-5.113815, 56.816503], [-5.113817, 56.816476], [-5.113813, 56.816514], [-5.113859, 56.81648], [-5.11376, 56.816483], [-5.113779, 56.816454], [-5.113845, 56.81645], [-5.113834, 56.816519], [-5.113817, 56.816476], [-5.113894, 56.816519], [-5.113869, 56.816489], [-5.113651, 56.816536], [-5.113441, 56.816759], [-5.114029, 56.81679], [-5.114066, 56.816774], [-5.113897, 56.816753], [-5.113985, 56.816722], [-5.113723, 56.816581], [-5.113806, 56.816483], [-5.113795, 56.816511], [-5.113761, 56.816468], [-5.11383, 56.816478], [-5.113761, 56.816468], [-5.113745, 56.816534], [-5.113916, 56.816483], [-5.113688, 56.816601], [-5.113727, 56.816602], [-5.113688, 56.816601], [-5.113709, 56.816572], [-5.113688, 56.816601], [-5.113605, 56.816609], [-5.113773, 56.816506], [-5.113673, 56.816561], [-5.113769, 56.81649], [-5.113681, 56.816512], [-5.113778, 56.81648], [-5.113589, 56.81659], [-5.113737, 56.81652], [-5.11347, 56.816455], [-5.113682, 56.816452], [-5.113689, 56.816432], [-5.113632, 56.81647], [-5.113703, 56.816471], [-5.113691, 56.816511], [-5.113546, 56.816567], [-5.113574, 56.816596], [-5.113537, 56.816559], [-5.11371, 56.816534], [-5.113702, 56.816519], [-5.113629, 56.816572], [-5.113773, 56.816507], [-5.11366, 56.816565], [-5.113783, 56.816491], [-5.113651, 56.816569], [-5.11372, 56.816511], [-5.113669, 56.816528], [-5.11379, 56.816483], [-5.113677, 56.816551], [-5.113823, 56.816474], [-5.113594, 56.816605], [-5.11377, 56.816505], [-5.113669, 56.816563], [-5.113725, 56.81653], [-5.113609, 56.816475], [-5.113678, 56.81648], [-5.113611, 56.816496], [-5.11362, 56.816636], [-5.112799, 56.817015], [-5.112293, 56.817344], [-5.112162, 56.817393], [-5.111812, 56.817673], [-5.111385, 56.817808], [-5.111198, 56.817945], [-5.111069, 56.818018], [-5.111032, 56.81801], [-5.110503, 56.818337], [-5.110414, 56.818358], [-5.110198, 56.818498], [-5.110049, 56.818548], [-5.109916, 56.818705], [-5.10976, 56.818795], [-5.109749, 56.818775], [-5.109668, 56.818798], [-5.109628, 56.818907], [-5.109539, 56.818892], [-5.10945, 56.818936], [-5.109487, 56.818953], [-5.109367, 56.818992], [-5.109376, 56.81902], [-5.109172, 56.819154], [-5.109092, 56.819168], [-5.109048, 56.819143], [-5.109076, 56.819085], [-5.109057, 56.819147], [-5.109185, 56.819104], [-5.109262, 56.819123], [-5.10921, 56.819125], [-5.109225, 56.819138], [-5.109262, 56.819093], [-5.10931, 56.819087], [-5.109395, 56.819149], [-5.10941, 56.819123], [-5.109339, 56.819044], [-5.109387, 56.819028], [-5.109255, 56.819034], [-5.109277, 56.819047], [-5.109041, 56.81914], [-5.109539, 56.818988], [-5.109412, 56.819116], [-5.109438, 56.819097], [-5.109442, 56.819123], [-5.109456, 56.819099], [-5.109189, 56.819126], [-5.108964, 56.819173], [-5.109107, 56.819115], [-5.108849, 56.819212], [-5.109528, 56.818992], [-5.109404, 56.819028], [-5.109252, 56.819159], [-5.109299, 56.819034], [-5.109286, 56.819094], [-5.109234, 56.819009], [-5.109251, 56.819029], [-5.10894, 56.819184], [-5.109132, 56.819117], [-5.108993, 56.819169], [-5.109049, 56.819144], [-5.108914, 56.819172], [-5.10909, 56.819148], [-5.109024, 56.819171], [-5.109152, 56.819106], [-5.108857, 56.819212], [-5.109119, 56.819115], [-5.10903, 56.819174], [-5.109142, 56.819072], [-5.109062, 56.819125], [-5.10913, 56.819141], [-5.109058, 56.819138], [-5.109029, 56.819158], [-5.108872, 56.819324], [-5.108892, 56.819424], [-5.108838, 56.819443], [-5.108831, 56.819476], [-5.108725, 56.819474], [-5.108695, 56.819496], [-5.108634, 56.819472], [-5.108541, 56.819519], [-5.108509, 56.819508], [-5.108541, 56.819587], [-5.108497, 56.81958], [-5.10843, 56.819619], [-5.108359, 56.819608], [-5.108336, 56.819626], [-5.108363, 56.81967], [-5.108439, 56.81967], [-5.108378, 56.819657], [-5.108382, 56.819624], [-5.108548, 56.819596], [-5.108464, 56.819647], [-5.108187, 56.819622], [-5.108237, 56.819625], [-5.108196, 56.819625], [-5.108237, 56.819625], [-5.108212, 56.819644], [-5.108237, 56.819625], [-5.108211, 56.819642], [-5.108237, 56.819625], [-5.108199, 56.819636], [-5.108237, 56.819625], [-5.1082, 56.819621], [-5.108237, 56.819625], [-5.108216, 56.819651], [-5.108237, 56.819625], [-5.108204, 56.819632], [-5.108237, 56.819625], [-5.108204, 56.81963], [-5.108237, 56.819625], [-5.108139, 56.819569], [-5.108218, 56.819648], [-5.108195, 56.819621], [-5.108042, 56.819596], [-5.108209, 56.81963], [-5.108152, 56.819626], [-5.108276, 56.819597], [-5.108539, 56.819597], [-5.108528, 56.819621], [-5.108168, 56.819563], [-5.108196, 56.819614], [-5.108149, 56.819622], [-5.10819, 56.819676], [-5.10807, 56.819653], [-5.108097, 56.819735], [-5.10802, 56.819804], [-5.107851, 56.81987], [-5.1076, 56.819881], [-5.10751, 56.819899], [-5.107492, 56.819926], [-5.107519, 56.81991], [-5.107387, 56.819923], [-5.107448, 56.81992], [-5.107399, 56.819932], [-5.107449, 56.819962], [-5.107373, 56.819976], [-5.107438, 56.819978], [-5.107495, 56.819946], [-5.107456, 56.819943], [-5.107209, 56.819966], [-5.107195, 56.820078], [-5.107234, 56.820075], [-5.107338, 56.820052], [-5.107403, 56.819983], [-5.107369, 56.819959], [-5.107484, 56.819881], [-5.107465, 56.819922], [-5.107426, 56.819886], [-5.107541, 56.819864], [-5.107496, 56.819907], [-5.10741, 56.819882], [-5.107368, 56.819848], [-5.1074, 56.819805], [-5.10749, 56.819805], [-5.107349, 56.819717], [-5.107314, 56.819734], [-5.107349, 56.819717], [-5.107331, 56.819808], [-5.107223, 56.8198], [-5.107113, 56.819829], [-5.107296, 56.819815], [-5.10753, 56.819758], [-5.10787, 56.819621], [-5.107469, 56.819865], [-5.107404, 56.819936], [-5.107391, 56.819897], [-5.107506, 56.819858], [-5.10744, 56.819895], [-5.107441, 56.819934], [-5.1075, 56.819886], [-5.107761, 56.819838], [-5.107851, 56.819842], [-5.108049, 56.819775], [-5.108066, 56.819787], [-5.107995, 56.819793], [-5.107969, 56.819748], [-5.10804, 56.819733], [-5.108087, 56.819675], [-5.108216, 56.819656], [-5.108465, 56.819556], [-5.108439, 56.819528], [-5.108549, 56.819499], [-5.108581, 56.819436], [-5.108708, 56.81939], [-5.108772, 56.8193], [-5.108998, 56.819275], [-5.109332, 56.819008], [-5.109613, 56.818849], [-5.109901, 56.81873], [-5.109989, 56.818603], [-5.110135, 56.81851], [-5.11025, 56.818389], [-5.110428, 56.8183], [-5.110575, 56.81829], [-5.110498, 56.818304], [-5.110325, 56.818405], [-5.110477, 56.818328], [-5.110378, 56.818378], [-5.11043, 56.818359], [-5.110408, 56.818369], [-5.110376, 56.818304], [-5.110438, 56.81835], [-5.110407, 56.818362], [-5.110469, 56.81834], [-5.110377, 56.81838], [-5.110532, 56.818314], [-5.110356, 56.81839], [-5.110401, 56.818367], [-5.110331, 56.818351], [-5.110364, 56.818367], [-5.110438, 56.818353], [-5.11039, 56.818373], [-5.110513, 56.818316], [-5.110327, 56.818406], [-5.110535, 56.818312], [-5.110408, 56.818368], [-5.110467, 56.818342], [-5.110405, 56.818367], [-5.110467, 56.818342], [-5.110343, 56.818302], [-5.11066, 56.818272], [-5.110315, 56.818296], [-5.11037, 56.818279], [-5.110403, 56.818301], [-5.11043, 56.818255], [-5.110651, 56.818254], [-5.111047, 56.818041], [-5.111118, 56.818011], [-5.111158, 56.818024], [-5.111189, 56.817942], [-5.111254, 56.817926], [-5.111227, 56.817949], [-5.111191, 56.817903], [-5.111119, 56.817904], [-5.110978, 56.817859], [-5.110919, 56.817729], [-5.110829, 56.817769], [-5.110842, 56.817943], [-5.110963, 56.817818], [-5.111218, 56.817905], [-5.11134, 56.817874], [-5.111809, 56.817586], [-5.111884, 56.817567], [-5.111992, 56.817479], [-5.112288, 56.817347], [-5.112621, 56.817126], [-5.112811, 56.817042], [-5.112963, 56.816945], [-5.112926, 56.816907], [-5.113167, 56.816794], [-5.113259, 56.816717], [-5.113529, 56.816633], [-5.113985, 56.816341], [-5.114112, 56.816324], [-5.11409, 56.816315], [-5.114143, 56.816288], [-5.114323, 56.816283], [-5.114444, 56.816234], [-5.114604, 56.816096], [-5.11472, 56.816054], [-5.114831, 56.815969], [-5.115042, 56.815904], [-5.115216, 56.815816], [-5.11534, 56.815693], [-5.11542, 56.815669], [-5.115718, 56.815432], [-5.11592, 56.81538], [-5.116187, 56.815519], [-5.116354, 56.815512], [-5.116563, 56.815595], [-5.116954, 56.815311], [-5.117227, 56.815333], [-5.117383, 56.815292], [-5.117347, 56.814971], [-5.117408, 56.814853]]}, "properties": {"name": "1788865204.Fort_William_wander", "cmt": "2026-09-08", "tstamp": 1788825600, "desc": "---", "src": "-5.117413/56.814807/-5.107113/56.820078", "bbox": "-5.117413/56.814807/-5.107113/56.820078"}}]}