{"type": "FeatureCollection", "name": "TrackSet", "crs": {"type": "name", "properties": {"name": "urn:ogc:def:crs:OGC:1.3:CRS84"}}, "bbox": [7.113468, 46.586487, 7.170162, 46.618464], "features": [{"type": "Feature", "bbox": [7.113468, 46.586487, 7.170162, 46.618464], "geometry": {"type": "LineString", "coordinates": [[7.168641, 46.618294], [7.168543, 46.618414], [7.168616, 46.618418], [7.168598, 46.618432], [7.168635, 46.618464], [7.168673, 46.618464], [7.168857, 46.618363], [7.168968, 46.618191], [7.169054, 46.617971], [7.169159, 46.617839], [7.169163, 46.617763], [7.169125, 46.617706], [7.169393, 46.617536], [7.169424, 46.617464], [7.16954, 46.617363], [7.169664, 46.617188], [7.169755, 46.617018], [7.169834, 46.616764], [7.169956, 46.616572], [7.169959, 46.616487], [7.170138, 46.616024], [7.170139, 46.615853], [7.170129, 46.615809], [7.170112, 46.615846], [7.170162, 46.615755], [7.170115, 46.615702], [7.169955, 46.61567], [7.170034, 46.615664], [7.170032, 46.61545], [7.169905, 46.615], [7.169773, 46.614813], [7.169434, 46.614654], [7.169247, 46.614631], [7.168991, 46.61453], [7.168897, 46.614442], [7.168728, 46.61435], [7.168596, 46.614195], [7.168498, 46.613966], [7.168496, 46.613678], [7.168134, 46.612996], [7.168135, 46.612977], [7.168168, 46.61301], [7.168157, 46.612986], [7.168115, 46.612957], [7.168046, 46.612747], [7.167957, 46.61266], [7.167732, 46.612602], [7.167491, 46.6126], [7.167356, 46.612563], [7.166664, 46.612551], [7.166451, 46.612632], [7.166307, 46.612634], [7.166083, 46.612696], [7.165826, 46.612674], [7.165603, 46.612685], [7.165383, 46.612757], [7.165227, 46.612759], [7.164923, 46.612902], [7.164723, 46.612925], [7.164624, 46.61296], [7.164601, 46.613005], [7.164539, 46.613024], [7.164411, 46.613016], [7.164371, 46.613037], [7.16413, 46.612912], [7.164055, 46.612815], [7.164055, 46.612839], [7.163844, 46.612786], [7.163766, 46.612803], [7.163682, 46.612769], [7.163619, 46.612771], [7.163488, 46.612859], [7.163159, 46.612919], [7.163085, 46.612907], [7.162975, 46.612848], [7.162771, 46.61285], [7.162681, 46.612817], [7.16268, 46.612833], [7.162646, 46.612827], [7.162527, 46.612759], [7.162308, 46.612723], [7.162247, 46.612685], [7.161787, 46.612642], [7.161543, 46.612658], [7.161416, 46.61271], [7.161285, 46.612631], [7.161205, 46.612615], [7.161122, 46.61263], [7.161016, 46.61259], [7.160859, 46.612593], [7.160805, 46.612614], [7.160677, 46.612612], [7.160578, 46.612583], [7.160461, 46.612589], [7.160271, 46.612529], [7.160169, 46.612528], [7.159997, 46.612455], [7.160011, 46.612479], [7.159995, 46.612451], [7.159571, 46.612321], [7.159371, 46.612218], [7.159081, 46.611971], [7.158988, 46.611943], [7.159003, 46.611911], [7.159129, 46.611935], [7.159499, 46.611933], [7.159567, 46.61188], [7.159538, 46.611835], [7.159338, 46.611809], [7.1592, 46.611765], [7.159061, 46.611627], [7.158946, 46.611582], [7.15895, 46.611609], [7.158923, 46.61158], [7.158664, 46.611554], [7.158148, 46.611424], [7.157714, 46.611374], [7.157569, 46.611307], [7.157466, 46.611224], [7.156855, 46.610971], [7.156744, 46.610853], [7.156664, 46.610573], [7.156727, 46.610488], [7.156698, 46.610457], [7.156748, 46.610457], [7.156831, 46.610314], [7.156871, 46.610146], [7.156853, 46.609991], [7.15762, 46.609125], [7.157669, 46.608963], [7.157417, 46.608767], [7.157221, 46.608434], [7.155612, 46.607029], [7.155446, 46.606802], [7.155198, 46.606598], [7.155013, 46.606332], [7.15475, 46.606042], [7.154608, 46.605926], [7.15448, 46.605892], [7.154375, 46.605813], [7.154265, 46.605772], [7.154143, 46.605652], [7.154106, 46.605533], [7.154122, 46.605432], [7.154165, 46.605422], [7.154191, 46.605371], [7.154266, 46.605324], [7.154291, 46.605186], [7.154415, 46.605084], [7.154499, 46.604946], [7.154521, 46.604826], [7.154883, 46.604305], [7.154888, 46.604184], [7.154807, 46.604035], [7.154757, 46.603746], [7.154731, 46.60374], [7.154755, 46.603742], [7.154728, 46.603772], [7.154766, 46.603641], [7.154742, 46.603639], [7.154733, 46.603548], [7.15478, 46.60347], [7.154781, 46.603275], [7.154855, 46.603192], [7.154841, 46.603094], [7.154898, 46.602987], [7.154806, 46.602713], [7.154679, 46.602575], [7.154705, 46.602379], [7.1548, 46.602263], [7.15488, 46.602224], [7.154942, 46.601975], [7.154913, 46.601783], [7.154817, 46.60165], [7.154806, 46.601555], [7.154912, 46.601378], [7.155057, 46.601257], [7.154981, 46.601008], [7.155121, 46.600779], [7.155257, 46.600628], [7.155367, 46.600565], [7.155463, 46.600426], [7.15555, 46.600366], [7.155634, 46.600226], [7.155807, 46.600102], [7.155913, 46.599952], [7.155944, 46.599958], [7.156134, 46.599668], [7.156223, 46.599609], [7.156212, 46.599486], [7.156057, 46.599281], [7.156128, 46.599086], [7.15621, 46.599016], [7.156336, 46.598958], [7.156333, 46.598916], [7.15641, 46.598818], [7.156598, 46.598774], [7.15662, 46.598709], [7.156698, 46.598653], [7.156751, 46.598559], [7.156767, 46.598402], [7.156718, 46.59832], [7.156647, 46.598239], [7.156438, 46.598132], [7.156426, 46.598096], [7.156356, 46.598054], [7.156302, 46.59785], [7.156313, 46.597762], [7.156379, 46.597546], [7.156353, 46.597464], [7.156451, 46.597393], [7.15664, 46.596988], [7.156614, 46.596966], [7.156671, 46.596845], [7.156818, 46.596739], [7.156941, 46.596564], [7.156921, 46.596469], [7.157033, 46.596247], [7.157068, 46.596104], [7.15724, 46.59593], [7.157421, 46.595686], [7.157846, 46.595421], [7.157953, 46.595323], [7.158047, 46.595277], [7.158204, 46.595272], [7.158418, 46.5952], [7.158517, 46.59519], [7.158681, 46.595059], [7.158907, 46.594976], [7.159017, 46.594823], [7.159106, 46.59477], [7.159322, 46.594369], [7.159549, 46.594139], [7.159608, 46.594109], [7.159645, 46.594118], [7.159739, 46.594036], [7.159717, 46.594017], [7.159752, 46.594019], [7.159787, 46.593986], [7.15981, 46.593864], [7.159927, 46.593762], [7.159911, 46.593734], [7.159944, 46.593738], [7.159962, 46.593713], [7.159977, 46.593731], [7.160065, 46.593662], [7.160083, 46.593603], [7.160332, 46.593358], [7.160386, 46.593336], [7.160459, 46.59321], [7.160536, 46.593203], [7.160663, 46.593106], [7.160859, 46.592773], [7.16092, 46.59274], [7.161025, 46.592585], [7.161017, 46.592363], [7.161135, 46.59212], [7.161359, 46.591944], [7.161437, 46.591774], [7.16151, 46.591747], [7.161652, 46.591491], [7.161861, 46.591393], [7.162051, 46.591144], [7.162065, 46.591002], [7.161987, 46.59086], [7.16202, 46.590523], [7.162155, 46.59036], [7.162164, 46.590274], [7.162209, 46.590218], [7.162158, 46.590049], [7.162045, 46.589935], [7.161973, 46.589788], [7.161881, 46.589728], [7.161883, 46.589532], [7.16183, 46.589405], [7.16185, 46.589166], [7.161824, 46.589078], [7.16164, 46.58886], [7.161439, 46.588685], [7.161436, 46.588604], [7.161384, 46.588565], [7.161405, 46.58856], [7.161348, 46.588579], [7.161324, 46.588646], [7.161353, 46.588779], [7.161269, 46.588989], [7.161261, 46.589195], [7.161307, 46.589283], [7.16128, 46.589475], [7.161197, 46.589551], [7.161049, 46.589925], [7.161088, 46.590034], [7.16104, 46.590116], [7.161209, 46.590661], [7.1611, 46.590814], [7.16083, 46.590956], [7.160489, 46.590992], [7.160383, 46.591056], [7.160329, 46.591059], [7.160094, 46.591165], [7.159723, 46.59119], [7.159454, 46.591241], [7.159152, 46.591162], [7.158812, 46.59113], [7.158535, 46.591229], [7.158253, 46.591253], [7.157867, 46.591371], [7.157781, 46.591374], [7.157739, 46.591402], [7.15743, 46.591463], [7.157281, 46.591579], [7.157078, 46.591666], [7.156856, 46.591809], [7.156585, 46.591882], [7.156259, 46.591928], [7.155887, 46.592124], [7.155675, 46.5922], [7.155684, 46.592176], [7.155657, 46.59217], [7.155699, 46.592165], [7.155673, 46.592171], [7.155709, 46.592186], [7.155661, 46.592157], [7.155695, 46.592173], [7.155684, 46.592191], [7.155725, 46.592195], [7.15568, 46.592166], [7.155693, 46.592179], [7.155434, 46.592239], [7.155161, 46.592402], [7.154968, 46.592448], [7.154795, 46.59245], [7.154355, 46.592528], [7.154182, 46.592621], [7.1541, 46.592717], [7.154036, 46.592679], [7.154466, 46.592159], [7.155059, 46.591655], [7.155231, 46.591564], [7.155259, 46.591528], [7.155226, 46.591483], [7.155196, 46.591505], [7.15509, 46.591489], [7.154898, 46.591569], [7.154673, 46.591612], [7.154437, 46.591692], [7.154184, 46.591714], [7.153918, 46.59177], [7.153657, 46.591904], [7.153458, 46.591924], [7.153234, 46.591858], [7.15292, 46.591839], [7.152659, 46.591762], [7.152576, 46.591773], [7.152122, 46.591695], [7.151681, 46.591673], [7.151206, 46.59155], [7.151044, 46.591461], [7.150728, 46.591359], [7.15044, 46.591208], [7.150342, 46.591181], [7.150026, 46.591126], [7.149639, 46.591135], [7.14929, 46.591411], [7.149184, 46.591544], [7.149216, 46.59172], [7.149312, 46.591921], [7.149395, 46.592226], [7.149665, 46.592757], [7.149687, 46.592885], [7.149622, 46.59292], [7.149561, 46.592898], [7.149519, 46.592781], [7.149457, 46.592712], [7.148967, 46.592392], [7.14874, 46.592209], [7.14866, 46.592176], [7.148535, 46.592025], [7.148185, 46.591769], [7.148034, 46.591684], [7.147708, 46.59163], [7.147627, 46.591594], [7.147532, 46.591433], [7.147189, 46.59118], [7.147093, 46.591005], [7.147027, 46.590991], [7.146974, 46.591027], [7.146963, 46.591118], [7.14703, 46.591203], [7.147258, 46.59137], [7.147325, 46.591485], [7.147288, 46.591626], [7.147175, 46.591771], [7.146844, 46.59186], [7.146798, 46.591919], [7.14683, 46.591999], [7.147065, 46.592256], [7.147054, 46.592465], [7.147112, 46.592551], [7.147142, 46.592744], [7.14711, 46.593009], [7.14708, 46.593011], [7.14709, 46.593036], [7.147077, 46.593007], [7.147067, 46.593038], [7.147088, 46.593112], [7.147059, 46.593235], [7.147129, 46.593426], [7.147081, 46.593476], [7.147015, 46.593455], [7.146978, 46.593362], [7.146895, 46.593277], [7.146557, 46.593117], [7.146226, 46.593013], [7.145322, 46.592381], [7.145207, 46.592028], [7.14477, 46.591689], [7.144388, 46.591473], [7.143992, 46.5912], [7.143718, 46.591072], [7.143214, 46.590911], [7.142938, 46.590747], [7.142882, 46.590631], [7.14293, 46.590422], [7.142914, 46.590379], [7.142771, 46.590261], [7.142618, 46.590199], [7.142537, 46.590132], [7.142424, 46.589904], [7.142247, 46.589786], [7.142196, 46.589721], [7.142208, 46.589642], [7.142177, 46.589621], [7.142224, 46.589574], [7.142297, 46.589393], [7.142243, 46.5892], [7.142119, 46.589009], [7.142111, 46.588936], [7.142202, 46.588751], [7.142106, 46.588565], [7.141867, 46.588277], [7.141924, 46.588147], [7.141896, 46.588076], [7.141847, 46.588072], [7.141716, 46.588117], [7.14148, 46.588259], [7.141412, 46.588381], [7.14124, 46.58847], [7.141277, 46.588491], [7.141208, 46.588488], [7.141224, 46.588469], [7.141044, 46.588527], [7.140882, 46.588507], [7.140644, 46.588548], [7.140412, 46.588899], [7.140341, 46.589068], [7.140286, 46.589041], [7.140258, 46.588876], [7.139981, 46.588646], [7.139871, 46.588491], [7.139848, 46.588173], [7.139744, 46.588072], [7.139575, 46.587968], [7.139535, 46.587888], [7.139544, 46.587835], [7.139494, 46.587811], [7.139432, 46.587828], [7.139251, 46.588076], [7.139131, 46.588315], [7.139021, 46.588403], [7.138909, 46.588548], [7.138786, 46.588853], [7.138653, 46.588952], [7.138301, 46.589106], [7.138265, 46.589152], [7.138249, 46.589285], [7.138452, 46.589468], [7.138652, 46.589558], [7.138634, 46.58958], [7.138667, 46.589578], [7.138743, 46.589711], [7.138595, 46.589558], [7.138334, 46.589433], [7.138125, 46.589423], [7.137161, 46.588828], [7.136962, 46.588607], [7.136747, 46.588244], [7.13629, 46.587916], [7.136178, 46.587687], [7.13606, 46.587572], [7.13596, 46.587418], [7.135899, 46.587362], [7.135767, 46.587329], [7.135716, 46.587238], [7.135661, 46.587221], [7.135703, 46.587228], [7.135697, 46.587207], [7.135369, 46.587229], [7.135299, 46.587338], [7.135238, 46.587368], [7.135038, 46.587247], [7.134819, 46.587174], [7.133025, 46.587088], [7.132859, 46.58712], [7.132681, 46.587231], [7.132568, 46.587226], [7.132339, 46.587166], [7.132257, 46.587265], [7.132066, 46.587306], [7.131698, 46.587261], [7.131254, 46.587166], [7.130862, 46.587005], [7.130675, 46.586958], [7.130249, 46.586921], [7.130013, 46.586863], [7.129896, 46.58686], [7.129834, 46.586881], [7.129748, 46.586867], [7.129731, 46.58684], [7.129641, 46.586863], [7.129596, 46.586825], [7.129494, 46.586817], [7.129456, 46.586851], [7.129409, 46.586819], [7.129288, 46.586827], [7.12923, 46.586774], [7.128991, 46.586702], [7.128978, 46.586673], [7.128932, 46.586677], [7.128842, 46.586588], [7.12886, 46.586622], [7.128821, 46.586637], [7.128803, 46.586601], [7.128717, 46.586597], [7.128731, 46.586524], [7.12863, 46.586487], [7.128617, 46.58655], [7.128595, 46.586546], [7.128618, 46.586526], [7.128624, 46.586576], [7.128542, 46.586871], [7.128549, 46.586956], [7.128507, 46.587027], [7.128289, 46.587176], [7.128225, 46.587254], [7.127759, 46.587489], [7.127694, 46.587588], [7.12769, 46.587573], [7.127649, 46.587596], [7.12757, 46.587584], [7.127573, 46.587669], [7.127441, 46.587682], [7.127319, 46.587746], [7.12721, 46.58776], [7.127062, 46.587876], [7.126979, 46.587895], [7.126971, 46.58788], [7.126908, 46.587917], [7.127018, 46.587949], [7.127057, 46.587927], [7.127088, 46.587959], [7.127202, 46.587995], [7.127182, 46.588014], [7.127328, 46.588033], [7.127341, 46.588086], [7.127405, 46.588116], [7.127595, 46.588138], [7.127687, 46.588208], [7.127841, 46.58824], [7.127832, 46.588219], [7.127993, 46.588315], [7.128172, 46.588351], [7.128224, 46.58838], [7.128201, 46.588389], [7.128225, 46.588435], [7.128269, 46.588431], [7.128306, 46.588466], [7.128454, 46.588504], [7.128505, 46.588499], [7.128651, 46.588562], [7.128686, 46.588613], [7.128601, 46.588613], [7.128593, 46.588659], [7.128516, 46.588636], [7.128493, 46.588661], [7.128467, 46.588618], [7.128443, 46.588642], [7.128355, 46.588631], [7.128346, 46.588611], [7.128231, 46.588632], [7.128183, 46.588575], [7.128155, 46.588582], [7.128183, 46.588594], [7.128122, 46.58859], [7.128131, 46.588562], [7.128079, 46.588587], [7.128095, 46.588614], [7.128058, 46.588621], [7.128051, 46.588583], [7.128011, 46.588582], [7.127884, 46.588637], [7.127964, 46.588716], [7.127846, 46.588682], [7.127742, 46.588592], [7.127733, 46.588557], [7.127773, 46.588535], [7.127714, 46.588559]]}, "properties": {"name": "1789906103.Dent_de_Broc_tour", "cmt": "2026-09-20", "tstamp": 1789862400, "desc": "UpHill", "src": "7.113468/46.586487/7.170162/46.618464", "bbox": "7.113468/46.586487/7.170162/46.618464"}}, {"type": "Feature", "bbox": [7.113468, 46.586487, 7.170162, 46.618464], "geometry": {"type": "LineString", "coordinates": [[7.127708, 46.588556], [7.12747, 46.588486], [7.127489, 46.588493], [7.127486, 46.588459], [7.127485, 46.588491], [7.127636, 46.588539], [7.127784, 46.588545], [7.12774, 46.588562], [7.127788, 46.588539], [7.127749, 46.588589], [7.127767, 46.588573], [7.127816, 46.588665], [7.127947, 46.588728], [7.127997, 46.588716], [7.127881, 46.588643], [7.12791, 46.588613], [7.127952, 46.588637], [7.12798, 46.588615], [7.12796, 46.588605], [7.127976, 46.588626], [7.128053, 46.588586], [7.128011, 46.588619], [7.128117, 46.588594], [7.128136, 46.588632], [7.128158, 46.588602], [7.128262, 46.58865], [7.128261, 46.588624], [7.128293, 46.588642], [7.128325, 46.58861], [7.128406, 46.588658], [7.128452, 46.588663], [7.128487, 46.588634], [7.128515, 46.588687], [7.128553, 46.588661], [7.128617, 46.588676], [7.128602, 46.588629], [7.128673, 46.588644], [7.128654, 46.588567], [7.128299, 46.588441], [7.128207, 46.588358], [7.128063, 46.588314], [7.127897, 46.588217], [7.127699, 46.588179], [7.127651, 46.588115], [7.127577, 46.588094], [7.127488, 46.588103], [7.127262, 46.587993], [7.127183, 46.587995], [7.127083, 46.587949], [7.126947, 46.587947], [7.126949, 46.587926], [7.126862, 46.587915], [7.126905, 46.58792], [7.126904, 46.587895], [7.126854, 46.5879], [7.126774, 46.587854], [7.126587, 46.587819], [7.126539, 46.587783], [7.126336, 46.587792], [7.126161, 46.587737], [7.12614, 46.587704], [7.12604, 46.587702], [7.125911, 46.587633], [7.125894, 46.587653], [7.125761, 46.587626], [7.125666, 46.587545], [7.125602, 46.587543], [7.125505, 46.587586], [7.125333, 46.587544], [7.125265, 46.587549], [7.125276, 46.58753], [7.125203, 46.587541], [7.125217, 46.587517], [7.12517, 46.587498], [7.125104, 46.587528], [7.125057, 46.587522], [7.12507, 46.58747], [7.12503, 46.587445], [7.12502, 46.5875], [7.124924, 46.587448], [7.124837, 46.587474], [7.124768, 46.587428], [7.124669, 46.587406], [7.124422, 46.587403], [7.124153, 46.587367], [7.124079, 46.587428], [7.124034, 46.587434], [7.123935, 46.587407], [7.123976, 46.587367], [7.123969, 46.587391], [7.123916, 46.58738], [7.123913, 46.587411], [7.123748, 46.587359], [7.123768, 46.587336], [7.123717, 46.58732], [7.123763, 46.587295], [7.123716, 46.587325], [7.123732, 46.587341], [7.123659, 46.587338], [7.123613, 46.587293], [7.123551, 46.587294], [7.123537, 46.587267], [7.123336, 46.587255], [7.123057, 46.587382], [7.123083, 46.587379], [7.123057, 46.587383], [7.123078, 46.587408], [7.123048, 46.587454], [7.122989, 46.587464], [7.123, 46.587498], [7.122934, 46.587474], [7.122709, 46.587726], [7.12273, 46.587697], [7.122686, 46.587722], [7.122732, 46.587752], [7.122684, 46.587711], [7.122666, 46.587722], [7.122691, 46.587737], [7.122761, 46.587707], [7.122732, 46.587741], [7.122701, 46.587733], [7.122731, 46.587694], [7.12268, 46.587705], [7.122681, 46.587745], [7.122673, 46.58771], [7.122641, 46.587717], [7.122662, 46.587834], [7.1227, 46.587856], [7.122682, 46.587843], [7.122691, 46.587857], [7.122624, 46.587872], [7.122679, 46.587903], [7.122643, 46.587916], [7.122635, 46.587891], [7.122601, 46.587899], [7.122551, 46.587962], [7.122568, 46.587942], [7.122577, 46.587994], [7.12265, 46.588012], [7.122606, 46.588053], [7.122499, 46.588109], [7.122378, 46.588094], [7.122331, 46.588058], [7.122183, 46.588088], [7.122091, 46.58808], [7.121959, 46.588119], [7.121853, 46.588216], [7.1219, 46.588187], [7.121917, 46.588203], [7.121872, 46.588245], [7.121885, 46.588274], [7.121838, 46.588237], [7.121778, 46.588285], [7.121766, 46.588343], [7.121661, 46.588321], [7.121743, 46.588344], [7.121694, 46.588427], [7.121764, 46.588512], [7.121677, 46.588558], [7.12167, 46.58854], [7.121609, 46.588541], [7.121548, 46.58858], [7.121503, 46.588617], [7.121524, 46.588662], [7.12148, 46.588634], [7.121364, 46.588705], [7.121361, 46.588777], [7.121319, 46.58873], [7.121187, 46.588783], [7.121182, 46.588825], [7.121194, 46.588776], [7.121004, 46.588704], [7.120846, 46.588611], [7.120402, 46.588453], [7.120258, 46.58842], [7.120226, 46.588479], [7.120145, 46.588535], [7.120227, 46.588503], [7.120157, 46.588518], [7.120076, 46.588456], [7.120015, 46.588537], [7.120028, 46.5886], [7.119995, 46.588619], [7.120015, 46.588693], [7.120073, 46.588744], [7.120045, 46.588808], [7.12007, 46.588817], [7.120069, 46.588927], [7.120095, 46.588944], [7.120034, 46.58904], [7.120061, 46.589066], [7.120022, 46.589202], [7.120047, 46.589216], [7.119954, 46.589269], [7.119999, 46.589506], [7.119974, 46.58953], [7.120006, 46.589558], [7.119984, 46.589574], [7.120005, 46.589636], [7.120044, 46.589647], [7.1201, 46.589721], [7.12008, 46.589817], [7.120155, 46.590059], [7.120298, 46.590138], [7.120265, 46.59015], [7.120279, 46.59018], [7.120328, 46.590202], [7.12039, 46.590191], [7.120443, 46.590262], [7.120408, 46.590282], [7.12035, 46.590265], [7.12024, 46.590286], [7.120106, 46.590345], [7.120054, 46.590351], [7.119986, 46.590324], [7.119933, 46.590342], [7.119767, 46.590433], [7.119769, 46.590499], [7.119727, 46.590537], [7.119699, 46.59052], [7.119666, 46.59058], [7.119616, 46.590577], [7.119613, 46.590618], [7.119755, 46.59088], [7.119741, 46.590942], [7.119865, 46.591051], [7.119916, 46.591147], [7.120033, 46.591217], [7.120113, 46.591328], [7.120184, 46.591348], [7.120248, 46.591437], [7.120373, 46.591468], [7.120379, 46.591507], [7.120566, 46.591577], [7.120658, 46.591686], [7.120306, 46.591804], [7.12016, 46.591913], [7.12004, 46.592062], [7.119889, 46.592082], [7.119867, 46.592118], [7.119908, 46.592149], [7.119775, 46.592165], [7.119738, 46.59219], [7.119837, 46.592255], [7.120003, 46.5923], [7.120047, 46.592343], [7.120113, 46.592339], [7.120132, 46.592386], [7.120219, 46.592387], [7.120161, 46.592464], [7.120099, 46.59249], [7.119784, 46.592764], [7.119698, 46.592769], [7.119573, 46.592828], [7.119388, 46.592869], [7.118994, 46.59288], [7.118969, 46.592904], [7.118796, 46.592933], [7.118322, 46.592867], [7.118218, 46.592885], [7.118147, 46.592868], [7.117968, 46.592876], [7.117889, 46.592915], [7.11778, 46.592888], [7.117646, 46.592895], [7.117601, 46.59286], [7.117328, 46.59282], [7.117182, 46.592737], [7.116924, 46.592714], [7.116873, 46.592686], [7.116757, 46.592691], [7.11667, 46.59265], [7.116533, 46.592523], [7.116509, 46.592432], [7.11645, 46.592403], [7.116377, 46.592245], [7.116318, 46.59221], [7.116236, 46.592079], [7.11622, 46.5919], [7.116182, 46.591861], [7.11614, 46.591692], [7.115994, 46.591543], [7.115859, 46.591463], [7.115747, 46.591449], [7.115784, 46.591442], [7.115739, 46.591421], [7.115529, 46.591401], [7.115324, 46.591415], [7.11518, 46.591462], [7.114945, 46.591369], [7.114588, 46.591337], [7.114373, 46.591345], [7.114337, 46.591389], [7.114218, 46.591446], [7.114162, 46.59158], [7.11427, 46.591732], [7.114381, 46.591771], [7.114361, 46.591802], [7.114607, 46.59199], [7.11468, 46.592093], [7.114664, 46.592177], [7.114704, 46.59217], [7.114753, 46.5922], [7.114709, 46.592175], [7.114663, 46.592192], [7.114642, 46.592539], [7.114569, 46.592567], [7.114537, 46.592615], [7.114512, 46.592889], [7.114552, 46.592936], [7.114546, 46.592919], [7.11451, 46.59293], [7.114508, 46.59297], [7.11457, 46.593025], [7.114559, 46.593007], [7.1145, 46.593022], [7.114482, 46.593128], [7.114521, 46.593273], [7.114498, 46.59331], [7.114539, 46.593329], [7.114472, 46.593467], [7.114573, 46.593754], [7.114715, 46.593919], [7.114715, 46.593985], [7.114662, 46.594046], [7.114591, 46.594037], [7.114501, 46.593933], [7.114229, 46.593759], [7.114147, 46.593461], [7.114071, 46.593388], [7.114095, 46.593394], [7.114124, 46.593353], [7.114128, 46.593292], [7.114057, 46.593244], [7.113951, 46.593307], [7.113868, 46.593473], [7.113876, 46.593519], [7.113761, 46.59359], [7.113623, 46.593609], [7.113558, 46.59368], [7.113477, 46.593833], [7.113468, 46.593988], [7.11353, 46.59407], [7.113525, 46.594167], [7.113568, 46.594276], [7.113726, 46.594528], [7.113793, 46.594561], [7.113878, 46.594768], [7.113924, 46.59541], [7.113967, 46.595509], [7.114537, 46.59598], [7.114704, 46.596076], [7.114717, 46.596107], [7.114821, 46.596138], [7.114784, 46.596141], [7.114815, 46.596119], [7.114786, 46.596141], [7.114833, 46.596174], [7.114907, 46.596342], [7.114884, 46.596493], [7.114909, 46.597039], [7.115045, 46.597249], [7.115434, 46.597595], [7.115576, 46.597665], [7.115801, 46.597719], [7.116575, 46.597809], [7.117249, 46.597985], [7.117672, 46.598038], [7.117765, 46.598094], [7.117903, 46.598122], [7.118189, 46.597992], [7.118273, 46.597982], [7.118389, 46.598122], [7.118394, 46.598308], [7.118597, 46.598533], [7.11864, 46.598635], [7.118807, 46.598799], [7.119015, 46.59883], [7.11913, 46.598879], [7.119183, 46.598957], [7.119251, 46.599186], [7.119293, 46.599218], [7.119599, 46.599316], [7.119771, 46.599403], [7.119958, 46.599603], [7.120065, 46.59966], [7.120568, 46.599849], [7.121037, 46.599959], [7.121563, 46.600217], [7.121696, 46.600311], [7.121856, 46.600519], [7.122056, 46.601051], [7.12208, 46.601046], [7.122253, 46.601468], [7.12235, 46.601597], [7.12279, 46.601955], [7.124385, 46.603008], [7.125028, 46.602796], [7.125071, 46.602761], [7.125516, 46.602655], [7.125845, 46.602498], [7.126111, 46.602426], [7.126374, 46.602396], [7.126832, 46.602474], [7.127021, 46.60255], [7.127298, 46.602604], [7.12767, 46.602638], [7.127823, 46.602673], [7.128356, 46.602824], [7.129163, 46.602997], [7.12945, 46.603101], [7.129818, 46.603095], [7.130016, 46.603042], [7.130352, 46.603076], [7.130593, 46.603172], [7.130986, 46.603489], [7.131288, 46.603691], [7.13157, 46.603735], [7.131702, 46.603783], [7.131813, 46.603781], [7.132491, 46.604004], [7.132772, 46.604039], [7.133002, 46.604011], [7.133368, 46.604033], [7.133742, 46.60412], [7.133988, 46.60421], [7.13439, 46.604409], [7.13467, 46.604588], [7.135086, 46.604761], [7.135631, 46.605059], [7.136053, 46.605175], [7.136504, 46.605356], [7.136755, 46.605492], [7.136954, 46.605542], [7.137424, 46.605729], [7.13763, 46.605779], [7.138188, 46.606021], [7.138568, 46.60623], [7.13925, 46.606719], [7.139264, 46.606823], [7.139179, 46.606896], [7.13634, 46.608543], [7.135994, 46.608701], [7.134607, 46.609042], [7.134443, 46.609063], [7.134298, 46.609048], [7.134225, 46.609101], [7.134214, 46.609193], [7.134133, 46.609228], [7.134244, 46.609184], [7.134338, 46.609041], [7.133557, 46.608886], [7.133405, 46.608898], [7.133275, 46.608979], [7.133041, 46.609215], [7.133052, 46.609333], [7.133219, 46.609438], [7.133817, 46.609717], [7.133877, 46.609799], [7.13386, 46.609859], [7.133766, 46.609915], [7.133421, 46.61002], [7.132999, 46.610341], [7.132174, 46.610608], [7.131957, 46.610699], [7.131757, 46.610908], [7.131734, 46.611119], [7.131657, 46.611378], [7.131674, 46.611619], [7.131997, 46.612204], [7.132336, 46.612178], [7.132553, 46.612211], [7.132649, 46.612251], [7.132765, 46.612328], [7.132845, 46.612424], [7.132855, 46.612678], [7.13316, 46.612797]]}, "properties": {"name": "1789906103.Dent_de_Broc_tour", "cmt": "2026-09-20", "tstamp": 1789862400, "desc": "DownHill", "src": "7.113468/46.586487/7.170162/46.618464", "bbox": "7.113468/46.586487/7.170162/46.618464"}}, {"type": "Feature", "bbox": [7.113468, 46.586487, 7.170162, 46.618464], "geometry": {"type": "LineString", "coordinates": [[7.133169, 46.612802], [7.133214, 46.612832], [7.133204, 46.612888], [7.133237, 46.612833], [7.133205, 46.612875], [7.133237, 46.612957], [7.133336, 46.613017], [7.133476, 46.613212], [7.133461, 46.613305], [7.133425, 46.613259], [7.132804, 46.613064], [7.132711, 46.613058], [7.132642, 46.613086], [7.132578, 46.613234], [7.132618, 46.613448], [7.1326, 46.613563], [7.131714, 46.614234], [7.131563, 46.614508], [7.131533, 46.614654], [7.131609, 46.614674], [7.131825, 46.614641], [7.131895, 46.61465], [7.131503, 46.614881], [7.131336, 46.614861], [7.130927, 46.614522], [7.130745, 46.614477], [7.130687, 46.614331], [7.130574, 46.614211], [7.130291, 46.61401], [7.130267, 46.614049]]}, "properties": {"name": "1789906103.Dent_de_Broc_tour", "cmt": "2026-09-20", "tstamp": 1789862400, "desc": "UpHill", "src": "7.113468/46.586487/7.170162/46.618464", "bbox": "7.113468/46.586487/7.170162/46.618464"}}]}