{"type": "FeatureCollection", "name": "TrackSet", "crs": {"type": "name", "properties": {"name": "urn:ogc:def:crs:OGC:1.3:CRS84"}}, "bbox": [-3.191713, 55.949484, -3.187307, 55.9548], "features": [{"type": "Feature", "bbox": [-3.191713, 55.949484, -3.187307, 55.9548], "geometry": {"type": "LineString", "coordinates": [[-3.188346, 55.954548], [-3.188377, 55.954405], [-3.188251, 55.954315], [-3.188247, 55.954262], [-3.188154, 55.954167], [-3.188279, 55.954079], [-3.188381, 55.95389], [-3.188613, 55.953731], [-3.188627, 55.953607], [-3.188784, 55.953542], [-3.188955, 55.953512], [-3.189121, 55.953444], [-3.189356, 55.953388], [-3.189297, 55.953332], [-3.189298, 55.953284], [-3.189173, 55.953206], [-3.1892, 55.953142], [-3.189075, 55.952943], [-3.189053, 55.952783], [-3.188903, 55.952574], [-3.188881, 55.9524], [-3.1887, 55.952138], [-3.188711, 55.952055], [-3.188628, 55.951944], [-3.18857, 55.951764], [-3.188357, 55.951457], [-3.188371, 55.95142], [-3.188163, 55.951194], [-3.188069, 55.950945], [-3.187947, 55.950875], [-3.187955, 55.950753], [-3.187915, 55.950677], [-3.187738, 55.95059], [-3.187743, 55.950443], [-3.187689, 55.950343], [-3.187554, 55.950295], [-3.187481, 55.950238], [-3.187342, 55.950237], [-3.187336, 55.950256], [-3.187378, 55.950239], [-3.187307, 55.950234], [-3.187393, 55.950236], [-3.187532, 55.950184], [-3.187642, 55.950188], [-3.187814, 55.950132], [-3.188045, 55.950157], [-3.18828, 55.95006], [-3.188807, 55.949957], [-3.1892, 55.949903], [-3.189258, 55.949917], [-3.18964, 55.949897], [-3.189769, 55.94987], [-3.189823, 55.949815], [-3.189876, 55.949815], [-3.189882, 55.949781], [-3.190021, 55.949779], [-3.190068, 55.949748], [-3.190166, 55.949757], [-3.190223, 55.949739], [-3.190383, 55.949763], [-3.190667, 55.949715], [-3.190908, 55.949745], [-3.191085, 55.949709], [-3.191417, 55.949693], [-3.191564, 55.949588], [-3.191567, 55.94955], [-3.191713, 55.949536], [-3.191614, 55.949579], [-3.191549, 55.949505], [-3.191514, 55.949504], [-3.191589, 55.949484], [-3.191637, 55.949519], [-3.191526, 55.949594], [-3.191488, 55.949658], [-3.191515, 55.949732], [-3.191329, 55.949805], [-3.191181, 55.949814], [-3.191211, 55.949848], [-3.191132, 55.94978], [-3.191231, 55.949844], [-3.191151, 55.949839], [-3.191111, 55.949871], [-3.190638, 55.94984], [-3.190278, 55.949877], [-3.190162, 55.949909], [-3.190125, 55.949898], [-3.190034, 55.949926], [-3.189959, 55.949917], [-3.189392, 55.95004], [-3.189223, 55.949985], [-3.189112, 55.949996], [-3.188898, 55.950066], [-3.188684, 55.950092], [-3.188254, 55.950106], [-3.1881, 55.950083], [-3.187833, 55.950143], [-3.187654, 55.950158], [-3.187641, 55.950139], [-3.187597, 55.950157], [-3.187664, 55.950193], [-3.187619, 55.9502], [-3.187658, 55.950229], [-3.187713, 55.950237], [-3.187669, 55.95033], [-3.187753, 55.950365], [-3.187854, 55.950572], [-3.187918, 55.95063], [-3.187917, 55.950753], [-3.188115, 55.95095], [-3.188114, 55.951071], [-3.188221, 55.951156], [-3.188244, 55.951274], [-3.18836, 55.951389], [-3.188393, 55.951548], [-3.188214, 55.951648], [-3.188187, 55.951716], [-3.188105, 55.951763], [-3.188076, 55.951751], [-3.188094, 55.951719], [-3.188152, 55.951705], [-3.188112, 55.951758], [-3.188071, 55.95176], [-3.188154, 55.951806], [-3.188229, 55.952051], [-3.188486, 55.952399], [-3.18852, 55.952541], [-3.188699, 55.952716], [-3.188742, 55.952884], [-3.18887, 55.952934], [-3.188958, 55.953053], [-3.188973, 55.953146], [-3.189073, 55.953169], [-3.189091, 55.953196], [-3.189276, 55.953218], [-3.18939, 55.953178], [-3.189479, 55.953191], [-3.189534, 55.953165], [-3.189853, 55.953153], [-3.189987, 55.953096], [-3.190121, 55.953091], [-3.190427, 55.952986], [-3.190678, 55.952982], [-3.190927, 55.952925], [-3.191089, 55.952922], [-3.191177, 55.953027], [-3.191159, 55.953063], [-3.191002, 55.953143], [-3.190914, 55.95314], [-3.190865, 55.953167], [-3.190378, 55.953252], [-3.190325, 55.953283], [-3.190246, 55.953284], [-3.19021, 55.953318], [-3.190061, 55.953316], [-3.190007, 55.953344], [-3.189782, 55.953367], [-3.189524, 55.953436], [-3.189297, 55.953458], [-3.189242, 55.953498], [-3.189089, 55.953498], [-3.189011, 55.953548], [-3.188717, 55.953631], [-3.188658, 55.953694], [-3.188718, 55.953786], [-3.188679, 55.95401], [-3.188489, 55.95418], [-3.188512, 55.954322], [-3.188459, 55.954338], [-3.188482, 55.954454], [-3.188549, 55.954516], [-3.18852, 55.954526], [-3.188445, 55.954489], [-3.188448, 55.954516], [-3.188411, 55.954489], [-3.188437, 55.954537], [-3.188619, 55.954544], [-3.188688, 55.954484], [-3.188655, 55.954443], [-3.188662, 55.954473], [-3.188721, 55.954475], [-3.188644, 55.954525], [-3.188694, 55.954579], [-3.188807, 55.954538], [-3.188772, 55.954525], [-3.18864, 55.954565], [-3.188692, 55.954618], [-3.188644, 55.954608], [-3.188629, 55.954642], [-3.188566, 55.954647], [-3.1886, 55.954653], [-3.188666, 55.9548], [-3.1886, 55.954789]]}, "properties": {"name": "1789141220.Edinburgh_Royal_Mile", "cmt": "2026-09-11", "tstamp": 1789084800, "desc": "---", "src": "-3.191713/55.949484/-3.187307/55.9548", "bbox": "-3.191713/55.949484/-3.187307/55.9548"}}]}