{"type": "FeatureCollection", "name": "TrackSet", "crs": {"type": "name", "properties": {"name": "urn:ogc:def:crs:OGC:1.3:CRS84"}}, "bbox": [6.157915, 46.428113, 6.204472, 46.458389], "features": [{"type": "Feature", "bbox": [6.157915, 46.428113, 6.204472, 46.458389], "geometry": {"type": "LineString", "coordinates": [[6.204411, 46.428476], [6.204371, 46.428476], [6.204472, 46.428417], [6.204442, 46.42835], [6.203942, 46.428113], [6.203637, 46.428261], [6.203401, 46.428444], [6.203205, 46.428525], [6.203163, 46.428573], [6.203096, 46.428583], [6.202865, 46.428758], [6.202719, 46.428835], [6.202467, 46.42906], [6.202306, 46.429058], [6.20224, 46.4291], [6.202172, 46.42909], [6.202003, 46.428984], [6.201708, 46.428928], [6.201449, 46.428732], [6.201434, 46.428696], [6.201458, 46.42869], [6.201473, 46.428715], [6.201354, 46.428673], [6.20138, 46.428648], [6.201232, 46.42865], [6.201193, 46.428632], [6.201223, 46.428613], [6.20138, 46.428586], [6.201514, 46.428663], [6.201507, 46.428626], [6.201534, 46.4288], [6.201513, 46.428805], [6.201502, 46.428787], [6.201585, 46.428712], [6.201652, 46.428702], [6.201589, 46.428663], [6.201504, 46.428672], [6.201644, 46.428702], [6.201545, 46.428698], [6.201483, 46.428632], [6.201374, 46.428588], [6.201397, 46.428643], [6.201471, 46.428678], [6.201812, 46.428723], [6.201795, 46.42879], [6.201727, 46.428793], [6.201751, 46.428823], [6.201421, 46.428609], [6.201443, 46.428572], [6.201408, 46.428589], [6.201452, 46.428616], [6.201408, 46.428643], [6.201356, 46.428611], [6.201539, 46.428665], [6.201509, 46.428718], [6.201573, 46.428745], [6.201387, 46.428729], [6.201384, 46.428769], [6.201519, 46.428919], [6.201609, 46.428952], [6.201658, 46.429064], [6.201543, 46.429237], [6.201537, 46.429301], [6.201442, 46.429381], [6.201385, 46.429386], [6.201373, 46.429441], [6.20125, 46.429569], [6.201012, 46.429759], [6.20087, 46.429918], [6.200432, 46.430584], [6.200182, 46.43079], [6.199944, 46.430936], [6.199449, 46.431341], [6.199321, 46.431419], [6.199184, 46.431464], [6.1991, 46.431532], [6.198536, 46.43173], [6.197683, 46.431978], [6.197518, 46.431996], [6.197411, 46.432062], [6.197295, 46.432023], [6.197262, 46.432036], [6.197331, 46.432026], [6.197266, 46.432055], [6.197319, 46.432027], [6.197253, 46.432052], [6.197229, 46.432038], [6.197299, 46.43204], [6.197249, 46.432043], [6.197275, 46.432065], [6.197257, 46.432151], [6.196873, 46.432471], [6.196469, 46.432885], [6.196169, 46.433346], [6.195833, 46.433662], [6.19558, 46.43376], [6.195531, 46.433861], [6.195617, 46.433869], [6.195693, 46.433944], [6.196396, 46.43428], [6.196493, 46.434376], [6.196497, 46.434442], [6.196404, 46.434627], [6.196328, 46.434886], [6.196342, 46.435247], [6.196621, 46.435827], [6.196823, 46.436161], [6.197045, 46.436424], [6.197166, 46.436624], [6.197157, 46.43671], [6.197207, 46.436823], [6.197211, 46.437027], [6.197288, 46.43744], [6.197435, 46.437768], [6.197436, 46.437888], [6.197462, 46.437877], [6.197425, 46.437868], [6.1974, 46.437904], [6.197436, 46.437916], [6.197455, 46.437982], [6.19745, 46.438162], [6.197358, 46.438368], [6.197478, 46.438527], [6.197832, 46.438534], [6.197856, 46.438611], [6.197824, 46.438741], [6.197985, 46.438951], [6.198123, 46.439234], [6.19832, 46.440062], [6.198428, 46.440166], [6.19863, 46.440268], [6.198835, 46.440346], [6.198835, 46.440326], [6.199058, 46.440434], [6.200324, 46.440932], [6.200398, 46.440991], [6.20059, 46.441071], [6.200747, 46.441197], [6.200807, 46.441331], [6.20082, 46.44146], [6.200925, 46.441636], [6.200987, 46.441817], [6.200871, 46.442075], [6.20095, 46.442323], [6.200892, 46.442366], [6.201, 46.442395], [6.201061, 46.442466], [6.201048, 46.44268], [6.201107, 46.442808], [6.201093, 46.442915], [6.201141, 46.443022], [6.201106, 46.44311], [6.201106, 46.443246], [6.201232, 46.443423], [6.201359, 46.443516], [6.201531, 46.443584], [6.201793, 46.443836], [6.201906, 46.443984], [6.20219, 46.444231], [6.202114, 46.444427], [6.202009, 46.444499], [6.201906, 46.444621], [6.201888, 46.44469], [6.201942, 46.444802], [6.202062, 46.444839], [6.202271, 46.444953], [6.202293, 46.445066], [6.202179, 46.44539], [6.202072, 46.445536], [6.201937, 46.445833], [6.201927, 46.446023], [6.202091, 46.446338], [6.202064, 46.446417], [6.201856, 46.4466], [6.201847, 46.446722], [6.201905, 46.446794], [6.202166, 46.446985], [6.20225, 46.447103], [6.202355, 46.447392], [6.202425, 46.447445], [6.202468, 46.447622], [6.202542, 46.447738], [6.202733, 46.447884], [6.203027, 46.448226], [6.203248, 46.448326], [6.203358, 46.448443], [6.203414, 46.448583], [6.203399, 46.448649], [6.203325, 46.448698], [6.203154, 46.448674], [6.202985, 46.448563], [6.202843, 46.448641], [6.202818, 46.448828], [6.202728, 46.448981], [6.202801, 46.449178], [6.202865, 46.449209], [6.202855, 46.449389], [6.20288, 46.449415], [6.202866, 46.449499], [6.202728, 46.449648], [6.202647, 46.449687], [6.20257, 46.44969], [6.202622, 46.449712], [6.202313, 46.449763], [6.202279, 46.449738], [6.202149, 46.449765], [6.201995, 46.449748], [6.201701, 46.449773], [6.201605, 46.449804], [6.201397, 46.449797], [6.20133, 46.449815], [6.201062, 46.449792], [6.201019, 46.44977], [6.200862, 46.449804], [6.200661, 46.449779], [6.200428, 46.449841], [6.20037, 46.449836], [6.200312, 46.449872], [6.200036, 46.449861], [6.19991, 46.449894], [6.199743, 46.4499], [6.199495, 46.449984], [6.199329, 46.44994], [6.199335, 46.44992], [6.199283, 46.449923], [6.199265, 46.449886], [6.198958, 46.449865], [6.199013, 46.449796], [6.198833, 46.449791], [6.198684, 46.449732], [6.19871, 46.449705], [6.198641, 46.449696], [6.198365, 46.44973], [6.19817, 46.449704], [6.198027, 46.449715], [6.197998, 46.449737], [6.197961, 46.449721], [6.197948, 46.449735], [6.197983, 46.449717], [6.197998, 46.44973], [6.197951, 46.449738], [6.197902, 46.449717], [6.19784, 46.44979], [6.197791, 46.449777], [6.197732, 46.4498], [6.197743, 46.449819], [6.197752, 46.449776], [6.197733, 46.4498], [6.197725, 46.449756], [6.197691, 46.449744], [6.197685, 46.449772], [6.197422, 46.449797], [6.19733, 46.449774], [6.197094, 46.449792], [6.197017, 46.449751], [6.196915, 46.449772], [6.196883, 46.449759], [6.1969, 46.449774], [6.196924, 46.449753], [6.19677, 46.449738], [6.196749, 46.449762], [6.19665, 46.44974], [6.1966, 46.44978], [6.196341, 46.449743], [6.196291, 46.449771], [6.196237, 46.449716], [6.19615, 46.449732], [6.196064, 46.449718], [6.195972, 46.449734], [6.19597, 46.449751], [6.195949, 46.449719], [6.19591, 46.449761], [6.195777, 46.449761], [6.195758, 46.449721], [6.195689, 46.449707], [6.19562, 46.449705], [6.195632, 46.449724], [6.195595, 46.449734], [6.1955, 46.449701], [6.195428, 46.449725], [6.195406, 46.44969], [6.195351, 46.449674], [6.195283, 46.449691], [6.195274, 46.449717], [6.195256, 46.449665], [6.195142, 46.449689], [6.195067, 46.449644], [6.194993, 46.449666], [6.194941, 46.44962], [6.194847, 46.449658], [6.194863, 46.449643], [6.19481, 46.449644], [6.194734, 46.449668], [6.194728, 46.449634], [6.194681, 46.449655], [6.19474, 46.449669], [6.194689, 46.449669], [6.194607, 46.449724], [6.194596, 46.449702], [6.194467, 46.449747], [6.194369, 46.449743], [6.194251, 46.449813], [6.194164, 46.449812], [6.194147, 46.449773], [6.193893, 46.449913], [6.193834, 46.449917], [6.193716, 46.450054], [6.193617, 46.450115], [6.193639, 46.450153], [6.193603, 46.450214], [6.193504, 46.450301], [6.19343, 46.450306], [6.193436, 46.450279], [6.193356, 46.450257], [6.19331, 46.450213], [6.193335, 46.450194], [6.19317, 46.450241], [6.193116, 46.450233], [6.193038, 46.450286], [6.193008, 46.450264], [6.192919, 46.450351], [6.192907, 46.45033], [6.192885, 46.450348], [6.192916, 46.450336], [6.192885, 46.45031], [6.192789, 46.450346], [6.192797, 46.450328], [6.192773, 46.450369], [6.192711, 46.450376], [6.192665, 46.450437], [6.192706, 46.450442], [6.192704, 46.450464], [6.192679, 46.450491], [6.192657, 46.450482], [6.19272, 46.450487], [6.192707, 46.450447], [6.192585, 46.450499], [6.192574, 46.45048], [6.192445, 46.450503], [6.192445, 46.450535], [6.192457, 46.450496], [6.192392, 46.450496], [6.19236, 46.450524], [6.192305, 46.450516], [6.192206, 46.45062], [6.192122, 46.450666], [6.192153, 46.450666], [6.192141, 46.450612], [6.191998, 46.450603], [6.191968, 46.450634], [6.191987, 46.450706], [6.191947, 46.450722], [6.191937, 46.450704], [6.191959, 46.450718], [6.191932, 46.450764], [6.191909, 46.450746], [6.19194, 46.450724], [6.191741, 46.4507], [6.191561, 46.450784], [6.191478, 46.450852], [6.191348, 46.450893], [6.191373, 46.450864], [6.191286, 46.450856], [6.191217, 46.450802], [6.191221, 46.450736], [6.191177, 46.450732], [6.191125, 46.450644], [6.191051, 46.450614], [6.190941, 46.450508], [6.190653, 46.450371], [6.190453, 46.45017], [6.190374, 46.450152], [6.190181, 46.450025], [6.190064, 46.450016], [6.189746, 46.449844], [6.189623, 46.44981], [6.188505, 46.449604], [6.188007, 46.449533], [6.187615, 46.449508], [6.187178, 46.449553], [6.186423, 46.449712], [6.186359, 46.449737], [6.186318, 46.44979], [6.186319, 46.449757], [6.186313, 46.449829], [6.186603, 46.449882], [6.186713, 46.449876], [6.187149, 46.449965], [6.187453, 46.450097], [6.187713, 46.450292], [6.18781, 46.45044], [6.187835, 46.450567], [6.187821, 46.45119], [6.188015, 46.451467], [6.188447, 46.45191], [6.188511, 46.452014], [6.188574, 46.452263], [6.188568, 46.452491], [6.188469, 46.452803], [6.188257, 46.453152], [6.187936, 46.453503], [6.187283, 46.454071], [6.186977, 46.454308], [6.186606, 46.454509], [6.18493, 46.45505], [6.184725, 46.454924], [6.184584, 46.454921], [6.184465, 46.454883], [6.184244, 46.454859], [6.184102, 46.454765], [6.183987, 46.454743], [6.183671, 46.454457], [6.183204, 46.454253], [6.182138, 46.453668], [6.18211, 46.453631], [6.181954, 46.453593], [6.18184, 46.453671], [6.181251, 46.454391], [6.180925, 46.454659], [6.179997, 46.455149], [6.179776, 46.455224], [6.179533, 46.455343], [6.179227, 46.455427], [6.178832, 46.455579], [6.178625, 46.455695], [6.178364, 46.455893], [6.17772, 46.456432], [6.177538, 46.456544], [6.177318, 46.456621], [6.177019, 46.456679], [6.176081, 46.456785], [6.175366, 46.456899], [6.174474, 46.457129], [6.174343, 46.457204], [6.174176, 46.457213], [6.173941, 46.457254], [6.173938, 46.457273], [6.173877, 46.457265], [6.173719, 46.457325], [6.173339, 46.457378], [6.173137, 46.45739], [6.173, 46.457374], [6.172623, 46.457442], [6.172275, 46.457542], [6.172083, 46.457635], [6.172048, 46.457629], [6.171174, 46.457969], [6.170308, 46.458146], [6.16963, 46.45822], [6.169051, 46.45824], [6.168941, 46.458265], [6.168649, 46.458257], [6.168475, 46.458281], [6.168352, 46.458266], [6.1677, 46.458339], [6.167356, 46.458355], [6.167207, 46.458389], [6.167101, 46.458364]]}, "properties": {"name": "1789293511.Jura_undergrowth", "cmt": "2026-09-13", "tstamp": 1789257600, "desc": "UpHill", "src": "6.157915/46.428113/6.204472/46.458389", "bbox": "6.157915/46.428113/6.204472/46.458389"}}, {"type": "Feature", "bbox": [6.157915, 46.428113, 6.204472, 46.458389], "geometry": {"type": "LineString", "coordinates": [[6.167098, 46.45836], [6.167052, 46.458329], [6.166734, 46.458273], [6.166426, 46.458185], [6.16516, 46.457604], [6.165001, 46.45758], [6.164935, 46.457534], [6.164623, 46.457433], [6.163936, 46.457286], [6.163814, 46.457233], [6.163544, 46.457178], [6.163213, 46.457067], [6.162952, 46.456921], [6.16282, 46.456876], [6.162718, 46.456784], [6.162493, 46.456703], [6.162415, 46.456625], [6.162423, 46.456432], [6.162744, 46.456347], [6.16335, 46.45613], [6.163523, 46.455984], [6.163541, 46.45594], [6.163822, 46.4558], [6.163844, 46.455735], [6.163969, 46.455682], [6.163914, 46.455674], [6.163806, 46.455551], [6.163631, 46.455447], [6.163705, 46.455182], [6.163595, 46.455023], [6.162494, 46.454062], [6.162318, 46.453983], [6.162125, 46.453947], [6.162009, 46.453951], [6.161839, 46.453875], [6.161731, 46.453768], [6.161656, 46.453592], [6.161568, 46.45348], [6.16151, 46.45332], [6.161523, 46.453215], [6.161446, 46.453094], [6.161206, 46.453001], [6.161114, 46.452988], [6.160945, 46.452881], [6.160607, 46.452799], [6.160353, 46.452709], [6.160241, 46.452546], [6.1598, 46.452331], [6.159717, 46.452261], [6.159427, 46.452218], [6.159227, 46.452146], [6.159021, 46.452122], [6.158891, 46.452082], [6.15879, 46.452092], [6.158687, 46.452068], [6.158497, 46.451951], [6.158426, 46.45166], [6.158131, 46.451307], [6.157992, 46.451208], [6.157915, 46.450831], [6.158238, 46.450727], [6.158338, 46.450637], [6.158671, 46.450488], [6.158907, 46.450428], [6.158929, 46.450376], [6.159098, 46.450225], [6.159389, 46.449472], [6.159465, 46.449402], [6.159456, 46.449176], [6.159335, 46.448825], [6.15934, 46.448713], [6.159497, 46.448562], [6.159692, 46.44855], [6.159648, 46.448513], [6.159705, 46.44849], [6.159692, 46.448474], [6.159737, 46.448479], [6.159702, 46.448445], [6.159748, 46.448489], [6.159762, 46.448465], [6.159779, 46.4485], [6.159562, 46.448521], [6.159612, 46.44839], [6.159628, 46.448403], [6.159737, 46.448345], [6.159767, 46.44841], [6.159685, 46.448489], [6.15955, 46.448468], [6.159476, 46.44849], [6.159283, 46.448384], [6.159038, 46.448032], [6.158924, 46.447737], [6.158829, 46.447654], [6.158727, 46.447504], [6.158653, 46.447317], [6.158674, 46.447256], [6.15864, 46.447291], [6.15875, 46.44732], [6.15872, 46.447341], [6.158754, 46.447327], [6.158725, 46.447336], [6.158766, 46.44725], [6.15882, 46.44733], [6.158745, 46.447337], [6.159359, 46.447707], [6.159053, 46.447542], [6.158782, 46.447441], [6.15891, 46.447529], [6.158887, 46.447528], [6.15892, 46.447498], [6.158903, 46.447475], [6.158824, 46.447521], [6.158776, 46.447598], [6.158698, 46.447541], [6.158661, 46.447552], [6.158774, 46.44765], [6.15882, 46.44779], [6.158941, 46.447863], [6.158997, 46.448048], [6.15912, 46.448191], [6.159117, 46.448278], [6.159184, 46.44838], [6.159461, 46.448574], [6.159493, 46.448564], [6.159466, 46.448568], [6.15945, 46.44854], [6.159526, 46.448529]]}, "properties": {"name": "1789293511.Jura_undergrowth", "cmt": "2026-09-13", "tstamp": 1789257600, "desc": "DownHill", "src": "6.157915/46.428113/6.204472/46.458389", "bbox": "6.157915/46.428113/6.204472/46.458389"}}]}