{"type": "FeatureCollection", "name": "TrackSet", "crs": {"type": "name", "properties": {"name": "urn:ogc:def:crs:OGC:1.3:CRS84"}}, "bbox": [6.140444, 46.417279, 6.17765, 46.443136], "features": [{"type": "Feature", "bbox": [6.140444, 46.417279, 6.17765, 46.443136], "geometry": {"type": "LineString", "coordinates": [[6.177546, 46.417353], [6.177505, 46.417344], [6.17752, 46.417325], [6.177561, 46.417358], [6.177518, 46.417395], [6.176861, 46.417795], [6.176273, 46.417988], [6.175988, 46.418119], [6.175682, 46.418304], [6.175539, 46.41843], [6.175303, 46.418749], [6.17515, 46.418899], [6.174485, 46.419417], [6.174079, 46.419682], [6.173016, 46.42006], [6.171832, 46.42059], [6.17077, 46.420968], [6.170732, 46.420961], [6.170352, 46.421071], [6.170127, 46.421104], [6.169983, 46.421159], [6.169886, 46.42126], [6.169827, 46.421523], [6.169697, 46.42172], [6.169518, 46.421901], [6.168595, 46.422524], [6.168167, 46.422764], [6.168136, 46.422827], [6.167996, 46.422863], [6.167952, 46.42293], [6.167963, 46.422989], [6.168092, 46.423156], [6.168244, 46.423432], [6.168371, 46.423874], [6.168515, 46.424067], [6.168716, 46.424244], [6.168731, 46.424376], [6.168863, 46.42458], [6.168865, 46.424629], [6.168784, 46.424735], [6.16872, 46.424755], [6.168588, 46.424988], [6.168156, 46.425327], [6.168142, 46.425345], [6.168175, 46.425342], [6.168124, 46.425357], [6.16811, 46.425341], [6.168054, 46.425424], [6.167843, 46.425597], [6.167487, 46.426023], [6.167427, 46.426132], [6.167361, 46.426177], [6.167198, 46.426521], [6.166968, 46.426675], [6.166773, 46.42689], [6.166696, 46.426958], [6.166648, 46.426961], [6.166653, 46.426998], [6.16659, 46.427047], [6.166522, 46.427084], [6.166433, 46.427089], [6.16607, 46.427336], [6.165866, 46.427434], [6.165534, 46.427517], [6.165493, 46.427549], [6.165218, 46.427577], [6.164662, 46.427572], [6.164269, 46.427478], [6.164167, 46.427473], [6.16412, 46.427439], [6.163878, 46.427375], [6.163602, 46.42738], [6.163228, 46.427327], [6.163126, 46.427365], [6.163061, 46.42743], [6.162929, 46.42746], [6.162624, 46.427617], [6.162342, 46.4277], [6.162143, 46.427899], [6.162086, 46.427904], [6.162039, 46.427978], [6.161896, 46.428032], [6.161552, 46.428246], [6.161435, 46.428249], [6.161339, 46.428285], [6.161255, 46.428267], [6.161134, 46.428301], [6.16101, 46.428273], [6.160879, 46.428307], [6.160752, 46.428304], [6.160473, 46.428452], [6.160155, 46.42869], [6.160034, 46.428713], [6.159963, 46.42879], [6.15988, 46.42881], [6.159589, 46.429053], [6.159562, 46.42911], [6.159453, 46.429167], [6.158943, 46.42929], [6.158719, 46.429387], [6.158506, 46.429394], [6.158274, 46.42949], [6.157893, 46.429729], [6.157644, 46.429747], [6.157326, 46.429863], [6.157153, 46.429886], [6.156925, 46.429992], [6.15652, 46.430335], [6.15643, 46.430448], [6.156247, 46.43047], [6.15613, 46.430531], [6.156101, 46.430673], [6.156155, 46.430794], [6.156124, 46.430886], [6.156154, 46.431068], [6.156122, 46.431199], [6.155863, 46.431383], [6.155769, 46.431701], [6.1557, 46.43182], [6.155374, 46.432035], [6.15486, 46.432173], [6.154269, 46.432229], [6.153905, 46.432241], [6.153852, 46.432224], [6.153642, 46.432254], [6.153571, 46.432235], [6.153466, 46.432319], [6.153215, 46.43241], [6.152602, 46.432571], [6.152476, 46.432569], [6.15217, 46.432632], [6.151882, 46.432637], [6.151871, 46.432654], [6.151104, 46.432636], [6.150678, 46.432665], [6.150637, 46.432684], [6.150455, 46.432671], [6.150305, 46.432712], [6.150072, 46.432695], [6.14964, 46.432846], [6.149501, 46.432852], [6.14923, 46.432919], [6.149258, 46.432955], [6.149243, 46.432913], [6.148962, 46.432988], [6.147852, 46.433129], [6.14767, 46.433216], [6.147598, 46.433295], [6.147098, 46.433466], [6.147042, 46.433528], [6.14691, 46.433593], [6.146837, 46.433692], [6.146793, 46.433847], [6.146582, 46.433981], [6.146201, 46.434119], [6.146113, 46.434204], [6.145971, 46.434222], [6.145692, 46.434343], [6.145561, 46.434372], [6.145467, 46.434367], [6.145422, 46.434411], [6.145318, 46.434436], [6.145272, 46.434492], [6.145083, 46.434476], [6.145004, 46.434516], [6.144967, 46.434491], [6.144835, 46.434533], [6.144675, 46.434529], [6.144704, 46.434549], [6.144549, 46.434603], [6.144264, 46.434763], [6.144089, 46.434759], [6.144075, 46.434792], [6.143706, 46.434935], [6.143635, 46.434913], [6.143499, 46.434933], [6.143425, 46.43498], [6.143346, 46.434971], [6.143202, 46.435001], [6.143074, 46.434989], [6.142827, 46.435097], [6.142833, 46.435129], [6.14281, 46.435108], [6.142684, 46.435166], [6.142663, 46.435221], [6.142596, 46.435252], [6.142538, 46.435239], [6.142421, 46.435321], [6.142286, 46.435367], [6.142252, 46.43542], [6.142193, 46.435415], [6.141922, 46.435547], [6.14186, 46.435606], [6.141767, 46.435619], [6.141666, 46.435672], [6.141533, 46.435769], [6.141391, 46.435934], [6.141257, 46.435905], [6.141302, 46.43592], [6.141253, 46.435916], [6.141293, 46.435933], [6.141233, 46.436025], [6.141145, 46.436083]]}, "properties": {"name": "1789816408.Jura_Greens", "cmt": "2026-09-19", "tstamp": 1789776000, "desc": "UpHill", "src": "6.140444/46.417279/6.17765/46.443136", "bbox": "6.140444/46.417279/6.17765/46.443136"}}, {"type": "Feature", "bbox": [6.140444, 46.417279, 6.17765, 46.443136], "geometry": {"type": "LineString", "coordinates": [[6.141136, 46.436105], [6.140907, 46.436172], [6.140654, 46.436352], [6.140668, 46.43644], [6.140444, 46.4366], [6.140507, 46.436555], [6.140552, 46.43656], [6.140778, 46.436723], [6.141109, 46.436884], [6.141387, 46.436906], [6.141533, 46.436947], [6.141834, 46.436949], [6.142051, 46.437056], [6.142231, 46.437066], [6.142451, 46.437017], [6.142781, 46.437039], [6.142914, 46.437021], [6.143145, 46.437053], [6.143342, 46.43703], [6.143526, 46.437108], [6.143772, 46.437121], [6.143836, 46.437158], [6.144095, 46.437182], [6.144377, 46.437172], [6.144436, 46.437192], [6.144514, 46.437159], [6.144692, 46.437183], [6.144739, 46.437165], [6.144914, 46.437211], [6.14502, 46.437185], [6.145202, 46.4372], [6.14551, 46.437276], [6.145602, 46.437375], [6.145556, 46.437433], [6.145573, 46.437484], [6.145521, 46.437529], [6.145514, 46.437732], [6.145609, 46.437862], [6.145698, 46.437906], [6.1458, 46.438029], [6.145739, 46.438184], [6.145774, 46.438514], [6.145964, 46.43861], [6.146153, 46.438658], [6.146579, 46.438672], [6.14667, 46.438694], [6.146754, 46.438676], [6.147096, 46.438707], [6.147308, 46.438656], [6.147421, 46.438709], [6.147467, 46.438759], [6.14804, 46.438882], [6.148335, 46.438923], [6.148994, 46.438931], [6.149103, 46.438946], [6.149411, 46.439077], [6.150174, 46.43917], [6.151934, 46.439326], [6.152999, 46.439279], [6.153522, 46.439446], [6.15365, 46.439522], [6.15387, 46.439575], [6.153962, 46.439628], [6.154023, 46.439749], [6.153891, 46.439979], [6.153928, 46.440082], [6.15407, 46.440168], [6.154113, 46.440242], [6.154696, 46.440546], [6.154794, 46.440621], [6.154839, 46.440683], [6.154894, 46.440912], [6.155059, 46.441159], [6.15511, 46.441295], [6.155012, 46.441392], [6.154911, 46.441437], [6.154815, 46.441555], [6.154692, 46.441643], [6.154402, 46.441973], [6.154337, 46.442092], [6.154133, 46.442296], [6.15392, 46.442428], [6.153917, 46.442525], [6.154113, 46.442624], [6.154528, 46.442595], [6.155045, 46.442608], [6.156173, 46.442876], [6.156457, 46.442923], [6.156845, 46.442901], [6.157693, 46.442804], [6.157948, 46.442801], [6.158115, 46.442852], [6.158324, 46.443054], [6.158274, 46.442998], [6.158294, 46.443021], [6.158233, 46.443026], [6.158303, 46.443031], [6.158292, 46.443002], [6.158314, 46.443018], [6.1584, 46.442962], [6.158398, 46.442826], [6.158416, 46.442841], [6.158427, 46.442781], [6.158491, 46.442748], [6.158522, 46.44263], [6.158695, 46.442564], [6.158771, 46.442493], [6.15895, 46.442492], [6.159076, 46.442449], [6.159273, 46.442332], [6.159537, 46.442295], [6.159557, 46.44226], [6.15963, 46.442286], [6.159672, 46.442266], [6.159687, 46.442288], [6.15975, 46.442277], [6.159904, 46.442215], [6.160008, 46.442211], [6.16011, 46.442158], [6.160431, 46.442093], [6.160564, 46.442102], [6.160597, 46.442126], [6.160825, 46.442124], [6.160877, 46.442056], [6.160955, 46.442119], [6.161028, 46.442111], [6.161096, 46.442154], [6.16118, 46.442173], [6.161201, 46.442143], [6.161253, 46.442138], [6.161414, 46.442187], [6.161481, 46.442234], [6.161541, 46.442219], [6.161666, 46.442237], [6.161848, 46.442354], [6.161846, 46.442409], [6.161892, 46.442442], [6.161844, 46.442634], [6.161775, 46.442714], [6.161738, 46.442853], [6.161601, 46.442913], [6.161543, 46.443035], [6.161729, 46.44312], [6.161866, 46.443136], [6.161957, 46.443121], [6.162049, 46.443057], [6.162156, 46.443025], [6.162201, 46.442969], [6.162312, 46.442986], [6.162482, 46.44297], [6.162681, 46.442928], [6.162908, 46.44283], [6.163015, 46.442838], [6.163106, 46.442801], [6.163205, 46.442687], [6.163353, 46.442606], [6.163354, 46.442566], [6.163408, 46.442553], [6.163418, 46.442509], [6.163501, 46.442458], [6.163558, 46.442327], [6.163702, 46.442409], [6.163774, 46.442386], [6.163928, 46.442384], [6.163956, 46.442445], [6.163899, 46.442593], [6.163916, 46.442624], [6.163955, 46.442613], [6.164029, 46.442648], [6.164071, 46.442622], [6.16408, 46.442683], [6.16421, 46.442704], [6.164231, 46.442643], [6.164404, 46.44256], [6.16449, 46.442441], [6.164496, 46.442481], [6.16452, 46.442457], [6.164506, 46.442411], [6.164559, 46.442234], [6.164535, 46.442124], [6.164353, 46.441934], [6.164243, 46.441904], [6.164137, 46.441914], [6.163603, 46.441837], [6.163285, 46.441717], [6.163166, 46.441569], [6.163122, 46.44144], [6.163128, 46.441348], [6.163265, 46.441174], [6.163352, 46.44111], [6.16352, 46.441056], [6.16375, 46.441082], [6.163845, 46.441135], [6.164261, 46.441185], [6.164645, 46.441163], [6.164842, 46.441189], [6.164892, 46.441162], [6.165034, 46.441169], [6.165588, 46.440974], [6.165792, 46.440869], [6.166112, 46.440757], [6.166159, 46.440711], [6.166647, 46.440489], [6.166924, 46.440397], [6.167053, 46.440377], [6.167418, 46.440214], [6.167684, 46.440135], [6.167886, 46.43998], [6.167945, 46.439866], [6.167936, 46.439719], [6.167888, 46.439677], [6.167867, 46.439597], [6.167352, 46.439153], [6.16701, 46.439006], [6.166702, 46.438961], [6.166546, 46.438903], [6.166385, 46.438893], [6.166261, 46.438831], [6.166155, 46.438713], [6.166138, 46.438626], [6.166055, 46.438535], [6.165804, 46.438078], [6.165499, 46.437853], [6.165428, 46.437723], [6.165464, 46.437459], [6.165509, 46.43737], [6.165698, 46.43724], [6.165759, 46.437224], [6.165805, 46.437169], [6.165875, 46.437154], [6.166368, 46.436855], [6.166669, 46.43664], [6.16714, 46.43638], [6.167246, 46.436272], [6.167347, 46.436085], [6.167546, 46.435918], [6.167563, 46.435874], [6.167737, 46.435753], [6.167948, 46.435665], [6.168026, 46.435588], [6.168201, 46.435528], [6.168589, 46.435234], [6.168657, 46.434941], [6.168626, 46.434855], [6.168684, 46.4344], [6.168846, 46.433967], [6.168881, 46.433712], [6.169035, 46.433443], [6.169231, 46.433245], [6.169286, 46.433091], [6.169307, 46.432955], [6.169166, 46.432635], [6.169143, 46.432477], [6.169162, 46.43234], [6.169241, 46.432113], [6.169505, 46.431898], [6.169584, 46.431789], [6.169542, 46.431612], [6.169355, 46.431319], [6.16933, 46.431172], [6.169395, 46.430612], [6.169509, 46.430305], [6.169468, 46.430132], [6.169505, 46.430077], [6.169425, 46.429874], [6.169413, 46.429759], [6.169443, 46.429738], [6.169413, 46.42972], [6.169346, 46.429479], [6.169465, 46.42932], [6.169413, 46.429275], [6.169433, 46.42929], [6.16931, 46.429304], [6.169193, 46.429257], [6.169096, 46.429256], [6.168905, 46.429204], [6.168905, 46.42923], [6.168394, 46.429432], [6.16813, 46.429292], [6.167954, 46.429265], [6.167911, 46.429184], [6.16782, 46.429126], [6.167779, 46.429132], [6.167836, 46.429111], [6.167801, 46.429079], [6.167828, 46.429076], [6.167834, 46.429037], [6.167655, 46.428944], [6.167666, 46.428904], [6.16773, 46.428893], [6.167708, 46.428884], [6.167757, 46.4289], [6.16786, 46.428814], [6.168027, 46.428784], [6.16813, 46.428709], [6.168246, 46.428469], [6.168533, 46.42829], [6.168562, 46.428246], [6.168803, 46.428162], [6.168847, 46.4282], [6.168948, 46.428085], [6.169056, 46.428058], [6.169147, 46.427977], [6.169438, 46.427897], [6.169528, 46.427843], [6.169696, 46.42781], [6.169761, 46.427736], [6.169948, 46.427689], [6.170124, 46.427576], [6.170354, 46.427479], [6.170456, 46.427384], [6.170492, 46.427298], [6.170792, 46.427142], [6.170879, 46.427009], [6.171283, 46.426685], [6.171375, 46.426482], [6.171462, 46.426397], [6.17175, 46.426212], [6.171852, 46.42603], [6.171993, 46.425927], [6.172142, 46.425678], [6.172271, 46.425627], [6.172329, 46.425568], [6.172515, 46.425518], [6.172712, 46.425406], [6.172749, 46.425345], [6.172845, 46.425325], [6.172937, 46.425256], [6.173926, 46.42507], [6.173918, 46.425021], [6.173843, 46.424971], [6.17374, 46.424854], [6.173726, 46.424793], [6.173452, 46.424496], [6.173337, 46.424271], [6.173049, 46.423996], [6.172881, 46.42379], [6.172828, 46.423656], [6.172801, 46.423533], [6.172927, 46.423235], [6.173029, 46.423124], [6.173038, 46.423065], [6.173163, 46.422994], [6.173301, 46.42273], [6.173252, 46.422395], [6.173106, 46.421878], [6.173101, 46.421833], [6.173105, 46.42185], [6.173129, 46.421841], [6.173076, 46.421826], [6.17293, 46.421504], [6.172987, 46.421138], [6.173279, 46.420861], [6.173561, 46.420463], [6.173606, 46.420343], [6.173665, 46.420279], [6.173686, 46.420113], [6.173816, 46.419754], [6.17412, 46.41967], [6.174363, 46.41952], [6.175191, 46.418863], [6.175711, 46.418291], [6.176459, 46.417939], [6.176949, 46.417799], [6.17765, 46.41728]]}, "properties": {"name": "1789816408.Jura_Greens", "cmt": "2026-09-19", "tstamp": 1789776000, "desc": "DownHill", "src": "6.140444/46.417279/6.17765/46.443136", "bbox": "6.140444/46.417279/6.17765/46.443136"}}, {"type": "Feature", "bbox": [6.140444, 46.417279, 6.17765, 46.443136], "geometry": {"type": "LineString", "coordinates": [[6.177645, 46.417279], [6.177645, 46.417279]]}, "properties": {"name": "1789816408.Jura_Greens", "cmt": "2026-09-19", "tstamp": 1789776000, "desc": "UpHill", "src": "6.140444/46.417279/6.17765/46.443136", "bbox": "6.140444/46.417279/6.17765/46.443136"}}]}