{"type": "FeatureCollection", "name": "TrackSet", "crs": {"type": "name", "properties": {"name": "urn:ogc:def:crs:OGC:1.3:CRS84"}}, "bbox": [9.551009, 46.739593, 9.556744, 46.744423], "features": [{"type": "Feature", "bbox": [9.551009, 46.739593, 9.556744, 46.744423], "geometry": {"type": "LineString", "coordinates": [[9.556051, 46.740169], [9.556096, 46.74015], [9.55604, 46.740183], [9.556085, 46.740178], [9.5562, 46.74011], [9.556238, 46.740084], [9.556232, 46.740048], [9.556178, 46.740064], [9.555993, 46.740218], [9.5559, 46.740066], [9.555794, 46.740037], [9.555771, 46.740056], [9.555651, 46.740263], [9.555653, 46.74036], [9.555403, 46.740552], [9.555341, 46.740734], [9.555368, 46.74072], [9.555333, 46.740877], [9.555107, 46.741137], [9.555145, 46.741184], [9.555139, 46.741301], [9.555219, 46.741411], [9.555221, 46.741482], [9.555283, 46.741583], [9.555245, 46.741712], [9.555247, 46.741877], [9.555054, 46.742201], [9.555022, 46.742278], [9.555036, 46.742356], [9.554956, 46.742425], [9.554989, 46.742522], [9.554859, 46.742663], [9.554882, 46.742717], [9.555083, 46.742818], [9.555067, 46.742916], [9.555007, 46.742896], [9.555025, 46.742927], [9.555067, 46.742936], [9.555067, 46.74291], [9.555076, 46.742932], [9.555019, 46.742943], [9.5551, 46.74296], [9.555082, 46.742931], [9.555022, 46.742928], [9.555102, 46.742949], [9.555079, 46.742921], [9.555113, 46.742924], [9.555179, 46.742982], [9.555171, 46.743026], [9.555252, 46.743118], [9.555316, 46.743293], [9.555326, 46.7435], [9.555376, 46.743545], [9.555407, 46.743653], [9.555605, 46.743743], [9.555539, 46.743808], [9.555626, 46.743871], [9.555592, 46.743866], [9.555562, 46.743923], [9.555353, 46.744031], [9.555222, 46.744058], [9.555057, 46.744001], [9.554723, 46.744154], [9.55408, 46.744128], [9.55376, 46.744188], [9.553565, 46.744165], [9.553096, 46.744035], [9.552949, 46.744046], [9.552925, 46.744023], [9.552629, 46.744053], [9.552535, 46.744094], [9.552295, 46.744098], [9.552059, 46.744137], [9.551853, 46.744261], [9.551803, 46.744246], [9.551815, 46.744278], [9.551806, 46.744251], [9.551853, 46.744258], [9.551828, 46.744258], [9.551836, 46.744238], [9.551845, 46.744266], [9.551825, 46.744244], [9.551816, 46.744262], [9.551824, 46.744244], [9.551744, 46.744241], [9.551649, 46.744242], [9.55162, 46.744262], [9.551196, 46.744244], [9.55109, 46.744267], [9.551079, 46.744209], [9.551053, 46.744231], [9.551121, 46.744191], [9.551098, 46.744346], [9.551048, 46.744353], [9.551081, 46.744398], [9.551058, 46.744423], [9.551043, 46.744377], [9.55101, 46.744386], [9.551053, 46.744407], [9.55106, 46.744386], [9.55108, 46.744412], [9.551089, 46.744352], [9.55106, 46.744362], [9.551065, 46.744348], [9.551009, 46.744395], [9.551028, 46.744403], [9.551037, 46.744374], [9.551054, 46.744402], [9.551033, 46.744351], [9.551058, 46.744374], [9.551018, 46.74434], [9.551023, 46.744383], [9.551016, 46.744364], [9.55104, 46.744395], [9.551053, 46.744373], [9.551075, 46.744412], [9.551087, 46.744379], [9.551049, 46.744388], [9.551087, 46.744376], [9.55109, 46.744415], [9.551052, 46.744388], [9.551183, 46.74433], [9.551307, 46.744192], [9.551538, 46.744081], [9.551686, 46.743946], [9.551722, 46.743945], [9.551722, 46.743885], [9.551797, 46.743833], [9.551823, 46.743775], [9.551659, 46.743629], [9.551654, 46.743588], [9.551675, 46.743551], [9.551775, 46.743511], [9.552053, 46.743296], [9.552496, 46.743212], [9.552549, 46.74317], [9.552694, 46.743148], [9.553043, 46.743278], [9.553346, 46.743334], [9.553498, 46.74341], [9.553569, 46.743412], [9.553713, 46.743327], [9.553811, 46.74331], [9.553949, 46.743333], [9.554105, 46.743403], [9.554151, 46.743398], [9.554195, 46.743344], [9.55401, 46.743149], [9.553934, 46.742999], [9.553968, 46.742844], [9.553904, 46.742753], [9.553971, 46.742681], [9.553923, 46.742706], [9.554033, 46.742669], [9.554382, 46.742782], [9.554825, 46.742827], [9.554839, 46.742809], [9.555008, 46.742807], [9.555043, 46.742655], [9.555141, 46.742495], [9.555132, 46.742399], [9.555193, 46.742318], [9.555175, 46.742118], [9.555257, 46.742005], [9.555304, 46.741825], [9.555282, 46.741551], [9.555216, 46.741371], [9.555181, 46.741125], [9.555298, 46.740981], [9.55541, 46.740605], [9.555628, 46.74043], [9.555727, 46.740239], [9.55588, 46.740052], [9.556139, 46.740103], [9.556167, 46.740086], [9.556188, 46.740115], [9.55623, 46.740083], [9.556212, 46.740056], [9.556264, 46.740034], [9.556069, 46.740143], [9.556068, 46.740189], [9.556162, 46.740137], [9.556364, 46.740098], [9.556414, 46.74002], [9.556477, 46.740007], [9.556517, 46.739955], [9.556744, 46.739882], [9.55673, 46.739742], [9.55661, 46.739595], [9.556525, 46.739593]]}, "properties": {"name": "1790432173.Lenzerheide_for_Luke’s_landing", "cmt": "2026-09-26", "tstamp": 1790380800, "desc": "---", "src": "9.551009/46.739593/9.556744/46.744423", "bbox": "9.551009/46.739593/9.556744/46.744423"}}]}