{"type": "FeatureCollection", "name": "TrackSet", "crs": {"type": "name", "properties": {"name": "urn:ogc:def:crs:OGC:1.3:CRS84"}}, "bbox": [9.510397, 46.713137, 9.548242, 46.727306], "features": [{"type": "Feature", "bbox": [9.510397, 46.713137, 9.548242, 46.727306], "geometry": {"type": "LineString", "coordinates": [[9.546883, 46.725278], [9.547148, 46.72523], [9.547171, 46.725262], [9.547285, 46.725229], [9.547528, 46.7253], [9.547628, 46.725449], [9.547778, 46.725577], [9.547796, 46.725703], [9.548, 46.725849], [9.548132, 46.726021], [9.548242, 46.726095], [9.548164, 46.726203], [9.548201, 46.726227], [9.548104, 46.726234], [9.548034, 46.726193], [9.547932, 46.72618], [9.547827, 46.726118], [9.547624, 46.726089], [9.547504, 46.726047], [9.546618, 46.726014], [9.546266, 46.726068], [9.545946, 46.726063], [9.545665, 46.726089], [9.545339, 46.726187], [9.544892, 46.726272], [9.54444, 46.726272], [9.544307, 46.726354], [9.544231, 46.726601], [9.544047, 46.726763], [9.543963, 46.72682], [9.543454, 46.727031], [9.543279, 46.727216], [9.54312, 46.727266], [9.542906, 46.727203], [9.542848, 46.727208], [9.542619, 46.727114], [9.542449, 46.726945], [9.542564, 46.72666], [9.542665, 46.726571], [9.54272, 46.726475], [9.542703, 46.726434], [9.542531, 46.72645], [9.542215, 46.726618], [9.541634, 46.726728], [9.541511, 46.726696], [9.541484, 46.726651], [9.541507, 46.726588], [9.541703, 46.726445], [9.541754, 46.726208], [9.541691, 46.726182], [9.541598, 46.726201], [9.541487, 46.726267], [9.541194, 46.726377], [9.540936, 46.726427], [9.540585, 46.726545], [9.540415, 46.726553], [9.540298, 46.726519], [9.540002, 46.726594], [9.539824, 46.726605], [9.539967, 46.726926], [9.539922, 46.727004], [9.539797, 46.727052], [9.53956, 46.727057], [9.539403, 46.727008], [9.539331, 46.726944], [9.539213, 46.726918], [9.539127, 46.726952], [9.539043, 46.72695], [9.538872, 46.727039], [9.538655, 46.72711], [9.538542, 46.727117], [9.538455, 46.727149], [9.538385, 46.727141], [9.538219, 46.727216], [9.538186, 46.727189], [9.537963, 46.727221], [9.537937, 46.727254], [9.537851, 46.727234], [9.537666, 46.727306], [9.537607, 46.727301], [9.53744, 46.72717], [9.537691, 46.726839], [9.53767, 46.726757], [9.537695, 46.726642], [9.537566, 46.726388], [9.537421, 46.726367], [9.537407, 46.726321], [9.53733, 46.726285], [9.537149, 46.726276], [9.536593, 46.726356], [9.536326, 46.726267], [9.536264, 46.726277], [9.535994, 46.726235], [9.53586, 46.726173], [9.535711, 46.725905], [9.535497, 46.725819], [9.535326, 46.725902], [9.535285, 46.725951], [9.535275, 46.726037], [9.535311, 46.72612], [9.535247, 46.726246], [9.535104, 46.72641], [9.534795, 46.726483], [9.534753, 46.726462], [9.534702, 46.726351], [9.534651, 46.726333], [9.534427, 46.726419], [9.534316, 46.7264], [9.53405, 46.726254], [9.533982, 46.726179], [9.533976, 46.726118], [9.533898, 46.726046], [9.533764, 46.725993], [9.53351, 46.725939], [9.533278, 46.725801], [9.533207, 46.725787], [9.532862, 46.72551], [9.532669, 46.725274], [9.532625, 46.725194], [9.532733, 46.72502], [9.53295, 46.724866], [9.533086, 46.724818], [9.53319, 46.724809], [9.533163, 46.724689], [9.533072, 46.724665], [9.532891, 46.724663], [9.532657, 46.724757], [9.532462, 46.724792], [9.532489, 46.724786], [9.53241, 46.724722], [9.532001, 46.724491], [9.531785, 46.724397], [9.531593, 46.724369], [9.531516, 46.724327], [9.53125, 46.724288], [9.531014, 46.724182], [9.530824, 46.724146], [9.530505, 46.72388], [9.530465, 46.723771], [9.530627, 46.723484], [9.530678, 46.723188], [9.530623, 46.723083], [9.530478, 46.723006], [9.530464, 46.722904], [9.5306, 46.722831], [9.530794, 46.722557], [9.530913, 46.722044], [9.531022, 46.721975], [9.530917, 46.721892], [9.530896, 46.721905], [9.530823, 46.72186], [9.530812, 46.721894], [9.530822, 46.721868], [9.530535, 46.721843], [9.53004, 46.721884], [9.529442, 46.721845], [9.529178, 46.72161], [9.528797, 46.7215], [9.528322, 46.72099], [9.528152, 46.720871], [9.528126, 46.720888], [9.528089, 46.721208], [9.527946, 46.721574], [9.52785, 46.721698], [9.527777, 46.721702], [9.527325, 46.721567], [9.526897, 46.721516], [9.526705, 46.721516], [9.526549, 46.721456], [9.526464, 46.721328], [9.526473, 46.721265], [9.526228, 46.720776], [9.526063, 46.720567], [9.525537, 46.72041], [9.525194, 46.720257], [9.525096, 46.720176], [9.525056, 46.72002], [9.525077, 46.719868], [9.524916, 46.719666], [9.524626, 46.719429], [9.524609, 46.719216], [9.524442, 46.718743], [9.524185, 46.71839], [9.524139, 46.71827], [9.524161, 46.718206], [9.524123, 46.718022], [9.524069, 46.717922], [9.523915, 46.717787], [9.523847, 46.717676], [9.52384, 46.717517], [9.523773, 46.717316], [9.523536, 46.716939], [9.523481, 46.716923], [9.523434, 46.716946], [9.523299, 46.717157], [9.523211, 46.717177], [9.523148, 46.717029], [9.523048, 46.716975], [9.522854, 46.716761], [9.522697, 46.716673], [9.522564, 46.716656], [9.522172, 46.716534], [9.522008, 46.716455], [9.521736, 46.716392], [9.521563, 46.716317], [9.521499, 46.716317], [9.521451, 46.716346], [9.521405, 46.71646], [9.521314, 46.716446], [9.521283, 46.716472], [9.521113, 46.7163], [9.521063, 46.716198], [9.520897, 46.716064], [9.520729, 46.715853], [9.520604, 46.715757], [9.520536, 46.715745], [9.520447, 46.715686], [9.520188, 46.715642], [9.520084, 46.71564], [9.519859, 46.715709], [9.519897, 46.715428], [9.519881, 46.715375], [9.519809, 46.715365], [9.519703, 46.715286], [9.519701, 46.715179], [9.519382, 46.715116], [9.519371, 46.715077], [9.519403, 46.715054], [9.519276, 46.715001], [9.519134, 46.715052], [9.519092, 46.715044], [9.519073, 46.714964], [9.519125, 46.714867], [9.518979, 46.714739], [9.518682, 46.714629], [9.518646, 46.714556], [9.518494, 46.714438], [9.518308, 46.714234], [9.518255, 46.714113], [9.518191, 46.714068], [9.518109, 46.714033], [9.517929, 46.714048], [9.517731, 46.713999], [9.517308, 46.713722], [9.517158, 46.713596], [9.517166, 46.71356], [9.516976, 46.713449], [9.516899, 46.713434], [9.516734, 46.71332], [9.516485, 46.713252], [9.516026, 46.713222], [9.515617, 46.713137], [9.51531, 46.713292], [9.51513, 46.71333], [9.515006, 46.713384], [9.514978, 46.713357], [9.514923, 46.71336], [9.514808, 46.713444], [9.514322, 46.713578], [9.514234, 46.713584], [9.514175, 46.713667], [9.514005, 46.713724], [9.514128, 46.713809], [9.51414, 46.71386], [9.513709, 46.714088], [9.514229, 46.714553], [9.514296, 46.714705], [9.514241, 46.714818], [9.514272, 46.714907], [9.514591, 46.715189], [9.51449, 46.715234], [9.514345, 46.715232], [9.514277, 46.7152], [9.514164, 46.715268], [9.514094, 46.715259], [9.513958, 46.715318], [9.513835, 46.7153], [9.513752, 46.715347], [9.513625, 46.715303], [9.513551, 46.715358], [9.513439, 46.715369], [9.513378, 46.715432], [9.51316, 46.715522], [9.513191, 46.715559], [9.513261, 46.715556], [9.513279, 46.715574], [9.513179, 46.715647], [9.513156, 46.715719], [9.513303, 46.715792], [9.513259, 46.715864], [9.513241, 46.715833], [9.513151, 46.715975], [9.513274, 46.715988], [9.5133, 46.716014], [9.513327, 46.716121], [9.513408, 46.716237], [9.513435, 46.716351], [9.513411, 46.716386], [9.51348, 46.716458], [9.513477, 46.716605], [9.513365, 46.716858], [9.513398, 46.716997], [9.513372, 46.717064], [9.513325, 46.717171], [9.513145, 46.717297], [9.513101, 46.71742], [9.512895, 46.717628], [9.512628, 46.718006], [9.512553, 46.718055], [9.51248, 46.718263], [9.512388, 46.71841], [9.512255, 46.718507], [9.512143, 46.718701], [9.512031, 46.718795], [9.511952, 46.718918], [9.511739, 46.719017], [9.511676, 46.719083], [9.511595, 46.719069], [9.511518, 46.719014], [9.511442, 46.719137], [9.511345, 46.719127], [9.511338, 46.719185], [9.511298, 46.719215], [9.511302, 46.719282], [9.511226, 46.719368], [9.511191, 46.719483], [9.511109, 46.719561], [9.511073, 46.719676], [9.511004, 46.719746], [9.510897, 46.719998], [9.510732, 46.720157], [9.510771, 46.720265], [9.510599, 46.720462], [9.510511, 46.720631], [9.5105, 46.72084], [9.510432, 46.720906], [9.510397, 46.721009], [9.510493, 46.721163], [9.510447, 46.721526], [9.510492, 46.721639], [9.51062, 46.721739], [9.510638, 46.721785]]}, "properties": {"name": "1790502906.Piz_Scalottas_stomp", "cmt": "2026-09-27", "tstamp": 1790467200, "desc": "UpHill", "src": "9.510397/46.713137/9.548242/46.727306", "bbox": "9.510397/46.713137/9.548242/46.727306"}}, {"type": "Feature", "bbox": [9.510397, 46.713137, 9.548242, 46.727306], "geometry": {"type": "LineString", "coordinates": [[9.510636, 46.721787], [9.510601, 46.721796], [9.510564, 46.721766], [9.51052, 46.721784]]}, "properties": {"name": "1790502906.Piz_Scalottas_stomp", "cmt": "2026-09-27", "tstamp": 1790467200, "desc": "DownHill", "src": "9.510397/46.713137/9.548242/46.727306", "bbox": "9.510397/46.713137/9.548242/46.727306"}}]}