{"type": "FeatureCollection", "name": "TrackSet", "crs": {"type": "name", "properties": {"name": "urn:ogc:def:crs:OGC:1.3:CRS84"}}, "bbox": [9.375515, 46.829958, 9.406909, 46.868114], "features": [{"type": "Feature", "bbox": [9.375515, 46.829958, 9.406909, 46.868114], "geometry": {"type": "LineString", "coordinates": [[9.406909, 46.829958], [9.406779, 46.830029], [9.406681, 46.830222], [9.406816, 46.830044], [9.406738, 46.830078], [9.406629, 46.830204], [9.406632, 46.830252], [9.406692, 46.830259], [9.406536, 46.830433], [9.406581, 46.830532], [9.406463, 46.830588], [9.406397, 46.830716], [9.406453, 46.83111], [9.406392, 46.831246], [9.406427, 46.831288], [9.406474, 46.831534], [9.406576, 46.831745], [9.40658, 46.831854], [9.406296, 46.832273], [9.406189, 46.832559], [9.406094, 46.832684], [9.40603, 46.832942], [9.406039, 46.833089], [9.405965, 46.833156], [9.405976, 46.833209], [9.405977, 46.833109], [9.405921, 46.833083], [9.405926, 46.833021], [9.405831, 46.833009], [9.405792, 46.833043], [9.405788, 46.833101], [9.405914, 46.833221], [9.405943, 46.833849], [9.406, 46.834006], [9.405955, 46.834377], [9.405936, 46.834415], [9.405884, 46.834409], [9.40596, 46.834513], [9.405991, 46.834729], [9.405973, 46.834801], [9.40593, 46.83481], [9.405902, 46.834854], [9.405867, 46.83462], [9.405724, 46.83454], [9.405543, 46.834503], [9.405556, 46.834372], [9.405791, 46.834123], [9.405784, 46.834054], [9.405741, 46.834024], [9.405789, 46.833942], [9.405769, 46.833691], [9.405587, 46.83278], [9.40513, 46.832742], [9.40496, 46.832662], [9.40467, 46.832431], [9.404548, 46.832216], [9.404336, 46.832112], [9.403918, 46.831768], [9.403826, 46.83175], [9.403805, 46.831719], [9.40358, 46.831692], [9.403533, 46.831653], [9.403376, 46.831609], [9.403321, 46.831626], [9.403064, 46.831579], [9.402997, 46.831603], [9.402967, 46.831644], [9.402984, 46.831688], [9.403141, 46.831765], [9.40358, 46.832086], [9.403565, 46.832123], [9.403523, 46.832134], [9.403422, 46.832122], [9.403062, 46.831988], [9.402777, 46.831921], [9.402501, 46.831814], [9.401898, 46.831677], [9.400316, 46.831613], [9.399998, 46.831636], [9.399482, 46.831771], [9.399405, 46.831832], [9.399438, 46.831876], [9.399871, 46.831948], [9.400099, 46.83203], [9.400409, 46.832099], [9.400851, 46.832288], [9.401163, 46.832483], [9.40131, 46.832644], [9.401407, 46.832922], [9.401667, 46.833157], [9.401785, 46.83343], [9.402152, 46.833747], [9.402231, 46.833912], [9.402418, 46.834006], [9.402577, 46.83419], [9.402777, 46.834301], [9.402796, 46.834373], [9.402743, 46.834487], [9.402736, 46.834645], [9.402597, 46.834664], [9.402358, 46.834573], [9.402014, 46.834553], [9.401673, 46.834504], [9.401043, 46.834499], [9.400932, 46.834519], [9.400563, 46.834712], [9.400503, 46.834716], [9.400138, 46.83458], [9.399797, 46.834549], [9.399863, 46.834547], [9.399712, 46.834512], [9.399485, 46.83436], [9.399357, 46.834328], [9.399128, 46.834335], [9.398968, 46.834396], [9.398677, 46.834579], [9.39863, 46.834761], [9.39874, 46.835045], [9.398767, 46.835206], [9.398927, 46.835563], [9.39904, 46.835727], [9.39909, 46.835791], [9.399473, 46.836077], [9.39976, 46.836091], [9.400013, 46.836075], [9.400138, 46.836093], [9.40021, 46.83613], [9.400339, 46.8363], [9.400326, 46.836396], [9.400092, 46.83655], [9.400038, 46.836626], [9.399964, 46.836974], [9.399855, 46.836995], [9.399636, 46.836976], [9.39826, 46.836641], [9.397521, 46.836629], [9.397029, 46.836529], [9.396916, 46.836553], [9.396725, 46.836731], [9.396425, 46.836765], [9.39592, 46.836895], [9.395333, 46.836945], [9.395141, 46.837027], [9.394886, 46.837394], [9.394783, 46.837486], [9.3947, 46.8375], [9.394765, 46.837657], [9.395416, 46.837694], [9.395778, 46.837742], [9.395908, 46.837823], [9.396133, 46.838046], [9.396325, 46.838181], [9.396561, 46.838256], [9.396918, 46.838259], [9.397319, 46.838329], [9.397437, 46.838357], [9.397502, 46.838402], [9.397479, 46.838383], [9.397452, 46.838437], [9.397354, 46.838427], [9.397204, 46.838496], [9.396972, 46.838503], [9.396714, 46.838689], [9.396533, 46.838913], [9.396503, 46.838996], [9.396543, 46.839361], [9.396427, 46.839417], [9.39635, 46.83938], [9.396301, 46.839236], [9.396251, 46.839184], [9.395896, 46.839117], [9.395709, 46.838997], [9.395595, 46.838963], [9.395498, 46.838953], [9.394988, 46.838994], [9.39467, 46.838963], [9.394221, 46.838885], [9.393664, 46.838717], [9.393459, 46.838687], [9.393272, 46.838681], [9.393187, 46.838703], [9.393238, 46.83867], [9.393162, 46.838716], [9.393094, 46.838677], [9.393125, 46.838696], [9.3931, 46.838689], [9.393124, 46.838699], [9.393114, 46.838746], [9.393066, 46.83873], [9.393109, 46.838752], [9.393077, 46.838712], [9.393128, 46.838709], [9.393115, 46.838725], [9.39301, 46.838713], [9.393052, 46.838709], [9.39305, 46.838724], [9.392975, 46.838742], [9.392911, 46.838814], [9.392747, 46.838873], [9.392609, 46.838864], [9.392262, 46.838708], [9.392105, 46.83868], [9.391659, 46.838753], [9.391501, 46.83881], [9.391434, 46.838858], [9.391383, 46.838945], [9.391374, 46.838993], [9.39144, 46.839054], [9.391784, 46.839142], [9.392248, 46.839439], [9.392309, 46.839517], [9.392369, 46.839745], [9.392593, 46.83986], [9.392966, 46.839975], [9.393137, 46.840065], [9.39318, 46.840017], [9.39303, 46.840001], [9.392809, 46.839919], [9.392701, 46.839933], [9.392547, 46.840008], [9.392543, 46.839992], [9.392428, 46.840005], [9.392334, 46.839981], [9.392293, 46.839998], [9.392066, 46.839951], [9.392003, 46.839968], [9.391846, 46.839936], [9.391566, 46.839966], [9.391483, 46.839917], [9.3913, 46.839912], [9.391264, 46.839931], [9.391049, 46.839929], [9.391004, 46.839948], [9.390953, 46.839942], [9.390932, 46.83991], [9.390873, 46.839924], [9.390812, 46.839907], [9.390324, 46.839968], [9.390202, 46.839946], [9.390205, 46.839961], [9.390076, 46.839982], [9.389954, 46.840105], [9.389911, 46.840334], [9.389839, 46.840401], [9.389721, 46.840423], [9.38961, 46.84052], [9.389633, 46.84056], [9.389581, 46.840604], [9.389586, 46.840632], [9.389513, 46.840725], [9.389477, 46.840731], [9.389464, 46.840775], [9.389431, 46.840776], [9.38942, 46.840836], [9.389241, 46.841041], [9.389074, 46.841298], [9.388985, 46.841337], [9.38892, 46.841451], [9.388742, 46.841615], [9.38841, 46.841844], [9.388426, 46.841874], [9.388353, 46.841876], [9.388302, 46.841959], [9.388275, 46.841954], [9.388037, 46.84212], [9.388016, 46.842111], [9.387982, 46.842164], [9.387938, 46.842165], [9.387912, 46.842208], [9.387892, 46.842195], [9.387791, 46.842258], [9.387698, 46.842346], [9.3876, 46.84237], [9.387484, 46.842457], [9.387494, 46.842474], [9.387441, 46.842461], [9.387439, 46.842503], [9.387435, 46.842479], [9.387414, 46.842503], [9.387387, 46.842492], [9.387334, 46.842523], [9.38735, 46.842538], [9.387211, 46.8426], [9.387187, 46.842638], [9.387035, 46.842716], [9.386969, 46.842812], [9.386887, 46.842815], [9.386893, 46.842927], [9.386932, 46.842933], [9.386922, 46.84291], [9.386928, 46.842936], [9.386975, 46.842932], [9.386813, 46.84312], [9.386754, 46.843241], [9.386723, 46.843235], [9.386693, 46.843275], [9.386701, 46.843309], [9.386668, 46.843305], [9.386609, 46.843365], [9.386524, 46.843353], [9.386565, 46.843403], [9.386537, 46.843426], [9.386575, 46.843395], [9.386578, 46.843413], [9.386607, 46.843393], [9.386544, 46.843412], [9.386551, 46.84339], [9.386461, 46.843424], [9.38641, 46.843416], [9.386358, 46.843496], [9.38623, 46.843501], [9.386186, 46.843532], [9.386159, 46.843556], [9.386187, 46.843629], [9.38614, 46.843621], [9.386124, 46.843716], [9.386049, 46.843741], [9.385968, 46.843822], [9.385882, 46.84384], [9.385897, 46.843858], [9.385847, 46.843891], [9.385801, 46.843897], [9.38558, 46.844122], [9.385425, 46.84448], [9.385417, 46.84473], [9.385369, 46.844797], [9.385406, 46.845025], [9.385366, 46.845233], [9.385317, 46.845291], [9.385358, 46.845331], [9.385306, 46.845556], [9.385329, 46.845608], [9.385269, 46.845635], [9.385283, 46.845758], [9.385232, 46.845822], [9.385267, 46.845871], [9.385237, 46.846038], [9.385282, 46.846064], [9.385288, 46.846147], [9.385242, 46.846218], [9.385291, 46.846297], [9.38532, 46.846525], [9.3852, 46.84668], [9.385302, 46.846864], [9.385396, 46.846948], [9.385372, 46.846973], [9.38543, 46.84691], [9.385397, 46.846958], [9.385429, 46.846957], [9.385438, 46.847027], [9.385405, 46.847064], [9.385502, 46.84716], [9.385509, 46.847123], [9.385528, 46.847142], [9.385482, 46.847198], [9.385515, 46.847216], [9.385514, 46.847286], [9.385537, 46.84728], [9.38555, 46.847307], [9.385523, 46.847367], [9.385691, 46.847523], [9.385693, 46.847488], [9.385736, 46.847483], [9.385764, 46.847511], [9.385737, 46.847559], [9.385843, 46.847644], [9.385875, 46.847643], [9.385882, 46.847678], [9.385851, 46.847628], [9.385882, 46.847617], [9.385875, 46.847669], [9.385903, 46.84769], [9.385914, 46.847651], [9.385943, 46.847733], [9.386006, 46.847745], [9.386047, 46.847782], [9.386052, 46.847758], [9.38608, 46.847769], [9.386102, 46.847828], [9.38624, 46.847921], [9.386255, 46.847878], [9.386231, 46.847872], [9.386283, 46.847956], [9.386333, 46.847984], [9.386343, 46.848028], [9.386371, 46.84802], [9.386362, 46.848119], [9.38645, 46.848279], [9.386531, 46.848394], [9.386577, 46.848412], [9.386575, 46.848441], [9.386747, 46.8486], [9.386773, 46.848678], [9.386705, 46.848694], [9.386662, 46.848765], [9.386498, 46.848858], [9.386466, 46.84898], [9.386404, 46.849021], [9.386301, 46.84917], [9.386283, 46.849289], [9.38618, 46.849316], [9.38604, 46.849445], [9.38592, 46.849488], [9.385903, 46.849549], [9.385802, 46.849555], [9.38573, 46.849626], [9.385714, 46.849606], [9.38559, 46.849691], [9.385483, 46.849714], [9.385496, 46.849763], [9.385446, 46.84981], [9.385232, 46.84988], [9.384824, 46.850165], [9.384577, 46.850298], [9.384481, 46.850322], [9.384293, 46.850499], [9.384178, 46.850524], [9.383948, 46.85067], [9.383873, 46.850694], [9.383817, 46.850686], [9.383783, 46.850723], [9.38368, 46.850755], [9.383426, 46.850805], [9.383352, 46.850913], [9.3832, 46.850981], [9.38322, 46.851015], [9.383184, 46.851058], [9.383165, 46.85118], [9.383072, 46.851213], [9.382986, 46.851323], [9.382944, 46.851442], [9.382877, 46.851464], [9.382844, 46.85151], [9.38285, 46.85157], [9.382691, 46.851653], [9.382675, 46.851708], [9.382612, 46.851743], [9.382557, 46.851829], [9.382552, 46.851929], [9.382471, 46.852048], [9.382329, 46.852153], [9.382092, 46.852251], [9.382084, 46.852326], [9.382026, 46.852371], [9.382055, 46.852431], [9.382033, 46.852466], [9.382004, 46.85247], [9.381896, 46.852635], [9.381742, 46.852707], [9.381551, 46.853001], [9.381499, 46.853021], [9.381394, 46.853159], [9.38136, 46.853156], [9.381326, 46.853257], [9.38135, 46.853286], [9.381293, 46.853318], [9.381277, 46.853367], [9.380644, 46.853951], [9.380662, 46.853985], [9.380652, 46.853965], [9.380595, 46.853977], [9.380559, 46.854023], [9.380488, 46.853982], [9.380381, 46.854001], [9.380364, 46.853983], [9.380232, 46.854039], [9.380213, 46.85407], [9.380193, 46.854059], [9.380195, 46.85408], [9.380169, 46.854069], [9.380055, 46.854171], [9.380019, 46.854328], [9.379977, 46.854308], [9.379955, 46.854347], [9.379949, 46.854466], [9.379829, 46.854602], [9.379855, 46.854665], [9.379828, 46.854717], [9.379759, 46.854772], [9.379758, 46.854808], [9.379673, 46.854841], [9.379621, 46.854906], [9.37955, 46.854941], [9.379565, 46.854963], [9.379488, 46.854987], [9.3794, 46.855057], [9.37944, 46.855097], [9.379397, 46.855113], [9.379259, 46.855315], [9.379279, 46.855423], [9.379234, 46.855503], [9.379232, 46.855611], [9.37916, 46.855628], [9.379166, 46.855655], [9.379129, 46.855675], [9.3791, 46.85567], [9.379137, 46.855668], [9.379138, 46.855697], [9.379093, 46.8557], [9.379138, 46.855671], [9.37916, 46.855697], [9.37909, 46.855662], [9.379107, 46.855647], [9.379163, 46.855678], [9.379138, 46.855675], [9.379159, 46.855723], [9.379108, 46.855733], [9.379145, 46.855738], [9.379153, 46.855703], [9.379161, 46.855756], [9.37914, 46.85573], [9.379109, 46.855736], [9.37913, 46.855713], [9.379146, 46.85574], [9.379122, 46.855743], [9.379145, 46.855664], [9.379102, 46.855664], [9.379145, 46.85572], [9.379112, 46.855715], [9.379117, 46.855683], [9.379099, 46.855734], [9.379063, 46.855699], [9.379132, 46.855723], [9.379142, 46.855752], [9.379086, 46.855759], [9.379106, 46.855767], [9.379083, 46.855765], [9.379064, 46.855847], [9.379136, 46.85598], [9.379135, 46.856044], [9.379097, 46.856063], [9.379081, 46.85604], [9.378972, 46.856145], [9.378923, 46.856216], [9.378949, 46.856245], [9.378889, 46.856276], [9.378847, 46.856356], [9.37873, 46.8564], [9.37871, 46.856442], [9.378603, 46.856494], [9.378662, 46.856525], [9.378646, 46.856555], [9.378596, 46.856586], [9.378419, 46.856618], [9.37832, 46.856712], [9.378222, 46.856726], [9.378195, 46.856782], [9.377853, 46.856998], [9.377726, 46.857159], [9.377735, 46.857226], [9.377761, 46.857233], [9.377739, 46.857277], [9.377714, 46.857306], [9.37764, 46.857298], [9.377604, 46.857345], [9.377573, 46.857532], [9.377454, 46.857609], [9.377395, 46.857696], [9.377417, 46.857749], [9.377219, 46.857905], [9.377216, 46.857957], [9.377136, 46.85794], [9.376905, 46.85813], [9.376902, 46.858207], [9.376759, 46.858425], [9.376781, 46.858446], [9.376749, 46.858559], [9.376641, 46.85859], [9.376656, 46.85861], [9.376609, 46.858615], [9.376592, 46.858658], [9.376531, 46.858632], [9.376439, 46.858739], [9.376493, 46.858805], [9.376543, 46.858787], [9.376658, 46.858865], [9.376585, 46.858945], [9.376542, 46.858933], [9.3765, 46.858958], [9.376531, 46.859023], [9.376487, 46.8591], [9.376518, 46.859178], [9.37648, 46.859224], [9.376479, 46.859317], [9.376549, 46.859379], [9.376548, 46.859449], [9.376591, 46.859464], [9.376578, 46.859482], [9.376598, 46.859476], [9.376631, 46.859529], [9.376615, 46.859624], [9.376678, 46.859694], [9.376644, 46.859772], [9.376685, 46.859897], [9.376757, 46.860006], [9.376884, 46.860093], [9.376875, 46.860207], [9.376912, 46.86023], [9.376887, 46.860276], [9.376927, 46.860323], [9.376911, 46.860424], [9.377034, 46.860579], [9.377015, 46.860625], [9.37704, 46.860706], [9.376998, 46.860799], [9.377092, 46.861003], [9.377078, 46.861071], [9.377207, 46.861261], [9.377264, 46.861295], [9.377402, 46.861307], [9.377401, 46.861422], [9.377368, 46.861488], [9.377251, 46.861594], [9.3772, 46.861775], [9.377049, 46.861931], [9.377035, 46.862005], [9.376943, 46.861991], [9.376983, 46.862156], [9.376961, 46.86219], [9.376995, 46.86223], [9.37697, 46.862302], [9.376923, 46.862394], [9.376868, 46.862427], [9.376855, 46.862497], [9.376716, 46.862604], [9.376673, 46.8627], [9.376552, 46.862753], [9.376498, 46.862831], [9.37652, 46.862923], [9.376436, 46.863042], [9.376459, 46.863046], [9.376429, 46.863167], [9.376463, 46.863185], [9.376469, 46.863244], [9.376349, 46.863316], [9.376391, 46.863467], [9.376333, 46.863488], [9.37629, 46.86358], [9.376175, 46.863658], [9.376169, 46.863682], [9.376273, 46.863747], [9.376267, 46.863868], [9.376295, 46.863899], [9.376278, 46.863919], [9.376309, 46.863929], [9.37626, 46.863946], [9.376287, 46.863988], [9.376243, 46.864016], [9.376278, 46.864028], [9.37625, 46.86409], [9.376298, 46.864125], [9.376268, 46.86415], [9.376294, 46.864139], [9.376203, 46.864217], [9.376266, 46.864235], [9.376249, 46.864277], [9.376275, 46.864283], [9.376294, 46.864377], [9.376256, 46.864419], [9.376267, 46.864493], [9.37622, 46.864544], [9.376245, 46.864583], [9.376213, 46.864695], [9.376272, 46.8648], [9.376237, 46.864809], [9.376211, 46.86486], [9.376241, 46.864894], [9.376203, 46.864971], [9.376148, 46.864967], [9.376043, 46.865157], [9.375966, 46.865233], [9.375912, 46.86524], [9.375818, 46.865455], [9.37583, 46.865503], [9.37578, 46.865556], [9.375818, 46.865667], [9.375856, 46.865664], [9.375847, 46.865648], [9.375913, 46.865715], [9.375962, 46.865708], [9.375988, 46.865827], [9.376093, 46.865939], [9.376197, 46.865945], [9.376166, 46.866002], [9.376199, 46.866005], [9.376189, 46.866033], [9.376246, 46.866061], [9.376208, 46.866109], [9.376169, 46.866104], [9.376154, 46.866142], [9.376147, 46.866089], [9.376095, 46.866057], [9.375868, 46.866022], [9.375746, 46.866044], [9.375815, 46.866158], [9.375778, 46.866239], [9.375806, 46.866307], [9.375789, 46.866429], [9.375865, 46.866508], [9.375829, 46.866488], [9.375689, 46.866493], [9.375671, 46.866467], [9.375624, 46.866483], [9.375547, 46.866442], [9.375515, 46.866583], [9.375576, 46.866714], [9.375547, 46.866749], [9.37559, 46.866806], [9.375549, 46.86684], [9.375552, 46.866913], [9.375521, 46.866915], [9.375547, 46.866991], [9.375516, 46.867011], [9.375668, 46.867134], [9.375732, 46.867145], [9.375794, 46.867127], [9.375841, 46.867157], [9.375908, 46.867131], [9.375871, 46.867165], [9.375909, 46.867198], [9.375925, 46.867186], [9.375858, 46.867211], [9.376016, 46.867142], [9.376167, 46.867165], [9.376211, 46.867124], [9.376196, 46.86717], [9.376149, 46.867167], [9.376029, 46.86729], [9.3761, 46.867341], [9.376191, 46.867345], [9.376395, 46.867266], [9.376466, 46.867271], [9.376585, 46.867237], [9.376602, 46.867251], [9.376813, 46.867139], [9.376891, 46.867157], [9.377005, 46.867047], [9.377286, 46.86702], [9.37741, 46.866985], [9.377494, 46.866998], [9.377568, 46.86694], [9.37757, 46.866903], [9.377636, 46.866901], [9.377675, 46.866925], [9.377763, 46.866888], [9.377785, 46.86703], [9.377827, 46.867088], [9.377817, 46.867141], [9.377874, 46.867167], [9.377916, 46.867233], [9.377885, 46.867265], [9.377928, 46.867285], [9.378142, 46.867187], [9.378226, 46.867069], [9.378376, 46.866984], [9.378385, 46.866944], [9.378525, 46.866912], [9.378546, 46.866867], [9.378601, 46.866855], [9.378621, 46.866771], [9.378742, 46.866613], [9.378751, 46.866534], [9.378845, 46.866436], [9.378858, 46.866384], [9.378929, 46.866358], [9.378923, 46.866331], [9.37897, 46.866333], [9.379113, 46.866264], [9.379214, 46.866295], [9.379396, 46.866237], [9.379421, 46.86625], [9.379385, 46.866241], [9.379571, 46.86614], [9.379807, 46.865893], [9.379888, 46.865857], [9.380228, 46.865753], [9.380316, 46.865747], [9.380391, 46.865692], [9.380474, 46.865685], [9.380522, 46.865742], [9.380666, 46.865752], [9.380772, 46.865723], [9.380822, 46.865759], [9.380688, 46.865689], [9.380493, 46.865871], [9.380485, 46.86596], [9.380387, 46.866005], [9.380287, 46.866096], [9.380142, 46.866138], [9.379914, 46.866251], [9.379751, 46.866287], [9.379532, 46.866516], [9.379457, 46.866683], [9.379231, 46.86685], [9.379352, 46.86685], [9.379414, 46.866799], [9.37954, 46.866546], [9.37969, 46.866399], [9.379792, 46.86647], [9.37991, 46.866484], [9.380033, 46.866567], [9.380105, 46.866563], [9.38015, 46.86662], [9.380197, 46.866611], [9.380175, 46.866644], [9.380229, 46.866626], [9.380181, 46.866632], [9.380223, 46.86669], [9.380237, 46.866671], [9.380299, 46.866682], [9.380378, 46.866756], [9.380399, 46.86674], [9.380367, 46.866797], [9.38052, 46.866882], [9.380538, 46.866918], [9.380491, 46.866916], [9.380488, 46.86695], [9.380599, 46.867045], [9.380499, 46.867029], [9.380505, 46.867047], [9.380452, 46.867051], [9.380435, 46.867083], [9.380391, 46.867079], [9.38036, 46.867112], [9.380389, 46.867134], [9.380371, 46.867119], [9.380356, 46.867149], [9.380388, 46.867239], [9.380339, 46.867251], [9.380305, 46.867318], [9.380389, 46.867331], [9.380383, 46.867416], [9.380421, 46.867421], [9.380471, 46.867523], [9.380531, 46.867544], [9.380534, 46.867576], [9.380454, 46.867617], [9.380341, 46.867629], [9.380249, 46.867679]]}, "properties": {"name": "1790324993.Ringelspitzhütte_via_Baldachopf", "cmt": "2026-09-25", "tstamp": 1790294400, "desc": "UpHill", "src": "9.375515/46.829958/9.406909/46.868114", "bbox": "9.375515/46.829958/9.406909/46.868114"}}, {"type": "Feature", "bbox": [9.375515, 46.829958, 9.406909, 46.868114], "geometry": {"type": "LineString", "coordinates": [[9.380243, 46.867681], [9.379949, 46.867724], [9.379846, 46.867807], [9.379823, 46.867851], [9.379852, 46.867905], [9.3798, 46.867931], [9.379766, 46.867999], [9.379809, 46.86805], [9.379972, 46.868099], [9.379998, 46.868017], [9.380024, 46.868013], [9.379996, 46.868011], [9.380014, 46.868021], [9.379943, 46.868084], [9.379938, 46.868056], [9.379967, 46.868058], [9.379931, 46.868059], [9.379966, 46.868076], [9.379916, 46.868042], [9.380063, 46.868114], [9.380036, 46.868078], [9.380111, 46.868081], [9.380108, 46.868035], [9.380152, 46.868042], [9.380143, 46.868023], [9.380113, 46.86803], [9.380122, 46.868014], [9.380081, 46.86805], [9.380115, 46.868054], [9.380102, 46.868086], [9.379988, 46.868094], [9.379978, 46.868032], [9.379895, 46.868037], [9.379885, 46.86802], [9.379879, 46.868047], [9.379806, 46.868049], [9.379816, 46.867944], [9.37986, 46.867845], [9.379918, 46.867796], [9.379886, 46.867786], [9.379984, 46.867767], [9.379993, 46.867736], [9.380126, 46.867681], [9.380129, 46.86764], [9.380196, 46.867569], [9.380227, 46.86757], [9.380235, 46.86745], [9.380325, 46.867465], [9.380391, 46.867428], [9.380396, 46.867369], [9.380298, 46.867323], [9.380341, 46.86731], [9.380356, 46.867245], [9.380401, 46.86722], [9.380405, 46.867172], [9.380362, 46.86716], [9.380387, 46.867142], [9.380415, 46.867154], [9.380391, 46.8671], [9.380577, 46.867033], [9.380536, 46.866971], [9.380406, 46.866919], [9.380401, 46.866815], [9.380325, 46.866781], [9.380343, 46.866743], [9.380391, 46.866744], [9.380307, 46.866694], [9.38031, 46.866665], [9.380261, 46.866669], [9.380351, 46.866667], [9.380359, 46.866622], [9.380551, 46.866572], [9.380696, 46.866437], [9.380708, 46.866349], [9.380785, 46.866377], [9.380739, 46.866306], [9.3807, 46.866312], [9.380609, 46.866269], [9.380408, 46.866112], [9.380443, 46.865994], [9.380514, 46.86594], [9.380511, 46.865899], [9.380614, 46.865813], [9.380604, 46.865793], [9.380632, 46.865814]]}, "properties": {"name": "1790324993.Ringelspitzhütte_via_Baldachopf", "cmt": "2026-09-25", "tstamp": 1790294400, "desc": "DownHill", "src": "9.375515/46.829958/9.406909/46.868114", "bbox": "9.375515/46.829958/9.406909/46.868114"}}]}