{"type": "FeatureCollection", "name": "TrackSet", "crs": {"type": "name", "properties": {"name": "urn:ogc:def:crs:OGC:1.3:CRS84"}}, "bbox": [9.404235, 46.830003, 9.416581, 46.858395], "features": [{"type": "Feature", "bbox": [9.404235, 46.830003, 9.416581, 46.858395], "geometry": {"type": "LineString", "coordinates": [[9.411649, 46.855762], [9.411872, 46.855319], [9.412142, 46.855053], [9.41267, 46.854361], [9.413033, 46.85413], [9.41304, 46.854145], [9.413105, 46.854127], [9.413126, 46.854179], [9.412967, 46.85435], [9.412965, 46.854455], [9.413514, 46.855282], [9.413553, 46.855404], [9.413431, 46.856065], [9.413488, 46.856577], [9.413565, 46.85667], [9.413787, 46.856831], [9.413831, 46.856835], [9.414036, 46.857024], [9.414277, 46.857446], [9.414451, 46.857657], [9.414714, 46.857927], [9.415073, 46.858234], [9.415305, 46.858364], [9.41545, 46.858395], [9.415495, 46.858333], [9.415612, 46.858325], [9.415754, 46.858218], [9.415804, 46.858219], [9.415823, 46.858186], [9.415887, 46.85819], [9.415935, 46.85816], [9.415982, 46.858193], [9.415953, 46.858181], [9.416034, 46.858147], [9.416101, 46.858051], [9.415969, 46.858001], [9.415886, 46.858009], [9.415784, 46.857933], [9.415606, 46.857667], [9.415499, 46.857582], [9.415439, 46.857319], [9.415352, 46.857293], [9.415385, 46.857267], [9.415337, 46.857251], [9.415348, 46.857203], [9.41539, 46.857156], [9.415296, 46.857004], [9.415274, 46.856886], [9.415302, 46.856879], [9.41526, 46.856773], [9.415285, 46.856577], [9.415248, 46.856497], [9.415416, 46.856299], [9.415488, 46.856112], [9.41548, 46.856009], [9.41559, 46.855895], [9.415773, 46.855493], [9.415825, 46.855457], [9.415854, 46.855386], [9.415833, 46.855365], [9.415902, 46.85533], [9.41592, 46.855233], [9.415959, 46.855215], [9.415943, 46.855083], [9.415974, 46.855025], [9.415945, 46.854976], [9.416006, 46.854908], [9.415974, 46.854943], [9.415823, 46.854911], [9.415856, 46.854925], [9.415847, 46.854969], [9.415978, 46.854987], [9.415992, 46.855017], [9.416161, 46.855014], [9.416192, 46.854975], [9.416164, 46.854968], [9.416173, 46.85494], [9.416275, 46.854883], [9.416296, 46.854836], [9.416271, 46.854815], [9.416321, 46.854803], [9.416266, 46.854761], [9.416321, 46.854716], [9.416269, 46.854695], [9.416254, 46.854657], [9.416283, 46.854628], [9.416319, 46.854644], [9.416348, 46.854582], [9.416366, 46.854597], [9.416307, 46.85455], [9.416331, 46.854519], [9.416365, 46.854523], [9.416298, 46.854333], [9.416341, 46.854331], [9.416342, 46.854307], [9.416248, 46.854303], [9.416292, 46.85431], [9.416302, 46.854278], [9.416329, 46.854288], [9.416312, 46.854222], [9.416332, 46.854235], [9.416365, 46.854191], [9.41641, 46.854186], [9.416393, 46.85402], [9.41645, 46.85399], [9.416418, 46.853983], [9.416499, 46.853862], [9.416478, 46.853805], [9.416506, 46.853833], [9.416565, 46.853752], [9.41655, 46.853642], [9.416523, 46.853628], [9.416581, 46.853531], [9.416524, 46.85344], [9.41655, 46.853449], [9.416522, 46.853412], [9.416541, 46.85337], [9.416465, 46.853217], [9.416514, 46.853145], [9.416474, 46.853058], [9.416521, 46.853014], [9.416484, 46.852975], [9.416524, 46.852957], [9.416527, 46.852908], [9.416439, 46.852821], [9.416486, 46.852805], [9.416444, 46.852803], [9.416519, 46.852737], [9.416573, 46.852586], [9.416525, 46.85254], [9.416529, 46.852438], [9.416465, 46.852402], [9.416464, 46.852307], [9.416428, 46.852288], [9.416444, 46.852247], [9.41615, 46.851629], [9.416027, 46.851437], [9.415923, 46.851084], [9.415844, 46.850951], [9.415846, 46.850877], [9.415733, 46.8508], [9.415709, 46.850817], [9.415685, 46.850779], [9.415582, 46.850756], [9.415458, 46.850766], [9.415253, 46.850691], [9.415186, 46.850701], [9.414745, 46.850369], [9.414709, 46.850015], [9.414362, 46.849687], [9.414369, 46.849641], [9.414417, 46.849623], [9.414404, 46.849586], [9.414356, 46.849609], [9.414373, 46.84959], [9.414331, 46.849593], [9.414192, 46.849508], [9.414169, 46.849422], [9.414202, 46.849418], [9.414196, 46.84937], [9.414145, 46.849352], [9.414124, 46.849365], [9.414073, 46.849309], [9.414091, 46.849269], [9.41406, 46.849212], [9.414044, 46.849223], [9.414049, 46.849181], [9.414099, 46.849172], [9.413903, 46.84866], [9.413915, 46.848453], [9.413897, 46.848484], [9.413657, 46.848424], [9.413665, 46.848352], [9.41364, 46.848355], [9.413619, 46.848312], [9.41365, 46.848305], [9.413607, 46.848286], [9.413557, 46.848187], [9.413442, 46.848192], [9.413361, 46.848149], [9.413239, 46.848019], [9.413016, 46.847985], [9.412927, 46.847927], [9.412815, 46.847918], [9.412764, 46.847935], [9.41255, 46.847878], [9.412517, 46.847848], [9.412456, 46.84787], [9.412328, 46.847843], [9.412295, 46.847809], [9.412151, 46.847776], [9.412143, 46.847746], [9.412107, 46.847746], [9.412016, 46.847681], [9.411873, 46.847665], [9.411709, 46.847603], [9.411682, 46.847562], [9.411642, 46.847585], [9.411546, 46.847561], [9.41136, 46.847463], [9.41133, 46.847421], [9.411215, 46.847399], [9.411126, 46.847288], [9.410997, 46.847273], [9.410837, 46.847177], [9.410786, 46.847118], [9.410584, 46.847079], [9.410543, 46.847042], [9.410325, 46.846976], [9.410224, 46.846907], [9.410109, 46.846901], [9.409849, 46.846791], [9.409671, 46.84676], [9.409631, 46.846721], [9.409536, 46.846712], [9.409363, 46.84664], [9.409255, 46.846638], [9.409186, 46.846597], [9.409039, 46.846562], [9.408982, 46.846576], [9.408724, 46.846477], [9.408558, 46.846462], [9.408429, 46.846386], [9.407896, 46.846217], [9.407781, 46.846203], [9.407665, 46.846151], [9.407675, 46.84613], [9.407611, 46.846144], [9.407606, 46.84617], [9.407605, 46.846131], [9.407581, 46.846136], [9.407461, 46.846], [9.407354, 46.845949], [9.407174, 46.845793], [9.407121, 46.845657], [9.407058, 46.845627], [9.406921, 46.845466], [9.406884, 46.845347], [9.406822, 46.845301], [9.40673, 46.845107], [9.406694, 46.844908], [9.406635, 46.844869], [9.406558, 46.844724], [9.40635, 46.844573], [9.406206, 46.844404], [9.405996, 46.844274], [9.405684, 46.843859], [9.405568, 46.843641], [9.405377, 46.843055], [9.405233, 46.842745], [9.405252, 46.842566], [9.405122, 46.842119], [9.405036, 46.842039], [9.404945, 46.842004], [9.404778, 46.841808], [9.404453, 46.841653], [9.404417, 46.841606], [9.40441, 46.841438], [9.404274, 46.84114], [9.404252, 46.841005], [9.404276, 46.840908], [9.404235, 46.840799], [9.404286, 46.840569], [9.4043, 46.840176], [9.404339, 46.840135], [9.404352, 46.839926], [9.404393, 46.839818], [9.404372, 46.839604], [9.404584, 46.838675], [9.404586, 46.838283], [9.404761, 46.837894], [9.405081, 46.837352], [9.405127, 46.837134], [9.405374, 46.836614], [9.405331, 46.836169], [9.405382, 46.835972], [9.405365, 46.835888], [9.405431, 46.835786], [9.405438, 46.835681], [9.405505, 46.835568], [9.405497, 46.835476], [9.405585, 46.835266], [9.405562, 46.835107], [9.405592, 46.83496], [9.405551, 46.83488], [9.405547, 46.834766], [9.405594, 46.834591], [9.40563, 46.83456], [9.405672, 46.83456], [9.405802, 46.834678], [9.405724, 46.834709], [9.405739, 46.834776], [9.405715, 46.834795], [9.405805, 46.834871], [9.405877, 46.834885], [9.40586, 46.834807], [9.405888, 46.834757], [9.405843, 46.834689], [9.406037, 46.834518], [9.406007, 46.834273], [9.406047, 46.834176], [9.406093, 46.833799], [9.406037, 46.833579], [9.406014, 46.833291], [9.406088, 46.832915], [9.406078, 46.832737], [9.406251, 46.832594], [9.406257, 46.832427], [9.406447, 46.832036], [9.406558, 46.83191], [9.406578, 46.831688], [9.40646, 46.831238], [9.40644, 46.831005], [9.406506, 46.830786], [9.406523, 46.83059], [9.406483, 46.830398], [9.406527, 46.83015], [9.406755, 46.830003]]}, "properties": {"name": "1790425385.Kunkelpass_down", "cmt": "2026-09-26", "tstamp": 1790380800, "desc": "---", "src": "9.404235/46.830003/9.416581/46.858395", "bbox": "9.404235/46.830003/9.416581/46.858395"}}]}