{"type": "FeatureCollection", "name": "TrackSet", "crs": {"type": "name", "properties": {"name": "urn:ogc:def:crs:OGC:1.3:CRS84"}}, "bbox": [9.214622, 47.112124, 9.218715, 47.115103], "features": [{"type": "Feature", "bbox": [9.214622, 47.112124, 9.218715, 47.115103], "geometry": {"type": "LineString", "coordinates": [[9.218607, 47.112273], [9.218643, 47.112124], [9.218607, 47.112273], [9.218652, 47.112278], [9.218604, 47.112173], [9.218485, 47.11219], [9.218418, 47.112249], [9.218292, 47.112284], [9.218287, 47.112336], [9.218112, 47.11235], [9.218057, 47.112407], [9.217978, 47.112424], [9.21794, 47.112383], [9.217785, 47.11237], [9.217706, 47.112464], [9.217623, 47.112473], [9.217589, 47.112456], [9.217412, 47.112526], [9.217285, 47.11262], [9.217103, 47.112625], [9.217038, 47.112683], [9.216941, 47.112686], [9.216782, 47.112647], [9.216706, 47.112688], [9.216464, 47.112691], [9.216213, 47.112647], [9.216073, 47.112647], [9.215876, 47.112598], [9.215792, 47.112535], [9.215688, 47.11251], [9.215696, 47.112433], [9.215702, 47.112454], [9.21569, 47.11244], [9.215622, 47.11247], [9.215586, 47.11246], [9.215632, 47.112496], [9.215615, 47.112553], [9.215569, 47.112619], [9.215507, 47.112599], [9.215473, 47.112659], [9.215389, 47.112688], [9.215352, 47.112759], [9.215308, 47.112779], [9.215311, 47.112861], [9.215069, 47.112775], [9.215585, 47.113052], [9.215509, 47.113131], [9.215294, 47.113169], [9.215246, 47.113183], [9.215256, 47.113198], [9.215285, 47.113174], [9.215492, 47.113176], [9.215602, 47.113151], [9.215644, 47.113072], [9.215697, 47.11308], [9.215717, 47.113058], [9.215626, 47.113064], [9.215605, 47.11305], [9.215634, 47.113042], [9.215795, 47.113077], [9.215891, 47.113065], [9.215871, 47.113051], [9.215822, 47.113065], [9.215993, 47.113064], [9.216008, 47.113095], [9.216212, 47.113045], [9.216359, 47.113038], [9.217013, 47.113064], [9.217217, 47.11311], [9.217534, 47.11314], [9.217585, 47.113236], [9.217788, 47.113234], [9.217773, 47.113315], [9.217818, 47.113373], [9.217936, 47.113459], [9.218104, 47.113515], [9.218141, 47.113508], [9.218184, 47.113575], [9.218116, 47.113665], [9.21776, 47.113771], [9.217718, 47.113815], [9.217773, 47.114012], [9.218024, 47.114461], [9.217988, 47.114521], [9.217892, 47.114572], [9.217949, 47.114785], [9.217929, 47.114614], [9.21789, 47.114582], [9.217748, 47.114695], [9.21775, 47.114726], [9.217582, 47.114783], [9.217555, 47.114818], [9.217371, 47.114891], [9.21733, 47.114939], [9.217322, 47.114907], [9.217289, 47.114914], [9.217344, 47.114817], [9.217304, 47.114795], [9.21706, 47.114853], [9.217035, 47.114879], [9.216955, 47.11487], [9.216811, 47.114951], [9.216415, 47.115069], [9.216205, 47.115063], [9.216203, 47.115088], [9.216107, 47.115079], [9.216101, 47.115103], [9.216109, 47.115089], [9.215851, 47.115075], [9.21557, 47.115102], [9.215474, 47.115072], [9.215427, 47.11509], [9.215199, 47.115038], [9.215162, 47.115048], [9.215137, 47.115025], [9.2153, 47.114799], [9.215391, 47.114773], [9.215637, 47.114795], [9.215917, 47.114788], [9.216054, 47.1147], [9.216139, 47.114169], [9.216247, 47.113887], [9.216235, 47.113778], [9.216318, 47.113732], [9.216368, 47.113461], [9.216103, 47.11342], [9.215939, 47.113456], [9.215658, 47.113476], [9.215258, 47.113465], [9.215145, 47.113454], [9.21509, 47.113424], [9.214924, 47.113427], [9.214869, 47.113408], [9.214917, 47.113429], [9.214879, 47.113429], [9.214873, 47.113547], [9.214938, 47.113568], [9.214957, 47.1136], [9.21483, 47.113401], [9.214934, 47.112945], [9.214909, 47.11366], [9.214869, 47.113669], [9.21482, 47.113504], [9.214895, 47.113187], [9.214836, 47.113048], [9.214813, 47.112869], [9.214754, 47.112785], [9.214748, 47.112688], [9.214807, 47.112662], [9.21495, 47.112705], [9.21497, 47.112736], [9.215168, 47.112522], [9.21504, 47.112744], [9.214622, 47.112393], [9.214693, 47.112415], [9.214904, 47.112562], [9.214859, 47.112692], [9.215215, 47.112852], [9.215378, 47.11274], [9.215596, 47.11252], [9.215678, 47.112542], [9.215839, 47.112648], [9.216184, 47.112717], [9.216424, 47.112688], [9.216509, 47.112717], [9.216964, 47.112739], [9.21717, 47.112773], [9.217287, 47.112646], [9.217419, 47.112601], [9.217535, 47.112526], [9.217676, 47.112549], [9.217904, 47.11251], [9.218127, 47.112387], [9.218343, 47.112331], [9.218444, 47.112242], [9.218534, 47.112217], [9.218665, 47.112214], [9.218658, 47.112265], [9.218642, 47.112248], [9.218715, 47.112251], [9.218584, 47.112152], [9.218604, 47.112184], [9.21852, 47.11222], [9.21846, 47.112189], [9.218534, 47.1122], [9.218512, 47.112213], [9.218559, 47.112179], [9.218534, 47.1122]]}, "properties": {"name": "1790279701.Murg_Night_Walk", "cmt": "2026-09-24", "tstamp": 1790208000, "desc": "---", "src": "9.214622/47.112124/9.218715/47.115103", "bbox": "9.214622/47.112124/9.218715/47.115103"}}]}