{"type": "FeatureCollection", "name": "TrackSet", "crs": {"type": "name", "properties": {"name": "urn:ogc:def:crs:OGC:1.3:CRS84"}}, "bbox": [6.158058, 46.428423, 6.204957, 46.448343], "features": [{"type": "Feature", "bbox": [6.158058, 46.428423, 6.204957, 46.448343], "geometry": {"type": "LineString", "coordinates": [[6.204544, 46.428524], [6.20477, 46.428732], [6.204799, 46.4288], [6.204882, 46.428821], [6.204876, 46.428981], [6.204826, 46.429015], [6.204707, 46.429023], [6.204654, 46.42907], [6.204522, 46.429118], [6.204281, 46.429165], [6.2041, 46.429303], [6.203876, 46.429573], [6.203668, 46.429721], [6.203674, 46.429883], [6.203798, 46.430078], [6.203788, 46.430119], [6.203525, 46.430321], [6.203256, 46.430467], [6.203199, 46.430473], [6.203097, 46.430436], [6.202929, 46.430305], [6.202488, 46.430212], [6.202339, 46.430211], [6.201436, 46.43035], [6.200988, 46.430367], [6.200808, 46.430439], [6.200752, 46.430498], [6.200575, 46.430596], [6.200382, 46.430659], [6.200178, 46.430789], [6.200131, 46.430848], [6.200116, 46.430829], [6.200059, 46.430848], [6.199955, 46.43091], [6.199858, 46.430978], [6.199565, 46.431285], [6.199132, 46.43153], [6.197773, 46.431966], [6.197613, 46.431999], [6.197506, 46.431982], [6.197201, 46.432028], [6.197162, 46.432011], [6.196484, 46.432051], [6.195676, 46.432067], [6.194785, 46.432175], [6.19453, 46.432243], [6.194184, 46.432412], [6.194008, 46.432561], [6.193633, 46.432791], [6.191882, 46.433621], [6.190117, 46.434578], [6.18931, 46.435096], [6.188923, 46.435315], [6.188811, 46.435441], [6.188653, 46.435773], [6.18847, 46.435823], [6.188231, 46.435707], [6.188033, 46.435816], [6.187758, 46.435866], [6.187541, 46.435868], [6.187105, 46.435821], [6.186493, 46.435851], [6.185892, 46.436113], [6.185691, 46.436157], [6.18552, 46.436157], [6.185425, 46.436311], [6.185257, 46.436447], [6.185137, 46.436466], [6.185061, 46.436524], [6.184605, 46.43666], [6.184477, 46.436806], [6.184365, 46.436862], [6.184335, 46.43693], [6.184052, 46.437232], [6.183963, 46.43725], [6.18386, 46.437314], [6.183758, 46.437391], [6.183735, 46.437446], [6.183625, 46.437496], [6.18356, 46.43757], [6.183215, 46.437695], [6.183085, 46.437859], [6.182808, 46.438065], [6.182643, 46.438121], [6.182468, 46.438115], [6.182146, 46.438177], [6.18205, 46.438216], [6.182029, 46.438306], [6.181826, 46.438312], [6.181747, 46.438348], [6.181776, 46.438538], [6.181854, 46.438671], [6.181897, 46.438864], [6.181959, 46.438954], [6.182012, 46.439274], [6.182042, 46.439307], [6.181983, 46.439451], [6.18189, 46.439547], [6.181871, 46.439642], [6.181795, 46.439764], [6.181564, 46.439927], [6.181547, 46.439983], [6.181471, 46.440039], [6.181354, 46.440093], [6.181246, 46.44011], [6.18119, 46.440165], [6.181089, 46.440201], [6.18088, 46.440265], [6.180762, 46.440248], [6.180695, 46.440266], [6.180457, 46.440196], [6.180251, 46.440193], [6.180079, 46.440222], [6.179978, 46.440293], [6.179959, 46.440471], [6.180172, 46.440716], [6.180298, 46.440972], [6.180269, 46.441171], [6.180291, 46.441258], [6.180032, 46.441517], [6.179973, 46.441526], [6.17981, 46.441662], [6.179541, 46.441978], [6.17941, 46.442016], [6.179349, 46.442072], [6.179325, 46.442101], [6.17933, 46.442259], [6.179342, 46.442347], [6.179441, 46.44245], [6.179872, 46.44257], [6.17994, 46.442564], [6.180064, 46.44263], [6.180308, 46.44288], [6.180419, 46.443043], [6.180534, 46.443146], [6.180452, 46.443121], [6.18067, 46.443477], [6.180659, 46.443535], [6.180847, 46.443872], [6.18099, 46.443972], [6.181036, 46.444043], [6.181166, 46.44414], [6.181544, 46.444517], [6.181892, 46.445055], [6.181977, 46.445095], [6.18207, 46.445238], [6.182155, 46.445312], [6.18197, 46.445188], [6.181783, 46.445193], [6.181217, 46.445127], [6.181174, 46.445066], [6.180954, 46.444997], [6.180319, 46.44467], [6.180142, 46.444587], [6.180062, 46.444579], [6.17991, 46.444494], [6.179848, 46.444495], [6.179514, 46.444383], [6.179343, 46.44439], [6.179267, 46.444356], [6.179168, 46.444424], [6.179152, 46.444484], [6.179069, 46.444516], [6.178997, 46.444486], [6.178899, 46.444497], [6.178868, 46.444529], [6.178616, 46.444593], [6.178484, 46.444603], [6.178244, 46.444565], [6.178098, 46.444593], [6.177885, 46.44455], [6.177584, 46.44467], [6.177515, 46.444666], [6.177429, 46.444695], [6.17729, 46.444677], [6.1768, 46.444751], [6.176775, 46.444766], [6.17681, 46.444773], [6.176754, 46.444781], [6.176799, 46.444745], [6.176774, 46.444793], [6.176759, 46.444753], [6.176698, 46.444728], [6.17643, 46.444696], [6.176281, 46.444703], [6.175874, 46.444619], [6.17579, 46.444655], [6.175767, 46.444624], [6.175559, 46.444719], [6.175335, 46.444759], [6.175304, 46.444784], [6.175089, 46.444787], [6.17489, 46.444822], [6.174685, 46.444894], [6.174604, 46.444893], [6.174313, 46.445047], [6.17427, 46.445031], [6.173414, 46.445211], [6.172939, 46.445266], [6.171862, 46.445273], [6.170981, 46.445371], [6.170879, 46.445357], [6.170726, 46.445393], [6.170389, 46.445348], [6.169951, 46.445349], [6.169591, 46.445444], [6.169232, 46.445382], [6.169265, 46.445399], [6.169231, 46.445424], [6.169057, 46.44543], [6.168721, 46.445512], [6.168463, 46.445637], [6.168254, 46.445698], [6.168141, 46.445773], [6.168138, 46.445806], [6.167996, 46.445839], [6.167782, 46.445952], [6.167708, 46.446063], [6.167629, 46.446076], [6.167502, 46.446177], [6.167421, 46.446201], [6.167304, 46.44628], [6.167219, 46.446294], [6.167167, 46.446358], [6.167016, 46.446405], [6.166936, 46.446462], [6.166789, 46.446644], [6.166818, 46.446742], [6.166637, 46.44683], [6.166629, 46.44688], [6.166495, 46.446965], [6.166403, 46.44711], [6.166244, 46.44721], [6.166211, 46.447257], [6.166149, 46.447296], [6.165921, 46.447346], [6.165904, 46.44737], [6.165852, 46.447344], [6.165803, 46.447353], [6.16569, 46.447444], [6.165642, 46.447438], [6.165543, 46.447478], [6.165246, 46.447485], [6.165219, 46.447594], [6.165121, 46.447689], [6.16503, 46.447751], [6.164912, 46.447775], [6.164799, 46.447831], [6.164523, 46.447879], [6.164397, 46.447945], [6.164164, 46.44801], [6.164176, 46.447994], [6.164129, 46.447969], [6.163795, 46.448063], [6.16376, 46.448062], [6.163707, 46.447989], [6.163483, 46.447929], [6.163238, 46.447894], [6.163114, 46.447853], [6.162866, 46.447863], [6.16268, 46.447974], [6.162653, 46.448025], [6.162659, 46.448194], [6.16262, 46.44825], [6.162507, 46.448258], [6.162423, 46.448331], [6.16231, 46.448343], [6.16221, 46.44834], [6.162051, 46.448288], [6.161757, 46.448265], [6.161441, 46.448315], [6.161322, 46.448267], [6.161356, 46.448271], [6.161362, 46.448234], [6.161368, 46.448265], [6.161326, 46.448284], [6.161315, 46.448208], [6.161157, 46.448268], [6.161086, 46.448112], [6.160966, 46.448091], [6.160737, 46.447954], [6.160679, 46.447956]]}, "properties": {"name": "1791643700.St_Cergue_at_dusk", "cmt": "2026-10-10", "tstamp": 1791590400, "desc": "UpHill", "src": "6.158058/46.428423/6.204957/46.448343", "bbox": "6.158058/46.428423/6.204957/46.448343"}}, {"type": "Feature", "bbox": [6.158058, 46.428423, 6.204957, 46.448343], "geometry": {"type": "LineString", "coordinates": [[6.160649, 46.447948], [6.160424, 46.447894], [6.160294, 46.44782], [6.160026, 46.447805], [6.159684, 46.447683], [6.159544, 46.447567], [6.159273, 46.447428], [6.159089, 46.4473], [6.158893, 46.44725], [6.158774, 46.447299], [6.158662, 46.447273], [6.158665, 46.447289], [6.158728, 46.447297], [6.158749, 46.447279], [6.158715, 46.447075], [6.158635, 46.446961], [6.158602, 46.446979], [6.158624, 46.447009], [6.158765, 46.44699], [6.158737, 46.446922], [6.158746, 46.44706], [6.15855, 46.44686], [6.158665, 46.447005], [6.158099, 46.446852], [6.15856, 46.446865], [6.15833, 46.446677], [6.158306, 46.446541], [6.158218, 46.446499], [6.158553, 46.446746], [6.158639, 46.44672], [6.158574, 46.446722], [6.158468, 46.44665], [6.15843, 46.446398], [6.15834, 46.44628], [6.15822, 46.446007], [6.158176, 46.445996], [6.158183, 46.445957], [6.158127, 46.44598], [6.158152, 46.445929], [6.158129, 46.445941], [6.158143, 46.445896], [6.158104, 46.445919], [6.15812, 46.445772], [6.158058, 46.445664], [6.158145, 46.445445], [6.158099, 46.445381], [6.158133, 46.445386], [6.15814, 46.445417], [6.158175, 46.44535], [6.158256, 46.445322], [6.158369, 46.445229], [6.158339, 46.445169], [6.158373, 46.445143], [6.158361, 46.445107], [6.158718, 46.444919], [6.158806, 46.444825], [6.15879, 46.444776], [6.158811, 46.444805], [6.158814, 46.444781], [6.158967, 46.444688], [6.159109, 46.444672], [6.1594, 46.444523], [6.159599, 46.444468], [6.15968, 46.444396], [6.160047, 46.444249], [6.160301, 46.444169], [6.160489, 46.444153], [6.16101, 46.443983], [6.161152, 46.443977], [6.161421, 46.443907], [6.161608, 46.443903], [6.16183, 46.44385], [6.16197, 46.443843], [6.162663, 46.443645], [6.162841, 46.44355], [6.163095, 46.443514], [6.163115, 46.443527], [6.163156, 46.443483], [6.163331, 46.443442], [6.163483, 46.443373], [6.163656, 46.443272], [6.163761, 46.443175], [6.163891, 46.44316], [6.163989, 46.443079], [6.164145, 46.442789], [6.164216, 46.442693], [6.164308, 46.442637], [6.164343, 46.442539], [6.164425, 46.442495], [6.164553, 46.442369], [6.164564, 46.442219], [6.16449, 46.442054], [6.164359, 46.441946], [6.164262, 46.441911], [6.16415, 46.441923], [6.163458, 46.441811], [6.163372, 46.441743], [6.163258, 46.441698], [6.163162, 46.441555], [6.163159, 46.441388], [6.163273, 46.441146], [6.163392, 46.441072], [6.163542, 46.441057], [6.163584, 46.4411], [6.163668, 46.441068], [6.163757, 46.441083], [6.163782, 46.44111], [6.164138, 46.441172], [6.164245, 46.441158], [6.16429, 46.44118], [6.164688, 46.441176], [6.164892, 46.441145], [6.165015, 46.441172], [6.165119, 46.441114], [6.165218, 46.441111], [6.165297, 46.441053], [6.165638, 46.440941], [6.165887, 46.44083], [6.165952, 46.440831], [6.166374, 46.440596], [6.166656, 46.440476], [6.166767, 46.440458], [6.166741, 46.440487], [6.166699, 46.440481], [6.166715, 46.440495], [6.167387, 46.440276], [6.167615, 46.44017], [6.167655, 46.440174], [6.167952, 46.4404], [6.168151, 46.440366], [6.168279, 46.440298], [6.168354, 46.440308], [6.168448, 46.440257], [6.168592, 46.44024], [6.168632, 46.440204], [6.168719, 46.440224], [6.168881, 46.440194], [6.169063, 46.440211], [6.169094, 46.44018], [6.169236, 46.440242], [6.169321, 46.440237], [6.169391, 46.440319], [6.169472, 46.440312], [6.169566, 46.440458], [6.169538, 46.440555], [6.16975, 46.440801], [6.17002, 46.440941], [6.170325, 46.441058], [6.170315, 46.441004], [6.170389, 46.441051], [6.170629, 46.441106], [6.17067, 46.441184], [6.170837, 46.441099], [6.170935, 46.441094], [6.170996, 46.441202], [6.171081, 46.441253], [6.171147, 46.441248], [6.171292, 46.441309], [6.171701, 46.441163], [6.171844, 46.441045], [6.172026, 46.440763], [6.17227, 46.440752], [6.172464, 46.44069], [6.172577, 46.440589], [6.172673, 46.440393], [6.172638, 46.440274], [6.172474, 46.440058], [6.172444, 46.439616], [6.172393, 46.439484], [6.171493, 46.438615], [6.171364, 46.438458], [6.171361, 46.438403], [6.171408, 46.438349], [6.171649, 46.438193], [6.171762, 46.438074], [6.171786, 46.437799], [6.171733, 46.437606], [6.171897, 46.437576], [6.172013, 46.437489], [6.172089, 46.437475], [6.172206, 46.437357], [6.172527, 46.437147], [6.172998, 46.437153], [6.173243, 46.437125], [6.173344, 46.437093], [6.17352, 46.436979], [6.174156, 46.436813], [6.174538, 46.436494], [6.174979, 46.436294], [6.175521, 46.435804], [6.175546, 46.435836], [6.175551, 46.435773], [6.175985, 46.435323], [6.176117, 46.435257], [6.176292, 46.435235], [6.176388, 46.435189], [6.176499, 46.43506], [6.176516, 46.434938], [6.176631, 46.434844], [6.177455, 46.434614], [6.178591, 46.434125], [6.179251, 46.433901], [6.179972, 46.433679], [6.180772, 46.433484], [6.181095, 46.43345], [6.181397, 46.433469], [6.181772, 46.433539], [6.18197, 46.433536], [6.182688, 46.433339], [6.183212, 46.433225], [6.183855, 46.433157], [6.184359, 46.433036], [6.184515, 46.433019], [6.184657, 46.433031], [6.184791, 46.433098], [6.184982, 46.433132], [6.185053, 46.433159], [6.185024, 46.433158], [6.185045, 46.433199], [6.185165, 46.433177], [6.185315, 46.433115], [6.185756, 46.432996], [6.185874, 46.432921], [6.186467, 46.432301], [6.186875, 46.43202], [6.187163, 46.431884], [6.187595, 46.43174], [6.187748, 46.431713], [6.188447, 46.43165], [6.189165, 46.431554], [6.189784, 46.43152], [6.190212, 46.431536], [6.1907, 46.431654], [6.190731, 46.431686], [6.191016, 46.43171], [6.191333, 46.431779], [6.19187, 46.432001], [6.192434, 46.431995], [6.192529, 46.432037], [6.19256, 46.4321], [6.192754, 46.432223], [6.193311, 46.43237], [6.193688, 46.432419], [6.194098, 46.43236], [6.194621, 46.432216], [6.194936, 46.432155], [6.195422, 46.432094], [6.197253, 46.432016], [6.197461, 46.432037], [6.197645, 46.432001], [6.197867, 46.431948], [6.19919, 46.431523], [6.199376, 46.431417], [6.199411, 46.431366], [6.199381, 46.431412], [6.200236, 46.430772], [6.200726, 46.430486], [6.200942, 46.430396], [6.201328, 46.430321], [6.20174, 46.430303], [6.202022, 46.430238], [6.202552, 46.430193], [6.202679, 46.430223], [6.203001, 46.430395], [6.203134, 46.430421], [6.20323, 46.430472], [6.203359, 46.430452], [6.203644, 46.430252], [6.203721, 46.430228], [6.203854, 46.430109], [6.203872, 46.43003], [6.203735, 46.429878], [6.20372, 46.429796], [6.203838, 46.429639], [6.204085, 46.429414], [6.20417, 46.429257], [6.204356, 46.429166], [6.204521, 46.429144], [6.204909, 46.429005], [6.204957, 46.42896], [6.204925, 46.428824]]}, "properties": {"name": "1791643700.St_Cergue_at_dusk", "cmt": "2026-10-10", "tstamp": 1791590400, "desc": "DownHill", "src": "6.158058/46.428423/6.204957/46.448343", "bbox": "6.158058/46.428423/6.204957/46.448343"}}, {"type": "Feature", "bbox": [6.158058, 46.428423, 6.204957, 46.448343], "geometry": {"type": "LineString", "coordinates": [[6.204921, 46.42881], [6.204521, 46.428444], [6.204411, 46.428423]]}, "properties": {"name": "1791643700.St_Cergue_at_dusk", "cmt": "2026-10-10", "tstamp": 1791590400, "desc": "UpHill", "src": "6.158058/46.428423/6.204957/46.448343", "bbox": "6.158058/46.428423/6.204957/46.448343"}}]}