{"type": "FeatureCollection", "name": "TrackSet", "crs": {"type": "name", "properties": {"name": "urn:ogc:def:crs:OGC:1.3:CRS84"}}, "bbox": [-5.094444, 56.769995, -5.038057, 56.847907], "features": [{"type": "Feature", "bbox": [-5.094444, 56.769995, -5.038057, 56.847907], "geometry": {"type": "LineString", "coordinates": [[-5.038057, 56.770034], [-5.038656, 56.770059], [-5.039081, 56.770119], [-5.039764, 56.770156], [-5.039923, 56.770151], [-5.040417, 56.770056], [-5.04094, 56.769995], [-5.042568, 56.770055], [-5.043817, 56.770516], [-5.045058, 56.770897], [-5.045653, 56.77112], [-5.046848, 56.771762], [-5.047232, 56.772092], [-5.047367, 56.772294], [-5.047385, 56.77248], [-5.047345, 56.772574], [-5.047193, 56.772739], [-5.046894, 56.772949], [-5.046858, 56.77312], [-5.04704, 56.773547], [-5.048006, 56.774627], [-5.048145, 56.774853], [-5.048163, 56.774971], [-5.048117, 56.775207], [-5.047914, 56.775666], [-5.047533, 56.776164], [-5.047518, 56.776373], [-5.047645, 56.776584], [-5.048039, 56.776865], [-5.048198, 56.777088], [-5.048238, 56.77721], [-5.04824, 56.777734], [-5.048368, 56.777993], [-5.048567, 56.778232], [-5.04863, 56.778362], [-5.048724, 56.778738], [-5.04874, 56.779061], [-5.048941, 56.779437], [-5.048828, 56.7802], [-5.048884, 56.780389], [-5.049007, 56.780569], [-5.049227, 56.780692], [-5.050068, 56.780929], [-5.050367, 56.781057], [-5.050997, 56.781629], [-5.051354, 56.782115], [-5.051607, 56.782274], [-5.051886, 56.782392], [-5.051999, 56.782546], [-5.052005, 56.78284], [-5.052062, 56.783036], [-5.05256, 56.783725], [-5.052804, 56.784325], [-5.053177, 56.784614], [-5.053737, 56.784907], [-5.053836, 56.784998], [-5.053979, 56.785295], [-5.054145, 56.785455], [-5.054724, 56.785655], [-5.054856, 56.785734], [-5.0557, 56.786412], [-5.055853, 56.786621], [-5.056276, 56.787512], [-5.056407, 56.787664], [-5.05718, 56.787979], [-5.057563, 56.788247], [-5.058561, 56.788779], [-5.05894, 56.7891], [-5.059091, 56.789354], [-5.059195, 56.789707], [-5.059696, 56.790317], [-5.059715, 56.79041], [-5.059616, 56.790826], [-5.059639, 56.790937], [-5.059906, 56.791393], [-5.060245, 56.791668], [-5.060305, 56.791773], [-5.06034, 56.792075], [-5.060394, 56.792178], [-5.060702, 56.792499], [-5.060957, 56.792827], [-5.061408, 56.793259], [-5.061714, 56.793657], [-5.062273, 56.793955], [-5.062815, 56.794477], [-5.0632, 56.794737], [-5.063602, 56.795193], [-5.063704, 56.795269], [-5.064225, 56.795494], [-5.064371, 56.795639], [-5.065339, 56.796939], [-5.065663, 56.797282], [-5.066142, 56.797671], [-5.066329, 56.797992], [-5.066557, 56.798194], [-5.066812, 56.798502], [-5.067304, 56.799395], [-5.067381, 56.799812], [-5.067532, 56.79995], [-5.067945, 56.80072], [-5.068577, 56.801283], [-5.069939, 56.802717], [-5.070485, 56.803497], [-5.070962, 56.804282], [-5.07118, 56.804538], [-5.071865, 56.805102], [-5.072015, 56.805199], [-5.072564, 56.805446], [-5.072777, 56.805517], [-5.073182, 56.805603], [-5.073427, 56.805608], [-5.074095, 56.805688], [-5.074482, 56.805778], [-5.075479, 56.806231], [-5.075889, 56.806502], [-5.076073, 56.806581], [-5.076314, 56.806776], [-5.076983, 56.807371], [-5.077448, 56.80788], [-5.077546, 56.808098], [-5.077563, 56.808559], [-5.077274, 56.80938], [-5.077234, 56.809722], [-5.077302, 56.810031], [-5.077777, 56.811381], [-5.077658, 56.812095], [-5.077818, 56.812583], [-5.077852, 56.812835], [-5.077788, 56.813086], [-5.077569, 56.81331], [-5.077156, 56.813631], [-5.076782, 56.814128], [-5.076456, 56.815111], [-5.076435, 56.815361], [-5.07656, 56.815594], [-5.076804, 56.815801], [-5.077739, 56.816242], [-5.078286, 56.816533], [-5.078959, 56.816963], [-5.079225, 56.817194], [-5.079426, 56.81745], [-5.079702, 56.818018], [-5.080216, 56.818843], [-5.080369, 56.819645], [-5.080514, 56.81987], [-5.080798, 56.820065], [-5.081574, 56.820343], [-5.082093, 56.820601], [-5.082281, 56.820659], [-5.082691, 56.820725], [-5.083118, 56.820726], [-5.08379, 56.820678], [-5.084271, 56.820707], [-5.084954, 56.820787], [-5.086344, 56.821043], [-5.087027, 56.821134], [-5.089145, 56.821146], [-5.091319, 56.821372], [-5.092558, 56.821368], [-5.093569, 56.821399], [-5.094034, 56.821327], [-5.094327, 56.821347], [-5.094444, 56.821409], [-5.094427, 56.821454], [-5.094067, 56.821632], [-5.09313, 56.822269], [-5.092615, 56.822584], [-5.092474, 56.822685], [-5.092378, 56.822857], [-5.0923, 56.822894], [-5.091983, 56.822958], [-5.091575, 56.823155], [-5.088693, 56.82436], [-5.087835, 56.824811], [-5.087466, 56.825075], [-5.086723, 56.825773], [-5.085681, 56.826963], [-5.08532, 56.827314], [-5.08507, 56.827498], [-5.084484, 56.827883], [-5.083329, 56.828571], [-5.082111, 56.829207], [-5.081975, 56.829421], [-5.0819, 56.82947], [-5.081341, 56.829588], [-5.081043, 56.829693], [-5.080771, 56.829827], [-5.077365, 56.832005], [-5.077024, 56.8323], [-5.076683, 56.832729], [-5.076095, 56.834073], [-5.075757, 56.834487], [-5.07578, 56.834698], [-5.075511, 56.834885], [-5.073867, 56.836327], [-5.071673, 56.838148], [-5.07115, 56.838503], [-5.070724, 56.838708], [-5.070477, 56.838791], [-5.069931, 56.838904], [-5.069634, 56.83893], [-5.068417, 56.838986], [-5.067783, 56.838987], [-5.064791, 56.838902], [-5.063445, 56.838952], [-5.059995, 56.839172], [-5.059353, 56.839266], [-5.05875, 56.839428], [-5.055305, 56.840842], [-5.054684, 56.841044], [-5.052507, 56.841664], [-5.05104, 56.842164], [-5.050525, 56.842399], [-5.050058, 56.84267], [-5.049633, 56.842984], [-5.048714, 56.843791], [-5.047955, 56.844556], [-5.047337, 56.845248], [-5.047156, 56.845499], [-5.04694, 56.845998], [-5.046664, 56.847414], [-5.046511, 56.847884], [-5.046444, 56.847907], [-5.046266, 56.84789], [-5.046326, 56.847817], [-5.046473, 56.847748], [-5.046512, 56.847684], [-5.046612, 56.847125], [-5.046578, 56.847028], [-5.046445, 56.846997], [-5.046072, 56.847015], [-5.045871, 56.846819], [-5.045803, 56.8468], [-5.045758, 56.846815], [-5.045815, 56.846814], [-5.045776, 56.846889], [-5.045734, 56.846809], [-5.045656, 56.846767], [-5.045567, 56.846761]]}, "properties": {"name": "1788883339.Ben_Nevis_to_Tortlundy", "cmt": "2026-09-08", "tstamp": 1788825600, "desc": "---", "src": "-5.094444/56.769995/-5.038057/56.847907", "bbox": "-5.094444/56.769995/-5.038057/56.847907"}}]}