{"type": "FeatureCollection", "name": "TrackSet", "crs": {"type": "name", "properties": {"name": "urn:ogc:def:crs:OGC:1.3:CRS84"}}, "bbox": [-3.941186, 55.88971, -2.7499, 56.119488], "features": [{"type": "Feature", "bbox": [-3.941186, 55.88971, -2.7499, 56.119488], "geometry": {"type": "LineString", "coordinates": [[-2.7499, 55.986343], [-2.750642, 55.986342], [-2.752367, 55.986118], [-2.752969, 55.98607], [-2.762831, 55.985893], [-2.763405, 55.9859], [-2.764267, 55.985862], [-2.764805, 55.985868], [-2.768202, 55.985794], [-2.769032, 55.985746], [-2.776087, 55.984676], [-2.776574, 55.984582], [-2.777127, 55.984353], [-2.777351, 55.984295], [-2.778095, 55.984172], [-2.779275, 55.983842], [-2.780892, 55.983566], [-2.781833, 55.98332], [-2.782198, 55.983165], [-2.782863, 55.982756], [-2.783858, 55.982351], [-2.785358, 55.981947], [-2.786458, 55.981807], [-2.787308, 55.981781], [-2.788984, 55.981475], [-2.791538, 55.98112], [-2.791604, 55.981065], [-2.791527, 55.980938], [-2.790746, 55.980352], [-2.790475, 55.980187], [-2.790016, 55.979997], [-2.788831, 55.979701], [-2.788318, 55.979541], [-2.788009, 55.979408], [-2.787587, 55.97917], [-2.787197, 55.978912], [-2.787005, 55.97874], [-2.786888, 55.978544], [-2.786887, 55.978333], [-2.787324, 55.977603], [-2.787406, 55.977217], [-2.78737, 55.976953], [-2.787303, 55.976835], [-2.787067, 55.976607], [-2.786203, 55.975979], [-2.7857, 55.975416], [-2.785567, 55.975196], [-2.785473, 55.974825], [-2.785446, 55.974566], [-2.785499, 55.974196]]}, "properties": {"name": "1788684116.Morning_Ride", "cmt": "2026-09-06", "tstamp": 1788652800, "desc": "UpHill", "src": "-3.941186/55.88971/-2.7499/56.119488", "bbox": "-3.941186/55.88971/-2.7499/56.119488"}}, {"type": "Feature", "bbox": [-3.941186, 55.88971, -2.7499, 56.119488], "geometry": {"type": "LineString", "coordinates": [[-2.785494, 55.974078], [-2.784914, 55.972094], [-2.784761, 55.971761], [-2.784337, 55.971323], [-2.783947, 55.970838], [-2.782637, 55.969496], [-2.782424, 55.969238], [-2.782094, 55.968708], [-2.781744, 55.968327], [-2.781252, 55.967666], [-2.780458, 55.966883], [-2.779725, 55.965881], [-2.779073, 55.965164], [-2.778545, 55.964725], [-2.777981, 55.964012], [-2.777711, 55.963814], [-2.777379, 55.963641], [-2.776994, 55.963505], [-2.776579, 55.963422], [-2.776113, 55.963376], [-2.775643, 55.963374], [-2.774319, 55.963483], [-2.773691, 55.963397], [-2.773266, 55.963423], [-2.77315, 55.963399], [-2.772991, 55.963279], [-2.773004, 55.962934], [-2.772898, 55.962419], [-2.772845, 55.962374], [-2.772547, 55.962254], [-2.772475, 55.962192], [-2.772455, 55.962119], [-2.772464, 55.962049], [-2.772653, 55.961848], [-2.772768, 55.961535], [-2.773039, 55.961377], [-2.77351, 55.961239], [-2.774867, 55.96074], [-2.776474, 55.9603], [-2.776566, 55.960264], [-2.776674, 55.960154], [-2.776664, 55.960021], [-2.776207, 55.95912], [-2.776051, 55.958878], [-2.775657, 55.958436], [-2.775474, 55.958017], [-2.774875, 55.955986], [-2.774854, 55.955476], [-2.774774, 55.95539], [-2.774852, 55.95543], [-2.774807, 55.955405], [-2.774867, 55.955401], [-2.774881, 55.955365], [-2.774849, 55.955266], [-2.77488, 55.955209], [-2.774817, 55.955163], [-2.774474, 55.955094], [-2.774803, 55.955207], [-2.775061, 55.955221], [-2.775226, 55.955276], [-2.775598, 55.955303], [-2.775719, 55.955409], [-2.776224, 55.955406], [-2.776328, 55.955482], [-2.778234, 55.955437], [-2.778161, 55.955467], [-2.77784, 55.955418], [-2.777652, 55.955335], [-2.777111, 55.955312], [-2.776834, 55.95535], [-2.7767, 55.95532], [-2.776545, 55.95532], [-2.776515, 55.955328], [-2.776591, 55.955342], [-2.77661, 55.955402], [-2.776439, 55.955425], [-2.776438, 55.955408], [-2.776413, 55.95547], [-2.776572, 55.955496], [-2.776546, 55.955517], [-2.776561, 55.955484], [-2.776535, 55.955516], [-2.776531, 55.955475], [-2.776559, 55.955508], [-2.776604, 55.955318], [-2.776744, 55.955292], [-2.776793, 55.955308], [-2.777242, 55.955302], [-2.777443, 55.955277], [-2.777455, 55.955124], [-2.777536, 55.955057], [-2.777361, 55.955313], [-2.777325, 55.955269], [-2.777353, 55.955243], [-2.777374, 55.955263], [-2.777308, 55.955286], [-2.777093, 55.95528], [-2.776812, 55.955375], [-2.776555, 55.955393], [-2.776395, 55.955474], [-2.77617, 55.955447], [-2.77615, 55.955466], [-2.775636, 55.955456], [-2.775507, 55.95542], [-2.775465, 55.955534], [-2.775457, 55.95551], [-2.775729, 55.955396], [-2.775509, 55.955433], [-2.775505, 55.955409], [-2.775143, 55.955246], [-2.775179, 55.95524], [-2.774992, 55.955243], [-2.774946, 55.955196], [-2.774834, 55.955238], [-2.774774, 55.955346], [-2.774788, 55.955438], [-2.774809, 55.955272], [-2.774972, 55.955255], [-2.775491, 55.955281], [-2.776009, 55.955364], [-2.77726, 55.955359], [-2.777946, 55.955403], [-2.779032, 55.955538], [-2.779138, 55.955577], [-2.779169, 55.955651], [-2.7791, 55.955721], [-2.779012, 55.955739], [-2.778503, 55.955745], [-2.776901, 55.955837], [-2.776229, 55.955943], [-2.775144, 55.95604], [-2.775051, 55.956105], [-2.775032, 55.956157], [-2.775239, 55.957094], [-2.775557, 55.95811], [-2.775765, 55.958493], [-2.776167, 55.958982], [-2.776735, 55.960039], [-2.776747, 55.960169], [-2.776634, 55.960284], [-2.776428, 55.960376], [-2.774862, 55.960784], [-2.773753, 55.961162], [-2.773009, 55.961435], [-2.772911, 55.961493], [-2.772802, 55.961631], [-2.772812, 55.961763], [-2.772909, 55.961865], [-2.773149, 55.961991], [-2.773269, 55.96222], [-2.773334, 55.962267], [-2.773551, 55.962307], [-2.776248, 55.962242], [-2.779927, 55.962225], [-2.784833, 55.962364], [-2.786068, 55.962358], [-2.788243, 55.962269], [-2.790019, 55.962109], [-2.79221, 55.96182], [-2.793941, 55.961471], [-2.795193, 55.961163], [-2.796818, 55.960695], [-2.801504, 55.959226], [-2.805398, 55.958024], [-2.810496, 55.95646], [-2.811733, 55.956101], [-2.813428, 55.955667], [-2.814717, 55.955382], [-2.81602, 55.955125], [-2.817797, 55.954833], [-2.819591, 55.954604], [-2.820927, 55.954472], [-2.823176, 55.954362], [-2.824552, 55.954319], [-2.833657, 55.95416], [-2.838258, 55.954036], [-2.842403, 55.953883], [-2.844742, 55.953755], [-2.846645, 55.953617], [-2.853336, 55.95304], [-2.855671, 55.952872], [-2.858857, 55.952598], [-2.862456, 55.952286], [-2.867864, 55.951764], [-2.873041, 55.951305], [-2.874945, 55.951087], [-2.876806, 55.950836], [-2.878188, 55.950616], [-2.880471, 55.950195], [-2.881372, 55.950009], [-2.883582, 55.949498], [-2.886934, 55.948586], [-2.888621, 55.948163], [-2.890804, 55.94771], [-2.893064, 55.94735], [-2.894441, 55.94718], [-2.897747, 55.946936], [-2.899173, 55.946873], [-2.900606, 55.946852], [-2.902031, 55.946864], [-2.904399, 55.946927], [-2.906314, 55.947031], [-2.908234, 55.94717], [-2.910138, 55.947349], [-2.912019, 55.947569], [-2.914851, 55.947983], [-2.918089, 55.948577], [-2.9199, 55.948972], [-2.925186, 55.95026], [-2.926983, 55.950644], [-2.92876, 55.950989], [-2.932721, 55.951612], [-2.935569, 55.951975], [-2.938351, 55.952247], [-2.940808, 55.952428], [-2.943295, 55.952554], [-2.945409, 55.952608], [-2.947914, 55.952619], [-2.950389, 55.952566], [-2.953073, 55.952451], [-2.9558, 55.95226], [-2.95807, 55.952049], [-2.961119, 55.951671], [-2.964094, 55.951213], [-2.966538, 55.950766], [-2.970371, 55.949933], [-2.973764, 55.949049], [-2.975692, 55.948476], [-2.978772, 55.947438], [-2.980267, 55.946874], [-2.982135, 55.946125], [-2.984709, 55.945024], [-2.986868, 55.943974], [-2.988595, 55.943046], [-2.990239, 55.942085], [-2.990866, 55.941693], [-2.99325, 55.94007], [-2.994943, 55.938796], [-2.997457, 55.936792], [-2.998334, 55.936143], [-2.999891, 55.935124], [-3.000554, 55.934741], [-3.002652, 55.933635], [-3.003739, 55.933108], [-3.004874, 55.932606], [-3.006034, 55.932134], [-3.007224, 55.931688], [-3.008435, 55.931276], [-3.010072, 55.930768], [-3.012174, 55.930212], [-3.014338, 55.929727], [-3.016549, 55.929296], [-3.01837, 55.929027], [-3.019769, 55.928859], [-3.021667, 55.928683], [-3.029213, 55.928201], [-3.031072, 55.928051], [-3.033416, 55.927816], [-3.036169, 55.927462], [-3.037492, 55.927253], [-3.039969, 55.926814], [-3.043532, 55.92606], [-3.04973, 55.924707], [-3.050476, 55.924563], [-3.051238, 55.924447], [-3.052772, 55.92429], [-3.054939, 55.924127], [-3.055904, 55.924102], [-3.058812, 55.924111], [-3.059311, 55.924077], [-3.06025, 55.923864], [-3.060621, 55.923715], [-3.060943, 55.923505], [-3.06169, 55.922819]]}, "properties": {"name": "1788684116.Morning_Ride", "cmt": "2026-09-06", "tstamp": 1788652800, "desc": "DownHill", "src": "-3.941186/55.88971/-2.7499/56.119488", "bbox": "-3.941186/55.88971/-2.7499/56.119488"}}, {"type": "Feature", "bbox": [-3.941186, 55.88971, -2.7499, 56.119488], "geometry": {"type": "LineString", "coordinates": [[-3.06184, 55.922664], [-3.062295, 55.922156], [-3.062729, 55.921572], [-3.063102, 55.92096], [-3.063387, 55.920325], [-3.063715, 55.919193], [-3.064434, 55.915789], [-3.064576, 55.915308], [-3.064861, 55.914638], [-3.065282, 55.913898], [-3.065908, 55.91306], [-3.066423, 55.912495], [-3.067245, 55.911755], [-3.068562, 55.910832], [-3.069123, 55.910496], [-3.069855, 55.910109], [-3.070704, 55.909713], [-3.072327, 55.909011], [-3.074874, 55.907854], [-3.078952, 55.905934], [-3.083035, 55.90386], [-3.084326, 55.90324], [-3.086173, 55.902234], [-3.087381, 55.901641], [-3.088438, 55.901197], [-3.089262, 55.90089], [-3.090761, 55.9004], [-3.091262, 55.900276], [-3.091487, 55.900148], [-3.091755, 55.899896], [-3.091856, 55.899839], [-3.091974, 55.899798], [-3.092244, 55.899764], [-3.09239, 55.899767], [-3.092845, 55.899844], [-3.093184, 55.899849], [-3.094719, 55.899598], [-3.095941, 55.899438], [-3.09697, 55.89934], [-3.098078, 55.899273], [-3.100019, 55.899239], [-3.102922, 55.899293], [-3.104728, 55.899279], [-3.106519, 55.899219], [-3.108297, 55.899112], [-3.11009, 55.898962], [-3.112297, 55.898712], [-3.114022, 55.898466], [-3.115966, 55.898131], [-3.117109, 55.89791], [-3.119021, 55.897482], [-3.120536, 55.897101], [-3.12203, 55.89669], [-3.123802, 55.896127], [-3.126692, 55.895155], [-3.129701, 55.894093], [-3.133509, 55.892731], [-3.13468, 55.892352], [-3.13628, 55.89188], [-3.138357, 55.891349], [-3.14058, 55.890876], [-3.142839, 55.890489], [-3.144224, 55.890293], [-3.146563, 55.890026], [-3.148469, 55.889873], [-3.150361, 55.889783], [-3.152726, 55.889738], [-3.158028, 55.88971], [-3.161429, 55.889734], [-3.163362, 55.889809], [-3.165247, 55.889939], [-3.176632, 55.891212], [-3.187626, 55.892261], [-3.189491, 55.892485], [-3.19133, 55.892754], [-3.193157, 55.893069], [-3.194054, 55.89325], [-3.196018, 55.893683], [-3.197853, 55.894151], [-3.199252, 55.894555], [-3.200695, 55.895009], [-3.201735, 55.895361], [-3.203105, 55.895867], [-3.204547, 55.89635], [-3.205289, 55.896571], [-3.206832, 55.896979], [-3.208445, 55.897321], [-3.210115, 55.897603], [-3.214661, 55.898194], [-3.217125, 55.898473], [-3.219671, 55.898718], [-3.224992, 55.899155], [-3.227302, 55.899296], [-3.23104, 55.899441], [-3.233293, 55.899497], [-3.235031, 55.899465], [-3.236301, 55.899401], [-3.241152, 55.899045]]}, "properties": {"name": "1788684116.Morning_Ride", "cmt": "2026-09-06", "tstamp": 1788652800, "desc": "UpHill", "src": "-3.941186/55.88971/-2.7499/56.119488", "bbox": "-3.941186/55.88971/-2.7499/56.119488"}}, {"type": "Feature", "bbox": [-3.941186, 55.88971, -2.7499, 56.119488], "geometry": {"type": "LineString", "coordinates": [[-3.241552, 55.89901], [-3.247682, 55.898462], [-3.249642, 55.898342], [-3.251226, 55.898281], [-3.252843, 55.898257], [-3.254446, 55.898265], [-3.256025, 55.898314], [-3.257723, 55.898393], [-3.260039, 55.898556], [-3.261875, 55.898746], [-3.263192, 55.898927], [-3.264471, 55.899144], [-3.265728, 55.899421], [-3.266936, 55.899766], [-3.267708, 55.900022], [-3.268846, 55.900459], [-3.270269, 55.901103], [-3.271534, 55.901818], [-3.272114, 55.902201], [-3.272648, 55.902598], [-3.273406, 55.90322], [-3.274055, 55.90386], [-3.276788, 55.907022], [-3.27796, 55.908214], [-3.278642, 55.908782], [-3.279413, 55.909352], [-3.280844, 55.910228], [-3.281793, 55.910714], [-3.282819, 55.911176], [-3.283972, 55.91162], [-3.285183, 55.912016], [-3.286827, 55.912455], [-3.289307, 55.912993], [-3.291593, 55.913452], [-3.293738, 55.913934], [-3.294766, 55.914229], [-3.295758, 55.91455], [-3.296712, 55.914913], [-3.297627, 55.9153], [-3.299053, 55.91601], [-3.300098, 55.916648], [-3.304027, 55.919302], [-3.307315, 55.92155], [-3.308422, 55.922269], [-3.310372, 55.923393], [-3.311672, 55.924024], [-3.312006, 55.924132], [-3.312403, 55.924175], [-3.312621, 55.924167], [-3.312844, 55.924139], [-3.313273, 55.924013], [-3.316298, 55.922708], [-3.321049, 55.920584], [-3.321843, 55.920286], [-3.322682, 55.920012], [-3.323554, 55.919764], [-3.324455, 55.919546], [-3.325372, 55.919355], [-3.32677, 55.91911], [-3.328207, 55.91895], [-3.329672, 55.918864], [-3.330651, 55.918848], [-3.332118, 55.918887], [-3.333093, 55.918951], [-3.334061, 55.919045], [-3.335016, 55.919173], [-3.335952, 55.91933], [-3.33778, 55.91974], [-3.33865, 55.919987], [-3.339498, 55.920262], [-3.340314, 55.920567], [-3.34147, 55.921072], [-3.342552, 55.921627], [-3.343236, 55.922016], [-3.344506, 55.922841], [-3.345393, 55.923493], [-3.348483, 55.925949], [-3.349072, 55.926383], [-3.350012, 55.927012], [-3.350687, 55.927406], [-3.351774, 55.927956], [-3.352544, 55.928289], [-3.353749, 55.928748], [-3.35503, 55.929143], [-3.356387, 55.929466], [-3.357787, 55.92973], [-3.35923, 55.929933], [-3.36069, 55.930063], [-3.362657, 55.930177], [-3.367086, 55.930385], [-3.369053, 55.930429], [-3.370536, 55.930421], [-3.371514, 55.930379], [-3.372492, 55.930308], [-3.376383, 55.929937], [-3.37832, 55.929711], [-3.379235, 55.929578], [-3.380132, 55.929432], [-3.38144, 55.929166], [-3.382691, 55.928846], [-3.383849, 55.928479], [-3.38668, 55.9274], [-3.391835, 55.925398], [-3.393006, 55.925], [-3.393949, 55.924781], [-3.394615, 55.924679], [-3.395306, 55.924611], [-3.39601, 55.924579], [-3.396722, 55.924588], [-3.397768, 55.924682], [-3.398442, 55.92479], [-3.399094, 55.924943], [-3.399716, 55.925128], [-3.400586, 55.925468], [-3.401121, 55.925745], [-3.401609, 55.926056], [-3.402043, 55.926402], [-3.402421, 55.926775], [-3.402723, 55.927151], [-3.40302, 55.927742], [-3.403125, 55.928141], [-3.403153, 55.928341], [-3.403127, 55.928742], [-3.402876, 55.929547], [-3.402669, 55.929937], [-3.40129, 55.932106], [-3.400989, 55.932709], [-3.400745, 55.933539], [-3.400663, 55.934352], [-3.400679, 55.934927], [-3.400761, 55.935493], [-3.400969, 55.936247], [-3.401817, 55.938378], [-3.402743, 55.940303], [-3.403186, 55.941062], [-3.404137, 55.942473], [-3.404892, 55.943458], [-3.405647, 55.94435], [-3.409399, 55.948037], [-3.411006, 55.949695], [-3.41338, 55.952038], [-3.414167, 55.952733], [-3.415082, 55.953384], [-3.416114, 55.953981], [-3.417245, 55.954513], [-3.418049, 55.954833], [-3.418887, 55.955125], [-3.420208, 55.955497], [-3.421115, 55.955699], [-3.422051, 55.955866], [-3.432959, 55.957603], [-3.433885, 55.957796], [-3.435237, 55.958132], [-3.436548, 55.958523], [-3.437396, 55.958815], [-3.438616, 55.959295], [-3.439761, 55.959827], [-3.440838, 55.960398], [-3.441842, 55.961009], [-3.442756, 55.96166], [-3.443322, 55.962116], [-3.445671, 55.964232], [-3.446486, 55.964926], [-3.44708, 55.96537], [-3.448037, 55.966002], [-3.448718, 55.966401], [-3.449808, 55.966965], [-3.453306, 55.968515], [-3.456513, 55.969825], [-3.459382, 55.970915], [-3.462305, 55.971957], [-3.465711, 55.973083], [-3.469197, 55.974142], [-3.472736, 55.975125], [-3.475881, 55.975935], [-3.479531, 55.976786], [-3.482782, 55.977467], [-3.485581, 55.978007], [-3.488887, 55.978585], [-3.492227, 55.979105], [-3.496072, 55.979632], [-3.506682, 55.980948], [-3.510503, 55.981459], [-3.51485, 55.981988], [-3.519709, 55.982503], [-3.525087, 55.982962], [-3.531471, 55.983381], [-3.533907, 55.983617], [-3.53583, 55.983856], [-3.537642, 55.984156], [-3.540056, 55.984656], [-3.54163, 55.985036], [-3.545262, 55.986007], [-3.547085, 55.986352], [-3.548495, 55.986562], [-3.565953, 55.988277], [-3.569869, 55.988591], [-3.570848, 55.98864], [-3.572328, 55.988675], [-3.574795, 55.988624], [-3.575774, 55.988565], [-3.577238, 55.988433], [-3.578694, 55.988256], [-3.579654, 55.988111], [-3.581075, 55.98785], [-3.582909, 55.987426], [-3.584257, 55.987075], [-3.590976, 55.985296], [-3.594048, 55.984401], [-3.597624, 55.983445], [-3.601212, 55.982515], [-3.603516, 55.982012], [-3.604932, 55.981757], [-3.606358, 55.981536], [-3.608297, 55.981301], [-3.609275, 55.981209], [-3.610259, 55.98114], [-3.611737, 55.981081], [-3.615167, 55.98103], [-3.616649, 55.981053], [-3.618128, 55.981125], [-3.620076, 55.981314], [-3.621517, 55.981528], [-3.622921, 55.981792], [-3.623842, 55.981997], [-3.629201, 55.983441], [-3.631021, 55.983873], [-3.632866, 55.984241], [-3.635259, 55.984559], [-3.63672, 55.984683], [-3.638194, 55.984768], [-3.653967, 55.985454], [-3.655447, 55.985528], [-3.656916, 55.985636], [-3.658865, 55.98583], [-3.660804, 55.986072], [-3.662707, 55.986385], [-3.665521, 55.986922], [-3.668363, 55.987419], [-3.670758, 55.987778], [-3.672206, 55.987955], [-3.673662, 55.98811], [-3.675132, 55.988231], [-3.680033, 55.988592], [-3.688856, 55.989254], [-3.690809, 55.989453], [-3.692724, 55.989734], [-3.694608, 55.990074], [-3.696432, 55.990508], [-3.697765, 55.990881], [-3.703407, 55.992623], [-3.709065, 55.994339], [-3.712085, 55.995266], [-3.714632, 55.99609], [-3.717224, 55.996868], [-3.728525, 56.000323], [-3.729788, 56.000756], [-3.731834, 56.001534], [-3.733359, 56.002243], [-3.735125, 56.003212], [-3.736427, 56.00405], [-3.737895, 56.005161], [-3.738693, 56.005864], [-3.739424, 56.006589], [-3.741804, 56.009333], [-3.742492, 56.010071], [-3.743464, 56.011027]]}, "properties": {"name": "1788684116.Morning_Ride", "cmt": "2026-09-06", "tstamp": 1788652800, "desc": "DownHill", "src": "-3.941186/55.88971/-2.7499/56.119488", "bbox": "-3.941186/55.88971/-2.7499/56.119488"}}, {"type": "Feature", "bbox": [-3.941186, 55.88971, -2.7499, 56.119488], "geometry": {"type": "LineString", "coordinates": [[-3.74371, 56.011254], [-3.744938, 56.012395], [-3.746051, 56.013291], [-3.747833, 56.014607], [-3.750705, 56.016504], [-3.751906, 56.017382], [-3.752202, 56.017604], [-3.752738, 56.018086], [-3.753056, 56.018285], [-3.753625, 56.018731], [-3.755213, 56.020135], [-3.75667, 56.021585], [-3.757552, 56.022576], [-3.761864, 56.027681], [-3.766944, 56.033818], [-3.767648, 56.034581], [-3.768396, 56.035324], [-3.769719, 56.036491], [-3.770859, 56.037389], [-3.772089, 56.038256], [-3.773728, 56.03929], [-3.77512, 56.040077], [-3.776209, 56.04064], [-3.776969, 56.040998], [-3.778933, 56.041839], [-3.78096, 56.042636], [-3.782233, 56.043068], [-3.783972, 56.043599], [-3.785324, 56.043952], [-3.786693, 56.044257], [-3.788096, 56.044512], [-3.79001, 56.0448], [-3.790985, 56.044905], [-3.792459, 56.045025], [-3.794422, 56.045125], [-3.796349, 56.045147], [-3.797273, 56.045122], [-3.799499, 56.04499], [-3.800832, 56.044863], [-3.80258, 56.044634], [-3.805129, 56.044228], [-3.810964, 56.043326], [-3.811873, 56.043208], [-3.813257, 56.043094], [-3.814632, 56.043043], [-3.81554, 56.043045], [-3.817366, 56.043138], [-3.81827, 56.043223], [-3.819158, 56.043344], [-3.820039, 56.043494], [-3.820906, 56.043682], [-3.822603, 56.044161], [-3.823853, 56.044572], [-3.825023, 56.045046], [-3.825762, 56.045398], [-3.826801, 56.045971], [-3.83369, 56.050272], [-3.83508, 56.051046], [-3.835802, 56.051415], [-3.836921, 56.051935], [-3.8389, 56.052754], [-3.840563, 56.053361], [-3.842311, 56.053915], [-3.845393, 56.054761], [-3.846684, 56.055155], [-3.848355, 56.055739], [-3.849541, 56.056218], [-3.851032, 56.056903], [-3.852424, 56.057652], [-3.855051, 56.059236], [-3.85838, 56.061266], [-3.859043, 56.061646], [-3.860093, 56.062181], [-3.861576, 56.06285], [-3.862764, 56.063331], [-3.867371, 56.06492], [-3.871188, 56.066089], [-3.87422, 56.066924], [-3.876008, 56.067344], [-3.877845, 56.067687], [-3.879735, 56.067966], [-3.881659, 56.068151], [-3.883102, 56.068254], [-3.888309, 56.06853], [-3.890191, 56.068682], [-3.8916, 56.068839], [-3.893448, 56.069112], [-3.894816, 56.069347], [-3.896603, 56.069696], [-3.897915, 56.069992], [-3.899653, 56.070445], [-3.901751, 56.071104], [-3.903631, 56.071758], [-3.905298, 56.072439], [-3.908138, 56.07377], [-3.909665, 56.074442], [-3.911181, 56.075032], [-3.911795, 56.075245], [-3.912725, 56.07552], [-3.914219, 56.075903], [-3.917199, 56.076555], [-3.917463, 56.076572], [-3.917755, 56.076552], [-3.917863, 56.076517], [-3.918086, 56.076416], [-3.918497, 56.0761], [-3.918866, 56.075986], [-3.919295, 56.075964], [-3.919502, 56.075986], [-3.919689, 56.076021], [-3.920006, 56.076158], [-3.920228, 56.076353], [-3.921531, 56.077933], [-3.921612, 56.078184], [-3.921573, 56.078311], [-3.921366, 56.078529], [-3.921229, 56.078624], [-3.921058, 56.078691], [-3.920863, 56.078742], [-3.920446, 56.078787], [-3.920073, 56.078763], [-3.91937, 56.078614], [-3.918777, 56.078525], [-3.918414, 56.078547], [-3.917808, 56.078688], [-3.916125, 56.07915], [-3.914672, 56.079584], [-3.913978, 56.079821], [-3.912831, 56.08029], [-3.912003, 56.080691], [-3.911234, 56.081108], [-3.910925, 56.081305], [-3.910143, 56.081901], [-3.909134, 56.082531], [-3.905465, 56.085236], [-3.905327, 56.085372], [-3.905288, 56.085716], [-3.905143, 56.08587], [-3.904592, 56.086034], [-3.904361, 56.086184], [-3.904219, 56.086384], [-3.902911, 56.088905], [-3.902402, 56.089632], [-3.902401, 56.089774], [-3.902465, 56.089933], [-3.90237, 56.090236], [-3.902382, 56.09036], [-3.902515, 56.091092], [-3.902737, 56.091746], [-3.903025, 56.092239], [-3.903405, 56.092718], [-3.90371, 56.09302], [-3.904224, 56.093443], [-3.905037, 56.093943], [-3.906163, 56.094482], [-3.91044, 56.096322], [-3.910884, 56.096491], [-3.911323, 56.096517], [-3.911432, 56.096549], [-3.911553, 56.096671], [-3.911482, 56.096806], [-3.911367, 56.096867], [-3.910957, 56.096981], [-3.910843, 56.097065], [-3.907577, 56.100062], [-3.907099, 56.100592], [-3.906528, 56.101327], [-3.905955, 56.102286], [-3.905607, 56.103076], [-3.905427, 56.103676], [-3.905311, 56.10428], [-3.905245, 56.105095], [-3.905302, 56.105926], [-3.90576, 56.108654], [-3.905841, 56.10875], [-3.906214, 56.108981], [-3.906477, 56.109089], [-3.90663, 56.10912], [-3.908383, 56.109225], [-3.909481, 56.109354], [-3.910688, 56.109587], [-3.911454, 56.109788], [-3.912005, 56.109962], [-3.912766, 56.110267], [-3.915988, 56.111702], [-3.916115, 56.111736], [-3.916594, 56.111769], [-3.916905, 56.111962], [-3.917104, 56.112036], [-3.917641, 56.112135], [-3.918114, 56.11219], [-3.919838, 56.112222], [-3.922929, 56.112511], [-3.923921, 56.112641], [-3.924994, 56.112866], [-3.928152, 56.113743], [-3.928712, 56.113822], [-3.929023, 56.113981], [-3.929666, 56.114126], [-3.930683, 56.114422], [-3.93104, 56.114599], [-3.931468, 56.115031], [-3.93165, 56.115106], [-3.931881, 56.115124], [-3.932277, 56.115043], [-3.932555, 56.115042], [-3.933096, 56.115227], [-3.933337, 56.115284], [-3.933841, 56.115388], [-3.934094, 56.115391], [-3.934305, 56.115322], [-3.934766, 56.114994], [-3.935094, 56.114876], [-3.935351, 56.114748], [-3.935569, 56.114708], [-3.93582, 56.114758], [-3.936363, 56.11495], [-3.937581, 56.115195], [-3.937664, 56.115261], [-3.93765, 56.115361], [-3.937109, 56.116137], [-3.936911, 56.116465], [-3.93692, 56.11653], [-3.939626, 56.11735], [-3.940215, 56.117494], [-3.94103, 56.11764], [-3.941186, 56.117696], [-3.941161, 56.117778], [-3.941017, 56.117822], [-3.940109, 56.117858], [-3.939667, 56.117914], [-3.93907, 56.118218], [-3.938856, 56.118368], [-3.93889, 56.118476], [-3.939439, 56.118745], [-3.939825, 56.118887], [-3.940396, 56.11917], [-3.940419, 56.119269], [-3.940263, 56.119361], [-3.940176, 56.119456], [-3.940068, 56.119488], [-3.939993, 56.119479], [-3.939758, 56.119355], [-3.93944, 56.119236], [-3.939398, 56.11924], [-3.939294, 56.119338], [-3.939201, 56.119379], [-3.938789, 56.119273], [-3.938638, 56.119297], [-3.938591, 56.119371], [-3.938635, 56.119248], [-3.939201, 56.119362], [-3.939366, 56.119242], [-3.93939, 56.119189], [-3.938746, 56.118906], [-3.938435, 56.11863], [-3.93825, 56.118377], [-3.938418, 56.118347], [-3.938715, 56.118369], [-3.939393, 56.11799], [-3.939645, 56.11789], [-3.939968, 56.117855], [-3.940921, 56.11781], [-3.941065, 56.117771], [-3.941059, 56.11771], [-3.939633, 56.117406], [-3.938675, 56.117104], [-3.937389, 56.116738], [-3.937431, 56.116713], [-3.936922, 56.116586], [-3.936872, 56.116488], [-3.937187, 56.115909], [-3.937428, 56.11559], [-3.9375, 56.115565], [-3.937654, 56.115575], [-3.937789, 56.115556], [-3.938172, 56.115432], [-3.938239, 56.11543], [-3.938444, 56.115503], [-3.939425, 56.115641], [-3.939837, 56.115729], [-3.939872, 56.115806], [-3.93975, 56.115958]]}, "properties": {"name": "1788684116.Morning_Ride", "cmt": "2026-09-06", "tstamp": 1788652800, "desc": "UpHill", "src": "-3.941186/55.88971/-2.7499/56.119488", "bbox": "-3.941186/55.88971/-2.7499/56.119488"}}]}