{"type": "FeatureCollection", "name": "TrackSet", "crs": {"type": "name", "properties": {"name": "urn:ogc:def:crs:OGC:1.3:CRS84"}}, "bbox": [-3.177767, 55.92439, -2.861916, 56.009075], "features": [{"type": "Feature", "bbox": [-3.177767, 55.92439, -2.861916, 56.009075], "geometry": {"type": "LineString", "coordinates": [[-3.177767, 55.957695], [-3.177611, 55.957735], [-3.177306, 55.957749], [-3.176645, 55.957709], [-3.175376, 55.957686], [-3.174739, 55.957701], [-3.174436, 55.957671], [-3.172983, 55.957679], [-3.172873, 55.957659], [-3.171958, 55.957647], [-3.1713, 55.957614], [-3.169483, 55.957382], [-3.167623, 55.957308], [-3.167047, 55.957216], [-3.166466, 55.957166], [-3.164739, 55.956938], [-3.163698, 55.956761], [-3.162577, 55.956621], [-3.160874, 55.956338], [-3.15933, 55.956026], [-3.156416, 55.955646], [-3.155304, 55.955523], [-3.153759, 55.955282], [-3.152582, 55.955157], [-3.150672, 55.955039], [-3.149243, 55.954911], [-3.149067, 55.954827], [-3.147562, 55.953857], [-3.146801, 55.95345], [-3.145527, 55.952842], [-3.145021, 55.952554], [-3.144263, 55.952051], [-3.143947, 55.951926], [-3.142826, 55.951632], [-3.141864, 55.951343], [-3.141565, 55.951231], [-3.141306, 55.951087], [-3.140344, 55.950091], [-3.138997, 55.949006], [-3.137832, 55.947994], [-3.136038, 55.946205], [-3.135263, 55.94557], [-3.134289, 55.944838], [-3.133746, 55.944514], [-3.131986, 55.943709], [-3.13095, 55.943157], [-3.130162, 55.942682], [-3.129865, 55.94258], [-3.129705, 55.942553], [-3.129368, 55.942543], [-3.124756, 55.942757], [-3.12362, 55.942833], [-3.120437, 55.943189], [-3.117147, 55.943604], [-3.115163, 55.94373], [-3.11426, 55.943819], [-3.112619, 55.944025], [-3.111775, 55.944083], [-3.109831, 55.94429], [-3.109416, 55.944305], [-3.108434, 55.94421], [-3.107837, 55.944193], [-3.103725, 55.944286], [-3.103085, 55.944319], [-3.1029, 55.944288], [-3.102766, 55.944189], [-3.10275, 55.944116], [-3.102896, 55.943408], [-3.102854, 55.942945], [-3.102337, 55.941554], [-3.102194, 55.940759], [-3.102126, 55.940657], [-3.101821, 55.940439], [-3.101762, 55.940365], [-3.101755, 55.940282], [-3.101895, 55.940026], [-3.101884, 55.939833], [-3.101173, 55.938512], [-3.10037, 55.937169], [-3.099586, 55.936159], [-3.099139, 55.935706], [-3.098444, 55.935121], [-3.097667, 55.934554], [-3.097244, 55.934286], [-3.096336, 55.933774], [-3.095579, 55.933403], [-3.094492, 55.93295], [-3.09302, 55.932456], [-3.091777, 55.932114], [-3.090469, 55.931836], [-3.089806, 55.931721], [-3.08849, 55.931548], [-3.085056, 55.931269], [-3.082897, 55.930996], [-3.081631, 55.930783], [-3.080035, 55.93046], [-3.076569, 55.929664], [-3.073656, 55.928916], [-3.070728, 55.928078], [-3.068085, 55.927239], [-3.065103, 55.92621], [-3.062901, 55.925485], [-3.061466, 55.925105], [-3.059858, 55.924782], [-3.058108, 55.92454], [-3.057201, 55.924461], [-3.056267, 55.924412], [-3.054851, 55.92439], [-3.0539, 55.924409], [-3.052949, 55.924458], [-3.052009, 55.924545], [-3.051078, 55.924663], [-3.049709, 55.924886], [-3.040134, 55.926924], [-3.03845, 55.927229], [-3.036286, 55.927551], [-3.033154, 55.927947], [-3.030441, 55.92824], [-3.029069, 55.928351], [-3.021243, 55.928855], [-3.018977, 55.929092], [-3.016743, 55.929411], [-3.014989, 55.929728], [-3.013245, 55.930096], [-3.011108, 55.930619], [-3.009433, 55.931095], [-3.007824, 55.931607], [-3.006279, 55.932172], [-3.004787, 55.932774], [-3.003334, 55.933434], [-3.001257, 55.934508], [-3.000272, 55.93508], [-2.999324, 55.935676], [-2.997836, 55.936732], [-2.995073, 55.938949], [-2.993927, 55.939806], [-2.991457, 55.941452], [-2.988885, 55.943022], [-2.986867, 55.944133], [-2.984006, 55.945518], [-2.981704, 55.946502], [-2.978852, 55.947591], [-2.9776, 55.948034], [-2.975479, 55.948725], [-2.972886, 55.949473], [-2.971575, 55.949815], [-2.969367, 55.950344], [-2.965847, 55.951082], [-2.962682, 55.951619], [-2.959977, 55.951994], [-2.957429, 55.952276], [-2.955563, 55.952425], [-2.953001, 55.952696], [-2.952032, 55.952875], [-2.951319, 55.953072], [-2.951134, 55.953173], [-2.951094, 55.953228], [-2.951106, 55.953506], [-2.950956, 55.953672], [-2.950888, 55.95388], [-2.950953, 55.954149], [-2.951292, 55.954738], [-2.951501, 55.955224], [-2.951549, 55.955542], [-2.951563, 55.956242], [-2.951649, 55.956675], [-2.951857, 55.957123], [-2.952288, 55.957628], [-2.952625, 55.957882], [-2.952914, 55.957963], [-2.953079, 55.958051], [-2.953118, 55.958116], [-2.953069, 55.958173], [-2.952982, 55.95821], [-2.952869, 55.958235], [-2.952217, 55.958214], [-2.951605, 55.958267], [-2.950733, 55.958386], [-2.949555, 55.958624], [-2.948173, 55.958996], [-2.94703, 55.95937], [-2.945934, 55.959795], [-2.945082, 55.960176], [-2.942817, 55.961325], [-2.941878, 55.961706], [-2.940619, 55.962095], [-2.936099, 55.9632], [-2.935085, 55.963374], [-2.932604, 55.963623], [-2.931166, 55.963907], [-2.930043, 55.964092], [-2.924383, 55.964883], [-2.919879, 55.965527], [-2.914189, 55.966325], [-2.913408, 55.96645], [-2.912325, 55.966667], [-2.910546, 55.967093], [-2.90885, 55.96762], [-2.907732, 55.968012], [-2.905742, 55.968829], [-2.903509, 55.969848], [-2.896407, 55.973184], [-2.895934, 55.97349], [-2.895361, 55.974091], [-2.895114, 55.974238], [-2.894035, 55.974618], [-2.893191, 55.974958], [-2.891975, 55.975236], [-2.889955, 55.976029], [-2.889805, 55.976129], [-2.889719, 55.976305], [-2.890142, 55.977854], [-2.890443, 55.978853], [-2.89069, 55.9795], [-2.89108, 55.98034], [-2.891284, 55.980616], [-2.891571, 55.980884], [-2.893029, 55.982004], [-2.894746, 55.983437], [-2.895049, 55.983582], [-2.895232, 55.983628], [-2.895422, 55.983672], [-2.896528, 55.983822], [-2.896654, 55.983905], [-2.896381, 55.985034], [-2.896338, 55.985471], [-2.896623, 55.98814], [-2.896605, 55.988295], [-2.896465, 55.988597], [-2.896336, 55.988733], [-2.89597, 55.98897], [-2.892211, 55.98999], [-2.891723, 55.990187], [-2.89106, 55.990517], [-2.889676, 55.990918], [-2.889193, 55.991101], [-2.888808, 55.991338], [-2.887684, 55.992365], [-2.887136, 55.992946], [-2.886965, 55.993254], [-2.886832, 55.993711], [-2.886702, 55.993992], [-2.886185, 55.99453], [-2.885899, 55.994997], [-2.885716, 55.995493], [-2.885478, 55.996381], [-2.884765, 55.997957], [-2.884462, 55.999369], [-2.884291, 55.999897], [-2.884092, 56.000362], [-2.883993, 56.000495], [-2.883851, 56.000607], [-2.883673, 56.000705], [-2.878504, 56.002769], [-2.877504, 56.003147], [-2.872198, 56.005266], [-2.866102, 56.007666], [-2.865018, 56.008069], [-2.864094, 56.008325], [-2.863401, 56.008594], [-2.86219, 56.008969], [-2.861916, 56.009075]]}, "properties": {"name": "1789144867.Afternoon_Ride", "cmt": "2026-09-11", "tstamp": 1789084800, "desc": "---", "src": "-3.177767/55.92439/-2.861916/56.009075", "bbox": "-3.177767/55.92439/-2.861916/56.009075"}}]}