{"type": "FeatureCollection", "name": "TrackSet", "crs": {"type": "name", "properties": {"name": "urn:ogc:def:crs:OGC:1.3:CRS84"}}, "bbox": [-5.082463, 56.560672, -3.585126, 57.01397], "features": [{"type": "Feature", "bbox": [-5.082463, 56.560672, -3.585126, 57.01397], "geometry": {"type": "LineString", "coordinates": [[-5.080558, 56.832441], [-5.080559, 56.832463], [-5.08059, 56.832444], [-5.080767, 56.832435], [-5.082187, 56.831855], [-5.082386, 56.831701], [-5.082439, 56.831627], [-5.082463, 56.831473], [-5.08241, 56.831414], [-5.08228, 56.831379], [-5.081905, 56.831386], [-5.081561, 56.831361], [-5.081228, 56.83127], [-5.081091, 56.831142], [-5.081067, 56.831061], [-5.081028, 56.830537], [-5.08097, 56.830377], [-5.080825, 56.830253], [-5.080436, 56.83009], [-5.080259, 56.830127], [-5.080167, 56.830176], [-5.07738, 56.831982], [-5.077132, 56.832177], [-5.076656, 56.832714], [-5.07605, 56.834097], [-5.075728, 56.834509], [-5.075742, 56.83473], [-5.075386, 56.834983], [-5.075076, 56.835284], [-5.071809, 56.838045], [-5.071268, 56.838426], [-5.070837, 56.838663], [-5.070594, 56.83876], [-5.070018, 56.838896], [-5.069009, 56.838992], [-5.067937, 56.839003], [-5.065079, 56.838907], [-5.064385, 56.838908], [-5.060191, 56.839176], [-5.059321, 56.839299], [-5.059049, 56.839359], [-5.058541, 56.83952], [-5.054935, 56.840954], [-5.052485, 56.841673], [-5.051195, 56.842099], [-5.050563, 56.842351], [-5.050009, 56.842678], [-5.049023, 56.843441], [-5.047873, 56.844603], [-5.047213, 56.845351], [-5.047046, 56.845597], [-5.04689, 56.846001], [-5.046582, 56.847612], [-5.04645, 56.848185], [-5.046344, 56.848458], [-5.045966, 56.848962], [-5.045716, 56.849202], [-5.045423, 56.849438], [-5.045069, 56.849649], [-5.039888, 56.852242], [-5.03883, 56.852733], [-5.037933, 56.853079], [-5.037206, 56.853316], [-5.034639, 56.853897], [-5.034387, 56.853962], [-5.03393, 56.854138], [-5.028033, 56.857024], [-5.027555, 56.85736], [-5.027044, 56.857871], [-5.02659, 56.858234], [-5.025821, 56.858619], [-5.025154, 56.858867], [-5.024436, 56.85908], [-5.023045, 56.859414], [-5.021937, 56.859747], [-5.021295, 56.85998], [-5.017647, 56.86153], [-5.017251, 56.86175], [-5.016284, 56.862373], [-5.015603, 56.862713], [-5.014587, 56.863127], [-5.013014, 56.863689], [-5.012547, 56.863893], [-5.011701, 56.864348], [-5.011233, 56.864523], [-5.008622, 56.865379], [-5.003516, 56.867409], [-5.001037, 56.868173], [-5.000316, 56.86842], [-4.997436, 56.869598], [-4.994815, 56.870821], [-4.994184, 56.871073], [-4.990827, 56.872232], [-4.987136, 56.873049], [-4.986423, 56.873228], [-4.98576, 56.873449], [-4.980916, 56.875247], [-4.979192, 56.875763], [-4.978592, 56.876032], [-4.976617, 56.877096], [-4.976028, 56.877383], [-4.973637, 56.87818], [-4.967032, 56.880704], [-4.966403, 56.880894], [-4.965705, 56.881015], [-4.963416, 56.881196], [-4.962673, 56.881286], [-4.961963, 56.881437], [-4.960587, 56.881779], [-4.959937, 56.881997], [-4.958507, 56.882599], [-4.954721, 56.883894], [-4.951847, 56.885037], [-4.949572, 56.885803], [-4.949239, 56.885893], [-4.948537, 56.886031], [-4.942681, 56.88705], [-4.941989, 56.887202], [-4.941014, 56.887492], [-4.940672, 56.887567], [-4.932178, 56.889206], [-4.930724, 56.889409], [-4.927967, 56.889703], [-4.927313, 56.889801], [-4.926895, 56.889893], [-4.925931, 56.890164], [-4.923886, 56.89085], [-4.922063, 56.891599], [-4.921656, 56.891808], [-4.921296, 56.892048], [-4.920446, 56.892689], [-4.920307, 56.892872], [-4.919933, 56.892926], [-4.917535, 56.893484], [-4.915919, 56.893828], [-4.915194, 56.893914], [-4.913913, 56.893984], [-4.913175, 56.894065], [-4.906623, 56.895182], [-4.905391, 56.895361], [-4.904429, 56.895445], [-4.903473, 56.895437], [-4.901621, 56.895298], [-4.900743, 56.895157], [-4.899813, 56.894913], [-4.899337, 56.894836], [-4.899077, 56.894818], [-4.898516, 56.894815], [-4.896684, 56.894887], [-4.896007, 56.894887], [-4.892546, 56.894656], [-4.89148, 56.894543], [-4.889713, 56.894277], [-4.889005, 56.894112], [-4.883293, 56.892665], [-4.882537, 56.892538], [-4.881501, 56.892402], [-4.88088, 56.89228], [-4.880302, 56.892085], [-4.878125, 56.891193], [-4.877527, 56.891029], [-4.876317, 56.890808], [-4.875747, 56.890739], [-4.875453, 56.890726], [-4.874843, 56.890767], [-4.87356, 56.890931], [-4.87291, 56.89099], [-4.872587, 56.891001], [-4.871936, 56.890976], [-4.868542, 56.890674], [-4.860537, 56.889563], [-4.858662, 56.889471], [-4.858018, 56.889481], [-4.856541, 56.889704], [-4.855927, 56.889762], [-4.854615, 56.889719], [-4.853949, 56.889721], [-4.850295, 56.890021], [-4.8488, 56.890206], [-4.843319, 56.891045], [-4.842732, 56.8911], [-4.842347, 56.891086], [-4.841785, 56.890987], [-4.839559, 56.890389], [-4.836503, 56.889426], [-4.835595, 56.889169], [-4.834989, 56.889062], [-4.833546, 56.888939], [-4.832715, 56.88889], [-4.831333, 56.888885], [-4.830807, 56.888831], [-4.830279, 56.888711], [-4.826791, 56.887563], [-4.825833, 56.887353], [-4.822192, 56.886971], [-4.821469, 56.88687], [-4.820768, 56.886719], [-4.818821, 56.886227], [-4.818203, 56.886123], [-4.817535, 56.886063], [-4.814644, 56.885935], [-4.813603, 56.885826], [-4.810579, 56.885449], [-4.809684, 56.885369], [-4.809046, 56.885374], [-4.807377, 56.885447], [-4.805903, 56.885452], [-4.805372, 56.885532], [-4.804848, 56.885691], [-4.803781, 56.886106], [-4.802129, 56.887], [-4.801673, 56.887221], [-4.800172, 56.887808], [-4.799739, 56.888045], [-4.799357, 56.888306], [-4.798995, 56.888586], [-4.798524, 56.889031], [-4.79814, 56.889309], [-4.79716, 56.889762], [-4.796402, 56.890016], [-4.796128, 56.890061], [-4.795564, 56.890105], [-4.794201, 56.890141], [-4.793397, 56.890058], [-4.792623, 56.889901], [-4.792082, 56.889818], [-4.791795, 56.889794], [-4.790607, 56.889771], [-4.790318, 56.889737], [-4.789775, 56.889611], [-4.789522, 56.889519], [-4.788511, 56.88897], [-4.788134, 56.888802], [-4.787685, 56.888713], [-4.787159, 56.888681], [-4.786874, 56.888686], [-4.785403, 56.88877], [-4.784826, 56.888833], [-4.783644, 56.889049], [-4.782102, 56.88928], [-4.781527, 56.88944], [-4.778356, 56.890736], [-4.777518, 56.890969], [-4.776949, 56.891034], [-4.776349, 56.891019], [-4.775773, 56.890952], [-4.773596, 56.890572], [-4.768734, 56.889676], [-4.768077, 56.88959], [-4.767773, 56.889572], [-4.767204, 56.889616], [-4.765787, 56.889875], [-4.765513, 56.889901], [-4.76523, 56.889898], [-4.764665, 56.889808], [-4.762705, 56.889261], [-4.762164, 56.889168], [-4.761602, 56.889171], [-4.760667, 56.889269], [-4.759987, 56.889292], [-4.758232, 56.889241], [-4.757231, 56.889156], [-4.754216, 56.888628], [-4.751936, 56.888433], [-4.751651, 56.88839], [-4.75113, 56.88823], [-4.750491, 56.887915], [-4.750089, 56.887751], [-4.749596, 56.887658], [-4.749326, 56.887644], [-4.747327, 56.887736], [-4.746497, 56.887841], [-4.74309, 56.888757], [-4.742171, 56.888924], [-4.740894, 56.889043], [-4.740266, 56.889151], [-4.738516, 56.889724], [-4.73755, 56.889912], [-4.736593, 56.89005], [-4.736262, 56.890071], [-4.733734, 56.89009], [-4.73137, 56.890216], [-4.730125, 56.890251], [-4.729281, 56.890219], [-4.727188, 56.890089], [-4.724648, 56.890064], [-4.722346, 56.889969], [-4.721623, 56.889999], [-4.720618, 56.890105], [-4.720001, 56.890106], [-4.719696, 56.890071], [-4.719081, 56.889947], [-4.715343, 56.889003], [-4.714364, 56.88872], [-4.713517, 56.888378], [-4.711306, 56.887218], [-4.710856, 56.887007], [-4.710362, 56.886864], [-4.709882, 56.886832], [-4.70939, 56.886901], [-4.709139, 56.886972], [-4.707314, 56.887773], [-4.706758, 56.887957], [-4.706461, 56.888029], [-4.705815, 56.888113], [-4.705463, 56.888129], [-4.702877, 56.888156], [-4.702128, 56.888218], [-4.700621, 56.8884], [-4.699859, 56.888446], [-4.699477, 56.888443], [-4.697406, 56.888321], [-4.696769, 56.88834], [-4.696455, 56.888375], [-4.695516, 56.888578], [-4.691778, 56.889657], [-4.689986, 56.890035], [-4.688669, 56.89024], [-4.688058, 56.890281], [-4.687741, 56.890277], [-4.683848, 56.889904], [-4.683245, 56.889878], [-4.68265, 56.889924], [-4.681478, 56.890175], [-4.680872, 56.890267], [-4.68055, 56.890285], [-4.678825, 56.890288], [-4.678105, 56.890321], [-4.675761, 56.890504], [-4.674901, 56.89062], [-4.674634, 56.890677], [-4.674136, 56.890831], [-4.673713, 56.891056], [-4.673177, 56.891487], [-4.671778, 56.892841], [-4.671427, 56.893103], [-4.671205, 56.893212], [-4.670674, 56.893387], [-4.66841, 56.893854], [-4.66778, 56.894035], [-4.667182, 56.894261], [-4.665721, 56.894973], [-4.665245, 56.895151], [-4.664666, 56.895276], [-4.661031, 56.895699], [-4.657024, 56.896362], [-4.656038, 56.896549], [-4.655746, 56.896622], [-4.65523, 56.896822], [-4.654059, 56.897506], [-4.653543, 56.897732], [-4.653242, 56.897825], [-4.650556, 56.898472], [-4.648883, 56.898748], [-4.648303, 56.898918], [-4.647498, 56.89921], [-4.64667, 56.899402], [-4.645426, 56.899528], [-4.644742, 56.899565], [-4.639395, 56.899554], [-4.638197, 56.899654], [-4.635866, 56.899901], [-4.635071, 56.899931], [-4.634294, 56.899917], [-4.633552, 56.899941], [-4.632414, 56.900076], [-4.62852, 56.90063], [-4.627885, 56.900681], [-4.627222, 56.900661], [-4.625556, 56.900502], [-4.624877, 56.900505], [-4.623779, 56.900578], [-4.618987, 56.900931], [-4.618184, 56.90101], [-4.615793, 56.901343], [-4.614624, 56.901543], [-4.613459, 56.901779], [-4.612312, 56.902061], [-4.611204, 56.902391], [-4.607094, 56.903846], [-4.605806, 56.904404], [-4.603995, 56.905388], [-4.603336, 56.90568], [-4.601589, 56.906355], [-4.599094, 56.90724], [-4.596922, 56.907972], [-4.593952, 56.908917], [-4.589753, 56.910177], [-4.586369, 56.91112], [-4.585199, 56.911383], [-4.583972, 56.911553], [-4.582718, 56.911619], [-4.580199, 56.911664], [-4.578974, 56.911715], [-4.578179, 56.91179], [-4.577026, 56.911953], [-4.575934, 56.912172], [-4.575229, 56.912345], [-4.569586, 56.913791], [-4.567899, 56.914276], [-4.567584, 56.914387], [-4.567, 56.914648], [-4.566195, 56.915086], [-4.562324, 56.917837], [-4.561535, 56.918323], [-4.554475, 56.921751], [-4.55325, 56.92238], [-4.548296, 56.925154], [-4.543708, 56.927621], [-4.543141, 56.927958], [-4.541839, 56.928828], [-4.54095, 56.929274], [-4.540318, 56.92951], [-4.539449, 56.929752], [-4.5388, 56.929875], [-4.538138, 56.929967], [-4.537117, 56.930039], [-4.53493, 56.930018], [-4.533764, 56.930056], [-4.532603, 56.930194], [-4.531848, 56.930339], [-4.530777, 56.930633], [-4.529744, 56.930965], [-4.528137, 56.931612], [-4.52714, 56.931964], [-4.526443, 56.932166], [-4.52465, 56.932627], [-4.523611, 56.932962], [-4.522957, 56.933213], [-4.521757, 56.933794], [-4.520959, 56.934286], [-4.520468, 56.93463], [-4.520026, 56.934992], [-4.519634, 56.935376], [-4.518751, 56.936377], [-4.518354, 56.936762], [-4.517894, 56.937119], [-4.517383, 56.937445], [-4.517108, 56.937599], [-4.516206, 56.938008], [-4.511462, 56.939822], [-4.510247, 56.940406], [-4.509425, 56.940881], [-4.508691, 56.941408], [-4.508043, 56.941976], [-4.506893, 56.943159], [-4.506421, 56.943516], [-4.505874, 56.94382], [-4.505262, 56.944098], [-4.503004, 56.944878], [-4.502395, 56.945148], [-4.501828, 56.945456], [-4.501124, 56.946], [-4.500758, 56.946405], [-4.500481, 56.946839], [-4.499827, 56.948135], [-4.499508, 56.948529], [-4.499307, 56.948716], [-4.498853, 56.949071], [-4.496624, 56.950649], [-4.494853, 56.951836], [-4.493924, 56.952593], [-4.493742, 56.952718], [-4.493321, 56.95291], [-4.492814, 56.953039], [-4.491554, 56.953264], [-4.490631, 56.953412], [-4.489272, 56.953566], [-4.488729, 56.953667], [-4.488187, 56.953807], [-4.486193, 56.954413], [-4.484922, 56.954691], [-4.48265, 56.955309], [-4.482075, 56.955386], [-4.48116, 56.955436], [-4.480873, 56.955474], [-4.476503, 56.956278], [-4.474537, 56.95645], [-4.473952, 56.956536], [-4.473383, 56.956694], [-4.471337, 56.957349], [-4.470288, 56.957805], [-4.469753, 56.957987], [-4.465358, 56.958913], [-4.46476, 56.958989], [-4.463498, 56.959065], [-4.463304, 56.959106], [-4.462491, 56.959409], [-4.462136, 56.959588], [-4.461554, 56.960062], [-4.461204, 56.96028], [-4.459675, 56.960889], [-4.459238, 56.960984], [-4.458332, 56.961055], [-4.45812, 56.961105], [-4.457463, 56.961348], [-4.455956, 56.961761], [-4.455317, 56.961998], [-4.454791, 56.962296], [-4.453535, 56.963401], [-4.45284, 56.96379], [-4.452571, 56.963898], [-4.452138, 56.963992], [-4.451811, 56.963999], [-4.451242, 56.963959], [-4.450851, 56.963991], [-4.450669, 56.964031], [-4.450359, 56.964177], [-4.449846, 56.964481], [-4.449142, 56.965024], [-4.448744, 56.96517], [-4.44686, 56.96548], [-4.445014, 56.965831], [-4.444493, 56.965986], [-4.443596, 56.966406], [-4.443336, 56.96649], [-4.44305, 56.966553], [-4.441865, 56.966714], [-4.441386, 56.966872], [-4.439332, 56.968046], [-4.438948, 56.968339], [-4.436956, 56.970032], [-4.436594, 56.970276], [-4.436377, 56.970371], [-4.435878, 56.970506], [-4.434694, 56.970709], [-4.434068, 56.970783], [-4.432405, 56.970925], [-4.43142, 56.971068], [-4.430469, 56.971268], [-4.428725, 56.971741], [-4.427853, 56.971934], [-4.425547, 56.972143], [-4.422889, 56.972271], [-4.422323, 56.972357], [-4.422072, 56.972428], [-4.421642, 56.972626], [-4.421137, 56.97299], [-4.420911, 56.973236], [-4.420725, 56.973797], [-4.420536, 56.974086], [-4.419824, 56.974642], [-4.419653, 56.974734], [-4.419227, 56.974855], [-4.418744, 56.974875], [-4.418508, 56.974839], [-4.417547, 56.974525], [-4.417342, 56.974477], [-4.416879, 56.974436], [-4.414436, 56.974559], [-4.413572, 56.97458], [-4.411833, 56.974574], [-4.410495, 56.974493], [-4.40999, 56.974494], [-4.409747, 56.974524], [-4.409528, 56.974581], [-4.408137, 56.97512], [-4.407587, 56.975257], [-4.406963, 56.975334], [-4.405973, 56.975365], [-4.405644, 56.975396], [-4.401767, 56.975881], [-4.399777, 56.976016], [-4.399121, 56.976031], [-4.398002, 56.975951], [-4.397759, 56.975909], [-4.397056, 56.975716], [-4.396651, 56.975658], [-4.39623, 56.975689], [-4.395536, 56.975842], [-4.394991, 56.975931], [-4.394382, 56.975959], [-4.393191, 56.975965], [-4.392628, 56.975933], [-4.391319, 56.975721], [-4.389872, 56.975692], [-4.388051, 56.975475], [-4.387778, 56.975413], [-4.387327, 56.975218], [-4.386428, 56.974572], [-4.386129, 56.974421], [-4.385766, 56.974325], [-4.385562, 56.974309], [-4.385113, 56.974344], [-4.38464, 56.974472], [-4.383899, 56.974736], [-4.38319, 56.974919], [-4.381772, 56.975618], [-4.381327, 56.975908], [-4.381078, 56.976257], [-4.380829, 56.976507], [-4.380638, 56.976615], [-4.379653, 56.976941], [-4.379223, 56.977135], [-4.378284, 56.977893], [-4.37808, 56.977988], [-4.377844, 56.978058], [-4.376856, 56.978261], [-4.376427, 56.978417], [-4.376083, 56.978665], [-4.37466, 56.980164], [-4.374192, 56.980577], [-4.372453, 56.981747], [-4.372055, 56.981921], [-4.371593, 56.982053], [-4.370676, 56.982226], [-4.370184, 56.98221], [-4.369728, 56.982086], [-4.367769, 56.981243], [-4.367308, 56.981126], [-4.366823, 56.981097], [-4.365468, 56.98116], [-4.364243, 56.981014], [-4.363809, 56.981041], [-4.363391, 56.98116], [-4.361806, 56.981754], [-4.360664, 56.981942], [-4.355075, 56.983273], [-4.351849, 56.984114], [-4.34394, 56.986202], [-4.342893, 56.986393], [-4.341837, 56.986481], [-4.341146, 56.986484], [-4.340202, 56.98644], [-4.339646, 56.986456], [-4.339181, 56.986558], [-4.338975, 56.986648], [-4.337893, 56.987363], [-4.337686, 56.987456], [-4.337212, 56.987586], [-4.336956, 56.98763], [-4.336392, 56.987676], [-4.333774, 56.987789], [-4.333202, 56.987886], [-4.332924, 56.987957], [-4.331823, 56.988264], [-4.331336, 56.988449], [-4.331143, 56.988574], [-4.330552, 56.989101], [-4.330172, 56.989312], [-4.329671, 56.989439], [-4.328332, 56.98961], [-4.327907, 56.989692], [-4.327557, 56.989803], [-4.327266, 56.989982], [-4.327011, 56.990359], [-4.326875, 56.990774], [-4.326883, 56.991067], [-4.327058, 56.99179], [-4.327026, 56.991928], [-4.326555, 56.99262], [-4.326257, 56.99365], [-4.325325, 56.99504], [-4.32487, 56.995467], [-4.32381, 56.996235], [-4.323283, 56.996803], [-4.322967, 56.997089], [-4.322531, 56.997335], [-4.321529, 56.997794], [-4.321294, 56.997921], [-4.320889, 56.998211], [-4.319336, 56.999685], [-4.317631, 57.00099], [-4.31573, 57.002691], [-4.315466, 57.002992], [-4.315371, 57.003157], [-4.314765, 57.004434], [-4.314541, 57.004803], [-4.314254, 57.005136], [-4.313464, 57.005919], [-4.313226, 57.006248], [-4.312832, 57.007284], [-4.312653, 57.007599], [-4.312235, 57.008046], [-4.311591, 57.00862], [-4.311246, 57.008882], [-4.311039, 57.008998], [-4.310556, 57.009183], [-4.308996, 57.009592], [-4.306346, 57.010374], [-4.303852, 57.010988], [-4.302224, 57.011452], [-4.297686, 57.012449], [-4.295882, 57.01274], [-4.294764, 57.012816], [-4.294058, 57.01283], [-4.293402, 57.012811], [-4.292775, 57.012711], [-4.291927, 57.012452], [-4.291376, 57.012323], [-4.290782, 57.012268], [-4.289224, 57.012191], [-4.288672, 57.01219], [-4.288134, 57.012224], [-4.287362, 57.012321], [-4.286646, 57.012444], [-4.286225, 57.012562], [-4.285258, 57.01301], [-4.285075, 57.013173], [-4.284913, 57.013543], [-4.284876, 57.013589], [-4.284787, 57.013617], [-4.284178, 57.013596], [-4.282294, 57.013619], [-4.281825, 57.013662], [-4.280145, 57.013927], [-4.279602, 57.01397], [-4.27898, 57.013936], [-4.273908, 57.01338], [-4.27335, 57.013237], [-4.272862, 57.013021], [-4.270653, 57.011901], [-4.267423, 57.010231], [-4.26489, 57.008962], [-4.263019, 57.007961], [-4.26255, 57.007764], [-4.262006, 57.007654], [-4.261168, 57.007554], [-4.260647, 57.007409], [-4.259929, 57.007167], [-4.259417, 57.007096], [-4.25398, 57.007227], [-4.252152, 57.007321], [-4.251963, 57.007324], [-4.251648, 57.007264], [-4.249162, 57.005896], [-4.248611, 57.005558], [-4.246183, 57.003372], [-4.245979, 57.00315], [-4.245917, 57.003031], [-4.245897, 57.002905], [-4.246, 57.002644], [-4.247161, 57.00145], [-4.25013, 56.998531], [-4.250325, 56.998268], [-4.250372, 56.998133], [-4.250306, 56.997872], [-4.250202, 56.997754], [-4.249862, 56.997546], [-4.248743, 56.997102], [-4.248461, 56.996879], [-4.248357, 56.996627], [-4.248568, 56.99377], [-4.248711, 56.993511], [-4.24945, 56.992911], [-4.249554, 56.99278], [-4.249648, 56.992501], [-4.249468, 56.991176], [-4.249336, 56.99093], [-4.249081, 56.990712], [-4.24832, 56.990357], [-4.247982, 56.990154], [-4.247062, 56.989083], [-4.24686, 56.98887], [-4.246609, 56.988679], [-4.246101, 56.988456], [-4.243733, 56.987773], [-4.243162, 56.987544], [-4.242876, 56.987341], [-4.241014, 56.985677], [-4.240365, 56.985235], [-4.238371, 56.983974], [-4.23808, 56.983736], [-4.237897, 56.983451], [-4.236237, 56.978396], [-4.234944, 56.974277], [-4.234942, 56.973926], [-4.235006, 56.973754], [-4.235478, 56.973137], [-4.235545, 56.972982], [-4.23554, 56.972673], [-4.235331, 56.972058], [-4.235383, 56.971732], [-4.235607, 56.971412], [-4.23772, 56.969081], [-4.239605, 56.966935], [-4.239775, 56.966594], [-4.240096, 56.965026], [-4.240242, 56.96472], [-4.240526, 56.964438], [-4.240712, 56.964305], [-4.244298, 56.961912], [-4.244584, 56.961588], [-4.244691, 56.961228], [-4.244073, 56.949095], [-4.243927, 56.948382], [-4.242412, 56.942812], [-4.242225, 56.942539], [-4.242091, 56.942419], [-4.241747, 56.94223], [-4.241321, 56.942134], [-4.240853, 56.94213], [-4.240388, 56.942211], [-4.239962, 56.942373], [-4.238705, 56.943114], [-4.238328, 56.943306], [-4.23788, 56.943419], [-4.237524, 56.94344], [-4.237256, 56.943421], [-4.237028, 56.943368], [-4.236757, 56.943262], [-4.236092, 56.942956], [-4.235824, 56.942777], [-4.235441, 56.942327], [-4.235265, 56.941959], [-4.235262, 56.941833], [-4.235355, 56.941578], [-4.236301, 56.940328], [-4.236596, 56.940033], [-4.23687, 56.939865], [-4.237175, 56.939739], [-4.238901, 56.939257], [-4.239228, 56.939145], [-4.239493, 56.938987], [-4.239693, 56.938779], [-4.240893, 56.935823], [-4.241626, 56.934163], [-4.242226, 56.932325], [-4.242432, 56.930945], [-4.242361, 56.930677], [-4.241778, 56.929661], [-4.241221, 56.928751], [-4.240069, 56.927086], [-4.239897, 56.926784], [-4.239856, 56.92664], [-4.239863, 56.926492], [-4.239981, 56.926188], [-4.24061, 56.925206], [-4.240766, 56.924861], [-4.240796, 56.924493], [-4.240655, 56.924116], [-4.239461, 56.922192], [-4.237846, 56.919066], [-4.237073, 56.917819], [-4.236917, 56.917307], [-4.236851, 56.917232], [-4.236657, 56.91714], [-4.236441, 56.917102], [-4.235978, 56.917106], [-4.235787, 56.917029], [-4.23559, 56.914155], [-4.235583, 56.91308], [-4.235683, 56.911753], [-4.235977, 56.910134], [-4.236468, 56.908481], [-4.237017, 56.907118], [-4.237822, 56.905576], [-4.238782, 56.904078], [-4.239745, 56.90282], [-4.240797, 56.901599], [-4.241358, 56.901023], [-4.243686, 56.898766], [-4.244505, 56.897901], [-4.245114, 56.897187], [-4.245684, 56.896441], [-4.246687, 56.894928], [-4.247294, 56.893802], [-4.24899, 56.889763], [-4.250023, 56.8875], [-4.25064, 56.886259], [-4.250987, 56.885646], [-4.251506, 56.884845], [-4.252796, 56.883187], [-4.253651, 56.881928], [-4.255264, 56.879089], [-4.256448, 56.87686], [-4.256776, 56.876114], [-4.256948, 56.875553], [-4.257095, 56.874813], [-4.257137, 56.874075], [-4.257083, 56.873334], [-4.256915, 56.872204], [-4.256505, 56.870234], [-4.256216, 56.869242], [-4.25598, 56.868648], [-4.255688, 56.868058], [-4.255065, 56.867098], [-4.254461, 56.866337], [-4.253923, 56.86576], [-4.252315, 56.864185], [-4.251565, 56.863374], [-4.250386, 56.861945], [-4.249364, 56.860509], [-4.245828, 56.855339], [-4.245446, 56.854704], [-4.244935, 56.853631], [-4.244454, 56.852137], [-4.244183, 56.851504], [-4.243754, 56.850689], [-4.243272, 56.84996], [-4.242736, 56.849279], [-4.241506, 56.847916], [-4.240984, 56.847195], [-4.240399, 56.846268], [-4.239491, 56.845118], [-4.237329, 56.842966], [-4.234895, 56.840303], [-4.234125, 56.839547], [-4.233052, 56.838628], [-4.232131, 56.837929], [-4.230892, 56.837092], [-4.225851, 56.833854], [-4.224453, 56.833079], [-4.223019, 56.832417], [-4.222127, 56.832065], [-4.220183, 56.831373], [-4.219196, 56.830984], [-4.216192, 56.829644], [-4.215063, 56.829186], [-4.213897, 56.828758], [-4.211152, 56.82786], [-4.20801, 56.827022], [-4.206211, 56.826499], [-4.204883, 56.826079], [-4.201873, 56.825053], [-4.200541, 56.824649], [-4.199196, 56.824291], [-4.19653, 56.823664], [-4.194706, 56.823194], [-4.192006, 56.82244], [-4.188481, 56.821409], [-4.184931, 56.820464], [-4.181009, 56.819346], [-4.179195, 56.818909], [-4.177788, 56.818629], [-4.176829, 56.818469], [-4.175374, 56.818272], [-4.174403, 56.818163], [-4.172931, 56.818046], [-4.170944, 56.81795], [-4.166923, 56.817824], [-4.163447, 56.817689], [-4.160957, 56.817675], [-4.149981, 56.81807], [-4.147492, 56.818146], [-4.145985, 56.818167], [-4.144484, 56.818149], [-4.142486, 56.818056], [-4.141003, 56.817951], [-4.13905, 56.817738], [-4.136619, 56.817394], [-4.134716, 56.817051], [-4.132876, 56.816654], [-4.13064, 56.816081], [-4.128908, 56.815557], [-4.127236, 56.814975], [-4.126017, 56.814502], [-4.123637, 56.813494], [-4.122392, 56.813031], [-4.121105, 56.812601], [-4.120222, 56.812334], [-4.118405, 56.811858], [-4.117003, 56.81155], [-4.115078, 56.811214], [-4.113119, 56.810953], [-4.110139, 56.810658], [-4.10819, 56.81037], [-4.106766, 56.81011], [-4.10537, 56.809816], [-4.104007, 56.809496], [-4.1027, 56.80912], [-4.100571, 56.80843], [-4.09926, 56.808052], [-4.097458, 56.807617], [-4.095583, 56.807265], [-4.094149, 56.807051], [-4.092697, 56.806883], [-4.091234, 56.806772], [-4.08928, 56.806699], [-4.08781, 56.806694], [-4.086829, 56.806718], [-4.080348, 56.80703], [-4.079336, 56.807036], [-4.077874, 56.807004], [-4.076434, 56.806909], [-4.075498, 56.806813], [-4.074151, 56.806613], [-4.073286, 56.806453], [-4.072032, 56.806182], [-4.071228, 56.805976], [-4.07047, 56.805757], [-4.069441, 56.80542], [-4.068455, 56.805056], [-4.067173, 56.80452], [-4.065424, 56.803916], [-4.063925, 56.803519], [-4.061963, 56.803127], [-4.060762, 56.802957], [-4.059123, 56.802806], [-4.0583, 56.802767], [-4.055818, 56.802713], [-4.054141, 56.802623], [-4.052902, 56.802526], [-4.051285, 56.802358], [-4.04766, 56.801883], [-4.045207, 56.801621], [-4.043826, 56.801503], [-4.041034, 56.801326], [-4.038808, 56.801122], [-4.036923, 56.800886], [-4.035046, 56.800584], [-4.033188, 56.80022], [-4.031422, 56.799811], [-4.030093, 56.799451], [-4.028168, 56.798878], [-4.02353, 56.797477], [-4.020844, 56.79668], [-4.018181, 56.795861], [-4.017306, 56.795553], [-4.016743, 56.795316], [-4.016211, 56.795069], [-4.015446, 56.79466], [-4.014975, 56.794363], [-4.014318, 56.793887], [-4.01374, 56.79338], [-4.013253, 56.792847], [-4.012733, 56.792105], [-4.011507, 56.789889], [-4.011157, 56.789335], [-4.010448, 56.788415], [-4.009604, 56.787527], [-4.008414, 56.786511], [-4.007296, 56.785724], [-4.006077, 56.784986], [-4.004715, 56.784286], [-4.003545, 56.783772], [-3.991449, 56.778847], [-3.989911, 56.778229], [-3.984297, 56.775916], [-3.982838, 56.775197], [-3.980708, 56.774023], [-3.979267, 56.773385], [-3.977483, 56.77272], [-3.975247, 56.772039], [-3.972994, 56.771473], [-3.970734, 56.770983], [-3.968805, 56.770625], [-3.966806, 56.77031], [-3.964347, 56.769981], [-3.961782, 56.769701], [-3.960269, 56.769564], [-3.956908, 56.769312], [-3.949059, 56.768759], [-3.943231, 56.768326], [-3.941334, 56.768212], [-3.940163, 56.76819], [-3.938598, 56.768225], [-3.937828, 56.768271], [-3.936305, 56.768409], [-3.93451, 56.768661], [-3.93156, 56.769222], [-3.930944, 56.769318], [-3.929955, 56.769427], [-3.928914, 56.769484], [-3.928206, 56.769494], [-3.927135, 56.769468], [-3.926411, 56.769414], [-3.925696, 56.769335], [-3.924629, 56.769169], [-3.923593, 56.768938], [-3.922218, 56.768563], [-3.916882, 56.767007], [-3.915386, 56.766632], [-3.914615, 56.766488], [-3.91383, 56.766377], [-3.912626, 56.766264], [-3.911843, 56.766233], [-3.910692, 56.766249], [-3.909587, 56.766319], [-3.908868, 56.766399], [-3.907821, 56.766566], [-3.906818, 56.766782], [-3.906166, 56.766951], [-3.901695, 56.768191], [-3.900711, 56.768419], [-3.899711, 56.768595], [-3.898341, 56.768752], [-3.896922, 56.768813], [-3.895822, 56.768798], [-3.894349, 56.768675], [-3.892881, 56.768447], [-3.892179, 56.768293], [-3.891186, 56.768021], [-3.890555, 56.767807], [-3.889664, 56.767453], [-3.886909, 56.766129], [-3.885716, 56.765648], [-3.885077, 56.765439], [-3.884083, 56.765177], [-3.883048, 56.764971], [-3.882338, 56.764864], [-3.880882, 56.764733], [-3.879765, 56.764703], [-3.86898, 56.764829], [-3.865454, 56.764859], [-3.864383, 56.764848], [-3.862936, 56.76479], [-3.861449, 56.764676], [-3.85994, 56.76449], [-3.858401, 56.764242], [-3.856877, 56.763927], [-3.85577, 56.763647], [-3.852951, 56.762863], [-3.851587, 56.762463], [-3.847318, 56.76126], [-3.842058, 56.759799], [-3.838105, 56.758681], [-3.835721, 56.758134], [-3.833212, 56.757704], [-3.831764, 56.757519], [-3.83032, 56.757373], [-3.829224, 56.757287], [-3.827763, 56.757213], [-3.814487, 56.756828], [-3.809187, 56.756645], [-3.806942, 56.756476], [-3.805474, 56.756306], [-3.804007, 56.756077], [-3.802148, 56.755713], [-3.799947, 56.755177], [-3.797584, 56.754476], [-3.785762, 56.751103], [-3.784908, 56.750836], [-3.780541, 56.749564], [-3.779527, 56.749218], [-3.777812, 56.74855], [-3.776098, 56.747759], [-3.775028, 56.747191], [-3.774249, 56.746736], [-3.773065, 56.745941], [-3.771851, 56.744982], [-3.770625, 56.743787], [-3.770161, 56.743239], [-3.769723, 56.74265], [-3.76932, 56.742021], [-3.76896, 56.741361], [-3.768766, 56.740909], [-3.768557, 56.74021], [-3.768424, 56.739205], [-3.768473, 56.738406], [-3.768666, 56.737609], [-3.768986, 56.73682], [-3.769445, 56.73604], [-3.77139, 56.733396], [-3.772307, 56.732039], [-3.772974, 56.730953], [-3.773251, 56.730401], [-3.773471, 56.729838], [-3.773658, 56.728979], [-3.773702, 56.728402], [-3.773679, 56.727825], [-3.773582, 56.727247], [-3.773404, 56.726678], [-3.773022, 56.72584], [-3.77268, 56.725301], [-3.772065, 56.724535], [-3.771582, 56.724063], [-3.77077, 56.723407], [-3.769893, 56.722806], [-3.769275, 56.722436], [-3.76618, 56.720722], [-3.765647, 56.720353], [-3.765172, 56.719965], [-3.76456, 56.71934], [-3.764086, 56.718682], [-3.763855, 56.71823], [-3.763685, 56.717773], [-3.763593, 56.717312], [-3.763375, 56.714844], [-3.763304, 56.71441], [-3.763168, 56.713978], [-3.762945, 56.713554], [-3.762655, 56.713133], [-3.762083, 56.712527], [-3.761607, 56.712152], [-3.761092, 56.711806], [-3.760225, 56.711376], [-3.759563, 56.711142], [-3.758859, 56.710929], [-3.757012, 56.710431], [-3.756289, 56.710197], [-3.755591, 56.709928], [-3.754948, 56.709614], [-3.754354, 56.709274], [-3.753843, 56.708905], [-3.753432, 56.708514], [-3.753113, 56.708095], [-3.752892, 56.707661], [-3.751393, 56.703446], [-3.750608, 56.701465], [-3.750047, 56.700612], [-3.749615, 56.700127], [-3.74911, 56.699652], [-3.748734, 56.699361], [-3.74808, 56.698949], [-3.747333, 56.698554], [-3.746784, 56.698302], [-3.746204, 56.698067], [-3.745577, 56.697857], [-3.744924, 56.69767], [-3.743928, 56.697437], [-3.742612, 56.697215], [-3.7413, 56.697093], [-3.740633, 56.697064], [-3.737896, 56.697051], [-3.736456, 56.696948], [-3.735736, 56.696858], [-3.735034, 56.696734], [-3.734019, 56.696498], [-3.73336, 56.69631], [-3.732124, 56.695864], [-3.731546, 56.695607], [-3.731005, 56.695328], [-3.730038, 56.694737], [-3.727815, 56.693222], [-3.727324, 56.692923], [-3.726776, 56.692633], [-3.725568, 56.692114], [-3.724262, 56.691695], [-3.723267, 56.691466], [-3.721593, 56.691177], [-3.712399, 56.689706], [-3.710689, 56.689504], [-3.709985, 56.689397], [-3.708569, 56.689108], [-3.70717, 56.688701], [-3.706495, 56.68845], [-3.705828, 56.688158], [-3.705165, 56.687819], [-3.704523, 56.687449], [-3.698809, 56.684025], [-3.694046, 56.681139], [-3.689355, 56.678315], [-3.687449, 56.677071], [-3.683064, 56.674085], [-3.680581, 56.672361], [-3.676128, 56.669043], [-3.674347, 56.667738], [-3.67354, 56.667065], [-3.672865, 56.66636], [-3.672513, 56.66585], [-3.672247, 56.665323], [-3.672097, 56.664778], [-3.672025, 56.664222], [-3.672085, 56.66338], [-3.672601, 56.66088], [-3.672705, 56.660049], [-3.67273, 56.659494], [-3.672695, 56.658661], [-3.672629, 56.658108], [-3.672453, 56.657279], [-3.672297, 56.656727], [-3.671993, 56.655915], [-3.671759, 56.655396], [-3.671352, 56.654672], [-3.670729, 56.65381], [-3.669586, 56.652651], [-3.668572, 56.651795], [-3.667212, 56.650761], [-3.666535, 56.65028], [-3.664437, 56.648879], [-3.663064, 56.648085], [-3.661305, 56.647147], [-3.659194, 56.646143], [-3.65782, 56.645396], [-3.656337, 56.644749], [-3.655236, 56.644225], [-3.65441, 56.643765], [-3.653663, 56.643284], [-3.65287, 56.642676], [-3.652015, 56.641885], [-3.651609, 56.641414], [-3.650633, 56.640104], [-3.649776, 56.6392], [-3.649093, 56.638619], [-3.648422, 56.638129], [-3.646995, 56.637239], [-3.646081, 56.636607], [-3.645488, 56.636093], [-3.645095, 56.635679], [-3.644653, 56.635096], [-3.644406, 56.634651], [-3.644211, 56.634188], [-3.643697, 56.63249], [-3.643412, 56.631911], [-3.643023, 56.631356], [-3.642609, 56.630874], [-3.639883, 56.628076], [-3.639118, 56.627421], [-3.638711, 56.627248], [-3.638667, 56.627188], [-3.638662, 56.626961], [-3.638622, 56.626887], [-3.638197, 56.626318], [-3.634377, 56.622448], [-3.633497, 56.621446], [-3.632685, 56.620349], [-3.63201, 56.619248], [-3.631406, 56.618054], [-3.631001, 56.616986], [-3.630477, 56.615124], [-3.630064, 56.614155], [-3.62947, 56.613156], [-3.628396, 56.611774], [-3.627909, 56.611063], [-3.627347, 56.610011], [-3.626996, 56.60909], [-3.626774, 56.608188], [-3.626634, 56.606857], [-3.626674, 56.605826], [-3.62689, 56.604364], [-3.626932, 56.603644], [-3.626882, 56.602672], [-3.626708, 56.601717], [-3.626534, 56.601155], [-3.626258, 56.600459], [-3.625278, 56.598676], [-3.624804, 56.597681], [-3.624109, 56.595765], [-3.623195, 56.593874], [-3.62287, 56.593001], [-3.622646, 56.591995], [-3.622562, 56.590842], [-3.622627, 56.589965], [-3.622906, 56.588759], [-3.622993, 56.58813], [-3.623001, 56.5875], [-3.622918, 56.586879], [-3.622756, 56.586266], [-3.622535, 56.585671], [-3.622313, 56.585236], [-3.621774, 56.584407], [-3.621226, 56.583446], [-3.620729, 56.582329], [-3.620613, 56.581757], [-3.620528, 56.58071], [-3.620535, 56.580256], [-3.620612, 56.579339], [-3.620746, 56.578566], [-3.621185, 56.577166], [-3.622451, 56.574313], [-3.622817, 56.573311], [-3.623311, 56.571328], [-3.623521, 56.569613], [-3.623549, 56.569005], [-3.623499, 56.568429], [-3.623367, 56.567872], [-3.623174, 56.56731], [-3.623, 56.566931], [-3.622657, 56.566368], [-3.62223, 56.565812], [-3.621736, 56.565275], [-3.621184, 56.564781], [-3.62039, 56.564188], [-3.619739, 56.56379], [-3.618997, 56.563431], [-3.618171, 56.56311], [-3.617582, 56.562925], [-3.616613, 56.562692], [-3.615566, 56.562521], [-3.614127, 56.562404], [-3.609615, 56.562267], [-3.608404, 56.562202], [-3.60716, 56.562169], [-3.605883, 56.562148], [-3.604182, 56.56216], [-3.601712, 56.562244], [-3.600508, 56.562245], [-3.599322, 56.562232], [-3.597402, 56.562138], [-3.595124, 56.561913], [-3.592308, 56.561555], [-3.589288, 56.561097], [-3.588663, 56.560982], [-3.58746, 56.560702], [-3.587134, 56.560672], [-3.586793, 56.560742], [-3.586422, 56.560975], [-3.586198, 56.561081], [-3.585488, 56.561244], [-3.585219, 56.561374], [-3.585168, 56.561435], [-3.585126, 56.561668], [-3.585185, 56.562747], [-3.585364, 56.564921], [-3.585429, 56.565373], [-3.585501, 56.56557], [-3.585648, 56.565601], [-3.586011, 56.565599], [-3.586902, 56.565484], [-3.58701, 56.565534], [-3.587016, 56.56557], [-3.586944, 56.565626], [-3.586885, 56.565636], [-3.586389, 56.565613], [-3.586507, 56.565608], [-3.586466, 56.565577], [-3.586754, 56.565542], [-3.5869, 56.565458], [-3.5874, 56.565344]]}, "properties": {"name": "1789118158.Morning_Ride", "cmt": "2026-09-11", "tstamp": 1789084800, "desc": "---", "src": "-5.082463/56.560672/-3.585126/57.01397", "bbox": "-5.082463/56.560672/-3.585126/57.01397"}}]}