{"type": "FeatureCollection", "name": "TrackSet", "crs": {"type": "name", "properties": {"name": "urn:ogc:def:crs:OGC:1.3:CRS84"}}, "bbox": [3.0, 1.0, 4.0, 2.0], "features": [{"type": "Feature", "geometry": {"type": "Point", "coordinates": [138.532854, -34.94862, 0.0]}, "properties": {"name": "Adelaide Airport", "desc": "airport", "cmt": null, "height": 0.0}}, {"type": "Feature", "geometry": {"type": "Point", "coordinates": [138.597743, -34.929054, 0.0]}, "properties": {"name": "Hilton Adelaide Hotel", "desc": "lodging", "cmt": null, "height": 0.0}}, {"type": "Feature", "geometry": {"type": "Point", "coordinates": [149.190283, -35.304195, 0.0]}, "properties": {"name": "Canberra Airport", "desc": "airport", "cmt": null, "height": 0.0}}, {"type": "Feature", "geometry": {"type": "Point", "coordinates": [149.130211, -35.275029, 0.0]}, "properties": {"name": "Avenue Hotel", "desc": "lodging", "cmt": null, "height": 0.0}}, {"type": "Feature", "geometry": {"type": "Point", "coordinates": [148.615331, -36.41593, 0.0]}, "properties": {"name": "Kookaburra Ski Lodge", "desc": "lodging", "cmt": null, "height": 0.0}}, {"type": "Feature", "geometry": {"type": "Point", "coordinates": [151.174582, -33.941081, 0.0]}, "properties": {"name": "Sydney Airport", "desc": "airport", "cmt": null, "height": 0.0}}, {"type": "Feature", "geometry": {"type": "Point", "coordinates": [151.203766, -33.872521, 0.0]}, "properties": {"name": "Sheraton SydneyHotel", "desc": "lodging", "cmt": null, "height": 0.0}}]}