{"type": "FeatureCollection", "name": "TrackSet", "crs": {"type": "name", "properties": {"name": "urn:ogc:def:crs:OGC:1.3:CRS84"}}, "bbox": [40.022318, -3.348258, 40.101162, -3.230718], "features": [{"type": "Feature", "bbox": [40.022318, -3.348258, 40.101162, -3.230718], "geometry": {"type": "LineString", "coordinates": [[40.098304, -3.230718], [40.098123, -3.231346], [40.098214, -3.231465], [40.098956, -3.231313], [40.099411, -3.23146], [40.101162, -3.232919], [40.096902, -3.237273], [40.097148, -3.237345], [40.096902, -3.237273], [40.095227, -3.238889], [40.093317, -3.240239], [40.081011, -3.246044], [40.080853, -3.246679], [40.080928, -3.247499], [40.081507, -3.24895], [40.08158, -3.249488], [40.080965, -3.252281], [40.080456, -3.256196], [40.080104, -3.257318], [40.079941, -3.259107], [40.079361, -3.26039], [40.078946, -3.262222], [40.078889, -3.26498], [40.080225, -3.270566], [40.08065, -3.270685], [40.081511, -3.270416], [40.081743, -3.270552], [40.082366, -3.272191], [40.082913, -3.275166], [40.083315, -3.275999], [40.08203, -3.278811], [40.08251, -3.280284], [40.082722, -3.282536], [40.08269, -3.284485], [40.083059, -3.290432], [40.079435, -3.290609], [40.080465, -3.314095], [40.073086, -3.317237], [40.070474, -3.317989], [40.070525, -3.32005], [40.070392, -3.320378], [40.064295, -3.325267], [40.064019, -3.325661], [40.061723, -3.327753], [40.061173, -3.328571], [40.056918, -3.332481], [40.049372, -3.334881], [40.047259, -3.335951], [40.046608, -3.3364], [40.046464, -3.336709], [40.026454, -3.346079], [40.022318, -3.348258]]}, "properties": {"name": "CAR_Kenya_Malindi_Watamu", "cmt": "1994-08-15", "tstamp": 776908800, "desc": "UpHill", "src": "40.022318/-3.348258/40.101162/-3.230718", "bbox": "40.022318/-3.348258/40.101162/-3.230718"}}]}