{"type": "FeatureCollection", "name": "TrackSet", "crs": {"type": "name", "properties": {"name": "urn:ogc:def:crs:OGC:1.3:CRS84"}}, "bbox": [3.0, 1.0, 4.0, 2.0], "features": [{"type": "Feature", "geometry": {"type": "Point", "coordinates": [-70.654118, -33.436152, 0.0]}, "properties": {"name": "Hotel Cervantes", "desc": "lodging", "cmt": null, "height": 0.0}}, {"type": "Feature", "geometry": {"type": "Point", "coordinates": [-69.912015, -32.824184, 0.0]}, "properties": {"name": "Hostel", "desc": "lodging", "cmt": null, "height": 0.0}}, {"type": "Feature", "geometry": {"type": "Point", "coordinates": [-69.94227, -32.81103, 0.0]}, "properties": {"name": "Horcones", "desc": "castle", "cmt": null, "height": 0.0}}, {"type": "Feature", "geometry": {"type": "Point", "coordinates": [-69.966266, -32.758105, 0.0]}, "properties": {"name": "Confluencia", "desc": "campsite", "cmt": null, "height": 0.0}}, {"type": "Feature", "geometry": {"type": "Point", "coordinates": [-70.057898, -32.648597, 0.0]}, "properties": {"name": "Plaza de Mulas", "desc": "campsite", "cmt": null, "height": 0.0}}, {"type": "Feature", "geometry": {"type": "Point", "coordinates": [-70.041279, -32.644326, 0.0]}, "properties": {"name": "Camp Canada", "desc": "campsite", "cmt": null, "height": 0.0}}, {"type": "Feature", "geometry": {"type": "Point", "coordinates": [-70.030217, -32.637414, 0.0]}, "properties": {"name": "Nido de Condores", "desc": "campsite", "cmt": null, "height": 0.0}}, {"type": "Feature", "geometry": {"type": "Point", "coordinates": [-70.021465, -32.638135, 0.0]}, "properties": {"name": "Camp Berlin", "desc": "campsite", "cmt": null, "height": 0.0}}, {"type": "Feature", "geometry": {"type": "Point", "coordinates": [-70.015046, -32.651959, 0.0]}, "properties": {"name": "Aconcagua", "desc": "mountain", "cmt": null, "height": 0.0}}]}