{"type": "FeatureCollection", "name": "TrackSet", "crs": {"type": "name", "properties": {"name": "urn:ogc:def:crs:OGC:1.3:CRS84"}}, "bbox": [-3.361073, 55.889786, -2.735237, 55.991871], "features": [{"type": "Feature", "bbox": [-3.361073, 55.889786, -2.735237, 55.991871], "geometry": {"type": "LineString", "coordinates": [[-3.358703, 55.94524], [-3.358639, 55.945129], [-3.358701, 55.945014], [-3.358333, 55.944534], [-3.358831, 55.944426], [-3.359423, 55.944382], [-3.359731, 55.944393], [-3.360331, 55.944527], [-3.360581, 55.94454], [-3.360664, 55.944525], [-3.360776, 55.94448], [-3.360845, 55.944412], [-3.360872, 55.944205], [-3.361028, 55.944112], [-3.361073, 55.943825], [-3.361034, 55.943653], [-3.360698, 55.942739], [-3.360398, 55.942055], [-3.359886, 55.941127], [-3.359217, 55.94012], [-3.358953, 55.940113], [-3.358788, 55.939998], [-3.358793, 55.939898], [-3.358965, 55.939788], [-3.358674, 55.939192], [-3.358572, 55.938812], [-3.358626, 55.938083], [-3.358261, 55.937634], [-3.357918, 55.937362], [-3.357507, 55.93718], [-3.357247, 55.937106], [-3.356684, 55.937012], [-3.356175, 55.936963], [-3.352905, 55.936826], [-3.349614, 55.936803], [-3.348394, 55.936772], [-3.343172, 55.936523], [-3.342608, 55.936513], [-3.340872, 55.936557], [-3.336362, 55.936819], [-3.335507, 55.936933], [-3.334847, 55.937062], [-3.324079, 55.939466], [-3.323662, 55.939598], [-3.323446, 55.939697], [-3.323196, 55.93986], [-3.322943, 55.939951], [-3.322534, 55.94001], [-3.322287, 55.940005], [-3.322061, 55.939973], [-3.321671, 55.939839], [-3.32141, 55.939639], [-3.321342, 55.939534], [-3.321316, 55.939266], [-3.321427, 55.939074], [-3.321523, 55.938986], [-3.321692, 55.938882], [-3.321995, 55.938774], [-3.322275, 55.93853], [-3.322361, 55.938319], [-3.322377, 55.93813], [-3.322189, 55.937655], [-3.320625, 55.934236], [-3.31957, 55.931834], [-3.319247, 55.931251], [-3.318768, 55.930583], [-3.318324, 55.929996], [-3.317715, 55.929326], [-3.316745, 55.928434], [-3.315134, 55.927214], [-3.312609, 55.925421], [-3.309511, 55.923242], [-3.307421, 55.921815], [-3.304409, 55.919756], [-3.299575, 55.916499], [-3.298743, 55.916027], [-3.297233, 55.915301], [-3.295368, 55.914532], [-3.294649, 55.91431], [-3.293388, 55.913973], [-3.288435, 55.912925], [-3.286006, 55.912328], [-3.283912, 55.911693], [-3.281986, 55.910931], [-3.280598, 55.910231], [-3.279406, 55.909499], [-3.278753, 55.909028], [-3.277886, 55.908287], [-3.276851, 55.907272], [-3.273822, 55.903779], [-3.272729, 55.90279], [-3.272094, 55.902311], [-3.271215, 55.901739], [-3.270723, 55.901459], [-3.27012, 55.90114], [-3.268882, 55.900565], [-3.267452, 55.900027], [-3.266432, 55.899712], [-3.265652, 55.899503], [-3.264592, 55.899265], [-3.263495, 55.899065], [-3.26168, 55.898805], [-3.260947, 55.898725], [-3.259433, 55.898573], [-3.257817, 55.898461], [-3.256273, 55.898379], [-3.254647, 55.898332], [-3.253212, 55.898316], [-3.251285, 55.898345], [-3.248573, 55.898469], [-3.246691, 55.898611], [-3.242614, 55.898991], [-3.237419, 55.899405], [-3.235353, 55.899551], [-3.233689, 55.899596], [-3.231347, 55.899564], [-3.227975, 55.89942], [-3.224704, 55.899205], [-3.222138, 55.898998], [-3.218469, 55.898669], [-3.214837, 55.898273], [-3.21131, 55.89783], [-3.209188, 55.897509], [-3.208266, 55.897346], [-3.206139, 55.896893], [-3.205238, 55.896654], [-3.203858, 55.896221], [-3.200351, 55.894995], [-3.198815, 55.894523], [-3.19603, 55.89376], [-3.194459, 55.893418], [-3.18967, 55.892591], [-3.187593, 55.89235], [-3.179216, 55.891551], [-3.17494, 55.89113], [-3.166959, 55.890223], [-3.16453, 55.889992], [-3.162537, 55.88988], [-3.160488, 55.889823], [-3.158756, 55.889794], [-3.155883, 55.889786], [-3.151057, 55.889847], [-3.148006, 55.89], [-3.145719, 55.890193], [-3.144885, 55.890285], [-3.142296, 55.890652], [-3.13987, 55.891098], [-3.137723, 55.891579], [-3.136049, 55.89203], [-3.134698, 55.89243], [-3.133521, 55.89282], [-3.127232, 55.895043], [-3.1239, 55.896209], [-3.122648, 55.896612], [-3.121258, 55.897014], [-3.119553, 55.897468], [-3.117132, 55.898006], [-3.115074, 55.898404], [-3.112989, 55.898727], [-3.111105, 55.898971], [-3.109097, 55.899168], [-3.107338, 55.899291], [-3.105434, 55.899376], [-3.104193, 55.899405], [-3.102406, 55.899408], [-3.099994, 55.899356], [-3.098714, 55.899368], [-3.096762, 55.89947], [-3.095237, 55.899632], [-3.093368, 55.899966], [-3.09315, 55.900043], [-3.092894, 55.900198], [-3.09285, 55.90031], [-3.092701, 55.900437], [-3.092431, 55.900531], [-3.092169, 55.900545], [-3.091724, 55.900457], [-3.091429, 55.900436], [-3.09125, 55.90044], [-3.090839, 55.900533], [-3.089228, 55.901048], [-3.088027, 55.901514], [-3.087399, 55.901787], [-3.081049, 55.905071], [-3.078772, 55.906189], [-3.074335, 55.908276], [-3.07055, 55.909952], [-3.069797, 55.910322], [-3.069058, 55.910722], [-3.068272, 55.911213], [-3.067267, 55.911958], [-3.066512, 55.912661], [-3.06569, 55.913629], [-3.065101, 55.914609], [-3.064717, 55.915577], [-3.063815, 55.919769], [-3.063634, 55.920319], [-3.063394, 55.920859], [-3.063021, 55.921521], [-3.062342, 55.922405], [-3.06167, 55.923107], [-3.060678, 55.923958], [-3.060615, 55.924096], [-3.060632, 55.924236], [-3.060744, 55.924358], [-3.060799, 55.924542], [-3.060679, 55.924893], [-3.060596, 55.925009], [-3.060309, 55.925214], [-3.059997, 55.925297], [-3.059658, 55.925425], [-3.059355, 55.92564], [-3.059305, 55.925755], [-3.059305, 55.92597], [-3.059401, 55.926126], [-3.05955, 55.926247], [-3.059842, 55.926368], [-3.060303, 55.926439], [-3.062264, 55.926518], [-3.062539, 55.926548], [-3.063194, 55.926698], [-3.06373, 55.926747], [-3.063806, 55.926806], [-3.063799, 55.926867], [-3.063387, 55.927501], [-3.062097, 55.928847], [-3.060901, 55.930167], [-3.060736, 55.930606], [-3.060616, 55.930766], [-3.059762, 55.931302], [-3.059412, 55.931587], [-3.059192, 55.931847], [-3.059178, 55.931977], [-3.059277, 55.932247], [-3.059577, 55.932606], [-3.062157, 55.935008], [-3.062482, 55.935558], [-3.062761, 55.936144], [-3.062837, 55.936407], [-3.062848, 55.936731], [-3.062787, 55.937043], [-3.062353, 55.937839], [-3.061865, 55.938506], [-3.061145, 55.939251], [-3.060842, 55.939621], [-3.060663, 55.93991], [-3.059993, 55.939888], [-3.059574, 55.939909], [-3.059068, 55.939963], [-3.058396, 55.940082], [-3.058134, 55.940089], [-3.058128, 55.940164], [-3.05804, 55.940225], [-3.054625, 55.941709], [-3.05428, 55.941876], [-3.054137, 55.941991], [-3.053427, 55.942116], [-3.051959, 55.942323], [-3.049243, 55.942865], [-3.048082, 55.943074], [-3.046217, 55.943461], [-3.045808, 55.943568], [-3.045184, 55.943791], [-3.044854, 55.943942], [-3.042534, 55.945159], [-3.041944, 55.94543], [-3.03824, 55.945731], [-3.036294, 55.945678], [-3.035491, 55.945606], [-3.034524, 55.945479], [-3.031928, 55.945015], [-3.030347, 55.944776], [-3.029389, 55.944653], [-3.026932, 55.944403], [-3.026343, 55.944423], [-3.02625, 55.94447], [-3.026042, 55.944498], [-3.025937, 55.944484], [-3.025795, 55.944424], [-3.025474, 55.944406], [-3.024451, 55.94446], [-3.023726, 55.944461], [-3.022094, 55.944338], [-3.021194, 55.944203], [-3.019748, 55.9438], [-3.018585, 55.943607], [-3.017968, 55.943464], [-3.016144, 55.942926], [-3.014675, 55.942453], [-3.014392, 55.942398], [-3.013502, 55.942313], [-3.012892, 55.942295], [-3.011676, 55.942373], [-3.011011, 55.942387], [-3.010152, 55.942358], [-3.00963, 55.942369], [-3.009329, 55.94241], [-3.009122, 55.942473], [-3.008724, 55.942661], [-3.008458, 55.94272], [-3.008252, 55.942693], [-3.008093, 55.942613], [-3.007943, 55.942588], [-3.007743, 55.942588], [-3.007257, 55.942641], [-3.006848, 55.942643], [-3.006113, 55.942597], [-3.005626, 55.942622], [-3.005174, 55.942727], [-3.00505, 55.942796], [-3.004966, 55.942809], [-3.004811, 55.942791], [-3.004431, 55.942827], [-3.004028, 55.94296], [-3.003407, 55.9431], [-2.991525, 55.944634], [-2.990918, 55.944668], [-2.988419, 55.94463], [-2.987131, 55.944647], [-2.987127, 55.944735], [-2.987016, 55.944886], [-2.986628, 55.945077], [-2.986194, 55.945187], [-2.984877, 55.94541], [-2.984229, 55.945579], [-2.981632, 55.946556], [-2.981035, 55.946726], [-2.978842, 55.947553], [-2.97749, 55.948024], [-2.975857, 55.948559], [-2.973732, 55.949195], [-2.971612, 55.94976], [-2.96893, 55.950409], [-2.966661, 55.950883], [-2.964476, 55.951289], [-2.961795, 55.951714], [-2.960518, 55.951891], [-2.958589, 55.952125], [-2.95647, 55.952341], [-2.953745, 55.952546], [-2.952314, 55.952626], [-2.948344, 55.952739], [-2.945749, 55.952738], [-2.944037, 55.952704], [-2.940612, 55.952546], [-2.937075, 55.952262], [-2.935033, 55.952037], [-2.932711, 55.951736], [-2.930444, 55.951393], [-2.927004, 55.950756], [-2.924429, 55.950188], [-2.91946, 55.948976], [-2.917193, 55.948504], [-2.914141, 55.947964], [-2.912121, 55.947678], [-2.910731, 55.947511], [-2.908615, 55.947298], [-2.907178, 55.947181], [-2.905416, 55.947066], [-2.903933, 55.947001], [-2.902469, 55.946965], [-2.900703, 55.946955], [-2.898219, 55.947015], [-2.896461, 55.947124], [-2.894872, 55.94727], [-2.892716, 55.947535], [-2.891297, 55.947761], [-2.889347, 55.94814], [-2.888035, 55.948439], [-2.883535, 55.949636], [-2.880724, 55.950269], [-2.878566, 55.950676], [-2.876925, 55.950941], [-2.875112, 55.951192], [-2.873071, 55.951424], [-2.845182, 55.953844], [-2.84156, 55.954013], [-2.834445, 55.954228], [-2.82358, 55.954435], [-2.822213, 55.954509], [-2.820435, 55.954655], [-2.818406, 55.954896], [-2.816712, 55.955151], [-2.81502, 55.95546], [-2.813566, 55.955778], [-2.811617, 55.956274], [-2.810248, 55.956672], [-2.808257, 55.957291], [-2.803177, 55.958855], [-2.796437, 55.960922], [-2.794832, 55.961365], [-2.793658, 55.961639], [-2.792286, 55.961908], [-2.790337, 55.96222], [-2.789484, 55.962316], [-2.787899, 55.962445], [-2.786121, 55.962495], [-2.783095, 55.962456], [-2.779728, 55.962604], [-2.774423, 55.962934], [-2.773834, 55.963035], [-2.773681, 55.963146], [-2.773633, 55.96331], [-2.77354, 55.963379], [-2.773146, 55.96348], [-2.772669, 55.96365], [-2.772313, 55.963712], [-2.771601, 55.963726], [-2.769927, 55.963636], [-2.768944, 55.963634], [-2.76742, 55.963733], [-2.765881, 55.96393], [-2.763857, 55.964279], [-2.762407, 55.964601], [-2.761561, 55.964817], [-2.754751, 55.966823], [-2.753229, 55.967225], [-2.751411, 55.967636], [-2.749457, 55.967987], [-2.740778, 55.969436], [-2.735237, 55.970372], [-2.735403, 55.97061], [-2.737281, 55.972707], [-2.737439, 55.972947], [-2.737556, 55.975529], [-2.737554, 55.976549], [-2.737611, 55.976887], [-2.740793, 55.981604], [-2.741128, 55.982163], [-2.740983, 55.98246], [-2.740771, 55.982693], [-2.73957, 55.983567], [-2.739299, 55.98369], [-2.738674, 55.983885], [-2.738449, 55.983983], [-2.737913, 55.984316], [-2.73742, 55.984562], [-2.737291, 55.984725], [-2.737025, 55.985661], [-2.736356, 55.988527], [-2.736163, 55.989765], [-2.735743, 55.991846], [-2.736037, 55.991871], [-2.736655, 55.991836], [-2.746076, 55.991059], [-2.745669, 55.988856], [-2.745702, 55.987909], [-2.745571, 55.986914], [-2.745595, 55.986872], [-2.745679, 55.986837], [-2.746715, 55.986689]]}, "properties": {"name": "Edinburgh_to_Athelstaneford", "cmt": "2026-09-04", "tstamp": 1788480000, "desc": "---", "src": "-3.361073/55.889786/-2.735237/55.991871", "bbox": "-3.361073/55.889786/-2.735237/55.991871"}}]}