{"type": "FeatureCollection", "name": "TrackSet", "crs": {"type": "name", "properties": {"name": "urn:ogc:def:crs:OGC:1.3:CRS84"}}, "bbox": [3.0, 1.0, 4.0, 2.0], "features": [{"type": "Feature", "geometry": {"type": "Point", "coordinates": [31.39821, 30.11508, 0.0]}, "properties": {"name": "Cairo International Airport", "desc": "airport", "cmt": null, "height": 0.0}}, {"type": "Feature", "geometry": {"type": "Point", "coordinates": [32.70035, 25.67455, 0.0]}, "properties": {"name": "Luxor International Airport", "desc": "airport", "cmt": null, "height": 0.0}}]}