{"type": "FeatureCollection", "name": "TrackSet", "crs": {"type": "name", "properties": {"name": "urn:ogc:def:crs:OGC:1.3:CRS84"}}, "bbox": [3.0, 1.0, 4.0, 2.0], "features": [{"type": "Feature", "geometry": {"type": "Point", "coordinates": [37.515221, -3.286035, 0.0]}, "properties": {"name": "Kibo Lodge", "desc": "lodging", "cmt": null, "height": 0.0}}, {"type": "Feature", "geometry": {"type": "Point", "coordinates": [37.50307, -3.181591, 0.0]}, "properties": {"name": "Mandara Lodge", "desc": "lodging", "cmt": null, "height": 0.0}}, {"type": "Feature", "geometry": {"type": "Point", "coordinates": [37.428374, -3.139181, 0.0]}, "properties": {"name": "Horombo Hut", "desc": "lodging", "cmt": null, "height": 0.0}}, {"type": "Feature", "geometry": {"type": "Point", "coordinates": [37.386464, -3.081428, 0.0]}, "properties": {"name": "Kibo Hut", "desc": "lodging", "cmt": null, "height": 0.0}}, {"type": "Feature", "geometry": {"type": "Point", "coordinates": [35.389664, -1.592566, 0.0]}, "properties": {"name": "Sopa Lodge", "desc": "lodging", "cmt": null, "height": 0.0}}, {"type": "Feature", "geometry": {"type": "Point", "coordinates": [36.36845, 0.04425, 0.0]}, "properties": {"name": "Thompson Falls", "desc": "waterfall", "cmt": null, "height": 0.0}}, {"type": "Feature", "geometry": {"type": "Point", "coordinates": [36.900497, -0.359787, 0.0]}, "properties": {"name": "Tree Tops Lodge", "desc": "lodging", "cmt": null, "height": 0.0}}, {"type": "Feature", "geometry": {"type": "Point", "coordinates": [40.005375, -3.361859, 0.0]}, "properties": {"name": "Hemingways Hotel", "desc": "lodging", "cmt": null, "height": 0.0}}]}