{"type": "FeatureCollection", "name": "TrackSet", "crs": {"type": "name", "properties": {"name": "urn:ogc:def:crs:OGC:1.3:CRS84"}}, "bbox": [3.0, 1.0, 4.0, 2.0], "features": [{"type": "Feature", "geometry": {"type": "Point", "coordinates": [86.731731, 27.687941, 0.0]}, "properties": {"name": "Lukla Airfield", "desc": "airfield", "cmt": null, "height": 0.0}}, {"type": "Feature", "geometry": {"type": "Point", "coordinates": [86.712549, 27.740111, 0.0]}, "properties": {"name": "Phakding", "desc": "lodging", "cmt": null, "height": 0.0}}, {"type": "Feature", "geometry": {"type": "Point", "coordinates": [86.712322, 27.805386, 0.0]}, "properties": {"name": "Namche Bazaar", "desc": "lodging", "cmt": null, "height": 0.0}}, {"type": "Feature", "geometry": {"type": "Point", "coordinates": [86.766531, 27.837256, 0.0]}, "properties": {"name": "Tengboche Monastery", "desc": "campsite", "cmt": null, "height": 0.0}}, {"type": "Feature", "geometry": {"type": "Point", "coordinates": [86.780028, 27.858012, 0.0]}, "properties": {"name": "Pangboche", "desc": "lodging", "cmt": null, "height": 0.0}}, {"type": "Feature", "geometry": {"type": "Point", "coordinates": [86.820583, 27.895348, 0.0]}, "properties": {"name": "Pheriche", "desc": "lodging", "cmt": null, "height": 0.0}}, {"type": "Feature", "geometry": {"type": "Point", "coordinates": [86.810454, 27.948877, 0.0]}, "properties": {"name": "Lobuche", "desc": "lodging", "cmt": null, "height": 0.0}}, {"type": "Feature", "geometry": {"type": "Point", "coordinates": [86.83005, 27.996482, 0.0]}, "properties": {"name": "Kala Patthar", "desc": "mountain", "cmt": null, "height": 0.0}}, {"type": "Feature", "geometry": {"type": "Point", "coordinates": [86.831151, 27.89254, 0.0]}, "properties": {"name": "Dingboche", "desc": "campsite", "cmt": null, "height": 0.0}}, {"type": "Feature", "geometry": {"type": "Point", "coordinates": [86.871107, 27.904537, 0.0]}, "properties": {"name": "Chunkhung", "desc": "campsite", "cmt": null, "height": 0.0}}, {"type": "Feature", "geometry": {"type": "Point", "coordinates": [86.939969, 27.902553, 0.0]}, "properties": {"name": "Imja Tse base camp", "desc": "campsite", "cmt": null, "height": 0.0}}, {"type": "Feature", "geometry": {"type": "Point", "coordinates": [86.936652, 27.924433, 0.0]}, "properties": {"name": "Imja Tse", "desc": "mountain", "cmt": null, "height": 0.0}}]}