{"type": "FeatureCollection", "name": "TrackSet", "crs": {"type": "name", "properties": {"name": "urn:ogc:def:crs:OGC:1.3:CRS84"}}, "bbox": [-3.380613, 46.116714, 6.127424, 56.095734], "features": [{"type": "Feature", "bbox": [-3.380613, 46.116714, 6.127424, 56.095734], "geometry": {"type": "LineString", "coordinates": [[6.109772, 46.233501], [6.109504, 46.233696], [6.109236, 46.233971], [6.109463, 46.234253], [6.11143, 46.235584], [6.11166, 46.235939], [6.111334, 46.236252], [6.11086, 46.236568], [6.110693, 46.236774], [6.110767, 46.237022], [6.114193, 46.239372], [6.117643, 46.241707], [6.118544, 46.242329], [6.12038, 46.243572], [6.124007, 46.246056], [6.126469, 46.247726], [6.126715, 46.248077], [6.127357, 46.249489], [6.127424, 46.249729], [6.127223, 46.250107], [6.126972, 46.250278], [6.12677, 46.250324], [6.126603, 46.250095], [6.126285, 46.249866], [6.124526, 46.248665], [6.117119, 46.243595], [6.111011, 46.239487], [6.10391, 46.234589], [6.098417, 46.230743], [6.091919, 46.226139], [6.085287, 46.221313], [6.079928, 46.217331], [6.073564, 46.212387], [6.067066, 46.207214], [6.062175, 46.203461], [6.055543, 46.198608], [6.048376, 46.193619], [6.042824, 46.189968], [6.041007, 46.188812], [6.038997, 46.187485], [6.036921, 46.186203], [6.021646, 46.176727], [6.006842, 46.167709], [5.989425, 46.156998], [5.973404, 46.147095], [5.954796, 46.135502], [5.938797, 46.125542], [5.930809, 46.121567], [5.927727, 46.120377], [5.923707, 46.119141], [5.920693, 46.118362], [5.916756, 46.11758], [5.913525, 46.117172], [5.910095, 46.116837], [5.906558, 46.116714], [5.903229, 46.116787], [5.899727, 46.11702], [5.89651, 46.117401], [5.893227, 46.11795], [5.889633, 46.118698], [5.886126, 46.119736], [5.88311, 46.120747], [5.879471, 46.122234], [5.876547, 46.123627], [5.873772, 46.125168], [5.869102, 46.128006], [5.861, 46.133453], [5.858322, 46.135315], [5.852966, 46.139088], [5.850494, 46.140854], [5.847272, 46.143082], [5.844658, 46.144905], [5.84198, 46.146767], [5.839439, 46.148582], [5.821106, 46.161339], [5.799957, 46.175861], [5.781006, 46.188805], [5.750175, 46.212498], [5.747841, 46.21492], [5.745506, 46.217342], [5.743103, 46.220135], [5.7407, 46.223068], [5.738228, 46.226372], [5.736717, 46.228466], [5.734461, 46.231796], [5.726824, 46.243378], [5.724426, 46.246948], [5.718521, 46.255512], [5.716575, 46.258209], [5.685224, 46.301559], [5.652878, 46.346478], [5.621429, 46.391308], [5.589696, 46.436554], [5.57181, 46.45665], [5.569038, 46.459225], [5.565982, 46.462006], [5.562699, 46.465027], [5.559685, 46.467773], [5.55734, 46.469833], [5.553589, 46.473221], [5.550842, 46.475739], [5.506696, 46.516846], [5.461784, 46.559315], [5.416327, 46.602036], [5.369099, 46.646164], [5.322052, 46.689987], [5.274375, 46.734329], [5.224736, 46.780334], [5.174761, 46.826614], [5.124229, 46.873306], [5.072319, 46.921097], [5.018498, 46.970604], [4.966232, 47.018646], [4.912674, 47.067856], [4.858422, 47.117428], [4.804527, 47.166595], [4.749321, 47.216675], [4.694049, 47.266815], [4.638222, 47.317337], [4.582672, 47.367599], [4.526227, 47.418247], [4.470872, 47.468014], [4.418221, 47.520172], [4.412631, 47.527412], [4.409743, 47.531139], [4.40696, 47.534821], [4.36453, 47.590027], [4.320992, 47.645325], [4.277273, 47.700401], [4.232976, 47.756218], [4.188469, 47.812363], [4.144043, 47.868027], [4.099943, 47.923203], [4.05526, 47.978943], [4.010902, 48.034195], [3.966476, 48.089447], [3.921295, 48.145248], [3.874488, 48.203121], [3.831699, 48.255909], [3.786597, 48.311539], [3.741784, 48.366611], [3.69704, 48.421326], [3.651653, 48.476707], [3.605135, 48.533295], [3.559932, 48.588154], [3.514216, 48.643524], [3.468933, 48.698181], [3.423579, 48.752975], [3.377429, 48.808533], [3.331748, 48.863419], [3.286647, 48.917603], [3.24153, 48.971466], [3.195287, 49.026581], [3.149318, 49.081047], [3.102511, 49.136353], [3.056312, 49.190918], [3.009902, 49.245575], [2.962189, 49.301006], [2.915063, 49.355427], [2.868371, 49.410172], [2.82267, 49.46394], [2.775607, 49.519012], [2.729063, 49.573059], [2.681965, 49.627716], [2.634189, 49.682877], [2.587354, 49.736736], [2.540143, 49.791061], [2.49433, 49.843964], [2.445646, 49.899811], [2.399548, 49.952366], [2.352782, 50.005436], [2.304976, 50.059483], [2.257616, 50.112972], [2.202903, 50.164124], [2.146671, 50.213287], [2.090149, 50.263184], [2.033436, 50.312912], [1.977178, 50.362061], [1.919044, 50.412582], [1.862255, 50.462036], [1.805444, 50.511429], [1.748088, 50.561085], [1.691822, 50.609482], [1.634736, 50.658283], [1.578394, 50.706482], [1.521912, 50.754646], [1.465487, 50.80188], [1.408691, 50.850128], [1.352729, 50.897919], [1.296616, 50.945698], [1.239896, 50.993591], [1.184, 51.040649], [1.12793, 51.087917], [1.071538, 51.135269], [1.015345, 51.18219], [0.95787, 51.229992], [0.90125, 51.277084], [0.845642, 51.323608], [0.789011, 51.370926], [0.732727, 51.417366], [0.676498, 51.463451], [0.620356, 51.509308], [0.563866, 51.555176], [0.506782, 51.601456], [0.450134, 51.646683], [0.393058, 51.69278], [0.335388, 51.739834], [0.278518, 51.786026], [0.221508, 51.832077], [0.16383, 51.878403], [0.10498, 51.925644], [0.047634, 51.971569], [-0.007858, 52.016922], [-0.05705, 52.067562], [-0.102722, 52.120815], [-0.149002, 52.173523], [-0.195084, 52.225891], [-0.241013, 52.277847], [-0.287136, 52.329697], [-0.336417, 52.384583], [-0.382233, 52.436325], [-0.431292, 52.491604], [-0.480118, 52.546143], [-0.525665, 52.597183], [-0.572739, 52.650192], [-0.617353, 52.699459], [-0.662633, 52.748898], [-0.708237, 52.798874], [-0.753427, 52.848103], [-0.806475, 52.898148], [-0.856247, 52.944077], [-0.906601, 52.991821], [-0.955887, 53.038788], [-1.00674, 53.086823], [-1.057838, 53.134865], [-1.109296, 53.183418], [-1.162208, 53.233181], [-1.215847, 53.2836], [-1.26743, 53.332123], [-1.318683, 53.380054], [-1.36921, 53.426697], [-1.424668, 53.478001], [-1.479196, 53.52837], [-1.530412, 53.575153], [-1.581717, 53.622482], [-1.633247, 53.67012], [-1.684867, 53.71756], [-1.738586, 53.766357], [-1.791175, 53.813782], [-1.843764, 53.861496], [-1.89679, 53.909546], [-1.949053, 53.956833], [-2.002337, 54.004532], [-2.056221, 54.052876], [-2.109375, 54.100296], [-2.160752, 54.146538], [-2.213274, 54.194092], [-2.264439, 54.240463], [-2.319892, 54.290451], [-2.370467, 54.336143], [-2.422319, 54.383209], [-2.47152, 54.428925], [-2.516273, 54.473694], [-2.55828, 54.518829], [-2.600847, 54.566113], [-2.639627, 54.610428], [-2.677002, 54.653679], [-2.713865, 54.695755], [-2.754905, 54.734726], [-2.801837, 54.771652], [-2.850306, 54.808136], [-2.899906, 54.844208], [-2.9465, 54.880478], [-2.952091, 54.886002], [-2.954191, 54.888199], [-2.956904, 54.890953], [-2.995794, 54.931046], [-3.03514, 54.970558], [-3.074757, 55.009476], [-3.115373, 55.047836], [-3.155581, 55.085175], [-3.179976, 55.111267], [-3.181374, 55.113892], [-3.182539, 55.116734], [-3.183531, 55.119919], [-3.184204, 55.123016], [-3.184581, 55.126144], [-3.184662, 55.129211], [-3.184581, 55.133102], [-3.18442, 55.135757], [-3.183372, 55.145317], [-3.182481, 55.152466], [-3.181624, 55.158863], [-3.180792, 55.165565], [-3.180459, 55.168636], [-3.175964, 55.215748], [-3.173135, 55.261696], [-3.169972, 55.308201], [-3.166559, 55.35289], [-3.163313, 55.397068], [-3.1597, 55.441269], [-3.156156, 55.484802], [-3.153076, 55.526962], [-3.149914, 55.568985], [-3.148582, 55.585373], [-3.147, 55.604507], [-3.144751, 55.638069], [-3.141341, 55.656967], [-3.14003, 55.659531], [-3.138428, 55.662231], [-3.136425, 55.66507], [-3.134516, 55.667587], [-3.131686, 55.670883], [-3.129559, 55.673359], [-3.127275, 55.675964], [-3.122778, 55.680946], [-3.119946, 55.683926], [-3.11762, 55.686493], [-3.11471, 55.689606], [-3.112307, 55.692211], [-3.109989, 55.694725], [-3.107586, 55.69733], [-3.090849, 55.715626], [-3.074284, 55.733784], [-3.059778, 55.749657], [-3.044071, 55.767441], [-3.030895, 55.782486], [-3.017292, 55.797653], [-3.002014, 55.814785], [-2.989225, 55.828934], [-2.976546, 55.842636], [-2.963734, 55.856354], [-2.94933, 55.871979], [-2.936263, 55.885757], [-2.921076, 55.901463], [-2.906383, 55.916977], [-2.893696, 55.930557], [-2.881336, 55.943638], [-2.86843, 55.957397], [-2.85503, 55.971909], [-2.842629, 55.985275], [-2.829978, 55.998596], [-2.815912, 56.014206], [-2.814474, 56.016449], [-2.813083, 56.019104], [-2.812243, 56.021244], [-2.811668, 56.023499], [-2.811335, 56.026337], [-2.811384, 56.028316], [-2.811668, 56.030457], [-2.812414, 56.032974], [-2.813358, 56.035069], [-2.814664, 56.03714], [-2.816019, 56.038979], [-2.81766, 56.040802], [-2.819408, 56.042633], [-2.821341, 56.044426], [-2.827263, 56.049591], [-2.829645, 56.051559], [-2.831643, 56.053299], [-2.833614, 56.054947], [-2.838078, 56.05867], [-2.839966, 56.060349], [-2.841963, 56.062042], [-2.854365, 56.072662], [-2.866402, 56.082878], [-2.875071, 56.089024], [-2.878168, 56.090515], [-2.881331, 56.091888], [-2.883911, 56.092747], [-2.887001, 56.093632], [-2.890005, 56.09433], [-2.894039, 56.094982], [-2.897387, 56.095306], [-2.900973, 56.095596], [-2.904552, 56.095688], [-2.907715, 56.095734], [-2.911892, 56.095585], [-2.914467, 56.095448], [-2.917814, 56.095169], [-2.921591, 56.094795], [-2.924694, 56.094406], [-2.927771, 56.093956], [-2.930861, 56.093445], [-2.934598, 56.092758], [-2.937678, 56.092163], [-2.94392, 56.090836], [-2.950495, 56.089325], [-2.953606, 56.088558], [-2.960233, 56.086899], [-2.963305, 56.08609], [-2.966223, 56.085346], [-2.972231, 56.083668], [-2.975297, 56.082825], [-2.978044, 56.082001], [-2.983732, 56.080318], [-2.98665, 56.079433], [-2.990029, 56.078339], [-2.99211, 56.077698], [-2.998102, 56.075729], [-3.000641, 56.074917], [-3.006092, 56.073074], [-3.016995, 56.069458], [-3.027077, 56.06612], [-3.035805, 56.063232], [-3.046303, 56.059788], [-3.056363, 56.056412], [-3.063854, 56.05394], [-3.073592, 56.05069], [-3.081322, 56.048103], [-3.091403, 56.044693], [-3.101307, 56.041397], [-3.111277, 56.038048], [-3.121319, 56.034603], [-3.131618, 56.031158], [-3.139257, 56.028599], [-3.14827, 56.02557], [-3.155823, 56.023041], [-3.164921, 56.019939], [-3.167582, 56.019054], [-3.169641, 56.018402], [-3.174133, 56.016907], [-3.176214, 56.016174], [-3.178378, 56.015488], [-3.182373, 56.014114], [-3.184704, 56.013382], [-3.186701, 56.012695], [-3.190946, 56.011276], [-3.193073, 56.010536], [-3.195606, 56.00972], [-3.197622, 56.008999], [-3.20466, 56.006672], [-3.2129, 56.00388], [-3.215082, 56.003128], [-3.217163, 56.002441], [-3.222989, 56.000427], [-3.229208, 55.998337], [-3.23101, 55.997688], [-3.235044, 55.996384], [-3.236675, 55.995823], [-3.242426, 55.993961], [-3.250065, 55.991402], [-3.255782, 55.989441], [-3.263272, 55.986923], [-3.266973, 55.985676], [-3.268776, 55.985023], [-3.272381, 55.98386], [-3.274508, 55.983124], [-3.275923, 55.982666], [-3.278131, 55.981907], [-3.279752, 55.981384], [-3.283367, 55.980137], [-3.288741, 55.978363], [-3.290577, 55.977715], [-3.292637, 55.977066], [-3.296328, 55.975761], [-3.30031, 55.974426], [-3.305511, 55.972641], [-3.313293, 55.970078], [-3.320701, 55.96756], [-3.328192, 55.964996], [-3.335295, 55.962585], [-3.341045, 55.960678], [-3.348427, 55.958164], [-3.354409, 55.956116], [-3.3619, 55.953598], [-3.368425, 55.951366], [-3.37424, 55.94939], [-3.379562, 55.947609], [-3.380613, 55.947201], [-3.380605, 55.946949], [-3.379648, 55.94606], [-3.379369, 55.945873], [-3.379086, 55.945839], [-3.378858, 55.945885], [-3.378587, 55.945976], [-3.36525, 55.95052], [-3.364563, 55.950714], [-3.364272, 55.950703], [-3.363984, 55.9506], [-3.363748, 55.950401], [-3.363523, 55.950291], [-3.362288, 55.949947]]}, "properties": {"name": "U23292_418041e7", "cmt": "2026-09-04", "tstamp": 1788480000, "desc": "---", "src": "-3.380613/46.116714/6.127424/56.095734", "bbox": "-3.380613/46.116714/6.127424/56.095734"}}]}