{"type": "FeatureCollection", "name": "TrackSet", "crs": {"type": "name", "properties": {"name": "urn:ogc:def:crs:OGC:1.3:CRS84"}}, "bbox": [2.035868, 10.583352, 107.046898, 49.001186], "features": [{"type": "Feature", "bbox": [2.035868, 10.583352, 107.046898, 49.001186], "geometry": {"type": "LineString", "coordinates": [[2.580115, 49.000797], [2.580572, 49.000786], [2.582562, 49.0009], [2.583323, 49.000317], [2.58427, 49.000179], [2.602017, 49.001129], [2.603471, 49.001186], [2.604031, 49.000629], [2.604059, 48.999882], [2.60394, 48.999313], [2.60383, 48.999069], [2.603597, 48.998779], [2.603236, 48.998417], [2.597826, 48.998108], [2.578266, 48.997055], [2.561857, 48.996094], [2.551716, 48.995499], [2.543898, 48.995041], [2.538203, 48.994694], [2.519845, 48.993855], [2.509147, 48.993389], [2.501703, 48.993111], [2.49115, 48.992786], [2.480597, 48.992458], [2.470163, 48.99202], [2.462276, 48.991653], [2.451782, 48.991104], [2.440937, 48.990509], [2.43312, 48.990097], [2.421429, 48.989502], [2.409457, 48.988861], [2.396971, 48.988083], [2.383961, 48.987247], [2.3703, 48.986343], [2.356779, 48.985428], [2.345509, 48.984734], [2.329876, 48.983734], [2.314031, 48.982635], [2.297516, 48.981567], [2.273736, 48.980171], [2.251211, 48.978699], [2.242267, 48.977463], [2.238392, 48.976677], [2.234923, 48.975746], [2.230929, 48.974487], [2.227912, 48.973328], [2.224943, 48.972107], [2.22119, 48.970348], [2.218443, 48.968952], [2.214802, 48.967072], [2.211844, 48.965515], [2.208886, 48.964005], [2.205722, 48.962479], [2.202614, 48.961128], [2.199449, 48.959885], [2.195531, 48.958569], [2.192125, 48.957596], [2.188815, 48.956772], [2.184545, 48.955822], [2.180997, 48.95517], [2.177534, 48.954567], [2.174064, 48.954056], [2.169448, 48.95343], [2.162789, 48.95261], [2.154518, 48.951691], [2.150996, 48.951279], [2.147264, 48.950867], [2.139443, 48.95005], [2.134745, 48.949539], [2.106769, 48.946609], [2.083247, 48.943588], [2.075621, 48.941811], [2.072658, 48.94088], [2.068951, 48.939606], [2.065863, 48.938366], [2.062261, 48.936722], [2.058708, 48.93483], [2.055817, 48.93306], [2.053176, 48.931274], [2.050148, 48.928894], [2.048227, 48.927193], [2.04564, 48.9245], [2.043668, 48.922119], [2.042228, 48.920162], [2.04071, 48.917679], [2.03912, 48.914486], [2.038316, 48.912369], [2.037313, 48.909225], [2.036807, 48.906712], [2.036374, 48.904057], [2.036085, 48.901402], [2.035922, 48.898544], [2.035868, 48.895817], [2.03594, 48.889904], [2.036085, 48.887344], [2.036157, 48.884319], [2.036807, 48.875614], [2.03726, 48.872726], [2.037892, 48.869843], [2.038668, 48.867096], [2.039584, 48.864578], [2.040781, 48.861923], [2.042119, 48.859451], [2.043809, 48.856796], [2.045553, 48.854477], [2.047894, 48.851761], [2.050251, 48.849312], [2.053246, 48.84668], [2.055922, 48.844574], [2.059069, 48.842422], [2.06212, 48.8405], [2.065782, 48.838486], [2.069233, 48.836792], [2.073742, 48.834881], [2.077613, 48.83345], [2.081692, 48.832134], [2.086135, 48.830887], [2.090149, 48.829971], [2.094992, 48.82906], [2.099112, 48.828503], [2.10353, 48.828049], [2.107896, 48.827728], [2.112555, 48.827618], [2.117051, 48.827591], [2.126207, 48.827911], [2.131564, 48.828178], [2.14031, 48.828644], [2.149417, 48.829109], [2.154799, 48.829376], [2.163321, 48.829742], [2.169025, 48.829926], [2.173486, 48.830132], [2.241283, 48.831902], [2.312904, 48.833542], [2.382804, 48.83474], [2.454811, 48.835922], [2.530306, 48.837204], [2.609903, 48.838558], [2.691506, 48.839909], [2.778095, 48.841259], [2.867291, 48.84256], [2.957505, 48.844025], [3.046453, 48.845352], [3.119061, 48.844299], [3.124454, 48.843678], [3.131526, 48.842743], [3.137247, 48.841816], [3.144041, 48.840561], [3.148992, 48.839584], [3.155751, 48.83823], [3.160893, 48.837158], [3.166668, 48.835922], [3.172519, 48.834694], [3.178218, 48.833496], [3.184806, 48.832088], [3.190372, 48.830925], [3.19674, 48.829605], [3.284912, 48.812302], [3.37393, 48.795319], [3.464285, 48.777786], [3.556173, 48.759979], [3.648517, 48.741989], [3.741278, 48.723946], [3.838243, 48.70491], [3.930503, 48.686703], [4.02656, 48.667511], [4.121775, 48.646271], [4.216919, 48.624664], [4.310936, 48.603241], [4.406715, 48.581726], [4.501648, 48.560303], [4.597285, 48.538513], [4.694559, 48.516602], [4.791377, 48.494797], [4.891952, 48.471912], [4.993427, 48.448975], [5.092958, 48.426479], [5.193787, 48.403854], [5.297217, 48.380718], [5.401471, 48.357468], [5.503235, 48.334717], [5.60521, 48.312012], [5.708595, 48.288849], [5.809021, 48.26606], [5.912616, 48.242569], [6.014798, 48.22039], [6.119244, 48.202744], [6.225056, 48.18557], [6.328125, 48.168949], [6.432706, 48.152191], [6.536797, 48.135635], [6.643066, 48.118488], [6.746086, 48.101715], [6.851173, 48.083668], [6.950191, 48.05946], [7.050899, 48.035206], [7.153438, 48.011929], [7.254779, 47.989071], [7.35753, 47.965565], [7.761489, 47.87162], [7.864288, 47.852692], [7.969384, 47.838848], [8.074177, 47.823952], [8.178017, 47.809113], [8.28186, 47.794296], [8.394173, 47.778168], [8.498559, 47.763062], [8.602436, 47.747791], [8.708003, 47.732243], [9.135818, 47.668076], [9.554672, 47.603622], [9.659517, 47.587234], [9.762726, 47.570938], [9.867906, 47.554276], [9.973191, 47.537468], [10.078308, 47.52063], [10.183228, 47.503601], [10.292747, 47.485794], [10.926467, 47.380447], [11.036659, 47.361145], [11.138376, 47.343208], [11.241479, 47.324726], [11.343933, 47.306213], [11.445711, 47.287529], [11.54987, 47.26849], [11.65086, 47.250103], [11.753723, 47.231049], [11.856431, 47.211929], [11.959305, 47.192551], [12.06031, 47.173096], [12.16271, 47.153366], [12.266441, 47.133453], [12.369619, 47.113705], [12.473286, 47.094013], [12.577766, 47.073715], [12.683012, 47.053371], [12.787468, 47.032883], [12.89122, 47.012054], [12.994925, 46.991226], [13.099647, 46.970276], [13.202749, 46.949284], [13.305781, 46.928242], [13.410503, 46.907383], [13.511536, 46.879669], [13.609247, 46.850098], [13.707504, 46.821262], [13.805125, 46.792282], [13.901792, 46.763351], [13.99823, 46.734303], [14.096062, 46.704575], [14.194269, 46.673996], [14.290672, 46.643948], [14.388107, 46.613594], [14.483799, 46.583633], [14.579125, 46.553741], [14.676126, 46.523163], [14.772903, 46.492558], [14.87435, 46.460358], [14.96981, 46.429916], [15.066812, 46.398834], [15.164683, 46.367386], [15.261684, 46.336121], [15.35882, 46.304718], [15.454948, 46.273438], [15.553139, 46.241455], [15.647814, 46.210464], [15.743542, 46.17897], [15.840141, 46.147156], [15.937946, 46.114746], [16.033653, 46.083038], [16.130676, 46.050613], [16.227219, 46.018284], [16.32267, 45.986252], [16.4188, 45.953842], [16.51506, 45.921268], [16.610525, 45.88884], [16.708145, 45.855583], [17.773802, 45.484238], [19.612204, 44.808018], [19.708426, 44.771347], [19.803659, 44.734978], [19.900492, 44.69783], [19.996592, 44.66082], [20.091312, 44.624222], [20.187311, 44.587036], [20.283642, 44.549561], [20.379303, 44.512226], [20.474361, 44.474937], [20.569742, 44.437546], [20.664433, 44.400192], [20.759583, 44.362518], [20.852509, 44.325577], [20.950535, 44.286575], [21.046339, 44.248306], [21.13933, 44.210999], [21.234528, 44.172729], [21.32976, 44.13427], [21.424936, 44.095688], [21.52202, 44.056248], [22.188869, 43.781525], [22.283346, 43.744022], [22.382025, 43.713547], [22.483202, 43.690247], [22.585863, 43.673912], [22.689003, 43.664246], [22.793629, 43.655823], [22.897488, 43.646942], [23.002625, 43.638069], [23.105526, 43.62941], [23.208937, 43.620575], [23.314493, 43.611485], [23.417103, 43.602539], [23.523428, 43.593193], [23.623285, 43.584064], [23.728096, 43.57457], [23.832047, 43.565205], [23.935593, 43.555771], [24.038897, 43.546223], [24.142603, 43.536461], [24.24741, 43.526562], [24.350302, 43.516712], [24.452555, 43.506905], [24.555046, 43.496941], [24.656929, 43.486984], [24.760485, 43.476814], [24.863415, 43.466534], [24.966387, 43.456276], [25.068573, 43.445877], [25.170832, 43.435429], [25.274759, 43.42461], [25.378826, 43.413589], [25.482138, 43.402477], [25.586199, 43.391361], [25.689989, 43.38002], [25.792627, 43.368889], [25.896116, 43.357506], [25.998112, 43.346199], [26.102133, 43.334621], [26.205435, 43.323063], [26.31082, 43.311153], [26.413605, 43.299431], [26.517668, 43.287464], [26.620941, 43.275463], [26.726349, 43.263176], [26.829571, 43.251068], [26.9319, 43.238876], [27.034124, 43.226585], [27.138052, 43.214108], [27.242537, 43.201397], [27.345156, 43.188904], [27.449255, 43.176044], [27.550697, 43.163513], [27.653723, 43.150604], [27.7556, 43.137852], [27.856676, 43.12524], [27.958427, 43.112003], [28.062078, 43.09864], [28.163605, 43.085426], [28.265493, 43.072121], [28.368746, 43.058407], [28.469452, 43.044838], [28.570873, 43.03104], [28.672831, 43.017147], [28.772392, 43.003571], [28.873901, 42.989792], [28.976015, 42.975883], [29.07704, 42.96204], [29.177238, 42.948246], [29.276949, 42.934273], [29.376493, 42.92017], [29.477982, 42.905933], [29.576508, 42.891651], [29.676495, 42.877167], [29.775295, 42.862785], [29.872536, 42.84856], [29.971706, 42.833965], [30.070127, 42.819324], [30.172354, 42.804012], [30.2712, 42.789139], [30.368612, 42.774345], [30.421324, 42.766243], [30.426464, 42.765495], [30.433287, 42.764515], [30.445002, 42.762981], [30.450043, 42.761959], [30.457052, 42.761055], [30.463211, 42.760044], [30.469858, 42.759022], [30.476786, 42.758022], [30.482956, 42.756958], [30.48995, 42.756138], [30.496185, 42.75507], [30.502438, 42.753971], [30.508257, 42.752872], [30.515366, 42.751991], [30.522625, 42.751041], [30.528238, 42.750153], [30.534954, 42.749058], [30.541443, 42.748047], [30.547926, 42.747082], [30.554901, 42.7458], [30.561579, 42.74485], [30.567808, 42.743919], [30.574203, 42.742973], [30.580603, 42.741985], [30.587215, 42.740917], [30.593687, 42.739834], [30.600266, 42.73885], [30.640011, 42.732635], [30.644968, 42.731731], [30.652128, 42.730568], [30.664511, 42.728237], [30.670406, 42.726974], [30.67716, 42.725761], [30.685753, 42.723564], [30.690157, 42.723042], [30.696798, 42.721748], [30.703012, 42.720455], [30.709917, 42.718807], [30.716883, 42.717865], [30.724382, 42.715633], [30.731619, 42.714619], [30.736418, 42.713264], [30.744295, 42.71183], [30.750065, 42.71051], [30.756063, 42.709286], [30.762453, 42.708012], [30.768854, 42.706688], [30.773941, 42.705555], [30.782106, 42.7038], [30.788635, 42.702446], [30.795357, 42.701164], [30.801273, 42.699986], [30.80831, 42.697994], [30.643686, 42.362766], [30.881477, 42.683826], [30.8864, 42.682663], [30.893679, 42.681297], [30.899595, 42.680218], [30.905548, 42.678959], [30.914288, 42.677418], [30.921036, 42.676117], [30.930553, 42.674839], [30.943726, 42.67218], [30.947586, 42.67033], [30.954281, 42.669254], [30.966982, 42.666775], [30.977486, 42.665245], [30.989601, 42.66465], [30.989838, 42.661911], [30.995731, 42.66132], [31.002207, 42.659576], [31.021072, 42.655914], [31.029337, 42.655075], [31.035643, 42.653908], [31.043825, 42.652065], [31.047867, 42.651272], [31.056686, 42.649105], [31.065035, 42.647659], [31.071308, 42.646759], [31.076254, 42.645004], [31.084221, 42.643951], [31.091246, 42.642372], [31.098925, 42.641041], [31.10681, 42.639397], [31.112494, 42.638287], [31.120108, 42.636692], [31.129969, 42.634144], [31.137121, 42.632988], [31.143805, 42.631752], [31.148705, 42.630642], [31.157297, 42.628876], [31.171007, 42.626537], [31.174528, 42.625713], [31.207771, 42.630676], [31.204224, 42.619946], [31.208405, 42.618561], [31.215727, 42.617199], [31.218534, 42.609509], [31.236374, 42.61393], [31.242119, 42.612068], [31.248051, 42.610706], [31.25433, 42.609768], [31.259979, 42.608276], [31.265129, 42.606636], [31.146997, 42.43935], [31.100533, 42.370075], [31.353893, 42.589104], [31.359068, 42.58815], [31.366871, 42.58662], [31.428959, 42.574699], [31.43313, 42.573399], [31.44026, 42.572052], [31.445852, 42.571007], [31.451359, 42.569889], [31.464254, 42.567024], [31.466848, 42.565918], [31.47541, 42.564709], [31.479858, 42.562859], [31.488392, 42.56184], [31.497314, 42.560608], [31.506304, 42.558231], [31.51457, 42.551437], [31.53138, 42.550514], [31.540426, 42.551968], [31.550474, 42.549099], [31.555719, 42.548317], [31.561075, 42.547298], [31.56562, 42.545116], [31.5718, 42.542248], [31.589365, 42.541317], [31.593809, 42.540207], [31.602646, 42.538658], [31.608936, 42.53717], [31.616123, 42.535725], [31.624569, 42.5341], [31.629229, 42.532669], [31.643534, 42.529739], [31.651121, 42.528255], [31.658707, 42.526848], [31.766333, 42.498779], [31.777901, 42.501869], [31.785757, 42.501068], [31.796074, 42.499149], [31.803848, 42.497662], [31.809004, 42.496655], [31.82254, 42.492954], [31.827948, 42.492977], [31.841686, 42.489677], [31.845623, 42.488216], [31.853281, 42.486794], [31.858936, 42.48563], [31.866146, 42.484409], [31.87604, 42.482224], [31.881439, 42.480915], [31.887131, 42.479973], [31.895296, 42.477684], [31.898371, 42.477619], [31.904337, 42.476482], [31.911039, 42.4753], [31.920912, 42.472076], [31.932642, 42.47039], [31.940298, 42.469345], [31.947481, 42.467934], [31.954027, 42.465908], [31.960184, 42.464481], [31.967405, 42.463253], [31.974571, 42.461914], [31.979177, 42.460732], [31.987314, 42.458973], [31.99209, 42.457672], [31.99905, 42.45752], [32.009033, 42.455765], [32.015385, 42.452232], [32.02227, 42.451614], [32.028629, 42.450405], [32.035347, 42.448849], [32.045238, 42.446583], [32.052856, 42.445339], [32.058933, 42.444038], [32.065075, 42.442799], [32.071838, 42.44133], [32.076374, 42.440483], [32.082958, 42.438919], [32.089172, 42.437599], [32.093895, 42.436069], [32.102047, 42.435177], [32.108345, 42.433723], [32.11467, 42.432095], [32.123554, 42.430626], [32.126823, 42.429703], [32.136719, 42.427559], [32.143909, 42.426014], [32.149433, 42.425392], [32.155762, 42.423397], [32.16177, 42.422131], [32.170422, 42.421307], [32.178207, 42.419662], [32.184761, 42.417557], [32.193085, 42.415901], [32.196629, 42.415386], [32.202488, 42.413857], [32.208591, 42.413078], [32.215328, 42.411221], [32.221622, 42.409863], [32.227787, 42.408367], [32.234516, 42.407616], [32.240246, 42.406288], [32.247345, 42.40451], [32.255241, 42.402641], [32.261639, 42.401207], [32.267166, 42.400074], [32.273525, 42.398518], [32.279705, 42.397133], [32.28624, 42.395741], [32.292648, 42.394367], [32.300659, 42.392963], [32.30658, 42.391899], [32.311531, 42.390942], [32.320026, 42.389008], [32.326702, 42.387527], [32.331345, 42.386303], [32.423538, 42.367126], [32.517735, 42.34721], [32.576195, 42.335419], [32.582642, 42.334446], [32.58757, 42.333614], [32.594181, 42.332676], [32.601681, 42.331421], [32.608727, 42.330448], [32.614395, 42.329819], [32.621563, 42.328671], [32.627041, 42.327854], [32.633873, 42.32769], [32.641945, 42.326256], [32.64695, 42.325809], [32.653805, 42.324989], [32.662186, 42.324318], [32.668159, 42.323627], [32.684872, 42.322136], [32.692558, 42.32177], [32.699306, 42.321518], [32.708374, 42.318954], [32.71384, 42.31905], [32.720364, 42.318779], [32.725967, 42.317974], [32.734802, 42.317024], [32.739979, 42.316135], [32.750229, 42.31448], [32.756268, 42.313736], [32.762363, 42.313602], [32.765976, 42.313328], [32.771809, 42.313469], [32.782463, 42.31105], [32.785995, 42.311008], [32.794476, 42.310207], [32.799965, 42.309177], [32.809937, 42.307964], [32.814655, 42.308731], [32.82325, 42.306561], [32.831104, 42.305271], [32.837139, 42.304131], [32.844494, 42.303574], [32.852566, 42.303658], [32.85984, 42.302036], [32.867519, 42.300545], [32.876667, 42.299271], [32.881153, 42.299557], [32.889046, 42.298397], [32.894577, 42.297852], [32.902916, 42.296337], [32.910576, 42.295326], [32.914886, 42.295116], [32.921722, 42.294338], [32.928452, 42.293877], [32.935387, 42.293343], [32.944847, 42.291389], [32.95277, 42.290863], [32.958241, 42.291405], [32.965672, 42.289585], [32.971081, 42.2896], [32.979664, 42.288631], [32.985443, 42.2878], [32.992878, 42.286739], [33.00045, 42.285286], [33.008244, 42.283962], [33.014252, 42.283783], [33.019611, 42.284298], [33.039932, 42.281326], [33.043514, 42.280937], [33.04969, 42.280521], [33.056164, 42.279663], [33.065643, 42.277836], [33.070511, 42.277721], [33.077236, 42.277096], [33.083874, 42.276279], [33.090237, 42.275543], [33.097847, 42.274475], [33.103653, 42.273731], [33.111675, 42.272907], [33.117847, 42.272198], [33.125774, 42.271332], [33.135075, 42.268677], [33.137836, 42.270412], [33.154282, 42.266624], [33.160221, 42.266514], [33.167259, 42.265171], [33.174198, 42.265396], [33.180088, 42.265236], [33.186188, 42.264313], [33.193283, 42.262821], [33.199772, 42.261871], [33.2076, 42.260738], [33.214245, 42.260204], [33.21957, 42.25938], [33.227684, 42.258415], [33.233261, 42.258369], [33.239471, 42.258083], [33.2472, 42.256401], [33.25256, 42.256496], [33.262276, 42.255169], [33.267639, 42.254471], [33.274403, 42.253204], [33.279713, 42.253151], [33.287971, 42.251873], [33.293198, 42.251286], [33.301849, 42.250099], [33.307304, 42.249695], [33.314907, 42.248604], [33.319942, 42.24942], [33.328323, 42.248222], [33.33482, 42.246918], [33.340851, 42.245983], [33.348663, 42.244877], [33.354641, 42.244301], [33.361965, 42.243141], [33.368511, 42.242706], [33.377842, 42.240692], [33.382248, 42.240681], [33.388557, 42.240028], [33.395866, 42.238564], [33.407417, 42.237823], [33.414242, 42.236362], [33.422977, 42.236958], [33.42852, 42.235714], [33.435116, 42.234467], [33.440567, 42.235214], [33.449944, 42.233517], [33.456219, 42.232147], [33.464443, 42.230515], [33.471436, 42.231224], [33.479019, 42.228645], [33.485863, 42.22868], [33.493336, 42.227142], [33.498413, 42.226723], [33.505749, 42.226021], [33.512737, 42.225365], [33.519897, 42.224415], [33.526474, 42.223652], [33.533039, 42.222878], [33.539734, 42.222061], [33.547546, 42.221207], [33.554375, 42.220417], [33.561806, 42.219532], [33.569088, 42.218235], [33.575775, 42.217453], [33.581676, 42.21706], [33.588589, 42.216274], [33.596027, 42.21537], [33.602833, 42.214325], [33.610157, 42.212757], [33.617577, 42.212654], [33.62254, 42.21204], [33.629631, 42.211185], [33.636265, 42.21043], [33.642658, 42.209728], [33.649994, 42.208813], [33.657349, 42.207935], [33.663601, 42.207142], [33.672424, 42.206112], [33.677471, 42.205406], [33.685856, 42.204247], [33.691563, 42.203354], [33.698318, 42.202358], [33.705242, 42.201473], [33.805862, 42.189175], [33.909164, 42.176685], [34.008999, 42.164314], [34.103397, 42.153587], [34.109844, 42.15173], [34.117054, 42.151058], [34.125126, 42.149845], [34.129894, 42.149464], [34.136021, 42.148792], [34.142796, 42.148006], [34.149933, 42.147003], [34.157509, 42.146122], [34.164501, 42.145294], [34.170197, 42.14444], [34.177261, 42.143356], [34.183571, 42.142616], [34.18988, 42.141888], [34.196693, 42.140835], [34.20332, 42.139965], [34.210449, 42.138966], [34.216728, 42.138325], [34.319324, 42.125587], [34.42017, 42.112633], [34.483822, 42.103577], [34.490597, 42.102718], [34.496475, 42.101948], [34.504009, 42.10091], [34.511406, 42.100395], [34.517593, 42.099743], [34.530361, 42.097218], [34.537022, 42.095875], [34.542675, 42.095467], [34.550392, 42.094589], [34.559193, 42.093258], [34.564831, 42.092224], [34.573692, 42.090988], [34.579418, 42.089481], [34.585468, 42.090145], [34.593918, 42.088867], [34.615002, 42.085991], [34.622715, 42.084969], [34.628826, 42.08408], [34.636696, 42.083004], [34.643391, 42.082085], [34.652035, 42.080685], [34.659748, 42.078953], [34.666138, 42.079346], [34.673618, 42.077637], [34.683205, 42.075653], [34.689449, 42.07481], [34.694435, 42.074203], [34.702736, 42.073017], [34.708542, 42.073132], [34.716, 42.071152], [34.723381, 42.070217], [34.72942, 42.06958], [34.738293, 42.067703], [34.742912, 42.067749], [34.751038, 42.066383], [34.757599, 42.065437], [34.763523, 42.064598], [34.774643, 42.063225], [34.78714, 42.061314], [34.792477, 42.060146], [34.797874, 42.05965], [34.805271, 42.058681], [34.812656, 42.05759], [34.819984, 42.056499], [34.827839, 42.055428], [34.834198, 42.054489], [34.842037, 42.054871], [34.848545, 42.052471], [34.856571, 42.050835], [34.863064, 42.05003], [34.870373, 42.049049], [34.876572, 42.048244], [34.883888, 42.04723], [34.890667, 42.046227], [34.897076, 42.045223], [34.904057, 42.044033], [34.910561, 42.043076], [34.918224, 42.04211], [34.925198, 42.041332], [34.931881, 42.040226], [34.940586, 42.039017], [34.947453, 42.038151], [35.032078, 42.027138], [35.037624, 42.026421], [35.043774, 42.025555], [35.049923, 42.024868], [35.058132, 42.023956], [35.065495, 42.02309], [35.071861, 42.022713], [35.079502, 42.021942], [35.087936, 42.021145], [35.093616, 42.020817], [35.100197, 42.020096], [35.107643, 42.019505], [35.115921, 42.018917], [35.122856, 42.018612], [35.12957, 42.018261], [35.136856, 42.017822], [35.142826, 42.017376], [35.150227, 42.017044], [35.156914, 42.016727], [35.16901, 42.016167], [35.176048, 42.015617], [35.182911, 42.016041], [35.192261, 42.015835], [35.19622, 42.015526], [35.204571, 42.015236], [35.211147, 42.014839], [35.218464, 42.014515], [35.225899, 42.013741], [35.233376, 42.013515], [35.24184, 42.013294], [35.249527, 42.012928], [35.256111, 42.012913], [35.263828, 42.012348], [35.271221, 42.01173], [35.28109, 42.011086], [35.286995, 42.01075], [35.293102, 42.010517], [35.300617, 42.010212], [35.307465, 42.009876], [35.314453, 42.009529], [35.32296, 42.00898], [35.329967, 42.008575], [35.337666, 42.008175], [35.355484, 42.007252], [35.361561, 42.0079], [35.368755, 42.007652], [35.375694, 42.007175], [35.383739, 42.006725], [35.390587, 42.006214], [35.398537, 42.005772], [35.410503, 42.005375], [35.419117, 42.005222], [35.424301, 42.003338], [35.434772, 42.002972], [35.440907, 42.002605], [35.449463, 42.002056], [35.453899, 42.001698], [35.462372, 42.00127], [35.468346, 42.000992], [35.476067, 42.000492], [35.484795, 41.999886], [35.491428, 41.999443], [35.499092, 41.999043], [35.505581, 41.998665], [35.515945, 41.998039], [35.521114, 41.997673], [35.529099, 41.99725], [35.637753, 41.991142], [35.679726, 41.988503], [35.68771, 41.988476], [35.69463, 41.988144], [35.70237, 41.987881], [35.708824, 41.987404], [35.716412, 41.98687], [35.725281, 41.986526], [35.732063, 41.986187], [35.739819, 41.985649], [35.746227, 41.985233], [35.753807, 41.984741], [35.761604, 41.984367], [35.769707, 41.984013], [35.776695, 41.983578], [35.783516, 41.983089], [35.89481, 41.976181], [35.934761, 41.975304], [35.938511, 41.974037], [35.946777, 41.973625], [35.954861, 41.973217], [35.962288, 41.972725], [35.969021, 41.97226], [35.975555, 41.971867], [35.982883, 41.971542], [35.990528, 41.971058], [35.997215, 41.970631], [36.00544, 41.970081], [36.01305, 41.969608], [36.019447, 41.96883], [36.027554, 41.9687], [36.034519, 41.968384], [36.042976, 41.96785], [36.050297, 41.967384], [36.05769, 41.966919], [36.065231, 41.966423], [36.073444, 41.965908], [36.08099, 41.965378], [36.089027, 41.964691], [36.095558, 41.964394], [36.102734, 41.964157], [36.111027, 41.963657], [36.118378, 41.9632], [36.125622, 41.962749], [36.231197, 41.956375], [36.342724, 41.949493], [36.452942, 41.942326], [36.476437, 41.940845], [36.483608, 41.940273], [36.490879, 41.9398], [36.499592, 41.939251], [36.506287, 41.938747], [36.513367, 41.938316], [36.521397, 41.937805], [36.52803, 41.937332], [36.53817, 41.936684], [36.543167, 41.936314], [36.550846, 41.935814], [36.558079, 41.935291], [36.56567, 41.934742], [36.573013, 41.934219], [36.662403, 41.928413], [36.669197, 41.928005], [36.675484, 41.927555], [36.682678, 41.927017], [36.690735, 41.926468], [36.699913, 41.925919], [36.706455, 41.92556], [36.713657, 41.92506], [36.721058, 41.92448], [36.729275, 41.923904], [36.736217, 41.92347], [36.743317, 41.923008], [36.750931, 41.922459], [36.758469, 41.921974], [36.767292, 41.921429], [36.794472, 41.920738], [36.80146, 41.919094], [36.808147, 41.918678], [36.815536, 41.918121], [36.824123, 41.917545], [36.83276, 41.916969], [36.837315, 41.916664], [36.844707, 41.916187], [36.85297, 41.915585], [36.860626, 41.915096], [36.867683, 41.914604], [36.875072, 41.914013], [36.88464, 41.913334], [36.889858, 41.912933], [36.897045, 41.912388], [37.004627, 41.899448], [37.018661, 41.896923], [37.025269, 41.894718], [37.036598, 41.893623], [37.043591, 41.89547], [37.051132, 41.890583], [37.057194, 41.889572], [37.066635, 41.887436], [37.071152, 41.886688], [37.078133, 41.885181], [37.086163, 41.883446], [37.092121, 41.882092], [37.09893, 41.880512], [37.106773, 41.878685], [37.113453, 41.877167], [37.119904, 41.875458], [37.138924, 41.870716], [37.14645, 41.868721], [37.154186, 41.866653], [37.160446, 41.864792], [37.165195, 41.863541], [37.171661, 41.861725], [37.181244, 41.858776], [37.188213, 41.856911], [37.19437, 41.854992], [37.202637, 41.852444], [37.208714, 41.850483], [37.215122, 41.848381], [37.221291, 41.846432], [37.226551, 41.84481], [37.233311, 41.842567], [37.240356, 41.840359], [37.245453, 41.838669], [37.251919, 41.836544], [37.258602, 41.834305], [37.264809, 41.832218], [37.270958, 41.830177], [37.278038, 41.827679], [37.284603, 41.82579], [37.291557, 41.823612], [37.297497, 41.821896], [37.302727, 41.82024], [37.309322, 41.818169], [37.314335, 41.816525], [37.320633, 41.814613], [37.32682, 41.812691], [37.333027, 41.810707], [37.339886, 41.808609], [37.346375, 41.806454], [37.351864, 41.804703], [37.358967, 41.802452], [37.365452, 41.800507], [37.372135, 41.798409], [37.37907, 41.796062], [37.385223, 41.79425], [37.392014, 41.79221], [37.398621, 41.790165], [37.405701, 41.787914], [37.410873, 41.78616], [37.418446, 41.783859], [37.424297, 41.78204], [37.430813, 41.779995], [37.457199, 41.771606], [37.463882, 41.769646], [37.525116, 41.756054], [37.531891, 41.755299], [37.539612, 41.754253], [37.546608, 41.753323], [37.553619, 41.75264], [37.560833, 41.752052], [37.567841, 41.751511], [37.577385, 41.750767], [37.583763, 41.749477], [37.58886, 41.749603], [37.596115, 41.748856], [37.603642, 41.748058], [37.610394, 41.747383], [37.61713, 41.746658], [37.624447, 41.745899], [37.632, 41.745121], [37.638924, 41.744339], [37.645885, 41.743565], [37.652637, 41.742687], [37.659779, 41.741863], [37.666718, 41.741089], [37.673489, 41.740318], [37.680882, 41.739452], [37.687706, 41.738644], [37.696373, 41.737717], [37.800465, 41.724567], [37.908318, 41.711868], [37.914513, 41.710564], [37.921383, 41.709698], [37.928444, 41.708775], [37.93597, 41.708073], [37.94231, 41.707401], [37.949867, 41.706795], [37.958549, 41.705189], [37.963276, 41.705063], [37.970963, 41.703812], [37.97868, 41.702839], [37.984833, 41.70219], [37.993038, 41.701046], [37.998775, 41.700378], [38.012619, 41.698711], [38.016033, 41.698483], [38.024952, 41.696957], [38.030334, 41.696564], [38.038673, 41.695518], [38.044743, 41.694584], [38.051544, 41.693821], [38.064293, 41.692467], [38.070957, 41.691471], [38.077209, 41.690487], [38.084721, 41.689114], [38.092625, 41.68874], [38.101273, 41.687675], [38.111088, 41.685806], [38.119122, 41.684666], [38.124207, 41.684002], [38.132771, 41.682861], [38.142582, 41.681904], [38.148846, 41.681175], [38.155907, 41.680122], [38.162998, 41.679306], [38.170437, 41.678177], [38.176697, 41.677376], [38.183804, 41.676655], [38.192104, 41.675465], [38.197521, 41.674911], [38.207272, 41.673306], [38.21265, 41.672855], [38.219917, 41.671963], [38.227238, 41.671009], [38.234234, 41.670086], [38.241215, 41.669216], [38.248001, 41.668228], [38.254894, 41.667484], [38.26186, 41.666576], [38.270302, 41.665237], [38.279076, 41.664238], [38.285725, 41.664276], [38.2911, 41.662613], [38.303101, 41.661533], [38.308613, 41.661224], [38.316372, 41.659828], [38.326015, 41.658718], [38.332157, 41.657692], [38.337627, 41.65696], [38.344353, 41.65625], [38.352398, 41.655151], [38.35976, 41.654171], [38.367085, 41.653301], [38.375359, 41.652092], [38.383549, 41.651207], [38.387207, 41.650818], [38.394772, 41.650124], [38.403225, 41.649181], [38.411671, 41.647823], [38.421024, 41.64682], [38.426323, 41.646324], [38.433792, 41.64571], [38.441132, 41.643791], [38.447632, 41.643223], [38.454185, 41.64241], [38.461159, 41.641487], [38.472523, 41.640461], [38.482582, 41.638805], [38.490116, 41.637573], [38.498203, 41.637016], [38.507946, 41.635349], [38.516727, 41.634205], [38.523026, 41.633316], [38.530083, 41.632687], [38.538109, 41.631935], [38.550934, 41.630165], [38.55714, 41.629078], [38.565647, 41.628284], [38.571278, 41.627167], [38.578735, 41.626328], [38.585663, 41.625191], [38.592159, 41.624378], [38.600719, 41.623234], [38.609135, 41.622807], [38.614914, 41.621433], [38.621857, 41.620583], [38.632732, 41.619404], [38.640888, 41.618519], [38.6483, 41.617249], [38.656483, 41.616367], [38.661751, 41.615509], [38.668167, 41.614555], [38.676014, 41.61356], [38.684536, 41.612362], [38.691063, 41.611858], [38.697704, 41.61071], [38.70451, 41.609829], [38.711689, 41.609035], [38.719044, 41.608032], [38.727219, 41.606865], [38.732338, 41.606186], [38.74041, 41.605198], [38.749432, 41.603981], [38.754692, 41.603214], [38.761776, 41.602417], [38.769489, 41.60136], [38.776199, 41.600464], [38.783142, 41.599758], [38.790482, 41.59866], [38.798843, 41.597672], [38.805492, 41.596725], [38.812622, 41.596054], [38.825279, 41.594254], [38.832363, 41.593403], [38.83786, 41.592491], [38.845776, 41.591389], [38.853546, 41.590374], [38.859028, 41.589577], [38.871284, 41.588238], [38.879097, 41.587101], [38.914093, 41.582371], [38.955292, 41.576698], [39.066734, 41.561989], [39.101219, 41.55732], [39.109818, 41.556179], [39.124626, 41.55423], [39.175301, 41.548676], [39.179638, 41.546452], [39.186546, 41.545757], [39.195301, 41.544483], [39.204308, 41.543518], [39.216782, 41.541454], [39.232121, 41.539608], [39.268578, 41.534595], [39.277882, 41.533192], [39.283798, 41.532192], [39.291351, 41.531342], [39.300411, 41.529922], [39.307468, 41.528931], [39.314129, 41.52792], [39.327225, 41.526253], [39.331528, 41.525715], [39.337822, 41.524845], [39.344528, 41.523968], [39.351658, 41.522987], [39.359283, 41.521912], [39.365257, 41.521103], [39.372894, 41.519955], [39.381329, 41.518986], [39.387268, 41.518166], [39.394932, 41.517101], [39.400993, 41.516232], [39.407974, 41.515247], [39.415638, 41.514355], [39.421864, 41.513325], [39.429535, 41.512268], [39.436485, 41.511353], [39.443439, 41.510422], [39.451332, 41.509327], [39.456909, 41.508537], [39.464172, 41.507568], [39.470673, 41.506676], [39.477657, 41.50576], [39.585583, 41.491337], [39.59164, 41.489574], [39.598804, 41.488892], [39.606541, 41.487965], [39.614094, 41.486732], [39.621407, 41.485893], [39.629807, 41.48455], [39.636326, 41.483826], [39.64286, 41.482899], [39.649902, 41.481983], [39.657608, 41.480659], [39.664864, 41.479702], [39.671799, 41.478851], [39.679379, 41.477768], [39.686195, 41.476891], [39.693485, 41.475845], [39.700523, 41.474781], [39.708527, 41.473648], [39.715286, 41.472698], [39.722267, 41.471622], [39.729839, 41.470612], [39.80756, 41.45974], [39.814289, 41.458988], [39.822311, 41.457577], [39.829712, 41.456055], [39.836693, 41.455826], [39.842354, 41.454739], [39.849895, 41.453835], [39.858032, 41.452644], [39.863815, 41.451759], [39.870369, 41.450771], [39.87719, 41.449936], [39.884937, 41.448757], [39.891949, 41.447968], [39.898739, 41.446888], [39.905346, 41.445847], [39.912338, 41.444828], [39.919434, 41.443878], [39.92691, 41.442844], [39.933765, 41.441818], [39.940617, 41.441216], [39.949947, 41.439751], [39.954735, 41.438744], [39.961777, 41.437859], [39.971924, 41.436268], [39.975372, 41.435829], [39.982052, 41.434834], [39.989952, 41.43372], [39.997036, 41.432732], [40.005127, 41.43153], [40.012066, 41.430542], [40.020405, 41.429485], [40.026543, 41.428535], [40.033913, 41.427376], [40.04126, 41.426334], [40.048557, 41.425236], [40.055725, 41.424225], [40.061958, 41.423664], [40.070175, 41.422306], [40.077213, 41.421131], [40.093933, 41.418499], [40.099739, 41.417618], [40.116589, 41.415047], [40.21944, 41.400444], [40.255764, 41.395168], [40.262676, 41.394157], [40.269783, 41.393192], [40.284172, 41.391125], [40.389229, 41.375797], [40.418079, 41.371304], [40.424446, 41.370514], [40.43185, 41.369572], [40.438919, 41.368477], [40.445694, 41.367489], [40.454422, 41.36623], [40.460865, 41.365265], [40.468262, 41.364223], [40.475376, 41.363144], [40.482063, 41.362106], [40.489529, 41.361023], [40.496834, 41.359913], [40.503468, 41.358898], [40.511208, 41.357765], [40.539402, 41.353474], [40.547535, 41.35228], [40.589066, 41.346134], [40.596252, 41.345146], [40.602436, 41.344242], [40.61013, 41.34306], [40.617039, 41.342072], [40.623493, 41.341251], [40.630562, 41.340069], [40.637779, 41.338913], [40.64436, 41.33794], [40.651043, 41.337017], [40.65852, 41.336014], [40.66534, 41.334915], [40.672348, 41.333546], [40.678852, 41.333027], [40.687141, 41.331829], [40.692425, 41.33099], [40.700523, 41.329479], [40.707005, 41.328712], [40.714054, 41.327564], [40.720623, 41.326687], [40.727474, 41.325603], [40.734215, 41.324738], [40.741699, 41.323547], [40.74789, 41.322594], [40.755337, 41.321457], [40.761497, 41.320648], [40.76889, 41.319592], [40.774685, 41.318932], [40.782238, 41.317631], [40.7883, 41.316586], [40.795826, 41.315254], [40.803524, 41.314198], [40.809261, 41.313412], [40.815907, 41.312313], [40.822231, 41.311604], [40.830143, 41.310181], [40.837246, 41.30891], [40.843037, 41.307938], [40.849667, 41.307121], [40.856804, 41.306274], [40.86367, 41.305351], [40.874004, 41.303059], [40.879101, 41.302937], [40.888889, 41.302155], [40.896484, 41.299549], [40.903084, 41.300148], [40.913025, 41.298622], [40.925686, 41.29707], [40.960403, 41.292103], [40.967716, 41.290733], [40.976212, 41.28756], [40.98637, 41.288532], [40.993614, 41.284954], [41.003113, 41.28516], [41.009529, 41.282425], [41.016151, 41.281593], [41.02235, 41.283463], [41.02961, 41.282528], [41.040836, 41.281029], [41.051102, 41.276123], [41.068249, 41.277294], [41.08213, 41.275307], [41.096413, 41.273422], [41.106266, 41.267933], [41.113552, 41.266697], [41.121521, 41.265476], [41.11993, 41.263573], [41.135662, 41.26635], [41.145599, 41.264626], [41.151337, 41.263931], [41.159664, 41.264736], [41.16835, 41.261364], [41.177902, 41.257057], [41.189713, 41.254967], [41.197556, 41.253826], [41.204987, 41.251984], [41.210045, 41.251713], [41.217545, 41.250187], [41.230892, 41.25148], [41.244347, 41.246853], [41.260559, 41.244556], [41.264721, 41.24366], [41.275146, 41.244995], [41.282944, 41.240486], [41.296623, 41.238625], [41.306747, 41.236389], [41.310616, 41.236004], [41.318462, 41.235226], [41.325085, 41.234341], [41.331882, 41.233253], [41.338249, 41.232616], [41.34914, 41.230782], [41.365303, 41.228336], [41.374023, 41.22699], [41.380985, 41.226028], [41.410236, 41.220276], [41.417095, 41.2192], [41.423847, 41.218117], [41.429775, 41.217209], [41.522007, 41.20298], [41.529732, 41.202038], [41.588665, 41.192631], [41.592194, 41.19202], [41.608635, 41.189445], [41.613148, 41.18882], [41.717148, 41.172573], [41.732357, 41.170132], [41.738125, 41.169422], [41.749191, 41.167381], [41.757446, 41.166485], [41.76273, 41.165192], [41.771099, 41.164047], [41.777729, 41.163147], [41.783154, 41.162319], [41.790462, 41.160973], [41.801842, 41.159107], [41.818336, 41.156635], [41.824512, 41.155651], [41.842152, 41.15279], [41.848972, 41.151752], [41.856514, 41.15044], [41.863659, 41.149254], [41.873287, 41.14772], [41.884735, 41.146023], [41.898376, 41.144341], [41.902924, 41.143211], [41.916721, 41.140442], [41.922207, 41.139709], [41.934025, 41.138775], [41.939438, 41.137238], [41.949474, 41.135475], [41.956299, 41.134682], [41.963284, 41.133286], [41.969574, 41.132549], [41.97736, 41.131126], [41.983395, 41.130207], [41.989666, 41.129303], [41.996571, 41.128067], [42.003487, 41.127064], [42.010227, 41.125996], [42.017036, 41.124802], [42.023746, 41.123798], [42.030792, 41.122604], [42.037247, 41.121563], [42.045288, 41.120193], [42.05106, 41.119396], [42.057693, 41.118282], [42.065338, 41.117188], [42.072044, 41.116024], [42.078297, 41.115093], [42.085041, 41.113937], [42.092434, 41.112732], [42.098656, 41.111729], [42.105461, 41.110706], [42.111988, 41.109695], [42.120316, 41.108387], [42.125797, 41.107357], [42.132366, 41.106197], [42.139496, 41.105175], [42.146847, 41.103649], [42.153461, 41.102955], [42.161263, 41.101391], [42.167019, 41.1007], [42.174404, 41.099564], [42.181053, 41.098473], [42.188606, 41.097214], [42.19471, 41.096226], [42.201439, 41.095097], [42.208942, 41.093891], [42.21629, 41.092754], [42.223019, 41.091568], [42.229961, 41.090508], [42.237411, 41.089306], [42.244167, 41.08823], [42.251404, 41.086899], [42.258053, 41.085934], [42.264481, 41.084908], [42.272434, 41.083515], [42.279018, 41.082554], [42.36031, 41.069336], [42.367287, 41.067986], [42.373699, 41.067093], [42.38023, 41.065887], [42.386799, 41.064922], [42.393337, 41.06377], [42.399757, 41.062725], [42.406651, 41.061535], [42.414124, 41.06039], [42.421101, 41.059299], [42.427597, 41.05822], [42.434265, 41.057114], [42.441189, 41.055851], [42.448036, 41.054611], [42.455021, 41.053543], [42.516968, 41.043316], [42.523033, 41.042278], [42.529758, 41.041229], [42.536629, 41.040134], [42.543148, 41.038975], [42.550049, 41.037952], [42.556778, 41.036865], [42.564034, 41.035732], [42.571117, 41.034496], [42.604935, 41.028774], [42.706356, 41.011642], [42.719486, 41.009174], [42.730976, 41.007545], [42.737568, 41.006344], [42.746212, 41.004631], [42.751904, 41.004017], [42.758354, 41.002769], [42.7649, 41.001633], [42.771667, 41.000584], [42.778591, 40.999428], [42.784912, 40.998333], [42.791611, 40.997154], [42.798241, 40.996002], [42.805332, 40.994747], [42.813824, 40.993206], [42.819725, 40.992405], [42.826447, 40.991093], [42.833584, 40.989925], [42.936485, 40.972263], [43.040764, 40.954315], [43.142078, 40.93681], [43.553036, 40.864803], [43.655647, 40.848198], [43.761024, 40.838966], [43.868813, 40.835609], [43.975185, 40.83176], [44.087814, 40.827656], [44.195152, 40.823963], [44.303955, 40.819611], [44.409317, 40.815685], [44.516819, 40.811455], [44.938389, 40.794106], [45.043747, 40.789539], [45.148235, 40.784878], [45.254566, 40.780148], [45.359165, 40.775448], [45.46537, 40.771843], [45.573433, 40.776379], [45.681305, 40.786983], [45.736565, 40.788498], [45.743382, 40.788345], [45.750164, 40.788097], [45.757141, 40.787758], [45.764999, 40.787392], [45.771809, 40.787029], [45.875729, 40.782433], [45.980198, 40.779388], [46.084064, 40.775955], [46.189102, 40.772282], [46.295303, 40.769051], [46.399467, 40.765633], [46.5028, 40.762218], [46.607357, 40.75853], [46.711254, 40.754684], [46.814571, 40.750542], [46.917583, 40.74609], [47.021927, 40.742245], [47.127052, 40.73774], [47.231159, 40.733025], [47.335468, 40.728352], [47.441376, 40.723564], [47.548588, 40.718536], [47.651817, 40.713558], [47.759308, 40.708241], [47.862648, 40.703094], [47.966351, 40.697926], [48.070461, 40.692558], [48.169113, 40.687477], [48.271984, 40.682037], [48.376312, 40.676308], [48.47998, 40.670731], [48.584991, 40.665066], [48.690296, 40.659286], [48.795712, 40.65337], [49.314156, 40.622749], [49.41634, 40.616161], [49.520073, 40.609646], [49.624607, 40.602852], [49.729641, 40.596306], [49.834423, 40.587734], [49.935921, 40.580658], [50.041664, 40.573021], [50.147282, 40.565109], [50.251152, 40.557102], [50.356522, 40.548954], [50.462204, 40.540855], [50.564823, 40.53294], [50.668884, 40.524902], [50.774689, 40.517391], [50.877373, 40.510456], [50.981445, 40.503342], [51.086182, 40.495972], [51.190369, 40.488464], [51.297241, 40.480499], [51.396042, 40.473026], [51.50272, 40.463253], [51.6073, 40.445251], [51.70874, 40.426346], [51.812271, 40.407436], [51.911133, 40.389404], [52.009277, 40.371685], [52.108154, 40.353806], [52.210777, 40.335094], [52.308281, 40.316986], [52.405846, 40.298504], [52.504639, 40.276337], [52.599606, 40.245899], [52.688416, 40.209137], [52.773514, 40.165691], [52.854492, 40.122757], [52.939182, 40.078266], [53.027946, 40.039066], [53.140259, 40.001816], [53.246113, 39.971939], [53.368896, 39.936356], [53.454468, 39.911655], [53.579067, 39.875656], [53.716877, 39.835648], [53.794315, 39.813034], [53.91687, 39.777119], [54.017395, 39.747791], [54.117279, 39.71846], [54.210999, 39.690437], [54.304321, 39.662552], [54.394924, 39.635422], [54.484192, 39.608692], [54.584229, 39.578667], [54.677124, 39.55064], [54.773113, 39.521576], [54.869202, 39.492359], [54.961243, 39.464287], [55.051235, 39.436752], [55.141933, 39.40892], [55.234959, 39.38031], [55.327389, 39.3517], [55.418518, 39.323421], [55.512302, 39.294205], [55.602463, 39.264221], [55.688843, 39.230316], [55.778603, 39.195831], [55.861656, 39.163834], [55.947876, 39.130413], [56.031921, 39.097687], [56.114929, 39.065243], [56.19635, 39.033401], [56.284119, 38.999229], [56.368286, 38.97279], [56.456711, 38.949051], [56.542969, 38.924839], [56.629147, 38.900711], [56.717957, 38.875866], [56.80666, 38.850815], [56.897476, 38.824768], [56.99115, 38.799335], [57.081421, 38.776058], [57.172791, 38.751846], [57.26516, 38.726944], [57.363037, 38.700363], [57.455688, 38.675041], [57.550686, 38.648712], [57.641918, 38.62326], [57.731663, 38.594238], [57.824924, 38.561691], [57.918789, 38.529282], [58.007263, 38.498466], [58.096478, 38.467117], [58.188431, 38.434616], [58.275749, 38.403625], [58.369484, 38.370941], [58.457199, 38.341736], [58.547195, 38.311249], [58.639759, 38.279526], [58.730103, 38.248482], [58.824951, 38.215851], [58.918064, 38.183868], [59.006577, 38.153412], [59.549461, 37.963486], [59.642326, 37.930672], [59.73138, 37.899124], [59.824238, 37.866119], [59.919491, 37.832153], [60.006069, 37.801208], [60.095871, 37.769039], [60.185432, 37.736874], [60.280113, 37.702744], [60.373379, 37.669052], [60.460804, 37.637375], [60.550503, 37.604736], [60.639446, 37.572372], [60.727108, 37.540424], [60.814877, 37.508698], [60.902592, 37.477249], [60.991318, 37.445084], [61.084801, 37.41069], [61.177193, 37.376495], [61.264091, 37.344223], [61.350163, 37.312225], [61.437397, 37.279682], [61.526783, 37.246307], [61.617931, 37.212158], [61.705311, 37.179317], [61.792423, 37.14645], [61.886822, 37.110886], [61.978176, 37.076252], [62.067612, 37.042374], [62.158775, 37.007629], [62.245789, 36.97435], [62.337242, 36.939423], [62.428993, 36.904266], [62.517403, 36.870209], [62.60582, 36.836151], [62.692898, 36.802475], [62.780495, 36.768539], [62.869965, 36.733719], [62.95768, 36.699596], [63.043728, 36.666], [63.133518, 36.63084], [63.223103, 36.595646], [63.309345, 36.561676], [63.401527, 36.525284], [63.488411, 36.490948], [63.57605, 36.456207], [63.663433, 36.421448], [63.750687, 36.386398], [63.834774, 36.35199], [63.925152, 36.315308], [64.011665, 36.280254], [64.096107, 36.246037], [64.18425, 36.210205], [64.267738, 36.17514], [64.351212, 36.131287], [64.428116, 36.084778], [64.504395, 36.039642], [64.5812, 35.994099], [64.656891, 35.948822], [64.733665, 35.902809], [64.810455, 35.85672], [64.885719, 35.811378], [64.966965, 35.762421], [65.046188, 35.71455], [65.654884, 35.342876], [65.730675, 35.296139], [65.805191, 35.250046], [65.880432, 35.203453], [65.958382, 35.155151], [66.031082, 35.109924], [66.105484, 35.063519], [66.178947, 35.017639], [66.250862, 34.972595], [66.322784, 34.927322], [66.375046, 34.89402], [66.566101, 34.772148], [66.592827, 34.755062], [66.737991, 34.662052], [67.468384, 34.187714], [67.541702, 34.139557], [67.615295, 34.091042], [67.683907, 34.045761], [67.756973, 33.997425], [67.825813, 33.95171], [67.89579, 33.904449], [67.967667, 33.855812], [68.040344, 33.806671], [68.108788, 33.7603], [68.179977, 33.712006], [68.250488, 33.664032], [68.321854, 33.615372], [68.388771, 33.569733], [68.458664, 33.521622], [68.525078, 33.474106], [68.590561, 33.42688], [68.658234, 33.378433], [68.724808, 33.330795], [68.791061, 33.283268], [68.862579, 33.236572], [68.935638, 33.189835], [69.007652, 33.143284], [69.080658, 33.095993], [69.148849, 33.051811], [69.220291, 33.005447], [69.310051, 32.946808], [69.378662, 32.901913], [69.434662, 32.865135], [69.568344, 32.776871], [69.640488, 32.729202], [69.708923, 32.683952], [69.781174, 32.636051], [69.852814, 32.58857], [69.921768, 32.541412], [69.938797, 32.526047], [69.942207, 32.522507], [69.946762, 32.517563], [69.949898, 32.513947], [69.9533, 32.509827], [69.957184, 32.504913], [69.960655, 32.500259], [69.964241, 32.495323], [69.967308, 32.490921], [69.970825, 32.48584], [69.974503, 32.480438], [69.977806, 32.475494], [69.980606, 32.471375], [70.023613, 32.407608], [70.07679, 32.32869], [70.119034, 32.265839], [70.161438, 32.202511], [70.190414, 32.166107], [70.194725, 32.161926], [70.199066, 32.157898], [70.203461, 32.154007], [70.208183, 32.15007], [70.21093, 32.147812], [70.215981, 32.143856], [70.219955, 32.140877], [70.224998, 32.137199], [70.228783, 32.134552], [70.233505, 32.131439], [70.237556, 32.128864], [70.243614, 32.125187], [70.249496, 32.121826], [70.253868, 32.119415], [70.258186, 32.11718], [70.265259, 32.113678], [70.269051, 32.111938], [70.274887, 32.10936], [70.281021, 32.106812], [70.286903, 32.104477], [70.291794, 32.102554], [70.298653, 32.099861], [70.303192, 32.098095], [70.309807, 32.095535], [70.314743, 32.093624], [70.391052, 32.061996], [70.467186, 32.029999], [70.544334, 31.998192], [70.620117, 31.96701], [70.694054, 31.936386], [70.766525, 31.906065], [70.840401, 31.87562], [70.915817, 31.844788], [70.989037, 31.815033], [71.068649, 31.783493], [71.146439, 31.752411], [71.221245, 31.722198], [71.303047, 31.688599], [71.38295, 31.655569], [71.461487, 31.622955], [71.540825, 31.58979], [71.614433, 31.55888], [71.693382, 31.525681], [71.767593, 31.494415], [71.846436, 31.46109], [71.92485, 31.427927], [71.999008, 31.396505], [72.070686, 31.366104], [72.144417, 31.338036], [72.227943, 31.315338], [72.30851, 31.300873], [72.394516, 31.29277], [72.482796, 31.292181], [72.564697, 31.298721], [72.650063, 31.308056], [72.737946, 31.316986], [72.82476, 31.32605], [72.91217, 31.335342], [72.997475, 31.344406], [73.084351, 31.35363], [73.165817, 31.362289], [73.250748, 31.371185], [73.334732, 31.380026], [73.422813, 31.389313], [73.508553, 31.398239], [73.589828, 31.4067], [73.678764, 31.416058], [73.758415, 31.424297], [73.844551, 31.433096], [73.930824, 31.441177], [74.014626, 31.441681], [74.094864, 31.434814], [74.178558, 31.420532], [74.25956, 31.405397], [74.339798, 31.390686], [74.422142, 31.375397], [74.504211, 31.356308], [74.582573, 31.329025], [74.653069, 31.296982], [74.723839, 31.256615], [74.791679, 31.216627], [74.861107, 31.175858], [74.928802, 31.135941], [74.996468, 31.095964], [75.065971, 31.054825], [75.135338, 31.013535], [75.201309, 30.974075], [75.270348, 30.932831], [75.339233, 30.891769], [75.403374, 30.853638], [75.471657, 30.812668], [75.536606, 30.773451], [75.605492, 30.731693], [75.673668, 30.690399], [75.742165, 30.64883], [75.809891, 30.607632], [75.876701, 30.566986], [75.944717, 30.525513], [76.010254, 30.48555], [76.07795, 30.444397], [76.144783, 30.403839], [76.212601, 30.362579], [76.280823, 30.320938], [76.350037, 30.27874], [76.41925, 30.236423], [76.48838, 30.194138], [76.555534, 30.152893], [76.619781, 30.113205], [76.686722, 30.071503], [76.755608, 30.02861], [76.818832, 29.989105], [76.887222, 29.946396], [76.954636, 29.904053], [77.049019, 29.845001], [77.114883, 29.80394], [77.182228, 29.761826], [77.250153, 29.719299], [77.313805, 29.679426], [77.380775, 29.637314], [77.446342, 29.59605], [77.515518, 29.552444], [77.58168, 29.510674], [77.646248, 29.469801], [77.709312, 29.429905], [77.772057, 29.390121], [77.839806, 29.34709], [77.902763, 29.307055], [77.969971, 29.264179], [78.037399, 29.221165], [78.102989, 29.179222], [78.166031, 29.138855], [78.232994, 29.095894], [78.294769, 29.056185], [78.361549, 29.013264], [78.428284, 28.970261], [78.492249, 28.928957], [78.557846, 28.886595], [78.618004, 28.847626], [78.679451, 28.807781], [78.742027, 28.767189], [78.807205, 28.724808], [79.672638, 28.155771], [80.14225, 27.842148], [80.20211, 27.80191], [80.263214, 27.760757], [80.320473, 27.722168], [80.381622, 27.680923], [80.438522, 27.642471], [80.500145, 27.600723], [80.561691, 27.559065], [80.621559, 27.518417], [80.682716, 27.476852], [80.742104, 27.436432], [80.798637, 27.397888], [80.853462, 27.360519], [80.912666, 27.320112], [80.970169, 27.280792], [81.029503, 27.240135], [81.083458, 27.203156], [81.142326, 27.162672], [81.199951, 27.123102], [81.256645, 27.084091], [81.315414, 27.043579], [81.374779, 27.002579], [81.429977, 26.964453], [81.485703, 26.926001], [81.54628, 26.888123], [81.603012, 26.854031], [81.662857, 26.817022], [81.720146, 26.781189], [81.779587, 26.744028], [81.835999, 26.708742], [81.897217, 26.670364], [81.953812, 26.634842], [82.01149, 26.598633], [82.070724, 26.561403], [82.131615, 26.523056], [82.191521, 26.485199], [82.247383, 26.449951], [82.758743, 26.124977], [82.817215, 26.087595], [82.873466, 26.051563], [82.932579, 26.013702], [82.991676, 25.975777], [83.050827, 25.937742], [83.105713, 25.902456], [83.163391, 25.865295], [83.220398, 25.828485], [83.276474, 25.792267], [83.335365, 25.754837], [83.39167, 25.720459], [83.448624, 25.685337], [83.50869, 25.648048], [83.56517, 25.612902], [84.039459, 25.316025], [84.957329, 24.732971], [85.018837, 24.694798], [85.084915, 24.654671], [85.14669, 24.616791], [85.211739, 24.576645], [85.277306, 24.535995], [85.343094, 24.49523], [85.405022, 24.456917], [85.468811, 24.417253], [85.532867, 24.377451], [85.596817, 24.337696], [85.664116, 24.295807], [85.730286, 24.254471], [85.797935, 24.212173], [85.864616, 24.170471], [85.932716, 24.127853], [85.996498, 24.087799], [86.064095, 24.045301], [86.130997, 24.003265], [86.19381, 23.963696], [86.262573, 23.920261], [86.328857, 23.878458], [86.390419, 23.83954], [86.454109, 23.800323], [87.402184, 23.271194], [87.466606, 23.234848], [87.533218, 23.197311], [87.602997, 23.157923], [87.671562, 23.119192], [87.739616, 23.080647], [87.807259, 23.042288], [87.876892, 23.002718], [87.941216, 22.966187], [88.009796, 22.927164], [88.078194, 22.888138], [88.148552, 22.848024], [88.21447, 22.810364], [88.280144, 22.772827], [88.350471, 22.732948], [88.41967, 22.700775], [88.495522, 22.674591], [88.57238, 22.656097], [88.653564, 22.642683], [88.732727, 22.629227], [88.809982, 22.616135], [88.88784, 22.60302], [88.965286, 22.591049], [89.045311, 22.582769], [89.128166, 22.573647], [89.206902, 22.564894], [89.28772, 22.555862], [89.367386, 22.547012], [89.448685, 22.537903], [89.524445, 22.529388], [89.604591, 22.520344], [90.233002, 22.447954], [90.312759, 22.438568], [90.390831, 22.429335], [90.470917, 22.419891], [90.548965, 22.410599], [90.630699, 22.400845], [90.710091, 22.391254], [90.788269, 22.381851], [90.864815, 22.372587], [90.944878, 22.3629], [91.024269, 22.353174], [91.10601, 22.343166], [91.185921, 22.333328], [91.261879, 22.323944], [91.337334, 22.314468], [91.370598, 22.306948], [91.374992, 22.305496], [91.38118, 22.303299], [91.385773, 22.301514], [91.390739, 22.299454], [91.395668, 22.297218], [91.399078, 22.295589], [91.404472, 22.292982], [91.40976, 22.290329], [91.415001, 22.287676], [91.419373, 22.285534], [91.424919, 22.282881], [91.429596, 22.280693], [91.435188, 22.278225], [91.439857, 22.276337], [91.444702, 22.27446], [91.449348, 22.272812], [91.455338, 22.270844], [91.459984, 22.269424], [91.464874, 22.268097], [91.470436, 22.266727], [91.475014, 22.265717], [91.479912, 22.264801], [91.485954, 22.263794], [91.491142, 22.263062], [91.496941, 22.262329], [91.503029, 22.261688], [91.507874, 22.261187], [91.512856, 22.260721], [91.51931, 22.260132], [91.523903, 22.259674], [91.530144, 22.259125], [91.53463, 22.258673], [91.540833, 22.258072], [91.544952, 22.257648], [91.626328, 22.248047], [91.708275, 22.238068], [91.788635, 22.228786], [91.866127, 22.220215], [91.942696, 22.215473], [92.022148, 22.210817], [92.105766, 22.205046], [92.184196, 22.199272], [92.265732, 22.193115], [92.342888, 22.187714], [92.42437, 22.183025], [92.501236, 22.178375], [92.582146, 22.173389], [92.662453, 22.168362], [92.744141, 22.162916], [92.821991, 22.157547], [92.903648, 22.15193], [92.980293, 22.146715], [93.063354, 22.141035], [93.140442, 22.135666], [93.218132, 22.13019], [93.295403, 22.124725], [93.373009, 22.119204], [93.447929, 22.11385], [93.52626, 22.1082], [93.603569, 22.10257], [93.680618, 22.096939], [93.760773, 22.090988], [93.83992, 22.085129], [93.9179, 22.079494], [93.993172, 22.07386], [94.07328, 22.067917], [94.149529, 22.062223], [94.226936, 22.056404], [94.305145, 22.050339], [94.384941, 22.044113], [94.462334, 22.03797], [94.539543, 22.032196], [97.409065, 20.138044], [97.413124, 20.134714], [97.418152, 20.131451], [97.421249, 20.128614], [97.448547, 20.10836], [97.45211, 20.10413], [97.455269, 20.102407], [97.460869, 20.097603], [97.464241, 20.095413], [97.477783, 20.079985], [97.48262, 20.076262], [97.485718, 20.073809], [97.489487, 20.070787], [97.494812, 20.06674], [97.498283, 20.064117], [97.501991, 20.061274], [97.505989, 20.058254], [97.510521, 20.054995], [97.514671, 20.052082], [97.518196, 20.050161], [97.523209, 20.047184], [97.526329, 20.04563], [97.530167, 20.043598], [97.571014, 20.009283], [97.56929, 20.014029], [97.573372, 20.010517], [97.576523, 20.008545], [97.582626, 20.002571], [97.587784, 19.998846], [97.591141, 19.996492], [97.595558, 19.993217], [97.599281, 19.990204], [97.604126, 19.986244], [97.607376, 19.983639], [97.611328, 19.980652], [97.615593, 19.97731], [97.619629, 19.974144], [97.623512, 19.971106], [97.627068, 19.968328], [97.63121, 19.965044], [97.64399, 19.950176], [97.648132, 19.947166], [97.653557, 19.942795], [97.656502, 19.940483], [97.660202, 19.937553], [97.664307, 19.934244], [97.668251, 19.93108], [97.672043, 19.928074], [97.676491, 19.924566], [97.680939, 19.921055], [97.685204, 19.91766], [97.68895, 19.914711], [97.693642, 19.91107], [97.697433, 19.908373], [97.702026, 19.906454], [97.70536, 19.904799], [97.709, 19.902874], [97.71273, 19.900339], [97.716347, 19.898224], [97.720329, 19.895567], [97.725479, 19.892223], [97.735802, 19.882277], [97.744553, 19.876179], [97.749695, 19.872633], [97.755264, 19.862621], [97.757423, 19.860764], [97.761154, 19.857903], [97.76619, 19.853893], [97.769829, 19.851028], [97.773766, 19.84799], [97.779961, 19.843216], [97.81076, 19.819935], [97.812798, 19.817083], [97.816231, 19.814228], [97.820709, 19.810997], [97.825386, 19.807253], [97.829453, 19.804018], [97.834274, 19.80019], [97.838287, 19.796953], [97.842232, 19.793911], [97.846527, 19.790428], [97.850578, 19.787239], [97.854332, 19.784285], [97.858643, 19.780952], [97.86277, 19.777779], [97.867722, 19.778997], [97.871178, 19.776321], [97.875122, 19.773411], [97.879265, 19.768339], [97.883011, 19.766201], [97.909035, 19.720163], [97.893532, 19.753565], [97.89827, 19.749807], [97.900818, 19.747438], [97.904198, 19.744604], [97.908432, 19.74135], [97.912323, 19.738207], [97.916229, 19.735027], [97.920021, 19.732239], [97.92804, 19.727484], [97.93177, 19.724367], [97.935913, 19.720936], [97.940498, 19.717329], [97.950203, 19.70948], [97.963074, 19.699123], [97.970634, 19.688168], [97.971092, 19.692928], [97.976135, 19.689106], [97.978714, 19.685728], [97.982933, 19.682049], [97.986969, 19.679119], [97.993149, 19.675266], [97.997147, 19.672058], [97.999939, 19.669823], [98.003807, 19.666739], [98.007523, 19.663792], [98.011925, 19.660297], [98.015381, 19.657557], [98.019417, 19.654301], [98.023544, 19.651039], [98.027405, 19.647919], [98.031685, 19.644497], [98.033012, 19.642122], [98.037651, 19.638777], [98.043877, 19.634821], [98.0495, 19.630499], [98.055092, 19.625868], [98.055908, 19.623716], [98.062172, 19.631454], [98.06971, 19.613943], [98.071152, 19.611536], [98.077446, 19.607841], [98.081245, 19.604637], [98.086075, 19.600801], [98.089462, 19.598145], [98.093628, 19.594933], [98.097603, 19.591766], [98.101463, 19.588509], [98.10643, 19.584873], [98.109871, 19.582035], [98.113831, 19.578966], [98.117905, 19.574768], [98.123528, 19.570351], [98.129723, 19.565908], [98.134201, 19.562561], [98.138588, 19.55896], [98.141502, 19.556616], [98.145767, 19.553324], [98.149765, 19.550093], [98.153839, 19.546881], [98.157295, 19.544069], [98.161392, 19.540932], [98.16581, 19.537342], [98.169624, 19.534231], [98.173172, 19.531574], [98.177666, 19.528084], [98.181259, 19.524866], [98.186485, 19.521034], [98.190277, 19.518021], [98.194519, 19.514492], [98.19825, 19.511465], [98.202522, 19.508085], [98.206451, 19.50462], [98.211098, 19.501295], [98.214531, 19.498665], [98.218819, 19.495331], [98.222733, 19.492058], [98.226456, 19.488989], [98.230415, 19.485781], [98.234375, 19.482679], [98.23835, 19.479259], [98.243645, 19.474937], [98.248619, 19.470808], [98.251114, 19.469225], [98.255478, 19.465714], [98.261421, 19.461081], [98.264656, 19.458313], [98.267952, 19.455505], [98.272133, 19.452169], [98.276428, 19.448835], [98.280907, 19.445299], [98.285034, 19.442154], [98.289032, 19.439013], [98.293152, 19.435642], [98.297134, 19.432367], [98.301208, 19.429028], [98.305023, 19.425976], [98.309128, 19.42276], [98.365112, 19.3778], [98.423843, 19.330465], [98.48394, 19.282299], [98.540756, 19.236362], [98.594383, 19.185114], [98.641846, 19.130606], [98.69268, 19.073809], [98.741699, 19.020912], [98.786331, 18.966602], [98.844124, 18.909597], [98.886398, 18.852898], [98.937263, 18.802027], [99.001427, 18.755913], [99.057381, 18.716194], [99.124016, 18.681791], [99.191772, 18.646269], [99.253075, 18.610703], [99.31308, 18.567066], [99.374847, 18.523876], [99.436783, 18.480385], [99.498077, 18.436323], [99.556824, 18.395445], [99.616425, 18.352541], [99.675507, 18.31135], [99.733795, 18.269846], [99.794991, 18.226236], [99.857368, 18.181845], [99.920212, 18.137253], [99.979927, 18.094952], [100.04248, 18.050865], [100.104828, 18.006664], [100.163383, 17.964163], [100.226562, 17.918608], [100.287239, 17.874655], [100.348289, 17.830126], [100.409927, 17.785189], [100.468712, 17.742599], [100.529991, 17.698261], [100.587677, 17.656189], [100.648811, 17.611841], [100.708534, 17.569071], [100.766495, 17.527443], [100.827492, 17.483458], [100.88765, 17.440207], [100.949402, 17.395529], [101.009689, 17.352028], [101.069595, 17.308659], [101.1297, 17.264965], [101.190277, 17.221046], [101.250122, 17.177608], [101.310997, 17.133272], [101.371422, 17.08931], [101.431107, 17.0455], [101.487, 17.004332], [101.546875, 16.959961], [101.606865, 16.915613], [101.663765, 16.873693], [101.720818, 16.83169], [101.781975, 16.786633], [101.838493, 16.744989], [101.89978, 16.700031], [101.956284, 16.658821], [102.020233, 16.620535], [103.018272, 16.144594], [103.085075, 16.112501], [103.150154, 16.081202], [103.216621, 16.049198], [103.279694, 16.018829], [103.348122, 15.985903], [103.41082, 15.955579], [103.474365, 15.924889], [103.54229, 15.892078], [103.605698, 15.861384], [103.672989, 15.828794], [103.739594, 15.796373], [103.80555, 15.764431], [103.872452, 15.731879], [103.93718, 15.700498], [104.004379, 15.66789], [104.071602, 15.634948], [104.135239, 15.603607], [104.203903, 15.570264], [104.271347, 15.53708], [104.339439, 15.50397], [104.409645, 15.469503], [104.473549, 15.438804], [104.542549, 15.405264], [104.610672, 15.371748], [104.676125, 15.33966], [104.743271, 15.306004], [104.813316, 15.269805], [104.81813, 15.265985], [104.821869, 15.263126], [104.82547, 15.26012], [104.829727, 15.256675], [104.833633, 15.252611], [104.838005, 15.24833], [104.840813, 15.245224], [104.844612, 15.241474], [104.847649, 15.2378], [104.850929, 15.233282], [104.853516, 15.230192], [104.856689, 15.225326], [104.859711, 15.221227], [104.862488, 15.217308], [104.865395, 15.21244], [104.868134, 15.207198], [104.870705, 15.20347], [104.872749, 15.198492], [104.875153, 15.194571], [104.877922, 15.189343], [104.880463, 15.184792], [104.882378, 15.181113], [104.884888, 15.176655], [104.920151, 15.11228], [104.956383, 15.046149], [104.993004, 14.979716], [105.029518, 14.911548], [105.062561, 14.847921], [105.099617, 14.78122], [105.137756, 14.718587], [105.180328, 14.655003], [105.222054, 14.594853], [105.266006, 14.530188], [105.306747, 14.466071], [105.345261, 14.402545], [105.386253, 14.33844], [105.42585, 14.272936], [105.451508, 14.204844], [105.471428, 14.129053], [105.477531, 14.054264], [105.47438, 13.981225], [105.461067, 13.906374], [105.445, 13.830499], [105.441216, 13.753904], [105.447754, 13.678804], [105.458038, 13.603278], [105.467613, 13.527651], [105.477295, 13.452866], [105.486557, 13.380732], [105.496536, 13.306181], [105.506599, 13.229618], [105.516586, 13.153235], [105.526329, 13.078953], [105.534996, 13.004882], [105.545998, 12.928514], [105.555237, 12.853903], [105.565262, 12.783327], [105.57415, 12.710878], [105.584518, 12.635568], [105.594757, 12.559165], [105.6035, 12.487467], [105.613815, 12.411432], [105.623016, 12.34112], [105.632797, 12.266813], [105.642059, 12.194749], [105.650681, 12.127904], [105.659752, 12.057902], [105.668861, 11.986279], [105.677986, 11.916616], [105.686974, 11.84733], [105.695496, 11.781327], [105.706253, 11.72565], [105.707809, 11.721194], [105.709595, 11.716587], [105.711342, 11.712345], [105.713326, 11.707801], [105.71553, 11.704087], [105.717728, 11.700109], [105.722435, 11.69166], [105.724686, 11.687511], [105.727592, 11.683243], [105.730133, 11.679375], [105.732918, 11.676022], [105.735863, 11.672342], [105.738388, 11.668987], [105.741936, 11.664219], [105.744492, 11.660789], [105.747101, 11.65718], [105.749825, 11.653275], [105.752731, 11.649385], [105.79248, 11.592449], [105.832184, 11.534179], [105.874458, 11.471865], [105.916565, 11.410304], [105.957603, 11.349987], [105.996246, 11.293732], [106.038551, 11.235476], [106.081932, 11.184517], [106.124825, 11.133178], [106.16893, 11.080238], [106.212875, 11.027314], [106.253418, 10.979225], [106.293556, 10.930951], [106.334755, 10.881544], [106.374924, 10.833186], [106.413834, 10.786726], [106.452789, 10.740127], [106.494667, 10.692354], [106.497925, 10.689672], [106.500931, 10.687331], [106.504265, 10.684763], [106.507721, 10.682228], [106.51091, 10.68014], [106.514587, 10.677807], [106.518211, 10.675627], [106.521904, 10.673606], [106.525269, 10.671802], [106.529083, 10.669912], [106.532997, 10.668164], [106.540977, 10.665], [106.544662, 10.663629], [106.54866, 10.66217], [106.552521, 10.660814], [106.560204, 10.658063], [106.564339, 10.656593], [106.568108, 10.655228], [106.572205, 10.653725], [106.627861, 10.633102], [106.685799, 10.612103], [106.741524, 10.592267], [106.768631, 10.584406], [106.771973, 10.583934], [106.775673, 10.58366], [106.779411, 10.583427], [106.783424, 10.583352], [106.787064, 10.583385], [106.790726, 10.583524], [106.794685, 10.583881], [106.798073, 10.584329], [106.801498, 10.584961], [106.805084, 10.585702], [106.808357, 10.586534], [106.815559, 10.588349], [106.818695, 10.58942], [106.821739, 10.590501], [106.824562, 10.591868], [106.828056, 10.593511], [106.830887, 10.59498], [106.836983, 10.598263], [106.839981, 10.599977], [106.842857, 10.60173], [106.845909, 10.603656], [106.851616, 10.607519], [106.854164, 10.6092], [106.859467, 10.612683], [106.862381, 10.614502], [106.86512, 10.616158], [106.867935, 10.617814], [106.88485, 10.627719], [106.901314, 10.637424], [106.919571, 10.647922], [106.934952, 10.657143], [106.951584, 10.666873], [106.966957, 10.67626], [106.981651, 10.6852], [106.99678, 10.694541], [107.013496, 10.704194], [107.029274, 10.714914], [107.031479, 10.716802], [107.033325, 10.718525], [107.034317, 10.720203], [107.035759, 10.722344], [107.039101, 10.727184], [107.040146, 10.729303], [107.04319, 10.73214], [107.043716, 10.734632], [107.039566, 10.737006], [107.043037, 10.74048], [107.045387, 10.743662], [107.046539, 10.746577], [107.043671, 10.749719], [107.045662, 10.753139], [107.046898, 10.75868], [107.045586, 10.7605], [107.045624, 10.762569], [107.040405, 10.764923], [107.038307, 10.767333], [107.036629, 10.768816], [107.039307, 10.772048], [107.039253, 10.775525], [107.037842, 10.777093], [107.031364, 10.780614], [107.029617, 10.782028], [107.027153, 10.783859], [107.025246, 10.785176], [107.02327, 10.786469], [107.02153, 10.787643], [107.017342, 10.790343], [107.014977, 10.791926], [107.008919, 10.795944], [107.004471, 10.799057], [106.992722, 10.80748], [106.981056, 10.816087], [106.96933, 10.8246], [106.961975, 10.829912], [106.955933, 10.834213], [106.948341, 10.839596], [106.942574, 10.843689], [106.93663, 10.847881], [106.930511, 10.852211], [106.922974, 10.857468], [106.917099, 10.861588], [106.911461, 10.865524], [106.907089, 10.868225], [106.904922, 10.869343], [106.902466, 10.870413], [106.900108, 10.871298], [106.898064, 10.871887], [106.896057, 10.872415], [106.893311, 10.87302], [106.890862, 10.873489], [106.888306, 10.873947], [106.883194, 10.874771], [106.866478, 10.877106], [106.853027, 10.879028], [106.845924, 10.880081], [106.839149, 10.881088], [106.831291, 10.882233], [106.827248, 10.882517], [106.82547, 10.882553], [106.823242, 10.882553], [106.821419, 10.882423], [106.819344, 10.882191], [106.817467, 10.881912], [106.8153, 10.881493], [106.81366, 10.88112], [106.811592, 10.880585], [106.807991, 10.879532], [106.806526, 10.879072], [106.803062, 10.877861], [106.801315, 10.877197], [106.796532, 10.87532], [106.790192, 10.872741], [106.788696, 10.872182], [106.787209, 10.871577], [106.78109, 10.869249], [106.775078, 10.867035], [106.769211, 10.864838], [106.763954, 10.862823], [106.758293, 10.860591], [106.753822, 10.858932], [106.749413, 10.857285], [106.743973, 10.85527], [106.738762, 10.853302], [106.734497, 10.851746], [106.729721, 10.84993], [106.724556, 10.847992], [106.719604, 10.846159], [106.714516, 10.844238], [106.709579, 10.842342], [106.704231, 10.840341], [106.698738, 10.838292], [106.694717, 10.836777], [106.689629, 10.834847], [106.68544, 10.833252], [106.680374, 10.831375], [106.675255, 10.829453], [106.670258, 10.827585], [106.665405, 10.825699], [106.657974, 10.822929], [106.656555, 10.822357], [106.655754, 10.822092], [106.652573, 10.820847], [106.64933, 10.819633], [106.645164, 10.818031], [106.644562, 10.817693], [106.644241, 10.817436], [106.643562, 10.816762], [106.643036, 10.816087], [106.642937, 10.815877], [106.642891, 10.815551], [106.642952, 10.81526], [106.643372, 10.814271], [106.64386, 10.812973], [106.644005, 10.812641], [106.644241, 10.812468], [106.644501, 10.812479], [106.657005, 10.81723], [106.657349, 10.817299], [106.657806, 10.817134], [106.658493, 10.81682], [106.658775, 10.816784], [106.657997, 10.817029], [106.659569, 10.817047], [106.664215, 10.81881], [106.664627, 10.818867], [106.664841, 10.818661], [106.665077, 10.817972]]}, "properties": {"name": "AF258_40d82f71", "cmt": "2026-07-25", "tstamp": 1784937600, "desc": "---", "src": "2.035868/10.583352/107.046898/49.001186", "bbox": "2.035868/10.583352/107.046898/49.001186"}}]}