{"type": "FeatureCollection", "name": "TrackSet", "crs": {"type": "name", "properties": {"name": "urn:ogc:def:crs:OGC:1.3:CRS84"}}, "bbox": [6.100879, 25.253586, 55.370434, 46.466427], "features": [{"type": "Feature", "bbox": [6.100879, 25.253586, 55.370434, 46.466427], "geometry": {"type": "LineString", "coordinates": [[55.370434, 25.253586], [55.35083, 25.264551], [55.345867, 25.267273]]}, "properties": {"name": "7_csv/Malaysia December 2025/EK83_3d79e90f.csv", "cmt": "2025-12-12", "tstamp": 1765497600, "desc": "UpHill", "src": "6.100879/25.253586/55.370434/46.466427", "bbox": "6.100879/25.253586/55.370434/46.466427"}}, {"type": "Feature", "bbox": [6.100879, 25.253586, 55.370434, 46.466427], "geometry": {"type": "LineString", "coordinates": [[55.339275, 25.270882], [55.332485, 25.274607], [55.327461, 25.277353], [55.320412, 25.281218], [55.312847, 25.28536], [55.307056, 25.288559], [55.298801, 25.293274], [55.290977, 25.297882], [55.282795, 25.302841], [55.276985, 25.306541], [55.268486, 25.311941], [55.260452, 25.317015], [55.252056, 25.322323], [55.245216, 25.326698], [55.236095, 25.332518], [55.226509, 25.338522], [55.21698, 25.344635], [55.207569, 25.350174], [55.205029, 25.351456], [55.202435, 25.3526], [55.199078, 25.353836], [55.196453, 25.354723], [55.193913, 25.355421], [55.191116, 25.356119], [55.188599, 25.356628], [55.185749, 25.357132], [55.183514, 25.357407], [55.179817, 25.357748], [55.177002, 25.357864], [55.173443, 25.357841], [55.167744, 25.357656], [55.164997, 25.357515], [55.156082, 25.357143], [55.150177, 25.356865], [55.143955, 25.356632], [55.140736, 25.356491], [55.122021, 25.355759], [55.100506, 25.354889], [55.077415, 25.354164], [55.056324, 25.353559], [55.032539, 25.352814], [55.009411, 25.352005], [54.983471, 25.351044], [54.960194, 25.350161], [54.936169, 25.349396], [54.909355, 25.351046], [54.905651, 25.351547], [54.901836, 25.352142], [54.898479, 25.352692], [54.89381, 25.353559], [54.889977, 25.354303], [54.887489, 25.354816], [54.880131, 25.356585], [54.870903, 25.359098], [54.863789, 25.36116], [54.852303, 25.364359], [54.827984, 25.371185], [54.804108, 25.377998], [54.778137, 25.385513], [54.710049, 25.405138], [54.653576, 25.421265], [54.59692, 25.437447], [54.534061, 25.456207], [54.475502, 25.473524], [54.413471, 25.49168], [54.354145, 25.509155], [54.288635, 25.528381], [54.224682, 25.547262], [54.162651, 25.565512], [54.098866, 25.584274], [54.037273, 25.602264], [53.973034, 25.620346], [53.909912, 25.638199], [53.84206, 25.657471], [53.779041, 25.675415], [53.716045, 25.69339], [53.651318, 25.711546], [53.584366, 25.730307], [53.520157, 25.748322], [53.45108, 25.767654], [53.389927, 25.784866], [53.320484, 25.804325], [53.257648, 25.821854], [53.194321, 25.840448], [53.131256, 25.864098], [53.067177, 25.890106], [53.003902, 25.915878], [52.943062, 25.94063], [52.879787, 25.966278], [52.817196, 25.991558], [52.754395, 26.016928], [52.694111, 26.042908], [52.636326, 26.069733], [52.572845, 26.098801], [52.512798, 26.125814], [52.45153, 26.153374], [52.386127, 26.182663], [52.325756, 26.209717], [52.265026, 26.236609], [52.204338, 26.262634], [52.143185, 26.28891], [52.082008, 26.315329], [52.020264, 26.342056], [51.957039, 26.36891], [51.895424, 26.391495], [51.832176, 26.412716], [51.766731, 26.434595], [51.704044, 26.455582], [51.644192, 26.475607], [51.579807, 26.497114], [51.517326, 26.517883], [51.456051, 26.538267], [51.391983, 26.559542], [51.328335, 26.580584], [51.266094, 26.601196], [51.205048, 26.621384], [51.141727, 26.642357], [51.079014, 26.66304], [51.017296, 26.683365], [50.956173, 26.703108], [50.894535, 26.722708], [50.833633, 26.742119], [50.772152, 26.761717], [50.711201, 26.781223], [50.651619, 26.804266], [50.647766, 26.806362], [50.6437, 26.808596], [50.640079, 26.810669], [50.63641, 26.812832], [50.630856, 26.816254], [50.626213, 26.819304], [50.619404, 26.824036], [50.615124, 26.827078], [50.611267, 26.829941], [50.607994, 26.832384], [50.605247, 26.834339], [50.551476, 26.873396], [50.50016, 26.911514], [50.449429, 26.952675], [50.397667, 26.996201], [50.348492, 27.037586], [50.297951, 27.079742], [50.245869, 27.122681], [50.197483, 27.166164], [50.153751, 27.21644], [50.111706, 27.267368], [50.06786, 27.320572], [50.024712, 27.372715], [49.981365, 27.422012], [49.936436, 27.472321], [49.894199, 27.51996], [49.849998, 27.57019], [49.804405, 27.622004], [49.76268, 27.6693], [49.717148, 27.720741], [49.672832, 27.77083], [49.631413, 27.817566], [49.586895, 27.867325], [49.540524, 27.9191], [49.49567, 27.969236], [49.451206, 28.01889], [49.406891, 28.067871], [49.360332, 28.118761], [49.315094, 28.168154], [49.267918, 28.219687], [49.223274, 28.268475], [49.176388, 28.319595], [49.129242, 28.371214], [49.083897, 28.425495], [49.040485, 28.481873], [48.998283, 28.536896], [48.954708, 28.59375], [48.911659, 28.649643], [48.871712, 28.701643], [48.831429, 28.753874], [48.78891, 28.808853], [48.748875, 28.861084], [48.707623, 28.9151], [48.668007, 28.96669], [48.627373, 29.01964], [48.585312, 29.074247], [48.544975, 29.126617], [48.503345, 29.180433], [48.45948, 29.237366], [48.418175, 29.290833], [48.376518, 29.344576], [48.336304, 29.396301], [48.295197, 29.452578], [48.256706, 29.510193], [48.220367, 29.565353], [48.181282, 29.624771], [48.14188, 29.684555], [48.105362, 29.739664], [48.065662, 29.799774], [48.0289, 29.855255], [47.989544, 29.914608], [47.953564, 29.968887], [47.910892, 30.023209], [47.90696, 30.027145], [47.904377, 30.029663], [47.900555, 30.033222], [47.897423, 30.03611], [47.894466, 30.038773], [47.89048, 30.042206], [47.887154, 30.044954], [47.883266, 30.048111], [47.879353, 30.051239], [47.874683, 30.054777], [47.871277, 30.057291], [47.866787, 30.060608], [47.863232, 30.063263], [47.806511, 30.105984], [47.750835, 30.147675], [47.696758, 30.188103], [47.641674, 30.229202], [47.589806, 30.267845], [47.534824, 30.308899], [47.481781, 30.348404], [47.429298, 30.387346], [47.376495, 30.426498], [47.320915, 30.467648], [47.266426, 30.508055], [47.2131, 30.547623], [47.164684, 30.591156], [46.613014, 31.177988], [46.059742, 31.757238], [46.010239, 31.807281], [45.962292, 31.855316], [45.912872, 31.904949], [45.86607, 31.952106], [45.819771, 31.998705], [45.770195, 32.048355], [45.721966, 32.096695], [45.675266, 32.143391], [45.628803, 32.189713], [45.578926, 32.239517], [45.532673, 32.285568], [45.484936, 32.333084], [45.434521, 32.383087], [45.385979, 32.431221], [45.336933, 32.479824], [45.287045, 32.529308], [45.241028, 32.581261], [45.199829, 32.632839], [45.158092, 32.685516], [45.115524, 32.739723], [45.080914, 32.795471], [45.053978, 32.858337], [45.029541, 32.922024], [45.006538, 32.982285], [44.982231, 33.045525], [44.958199, 33.107483], [44.932121, 33.174194], [44.908356, 33.23518], [44.883579, 33.298676], [44.859756, 33.359798], [44.834709, 33.423935], [44.809647, 33.487633], [44.785252, 33.549686], [44.761219, 33.611042], [44.737, 33.672501], [44.712269, 33.732975], [44.694691, 33.776581], [44.693665, 33.781052], [44.723816, 33.781334], [44.721882, 33.785606], [44.688206, 33.793297], [44.685753, 33.798233], [44.684677, 33.801296], [44.683392, 33.805336], [44.682312, 33.809441], [44.681702, 33.813725], [44.677372, 33.818909], [44.708206, 33.819843], [44.675144, 33.827213], [44.673676, 33.831066], [44.671757, 33.835865], [44.668186, 33.84317], [44.666859, 33.847187], [44.665268, 33.851093], [44.663506, 33.855141], [44.661842, 33.859879], [44.65984, 33.864304], [44.659233, 33.868111], [44.655327, 33.874588], [44.653072, 33.881985], [44.651241, 33.885731], [44.649441, 33.890545], [44.625736, 33.952068], [44.601948, 34.01292], [44.576611, 34.076916], [44.5527, 34.136143], [44.527618, 34.199085], [44.503319, 34.261093], [44.477863, 34.324593], [44.454048, 34.384094], [44.428883, 34.446701], [44.403305, 34.510246], [44.378071, 34.572903], [44.35421, 34.632164], [43.977043, 35.555202], [44.013519, 35.612446], [43.918934, 35.694847], [43.895382, 35.752319], [43.869526, 35.813824], [43.860943, 35.834545], [43.857212, 35.843502], [43.85379, 35.851879], [43.829338, 35.911102], [43.802734, 35.974358], [43.777657, 36.03405], [43.751472, 36.096413], [43.726795, 36.155216], [43.701435, 36.214611], [43.674854, 36.277863], [43.649708, 36.337894], [43.627323, 36.389668], [43.625496, 36.394333], [43.623989, 36.397991], [43.621651, 36.403576], [43.619984, 36.40731], [43.618069, 36.412388], [43.616474, 36.41597], [43.614407, 36.421116], [43.613152, 36.424126], [43.611233, 36.428795], [43.60854, 36.435379], [43.604481, 36.443363], [43.602509, 36.448891], [43.600513, 36.453228], [43.599041, 36.456913], [43.597477, 36.460613], [43.595474, 36.465382], [43.593777, 36.469364], [43.590473, 36.477341], [43.588455, 36.481895], [43.586784, 36.485394], [43.581013, 36.499199], [43.578976, 36.503918], [43.560982, 36.545837], [43.558887, 36.550598], [43.55764, 36.553665], [43.555767, 36.558102], [43.529919, 36.618927], [43.527225, 36.625462], [43.523975, 36.632469], [43.522789, 36.63652], [43.520836, 36.640514], [43.518799, 36.645515], [43.516502, 36.649994], [43.51482, 36.654358], [43.512764, 36.65929], [43.507576, 36.671268], [43.50576, 36.67556], [43.502213, 36.684105], [43.500668, 36.688805], [43.498283, 36.692406], [43.496525, 36.697266], [43.494804, 36.701416], [43.492966, 36.705246], [43.49115, 36.709354], [43.48959, 36.713589], [43.487732, 36.717506], [43.48637, 36.722061], [43.484077, 36.726482], [43.482288, 36.730427], [43.480263, 36.735432], [43.479034, 36.739479], [43.474743, 36.748737], [43.47385, 36.750816], [43.471714, 36.755333], [43.470081, 36.759369], [43.466042, 36.768745], [43.464745, 36.771965], [43.463364, 36.775558], [43.461575, 36.779194], [43.459293, 36.784031], [43.45787, 36.787399], [43.455788, 36.791786], [43.452408, 36.800304], [43.45031, 36.805103], [43.448727, 36.809181], [43.447079, 36.813232], [43.445423, 36.815884], [43.443787, 36.820995], [43.441971, 36.825294], [43.440479, 36.828812], [43.438484, 36.83353], [43.436852, 36.836891], [43.434692, 36.841736], [43.433331, 36.845238], [43.431942, 36.849255], [43.429874, 36.853195], [43.428375, 36.857922], [43.426159, 36.862038], [43.424801, 36.866035], [43.422611, 36.87048], [43.420521, 36.875252], [43.418789, 36.878464], [43.417095, 36.882153], [43.415531, 36.886368], [43.413685, 36.891571], [43.411587, 36.893993], [43.409626, 36.898285], [43.407959, 36.903481], [43.405693, 36.90826], [43.403835, 36.913586], [43.396908, 36.908283], [43.394131, 36.915142], [43.394512, 36.93523], [43.392445, 36.939453], [43.391273, 36.942326], [43.389065, 36.946968], [43.387543, 36.950356], [43.385723, 36.954659], [43.383621, 36.958378], [43.382149, 36.96299], [43.380638, 36.967049], [43.378841, 36.971127], [43.377304, 36.974758], [43.375664, 36.979309], [43.373814, 36.982838], [43.371685, 36.98732], [43.37009, 36.990986], [43.368534, 36.995266], [43.366875, 36.99881], [43.365047, 37.003139], [43.361668, 37.011044], [43.359882, 37.015209], [43.356449, 37.023399], [43.354107, 37.027283], [43.352642, 37.030624], [43.350685, 37.034855], [43.349369, 37.039314], [43.347603, 37.04385], [43.345566, 37.047718], [43.343727, 37.051704], [43.342247, 37.055748], [43.340614, 37.059711], [43.338413, 37.064255], [43.336845, 37.067986], [43.333157, 37.077087], [43.33131, 37.081928], [43.328075, 37.08992], [43.326397, 37.093819], [43.32439, 37.098347], [43.322086, 37.10363], [43.296757, 37.165524], [43.270336, 37.228554], [43.243183, 37.291248], [43.219795, 37.331333], [43.215431, 37.336555], [43.211647, 37.340248], [43.206554, 37.345234], [43.201756, 37.350319], [43.196903, 37.354263], [43.167118, 37.371494], [43.151093, 37.378632], [43.147537, 37.38026], [43.142456, 37.382339], [43.137207, 37.384212], [43.132175, 37.386543], [43.122276, 37.391083], [43.116806, 37.393482], [43.112267, 37.395386], [43.107674, 37.397278], [43.102688, 37.399448], [43.008282, 37.439152], [38.792393, 39.932312], [38.72715, 39.974072], [38.723526, 39.975159], [38.719086, 39.977623], [38.714523, 39.980267], [38.710533, 39.982807], [38.705765, 39.985867], [38.700966, 39.988979], [38.697327, 39.991261], [38.692963, 39.993984], [38.688602, 39.996666], [38.682804, 40.000156], [38.679996, 40.001987], [38.671177, 40.007366], [38.666931, 40.010021], [38.662437, 40.012802], [38.595634, 40.054028], [38.573677, 40.067699], [38.426159, 40.15863], [38.361553, 40.198215], [38.300724, 40.235565], [38.229221, 40.278999], [38.166946, 40.315647], [38.138287, 40.328892], [38.13192, 40.331284], [38.127834, 40.332954], [38.122692, 40.334702], [38.116257, 40.337078], [38.111546, 40.338718], [38.106762, 40.340202], [38.101238, 40.342056], [38.097565, 40.3433], [38.090725, 40.345108], [38.085644, 40.346802], [38.006279, 40.370613], [37.931412, 40.393116], [37.831444, 40.422821], [37.814274, 40.427937], [37.627708, 40.483246], [37.613873, 40.487339], [37.471809, 40.530701], [37.350323, 40.56649], [37.276871, 40.589439], [37.203712, 40.609276], [37.123363, 40.632748], [37.047897, 40.654675], [36.973614, 40.676136], [36.893799, 40.699265], [36.815998, 40.721664], [36.743401, 40.742565], [36.665684, 40.764912], [36.5924, 40.785858], [36.514282, 40.808121], [36.435719, 40.83041], [36.358582, 40.852249], [36.280518, 40.874268], [36.202515, 40.896286], [36.124294, 40.918205], [36.045456, 40.940365], [35.967239, 40.962246], [35.889893, 40.983673], [35.812805, 41.005096], [35.734726, 41.026695], [35.657532, 41.047935], [35.578663, 41.06971], [35.531071, 41.08289], [35.525879, 41.084183], [35.520458, 41.08593], [35.513382, 41.087742], [35.509293, 41.088917], [35.503803, 41.090359], [35.498436, 41.091896], [35.493416, 41.093292], [35.486816, 41.095139], [35.478134, 41.097477], [35.399139, 41.119183], [35.320656, 41.140553], [35.242001, 41.162098], [35.168274, 41.182182], [35.09021, 41.203281], [35.009705, 41.224926], [34.937553, 41.244408], [34.873272, 41.261177], [34.867908, 41.262566], [34.863033, 41.263885], [34.857998, 41.265259], [34.852867, 41.266666], [34.847759, 41.26807], [34.841705, 41.269695], [34.832565, 41.272125], [34.828667, 41.272961], [34.821316, 41.271904], [34.817413, 41.276222], [34.811752, 41.277649], [34.806107, 41.279186], [34.800133, 41.280842], [34.792225, 41.282856], [34.787975, 41.2841], [34.780125, 41.286114], [34.773903, 41.287823], [34.765163, 41.290112], [34.760132, 41.291492], [34.753914, 41.293167], [34.749008, 41.294575], [34.743843, 41.295925], [34.733765, 41.298634], [34.728271, 41.300022], [34.72192, 41.301636], [34.717648, 41.302681], [34.711651, 41.304352], [34.70652, 41.305851], [34.699409, 41.307858], [34.69635, 41.308575], [34.684414, 41.311893], [34.680321, 41.312981], [34.673603, 41.311974], [34.669441, 41.315914], [34.663765, 41.317139], [34.658276, 41.318722], [34.65094, 41.320778], [34.648117, 41.321373], [34.636044, 41.322292], [34.632153, 41.325726], [34.627052, 41.327011], [34.621208, 41.328461], [34.615803, 41.329041], [34.609985, 41.331249], [34.606087, 41.33279], [34.599785, 41.334297], [34.590229, 41.332905], [34.583122, 41.33757], [34.574516, 41.340836], [34.569824, 41.342041], [34.560345, 41.344658], [34.555355, 41.346008], [34.545166, 41.348671], [34.537441, 41.350723], [34.532269, 41.352142], [34.525452, 41.351433], [34.521126, 41.354809], [34.51656, 41.355991], [34.510353, 41.357788], [34.505493, 41.359055], [34.499954, 41.360535], [34.489319, 41.363293], [34.482533, 41.362679], [34.477699, 41.362339], [34.470425, 41.368324], [34.465073, 41.369568], [34.460312, 41.370872], [34.453873, 41.369812], [34.449402, 41.373692], [34.442879, 41.37542], [34.43784, 41.376766], [34.431068, 41.378708], [34.425781, 41.380157], [34.422173, 41.380989], [34.416134, 41.381126], [34.408325, 41.383591], [34.405373, 41.385426], [34.400803, 41.386795], [34.394821, 41.388153], [34.390255, 41.38945], [34.384911, 41.390785], [34.37912, 41.392269], [34.372532, 41.393974], [34.368382, 41.395042], [34.363201, 41.396526], [34.357769, 41.397869], [34.352699, 41.399231], [34.34399, 41.401417], [34.33886, 41.402977], [34.332886, 41.404465], [34.328094, 41.405598], [34.322529, 41.407154], [34.316895, 41.408684], [34.312752, 41.409698], [34.307659, 41.410973], [34.301426, 41.412514], [34.297131, 41.413746], [34.291538, 41.415173], [34.286034, 41.416649], [34.28096, 41.417927], [34.27594, 41.419209], [34.26804, 41.421314], [34.260033, 41.423389], [34.254791, 41.424713], [34.249954, 41.426285], [34.244511, 41.427361], [34.238514, 41.428913], [34.234062, 41.430084], [34.228642, 41.431416], [34.218685, 41.434025], [34.212288, 41.435795], [34.208305, 41.436829], [34.202126, 41.438408], [34.19228, 41.440975], [34.187187, 41.440655], [34.182194, 41.442039], [34.172096, 41.444649], [34.165268, 41.446911], [34.16082, 41.448074], [34.150688, 41.450993], [34.145451, 41.451832], [34.141876, 41.452118], [34.134987, 41.454517], [34.104744, 41.463955], [34.096348, 41.465618], [34.085339, 41.469124], [34.080734, 41.470028], [34.074657, 41.471355], [34.070133, 41.47179], [34.064804, 41.473015], [34.059326, 41.474407], [34.055012, 41.475769], [34.049114, 41.477455], [34.040356, 41.479664], [34.034523, 41.481186], [34.030609, 41.482162], [34.023544, 41.484234], [34.01701, 41.486176], [34.012947, 41.487244], [33.935863, 41.509541], [33.926685, 41.509518], [33.921375, 41.510712], [33.916386, 41.512169], [33.911213, 41.51334], [33.905029, 41.51535], [33.898354, 41.517384], [33.893936, 41.518433], [33.888916, 41.519798], [33.883705, 41.521118], [33.877712, 41.522655], [33.872345, 41.524025], [33.867371, 41.525307], [33.857166, 41.527828], [33.85194, 41.529182], [33.845108, 41.530952], [33.841003, 41.532051], [33.835846, 41.533356], [33.830296, 41.534725], [33.825367, 41.536034], [33.766777, 41.550751], [33.76099, 41.552258], [33.755665, 41.553638], [33.750217, 41.555077], [33.744541, 41.556469], [33.739281, 41.557926], [33.73262, 41.559776], [33.722183, 41.562416], [33.717152, 41.563694], [33.712704, 41.563889], [33.705948, 41.566448], [33.700848, 41.567669], [33.694683, 41.569271], [33.68898, 41.570847], [33.684395, 41.57201], [33.67907, 41.57328], [33.673985, 41.57452], [33.669071, 41.575829], [33.663898, 41.576008], [33.657883, 41.577724], [33.650818, 41.581093], [33.645966, 41.581425], [33.641273, 41.582245], [33.629837, 41.585354], [33.624134, 41.586956], [33.618965, 41.588078], [33.613522, 41.589363], [33.605721, 41.592236], [33.604309, 41.593384], [33.596851, 41.59333], [33.591396, 41.595112], [33.582909, 41.597439], [33.578209, 41.598034], [33.572353, 41.599747], [33.567436, 41.601059], [33.561764, 41.602497], [33.550568, 41.605309], [33.544502, 41.606987], [33.539635, 41.608124], [33.535088, 41.608551], [33.529198, 41.610497], [33.52393, 41.611973], [33.518059, 41.613438], [33.512695, 41.614803], [33.507095, 41.616211], [33.501846, 41.616982], [33.496078, 41.61911], [33.489933, 41.620369], [33.485592, 41.621681], [33.467674, 41.626225], [33.462353, 41.627422], [33.456909, 41.62888], [33.451778, 41.630184], [33.446285, 41.631622], [33.440563, 41.633457], [33.43549, 41.634418], [33.429958, 41.635464], [33.423561, 41.637413], [33.418907, 41.63858], [33.413239, 41.639957], [33.407738, 41.641308], [33.402531, 41.642639], [33.396999, 41.644024], [33.391167, 41.645515], [33.385345, 41.646942], [33.380722, 41.64809], [33.375473, 41.649345], [33.369759, 41.650879], [33.364529, 41.652214], [33.358871, 41.653622], [33.352894, 41.65514], [33.269783, 41.675747], [33.248978, 41.680965], [33.240448, 41.683163], [33.234581, 41.684635], [33.229599, 41.685902], [33.223824, 41.68734], [33.217403, 41.68895], [33.213779, 41.689877], [33.208271, 41.691238], [33.20343, 41.692413], [33.195984, 41.694248], [33.19215, 41.695221], [33.186882, 41.696579], [33.180683, 41.69812], [33.175522, 41.699398], [33.169674, 41.700722], [33.165398, 41.701847], [33.159409, 41.7033], [33.153385, 41.703827], [33.148483, 41.705925], [33.143505, 41.707062], [33.137592, 41.708664], [33.133446, 41.709652], [33.124043, 41.711128], [33.120972, 41.712727], [33.113266, 41.714672], [33.108112, 41.716015], [33.102581, 41.717213], [33.097389, 41.718597], [33.090714, 41.7202], [33.086369, 41.721272], [33.081142, 41.722519], [33.07539, 41.723797], [33.069527, 41.725292], [33.063931, 41.72673], [33.056667, 41.72805], [33.050716, 41.729973], [33.044781, 41.731327], [33.036343, 41.733307], [33.031559, 41.734539], [33.026272, 41.73587], [33.020496, 41.737358], [33.014458, 41.738827], [33.009624, 41.740067], [33.004669, 41.741199], [32.999226, 41.742508], [32.993992, 41.743801], [32.987404, 41.745468], [32.983349, 41.746368], [32.976757, 41.748077], [32.972488, 41.749058], [32.967155, 41.750305], [32.961212, 41.751785], [32.955349, 41.753326], [32.950672, 41.754341], [32.945427, 41.755699], [32.939705, 41.75703], [32.934784, 41.758263], [32.929638, 41.759518], [32.924114, 41.760864], [32.917797, 41.762371], [32.911682, 41.764004], [32.906372, 41.76519], [32.901428, 41.766399], [32.896, 41.76775], [32.890663, 41.76902], [32.885746, 41.770058], [32.879864, 41.771679], [32.874271, 41.773014], [32.868538, 41.774651], [32.862286, 41.776081], [32.855492, 41.778172], [32.852848, 41.778267], [32.847111, 41.779705], [32.841621, 41.780895], [32.834637, 41.782715], [32.831146, 41.78355], [32.824406, 41.78513], [32.819153, 41.786381], [32.811623, 41.788292], [32.803535, 41.789833], [32.798286, 41.79129], [32.782066, 41.795284], [32.775288, 41.79871], [32.765537, 41.799419], [32.760452, 41.800514], [32.75486, 41.802002], [32.749096, 41.803429], [32.743591, 41.80471], [32.737926, 41.806179], [32.731888, 41.80764], [32.726826, 41.808868], [32.721638, 41.81015], [32.71574, 41.81155], [32.710201, 41.812824], [32.704655, 41.814148], [32.698849, 41.815765], [32.694618, 41.816319], [32.68866, 41.818047], [32.678459, 41.820507], [32.672951, 41.821728], [32.666794, 41.823265], [32.660946, 41.824654], [32.656094, 41.825821], [32.649559, 41.827518], [32.645123, 41.828442], [32.64077, 41.827942], [32.634239, 41.831944], [32.628887, 41.83255], [32.621532, 41.834427], [32.618378, 41.835136], [32.612339, 41.836533], [32.606518, 41.837971], [32.599586, 41.839718], [32.595856, 41.840599], [32.589661, 41.842064], [32.585175, 41.843132], [32.578323, 41.84481], [32.573772, 41.845917], [32.569168, 41.84697], [32.562355, 41.848579], [32.558273, 41.849583], [32.538795, 41.854427], [32.532806, 41.855793], [32.52634, 41.85722], [32.520744, 41.858559], [32.515293, 41.85984], [32.510632, 41.860729], [32.505138, 41.862198], [32.496689, 41.86409], [32.490135, 41.86594], [32.484543, 41.866928], [32.479713, 41.868526], [32.473343, 41.869923], [32.46666, 41.87611], [32.459946, 41.872952], [32.45541, 41.874107], [32.448524, 41.876083], [32.433796, 41.879383], [32.427441, 41.880951], [32.420048, 41.8825], [32.402794, 41.883476], [32.389702, 41.886497], [32.384247, 41.889034], [32.346661, 41.895485], [32.351006, 41.897423], [32.330818, 41.904739], [32.323162, 41.905647], [32.29076, 41.910267], [32.250732, 41.918636], [32.252052, 41.922848], [32.237591, 41.927204], [32.178463, 41.941025], [32.1227, 41.950962], [32.108219, 41.953671], [32.10601, 41.955963], [32.097607, 41.957623], [32.095402, 41.959698], [32.090576, 41.960598], [32.084686, 41.962406], [32.077442, 41.964317], [32.071419, 41.96542], [32.065357, 41.967033], [32.057587, 41.968765], [32.052826, 41.969997], [32.046265, 41.97197], [32.04097, 41.972496], [32.035755, 41.974167], [32.024944, 41.976875], [32.017612, 41.978642], [31.992491, 41.985554], [31.963436, 41.992195], [31.958189, 41.993355], [31.950882, 41.994705], [31.944326, 41.995914], [31.938639, 41.997242], [31.932377, 41.998245], [31.928452, 42.000252], [31.921261, 42.002243], [31.917204, 42.003052], [31.9102, 42.002762], [31.902935, 42.006546], [31.898094, 42.007591], [31.882065, 42.010521], [31.87669, 42.011742], [31.871069, 42.013031], [31.865685, 42.014462], [31.859995, 42.015636], [31.856676, 42.019184], [31.841261, 42.020294], [31.83597, 42.021713], [31.828505, 42.023525], [31.824907, 42.023773], [31.818983, 42.025097], [31.812782, 42.026913], [31.803974, 42.025951], [31.802814, 42.029213], [31.796198, 42.031105], [31.78196, 42.033531], [31.775589, 42.035278], [31.76956, 42.036434], [31.764647, 42.037514], [31.759943, 42.03875], [31.750528, 42.041096], [31.746746, 42.042202], [31.74206, 42.043056], [31.736885, 42.044205], [31.730494, 42.045532], [31.725414, 42.046677], [31.719624, 42.048008], [31.713917, 42.049381], [31.708033, 42.049992], [31.703131, 42.052166], [31.698154, 42.052994], [31.692457, 42.054405], [31.687485, 42.055706], [31.682119, 42.05698], [31.676268, 42.058323], [31.671175, 42.059544], [31.666185, 42.060879], [31.658138, 42.062717], [31.650143, 42.064896], [31.644859, 42.066231], [31.639015, 42.067665], [31.632954, 42.06863], [31.627363, 42.069893], [31.622318, 42.071064], [31.588581, 42.078785], [31.584436, 42.08017], [31.578936, 42.080616], [31.573347, 42.082283], [31.567974, 42.083179], [31.562145, 42.084621], [31.557661, 42.087074], [31.55287, 42.088421], [31.5466, 42.088238], [31.540056, 42.089699], [31.53507, 42.091202], [31.530127, 42.091759], [31.523584, 42.093449], [31.519676, 42.094395], [31.514435, 42.095547], [31.508459, 42.096848], [31.503569, 42.097919], [31.498138, 42.099205], [31.49308, 42.100433], [31.487383, 42.101707], [31.481733, 42.102913], [31.475735, 42.104156], [31.471188, 42.105206], [31.460117, 42.107857], [31.454304, 42.109062], [31.448614, 42.110371], [31.443434, 42.111389], [31.438053, 42.112751], [31.432171, 42.113728], [31.428249, 42.115032], [31.42309, 42.116169], [31.417721, 42.11739], [31.412165, 42.118618], [31.406506, 42.1199], [31.401018, 42.121208], [31.394087, 42.122726], [31.390102, 42.123604], [31.385073, 42.124676], [31.380318, 42.130821], [31.36483, 42.129196], [31.361294, 42.130245], [31.355642, 42.131672], [31.350536, 42.132694], [31.34581, 42.133717], [31.339113, 42.13509], [31.333487, 42.136303], [31.3291, 42.13723], [31.323719, 42.13868], [31.316008, 42.140476], [31.312658, 42.141281], [31.30764, 42.142517], [31.301352, 42.143993], [31.219423, 42.1628], [31.139721, 42.180786], [31.06122, 42.199196], [31.045513, 42.202587], [31.040501, 42.203857], [31.034937, 42.205139], [31.029514, 42.206398], [31.024397, 42.207581], [31.019077, 42.208786], [31.011908, 42.210369], [31.006495, 42.211567], [31.00288, 42.212429], [30.996447, 42.213951], [30.99062, 42.215244], [30.984316, 42.216682], [30.98065, 42.217377], [30.971085, 42.219627], [30.928974, 42.229229], [30.923031, 42.230572], [30.917067, 42.23188], [30.907743, 42.234024], [30.903297, 42.23502], [30.896402, 42.236534], [30.891281, 42.237747], [30.886799, 42.238758], [30.881624, 42.239872], [30.866407, 42.243328], [30.861242, 42.244461], [30.850651, 42.246994], [30.845919, 42.24799], [30.839647, 42.24939], [30.833801, 42.250713], [30.828896, 42.251804], [30.823771, 42.252949], [30.818336, 42.254173], [30.813272, 42.255356], [30.806995, 42.256744], [30.802567, 42.257725], [30.796698, 42.25906], [30.791407, 42.260262], [30.785835, 42.261463], [30.779278, 42.262939], [30.700691, 42.280476], [30.620001, 42.298389], [30.539328, 42.316242], [30.459393, 42.333927], [30.379255, 42.351696], [29.899439, 42.455784], [29.816902, 42.473389], [29.739468, 42.489407], [29.657072, 42.5065], [29.576742, 42.522991], [29.495237, 42.539722], [29.412956, 42.556458], [29.328424, 42.573624], [29.246664, 42.590229], [29.164028, 42.60693], [29.079645, 42.624016], [28.997217, 42.640446], [28.913046, 42.655319], [28.82992, 42.668087], [28.746763, 42.679974], [28.661583, 42.691582], [28.57608, 42.703007], [28.491228, 42.714588], [28.407495, 42.726051], [28.323914, 42.737568], [28.239872, 42.749172], [28.154608, 42.760841], [28.069984, 42.772449], [28.003643, 42.781715], [27.997627, 42.78241], [27.992413, 42.783131], [27.986427, 42.784042], [27.981318, 42.784809], [27.975931, 42.785614], [27.970083, 42.786362], [27.964687, 42.787075], [27.959192, 42.787819], [27.94829, 42.789417], [27.942625, 42.790195], [27.930878, 42.791748], [27.925354, 42.792503], [27.841293, 42.803932], [27.758415, 42.815071], [27.674152, 42.826336], [27.590162, 42.837505], [27.507927, 42.848408], [27.423286, 42.859631], [27.339212, 42.870716], [27.255716, 42.881618], [27.172989, 42.895348], [27.090014, 42.911842], [27.010971, 42.926903], [26.929348, 42.941803], [26.845596, 42.956825], [26.762697, 42.972271], [26.679924, 42.987984], [26.598366, 43.003441], [26.515757, 43.019093], [26.43412, 43.034618], [26.352343, 43.049984], [26.27039, 43.064999], [26.187944, 43.080349], [26.106279, 43.095303], [26.025591, 43.1101], [25.94212, 43.12524], [25.892763, 43.134239], [25.812609, 43.148777], [25.729704, 43.163715], [25.648684, 43.178257], [25.565989, 43.193153], [25.483999, 43.207687], [25.401176, 43.222359], [25.319983, 43.236641], [24.656065, 43.351547], [24.572865, 43.367653], [24.492422, 43.384857], [24.40962, 43.40321], [24.328072, 43.421627], [24.243753, 43.440479], [24.161654, 43.458569], [24.079208, 43.476551], [23.997025, 43.494385], [23.913578, 43.512497], [23.829874, 43.530384], [23.745966, 43.548126], [23.662348, 43.565865], [23.579273, 43.583389], [23.495884, 43.600983], [23.412788, 43.618317], [23.328674, 43.635811], [23.24485, 43.653267], [23.159407, 43.670937], [23.076267, 43.688148], [22.991619, 43.705456], [22.90683, 43.722778], [22.821871, 43.740025], [22.736603, 43.757336], [22.649933, 43.774822], [22.564859, 43.791893], [22.478308, 43.809204], [22.392263, 43.826267], [22.304783, 43.843613], [22.221634, 43.86002], [22.134192, 43.877201], [22.046768, 43.894211], [21.959084, 43.911266], [21.870548, 43.928547], [21.781536, 43.945747], [21.692289, 43.962811], [21.604494, 43.979656], [21.515841, 43.996513], [21.427179, 44.013195], [21.339863, 44.029686], [21.250248, 44.046623], [21.161057, 44.063198], [21.071671, 44.079803], [20.977528, 44.097286], [20.88715, 44.113838], [20.803637, 44.129082], [20.71063, 44.146053], [20.621355, 44.162251], [20.533203, 44.178146], [20.443747, 44.194202], [20.354475, 44.210148], [20.264601, 44.22617], [20.175426, 44.242023], [20.086191, 44.257694], [19.99626, 44.273472], [19.9058, 44.289261], [19.815069, 44.304981], [19.725023, 44.320488], [19.633154, 44.336266], [19.543102, 44.3517], [19.451431, 44.36729], [19.360903, 44.382557], [19.270149, 44.397751], [19.17808, 44.413189], [19.088123, 44.428177], [18.99519, 44.443485], [18.903105, 44.458702], [18.810354, 44.473881], [18.719055, 44.488766], [18.625675, 44.503826], [18.533873, 44.518623], [18.441124, 44.533482], [18.348297, 44.548286], [18.256704, 44.562786], [18.164083, 44.57729], [18.071619, 44.591789], [17.97913, 44.606174], [17.8873, 44.620438], [17.061747, 44.744671], [14.869867, 45.04311], [13.941119, 45.156002], [13.848565, 45.166744], [13.755607, 45.177616], [13.662243, 45.188385], [13.569391, 45.1991], [13.47554, 45.21032], [13.380072, 45.221703], [13.286241, 45.232685], [13.192227, 45.243622], [13.097708, 45.254444], [13.00198, 45.26545], [12.905885, 45.276302], [12.811295, 45.286865], [12.717182, 45.297291], [12.623814, 45.307781], [12.528395, 45.31826], [12.43354, 45.328606], [12.338384, 45.33889], [12.242708, 45.341801], [12.147143, 45.340485], [12.052031, 45.339424], [11.956051, 45.338497], [11.86086, 45.337585], [11.762371, 45.336727], [11.665527, 45.335892], [11.567749, 45.335148], [11.469647, 45.339664], [11.372085, 45.351593], [11.277201, 45.363377], [11.175073, 45.376122], [11.078634, 45.388245], [10.982657, 45.400368], [10.885474, 45.412601], [10.788532, 45.424614], [10.690441, 45.436707], [10.591962, 45.448833], [10.494586, 45.46067], [10.397017, 45.472446], [10.299509, 45.4841], [10.199817, 45.495987], [10.100812, 45.507671], [10.001904, 45.519257], [9.903985, 45.530666], [9.804771, 45.542095], [9.706593, 45.553226], [9.607546, 45.564476], [9.512103, 45.575241], [8.606683, 45.672939], [8.508904, 45.683048], [8.414728, 45.692631], [8.321349, 45.702087], [8.22951, 45.71143], [8.138832, 45.720402], [8.04913, 45.729218], [7.960968, 45.73782], [7.870878, 45.746643], [7.786582, 45.754871], [7.699595, 45.764091], [7.617123, 45.780472], [7.537282, 45.801197], [7.462115, 45.820724], [7.383768, 45.841049], [7.304832, 45.861542], [7.225712, 45.882084], [7.148635, 45.902122], [7.071535, 45.922058], [6.996621, 45.941162], [6.922591, 45.960186], [6.849413, 45.978817], [6.776747, 45.997417], [6.710351, 46.014347], [6.646379, 46.030499], [6.5829, 46.046558], [6.550457, 46.057976], [6.546812, 46.059494], [6.543011, 46.061096], [6.539396, 46.062691], [6.535556, 46.064461], [6.531904, 46.066132], [6.520643, 46.071629], [6.464766, 46.097824], [6.42267, 46.119984], [6.419893, 46.122303], [6.416713, 46.125145], [6.414523, 46.12738], [6.412099, 46.130039], [6.409686, 46.132843], [6.407653, 46.135521], [6.406071, 46.138245], [6.404562, 46.141052], [6.403038, 46.144173], [6.401574, 46.147381], [6.400585, 46.150307], [6.399715, 46.153461], [6.399196, 46.156658], [6.398814, 46.159683], [6.398747, 46.162518], [6.398807, 46.166054], [6.399036, 46.169136], [6.399559, 46.17218], [6.400407, 46.17556], [6.401415, 46.178574], [6.402727, 46.181587], [6.404075, 46.184372], [6.405765, 46.187595], [6.409525, 46.193375], [6.415214, 46.201702], [6.417121, 46.204647], [6.41907, 46.207512], [6.42078, 46.210243], [6.424712, 46.216099], [6.42837, 46.221519], [6.456084, 46.261261], [6.468231, 46.278507], [6.478272, 46.292976], [6.48989, 46.309738], [6.500345, 46.325409], [6.509513, 46.338928], [6.518226, 46.352215], [6.528969, 46.367672], [6.537778, 46.380589], [6.54812, 46.395599], [6.557796, 46.407913], [6.560134, 46.412388], [6.560771, 46.4147], [6.561299, 46.417355], [6.561299, 46.419273], [6.560522, 46.422035], [6.560084, 46.424328], [6.559398, 46.426422], [6.557479, 46.430958], [6.556468, 46.433018], [6.555399, 46.435368], [6.55441, 46.437149], [6.553414, 46.439243], [6.552418, 46.441353], [6.550776, 46.445133], [6.549624, 46.447254], [6.547384, 46.451099], [6.546039, 46.453003], [6.544554, 46.454803], [6.542716, 46.456638], [6.540757, 46.458332], [6.538222, 46.460075], [6.535888, 46.461437], [6.533533, 46.462563], [6.530974, 46.463634], [6.528575, 46.464428], [6.526023, 46.465096], [6.523232, 46.465656], [6.520194, 46.46608], [6.517262, 46.466351], [6.514438, 46.466427], [6.511561, 46.466366], [6.508633, 46.466198], [6.505979, 46.465935], [6.500081, 46.465485], [6.49414, 46.464767], [6.485481, 46.463936], [6.480316, 46.463264], [6.477564, 46.463028], [6.474732, 46.462692], [6.457482, 46.460739], [6.443445, 46.459682], [6.440752, 46.459221], [6.438254, 46.458508], [6.435924, 46.457691], [6.433373, 46.456738], [6.431152, 46.455643], [6.428925, 46.454487], [6.426706, 46.453125], [6.424983, 46.451805], [6.422914, 46.450394], [6.420767, 46.448879], [6.418881, 46.447491], [6.416758, 46.446281], [6.412811, 46.44379], [6.408768, 46.441002], [6.406912, 46.439632], [6.404996, 46.438347], [6.392749, 46.430149], [6.380924, 46.422237], [6.369142, 46.414394], [6.355844, 46.405384], [6.343091, 46.396873], [6.332157, 46.389641], [6.321266, 46.382141], [6.314083, 46.37727], [6.308675, 46.373638], [6.301355, 46.368565], [6.296157, 46.365063], [6.289188, 46.360493], [6.282359, 46.355762], [6.275504, 46.35117], [6.270156, 46.347618], [6.263117, 46.342785], [6.25626, 46.338142], [6.250822, 46.334576], [6.245392, 46.33078], [6.238213, 46.326035], [6.231579, 46.32148], [6.224921, 46.316971], [6.218034, 46.312263], [6.210721, 46.30748], [6.205438, 46.30378], [6.198832, 46.299328], [6.192542, 46.294888], [6.187919, 46.291828], [6.181615, 46.287571], [6.175341, 46.283306], [6.168871, 46.278996], [6.164775, 46.276012], [6.158947, 46.272141], [6.151608, 46.26693], [6.146988, 46.263893], [6.140487, 46.259537], [6.136065, 46.256561], [6.129902, 46.252304], [6.124878, 46.248905], [6.119318, 46.245117], [6.115432, 46.242462], [6.111547, 46.239807], [6.107986, 46.237392], [6.1033, 46.234203], [6.102081, 46.233238], [6.101807, 46.232948], [6.101415, 46.232414], [6.101171, 46.231995], [6.100879, 46.231293], [6.10088, 46.231075], [6.10108, 46.230904], [6.101297, 46.230812], [6.101498, 46.230804], [6.101721, 46.230877], [6.102235, 46.231224], [6.102905, 46.231598], [6.106098, 46.233772], [6.106623, 46.234222], [6.106871, 46.234322], [6.107094, 46.234253], [6.107283, 46.23402], [6.107969, 46.233528], [6.108175, 46.233448], [6.108432, 46.233524], [6.108633, 46.233696], [6.108834, 46.23381], [6.109052, 46.233765], [6.109257, 46.233578], [6.109703, 46.23325]]}, "properties": {"name": "7_csv/Malaysia December 2025/EK83_3d79e90f.csv", "cmt": "2025-12-12", "tstamp": 1765497600, "desc": "DownHill", "src": "6.100879/25.253586/55.370434/46.466427", "bbox": "6.100879/25.253586/55.370434/46.466427"}}]}