{"type": "FeatureCollection", "name": "TrackSet", "crs": {"type": "name", "properties": {"name": "urn:ogc:def:crs:OGC:1.3:CRS84"}}, "bbox": [4.413681, 45.987698, 6.699195, 50.911507], "features": [{"type": "Feature", "bbox": [4.413681, 45.987698, 6.699195, 50.911507], "geometry": {"type": "LineString", "coordinates": [[4.486389, 50.902042], [4.489403, 50.902893], [4.495869, 50.904778], [4.496155, 50.905048], [4.497242, 50.907768], [4.497814, 50.909096], [4.498011, 50.90934], [4.498808, 50.909946], [4.49944, 50.910828], [4.499476, 50.911171], [4.499328, 50.91148], [4.499111, 50.911507], [4.498825, 50.911377], [4.49749, 50.910995], [4.493742, 50.909912], [4.485626, 50.907574], [4.474716, 50.904408], [4.464606, 50.901581], [4.458694, 50.899845], [4.451616, 50.897736], [4.442782, 50.895035], [4.434052, 50.892395], [4.427119, 50.890228], [4.425412, 50.889633], [4.423482, 50.888855], [4.421387, 50.887787], [4.419785, 50.886856], [4.418335, 50.885834], [4.417024, 50.884689], [4.415836, 50.883362], [4.414796, 50.881851], [4.414139, 50.880341], [4.413757, 50.878922], [4.413681, 50.877453], [4.413757, 50.87587], [4.414054, 50.874573], [4.414796, 50.872787], [4.415613, 50.871368], [4.416727, 50.869995], [4.418434, 50.868301], [4.419937, 50.867023], [4.421329, 50.866013], [4.423259, 50.864731], [4.425709, 50.863174], [4.427338, 50.862091], [4.429791, 50.860565], [4.434022, 50.858047], [4.436101, 50.856857], [4.438248, 50.855667], [4.443376, 50.852875], [4.445724, 50.851711], [4.448127, 50.850449], [4.45137, 50.848824], [4.454041, 50.847519], [4.456329, 50.846355], [4.459076, 50.845051], [4.461711, 50.843719], [4.464645, 50.842304], [4.467239, 50.841095], [4.470767, 50.839371], [4.476852, 50.836533], [4.4894, 50.83049], [4.499207, 50.825687], [4.513092, 50.818798], [4.522804, 50.813828], [4.546432, 50.801247], [4.569016, 50.788864], [4.589761, 50.777115], [4.603043, 50.767963], [4.60587, 50.765762], [4.608917, 50.763214], [4.612105, 50.760498], [4.615149, 50.757935], [4.618043, 50.755417], [4.621048, 50.752834], [4.623795, 50.750458], [4.626617, 50.74799], [4.630218, 50.744797], [4.651374, 50.72644], [4.669858, 50.710693], [4.69235, 50.691833], [4.71551, 50.672607], [4.7393, 50.653015], [4.759456, 50.636311], [4.78339, 50.616623], [4.834635, 50.574234], [4.887832, 50.53006], [4.940359, 50.486179], [4.993503, 50.44162], [5.04735, 50.396347], [5.102481, 50.349831], [5.156522, 50.304302], [5.212493, 50.256958], [5.26939, 50.208618], [5.325189, 50.161057], [5.984658, 49.590363], [6.045895, 49.539028], [6.107604, 49.48938], [6.169046, 49.43964], [6.229971, 49.38969], [6.290613, 49.339741], [6.350604, 49.290253], [6.412142, 49.239395], [6.47306, 49.188904], [6.533133, 49.139008], [6.58898, 49.085953], [6.634334, 49.02887], [6.66899, 48.969322], [6.69335, 48.906052], [6.698263, 48.881664], [6.698702, 48.876709], [6.698986, 48.872635], [6.699195, 48.868561], [6.699195, 48.86412], [6.699131, 48.859692], [6.698914, 48.854618], [6.698843, 48.851669], [6.698421, 48.842926], [6.698263, 48.838745], [6.696311, 48.776875], [6.694649, 48.714401], [6.692857, 48.651993], [6.690814, 48.590652], [6.688867, 48.528286], [6.687012, 48.466736], [6.68504, 48.405304], [6.683209, 48.343597], [6.681278, 48.282211], [6.679406, 48.220871], [6.677434, 48.158756], [6.675462, 48.096981], [6.673561, 48.036976], [6.671722, 47.975601], [6.6698, 47.913483], [6.667786, 47.849091], [6.665886, 47.787964], [6.664032, 47.7258], [6.662152, 47.664791], [6.660187, 47.60289], [6.658195, 47.539581], [6.650743, 47.292839], [6.64856, 47.236324], [6.646095, 47.225662], [6.644737, 47.221893], [6.643066, 47.218029], [6.641373, 47.214752], [6.639404, 47.21151], [6.636658, 47.207413], [6.634094, 47.204178], [6.631554, 47.201248], [6.628489, 47.198105], [6.625249, 47.195076], [6.621094, 47.19154], [6.617432, 47.188606], [6.614868, 47.1866], [6.611375, 47.183857], [6.607079, 47.180599], [6.603839, 47.178085], [6.599487, 47.174881], [6.596375, 47.172501], [6.592853, 47.169846], [6.589531, 47.167374], [6.586092, 47.164818], [6.581635, 47.161514], [6.528557, 47.121964], [6.476303, 47.082321], [6.427002, 47.044556], [6.376507, 47.005657], [6.327421, 46.967808], [6.278549, 46.930069], [6.229935, 46.892532], [6.181618, 46.855362], [6.133452, 46.818512], [6.085086, 46.781204], [6.037125, 46.74408], [5.989693, 46.707458], [5.94223, 46.670712], [5.896088, 46.63496], [5.850688, 46.598923], [5.845463, 46.593063], [5.843119, 46.589905], [5.841243, 46.586929], [5.839851, 46.584171], [5.838478, 46.5811], [5.837492, 46.578186], [5.836554, 46.574387], [5.836152, 46.571823], [5.835938, 46.568577], [5.835938, 46.565273], [5.836212, 46.562199], [5.836555, 46.559872], [5.837448, 46.556103], [5.838341, 46.55331], [5.839434, 46.550537], [5.841087, 46.547115], [5.842804, 46.544231], [5.844526, 46.541656], [5.846512, 46.539017], [5.848709, 46.536503], [5.85109, 46.533966], [5.853971, 46.531128], [5.85645, 46.528748], [5.858871, 46.526356], [5.861474, 46.523895], [5.863752, 46.521744], [5.866837, 46.518814], [5.86924, 46.516438], [5.871858, 46.513962], [5.874458, 46.511459], [5.87693, 46.509037], [5.879333, 46.506664], [5.881874, 46.504196], [5.919434, 46.466862], [5.956306, 46.429573], [5.993179, 46.392376], [6.019066, 46.364632], [6.021126, 46.361187], [6.022568, 46.358303], [6.023735, 46.35537], [6.024628, 46.352623], [6.025383, 46.349781], [6.025726, 46.347641], [6.026001, 46.344589], [6.02607, 46.341682], [6.025864, 46.338795], [6.025314, 46.33535], [6.024559, 46.332558], [6.02379, 46.330444], [6.022518, 46.327332], [6.021194, 46.324875], [6.019341, 46.32185], [6.017627, 46.319458], [6.015551, 46.316849], [6.013407, 46.31456], [6.011032, 46.312355], [6.008766, 46.310444], [6.005636, 46.30806], [6.002724, 46.306068], [6.000458, 46.304581], [5.996819, 46.302299], [5.993913, 46.300598], [5.991119, 46.298992], [5.987274, 46.296806], [5.981644, 46.293686], [5.977902, 46.291672], [5.974846, 46.289963], [5.972443, 46.288704], [5.969327, 46.287003], [5.965241, 46.284851], [5.962428, 46.283295], [5.914627, 46.257793], [5.895773, 46.247635], [5.873934, 46.235825], [5.855244, 46.225571], [5.8358, 46.214874], [5.815063, 46.203327], [5.797417, 46.193413], [5.777985, 46.182148], [5.761368, 46.172371], [5.742835, 46.161575], [5.726423, 46.152237], [5.709732, 46.14323], [5.688995, 46.133549], [5.668259, 46.123352], [5.648781, 46.112778], [5.632436, 46.103851], [5.619909, 46.096161], [5.617229, 46.093826], [5.615387, 46.091976], [5.61367, 46.089973], [5.612004, 46.087692], [5.61058, 46.08532], [5.609525, 46.08316], [5.608727, 46.08099], [5.607903, 46.078152], [5.607516, 46.076477], [5.606913, 46.073639], [5.606667, 46.071819], [5.606255, 46.069305], [5.605439, 46.062286], [5.605225, 46.059948], [5.60495, 46.057575], [5.604769, 46.055466], [5.604263, 46.050686], [5.604099, 46.048553], [5.60289, 46.035183], [5.603371, 46.026478], [5.603965, 46.024429], [5.604813, 46.022472], [5.605911, 46.020424], [5.607248, 46.018433], [5.608521, 46.016693], [5.611602, 46.013214], [5.614952, 46.009735], [5.616626, 46.008087], [5.619976, 46.004929], [5.621635, 46.003342], [5.623558, 46.001526], [5.627144, 45.998199], [5.630768, 45.995193], [5.633307, 45.99353], [5.635316, 45.992386], [5.637428, 45.991329], [5.640341, 45.990143], [5.642216, 45.989548], [5.644963, 45.988815], [5.648111, 45.98822], [5.650925, 45.9879], [5.653908, 45.987698], [5.656654, 45.987698], [5.6595, 45.987762], [5.662216, 45.987885], [5.667605, 45.988266], [5.673065, 45.98877], [5.675468, 45.989048], [5.678525, 45.989365], [5.689176, 45.990601], [5.691789, 45.990875], [5.707397, 45.992477], [5.722805, 45.993805], [5.740156, 45.995453], [5.742433, 45.995865], [5.745314, 45.99646], [5.747635, 45.997055], [5.750038, 45.997707], [5.754433, 45.999245], [5.756561, 46.00013], [5.758645, 46.001038], [5.760788, 46.002045], [5.762798, 46.003052], [5.766586, 46.005108], [5.76844, 46.00618], [5.77359, 46.0093], [5.777402, 46.011703], [5.782722, 46.015213], [5.784704, 46.01651], [5.795489, 46.023743], [5.806, 46.030945], [5.816189, 46.037933], [5.828316, 46.046261], [5.840607, 46.054688], [5.851292, 46.062057], [5.861618, 46.069073], [5.873291, 46.077126], [5.883522, 46.08411], [5.893428, 46.090897], [5.89852, 46.094421], [5.905014, 46.098866], [5.911263, 46.103104], [5.917544, 46.107422], [5.923965, 46.111809], [5.930205, 46.116074], [5.937038, 46.120789], [5.943336, 46.125092], [5.949967, 46.129578], [5.956532, 46.134109], [5.96149, 46.137497], [5.968117, 46.142021], [5.974571, 46.146397], [5.97979, 46.149933], [5.986008, 46.15416], [5.99263, 46.158733], [5.998937, 46.163086], [6.005368, 46.16748], [6.011169, 46.171394], [6.015839, 46.174606], [6.021848, 46.178741], [6.0258, 46.181396], [6.031427, 46.185242], [6.037056, 46.189083], [6.042748, 46.192932], [6.048111, 46.196579], [6.053601, 46.200348], [6.057587, 46.203049], [6.062979, 46.206711], [6.068406, 46.210373], [6.072212, 46.213013], [6.077851, 46.216782], [6.081737, 46.219482], [6.08723, 46.223236], [6.092606, 46.226883], [6.097549, 46.230328], [6.101601, 46.233074], [6.105451, 46.235687], [6.112329, 46.240349], [6.115315, 46.242359], [6.11627, 46.242817], [6.117857, 46.243259], [6.118933, 46.242565], [6.118246, 46.24213], [6.117141, 46.241364], [6.114964, 46.239899], [6.114063, 46.239265], [6.113389, 46.238823], [6.109652, 46.236263], [6.10718, 46.2346], [6.106305, 46.233925], [6.1053, 46.233238], [6.105166, 46.233032], [6.105267, 46.23278], [6.105497, 46.232658], [6.106288, 46.232094], [6.106523, 46.231716], [6.106322, 46.23151], [6.106373, 46.231224], [6.106785, 46.230946]]}, "properties": {"name": "SN2721_3fed89a4", "cmt": "2026-05-29", "tstamp": 1780012800, "desc": "---", "src": "4.413681/45.987698/6.699195/50.911507", "bbox": "4.413681/45.987698/6.699195/50.911507"}}]}