{"type": "FeatureCollection", "name": "TrackSet", "crs": {"type": "name", "properties": {"name": "urn:ogc:def:crs:OGC:1.3:CRS84"}}, "bbox": [101.697823, 1.633681, 103.67067, 2.75037], "features": [{"type": "Feature", "bbox": [101.697823, 1.633681, 103.67067, 2.75037], "geometry": {"type": "LineString", "coordinates": [[101.700104, 2.75037], [101.699814, 2.750155], [101.69973, 2.749947], [101.699768, 2.749741], [101.700058, 2.749271], [101.700417, 2.748768], [101.70163, 2.746948], [101.701744, 2.746733], [101.701752, 2.7465], [101.701591, 2.746268], [101.697876, 2.743732], [101.697823, 2.743515], [101.700928, 2.738913], [101.708725, 2.727216], [101.712372, 2.72163], [101.715012, 2.717514], [101.718719, 2.711668], [101.722504, 2.705795], [101.726532, 2.699657], [101.730743, 2.69328], [101.734001, 2.6884], [101.738892, 2.681213], [101.744194, 2.673309], [101.747887, 2.667862], [101.753738, 2.659286], [101.758263, 2.652779], [101.762665, 2.646355]]}, "properties": {"name": "7_csv/Malaysia December 2025/MH1057_3d6e9e40.csv", "cmt": "2025-12-09", "tstamp": 1765238400, "desc": "UpHill", "src": "101.697823/1.633681/103.67067/2.75037", "bbox": "101.697823/1.633681/103.67067/2.75037"}}, {"type": "Feature", "bbox": [101.697823, 1.633681, 103.67067, 2.75037], "geometry": {"type": "LineString", "coordinates": [[101.768639, 2.637543], [101.774178, 2.629257], [101.778908, 2.622381], [101.782089, 2.618179], [101.783722, 2.616211], [101.785721, 2.613922], [101.787445, 2.612045], [101.78904, 2.610417], [101.791031, 2.608429], [101.792892, 2.606689], [101.796852, 2.603155], [101.800835, 2.599942], [101.802872, 2.59836], [101.807747, 2.594496], [101.812027, 2.59108], [101.814072, 2.589478], [101.827202, 2.578949], [101.839958, 2.568604], [101.853821, 2.557301], [101.867744, 2.546036], [101.880623, 2.535607], [101.894638, 2.524249], [101.910408, 2.5114], [101.923935, 2.500443], [101.937401, 2.489381], [101.951546, 2.477921], [101.965866, 2.466337], [101.980164, 2.454792], [101.994835, 2.442947], [102.011505, 2.429489], [102.025887, 2.417816], [102.042831, 2.404083], [102.057167, 2.392366], [102.071831, 2.380371], [102.086143, 2.368764], [102.101013, 2.356661], [102.137428, 2.327146], [102.17527, 2.296509], [102.211678, 2.266846], [102.248405, 2.236908], [102.28759, 2.205133], [102.326149, 2.173782], [102.3666, 2.140778], [102.407196, 2.10791], [102.446991, 2.075718], [102.485443, 2.044388], [102.523811, 2.0159], [102.527351, 2.013896], [102.530098, 2.012407], [102.532845, 2.010964], [102.536774, 2.009055], [102.542198, 2.006607], [102.545036, 2.005371], [102.548485, 2.003952], [102.551125, 2.002957], [102.554863, 2.00148], [102.558083, 2.000257], [102.560677, 1.999191], [102.563568, 1.998093], [102.611023, 1.978982], [102.655411, 1.960922], [102.701408, 1.942108], [102.746979, 1.923632], [102.789551, 1.906361], [102.832176, 1.889136], [102.87664, 1.87126], [102.919922, 1.853622], [102.938057, 1.846308], [102.955536, 1.839249], [102.974045, 1.831784], [102.991379, 1.824875], [103.008324, 1.817963], [103.02597, 1.811234], [103.040306, 1.807526], [103.043098, 1.806976], [103.046448, 1.806381], [103.05204, 1.805557], [103.055389, 1.805145], [103.061279, 1.804551], [103.06768, 1.804092], [103.076057, 1.803406], [103.093796, 1.801895], [103.112366, 1.800339], [103.12973, 1.798874], [103.147141, 1.797455], [103.16581, 1.795807], [103.183029, 1.794356], [103.201843, 1.792648], [103.219254, 1.791183], [103.238243, 1.789581], [103.256584, 1.788025], [103.273674, 1.78656], [103.291084, 1.785095], [103.307999, 1.783696], [103.324898, 1.782346], [103.341873, 1.780655], [103.358047, 1.778854], [103.373772, 1.777411], [103.389496, 1.776123], [103.405449, 1.774944], [103.420891, 1.77392], [103.428322, 1.773454], [103.437508, 1.772802], [103.44545, 1.772186], [103.454803, 1.771408], [103.46209, 1.770847], [103.47123, 1.770009], [103.487282, 1.768566], [103.500519, 1.767334], [103.509132, 1.766785], [103.51162, 1.766797], [103.513512, 1.76689], [103.515182, 1.767014], [103.517418, 1.767334], [103.519058, 1.767588], [103.521423, 1.768021], [103.523193, 1.768433], [103.526825, 1.769451], [103.529015, 1.770218], [103.531013, 1.77095], [103.534317, 1.772278], [103.539749, 1.774385], [103.54158, 1.775024], [103.545006, 1.776294], [103.546661, 1.776852], [103.550545, 1.778296], [103.553963, 1.77951], [103.565697, 1.783905], [103.570679, 1.785736], [103.58313, 1.790213], [103.589668, 1.792694], [103.594536, 1.794123], [103.596527, 1.794449], [103.598183, 1.794542], [103.599724, 1.794525], [103.601776, 1.794296], [103.603821, 1.793839], [103.605339, 1.793425], [103.607452, 1.792511], [103.608711, 1.79187], [103.610573, 1.790771], [103.612343, 1.78949], [103.613968, 1.787933], [103.615227, 1.78656], [103.616623, 1.784821], [103.618019, 1.782486], [103.618904, 1.780746], [103.619698, 1.778961], [103.620392, 1.77713], [103.621185, 1.774841], [103.62188, 1.772552], [103.622574, 1.770056], [103.623138, 1.768147], [103.624397, 1.764175], [103.625977, 1.759781], [103.627426, 1.755844], [103.629585, 1.750085], [103.631004, 1.74614], [103.633011, 1.740738], [103.635689, 1.733233], [103.63768, 1.72774], [103.639618, 1.722565], [103.642136, 1.715744], [103.644691, 1.709015], [103.647675, 1.700409], [103.648232, 1.698898], [103.648743, 1.697388], [103.649376, 1.695712], [103.649956, 1.694], [103.650604, 1.692215], [103.654007, 1.683151], [103.658379, 1.670837], [103.66069, 1.664475], [103.662895, 1.658524], [103.67038, 1.637964], [103.67067, 1.636871], [103.669823, 1.633797], [103.669502, 1.633681], [103.669098, 1.633953], [103.66877, 1.63481], [103.667442, 1.63607]]}, "properties": {"name": "7_csv/Malaysia December 2025/MH1057_3d6e9e40.csv", "cmt": "2025-12-09", "tstamp": 1765238400, "desc": "DownHill", "src": "101.697823/1.633681/103.67067/2.75037", "bbox": "101.697823/1.633681/103.67067/2.75037"}}]}