{"type": "FeatureCollection", "name": "TrackSet", "crs": {"type": "name", "properties": {"name": "urn:ogc:def:crs:OGC:1.3:CRS84"}}, "bbox": [4.066162, 46.225487, 6.24868, 50.99062], "features": [{"type": "Feature", "bbox": [4.066162, 46.225487, 6.24868, 50.99062], "geometry": {"type": "LineString", "coordinates": [[6.105394, 46.230003], [6.105171, 46.230179], [6.104982, 46.230389], [6.104881, 46.230606], [6.104731, 46.230812], [6.104513, 46.230961], [6.104731, 46.230789], [6.104879, 46.230587], [6.104764, 46.230377], [6.104496, 46.230217], [6.103832, 46.229748], [6.103642, 46.22953], [6.103173, 46.229507], [6.102939, 46.229599], [6.101721, 46.23048], [6.101463, 46.230549], [6.101257, 46.230515], [6.101051, 46.2304], [6.099335, 46.229198], [6.098356, 46.22855], [6.094872, 46.226162], [6.094431, 46.225868], [6.094116, 46.225708], [6.093845, 46.225616], [6.093443, 46.225525], [6.092863, 46.225487], [6.092103, 46.225513], [6.091618, 46.225605], [6.091366, 46.225731], [6.091216, 46.225983], [6.091421, 46.226139], [6.091696, 46.226292], [6.092354, 46.226727], [6.098551, 46.230927], [6.10421, 46.234798], [6.110207, 46.238892], [6.115098, 46.242188], [6.121651, 46.246624], [6.127419, 46.250626], [6.131744, 46.253651], [6.137472, 46.257614], [6.142898, 46.261368], [6.146851, 46.26416], [6.15255, 46.268223], [6.158112, 46.272087], [6.164223, 46.276417], [6.169167, 46.279907], [6.175254, 46.284256], [6.182623, 46.28952], [6.195396, 46.298622], [6.210357, 46.309113], [6.227119, 46.321152], [6.229248, 46.32312], [6.231171, 46.325157], [6.23275, 46.327251], [6.234192, 46.329437], [6.235277, 46.331543], [6.236416, 46.334381], [6.237086, 46.336807], [6.237622, 46.339142], [6.238091, 46.341843], [6.238962, 46.347336], [6.23996, 46.354904], [6.240784, 46.363144], [6.241306, 46.368759], [6.243316, 46.386841], [6.246071, 46.406528], [6.248543, 46.423382], [6.24868, 46.433857], [6.248405, 46.436508], [6.247938, 46.439941], [6.246866, 46.445389], [6.245661, 46.450928], [6.243736, 46.45932], [6.242157, 46.465977], [6.241373, 46.469147], [6.236732, 46.488041], [6.230759, 46.511551], [6.225765, 46.531586], [6.213455, 46.582588], [6.200958, 46.635334], [6.188049, 46.689381], [6.175621, 46.743149], [6.172508, 46.800797], [6.170197, 46.913544], [6.168964, 46.969021], [6.167837, 47.025768], [6.166763, 47.079575], [6.165665, 47.133499], [6.164457, 47.188282], [6.16333, 47.241714], [6.162274, 47.297306], [6.161147, 47.352379], [6.159879, 47.410057], [6.158682, 47.467922], [6.157562, 47.523148], [6.156326, 47.580414], [6.155159, 47.636719], [6.153964, 47.692905], [6.152687, 47.748367], [6.151428, 47.803795], [6.150352, 47.860153], [6.149245, 47.91552], [6.147949, 47.972214], [6.146713, 48.02916], [6.145442, 48.085903], [6.144173, 48.141449], [6.14302, 48.197906], [6.141709, 48.255249], [6.140418, 48.312191], [6.139245, 48.368591], [6.137888, 48.426712], [6.136732, 48.482712], [6.135512, 48.539291], [6.134274, 48.596348], [6.132973, 48.654026], [6.131709, 48.711365], [6.129721, 48.768452], [6.120831, 48.825523], [6.110863, 48.882568], [6.102201, 48.939148], [6.027663, 49.454132], [6.019207, 49.511673], [6.010822, 49.568985], [6.002321, 49.626129], [5.993339, 49.686691], [5.984947, 49.743301], [5.976488, 49.80056], [5.967817, 49.857925], [5.959288, 49.915146], [5.950976, 49.971863], [5.942193, 50.029831], [5.933557, 50.086853], [5.924956, 50.143478], [5.916435, 50.200352], [5.907453, 50.25975], [5.89847, 50.317524], [5.890305, 50.372269], [5.880209, 50.423336], [5.87848, 50.427017], [5.876674, 50.430267], [5.874123, 50.434414], [5.871895, 50.43758], [5.869298, 50.440887], [5.866338, 50.444412], [5.86321, 50.447727], [5.859254, 50.451553], [5.85593, 50.454483], [5.852447, 50.457413], [5.848557, 50.460388], [5.844281, 50.463417], [5.83945, 50.46666], [5.835836, 50.468948], [5.831736, 50.471565], [5.826295, 50.474945], [5.822609, 50.477188], [5.817706, 50.480129], [5.81343, 50.482681], [5.807865, 50.485886], [5.800039, 50.490463], [5.794472, 50.493629], [5.790807, 50.495728], [5.719396, 50.53569], [5.651204, 50.574677], [5.583657, 50.61438], [5.518922, 50.65242], [5.453969, 50.690414], [5.391318, 50.72699], [5.328293, 50.76368], [5.266953, 50.799244], [5.206629, 50.834152], [5.146204, 50.867661], [5.140934, 50.869858], [5.136337, 50.871635], [5.131951, 50.873245], [5.127572, 50.874756], [5.123118, 50.876175], [5.117625, 50.877777], [5.113449, 50.87899], [5.108795, 50.880199], [5.104446, 50.881317], [5.093689, 50.883877], [5.088959, 50.884949], [5.084666, 50.885971], [5.078801, 50.887299], [5.075016, 50.888123], [5.068929, 50.889496], [5.064549, 50.890503], [5.035248, 50.897099], [5.00206, 50.904827], [4.96727, 50.913017], [4.93828, 50.919708], [4.90985, 50.926163], [4.876175, 50.933781], [4.847569, 50.940216], [4.815063, 50.947605], [4.787216, 50.953983], [4.754111, 50.961594], [4.725342, 50.968182], [4.697113, 50.974701], [4.662781, 50.982613], [4.634523, 50.988419], [4.624863, 50.989597], [4.618912, 50.990063], [4.614258, 50.990341], [4.608917, 50.990482], [4.604385, 50.99057], [4.599609, 50.99062], [4.588623, 50.99062], [4.574432, 50.990482], [4.562988, 50.990295], [4.558792, 50.990204], [4.553909, 50.990154], [4.521942, 50.989597], [4.486356, 50.989059], [4.45343, 50.988712], [4.42363, 50.988464], [4.396461, 50.988281], [4.369738, 50.988098], [4.339447, 50.987736], [4.326386, 50.986633], [4.322675, 50.986084], [4.318369, 50.985352], [4.313812, 50.984478], [4.310055, 50.983704], [4.30627, 50.982834], [4.30137, 50.981735], [4.297256, 50.980751], [4.294169, 50.979996], [4.289493, 50.978897], [4.285583, 50.977913], [4.281693, 50.976936], [4.278581, 50.976196], [4.274572, 50.975189], [4.269673, 50.973999], [4.245622, 50.968048], [4.221573, 50.962177], [4.195328, 50.955894], [4.171687, 50.950333], [4.148081, 50.944885], [4.120636, 50.938576], [4.109555, 50.934814], [4.106511, 50.933441], [4.103394, 50.931828], [4.100424, 50.930099], [4.097061, 50.927822], [4.09456, 50.925842], [4.092484, 50.923866], [4.090576, 50.921909], [4.088593, 50.919537], [4.086691, 50.917007], [4.085236, 50.914883], [4.083786, 50.912693], [4.082413, 50.910458], [4.080887, 50.908039], [4.077759, 50.902916], [4.076818, 50.901306], [4.075037, 50.898376], [4.07402, 50.896587], [4.071325, 50.892105], [4.069841, 50.889404], [4.06868, 50.88718], [4.067688, 50.884853], [4.066849, 50.882248], [4.066315, 50.879547], [4.066162, 50.877266], [4.066238, 50.875126], [4.06662, 50.872612], [4.067307, 50.870377], [4.068375, 50.867771], [4.069767, 50.86528], [4.071251, 50.86322], [4.072952, 50.861065], [4.074814, 50.859055], [4.079056, 50.854969], [4.080976, 50.853149], [4.085058, 50.849213], [4.08699, 50.847427], [4.090997, 50.843628], [4.095078, 50.839699], [4.097307, 50.837631], [4.099579, 50.835323], [4.101486, 50.833508], [4.109268, 50.825966], [4.111411, 50.824036], [4.113341, 50.822525], [4.115642, 50.820923], [4.118881, 50.818985], [4.121017, 50.817913], [4.124624, 50.816299], [4.127502, 50.815258], [4.130562, 50.814331], [4.133682, 50.813583], [4.136963, 50.812931], [4.141103, 50.812363], [4.144518, 50.812134], [4.148026, 50.812092], [4.15157, 50.812225], [4.155731, 50.812607], [4.158919, 50.813049], [4.162216, 50.813725], [4.165573, 50.81456], [4.172287, 50.816471], [4.175339, 50.817402], [4.181595, 50.819355], [4.191284, 50.822475], [4.194402, 50.823441], [4.203087, 50.826187], [4.20639, 50.827271], [4.208527, 50.827923], [4.217148, 50.83062], [4.227448, 50.833694], [4.234636, 50.835754], [4.244583, 50.838593], [4.251486, 50.840561], [4.253565, 50.84111], [4.262848, 50.843655], [4.271677, 50.8461], [4.280734, 50.848572], [4.289093, 50.850964], [4.29803, 50.853516], [4.304042, 50.855209], [4.312363, 50.85762], [4.320679, 50.860043], [4.329147, 50.862461], [4.337006, 50.864742], [4.345018, 50.86702], [4.352341, 50.869167], [4.358139, 50.870842], [4.365507, 50.872971], [4.372559, 50.875031], [4.379462, 50.877045], [4.386673, 50.879128], [4.392319, 50.880756], [4.399208, 50.882721], [4.404449, 50.884251], [4.412199, 50.886475], [4.417953, 50.888161], [4.425337, 50.890274], [4.432373, 50.892258], [4.440407, 50.894577], [4.445974, 50.896179], [4.453471, 50.898285], [4.460983, 50.900448], [4.466171, 50.901939], [4.481602, 50.906422], [4.482536, 50.90657], [4.482811, 50.90657], [4.483164, 50.906513], [4.483414, 50.906433], [4.484519, 50.905998], [4.484742, 50.905689], [4.484558, 50.905476], [4.48431, 50.905384], [4.483981, 50.905312], [4.481964, 50.904709], [4.478073, 50.90358], [4.474906, 50.902679], [4.47443, 50.902523], [4.474275, 50.902279], [4.474516, 50.901993], [4.474757, 50.901901], [4.475098, 50.901939], [4.477986, 50.902782], [4.480209, 50.903393], [4.480553, 50.903137], [4.480877, 50.902683], [4.481086, 50.902554]]}, "properties": {"name": "SN2712_3fe7e3ac", "cmt": "2026-05-28", "tstamp": 1779926400, "desc": "---", "src": "4.066162/46.225487/6.24868/50.99062", "bbox": "4.066162/46.225487/6.24868/50.99062"}}]}