{"type": "FeatureCollection", "name": "TrackSet", "crs": {"type": "name", "properties": {"name": "urn:ogc:def:crs:OGC:1.3:CRS84"}}, "bbox": [106.487305, 10.78038, 109.139702, 13.935459], "features": [{"type": "Feature", "bbox": [106.487305, 10.78038, 109.139702, 13.935459], "geometry": {"type": "LineString", "coordinates": [[106.654236, 10.812688], [106.654152, 10.81279], [106.654007, 10.813248], [106.653801, 10.813515], [106.654175, 10.813683], [106.657089, 10.814783], [106.657951, 10.815376], [106.656754, 10.814655], [106.657951, 10.815609], [106.65802, 10.816578], [106.657913, 10.817219], [106.658241, 10.817688], [106.669609, 10.821968], [106.670113, 10.82222], [106.670189, 10.822453], [106.669968, 10.822884], [106.6698, 10.82309], [106.669441, 10.823364], [106.669357, 10.82357], [106.669113, 10.823605], [106.668854, 10.823456], [106.668419, 10.823291], [106.664574, 10.821859], [106.661575, 10.820709], [106.656815, 10.818926], [106.651009, 10.816772], [106.645393, 10.814736], [106.641151, 10.8132], [106.636238, 10.811371], [106.629738, 10.809011], [106.622604, 10.806357], [106.615402, 10.803726], [106.607567, 10.800817], [106.599426, 10.797791], [106.59082, 10.794571], [106.584007, 10.792066], [106.574898, 10.78876], [106.565887, 10.785455], [106.558151, 10.782669], [106.553314, 10.781312], [106.550377, 10.780847], [106.548203, 10.780609], [106.544891, 10.78038], [106.542564, 10.780381], [106.540199, 10.780426], [106.53788, 10.780563], [106.532578, 10.781158], [106.529976, 10.78157], [106.527748, 10.782028], [106.525665, 10.782532], [106.522667, 10.783407], [106.520645, 10.784042], [106.518417, 10.784866], [106.515778, 10.785967], [106.513443, 10.787064], [106.50927, 10.789366], [106.507057, 10.790902], [106.505257, 10.792191], [106.503403, 10.793701], [106.501747, 10.795166], [106.49971, 10.797134], [106.498154, 10.79892], [106.496788, 10.800585], [106.495453, 10.802444], [106.494141, 10.804448], [106.492935, 10.806543], [106.491615, 10.809219], [106.490868, 10.810826], [106.489853, 10.813573], [106.48896, 10.816452], [106.488396, 10.818512], [106.487823, 10.821625], [106.487495, 10.824097], [106.487343, 10.826328], [106.487305, 10.82872], [106.487396, 10.831449], [106.487732, 10.834475], [106.488121, 10.836942], [106.488441, 10.838745], [106.489296, 10.841949], [106.48996, 10.844055], [106.490913, 10.846579], [106.491852, 10.84877], [106.493416, 10.851746], [106.494743, 10.854034], [106.496117, 10.856168], [106.499153, 10.860079], [106.501274, 10.862503], [106.50705, 10.868637], [106.518524, 10.880654], [106.520065, 10.882377], [106.522278, 10.884751], [106.53376, 10.897064], [106.546516, 10.909191], [106.561417, 10.92128], [106.578888, 10.934921], [106.61615, 10.964123], [106.651756, 10.992799], [106.691025, 11.025944], [106.729149, 11.063736], [106.767456, 11.104431], [106.791847, 11.137711], [106.820496, 11.184036], [106.85144, 11.233241], [106.883095, 11.2836], [106.917213, 11.334446], [106.920151, 11.337611], [106.922653, 11.340172], [106.92614, 11.34343], [106.929016, 11.345898], [106.932869, 11.348969], [106.935715, 11.351158], [106.942314, 11.355906], [106.94883, 11.360458], [106.958359, 11.367032], [106.962418, 11.369797], [106.968857, 11.374237], [107.019287, 11.408524], [107.072029, 11.444914], [107.120506, 11.478013], [107.143639, 11.49021], [107.147537, 11.491699], [107.152077, 11.493301], [107.155861, 11.494537], [107.159889, 11.495728], [107.163773, 11.496826], [107.172691, 11.499194], [107.197205, 11.505386], [107.201279, 11.506439], [107.26535, 11.522842], [107.326691, 11.53895], [107.383644, 11.553567], [107.440414, 11.570572], [107.502235, 11.593462], [107.565643, 11.616738], [107.629204, 11.640108], [107.69149, 11.669495], [107.75164, 11.705374], [107.809654, 11.746387], [107.864052, 11.785217], [107.914673, 11.827057], [107.965675, 11.871002], [108.018143, 11.916], [108.067963, 11.958984], [108.106934, 11.997208], [108.110153, 12.001556], [108.112572, 12.005081], [108.115639, 12.009779], [108.117874, 12.013458], [108.119728, 12.016623], [108.121803, 12.020393], [108.12394, 12.024628], [108.126259, 12.029526], [108.127769, 12.033096], [108.129997, 12.038498], [108.131439, 12.042319], [108.134476, 12.051351], [108.136154, 12.056488], [108.141609, 12.073369], [108.145226, 12.084263], [108.168686, 12.150646], [108.191383, 12.213305], [108.215569, 12.281067], [108.238174, 12.344955], [108.261269, 12.410248], [108.282745, 12.471437], [108.305969, 12.536545], [108.327217, 12.595919], [108.348953, 12.65746], [108.371506, 12.721115], [108.392342, 12.780487], [108.414078, 12.841553], [108.435768, 12.902115], [108.45533, 12.957413], [108.475967, 13.015447], [108.495247, 13.069519], [108.514282, 13.122757], [108.53331, 13.176005], [108.551643, 13.227402], [108.571205, 13.282059], [108.589493, 13.323483], [108.591331, 13.326141], [108.595901, 13.332561], [108.597916, 13.335297], [108.600578, 13.338845], [108.602699, 13.341545], [108.605392, 13.344851], [108.607811, 13.347702], [108.610023, 13.350158], [108.612358, 13.352692], [108.615517, 13.35593], [108.617973, 13.358304], [108.622742, 13.362634], [108.626137, 13.365601], [108.629486, 13.368546], [108.632088, 13.37078], [108.641098, 13.378647], [108.68116, 13.414307], [108.697876, 13.429367], [108.714401, 13.444336], [108.730194, 13.458671], [108.745987, 13.472809], [108.76223, 13.48732], [108.777855, 13.501266], [108.793724, 13.515244], [108.809608, 13.529337], [108.824509, 13.542526], [108.838417, 13.554801], [108.85273, 13.567566], [108.866463, 13.579893], [108.880104, 13.592183], [108.893265, 13.604004], [108.906761, 13.616043], [108.919708, 13.627563], [108.932816, 13.639387], [108.945732, 13.650879], [108.957489, 13.661266], [108.961121, 13.664474], [108.988136, 13.686172], [108.998878, 13.692968], [109.006012, 13.697531], [109.013405, 13.702377], [109.015022, 13.703443], [109.028847, 13.712521], [109.042198, 13.721375], [109.054825, 13.729745], [109.067017, 13.737891], [109.079254, 13.746131], [109.085289, 13.750076], [109.092651, 13.754883], [109.099007, 13.759072], [109.104988, 13.763123], [109.111008, 13.767079], [109.118958, 13.772324], [109.125465, 13.776529], [109.131485, 13.780673], [109.13356, 13.782349], [109.135155, 13.78418], [109.136574, 13.786057], [109.137749, 13.788168], [109.138519, 13.789937], [109.13913, 13.792191], [109.139488, 13.793754], [109.139679, 13.796035], [109.139702, 13.798553], [109.139626, 13.800411], [109.139389, 13.80204], [109.139038, 13.804092], [109.138702, 13.805466], [109.138039, 13.807846], [109.137413, 13.809675], [109.13681, 13.811188], [109.136017, 13.813026], [109.135101, 13.814889], [109.134277, 13.816471], [109.1334, 13.8181], [109.131676, 13.82108], [109.129509, 13.824618], [109.126472, 13.829459], [109.12291, 13.834952], [109.05545, 13.935459]]}, "properties": {"name": "VN7394_40db1f32", "cmt": "2026-07-26", "tstamp": 1785024000, "desc": "---", "src": "106.487305/10.78038/109.139702/13.935459", "bbox": "106.487305/10.78038/109.139702/13.935459"}}]}