{"type": "FeatureCollection", "name": "TrackSet", "crs": {"type": "name", "properties": {"name": "urn:ogc:def:crs:OGC:1.3:CRS84"}}, "bbox": [3.861175, 46.230045, 6.266428, 52.579449], "features": [{"type": "Feature", "bbox": [3.861175, 46.230045, 6.266428, 52.579449], "geometry": {"type": "LineString", "coordinates": [[6.105367, 46.230045], [6.105149, 46.230194], [6.104949, 46.2304], [6.105085, 46.230621], [6.1053, 46.230778], [6.105068, 46.230713], [6.104862, 46.230747], [6.104656, 46.230854], [6.103609, 46.231586], [6.103391, 46.231682], [6.103163, 46.231678], [6.10294, 46.231609], [6.102252, 46.231236], [6.101721, 46.230865], [6.101463, 46.230804], [6.101247, 46.230858], [6.101029, 46.230961], [6.10088, 46.231178], [6.100914, 46.231434], [6.101171, 46.232018], [6.101214, 46.232265], [6.101046, 46.232483], [6.101051, 46.232704], [6.101892, 46.233238], [6.107528, 46.237106], [6.110944, 46.239395], [6.116973, 46.243469], [6.122131, 46.246902], [6.126821, 46.249969], [6.132984, 46.254089], [6.139023, 46.258121], [6.1502, 46.265396], [6.15643, 46.269653], [6.162325, 46.273819], [6.166626, 46.276928], [6.1726, 46.281162], [6.178872, 46.2854], [6.183998, 46.288891], [6.190595, 46.29332], [6.20192, 46.300995], [6.214417, 46.30933], [6.231593, 46.320831], [6.25035, 46.333694], [6.25792, 46.340286], [6.26001, 46.342937], [6.261658, 46.345173], [6.263279, 46.348206], [6.264485, 46.350998], [6.265222, 46.353561], [6.265778, 46.356159], [6.26616, 46.359146], [6.266294, 46.361618], [6.266327, 46.364353], [6.26619, 46.367146], [6.266026, 46.372284], [6.265915, 46.381485], [6.266026, 46.386978], [6.266226, 46.392426], [6.266294, 46.395218], [6.266428, 46.397781], [6.266294, 46.418106], [6.26549, 46.423645], [6.264887, 46.426529], [6.263512, 46.432133], [6.262542, 46.435501], [6.261658, 46.438137], [6.26049, 46.441303], [6.25843, 46.446426], [6.254637, 46.455185], [6.251957, 46.461227], [6.251083, 46.463322], [6.249412, 46.466995], [6.228109, 46.515335], [6.204391, 46.570206], [6.179947, 46.627605], [6.155358, 46.686493], [6.145889, 46.72448], [6.144908, 46.731949], [6.144447, 46.736164], [6.143761, 46.745384], [6.143623, 46.749481], [6.143233, 46.758408], [6.140396, 46.821823], [6.137375, 46.885437], [6.133873, 46.949066], [6.13016, 47.014828], [6.126357, 47.081722], [6.122483, 47.152248], [6.118973, 47.220062], [6.115883, 47.285294], [6.112412, 47.351818], [6.108962, 47.417038], [6.105229, 47.483982], [6.101532, 47.549332], [6.097961, 47.614883], [6.094454, 47.67992], [6.090722, 47.743927], [6.091215, 47.809986], [6.092341, 47.876648], [6.093468, 47.943779], [6.09446, 48.011307], [6.095215, 48.077042], [6.09597, 48.142731], [6.09706, 48.20993], [6.098116, 48.275757], [6.099173, 48.341125], [6.100159, 48.406494], [6.100665, 48.471493], [6.101356, 48.536682], [6.094947, 48.596558], [6.093679, 48.600403], [6.09228, 48.604355], [6.090722, 48.608459], [6.088955, 48.612732], [6.087201, 48.616699], [6.08537, 48.620636], [6.083397, 48.624619], [6.081426, 48.628281], [6.07882, 48.633041], [6.076813, 48.636383], [6.074735, 48.639816], [6.071918, 48.644165], [6.069585, 48.647648], [6.066983, 48.651512], [6.064526, 48.655094], [6.062058, 48.658676], [6.059321, 48.662777], [6.022128, 48.718826], [5.985308, 48.775478], [5.948808, 48.832367], [5.913464, 48.886925], [5.877263, 48.94249], [5.840642, 48.99852], [5.804303, 49.054321], [5.76754, 49.110352], [5.730382, 49.166939], [5.693592, 49.222336], [5.655705, 49.278397], [5.618423, 49.334526], [5.581633, 49.389877], [5.544409, 49.445892], [5.506897, 49.502113], [5.468668, 49.558907], [5.430933, 49.614624], [5.393926, 49.669418], [5.355979, 49.726456], [5.318199, 49.782265], [5.279153, 49.839569], [5.24149, 49.894913], [5.203906, 49.94989], [5.164613, 50.007252], [5.126062, 50.063507], [5.092163, 50.115021], [5.05668, 50.165436], [5.019416, 50.216316], [4.982522, 50.269199], [4.943699, 50.325809], [4.904673, 50.382477], [4.865978, 50.438324], [4.826932, 50.494373], [4.785437, 50.553497], [4.745351, 50.610291], [4.705266, 50.667038], [4.66236, 50.726028], [4.621087, 50.783707], [4.578404, 50.843903], [4.536983, 50.893204], [4.532852, 50.89682], [4.528891, 50.90007], [4.52466, 50.903366], [4.520264, 50.906734], [4.516296, 50.909622], [4.511892, 50.912704], [4.507364, 50.91568], [4.503356, 50.918289], [4.498159, 50.921448], [4.493713, 50.924099], [4.489059, 50.926704], [4.483981, 50.929504], [4.479599, 50.931778], [4.473648, 50.934807], [4.469223, 50.936993], [4.46434, 50.939415], [4.459188, 50.942001], [4.454362, 50.944382], [4.448624, 50.947281], [4.444122, 50.949516], [4.369664, 50.986679], [4.294891, 51.024185], [4.224854, 51.059425], [4.158993, 51.092468], [4.097529, 51.12355], [4.035174, 51.154495], [3.97282, 51.184937], [3.912617, 51.215057], [3.9048, 51.220219], [3.90178, 51.222473], [3.898621, 51.22506], [3.895416, 51.227711], [3.892278, 51.230621], [3.889754, 51.233185], [3.886414, 51.236893], [3.884409, 51.239136], [3.88144, 51.243027], [3.879242, 51.246147], [3.877487, 51.249031], [3.875351, 51.252712], [3.873672, 51.256107], [3.872309, 51.259277], [3.870973, 51.262802], [3.869934, 51.266117], [3.869043, 51.269714], [3.868332, 51.27338], [3.86793, 51.276443], [3.867645, 51.280178], [3.867493, 51.283714], [3.867493, 51.298752], [3.867559, 51.30217], [3.867569, 51.305874], [3.867559, 51.316315], [3.867493, 51.320862], [3.867559, 51.324234], [3.86673, 51.386456], [3.865332, 51.441055], [3.863907, 51.495758], [3.862585, 51.54982], [3.861175, 51.604477], [3.863847, 51.632034], [3.865035, 51.636017], [3.866119, 51.63998], [3.867039, 51.643478], [3.867856, 51.647141], [3.868301, 51.650391], [3.868561, 51.653664], [3.868672, 51.657486], [3.868672, 51.660919], [3.868484, 51.66428], [3.868179, 51.671028], [3.867493, 51.67778], [3.867113, 51.681107], [3.866501, 51.685089], [3.866074, 51.688293], [3.865703, 51.692047], [3.865554, 51.69548], [3.865554, 51.698776], [3.865814, 51.702217], [3.867035, 51.708828], [3.868153, 51.712418], [3.869117, 51.71521], [3.870677, 51.718826], [3.872384, 51.722214], [3.874388, 51.725647], [3.876838, 51.729446], [3.879139, 51.732513], [3.88176, 51.735691], [3.884335, 51.738419], [3.887453, 51.741531], [3.891387, 51.74501], [3.894806, 51.747841], [3.898544, 51.750587], [3.902359, 51.753334], [3.905716, 51.755661], [3.909607, 51.758266], [3.913434, 51.760849], [3.918228, 51.764088], [3.922043, 51.766693], [3.925682, 51.76918], [3.929468, 51.77179], [3.933563, 51.774513], [3.937559, 51.777283], [3.941419, 51.779892], [3.969108, 51.79866], [3.992936, 51.814911], [4.01947, 51.833309], [4.04213, 51.849186], [4.064941, 51.86771], [4.067383, 51.870552], [4.069618, 51.873459], [4.072068, 51.876938], [4.075928, 51.883026], [4.086522, 51.900764], [4.088211, 51.903534], [4.089818, 51.906258], [4.100333, 51.923714], [4.112261, 51.941311], [4.125137, 51.961258], [4.138031, 51.981949], [4.146729, 51.992294], [4.149857, 51.995132], [4.155502, 51.999573], [4.158783, 52.001999], [4.161935, 52.004341], [4.164838, 52.006439], [4.168396, 52.008957], [4.172287, 52.011749], [4.175433, 52.013981], [4.178729, 52.016354], [4.181632, 52.018448], [4.184647, 52.02063], [4.187831, 52.022919], [4.209442, 52.03862], [4.228363, 52.052399], [4.247707, 52.066444], [4.269257, 52.082153], [4.290161, 52.097351], [4.308602, 52.110668], [4.327907, 52.124634], [4.345799, 52.137577], [4.367222, 52.15303], [4.387589, 52.168991], [4.389877, 52.171509], [4.391785, 52.17384], [4.393746, 52.176445], [4.395865, 52.179611], [4.397507, 52.182083], [4.39924, 52.184826], [4.400652, 52.18692], [4.404027, 52.192322], [4.405753, 52.195023], [4.407401, 52.197487], [4.409284, 52.200516], [4.411011, 52.203094], [4.423141, 52.221909], [4.435102, 52.24041], [4.445267, 52.256195], [4.457397, 52.274826], [4.469299, 52.293091], [4.480209, 52.309662], [4.489975, 52.324402], [4.500809, 52.340698], [4.510117, 52.354477], [4.519383, 52.36824], [4.530411, 52.384552], [4.539865, 52.398407], [4.549561, 52.41275], [4.559097, 52.426987], [4.568586, 52.44133], [4.579337, 52.457436], [4.584198, 52.464661], [4.590836, 52.474503], [4.59511, 52.4809], [4.60131, 52.490021], [4.607509, 52.499191], [4.612217, 52.506176], [4.61853, 52.515381], [4.624459, 52.52396], [4.631195, 52.533188], [4.637329, 52.541557], [4.643631, 52.550125], [4.649429, 52.557907], [4.654122, 52.5639], [4.655762, 52.565735], [4.65744, 52.567291], [4.659424, 52.568939], [4.661713, 52.570587], [4.664917, 52.57251], [4.667463, 52.573769], [4.670288, 52.574932], [4.673035, 52.575912], [4.676252, 52.576843], [4.679642, 52.577682], [4.683079, 52.578285], [4.686611, 52.578751], [4.690781, 52.579056], [4.69429, 52.579239], [4.698146, 52.579357], [4.705366, 52.579449], [4.708786, 52.579422], [4.712429, 52.579357], [4.715803, 52.579124], [4.719238, 52.578735], [4.722595, 52.57814], [4.726791, 52.577225], [4.730072, 52.576263], [4.733658, 52.57489], [4.736328, 52.573654], [4.739304, 52.57196], [4.741287, 52.570587], [4.743118, 52.569077], [4.744838, 52.567486], [4.746643, 52.56567], [4.748212, 52.563995], [4.749603, 52.562393], [4.75245, 52.559105], [4.753784, 52.557384], [4.75504, 52.555473], [4.755825, 52.553844], [4.75647, 52.552048], [4.75708, 52.54998], [4.757394, 52.548351], [4.757614, 52.546738], [4.757786, 52.545094], [4.757919, 52.543213], [4.757996, 52.541428], [4.757996, 52.538177], [4.7581, 52.532944], [4.7581, 52.530804], [4.758148, 52.52948], [4.758072, 52.524261], [4.757865, 52.520885], [4.757316, 52.513905], [4.756609, 52.507572], [4.756138, 52.502453], [4.754639, 52.488922], [4.754177, 52.484249], [4.753392, 52.477173], [4.752686, 52.470284], [4.750977, 52.451385], [4.750331, 52.443192], [4.749782, 52.436813], [4.748919, 52.426105], [4.748459, 52.420029], [4.747925, 52.414581], [4.747467, 52.410507], [4.746643, 52.402317], [4.746015, 52.395054], [4.745858, 52.394032], [4.74578, 52.392727], [4.745623, 52.391563], [4.745331, 52.38707], [4.744916, 52.383789], [4.744797, 52.382401], [4.744644, 52.381531], [4.744492, 52.380157], [4.744289, 52.378017], [4.74411, 52.37558], [4.743818, 52.373081], [4.74374, 52.371967], [4.743583, 52.370804], [4.742955, 52.361771], [4.742327, 52.355999], [4.742013, 52.352459], [4.741071, 52.342731], [4.740677, 52.337952], [4.740143, 52.332962], [4.739973, 52.330582], [4.739816, 52.329277], [4.739738, 52.328114], [4.738737, 52.317478], [4.738426, 52.31353], [4.738482, 52.313019], [4.738655, 52.31258], [4.738846, 52.312214], [4.740444, 52.310261], [4.740677, 52.309937], [4.740895, 52.308807], [4.740738, 52.30748], [4.740542, 52.305141], [4.740679, 52.304592], [4.740982, 52.30434], [4.742146, 52.303665], [4.742837, 52.303314], [4.744358, 52.302486], [4.747791, 52.300644], [4.751783, 52.298485], [4.753475, 52.297634], [4.754734, 52.297943], [4.757843, 52.299145], [4.764671, 52.301777], [4.769573, 52.303654], [4.770317, 52.304089]]}, "properties": {"name": "7_csv/Malaysia December 2025/KL1936_3d6c0c78.csv", "cmt": "2025-12-08", "tstamp": 1765152000, "desc": "---", "src": "3.861175/46.230045/6.266428/52.579449", "bbox": "3.861175/46.230045/6.266428/52.579449"}}]}