{"type": "FeatureCollection", "name": "TrackSet", "crs": {"type": "name", "properties": {"name": "urn:ogc:def:crs:OGC:1.3:CRS84"}}, "bbox": [6.183383, 46.308199, 6.238344, 46.37845], "features": [{"type": "Feature", "bbox": [6.183383, 46.308199, 6.238344, 46.37845], "geometry": {"type": "LineString", "coordinates": [[6.194143, 46.331729], [6.194273, 46.331774], [6.194328, 46.331772], [6.194344, 46.33175], [6.194376, 46.331773], [6.194671, 46.331687], [6.194747, 46.33163], [6.194758, 46.331582], [6.194597, 46.331306], [6.194442, 46.33091], [6.193979, 46.330119], [6.193907, 46.330078], [6.193634, 46.330136], [6.193261, 46.330178], [6.193183, 46.330178], [6.193144, 46.330146], [6.19317, 46.329796], [6.193188, 46.329741], [6.193309, 46.329638], [6.193601, 46.329554], [6.195662, 46.329159], [6.196092, 46.329041], [6.19725, 46.328658], [6.199694, 46.327744], [6.19977, 46.327733], [6.199854, 46.327752], [6.199919, 46.327801], [6.199986, 46.327938], [6.2002, 46.328084], [6.200975, 46.329022], [6.201449, 46.329724], [6.201994, 46.330754], [6.202193, 46.331273], [6.202385, 46.332001], [6.20246, 46.332592], [6.202484, 46.333309], [6.202466, 46.33398], [6.2025, 46.33425], [6.202455, 46.33479], [6.202501, 46.335571], [6.20263, 46.336298], [6.20283, 46.337028], [6.203032, 46.337535], [6.203331, 46.338139], [6.203995, 46.339162], [6.204625, 46.340011], [6.204931, 46.340546], [6.205128, 46.340977], [6.205322, 46.341513], [6.205535, 46.342292], [6.206309, 46.345527], [6.20681, 46.347842], [6.20708, 46.348647], [6.207329, 46.349224], [6.207633, 46.349792], [6.208064, 46.350461], [6.208997, 46.351578], [6.210729, 46.353379], [6.211152, 46.353859], [6.214076, 46.356908], [6.215641, 46.358486], [6.215868, 46.358776], [6.216149, 46.358971], [6.217362, 46.360057], [6.217996, 46.36066], [6.21879, 46.361489], [6.219406, 46.3622], [6.219969, 46.362906], [6.222363, 46.366292], [6.222836, 46.366823], [6.223345, 46.367325], [6.223856, 46.36775], [6.224687, 46.3683], [6.22493, 46.368505], [6.225567, 46.368856], [6.228674, 46.370391], [6.229359, 46.370783], [6.229977, 46.371181], [6.231263, 46.372243], [6.232838, 46.373694], [6.235043, 46.376564], [6.235174, 46.376693], [6.235405, 46.376876], [6.235667, 46.37703], [6.237614, 46.377932], [6.238029, 46.378165], [6.238287, 46.378243], [6.238344, 46.378286], [6.238338, 46.378391], [6.238196, 46.37845], [6.238115, 46.37843], [6.237675, 46.378066], [6.237228, 46.377819], [6.235603, 46.377032], [6.235175, 46.376755], [6.234946, 46.376527], [6.233749, 46.37496], [6.233447, 46.374624], [6.232706, 46.373672], [6.231931, 46.372933], [6.231757, 46.372825], [6.23137, 46.372433], [6.23053, 46.37171], [6.230036, 46.37134], [6.229213, 46.370818], [6.228666, 46.37051], [6.228258, 46.3703], [6.227911, 46.370174], [6.227272, 46.369871], [6.2269, 46.369641], [6.225384, 46.3689], [6.224917, 46.368631], [6.224002, 46.368033], [6.223199, 46.367373], [6.222746, 46.366942], [6.222122, 46.366221], [6.2199, 46.363065], [6.219187, 46.362154], [6.218617, 46.361486], [6.217806, 46.360664], [6.216732, 46.359671], [6.216127, 46.359151], [6.215779, 46.358979], [6.215727, 46.358913], [6.215674, 46.358676], [6.215615, 46.358608], [6.214973, 46.358062], [6.214649, 46.357732], [6.212897, 46.355864], [6.209478, 46.35233], [6.208507, 46.351268], [6.208015, 46.350657], [6.207538, 46.349947], [6.207302, 46.349519], [6.207056, 46.348991], [6.206793, 46.348273], [6.206345, 46.346554], [6.205944, 46.344654], [6.205394, 46.342438], [6.205037, 46.341204], [6.20475, 46.340537], [6.20469, 46.340317], [6.20458, 46.340109], [6.204232, 46.339571], [6.203588, 46.338715], [6.203119, 46.337908], [6.202784, 46.337133], [6.20258, 46.336482], [6.202408, 46.335574], [6.202373, 46.332404], [6.202183, 46.331492], [6.202035, 46.331091], [6.201594, 46.330148], [6.201163, 46.329474], [6.200734, 46.328906], [6.200077, 46.328129], [6.199886, 46.327977], [6.199657, 46.327873], [6.199633, 46.327818], [6.199657, 46.327625], [6.198892, 46.326359], [6.19843, 46.32536], [6.197757, 46.323775], [6.197033, 46.322481], [6.196774, 46.322074], [6.196063, 46.320753], [6.195154, 46.319173], [6.194306, 46.317621], [6.194203, 46.317363], [6.194093, 46.317195], [6.193584, 46.316643], [6.193374, 46.316322], [6.193041, 46.316012], [6.192561, 46.315632], [6.192028, 46.315406], [6.188951, 46.313756], [6.188274, 46.313337], [6.187885, 46.313005], [6.186889, 46.311954], [6.183745, 46.308548], [6.183684, 46.308491], [6.183434, 46.308374], [6.183383, 46.308328], [6.183419, 46.308226], [6.183495, 46.308199], [6.183603, 46.308204], [6.183681, 46.308249], [6.183743, 46.308447], [6.183937, 46.308583], [6.187762, 46.312777], [6.188253, 46.313219], [6.188399, 46.313326], [6.188966, 46.313632], [6.189763, 46.31411], [6.190064, 46.314259], [6.190387, 46.314464], [6.192619, 46.315689], [6.193152, 46.316117], [6.19347, 46.316447], [6.193863, 46.316985], [6.194146, 46.317249], [6.194284, 46.317448], [6.196202, 46.32082], [6.197769, 46.323642], [6.198538, 46.325324], [6.198882, 46.326171], [6.199597, 46.327395], [6.199704, 46.327627], [6.199871, 46.327836], [6.19987, 46.327891], [6.199824, 46.327937], [6.199743, 46.327959], [6.199501, 46.327921], [6.199347, 46.327939], [6.197436, 46.328647], [6.19578, 46.329161], [6.193671, 46.329585], [6.193311, 46.329681], [6.193213, 46.329781], [6.193188, 46.330115], [6.193306, 46.330147], [6.19385, 46.330065], [6.194003, 46.330094], [6.194088, 46.330203], [6.194422, 46.330846], [6.194774, 46.331627], [6.194761, 46.331667], [6.194706, 46.331695], [6.193968, 46.331868]]}, "properties": {"name": "1784873062.Friday_Morning_Cycle", "cmt": "2026-07-24", "tstamp": 1784851200, "desc": "---", "src": "6.183383/46.308199/6.238344/46.37845", "bbox": "6.183383/46.308199/6.238344/46.37845"}}]}