{"type": "FeatureCollection", "name": "TrackSet", "crs": {"type": "name", "properties": {"name": "urn:ogc:def:crs:OGC:1.3:CRS84"}}, "bbox": [6.045171, 46.228987, 6.194726, 46.331801], "features": [{"type": "Feature", "bbox": [6.045171, 46.228987, 6.194726, 46.331801], "geometry": {"type": "LineString", "coordinates": [[6.194351, 46.331801], [6.194683, 46.331681], [6.194726, 46.331605], [6.194389, 46.330869], [6.193996, 46.330161], [6.19385, 46.330111], [6.193204, 46.330186], [6.192914, 46.330463], [6.192468, 46.330677], [6.1921, 46.330798], [6.191962, 46.330796], [6.191906, 46.330763], [6.191685, 46.330183], [6.191491, 46.329938], [6.190166, 46.328708], [6.189677, 46.328356], [6.188903, 46.327946], [6.18856, 46.327667], [6.18699, 46.326227], [6.186558, 46.325612], [6.186282, 46.325277], [6.184295, 46.323364], [6.183913, 46.323123], [6.183542, 46.322999], [6.183142, 46.322943], [6.182043, 46.322878], [6.181786, 46.322838], [6.181632, 46.322787], [6.181465, 46.322665], [6.181224, 46.322354], [6.180744, 46.321428], [6.180608, 46.321199], [6.180421, 46.320993], [6.180045, 46.320784], [6.179906, 46.320636], [6.179783, 46.32056], [6.179006, 46.320528], [6.178839, 46.320484], [6.178772, 46.320438], [6.178415, 46.319996], [6.177957, 46.319498], [6.177743, 46.318901], [6.17665, 46.317815], [6.176094, 46.317216], [6.174813, 46.315684], [6.174589, 46.315537], [6.173554, 46.310251], [6.173446, 46.309945], [6.173399, 46.309538], [6.173231, 46.309108], [6.172588, 46.308316], [6.172424, 46.308046], [6.172363, 46.307863], [6.172395, 46.306418], [6.172491, 46.30612], [6.17242, 46.305958], [6.172298, 46.305878], [6.171685, 46.305595], [6.171383, 46.305419], [6.170867, 46.305067], [6.170329, 46.304636], [6.170098, 46.30435], [6.16959, 46.303443], [6.169508, 46.303403], [6.169219, 46.303347], [6.168871, 46.303204], [6.16597, 46.301235], [6.165552, 46.300821], [6.164662, 46.29976], [6.164315, 46.299414], [6.164068, 46.299222], [6.163374, 46.298779], [6.162602, 46.298213], [6.162201, 46.297999], [6.161587, 46.297761], [6.160183, 46.297288], [6.159674, 46.297089], [6.158812, 46.296846], [6.158199, 46.296616], [6.157604, 46.296297], [6.15728, 46.296065], [6.156714, 46.295588], [6.15604, 46.294922], [6.155777, 46.294597], [6.155243, 46.294046], [6.154969, 46.293839], [6.15484, 46.293642], [6.154288, 46.293067], [6.15419, 46.2929], [6.153908, 46.292604], [6.153718, 46.292347], [6.153504, 46.292191], [6.153472, 46.292098], [6.153469, 46.291849], [6.153211, 46.29107], [6.152069, 46.288799], [6.151743, 46.288197], [6.151536, 46.287913], [6.151413, 46.287783], [6.15115, 46.287631], [6.151084, 46.287568], [6.150961, 46.287339], [6.148001, 46.284525], [6.14754, 46.284009], [6.147076, 46.28365], [6.146095, 46.282731], [6.145899, 46.282599], [6.14567, 46.282494], [6.144623, 46.282168], [6.144174, 46.282078], [6.142366, 46.281815], [6.141333, 46.281706], [6.140466, 46.281736], [6.139723, 46.281732], [6.139489, 46.281703], [6.139273, 46.28163], [6.138612, 46.281301], [6.136558, 46.280583], [6.135876, 46.280269], [6.135374, 46.279991], [6.135139, 46.279806], [6.134899, 46.279492], [6.134233, 46.278474], [6.133798, 46.277952], [6.132409, 46.276661], [6.132128, 46.276357], [6.131919, 46.276012], [6.131751, 46.27558], [6.131733, 46.275355], [6.131789, 46.27499], [6.131759, 46.274778], [6.131701, 46.274645], [6.131508, 46.274408], [6.130726, 46.273712], [6.130439, 46.273525], [6.129453, 46.273088], [6.128884, 46.272769], [6.128509, 46.272523], [6.128088, 46.272333], [6.127279, 46.272105], [6.126459, 46.271969], [6.126084, 46.271884], [6.125917, 46.271867], [6.125679, 46.27188], [6.125618, 46.271854], [6.12548, 46.271703], [6.125184, 46.271507], [6.124567, 46.270988], [6.123359, 46.270544], [6.122452, 46.270101], [6.122185, 46.269915], [6.12167, 46.26935], [6.121622, 46.269202], [6.121689, 46.269062], [6.122335, 46.26865], [6.122584, 46.268456], [6.123007, 46.268231], [6.123365, 46.268103], [6.124318, 46.267837], [6.124529, 46.267758], [6.1251, 46.26743], [6.12518, 46.267358], [6.125274, 46.267186], [6.125255, 46.266806], [6.125154, 46.266348], [6.124844, 46.265725], [6.124744, 46.265258], [6.12472, 46.264979], [6.124763, 46.264349], [6.12472, 46.263715], [6.124741, 46.263601], [6.124695, 46.263521], [6.121694, 46.261919], [6.121136, 46.261659], [6.120737, 46.261412], [6.118846, 46.260401], [6.117828, 46.259818], [6.116135, 46.258943], [6.113033, 46.257284], [6.11265, 46.257045], [6.11197, 46.256702], [6.111703, 46.256523], [6.110902, 46.255804], [6.110674, 46.255485], [6.110324, 46.255114], [6.110108, 46.254948], [6.109854, 46.254801], [6.109203, 46.254471], [6.107449, 46.253836], [6.107021, 46.253657], [6.106728, 46.253498], [6.103565, 46.251388], [6.101924, 46.250263], [6.101583, 46.250102], [6.101379, 46.249923], [6.10098, 46.249642], [6.09861, 46.248137], [6.096212, 46.246509], [6.095993, 46.246459], [6.095939, 46.246361], [6.095976, 46.246226], [6.095804, 46.246129], [6.095022, 46.245549], [6.094515, 46.24528], [6.091822, 46.243425], [6.087978, 46.240834], [6.086481, 46.239798], [6.08587, 46.239412], [6.085254, 46.238984], [6.085117, 46.238794], [6.084855, 46.238683], [6.084614, 46.238535], [6.083609, 46.237837], [6.083069, 46.237514], [6.082987, 46.237502], [6.082847, 46.237555], [6.082526, 46.23784], [6.082288, 46.237985], [6.082074, 46.238174], [6.08173, 46.238415], [6.081509, 46.23863], [6.081056, 46.238948], [6.080748, 46.239239], [6.080388, 46.239489], [6.079514, 46.240226], [6.079335, 46.240345], [6.079116, 46.240422], [6.078995, 46.240429], [6.078882, 46.240405], [6.078686, 46.240306], [6.078119, 46.239909], [6.077858, 46.239765], [6.077566, 46.239529], [6.077296, 46.239373], [6.077142, 46.239247], [6.076756, 46.239032], [6.076528, 46.238825], [6.076005, 46.238438], [6.075613, 46.2382], [6.075283, 46.237919], [6.0748, 46.237628], [6.074496, 46.237381], [6.074405, 46.237338], [6.074302, 46.23733], [6.074122, 46.237396], [6.073736, 46.237705], [6.070113, 46.240215], [6.06994, 46.240258], [6.069767, 46.240207], [6.068969, 46.239525], [6.068609, 46.23913], [6.068357, 46.238986], [6.067176, 46.237582], [6.066511, 46.236645], [6.066282, 46.236372], [6.064783, 46.235309], [6.064391, 46.234921], [6.063376, 46.234179], [6.063042, 46.233888], [6.062881, 46.233858], [6.061976, 46.234269], [6.060519, 46.234695], [6.060436, 46.234691], [6.060316, 46.234611], [6.060244, 46.234499], [6.059423, 46.233067], [6.059345, 46.23303], [6.059248, 46.233019], [6.05915, 46.233037], [6.058985, 46.233106], [6.058437, 46.233266], [6.058182, 46.233303], [6.058013, 46.233272], [6.057793, 46.233195], [6.057638, 46.233022], [6.057497, 46.232959], [6.057441, 46.232875], [6.057468, 46.232727], [6.057432, 46.232689], [6.057322, 46.232646], [6.057053, 46.232472], [6.05706, 46.232452], [6.056921, 46.232354], [6.056502, 46.231965], [6.055713, 46.230579], [6.05558, 46.23046], [6.055303, 46.23035], [6.0552, 46.230334], [6.052643, 46.23017], [6.052553, 46.230143], [6.052156, 46.229881], [6.051734, 46.229208], [6.051553, 46.229068], [6.051303, 46.229014], [6.050942, 46.228987], [6.050725, 46.229024], [6.046448, 46.230823], [6.046281, 46.230968], [6.046098, 46.231393], [6.046102, 46.231541], [6.04565, 46.231799], [6.045194, 46.23202], [6.045171, 46.23217], [6.045317, 46.232438], [6.04529, 46.232524]]}, "properties": {"name": "1784804064.Lunch_Ride", "cmt": "2026-07-23", "tstamp": 1784764800, "desc": "---", "src": "6.045171/46.228987/6.194726/46.331801", "bbox": "6.045171/46.228987/6.194726/46.331801"}}]}