{"type": "FeatureCollection", "name": "TrackSet", "crs": {"type": "name", "properties": {"name": "urn:ogc:def:crs:OGC:1.3:CRS84"}}, "bbox": [6.045227, 46.231767, 6.194756, 46.332003], "features": [{"type": "Feature", "bbox": [6.045227, 46.231767, 6.194756, 46.332003], "geometry": {"type": "LineString", "coordinates": [[6.04539, 46.232431], [6.045534, 46.232371], [6.045532, 46.232293], [6.045467, 46.232235], [6.045356, 46.232254], [6.045227, 46.232212], [6.045263, 46.232139], [6.045429, 46.232092], [6.046186, 46.231785], [6.046269, 46.231767], [6.046357, 46.23179], [6.046433, 46.231838], [6.046585, 46.23201], [6.047663, 46.233634], [6.047705, 46.233653], [6.048377, 46.233498], [6.050122, 46.232999], [6.050704, 46.232857], [6.051916, 46.232504], [6.052116, 46.232383], [6.052203, 46.232384], [6.052334, 46.232482], [6.052333, 46.23254], [6.052228, 46.232699], [6.052252, 46.232755], [6.052868, 46.233808], [6.052917, 46.233877], [6.052977, 46.233898], [6.053394, 46.233804], [6.056123, 46.233036], [6.05728, 46.232738], [6.057508, 46.232698], [6.057665, 46.232708], [6.057874, 46.232792], [6.05794, 46.232887], [6.057898, 46.232994], [6.05773, 46.233097], [6.057745, 46.233155], [6.057818, 46.233206], [6.058141, 46.233289], [6.058315, 46.233272], [6.059207, 46.233006], [6.05932, 46.233008], [6.059421, 46.233045], [6.059485, 46.233111], [6.059575, 46.233329], [6.060328, 46.234653], [6.060397, 46.234697], [6.060499, 46.234709], [6.060763, 46.234604], [6.061211, 46.23447], [6.062038, 46.234249], [6.062593, 46.233976], [6.062847, 46.233806], [6.062986, 46.233839], [6.064291, 46.234838], [6.064926, 46.235401], [6.066373, 46.236452], [6.067202, 46.237629], [6.06833, 46.238939], [6.068461, 46.239051], [6.068626, 46.239142], [6.068886, 46.239451], [6.069828, 46.240225], [6.069914, 46.240241], [6.070086, 46.240209], [6.070838, 46.239665], [6.070894, 46.239635], [6.07103, 46.239663], [6.071184, 46.239796], [6.072987, 46.241061], [6.073048, 46.24115], [6.073031, 46.24133], [6.073539, 46.242014], [6.073784, 46.242304], [6.074277, 46.242713], [6.074372, 46.242724], [6.074535, 46.242674], [6.074881, 46.242387], [6.074952, 46.24236], [6.075118, 46.242383], [6.07717, 46.243784], [6.077807, 46.244198], [6.078385, 46.24452], [6.07858, 46.244658], [6.078786, 46.244868], [6.079546, 46.245338], [6.079988, 46.245466], [6.080467, 46.245559], [6.08176, 46.245723], [6.081811, 46.245752], [6.081828, 46.245832], [6.081699, 46.246119], [6.081704, 46.246176], [6.081825, 46.246306], [6.084079, 46.247189], [6.084187, 46.247315], [6.084199, 46.24739], [6.084167, 46.247468], [6.084234, 46.247585], [6.084516, 46.247878], [6.084953, 46.248133], [6.085773, 46.248433], [6.086152, 46.248527], [6.08655, 46.248538], [6.086767, 46.248663], [6.087913, 46.24894], [6.089246, 46.249357], [6.090261, 46.249722], [6.090406, 46.24981], [6.090613, 46.250008], [6.090915, 46.250068], [6.091617, 46.250345], [6.091921, 46.250492], [6.092375, 46.250753], [6.09255, 46.250894], [6.092993, 46.251381], [6.093151, 46.251504], [6.093323, 46.251864], [6.093418, 46.251981], [6.09356, 46.25208], [6.093926, 46.252155], [6.094945, 46.252088], [6.095613, 46.25208], [6.095703, 46.252061], [6.095906, 46.251954], [6.096075, 46.251946], [6.096621, 46.252191], [6.097185, 46.252382], [6.097204, 46.252485], [6.097104, 46.252655], [6.097033, 46.252913], [6.097177, 46.253275], [6.097322, 46.253445], [6.097424, 46.25352], [6.098692, 46.254259], [6.099849, 46.254862], [6.100034, 46.254998], [6.100553, 46.255078], [6.101677, 46.255404], [6.102092, 46.25547], [6.102124, 46.255505], [6.10178, 46.255838], [6.101145, 46.256277], [6.101075, 46.256373], [6.100701, 46.256682], [6.100566, 46.256913], [6.101336, 46.257481], [6.101664, 46.25766], [6.102496, 46.258254], [6.102627, 46.258289], [6.102912, 46.25826], [6.103215, 46.258259], [6.103403, 46.258312], [6.105145, 46.259427], [6.105568, 46.259584], [6.105784, 46.259649], [6.106135, 46.259673], [6.106244, 46.259705], [6.107493, 46.260181], [6.10786, 46.260276], [6.108622, 46.260346], [6.109013, 46.260312], [6.109161, 46.260348], [6.109208, 46.260376], [6.109358, 46.260588], [6.110801, 46.261751], [6.112959, 46.263395], [6.114365, 46.264299], [6.114526, 46.264352], [6.11461, 46.264356], [6.114588, 46.26433], [6.114891, 46.2644], [6.114965, 46.264628], [6.115282, 46.264901], [6.115327, 46.265024], [6.115313, 46.265098], [6.11526, 46.265157], [6.114683, 46.265516], [6.114685, 46.265559], [6.114736, 46.265606], [6.115066, 46.26572], [6.115363, 46.265877], [6.115746, 46.26602], [6.115798, 46.266065], [6.116077, 46.266152], [6.116176, 46.266221], [6.116182, 46.266318], [6.11698, 46.266857], [6.117731, 46.267535], [6.117993, 46.267727], [6.118145, 46.26781], [6.118496, 46.267937], [6.118893, 46.268025], [6.119369, 46.268178], [6.120248, 46.268638], [6.120793, 46.268963], [6.12156, 46.269289], [6.122113, 46.269861], [6.122494, 46.270104], [6.12334, 46.270532], [6.124575, 46.270961], [6.124665, 46.271016], [6.125092, 46.271419], [6.125542, 46.271696], [6.125762, 46.271759], [6.125952, 46.271853], [6.126762, 46.272026], [6.127406, 46.272126], [6.12826, 46.272387], [6.128488, 46.272498], [6.128935, 46.272798], [6.12911, 46.272888], [6.129646, 46.273155], [6.130416, 46.27347], [6.130582, 46.273565], [6.130804, 46.273723], [6.131432, 46.274279], [6.131643, 46.274481], [6.131752, 46.274635], [6.131825, 46.274805], [6.131849, 46.274982], [6.13178, 46.275333], [6.131782, 46.275513], [6.131973, 46.276025], [6.132122, 46.276264], [6.132367, 46.27655], [6.133841, 46.277946], [6.134054, 46.278021], [6.134175, 46.278259], [6.135063, 46.279604], [6.135195, 46.279773], [6.135377, 46.279932], [6.136262, 46.280398], [6.13668, 46.28057], [6.138209, 46.281096], [6.139395, 46.28164], [6.139699, 46.281702], [6.139913, 46.281708], [6.141125, 46.281667], [6.14169, 46.281701], [6.144398, 46.282078], [6.145575, 46.282424], [6.146001, 46.282613], [6.146249, 46.282807], [6.147074, 46.283584], [6.147281, 46.283747], [6.147591, 46.283947], [6.147876, 46.283994], [6.147919, 46.284061], [6.147916, 46.284133], [6.147843, 46.284258], [6.147844, 46.284325], [6.147893, 46.284376], [6.148033, 46.284472], [6.151001, 46.287297], [6.151334, 46.287481], [6.151467, 46.28777], [6.151748, 46.288097], [6.152168, 46.288811], [6.153046, 46.290593], [6.153271, 46.291123], [6.153514, 46.291884], [6.153713, 46.292115], [6.153828, 46.292452], [6.157152, 46.295895], [6.15744, 46.296137], [6.157689, 46.296301], [6.158319, 46.296622], [6.158715, 46.296766], [6.159644, 46.29703], [6.160234, 46.297261], [6.161963, 46.297856], [6.162335, 46.298008], [6.162667, 46.298198], [6.16354, 46.298834], [6.164066, 46.299175], [6.164591, 46.299601], [6.165729, 46.300936], [6.165992, 46.301194], [6.167149, 46.301965], [6.168802, 46.303136], [6.168958, 46.303216], [6.16922, 46.303304], [6.169406, 46.303353], [6.169582, 46.303354], [6.16963, 46.303383], [6.170157, 46.304392], [6.170425, 46.30466], [6.171449, 46.305424], [6.171766, 46.305607], [6.172365, 46.305863], [6.1725, 46.305963], [6.17253, 46.306106], [6.172426, 46.306407], [6.172383, 46.306756], [6.172386, 46.307862], [6.172483, 46.308103], [6.172683, 46.308383], [6.173211, 46.308995], [6.173536, 46.309808], [6.173597, 46.309838], [6.173686, 46.309844], [6.173774, 46.309822], [6.174454, 46.309604], [6.174907, 46.309416], [6.175412, 46.309261], [6.176123, 46.308972], [6.17617, 46.308947], [6.17619, 46.308841], [6.176198, 46.308876], [6.176262, 46.308826], [6.176738, 46.308958], [6.177679, 46.309079], [6.177824, 46.309194], [6.177964, 46.309467], [6.178059, 46.309588], [6.178699, 46.310296], [6.179146, 46.310723], [6.179718, 46.311103], [6.180705, 46.311658], [6.181325, 46.312099], [6.181517, 46.312197], [6.18187, 46.312302], [6.182391, 46.312314], [6.182903, 46.312207], [6.182966, 46.312214], [6.183019, 46.312258], [6.183049, 46.312509], [6.183244, 46.312818], [6.183671, 46.313628], [6.184085, 46.314037], [6.184291, 46.314284], [6.184829, 46.315029], [6.184977, 46.315347], [6.185305, 46.316309], [6.185453, 46.316624], [6.186794, 46.318331], [6.187291, 46.318844], [6.187506, 46.319022], [6.187722, 46.319328], [6.187793, 46.319572], [6.187799, 46.319725], [6.187676, 46.320336], [6.187593, 46.320569], [6.18757, 46.320834], [6.187604, 46.321054], [6.188312, 46.322581], [6.188514, 46.322874], [6.189268, 46.323763], [6.189386, 46.323949], [6.189576, 46.324407], [6.189917, 46.325341], [6.189867, 46.325466], [6.189478, 46.325721], [6.189431, 46.325784], [6.189409, 46.325916], [6.18947, 46.326396], [6.189675, 46.326917], [6.190047, 46.327511], [6.190239, 46.327899], [6.190604, 46.328842], [6.190649, 46.329056], [6.191083, 46.329565], [6.191575, 46.329981], [6.191688, 46.33011], [6.191814, 46.330384], [6.191881, 46.330694], [6.191915, 46.330754], [6.191992, 46.330784], [6.192099, 46.330778], [6.192188, 46.330743], [6.192928, 46.330415], [6.19317, 46.330157], [6.19324, 46.330122], [6.193568, 46.33012], [6.193856, 46.330081], [6.193955, 46.330093], [6.194034, 46.330134], [6.194432, 46.330889], [6.194756, 46.331631], [6.194668, 46.331723], [6.194588, 46.331759], [6.194354, 46.331799], [6.194286, 46.331769], [6.194286, 46.331733], [6.194282, 46.331823], [6.194349, 46.331892], [6.194364, 46.332003], [6.194332, 46.331857], [6.194232, 46.331759], [6.194196, 46.331673], [6.194485, 46.331654]]}, "properties": {"name": "1785857110.Tuesday_Evening_Cycle", "cmt": "2026-08-04", "tstamp": 1785801600, "desc": "---", "src": "6.045227/46.231767/6.194756/46.332003", "bbox": "6.045227/46.231767/6.194756/46.332003"}}]}