{"type": "FeatureCollection", "name": "TrackSet", "crs": {"type": "name", "properties": {"name": "urn:ogc:def:crs:OGC:1.3:CRS84"}}, "bbox": [6.045321, 46.228975, 6.194738, 46.331772], "features": [{"type": "Feature", "bbox": [6.045321, 46.228975, 6.194738, 46.331772], "geometry": {"type": "LineString", "coordinates": [[6.194194, 46.331682], [6.194235, 46.331666], [6.194301, 46.331764], [6.194305, 46.331748], [6.194287, 46.331758], [6.19433, 46.331772], [6.194393, 46.331762], [6.194588, 46.331704], [6.194719, 46.331629], [6.194738, 46.331589], [6.194568, 46.33128], [6.194378, 46.330835], [6.193961, 46.330116], [6.193814, 46.330091], [6.193673, 46.330143], [6.193621, 46.33013], [6.193176, 46.330171], [6.193131, 46.330195], [6.193081, 46.330332], [6.192792, 46.330516], [6.192308, 46.330714], [6.192243, 46.330716], [6.19204, 46.330787], [6.191918, 46.330783], [6.191841, 46.330694], [6.191838, 46.330592], [6.191671, 46.330162], [6.191512, 46.329945], [6.191231, 46.329676], [6.191068, 46.329562], [6.190344, 46.328829], [6.189794, 46.328421], [6.189074, 46.328039], [6.188788, 46.32785], [6.187014, 46.326238], [6.186837, 46.326028], [6.186491, 46.325516], [6.186101, 46.325066], [6.184267, 46.323316], [6.183878, 46.323079], [6.183477, 46.322962], [6.183073, 46.322915], [6.18198, 46.322842], [6.181788, 46.322808], [6.181601, 46.322742], [6.181505, 46.322678], [6.18128, 46.322385], [6.180667, 46.321221], [6.180506, 46.321023], [6.179975, 46.320723], [6.17982, 46.320549], [6.179753, 46.320518], [6.17901, 46.320503], [6.178867, 46.320475], [6.178736, 46.320409], [6.178342, 46.319877], [6.178105, 46.319656], [6.177961, 46.319477], [6.17778, 46.318918], [6.177682, 46.318823], [6.17768, 46.318777], [6.176315, 46.317466], [6.174835, 46.31566], [6.174747, 46.315589], [6.174658, 46.315557], [6.174581, 46.315471], [6.17444, 46.314636], [6.173634, 46.31062], [6.173523, 46.310102], [6.17343, 46.309883], [6.173422, 46.309579], [6.173323, 46.309268], [6.173198, 46.30901], [6.172815, 46.308606], [6.172509, 46.308174], [6.172383, 46.307914], [6.172357, 46.307733], [6.172399, 46.306595], [6.172432, 46.306342], [6.172523, 46.306086], [6.172461, 46.305943], [6.172352, 46.305872], [6.171872, 46.305672], [6.171383, 46.305404], [6.170833, 46.305023], [6.170347, 46.304622], [6.170159, 46.304403], [6.169683, 46.303514], [6.169584, 46.303395], [6.169489, 46.30336], [6.169202, 46.303315], [6.168894, 46.303179], [6.167847, 46.302503], [6.167054, 46.301931], [6.166083, 46.301316], [6.165798, 46.30105], [6.164667, 46.299738], [6.164432, 46.2995], [6.163671, 46.298926], [6.162674, 46.298242], [6.162146, 46.297957], [6.161222, 46.297616], [6.160508, 46.297383], [6.1596, 46.297008], [6.158939, 46.296847], [6.158314, 46.296638], [6.157895, 46.296434], [6.157569, 46.29623], [6.156733, 46.295575], [6.155979, 46.294835], [6.155791, 46.294593], [6.155239, 46.294032], [6.154941, 46.293786], [6.154834, 46.293603], [6.154281, 46.293042], [6.154219, 46.29291], [6.153939, 46.292613], [6.153688, 46.292263], [6.153556, 46.29213], [6.15331, 46.291318], [6.153155, 46.290928], [6.151963, 46.288548], [6.151752, 46.288169], [6.151579, 46.287926], [6.151352, 46.28771], [6.151116, 46.287586], [6.150926, 46.287266], [6.147975, 46.284489], [6.147524, 46.283976], [6.147122, 46.28368], [6.14665, 46.283228], [6.145925, 46.282598], [6.145591, 46.282431], [6.144503, 46.282122], [6.143522, 46.281963], [6.142892, 46.281892], [6.142299, 46.281783], [6.141268, 46.281676], [6.140987, 46.281676], [6.1407, 46.28172], [6.140409, 46.281728], [6.13984, 46.281719], [6.139426, 46.281687], [6.139174, 46.281597], [6.13858, 46.281277], [6.136436, 46.280525], [6.135403, 46.279983], [6.135234, 46.27985], [6.135064, 46.279651], [6.134112, 46.278276], [6.133894, 46.278067], [6.133783, 46.277915], [6.132382, 46.276615], [6.132126, 46.276332], [6.131929, 46.27602], [6.131775, 46.275643], [6.131741, 46.275327], [6.131798, 46.274939], [6.131715, 46.274643], [6.131467, 46.274353], [6.130983, 46.273898], [6.130549, 46.273565], [6.129422, 46.273051], [6.12841, 46.272447], [6.128124, 46.272326], [6.127264, 46.272087], [6.126543, 46.271936], [6.125934, 46.271858], [6.125693, 46.271863], [6.125612, 46.271837], [6.125447, 46.271658], [6.125225, 46.271517], [6.124738, 46.271095], [6.124485, 46.270924], [6.123221, 46.270465], [6.122583, 46.27015], [6.122315, 46.26999], [6.12212, 46.26982], [6.121674, 46.269304], [6.121067, 46.26909], [6.119925, 46.268456], [6.119301, 46.268145], [6.118315, 46.267872], [6.117992, 46.267734], [6.117666, 46.267477], [6.116895, 46.266768], [6.116295, 46.266335], [6.116204, 46.266205], [6.115879, 46.266093], [6.115475, 46.265873], [6.115147, 46.265747], [6.114831, 46.26556], [6.114784, 46.2655], [6.114789, 46.265434], [6.115267, 46.265119], [6.115314, 46.265029], [6.115168, 46.264817], [6.114861, 46.264558], [6.113373, 46.263704], [6.112623, 46.26319], [6.111026, 46.261975], [6.109599, 46.260807], [6.109318, 46.260611], [6.109116, 46.260387], [6.108573, 46.260414], [6.108143, 46.260394], [6.107731, 46.260334], [6.107348, 46.26023], [6.106207, 46.259773], [6.105765, 46.25969], [6.105234, 46.259504], [6.103325, 46.258334], [6.103163, 46.258299], [6.102509, 46.258302], [6.102366, 46.258167], [6.101358, 46.257512], [6.100645, 46.257007], [6.100544, 46.256916], [6.100528, 46.256859], [6.100594, 46.256763], [6.101254, 46.256267], [6.10136, 46.256131], [6.101915, 46.255607], [6.101941, 46.255555], [6.101916, 46.255509], [6.101783, 46.255453], [6.100848, 46.255223], [6.100605, 46.255126], [6.100288, 46.255063], [6.099824, 46.255039], [6.099741, 46.254893], [6.099549, 46.254744], [6.09733, 46.253534], [6.097174, 46.253389], [6.09703, 46.253139], [6.097011, 46.253053], [6.097027, 46.252723], [6.097193, 46.252381], [6.097151, 46.252338], [6.096666, 46.25219], [6.096207, 46.251991], [6.09605, 46.251946], [6.095904, 46.251945], [6.095701, 46.252054], [6.095526, 46.25208], [6.095058, 46.25208], [6.09385, 46.252149], [6.093596, 46.252099], [6.093397, 46.251946], [6.093264, 46.251655], [6.093126, 46.251461], [6.092967, 46.251347], [6.092571, 46.250915], [6.092269, 46.250667], [6.091811, 46.250409], [6.09093, 46.250018], [6.090606, 46.249943], [6.090406, 46.249759], [6.089352, 46.249383], [6.088191, 46.249018], [6.087294, 46.248783], [6.086787, 46.248669], [6.086389, 46.24865], [6.086222, 46.248546], [6.085781, 46.248432], [6.085198, 46.24823], [6.084695, 46.247983], [6.084411, 46.247767], [6.084211, 46.247508], [6.084179, 46.24744], [6.08418, 46.247249], [6.084153, 46.247227], [6.084123, 46.247233], [6.084075, 46.247195], [6.082238, 46.246589], [6.081797, 46.246389], [6.081705, 46.246378], [6.081316, 46.246439], [6.081156, 46.246382], [6.081069, 46.246264], [6.081074, 46.246197], [6.081172, 46.246082], [6.081336, 46.246024], [6.081428, 46.246022], [6.081583, 46.246062], [6.081631, 46.246048], [6.081696, 46.245927], [6.081882, 46.245853], [6.081866, 46.245778], [6.081749, 46.245687], [6.081353, 46.245601], [6.080592, 46.245551], [6.080313, 46.245512], [6.079512, 46.245326], [6.079037, 46.245041], [6.078673, 46.244783], [6.078381, 46.244483], [6.078167, 46.244313], [6.077698, 46.244089], [6.076643, 46.243395], [6.076064, 46.243049], [6.075656, 46.242731], [6.075075, 46.242364], [6.074988, 46.242348], [6.07491, 46.242364], [6.074472, 46.24271], [6.074391, 46.242727], [6.074299, 46.242713], [6.073814, 46.242281], [6.073063, 46.241341], [6.073023, 46.241281], [6.073066, 46.241084], [6.073025, 46.241029], [6.072674, 46.240833], [6.070956, 46.23963], [6.070892, 46.239625], [6.070825, 46.239651], [6.070701, 46.239791], [6.070101, 46.240204], [6.06996, 46.240251], [6.069796, 46.240218], [6.068797, 46.239374], [6.068617, 46.239131], [6.06833, 46.238962], [6.067214, 46.237627], [6.066324, 46.236382], [6.064761, 46.235276], [6.064349, 46.234886], [6.062977, 46.233865], [6.06282, 46.233856], [6.0626, 46.233999], [6.061993, 46.234256], [6.06047, 46.234687], [6.0604, 46.234682], [6.060331, 46.234645], [6.060293, 46.234588], [6.059411, 46.233044], [6.059333, 46.233002], [6.059137, 46.233009], [6.058869, 46.233138], [6.058218, 46.233294], [6.058009, 46.233271], [6.057907, 46.233208], [6.057741, 46.233163], [6.057705, 46.233128], [6.057682, 46.233017], [6.057474, 46.232898], [6.057451, 46.232804], [6.057486, 46.232712], [6.057453, 46.232665], [6.057305, 46.232616], [6.057123, 46.232508], [6.057078, 46.232434], [6.056584, 46.232015], [6.056443, 46.231854], [6.05627, 46.231481], [6.055633, 46.230447], [6.055209, 46.230309], [6.054572, 46.230293], [6.054197, 46.230243], [6.052628, 46.230156], [6.052482, 46.230089], [6.052156, 46.229844], [6.051695, 46.229121], [6.051498, 46.229022], [6.051379, 46.229005], [6.050861, 46.228975], [6.050682, 46.229013], [6.046361, 46.230835], [6.046289, 46.230903], [6.04607, 46.231411], [6.046183, 46.231629], [6.046329, 46.23179], [6.046335, 46.231834], [6.046244, 46.231911], [6.046057, 46.231954], [6.045871, 46.232057], [6.045334, 46.23227], [6.045321, 46.232292], [6.045411, 46.232333], [6.045406, 46.232429], [6.045484, 46.232441], [6.045406, 46.232486]]}, "properties": {"name": "1785909475.Wednesday_Morning_Cycle", "cmt": "2026-08-05", "tstamp": 1785888000, "desc": "---", "src": "6.045321/46.228975/6.194738/46.331772", "bbox": "6.045321/46.228975/6.194738/46.331772"}}]}