{"type": "FeatureCollection", "name": "TrackSet", "crs": {"type": "name", "properties": {"name": "urn:ogc:def:crs:OGC:1.3:CRS84"}}, "bbox": [6.045384, 46.231925, 6.194746, 46.331791], "features": [{"type": "Feature", "bbox": [6.045384, 46.231925, 6.194746, 46.331791], "geometry": {"type": "LineString", "coordinates": [[6.045407, 46.232358], [6.04546, 46.232421], [6.045384, 46.232326], [6.045403, 46.232284], [6.045591, 46.23223], [6.045801, 46.232118], [6.04594, 46.232079], [6.046278, 46.231925], [6.046454, 46.231928], [6.046587, 46.231992], [6.047686, 46.233659], [6.047754, 46.233669], [6.048115, 46.233569], [6.048346, 46.233464], [6.048383, 46.23349], [6.048344, 46.233531], [6.048261, 46.233523], [6.047883, 46.233588], [6.047787, 46.233625], [6.047713, 46.233699], [6.048085, 46.234348], [6.048199, 46.234457], [6.048351, 46.234447], [6.050408, 46.233866], [6.052526, 46.233313], [6.052579, 46.23332], [6.052669, 46.233384], [6.052912, 46.233859], [6.05295, 46.233886], [6.053044, 46.233898], [6.056173, 46.233024], [6.056676, 46.232921], [6.057465, 46.232696], [6.057781, 46.232766], [6.05788, 46.232828], [6.057906, 46.23297], [6.057877, 46.233014], [6.057718, 46.233106], [6.057794, 46.233201], [6.058013, 46.233272], [6.058166, 46.233287], [6.058398, 46.233257], [6.059223, 46.233008], [6.059328, 46.233012], [6.059424, 46.233054], [6.059486, 46.233122], [6.059567, 46.233328], [6.060324, 46.234648], [6.060373, 46.234696], [6.060463, 46.234715], [6.060562, 46.234703], [6.060796, 46.234599], [6.061914, 46.234293], [6.062164, 46.234194], [6.062633, 46.233958], [6.062854, 46.233808], [6.062909, 46.233803], [6.062971, 46.23383], [6.063388, 46.23418], [6.06437, 46.234884], [6.064761, 46.235289], [6.06495, 46.2354], [6.066344, 46.236415], [6.067282, 46.237731], [6.06821, 46.238804], [6.068423, 46.239015], [6.068653, 46.239135], [6.068883, 46.239432], [6.069798, 46.240203], [6.069862, 46.240236], [6.070032, 46.240236], [6.070815, 46.239674], [6.070875, 46.23964], [6.071035, 46.239655], [6.071187, 46.239792], [6.071834, 46.240258], [6.072133, 46.240442], [6.073004, 46.24107], [6.073045, 46.241166], [6.073013, 46.241283], [6.073055, 46.241385], [6.073754, 46.242245], [6.074253, 46.242689], [6.074401, 46.242727], [6.074486, 46.24271], [6.074892, 46.242392], [6.075034, 46.24235], [6.075114, 46.242367], [6.076594, 46.243417], [6.078415, 46.244576], [6.078783, 46.2449], [6.079544, 46.24537], [6.07984, 46.245456], [6.080406, 46.245571], [6.081349, 46.245715], [6.081647, 46.245736], [6.08177, 46.245772], [6.081814, 46.245832], [6.081668, 46.246164], [6.081775, 46.246297], [6.082462, 46.246591], [6.084331, 46.247271], [6.084365, 46.247343], [6.084245, 46.247528], [6.084247, 46.247576], [6.084388, 46.247748], [6.084548, 46.247903], [6.085099, 46.248188], [6.085538, 46.248357], [6.085998, 46.248496], [6.086213, 46.248539], [6.086527, 46.248554], [6.086823, 46.24868], [6.088156, 46.249016], [6.088661, 46.249165], [6.090366, 46.249792], [6.090437, 46.249832], [6.090626, 46.250028], [6.090933, 46.250067], [6.092099, 46.250574], [6.092221, 46.250639], [6.092502, 46.250874], [6.092797, 46.251162], [6.093009, 46.251416], [6.093179, 46.251543], [6.093378, 46.251952], [6.093575, 46.252109], [6.093754, 46.252157], [6.093952, 46.252175], [6.094527, 46.252118], [6.095551, 46.252079], [6.095726, 46.252037], [6.095871, 46.251955], [6.096038, 46.251912], [6.096821, 46.252244], [6.097205, 46.252372], [6.097216, 46.252496], [6.097088, 46.252718], [6.097026, 46.252902], [6.097037, 46.25295], [6.097159, 46.253277], [6.09727, 46.253405], [6.09748, 46.25356], [6.098699, 46.254279], [6.099808, 46.254873], [6.100013, 46.25502], [6.100394, 46.255062], [6.100898, 46.255182], [6.101432, 46.255336], [6.102001, 46.255533], [6.102024, 46.255583], [6.101976, 46.255674], [6.101604, 46.255966], [6.101133, 46.256251], [6.100784, 46.256552], [6.100501, 46.256862], [6.100568, 46.256959], [6.102474, 46.258242], [6.102586, 46.258301], [6.103097, 46.258256], [6.103191, 46.258257], [6.103374, 46.258305], [6.105141, 46.259432], [6.105244, 46.259487], [6.105625, 46.259609], [6.105812, 46.259652], [6.106159, 46.259675], [6.107418, 46.26016], [6.107863, 46.260271], [6.108466, 46.260324], [6.108707, 46.260326], [6.109045, 46.260291], [6.109141, 46.260317], [6.109221, 46.26037], [6.109426, 46.260641], [6.110257, 46.261286], [6.11127, 46.26213], [6.112882, 46.263348], [6.114384, 46.264297], [6.114554, 46.264352], [6.114839, 46.264345], [6.114911, 46.264384], [6.114942, 46.264455], [6.114938, 46.264586], [6.115209, 46.264839], [6.115325, 46.265004], [6.115329, 46.265067], [6.115292, 46.265126], [6.114749, 46.265463], [6.114713, 46.265504], [6.114755, 46.265604], [6.114985, 46.265698], [6.115304, 46.265881], [6.115926, 46.266114], [6.116144, 46.266235], [6.116207, 46.266334], [6.116851, 46.266759], [6.117884, 46.267669], [6.118172, 46.267826], [6.118427, 46.267922], [6.119384, 46.268195], [6.120298, 46.268675], [6.120853, 46.269007], [6.121558, 46.269283], [6.121761, 46.269454], [6.122111, 46.269858], [6.122516, 46.27012], [6.123315, 46.270535], [6.124611, 46.270993], [6.124694, 46.271043], [6.12509, 46.271421], [6.125561, 46.271723], [6.125763, 46.271763], [6.125975, 46.271869], [6.126756, 46.272026], [6.127426, 46.272128], [6.128119, 46.272336], [6.128461, 46.272485], [6.129004, 46.272838], [6.129559, 46.273114], [6.130377, 46.27346], [6.130588, 46.273571], [6.131301, 46.274164], [6.131593, 46.274442], [6.131736, 46.274628], [6.131837, 46.274914], [6.131781, 46.275367], [6.131804, 46.275597], [6.13191, 46.275881], [6.132143, 46.276286], [6.132405, 46.276581], [6.133857, 46.277963], [6.134023, 46.278046], [6.135093, 46.279637], [6.13524, 46.279812], [6.135456, 46.279967], [6.136393, 46.280433], [6.138103, 46.281032], [6.138488, 46.281193], [6.139408, 46.281642], [6.139695, 46.281685], [6.140461, 46.281691], [6.141027, 46.281651], [6.141295, 46.281657], [6.142127, 46.281746], [6.144026, 46.282008], [6.14428, 46.282024], [6.145241, 46.28234], [6.145573, 46.282426], [6.145986, 46.282617], [6.147243, 46.283723], [6.147562, 46.283934], [6.147849, 46.284009], [6.14791, 46.284115], [6.147817, 46.284276], [6.147848, 46.284328], [6.150978, 46.287281], [6.151097, 46.287367], [6.151309, 46.287467], [6.151355, 46.287518], [6.151453, 46.287754], [6.151692, 46.28801], [6.151876, 46.288298], [6.152866, 46.290258], [6.153201, 46.290947], [6.153505, 46.291897], [6.153713, 46.292121], [6.153774, 46.292377], [6.153846, 46.29249], [6.156992, 46.295742], [6.15738, 46.2961], [6.157939, 46.296461], [6.15829, 46.296631], [6.15876, 46.296798], [6.15955, 46.297019], [6.160162, 46.297243], [6.161221, 46.297586], [6.162211, 46.297955], [6.162637, 46.298181], [6.163508, 46.298834], [6.163986, 46.29913], [6.164522, 46.299583], [6.165788, 46.301012], [6.165964, 46.301179], [6.168856, 46.303153], [6.169089, 46.30325], [6.169578, 46.303382], [6.170164, 46.304413], [6.170551, 46.304791], [6.171183, 46.305257], [6.171583, 46.305512], [6.172087, 46.305771], [6.172382, 46.30589], [6.172501, 46.305977], [6.172534, 46.306098], [6.172417, 46.306432], [6.172385, 46.306829], [6.172377, 46.307855], [6.172456, 46.308058], [6.172609, 46.308297], [6.173179, 46.308951], [6.173319, 46.309235], [6.173489, 46.309743], [6.173616, 46.309933], [6.173579, 46.310166], [6.17362, 46.310506], [6.174181, 46.313348], [6.174668, 46.315508], [6.174879, 46.315731], [6.176202, 46.317345], [6.176738, 46.317903], [6.177517, 46.318617], [6.177592, 46.318737], [6.177732, 46.318875], [6.177916, 46.31941], [6.177994, 46.319543], [6.178399, 46.319962], [6.17867, 46.320334], [6.178807, 46.320455], [6.178904, 46.320495], [6.179636, 46.320517], [6.179789, 46.320541], [6.179852, 46.320565], [6.180014, 46.320771], [6.180419, 46.320974], [6.180686, 46.321243], [6.181344, 46.32247], [6.181659, 46.322746], [6.181743, 46.322787], [6.181958, 46.322833], [6.183124, 46.322872], [6.183481, 46.322917], [6.183911, 46.323052], [6.184338, 46.323324], [6.186336, 46.325261], [6.187097, 46.326228], [6.188478, 46.327515], [6.188931, 46.327893], [6.189694, 46.328318], [6.19007, 46.328576], [6.190581, 46.328997], [6.19114, 46.32961], [6.191676, 46.330081], [6.19194, 46.330765], [6.192025, 46.330786], [6.192122, 46.330774], [6.192336, 46.330656], [6.192502, 46.330622], [6.19285, 46.330469], [6.193019, 46.330345], [6.193107, 46.330206], [6.193173, 46.330154], [6.193272, 46.33013], [6.19349, 46.330136], [6.193886, 46.330075], [6.193982, 46.330092], [6.194056, 46.330144], [6.194548, 46.331134], [6.194746, 46.331631], [6.194657, 46.33171], [6.19436, 46.331791], [6.194258, 46.331765], [6.194286, 46.331689], [6.194269, 46.331791]]}, "properties": {"name": "1785944748.Wednesday_Evening_Cycle", "cmt": "2026-08-05", "tstamp": 1785888000, "desc": "---", "src": "6.045384/46.231925/6.194746/46.331791", "bbox": "6.045384/46.231925/6.194746/46.331791"}}]}