{"type": "FeatureCollection", "name": "TrackSet", "crs": {"type": "name", "properties": {"name": "urn:ogc:def:crs:OGC:1.3:CRS84"}}, "bbox": [6.045318, 46.228972, 6.194727, 46.331767], "features": [{"type": "Feature", "bbox": [6.045318, 46.228972, 6.194727, 46.331767], "geometry": {"type": "LineString", "coordinates": [[6.194302, 46.331676], [6.194241, 46.331668], [6.194302, 46.331676], [6.194224, 46.331767], [6.194279, 46.331716], [6.194337, 46.331766], [6.194571, 46.331714], [6.194712, 46.33166], [6.194727, 46.331573], [6.194459, 46.330944], [6.193981, 46.330128], [6.193845, 46.33009], [6.193199, 46.33018], [6.193116, 46.330227], [6.193022, 46.330366], [6.192697, 46.330555], [6.192098, 46.330788], [6.192044, 46.330801], [6.19193, 46.330776], [6.191892, 46.330737], [6.191842, 46.330533], [6.191704, 46.330208], [6.191506, 46.329941], [6.191215, 46.329665], [6.191053, 46.329551], [6.19072, 46.329183], [6.190382, 46.328867], [6.189767, 46.328406], [6.188899, 46.327928], [6.188566, 46.327653], [6.187007, 46.326219], [6.186262, 46.325231], [6.184241, 46.3233], [6.183873, 46.323081], [6.183505, 46.322965], [6.183125, 46.322916], [6.18196, 46.322842], [6.181712, 46.322791], [6.18156, 46.32272], [6.181399, 46.32256], [6.181252, 46.322341], [6.180983, 46.321756], [6.180639, 46.321167], [6.180524, 46.321028], [6.180018, 46.320746], [6.179819, 46.320551], [6.179666, 46.320529], [6.179037, 46.32052], [6.178821, 46.320472], [6.178764, 46.320424], [6.17849, 46.320047], [6.177949, 46.319464], [6.177804, 46.318984], [6.177715, 46.318824], [6.177513, 46.318673], [6.177476, 46.318596], [6.177108, 46.318219], [6.176389, 46.31754], [6.175511, 46.31645], [6.174786, 46.315616], [6.174667, 46.315556], [6.174611, 46.315491], [6.17409, 46.31299], [6.173545, 46.310137], [6.173452, 46.309929], [6.173457, 46.309631], [6.173416, 46.309486], [6.173212, 46.309013], [6.172765, 46.308534], [6.172585, 46.308276], [6.172479, 46.30809], [6.172387, 46.307789], [6.172367, 46.307585], [6.172399, 46.306616], [6.172441, 46.306334], [6.172515, 46.306099], [6.172493, 46.305991], [6.172384, 46.305897], [6.171764, 46.305632], [6.171298, 46.305369], [6.17079, 46.305003], [6.170398, 46.304681], [6.170232, 46.304517], [6.170103, 46.304337], [6.169711, 46.303543], [6.169614, 46.303416], [6.169527, 46.30337], [6.169139, 46.303289], [6.168826, 46.303144], [6.167013, 46.30189], [6.1662, 46.301379], [6.165777, 46.301016], [6.165507, 46.300662], [6.165331, 46.300503], [6.164672, 46.299735], [6.16443, 46.299504], [6.164086, 46.299228], [6.162611, 46.298186], [6.162207, 46.29797], [6.161552, 46.297728], [6.160404, 46.297347], [6.159593, 46.297024], [6.158779, 46.296804], [6.158355, 46.296654], [6.15768, 46.296292], [6.157358, 46.296076], [6.156662, 46.29551], [6.156143, 46.294985], [6.155771, 46.294536], [6.155169, 46.293941], [6.154927, 46.293754], [6.154813, 46.293569], [6.154426, 46.293181], [6.154153, 46.292823], [6.153557, 46.292158], [6.153511, 46.292089], [6.153488, 46.291853], [6.153333, 46.291331], [6.153097, 46.290768], [6.151897, 46.288406], [6.151654, 46.288028], [6.151394, 46.287749], [6.151096, 46.287563], [6.150912, 46.287258], [6.150324, 46.286725], [6.148008, 46.284514], [6.147553, 46.284002], [6.147175, 46.283727], [6.146067, 46.282709], [6.145889, 46.282575], [6.145671, 46.282472], [6.144568, 46.282135], [6.143561, 46.281959], [6.142112, 46.28176], [6.141341, 46.281685], [6.141098, 46.281676], [6.1405, 46.281725], [6.13967, 46.281705], [6.139445, 46.281681], [6.139138, 46.28157], [6.138511, 46.281242], [6.136535, 46.280557], [6.136089, 46.280354], [6.135578, 46.280064], [6.135269, 46.279865], [6.13515, 46.279734], [6.134203, 46.278385], [6.133788, 46.27792], [6.132399, 46.276634], [6.132105, 46.276303], [6.131858, 46.275867], [6.131746, 46.275548], [6.131733, 46.275353], [6.131794, 46.274972], [6.131726, 46.274674], [6.131546, 46.274428], [6.131322, 46.274211], [6.130721, 46.273689], [6.130493, 46.273526], [6.129573, 46.273128], [6.128992, 46.272811], [6.1284, 46.27244], [6.128121, 46.272327], [6.127158, 46.272068], [6.126005, 46.271863], [6.12567, 46.271858], [6.125594, 46.271837], [6.125451, 46.271647], [6.125068, 46.271388], [6.124568, 46.270945], [6.123833, 46.270704], [6.123205, 46.270461], [6.122354, 46.270014], [6.122066, 46.269755], [6.121676, 46.269312], [6.121316, 46.269188], [6.121038, 46.26906], [6.11978, 46.26836], [6.119353, 46.268149], [6.118385, 46.267882], [6.11803, 46.267732], [6.117822, 46.267584], [6.116865, 46.266732], [6.116243, 46.266283], [6.116239, 46.266238], [6.11615, 46.266164], [6.115234, 46.265768], [6.114792, 46.265515], [6.11481, 46.26543], [6.115144, 46.265207], [6.115307, 46.265035], [6.115239, 46.264903], [6.114932, 46.264623], [6.113495, 46.263784], [6.112414, 46.263056], [6.110292, 46.26137], [6.109392, 46.260642], [6.109188, 46.260432], [6.109104, 46.260385], [6.108995, 46.26037], [6.108576, 46.260416], [6.108207, 46.2604], [6.107859, 46.260351], [6.107342, 46.260221], [6.106337, 46.259827], [6.105739, 46.259685], [6.105259, 46.259528], [6.103361, 46.258342], [6.103183, 46.258297], [6.102596, 46.258296], [6.102394, 46.258203], [6.101622, 46.257644], [6.101303, 46.257459], [6.100721, 46.257053], [6.100563, 46.256903], [6.100555, 46.256851], [6.100628, 46.256749], [6.101023, 46.256464], [6.10156, 46.255957], [6.10181, 46.255781], [6.10196, 46.255603], [6.101945, 46.255521], [6.101821, 46.255464], [6.101494, 46.255404], [6.100998, 46.25527], [6.100671, 46.255152], [6.100339, 46.255072], [6.099861, 46.255013], [6.099641, 46.254809], [6.099492, 46.25471], [6.097412, 46.253574], [6.097103, 46.253283], [6.097016, 46.253123], [6.096993, 46.252704], [6.097159, 46.252425], [6.097169, 46.252383], [6.097133, 46.25234], [6.096775, 46.25223], [6.096224, 46.251994], [6.095996, 46.25194], [6.095836, 46.251964], [6.09571, 46.25204], [6.095565, 46.252074], [6.09481, 46.252086], [6.093944, 46.252148], [6.09361, 46.252083], [6.093441, 46.251955], [6.093265, 46.251607], [6.093148, 46.251441], [6.092811, 46.25117], [6.092766, 46.25109], [6.092422, 46.250769], [6.091927, 46.250457], [6.090936, 46.250017], [6.090629, 46.249963], [6.090565, 46.249931], [6.090503, 46.249832], [6.090386, 46.24975], [6.089111, 46.249297], [6.087841, 46.248915], [6.086881, 46.248686], [6.086422, 46.24865], [6.086326, 46.248619], [6.086186, 46.248521], [6.085837, 46.248439], [6.085148, 46.2482], [6.084657, 46.247956], [6.084456, 46.247805], [6.084211, 46.247511], [6.084184, 46.247449], [6.084193, 46.247259], [6.084142, 46.247205], [6.082925, 46.246804], [6.08259, 46.246606], [6.081787, 46.246264], [6.081739, 46.246212], [6.081721, 46.246088], [6.081797, 46.24598], [6.081816, 46.245878], [6.081887, 46.245805], [6.08175, 46.245664], [6.081438, 46.245596], [6.080214, 46.24547], [6.079592, 46.245327], [6.079148, 46.245072], [6.078723, 46.244764], [6.078485, 46.244538], [6.077529, 46.243976], [6.076978, 46.243604], [6.07597, 46.24298], [6.075608, 46.242694], [6.075126, 46.242371], [6.075055, 46.242345], [6.074889, 46.242373], [6.074507, 46.242692], [6.074349, 46.24273], [6.074259, 46.242703], [6.073752, 46.242212], [6.073035, 46.241299], [6.073015, 46.241238], [6.073046, 46.241057], [6.072785, 46.240913], [6.070954, 46.239629], [6.0709, 46.239618], [6.07084, 46.239639], [6.070672, 46.239806], [6.07002, 46.240236], [6.069945, 46.24025], [6.069785, 46.240214], [6.068844, 46.239405], [6.068601, 46.239105], [6.068305, 46.23893], [6.067231, 46.237638], [6.066517, 46.236621], [6.0663, 46.236354], [6.064893, 46.235365], [6.064356, 46.234882], [6.063008, 46.233872], [6.06286, 46.233841], [6.062569, 46.234005], [6.062049, 46.234234], [6.060511, 46.234681], [6.060372, 46.234673], [6.059442, 46.233077], [6.059388, 46.233028], [6.059197, 46.233004], [6.058915, 46.233127], [6.05846, 46.233249], [6.058255, 46.233291], [6.058114, 46.233289], [6.057813, 46.233191], [6.057742, 46.233132], [6.057703, 46.233056], [6.057726, 46.233057], [6.057662, 46.232988], [6.057492, 46.232934], [6.057452, 46.232852], [6.0575, 46.232708], [6.057463, 46.232659], [6.057318, 46.232621], [6.057102, 46.232479], [6.05708, 46.232413], [6.056503, 46.231887], [6.056296, 46.231495], [6.055646, 46.230459], [6.055251, 46.23031], [6.05488, 46.230309], [6.052563, 46.23014], [6.052236, 46.229919], [6.052119, 46.229805], [6.051676, 46.229107], [6.051594, 46.229053], [6.051383, 46.229], [6.050833, 46.228972], [6.050675, 46.229015], [6.046393, 46.230804], [6.046285, 46.230906], [6.04608, 46.231412], [6.046342, 46.231833], [6.046242, 46.231919], [6.046012, 46.231989], [6.045328, 46.232274], [6.045318, 46.232301], [6.045414, 46.23234], [6.045434, 46.232419], [6.045405, 46.23244], [6.045454, 46.232454], [6.045447, 46.232497]]}, "properties": {"name": "1785822314.Tuesday_Morning_Cycle", "cmt": "2026-08-04", "tstamp": 1785801600, "desc": "---", "src": "6.045318/46.228972/6.194727/46.331767", "bbox": "6.045318/46.228972/6.194727/46.331767"}}]}