{"type": "FeatureCollection", "name": "TrackSet", "crs": {"type": "name", "properties": {"name": "urn:ogc:def:crs:OGC:1.3:CRS84"}}, "bbox": [6.04515, 46.231753, 6.194758, 46.331776], "features": [{"type": "Feature", "bbox": [6.04515, 46.231753, 6.194758, 46.331776], "geometry": {"type": "LineString", "coordinates": [[6.045315, 46.232481], [6.04541, 46.232535], [6.045315, 46.232481], [6.045377, 46.232587], [6.045185, 46.232346], [6.04515, 46.232234], [6.045174, 46.232177], [6.046172, 46.231757], [6.046269, 46.231753], [6.046366, 46.231779], [6.046708, 46.232129], [6.047086, 46.232772], [6.047359, 46.233118], [6.047691, 46.23367], [6.047771, 46.233744], [6.047784, 46.233849], [6.048053, 46.234239], [6.048116, 46.234396], [6.048194, 46.234463], [6.048271, 46.234472], [6.050538, 46.233841], [6.05248, 46.233342], [6.05262, 46.233344], [6.052661, 46.233373], [6.052903, 46.233859], [6.052975, 46.233897], [6.053075, 46.233892], [6.053563, 46.233737], [6.053837, 46.2337], [6.054099, 46.233594], [6.055187, 46.233309], [6.056603, 46.23289], [6.057492, 46.232681], [6.05754, 46.232688], [6.05752, 46.2327], [6.057564, 46.232729], [6.057774, 46.232758], [6.057871, 46.232819], [6.057925, 46.232932], [6.057911, 46.232979], [6.057756, 46.233072], [6.057752, 46.233163], [6.057879, 46.233235], [6.058109, 46.23329], [6.058362, 46.233267], [6.059197, 46.233014], [6.059298, 46.233008], [6.059395, 46.233038], [6.059467, 46.233092], [6.059558, 46.233301], [6.060325, 46.234627], [6.060375, 46.234678], [6.060462, 46.2347], [6.060559, 46.234687], [6.060724, 46.23461], [6.061267, 46.234448], [6.062013, 46.234252], [6.062645, 46.23395], [6.06281, 46.233816], [6.062865, 46.233812], [6.062995, 46.233867], [6.063762, 46.234457], [6.064216, 46.234772], [6.064429, 46.234948], [6.06464, 46.235181], [6.066339, 46.236409], [6.067204, 46.237628], [6.068354, 46.238954], [6.068419, 46.239018], [6.068681, 46.239166], [6.06897, 46.239498], [6.069723, 46.240141], [6.069858, 46.240227], [6.069954, 46.240238], [6.07013, 46.240167], [6.070246, 46.240061], [6.071883, 46.238957], [6.074142, 46.237373], [6.074234, 46.237311], [6.074316, 46.237291], [6.074485, 46.237347], [6.074748, 46.237572], [6.075038, 46.23773], [6.07553, 46.238107], [6.075858, 46.238297], [6.076278, 46.238626], [6.076502, 46.238768], [6.076669, 46.238946], [6.077087, 46.239189], [6.077825, 46.239713], [6.078119, 46.239878], [6.078602, 46.240215], [6.078833, 46.240321], [6.079031, 46.240347], [6.079305, 46.240292], [6.079456, 46.240217], [6.079908, 46.23984], [6.079947, 46.239842], [6.080028, 46.239928], [6.080739, 46.240257], [6.081414, 46.240674], [6.081481, 46.240693], [6.081568, 46.240677], [6.081758, 46.240551], [6.082111, 46.240388], [6.082198, 46.240376], [6.082437, 46.240384], [6.082689, 46.240444], [6.083278, 46.240483], [6.08349, 46.240549], [6.084375, 46.240914], [6.084684, 46.241173], [6.085283, 46.241478], [6.085953, 46.241684], [6.087094, 46.241982], [6.087589, 46.241751], [6.088384, 46.241112], [6.088446, 46.241107], [6.088578, 46.241146], [6.088705, 46.241206], [6.092949, 46.244137], [6.092935, 46.244178], [6.092966, 46.244209], [6.09398, 46.245], [6.094272, 46.245336], [6.094327, 46.245341], [6.094532, 46.245504], [6.094758, 46.245509], [6.094875, 46.245548], [6.095341, 46.245871], [6.095642, 46.246118], [6.095921, 46.246247], [6.095943, 46.246292], [6.095912, 46.246438], [6.09601, 46.246495], [6.096192, 46.246485], [6.096761, 46.246909], [6.097633, 46.247448], [6.099336, 46.248601], [6.100828, 46.249557], [6.101493, 46.250036], [6.101533, 46.250057], [6.101709, 46.250057], [6.101771, 46.250095], [6.106596, 46.253395], [6.107105, 46.253661], [6.10754, 46.253843], [6.109094, 46.254435], [6.109851, 46.25481], [6.110236, 46.255055], [6.110505, 46.255279], [6.110774, 46.255577], [6.110853, 46.255624], [6.110909, 46.255799], [6.111045, 46.255934], [6.111686, 46.2565], [6.112096, 46.256769], [6.113766, 46.257651], [6.114247, 46.257865], [6.115847, 46.258731], [6.116115, 46.258824], [6.116304, 46.25882], [6.116373, 46.258859], [6.116447, 46.259054], [6.116511, 46.259102], [6.118317, 46.260092], [6.118699, 46.260248], [6.120882, 46.26142], [6.121226, 46.261571], [6.121402, 46.261697], [6.124345, 46.263287], [6.124677, 46.263446], [6.124907, 46.263431], [6.124972, 46.263453], [6.125017, 46.263495], [6.124993, 46.263586], [6.124765, 46.263635], [6.124745, 46.263667], [6.124796, 46.264319], [6.124755, 46.265083], [6.124871, 46.265695], [6.125219, 46.266423], [6.125322, 46.267001], [6.125317, 46.26713], [6.125254, 46.267317], [6.125172, 46.267425], [6.125056, 46.267509], [6.124933, 46.267548], [6.124462, 46.26779], [6.123261, 46.268126], [6.122926, 46.268258], [6.122455, 46.268535], [6.121713, 46.269024], [6.121624, 46.269127], [6.121641, 46.269265], [6.121974, 46.269679], [6.122133, 46.269831], [6.122454, 46.270052], [6.12311, 46.270414], [6.124179, 46.27082], [6.124565, 46.270931], [6.124811, 46.271131], [6.124949, 46.271343], [6.125124, 46.271427], [6.125487, 46.271664], [6.125993, 46.271854], [6.127296, 46.272081], [6.127954, 46.272267], [6.128451, 46.272478], [6.128926, 46.272786], [6.129371, 46.273026], [6.130461, 46.273494], [6.130718, 46.273649], [6.131462, 46.274298], [6.131735, 46.2746], [6.13184, 46.274872], [6.131787, 46.27553], [6.131959, 46.275981], [6.132166, 46.276315], [6.132367, 46.27654], [6.133742, 46.277843], [6.133833, 46.277926], [6.134048, 46.278042], [6.135067, 46.279608], [6.135307, 46.279874], [6.135551, 46.280025], [6.136551, 46.280507], [6.138149, 46.281058], [6.139403, 46.281641], [6.139753, 46.281682], [6.140688, 46.281673], [6.141138, 46.281645], [6.141697, 46.281687], [6.144074, 46.282021], [6.144464, 46.282095], [6.145588, 46.282398], [6.146076, 46.282638], [6.147112, 46.283594], [6.147464, 46.283863], [6.14761, 46.283943], [6.147803, 46.283966], [6.147878, 46.283997], [6.147927, 46.284061], [6.147927, 46.284131], [6.147842, 46.284316], [6.147888, 46.284375], [6.148907, 46.285308], [6.14966, 46.286066], [6.149929, 46.286264], [6.151019, 46.287308], [6.151283, 46.28745], [6.151345, 46.287513], [6.151456, 46.287739], [6.151748, 46.288085], [6.152153, 46.288797], [6.15307, 46.290629], [6.153269, 46.291106], [6.153487, 46.291816], [6.153532, 46.291903], [6.15372, 46.292076], [6.153794, 46.292378], [6.154037, 46.292672], [6.157259, 46.295975], [6.157692, 46.296294], [6.158294, 46.296613], [6.158746, 46.296775], [6.159693, 46.297047], [6.161759, 46.297786], [6.16229, 46.297995], [6.162726, 46.298251], [6.163682, 46.298943], [6.163989, 46.299133], [6.164428, 46.299479], [6.164704, 46.299761], [6.165749, 46.300966], [6.166098, 46.301281], [6.168801, 46.303124], [6.169226, 46.3033], [6.169611, 46.303395], [6.170184, 46.304408], [6.170518, 46.304747], [6.171635, 46.305532], [6.171878, 46.305659], [6.172317, 46.305836], [6.172469, 46.305926], [6.172546, 46.306059], [6.172545, 46.306143], [6.172431, 46.306457], [6.172388, 46.30682], [6.172378, 46.307843], [6.172434, 46.30801], [6.172673, 46.308375], [6.173212, 46.309004], [6.173303, 46.309202], [6.173461, 46.309742], [6.173586, 46.309936], [6.173546, 46.310218], [6.1742, 46.313493], [6.174528, 46.314961], [6.174685, 46.315529], [6.174931, 46.315769], [6.176175, 46.317308], [6.176782, 46.317944], [6.177522, 46.318627], [6.177577, 46.318742], [6.177733, 46.318873], [6.177801, 46.318978], [6.177906, 46.319393], [6.17872, 46.320379], [6.178805, 46.320443], [6.178935, 46.320478], [6.179703, 46.320502], [6.179784, 46.320523], [6.179997, 46.320731], [6.180317, 46.320883], [6.180468, 46.320983], [6.180644, 46.321176], [6.180773, 46.321393], [6.181048, 46.321908], [6.181131, 46.322127], [6.181366, 46.322474], [6.181649, 46.322729], [6.181751, 46.32278], [6.182006, 46.322829], [6.183182, 46.322882], [6.183583, 46.322936], [6.183952, 46.323061], [6.184336, 46.323304], [6.186397, 46.325297], [6.186984, 46.326098], [6.187161, 46.326285], [6.188869, 46.327832], [6.189612, 46.328247], [6.189935, 46.328465], [6.190403, 46.328839], [6.190718, 46.329134], [6.1911, 46.329557], [6.191631, 46.330011], [6.191745, 46.33018], [6.191882, 46.330576], [6.191894, 46.330708], [6.191936, 46.330757], [6.192033, 46.330773], [6.192128, 46.33075], [6.192886, 46.330431], [6.193036, 46.330321], [6.193127, 46.330138], [6.193183, 46.330122], [6.193435, 46.330143], [6.193906, 46.330078], [6.19399, 46.330097], [6.194055, 46.330143], [6.194454, 46.330912], [6.194758, 46.331597], [6.194729, 46.331666], [6.194477, 46.331756], [6.194294, 46.331776], [6.194257, 46.33174], [6.194282, 46.331722], [6.194224, 46.331721], [6.194252, 46.331713]]}, "properties": {"name": "1786984613.Monday_Evening_Cycle", "cmt": "2026-08-17", "tstamp": 1786924800, "desc": "---", "src": "6.04515/46.231753/6.194758/46.331776", "bbox": "6.04515/46.231753/6.194758/46.331776"}}]}