{"type": "FeatureCollection", "name": "TrackSet", "crs": {"type": "name", "properties": {"name": "urn:ogc:def:crs:OGC:1.3:CRS84"}}, "bbox": [6.045129, 46.228969, 6.194765, 46.331793], "features": [{"type": "Feature", "bbox": [6.045129, 46.228969, 6.194765, 46.331793], "geometry": {"type": "LineString", "coordinates": [[6.045484, 46.232408], [6.045533, 46.232401], [6.04548, 46.2324], [6.045404, 46.232338], [6.045282, 46.232297], [6.045233, 46.232189], [6.045276, 46.232113], [6.045134, 46.232068], [6.045129, 46.231996], [6.045586, 46.231768], [6.045895, 46.231579], [6.045941, 46.23145], [6.04604, 46.231336], [6.046199, 46.230957], [6.046386, 46.230787], [6.048338, 46.229955], [6.050558, 46.229044], [6.050777, 46.228972], [6.051021, 46.228969], [6.051514, 46.229025], [6.051718, 46.229106], [6.051784, 46.229173], [6.052118, 46.2298], [6.052282, 46.229961], [6.052496, 46.230079], [6.052828, 46.230142], [6.054934, 46.230299], [6.055241, 46.230293], [6.055441, 46.230214], [6.055599, 46.230233], [6.055656, 46.230273], [6.055681, 46.230333], [6.055681, 46.230513], [6.056402, 46.231733], [6.056621, 46.232002], [6.05681, 46.232155], [6.057127, 46.232335], [6.057175, 46.232435], [6.057479, 46.23264], [6.057591, 46.232695], [6.057797, 46.232736], [6.057893, 46.232811], [6.057924, 46.232917], [6.057892, 46.232968], [6.057735, 46.233066], [6.05772, 46.233117], [6.05775, 46.233159], [6.058024, 46.233256], [6.058177, 46.233274], [6.058481, 46.233215], [6.059191, 46.233008], [6.059387, 46.233039], [6.059457, 46.233092], [6.059549, 46.233297], [6.060325, 46.234634], [6.060376, 46.234681], [6.060456, 46.234697], [6.060559, 46.234679], [6.061212, 46.234463], [6.062083, 46.234224], [6.062607, 46.23396], [6.062832, 46.233796], [6.062964, 46.233806], [6.063462, 46.234223], [6.064351, 46.234861], [6.064776, 46.23528], [6.066324, 46.236388], [6.067145, 46.237523], [6.068298, 46.238892], [6.068468, 46.239039], [6.068619, 46.239111], [6.068897, 46.239446], [6.069823, 46.240223], [6.069899, 46.240246], [6.070068, 46.240216], [6.070867, 46.239648], [6.070934, 46.239635], [6.071005, 46.239657], [6.072994, 46.241069], [6.073042, 46.24115], [6.072989, 46.24129], [6.073012, 46.241338], [6.073696, 46.24218], [6.074256, 46.2427], [6.074418, 46.242719], [6.074498, 46.242693], [6.074927, 46.242361], [6.075072, 46.24235], [6.07515, 46.242376], [6.076088, 46.24306], [6.076797, 46.243537], [6.077796, 46.244179], [6.078175, 46.244378], [6.078447, 46.244559], [6.078736, 46.244851], [6.079048, 46.245062], [6.079532, 46.245339], [6.0802, 46.245511], [6.080957, 46.245603], [6.081196, 46.24561], [6.081597, 46.245668], [6.08179, 46.245734], [6.081818, 46.245777], [6.081807, 46.245867], [6.081651, 46.246154], [6.081755, 46.246273], [6.08244, 46.246574], [6.083137, 46.246811], [6.083539, 46.246993], [6.084222, 46.24724], [6.084307, 46.247359], [6.084245, 46.247555], [6.084262, 46.247613], [6.084552, 46.247897], [6.084837, 46.248061], [6.085334, 46.248276], [6.085791, 46.248425], [6.086196, 46.248521], [6.086512, 46.248538], [6.086787, 46.248655], [6.087381, 46.24879], [6.089226, 46.249341], [6.090234, 46.249714], [6.090374, 46.249785], [6.090616, 46.250015], [6.09085, 46.250045], [6.090965, 46.250084], [6.091981, 46.250514], [6.092373, 46.250769], [6.093035, 46.251419], [6.093158, 46.251501], [6.093373, 46.251929], [6.093549, 46.252082], [6.093899, 46.252159], [6.094943, 46.252077], [6.09548, 46.252069], [6.095656, 46.252045], [6.095872, 46.251931], [6.096031, 46.251911], [6.096116, 46.251931], [6.096718, 46.252212], [6.097178, 46.252372], [6.097201, 46.252471], [6.097077, 46.252744], [6.097051, 46.252933], [6.097168, 46.253257], [6.097435, 46.253536], [6.099402, 46.25465], [6.09984, 46.254858], [6.100074, 46.255012], [6.100333, 46.255027], [6.100615, 46.255086], [6.10171, 46.255406], [6.102104, 46.255473], [6.102116, 46.25552], [6.102079, 46.255565], [6.101952, 46.25565], [6.101607, 46.255973], [6.101457, 46.256068], [6.101312, 46.256208], [6.101052, 46.256366], [6.100843, 46.256553], [6.10061, 46.256783], [6.100571, 46.256871], [6.100588, 46.256923], [6.101289, 46.257455], [6.10167, 46.257669], [6.102464, 46.25825], [6.102519, 46.25828], [6.102602, 46.258284], [6.103214, 46.258257], [6.103382, 46.258304], [6.105173, 46.259445], [6.105809, 46.259652], [6.10614, 46.259675], [6.107486, 46.260182], [6.107801, 46.260257], [6.108238, 46.260323], [6.108986, 46.260306], [6.109208, 46.260339], [6.109311, 46.260573], [6.109758, 46.260892], [6.111303, 46.262133], [6.112654, 46.263171], [6.113354, 46.263645], [6.113802, 46.263906], [6.114375, 46.264285], [6.114536, 46.264336], [6.114813, 46.264328], [6.114897, 46.264369], [6.114928, 46.26444], [6.114914, 46.264571], [6.115171, 46.264818], [6.115298, 46.264974], [6.115311, 46.265033], [6.11524, 46.265147], [6.114707, 46.265499], [6.114709, 46.265559], [6.115288, 46.265862], [6.116251, 46.266233], [6.116257, 46.266309], [6.116413, 46.266386], [6.116834, 46.266717], [6.117683, 46.267486], [6.117921, 46.267668], [6.118204, 46.267825], [6.11845, 46.267914], [6.119318, 46.268154], [6.12023, 46.268626], [6.121115, 46.269122], [6.121597, 46.269303], [6.122093, 46.269816], [6.122441, 46.270061], [6.123003, 46.270375], [6.12334, 46.270528], [6.124666, 46.271005], [6.12503, 46.271367], [6.125512, 46.271674], [6.125746, 46.271731], [6.125961, 46.271849], [6.127397, 46.272104], [6.128078, 46.272306], [6.128478, 46.272479], [6.128963, 46.272799], [6.129517, 46.273083], [6.130408, 46.273464], [6.130619, 46.27358], [6.131577, 46.274406], [6.131761, 46.274654], [6.131843, 46.274949], [6.131782, 46.275489], [6.131895, 46.275846], [6.132159, 46.276303], [6.132421, 46.276593], [6.133841, 46.277944], [6.133909, 46.277995], [6.134021, 46.278025], [6.134092, 46.278084], [6.134152, 46.278233], [6.134346, 46.278486], [6.135119, 46.279681], [6.13527, 46.279839], [6.135468, 46.279975], [6.136278, 46.280388], [6.13689, 46.280623], [6.138135, 46.281045], [6.139417, 46.28164], [6.139752, 46.281681], [6.140382, 46.281683], [6.141272, 46.281643], [6.14219, 46.281747], [6.143049, 46.281883], [6.144402, 46.282051], [6.145533, 46.282381], [6.146007, 46.28259], [6.147269, 46.283722], [6.147601, 46.283938], [6.147839, 46.283983], [6.147899, 46.28402], [6.147935, 46.284078], [6.147925, 46.284144], [6.147845, 46.284252], [6.14785, 46.284313], [6.147897, 46.284365], [6.150903, 46.287195], [6.151124, 46.287369], [6.151343, 46.287464], [6.151426, 46.287702], [6.1517, 46.288015], [6.151871, 46.288292], [6.152555, 46.289656], [6.152697, 46.289886], [6.153203, 46.290945], [6.153473, 46.291784], [6.153531, 46.291908], [6.153734, 46.29212], [6.15375, 46.29232], [6.153818, 46.29244], [6.156851, 46.295561], [6.156877, 46.29562], [6.157304, 46.296021], [6.157723, 46.296323], [6.158309, 46.296621], [6.158868, 46.296818], [6.159642, 46.297032], [6.160316, 46.297292], [6.161488, 46.297684], [6.162304, 46.297999], [6.162596, 46.298166], [6.163535, 46.29885], [6.16402, 46.299154], [6.164434, 46.299481], [6.165761, 46.300984], [6.165999, 46.301213], [6.168917, 46.303182], [6.169073, 46.303249], [6.16962, 46.303397], [6.170146, 46.304355], [6.170475, 46.304707], [6.171588, 46.305523], [6.172383, 46.305888], [6.172507, 46.30598], [6.172539, 46.306041], [6.17253, 46.306111], [6.172404, 46.306469], [6.172378, 46.306807], [6.172367, 46.30766], [6.172396, 46.307898], [6.172452, 46.308044], [6.172667, 46.30837], [6.173264, 46.309082], [6.173373, 46.309317], [6.173465, 46.309714], [6.173602, 46.30992], [6.173579, 46.310245], [6.173946, 46.312245], [6.174126, 46.312948], [6.174491, 46.314799], [6.174669, 46.315504], [6.174705, 46.31557], [6.174901, 46.315734], [6.176202, 46.317338], [6.177314, 46.318466], [6.177549, 46.318655], [6.1778, 46.318934], [6.177885, 46.319285], [6.177984, 46.319488], [6.178771, 46.320418], [6.178898, 46.320487], [6.179002, 46.320505], [6.17962, 46.320514], [6.179777, 46.320535], [6.179852, 46.320566], [6.179964, 46.320732], [6.180338, 46.320912], [6.180541, 46.321056], [6.180783, 46.321435], [6.181322, 46.322437], [6.181513, 46.322642], [6.181682, 46.322756], [6.181778, 46.322799], [6.182021, 46.322838], [6.182994, 46.322865], [6.183457, 46.322925], [6.183975, 46.323092], [6.184301, 46.323297], [6.186418, 46.325313], [6.186715, 46.325701], [6.18688, 46.326005], [6.187033, 46.326182], [6.188843, 46.327826], [6.189839, 46.328408], [6.190477, 46.328915], [6.191107, 46.329577], [6.191591, 46.329989], [6.191718, 46.330133], [6.191899, 46.330616], [6.191905, 46.330735], [6.191958, 46.330779], [6.192048, 46.330791], [6.192145, 46.33077], [6.192832, 46.330459], [6.193001, 46.33035], [6.193161, 46.330151], [6.193263, 46.330112], [6.193493, 46.330123], [6.193891, 46.330076], [6.19399, 46.330093], [6.194063, 46.330144], [6.194552, 46.331123], [6.194765, 46.331627], [6.194728, 46.331678], [6.194344, 46.331793], [6.194263, 46.331759], [6.194287, 46.33168], [6.194309, 46.331733]]}, "properties": {"name": "1786098512.Friday_Afternoon_Cycle", "cmt": "2026-08-07", "tstamp": 1786060800, "desc": "---", "src": "6.045129/46.228969/6.194765/46.331793", "bbox": "6.045129/46.228969/6.194765/46.331793"}}]}