{"type": "FeatureCollection", "name": "TrackSet", "crs": {"type": "name", "properties": {"name": "urn:ogc:def:crs:OGC:1.3:CRS84"}}, "bbox": [6.045303, 46.22897, 6.194745, 46.33178], "features": [{"type": "Feature", "bbox": [6.045303, 46.22897, 6.194745, 46.33178], "geometry": {"type": "LineString", "coordinates": [[6.194369, 46.331656], [6.194196, 46.331696], [6.194192, 46.331757], [6.194328, 46.33178], [6.194426, 46.331771], [6.194654, 46.331687], [6.194745, 46.331591], [6.194423, 46.330902], [6.194158, 46.330413], [6.19395, 46.330112], [6.193798, 46.330095], [6.193158, 46.330182], [6.193031, 46.330346], [6.192806, 46.330497], [6.192164, 46.330761], [6.192061, 46.330786], [6.191938, 46.330782], [6.191867, 46.330691], [6.191817, 46.33048], [6.191673, 46.330138], [6.19154, 46.329967], [6.191219, 46.329661], [6.191039, 46.329534], [6.190586, 46.329052], [6.190265, 46.328776], [6.189831, 46.328452], [6.189437, 46.328216], [6.189061, 46.328027], [6.188629, 46.327727], [6.188656, 46.327728], [6.188579, 46.327641], [6.186987, 46.326204], [6.186317, 46.325285], [6.184335, 46.323362], [6.183982, 46.323123], [6.183603, 46.322986], [6.183116, 46.322912], [6.182006, 46.322837], [6.181799, 46.322805], [6.181608, 46.322742], [6.181479, 46.322629], [6.181219, 46.322276], [6.181052, 46.321917], [6.18065, 46.321199], [6.180483, 46.321005], [6.179998, 46.320736], [6.17984, 46.320554], [6.179769, 46.320529], [6.178957, 46.320512], [6.178876, 46.320494], [6.17874, 46.320406], [6.178294, 46.319846], [6.177974, 46.319524], [6.177869, 46.319322], [6.177737, 46.318863], [6.177491, 46.318674], [6.177203, 46.318326], [6.176384, 46.317528], [6.174831, 46.315657], [6.174663, 46.315554], [6.17458, 46.315424], [6.173788, 46.311552], [6.173541, 46.310153], [6.173428, 46.309854], [6.173448, 46.309692], [6.173394, 46.309457], [6.173213, 46.309032], [6.172833, 46.30861], [6.172565, 46.30826], [6.172411, 46.307992], [6.172352, 46.30781], [6.17241, 46.306465], [6.172502, 46.30607], [6.172466, 46.305976], [6.172374, 46.305892], [6.17174, 46.305614], [6.171309, 46.30536], [6.170822, 46.305012], [6.170311, 46.304597], [6.170054, 46.304256], [6.169622, 46.30343], [6.169454, 46.30335], [6.169168, 46.303309], [6.168776, 46.303116], [6.165991, 46.301223], [6.165749, 46.300991], [6.164478, 46.299541], [6.164029, 46.29918], [6.163531, 46.298869], [6.162555, 46.298169], [6.162107, 46.297945], [6.161486, 46.297712], [6.159433, 46.296989], [6.158414, 46.296678], [6.157985, 46.296481], [6.157496, 46.296183], [6.156683, 46.295533], [6.156021, 46.294885], [6.155784, 46.294591], [6.155303, 46.29409], [6.154947, 46.293782], [6.154781, 46.29354], [6.154242, 46.293004], [6.154164, 46.292866], [6.153484, 46.292094], [6.153471, 46.291853], [6.153066, 46.290758], [6.151895, 46.288457], [6.151582, 46.287956], [6.151368, 46.287731], [6.15108, 46.287565], [6.150961, 46.287315], [6.147914, 46.284424], [6.147483, 46.283938], [6.147107, 46.28367], [6.146094, 46.282727], [6.145932, 46.282601], [6.145633, 46.282463], [6.144477, 46.282117], [6.143775, 46.281995], [6.142901, 46.281895], [6.141991, 46.281749], [6.141268, 46.281682], [6.141028, 46.281679], [6.140573, 46.28172], [6.139655, 46.2817], [6.139427, 46.28167], [6.139105, 46.281566], [6.138468, 46.281227], [6.136484, 46.280539], [6.13594, 46.280284], [6.135466, 46.280014], [6.135184, 46.279794], [6.135047, 46.279634], [6.134133, 46.278296], [6.133777, 46.277901], [6.132411, 46.276638], [6.132149, 46.276361], [6.131879, 46.275918], [6.131759, 46.275591], [6.131729, 46.275329], [6.131795, 46.274936], [6.13171, 46.274637], [6.131461, 46.274345], [6.130699, 46.273672], [6.130386, 46.273477], [6.129591, 46.273135], [6.12886, 46.272735], [6.128465, 46.272479], [6.128164, 46.27234], [6.127167, 46.272067], [6.126769, 46.272017], [6.12604, 46.271865], [6.125621, 46.271844], [6.125555, 46.271812], [6.125418, 46.271628], [6.125186, 46.271488], [6.124721, 46.27106], [6.12456, 46.270944], [6.123452, 46.270564], [6.123229, 46.270466], [6.122465, 46.270081], [6.122167, 46.269861], [6.121645, 46.269239], [6.121622, 46.269166], [6.121696, 46.269017], [6.122596, 46.26844], [6.123019, 46.268227], [6.123247, 46.268126], [6.123976, 46.26793], [6.124548, 46.267742], [6.125149, 46.267439], [6.125252, 46.26731], [6.125292, 46.26698], [6.125147, 46.266323], [6.124821, 46.265654], [6.124719, 46.265108], [6.124767, 46.264467], [6.124722, 46.263962], [6.124732, 46.263505], [6.124527, 46.263426], [6.122173, 46.26214], [6.121395, 46.261746], [6.121105, 46.261626], [6.120787, 46.261408], [6.119448, 46.260715], [6.117316, 46.259508], [6.115461, 46.258557], [6.114838, 46.258196], [6.114325, 46.257947], [6.114339, 46.257935], [6.114311, 46.257956], [6.114301, 46.257914], [6.113731, 46.257587], [6.113521, 46.257503], [6.111922, 46.256633], [6.111353, 46.256215], [6.111109, 46.255978], [6.110532, 46.255267], [6.110205, 46.255015], [6.109831, 46.254777], [6.109247, 46.254477], [6.108456, 46.254207], [6.107428, 46.253815], [6.107033, 46.253648], [6.106668, 46.253447], [6.10481, 46.252189], [6.104015, 46.25168], [6.10186, 46.250198], [6.1016, 46.250095], [6.101397, 46.249917], [6.101065, 46.249687], [6.098397, 46.247972], [6.09734, 46.247265], [6.096172, 46.246445], [6.096059, 46.246393], [6.095915, 46.246202], [6.095713, 46.246114], [6.095471, 46.245924], [6.094849, 46.245521], [6.094605, 46.24545], [6.094363, 46.24523], [6.094215, 46.245054], [6.093937, 46.244833], [6.090805, 46.242733], [6.089592, 46.241876], [6.08924, 46.241663], [6.088718, 46.241289], [6.08581, 46.239346], [6.085208, 46.238926], [6.0851, 46.238746], [6.08482, 46.238653], [6.08474, 46.238605], [6.083565, 46.237795], [6.08307, 46.2375], [6.083, 46.237475], [6.082836, 46.237544], [6.0826, 46.237786], [6.082234, 46.238004], [6.082014, 46.238218], [6.081708, 46.238394], [6.081385, 46.238681], [6.081094, 46.238862], [6.080689, 46.23921], [6.080242, 46.239534], [6.079772, 46.239962], [6.079337, 46.240283], [6.07914, 46.240388], [6.079019, 46.24041], [6.078756, 46.240376], [6.078561, 46.240272], [6.078343, 46.240082], [6.077482, 46.23947], [6.07696, 46.239116], [6.076566, 46.238893], [6.07633, 46.238678], [6.075975, 46.238415], [6.075578, 46.238168], [6.075237, 46.23788], [6.074834, 46.237647], [6.07445, 46.237346], [6.074254, 46.237278], [6.073959, 46.237527], [6.071739, 46.239042], [6.071393, 46.239244], [6.07118, 46.239429], [6.070107, 46.240179], [6.069939, 46.24025], [6.069829, 46.240244], [6.069656, 46.240139], [6.069543, 46.240002], [6.06903, 46.239578], [6.068821, 46.239382], [6.068581, 46.239094], [6.068306, 46.238944], [6.067991, 46.238538], [6.06724, 46.23767], [6.066287, 46.236351], [6.064777, 46.235289], [6.064387, 46.234898], [6.063475, 46.234237], [6.063033, 46.233876], [6.062967, 46.233838], [6.06288, 46.233826], [6.062792, 46.233845], [6.062616, 46.233963], [6.061945, 46.23426], [6.060489, 46.234681], [6.060421, 46.234691], [6.060353, 46.234663], [6.059597, 46.233393], [6.059444, 46.233088], [6.059388, 46.233032], [6.059294, 46.233001], [6.059187, 46.232999], [6.058801, 46.233156], [6.058375, 46.233263], [6.058148, 46.233278], [6.057783, 46.233177], [6.057741, 46.233154], [6.057676, 46.233021], [6.057466, 46.232914], [6.05744, 46.232871], [6.057475, 46.232723], [6.057452, 46.232673], [6.057261, 46.232592], [6.057094, 46.232472], [6.056837, 46.232184], [6.056493, 46.231878], [6.055704, 46.230537], [6.0556, 46.230431], [6.055259, 46.230315], [6.054871, 46.230311], [6.053247, 46.230206], [6.052527, 46.230135], [6.052167, 46.229872], [6.051727, 46.229185], [6.051592, 46.229061], [6.051491, 46.229022], [6.05092, 46.22897], [6.05068, 46.229006], [6.046351, 46.230842], [6.046259, 46.230954], [6.04607, 46.23141], [6.046131, 46.23155], [6.046318, 46.23176], [6.046319, 46.231851], [6.046263, 46.231902], [6.045303, 46.232288], [6.045308, 46.23231], [6.045406, 46.232349], [6.045437, 46.232421], [6.045382, 46.232423], [6.04546, 46.232416], [6.045447, 46.232457], [6.04548, 46.232481], [6.045445, 46.232472], [6.04549, 46.232471]]}, "properties": {"name": "1786945521.Monday_Morning_Cycle", "cmt": "2026-08-17", "tstamp": 1786924800, "desc": "---", "src": "6.045303/46.22897/6.194745/46.33178", "bbox": "6.045303/46.22897/6.194745/46.33178"}}]}