{"type": "FeatureCollection", "name": "TrackSet", "crs": {"type": "name", "properties": {"name": "urn:ogc:def:crs:OGC:1.3:CRS84"}}, "bbox": [6.045304, 46.228966, 6.194741, 46.331763], "features": [{"type": "Feature", "bbox": [6.045304, 46.228966, 6.194741, 46.331763], "geometry": {"type": "LineString", "coordinates": [[6.194289, 46.331705], [6.194336, 46.331723], [6.19435, 46.331763], [6.194489, 46.33174], [6.19467, 46.33166], [6.194741, 46.331596], [6.194505, 46.33106], [6.194007, 46.330159], [6.193959, 46.330116], [6.193801, 46.33009], [6.193208, 46.330164], [6.193113, 46.330214], [6.192969, 46.330394], [6.192769, 46.330507], [6.192176, 46.330745], [6.191983, 46.330774], [6.191922, 46.330757], [6.191848, 46.330675], [6.191828, 46.330527], [6.19167, 46.330135], [6.191487, 46.329914], [6.191228, 46.329668], [6.191053, 46.329541], [6.190563, 46.32903], [6.190206, 46.328726], [6.189671, 46.328334], [6.189183, 46.328082], [6.188818, 46.327859], [6.187728, 46.326885], [6.186956, 46.326175], [6.18647, 46.325488], [6.186233, 46.325202], [6.184491, 46.323508], [6.184207, 46.323266], [6.183862, 46.32307], [6.183446, 46.322953], [6.182001, 46.322843], [6.18162, 46.322764], [6.181425, 46.322586], [6.181307, 46.322411], [6.180826, 46.321493], [6.180641, 46.321176], [6.180518, 46.321032], [6.180353, 46.320918], [6.180048, 46.320768], [6.179819, 46.320557], [6.179748, 46.320526], [6.178967, 46.320503], [6.178812, 46.320464], [6.178749, 46.320419], [6.178393, 46.319941], [6.178011, 46.319563], [6.177948, 46.319469], [6.177768, 46.318894], [6.176326, 46.317459], [6.175523, 46.316471], [6.174782, 46.315615], [6.174599, 46.315537], [6.173635, 46.310601], [6.173549, 46.310187], [6.173438, 46.309867], [6.173448, 46.3097], [6.173416, 46.309529], [6.173247, 46.309083], [6.172692, 46.308433], [6.172434, 46.308047], [6.172362, 46.307843], [6.172386, 46.306613], [6.172416, 46.306321], [6.172506, 46.306093], [6.172477, 46.305985], [6.172373, 46.305896], [6.171786, 46.305637], [6.171487, 46.305475], [6.170923, 46.305081], [6.170322, 46.304598], [6.170212, 46.304487], [6.170092, 46.304299], [6.169614, 46.303423], [6.169428, 46.303338], [6.169114, 46.30329], [6.168849, 46.303171], [6.166102, 46.301311], [6.165769, 46.301013], [6.16446, 46.299531], [6.164098, 46.299232], [6.162672, 46.298223], [6.162242, 46.297986], [6.161747, 46.297799], [6.16038, 46.297337], [6.159684, 46.297057], [6.158787, 46.296803], [6.158222, 46.29659], [6.157865, 46.296413], [6.157396, 46.296108], [6.156636, 46.295477], [6.156101, 46.294948], [6.155785, 46.294574], [6.155168, 46.293963], [6.154901, 46.293747], [6.15477, 46.293545], [6.15442, 46.293192], [6.154164, 46.292845], [6.153891, 46.292578], [6.153665, 46.292273], [6.15352, 46.292136], [6.153477, 46.292056], [6.153448, 46.291783], [6.153221, 46.291102], [6.153058, 46.290716], [6.151919, 46.288468], [6.151601, 46.287964], [6.151383, 46.28774], [6.151086, 46.287564], [6.15095, 46.287304], [6.147889, 46.284404], [6.147481, 46.283938], [6.147138, 46.283694], [6.145967, 46.282618], [6.145666, 46.282465], [6.144584, 46.282137], [6.143738, 46.28198], [6.143006, 46.281899], [6.142119, 46.281761], [6.141334, 46.281678], [6.141116, 46.281669], [6.140378, 46.28172], [6.139635, 46.281707], [6.139434, 46.281675], [6.139148, 46.281568], [6.138562, 46.281266], [6.136363, 46.28049], [6.135429, 46.279991], [6.135256, 46.279863], [6.135068, 46.279658], [6.134283, 46.278506], [6.133802, 46.277935], [6.132356, 46.276586], [6.132142, 46.27635], [6.131896, 46.27595], [6.131762, 46.275595], [6.131732, 46.275378], [6.131786, 46.274867], [6.131681, 46.274599], [6.131538, 46.274427], [6.131148, 46.274067], [6.130488, 46.273534], [6.12945, 46.273066], [6.128438, 46.272469], [6.128125, 46.272332], [6.12721, 46.272085], [6.126066, 46.271868], [6.125689, 46.271856], [6.125606, 46.271834], [6.125432, 46.27164], [6.125188, 46.271483], [6.124746, 46.271092], [6.12448, 46.270911], [6.123708, 46.270653], [6.123142, 46.270429], [6.122366, 46.270024], [6.122157, 46.269861], [6.121738, 46.269365], [6.121619, 46.269268], [6.121045, 46.269067], [6.119897, 46.268432], [6.119284, 46.268129], [6.118377, 46.267882], [6.11797, 46.267699], [6.117662, 46.267454], [6.116842, 46.266716], [6.116307, 46.266338], [6.116212, 46.266191], [6.11482, 46.265572], [6.114761, 46.265498], [6.114786, 46.265432], [6.115258, 46.265119], [6.115292, 46.265057], [6.11528, 46.264977], [6.1152, 46.264865], [6.114865, 46.264555], [6.113664, 46.263891], [6.11266, 46.263235], [6.111112, 46.262039], [6.10981, 46.260975], [6.109202, 46.260544], [6.109106, 46.260404], [6.10903, 46.26039], [6.108453, 46.260412], [6.108135, 46.26039], [6.107818, 46.260348], [6.107353, 46.260234], [6.106398, 46.259851], [6.105741, 46.259687], [6.105278, 46.259532], [6.103353, 46.258349], [6.103167, 46.258298], [6.102666, 46.258295], [6.102462, 46.258259], [6.101932, 46.257872], [6.10125, 46.257456], [6.100619, 46.256994], [6.100527, 46.256884], [6.10056, 46.256762], [6.10067, 46.256661], [6.101231, 46.256333], [6.101466, 46.256038], [6.101894, 46.255642], [6.101913, 46.255604], [6.101849, 46.255507], [6.10053, 46.255121], [6.099845, 46.254997], [6.099582, 46.254769], [6.099381, 46.254679], [6.098162, 46.253975], [6.097338, 46.253533], [6.097145, 46.253372], [6.097041, 46.253201], [6.096988, 46.253028], [6.097004, 46.252679], [6.097163, 46.252417], [6.097172, 46.252373], [6.097134, 46.252336], [6.096702, 46.252209], [6.09606, 46.251947], [6.095882, 46.251947], [6.095658, 46.252047], [6.095503, 46.252074], [6.095157, 46.252061], [6.093919, 46.252145], [6.093741, 46.252126], [6.093575, 46.252071], [6.093396, 46.251933], [6.093279, 46.251673], [6.093145, 46.251465], [6.093002, 46.251365], [6.092526, 46.250856], [6.092039, 46.250529], [6.090878, 46.250009], [6.090622, 46.249965], [6.090552, 46.249925], [6.090423, 46.249763], [6.090345, 46.249724], [6.089277, 46.249351], [6.088098, 46.24898], [6.086784, 46.248666], [6.086378, 46.248632], [6.086122, 46.248512], [6.085652, 46.248389], [6.085, 46.248144], [6.084574, 46.247909], [6.084369, 46.24773], [6.084181, 46.247456], [6.084179, 46.247253], [6.084139, 46.247206], [6.082622, 46.246694], [6.081781, 46.246255], [6.081708, 46.246145], [6.081711, 46.246089], [6.081784, 46.245985], [6.081805, 46.245882], [6.081869, 46.245808], [6.08183, 46.245723], [6.081778, 46.245685], [6.08133, 46.24557], [6.080784, 46.2455], [6.080132, 46.245456], [6.079505, 46.245294], [6.078778, 46.244832], [6.078584, 46.244655], [6.078093, 46.244312], [6.077751, 46.244138], [6.076372, 46.243198], [6.075886, 46.242908], [6.075074, 46.242355], [6.074985, 46.242341], [6.074815, 46.242397], [6.07472, 46.242505], [6.074434, 46.242712], [6.074351, 46.242723], [6.074261, 46.242697], [6.073679, 46.242127], [6.073055, 46.241335], [6.073013, 46.241212], [6.073035, 46.241093], [6.072996, 46.241042], [6.072805, 46.240937], [6.07176, 46.240171], [6.070987, 46.239648], [6.070857, 46.239633], [6.070793, 46.239669], [6.070608, 46.239847], [6.070014, 46.24024], [6.069847, 46.240236], [6.069772, 46.240204], [6.068926, 46.239481], [6.0686, 46.239113], [6.068304, 46.238923], [6.067309, 46.237748], [6.066331, 46.236379], [6.06482, 46.235313], [6.064288, 46.23481], [6.063564, 46.234306], [6.062971, 46.233852], [6.062891, 46.233829], [6.0628, 46.23384], [6.062553, 46.233992], [6.061982, 46.234243], [6.060492, 46.234668], [6.060415, 46.234682], [6.060345, 46.234667], [6.060256, 46.234565], [6.059487, 46.233153], [6.059393, 46.233033], [6.059301, 46.232998], [6.059184, 46.232998], [6.058792, 46.233149], [6.058212, 46.233286], [6.05807, 46.233265], [6.057886, 46.233185], [6.057758, 46.23316], [6.057649, 46.233005], [6.057492, 46.232943], [6.057435, 46.232864], [6.057479, 46.232709], [6.057453, 46.232659], [6.057251, 46.232584], [6.057088, 46.23247], [6.056451, 46.231843], [6.056233, 46.231421], [6.055725, 46.230576], [6.055644, 46.230458], [6.055573, 46.230411], [6.055212, 46.230308], [6.054914, 46.230309], [6.053154, 46.230193], [6.052537, 46.230119], [6.052131, 46.229815], [6.051688, 46.229117], [6.051597, 46.229055], [6.051355, 46.228993], [6.05091, 46.228966], [6.050712, 46.228989], [6.046421, 46.23079], [6.046292, 46.230907], [6.046095, 46.231384], [6.046245, 46.231671], [6.046385, 46.23183], [6.046366, 46.231863], [6.046311, 46.231899], [6.045929, 46.232015], [6.045304, 46.232279], [6.045408, 46.232355], [6.045424, 46.232428], [6.045401, 46.232452], [6.045386, 46.232438], [6.045456, 46.232455], [6.045452, 46.23249], [6.045413, 46.232481]]}, "properties": {"name": "1786081168.Friday_Morning_Cycle", "cmt": "2026-08-07", "tstamp": 1786060800, "desc": "---", "src": "6.045304/46.228966/6.194741/46.331763", "bbox": "6.045304/46.228966/6.194741/46.331763"}}]}