{"type": "FeatureCollection", "name": "TrackSet", "crs": {"type": "name", "properties": {"name": "urn:ogc:def:crs:OGC:1.3:CRS84"}}, "bbox": [6.045123, 46.228962, 6.194758, 46.3318], "features": [{"type": "Feature", "bbox": [6.045123, 46.228962, 6.194758, 46.3318], "geometry": {"type": "LineString", "coordinates": [[6.045412, 46.232434], [6.045457, 46.232394], [6.045434, 46.232367], [6.045207, 46.232227], [6.045123, 46.232047], [6.045142, 46.232005], [6.045234, 46.231932], [6.045843, 46.231648], [6.045904, 46.231596], [6.046064, 46.231319], [6.046168, 46.231018], [6.046271, 46.230868], [6.046355, 46.230806], [6.04795, 46.230117], [6.050025, 46.229256], [6.050734, 46.228983], [6.051005, 46.228962], [6.051528, 46.229027], [6.051743, 46.229126], [6.052143, 46.229821], [6.052341, 46.229989], [6.052583, 46.230091], [6.053168, 46.230174], [6.054913, 46.230301], [6.055249, 46.2303], [6.055474, 46.230221], [6.055558, 46.230223], [6.055636, 46.230254], [6.055687, 46.230306], [6.055688, 46.230486], [6.056105, 46.231221], [6.056445, 46.231759], [6.05664, 46.232004], [6.057104, 46.232329], [6.057185, 46.232436], [6.057441, 46.232603], [6.057486, 46.232669], [6.057592, 46.232716], [6.057796, 46.23273], [6.057881, 46.232793], [6.057913, 46.232927], [6.057848, 46.233005], [6.057717, 46.233087], [6.057766, 46.233169], [6.058015, 46.233261], [6.058242, 46.233269], [6.058628, 46.233187], [6.059253, 46.233009], [6.059363, 46.233027], [6.059457, 46.233072], [6.060323, 46.234639], [6.060376, 46.234687], [6.060468, 46.234703], [6.060567, 46.234684], [6.060724, 46.234606], [6.062022, 46.234251], [6.062652, 46.233944], [6.062821, 46.233803], [6.062885, 46.233795], [6.062961, 46.233822], [6.06352, 46.234268], [6.064258, 46.234793], [6.06477, 46.235286], [6.066332, 46.236396], [6.067152, 46.23755], [6.068333, 46.238944], [6.068692, 46.239174], [6.068873, 46.239423], [6.06978, 46.240192], [6.069932, 46.24024], [6.0701, 46.240199], [6.070266, 46.240053], [6.070819, 46.23966], [6.070884, 46.23963], [6.071047, 46.239661], [6.071257, 46.239834], [6.072977, 46.241049], [6.073046, 46.241137], [6.073014, 46.241316], [6.073034, 46.241369], [6.07321, 46.241535], [6.07377, 46.24228], [6.074266, 46.242699], [6.074356, 46.242723], [6.074452, 46.242714], [6.074863, 46.242383], [6.074936, 46.242349], [6.075027, 46.242343], [6.075105, 46.242367], [6.075919, 46.242944], [6.07719, 46.243784], [6.077824, 46.244188], [6.078182, 46.244369], [6.078621, 46.244684], [6.078829, 46.244892], [6.079447, 46.245287], [6.079581, 46.245354], [6.08016, 46.245498], [6.080802, 46.245605], [6.081208, 46.245646], [6.081743, 46.245755], [6.081797, 46.245817], [6.081795, 46.24586], [6.081669, 46.246158], [6.081769, 46.246291], [6.082543, 46.246608], [6.083854, 46.247046], [6.08406, 46.247188], [6.08424, 46.247246], [6.084308, 46.247298], [6.084335, 46.247374], [6.084247, 46.247585], [6.084284, 46.247651], [6.084575, 46.247911], [6.084994, 46.248136], [6.085861, 46.248447], [6.086234, 46.248527], [6.086564, 46.248547], [6.086803, 46.248659], [6.087853, 46.248919], [6.089151, 46.249319], [6.090281, 46.249733], [6.09042, 46.249825], [6.090608, 46.250026], [6.090855, 46.250061], [6.091094, 46.250135], [6.091905, 46.250476], [6.092233, 46.250658], [6.092583, 46.250924], [6.093034, 46.251405], [6.093183, 46.251527], [6.09341, 46.251962], [6.093632, 46.252113], [6.093948, 46.252163], [6.095024, 46.252084], [6.095504, 46.252077], [6.09569, 46.252049], [6.095841, 46.251966], [6.096012, 46.251931], [6.096105, 46.251947], [6.096334, 46.25207], [6.09642, 46.252085], [6.096734, 46.252227], [6.097206, 46.252385], [6.097043, 46.252855], [6.09704, 46.252954], [6.097153, 46.253247], [6.097365, 46.253484], [6.099069, 46.254464], [6.099828, 46.254847], [6.10004, 46.254994], [6.10031, 46.255023], [6.100659, 46.255098], [6.101672, 46.255395], [6.102078, 46.255469], [6.102054, 46.255551], [6.101891, 46.255709], [6.101277, 46.256246], [6.101133, 46.256348], [6.101042, 46.256381], [6.100715, 46.256641], [6.100579, 46.25678], [6.100525, 46.256879], [6.101216, 46.257402], [6.101625, 46.25765], [6.10252, 46.258272], [6.102581, 46.258289], [6.102837, 46.258262], [6.103201, 46.258264], [6.103376, 46.258312], [6.105187, 46.259457], [6.105756, 46.25965], [6.106173, 46.259692], [6.107524, 46.260204], [6.108209, 46.260336], [6.109099, 46.260312], [6.109345, 46.26059], [6.109618, 46.260778], [6.111894, 46.262581], [6.112982, 46.263388], [6.114298, 46.264252], [6.114535, 46.264346], [6.114808, 46.264333], [6.114878, 46.264368], [6.114959, 46.264627], [6.115189, 46.264821], [6.115309, 46.264983], [6.115316, 46.265051], [6.115279, 46.265113], [6.114703, 46.265498], [6.114693, 46.265543], [6.114731, 46.26559], [6.116223, 46.266238], [6.116272, 46.266347], [6.117021, 46.266885], [6.117921, 46.267677], [6.11821, 46.267825], [6.11846, 46.267915], [6.118896, 46.268022], [6.119408, 46.268196], [6.120961, 46.269037], [6.121296, 46.269192], [6.121434, 46.269224], [6.121568, 46.269287], [6.121807, 46.269473], [6.122086, 46.269802], [6.122499, 46.270087], [6.123321, 46.270507], [6.124187, 46.270832], [6.12461, 46.270965], [6.125085, 46.271401], [6.12554, 46.271683], [6.125742, 46.271739], [6.125961, 46.271849], [6.126611, 46.271984], [6.127465, 46.272123], [6.12822, 46.272359], [6.128423, 46.272448], [6.129059, 46.272851], [6.129649, 46.27315], [6.130432, 46.273478], [6.130658, 46.273606], [6.131486, 46.274326], [6.131669, 46.274514], [6.131759, 46.274655], [6.131822, 46.274808], [6.131842, 46.274967], [6.131776, 46.27537], [6.131788, 46.275535], [6.131963, 46.275992], [6.132184, 46.276343], [6.133825, 46.277926], [6.134094, 46.278103], [6.1351, 46.27964], [6.135248, 46.279806], [6.13545, 46.279961], [6.13608, 46.280294], [6.136485, 46.280473], [6.138297, 46.281114], [6.139409, 46.281641], [6.139779, 46.281693], [6.140366, 46.281698], [6.141137, 46.281662], [6.141509, 46.28168], [6.144332, 46.282044], [6.145496, 46.282393], [6.145726, 46.28248], [6.146053, 46.282648], [6.147326, 46.28377], [6.147558, 46.283925], [6.147879, 46.284004], [6.147933, 46.284126], [6.147846, 46.284312], [6.147887, 46.284363], [6.150996, 46.287289], [6.151061, 46.287342], [6.151308, 46.287453], [6.151363, 46.287511], [6.151444, 46.287715], [6.151706, 46.288009], [6.152083, 46.28866], [6.153068, 46.290649], [6.153294, 46.291184], [6.153496, 46.291821], [6.153568, 46.291952], [6.153736, 46.292124], [6.153808, 46.292397], [6.154729, 46.293388], [6.157104, 46.295843], [6.157356, 46.296071], [6.157719, 46.296323], [6.158396, 46.296658], [6.159661, 46.297034], [6.160146, 46.29722], [6.161409, 46.297643], [6.162242, 46.29797], [6.162549, 46.298133], [6.163592, 46.298878], [6.164074, 46.299188], [6.164397, 46.299446], [6.164675, 46.29971], [6.165695, 46.30093], [6.165994, 46.301213], [6.168853, 46.303145], [6.169273, 46.303302], [6.169556, 46.303369], [6.169672, 46.303495], [6.170166, 46.30439], [6.170461, 46.3047], [6.171105, 46.305201], [6.171449, 46.305436], [6.171831, 46.305641], [6.172388, 46.305886], [6.172523, 46.30598], [6.172562, 46.306044], [6.172557, 46.306115], [6.172454, 46.306402], [6.172411, 46.306827], [6.172399, 46.307862], [6.172446, 46.308014], [6.172659, 46.308344], [6.173199, 46.308955], [6.17337, 46.30932], [6.173519, 46.309776], [6.173639, 46.309951], [6.173578, 46.310219], [6.173732, 46.311059], [6.174459, 46.314638], [6.174698, 46.315538], [6.174933, 46.31576], [6.176164, 46.317296], [6.177379, 46.318529], [6.177508, 46.318623], [6.177782, 46.318929], [6.17782, 46.318981], [6.177928, 46.319394], [6.178012, 46.319539], [6.178759, 46.320413], [6.17884, 46.320462], [6.178958, 46.320492], [6.179642, 46.320507], [6.179796, 46.320536], [6.179977, 46.320732], [6.18026, 46.320865], [6.180473, 46.320997], [6.180636, 46.321175], [6.180846, 46.321513], [6.181263, 46.322339], [6.181478, 46.322596], [6.181693, 46.322758], [6.181892, 46.32282], [6.18201, 46.322832], [6.183064, 46.32287], [6.183418, 46.322914], [6.183863, 46.32304], [6.184061, 46.323132], [6.184311, 46.323299], [6.185005, 46.323932], [6.186371, 46.325287], [6.186577, 46.325533], [6.186955, 46.326109], [6.187063, 46.326226], [6.188852, 46.327853], [6.189753, 46.328371], [6.190408, 46.328865], [6.190706, 46.329138], [6.191127, 46.3296], [6.191609, 46.330008], [6.191726, 46.330154], [6.191932, 46.330762], [6.192023, 46.330786], [6.192122, 46.330765], [6.192901, 46.330415], [6.19299, 46.330362], [6.19314, 46.330155], [6.193221, 46.330106], [6.193547, 46.330098], [6.193846, 46.330058], [6.193947, 46.330069], [6.194033, 46.330115], [6.194328, 46.330733], [6.194493, 46.330998], [6.194758, 46.331618], [6.194746, 46.331667], [6.194694, 46.331704], [6.194359, 46.3318], [6.194293, 46.331789], [6.194272, 46.331737], [6.194304, 46.331723], [6.194325, 46.331786]]}, "properties": {"name": "1786030804.Thursday_Evening_Cycle", "cmt": "2026-08-06", "tstamp": 1785974400, "desc": "---", "src": "6.045123/46.228962/6.194758/46.3318", "bbox": "6.045123/46.228962/6.194758/46.3318"}}]}