{"type": "FeatureCollection", "name": "TrackSet", "crs": {"type": "name", "properties": {"name": "urn:ogc:def:crs:OGC:1.3:CRS84"}}, "bbox": [6.045085, 46.228989, 6.194738, 46.331796], "features": [{"type": "Feature", "bbox": [6.045085, 46.228989, 6.194738, 46.331796], "geometry": {"type": "LineString", "coordinates": [[6.045326, 46.232276], [6.045142, 46.232209], [6.045085, 46.232061], [6.045231, 46.231946], [6.045634, 46.231765], [6.045874, 46.231621], [6.045924, 46.231488], [6.046029, 46.231358], [6.046189, 46.23099], [6.046298, 46.230845], [6.046389, 46.230782], [6.048676, 46.229813], [6.050309, 46.229165], [6.050781, 46.229015], [6.051041, 46.228989], [6.051515, 46.229039], [6.051723, 46.229102], [6.051803, 46.2292], [6.052017, 46.229629], [6.052178, 46.229859], [6.052279, 46.229948], [6.052579, 46.230099], [6.053245, 46.230189], [6.054936, 46.230309], [6.055246, 46.230305], [6.055453, 46.230224], [6.055528, 46.230215], [6.055604, 46.230236], [6.055693, 46.230341], [6.055682, 46.230517], [6.056396, 46.231735], [6.056574, 46.231961], [6.057121, 46.232353], [6.05716, 46.232419], [6.057388, 46.232589], [6.057575, 46.232694], [6.05777, 46.23275], [6.057871, 46.232823], [6.0579, 46.232877], [6.057876, 46.232985], [6.057717, 46.23309], [6.057714, 46.233142], [6.057757, 46.233186], [6.058049, 46.23327], [6.058209, 46.233281], [6.058757, 46.233148], [6.05919, 46.233011], [6.059295, 46.233009], [6.059394, 46.233042], [6.059515, 46.233177], [6.060351, 46.234675], [6.060436, 46.234703], [6.060534, 46.234696], [6.060694, 46.234621], [6.061185, 46.234469], [6.061966, 46.234267], [6.062583, 46.23397], [6.062835, 46.233811], [6.062904, 46.233817], [6.064329, 46.234884], [6.064756, 46.235289], [6.064908, 46.235363], [6.065042, 46.235488], [6.066334, 46.236414], [6.067245, 46.237674], [6.068313, 46.238931], [6.06844, 46.239037], [6.068668, 46.239166], [6.068854, 46.239413], [6.069805, 46.240212], [6.069883, 46.240237], [6.070062, 46.240205], [6.070815, 46.239659], [6.070881, 46.239629], [6.07104, 46.239661], [6.072989, 46.241072], [6.073042, 46.241157], [6.073017, 46.241264], [6.073051, 46.241365], [6.073728, 46.242233], [6.07421, 46.242684], [6.074361, 46.242724], [6.074452, 46.242707], [6.074905, 46.242367], [6.07504, 46.24236], [6.075102, 46.242383], [6.07594, 46.242988], [6.077762, 46.244193], [6.078022, 46.244324], [6.078184, 46.244474], [6.078408, 46.244595], [6.078701, 46.244871], [6.079045, 46.24507], [6.079462, 46.245358], [6.08035, 46.245576], [6.081062, 46.245644], [6.081306, 46.245638], [6.081622, 46.245681], [6.081745, 46.24572], [6.081812, 46.245787], [6.08169, 46.24611], [6.081763, 46.24626], [6.082442, 46.246571], [6.08315, 46.246818], [6.083401, 46.246954], [6.084202, 46.247246], [6.084311, 46.247352], [6.084318, 46.247421], [6.084252, 46.24754], [6.084294, 46.24765], [6.08457, 46.247922], [6.084978, 46.248147], [6.08574, 46.248435], [6.086161, 46.248529], [6.086546, 46.248547], [6.086819, 46.248676], [6.08799, 46.248964], [6.089257, 46.249359], [6.090412, 46.249784], [6.090598, 46.250001], [6.091002, 46.250078], [6.091917, 46.250492], [6.0921, 46.250588], [6.092313, 46.250751], [6.093002, 46.251433], [6.093114, 46.251512], [6.093347, 46.251944], [6.093562, 46.252099], [6.09386, 46.252165], [6.094745, 46.252086], [6.0955, 46.25207], [6.095673, 46.252041], [6.095904, 46.251933], [6.095993, 46.251927], [6.096079, 46.251942], [6.096815, 46.252266], [6.097183, 46.252385], [6.097175, 46.252519], [6.097054, 46.25273], [6.097034, 46.252967], [6.097127, 46.253206], [6.097221, 46.253349], [6.097452, 46.25355], [6.099264, 46.254591], [6.099835, 46.254878], [6.100008, 46.255011], [6.100291, 46.255037], [6.100689, 46.25512], [6.101837, 46.255439], [6.101968, 46.255499], [6.102003, 46.255615], [6.101969, 46.255669], [6.100996, 46.256384], [6.100526, 46.256809], [6.100483, 46.256895], [6.100505, 46.256937], [6.10124, 46.257446], [6.101645, 46.257675], [6.102491, 46.258268], [6.10263, 46.258293], [6.103137, 46.258257], [6.103309, 46.258287], [6.103469, 46.258361], [6.105189, 46.25946], [6.105649, 46.259601], [6.105615, 46.259591], [6.105626, 46.25962], [6.105733, 46.259652], [6.106007, 46.259671], [6.106242, 46.259733], [6.107414, 46.260176], [6.107847, 46.260282], [6.108428, 46.260352], [6.109033, 46.260312], [6.109171, 46.260342], [6.109227, 46.260386], [6.109301, 46.260571], [6.109495, 46.260695], [6.110329, 46.261406], [6.110509, 46.261517], [6.11107, 46.261991], [6.112809, 46.263309], [6.114332, 46.264284], [6.114489, 46.26435], [6.114766, 46.264343], [6.114841, 46.264362], [6.114881, 46.264412], [6.114893, 46.264563], [6.114926, 46.264617], [6.115166, 46.264815], [6.115299, 46.265034], [6.115221, 46.265148], [6.114699, 46.265481], [6.114681, 46.265529], [6.114718, 46.265576], [6.115427, 46.265905], [6.116045, 46.266158], [6.116159, 46.266242], [6.116242, 46.266357], [6.116463, 46.266529], [6.116764, 46.26671], [6.117071, 46.266962], [6.117879, 46.267675], [6.118143, 46.26782], [6.11846, 46.267936], [6.119134, 46.268113], [6.119373, 46.268197], [6.120187, 46.268622], [6.120779, 46.268968], [6.121278, 46.2692], [6.121574, 46.269303], [6.122004, 46.269767], [6.122473, 46.270103], [6.123161, 46.270471], [6.124615, 46.270994], [6.125059, 46.271396], [6.125538, 46.271704], [6.125732, 46.271753], [6.125957, 46.271862], [6.127399, 46.272115], [6.128212, 46.272361], [6.128467, 46.272486], [6.129011, 46.272837], [6.129571, 46.273124], [6.130567, 46.273555], [6.130764, 46.273694], [6.131364, 46.274231], [6.131604, 46.274463], [6.131751, 46.274664], [6.131829, 46.27489], [6.13177, 46.275359], [6.131792, 46.275595], [6.131976, 46.276038], [6.132152, 46.276308], [6.132425, 46.276602], [6.133812, 46.277933], [6.134048, 46.27807], [6.13411, 46.278241], [6.134339, 46.278542], [6.13505, 46.279631], [6.13528, 46.279876], [6.13539, 46.279949], [6.136011, 46.280279], [6.136413, 46.280462], [6.138225, 46.281095], [6.139276, 46.281602], [6.139453, 46.281661], [6.139648, 46.281687], [6.140341, 46.281702], [6.141305, 46.281656], [6.14209, 46.281735], [6.144025, 46.282013], [6.144291, 46.282029], [6.145606, 46.282424], [6.145926, 46.282564], [6.146068, 46.282655], [6.147241, 46.283727], [6.147587, 46.283945], [6.1479, 46.284025], [6.147903, 46.284156], [6.147823, 46.284269], [6.147845, 46.284331], [6.15095, 46.287255], [6.151347, 46.287504], [6.151443, 46.287758], [6.151643, 46.287984], [6.151854, 46.288288], [6.15209, 46.288731], [6.153157, 46.290899], [6.153486, 46.291855], [6.153684, 46.29209], [6.15379, 46.292407], [6.154063, 46.292724], [6.155125, 46.293821], [6.157263, 46.295992], [6.157693, 46.296311], [6.158287, 46.29662], [6.158858, 46.296819], [6.158963, 46.296829], [6.159663, 46.29703], [6.16024, 46.29726], [6.161962, 46.29787], [6.162335, 46.298026], [6.162751, 46.298282], [6.163588, 46.298891], [6.164002, 46.299142], [6.164338, 46.299416], [6.164613, 46.299683], [6.165687, 46.300927], [6.165971, 46.301209], [6.16881, 46.303128], [6.169255, 46.303308], [6.169604, 46.303398], [6.170145, 46.3044], [6.170402, 46.304684], [6.171265, 46.305355], [6.171731, 46.305619], [6.172371, 46.305897], [6.172468, 46.305975], [6.172495, 46.306137], [6.1724, 46.306456], [6.172368, 46.306846], [6.172382, 46.307887], [6.172462, 46.308089], [6.172668, 46.308385], [6.17309, 46.308877], [6.173221, 46.309075], [6.173322, 46.309289], [6.173447, 46.3097], [6.173596, 46.309945], [6.173563, 46.310242], [6.173936, 46.312204], [6.174432, 46.314565], [6.174665, 46.31551], [6.174871, 46.315713], [6.176046, 46.317165], [6.176844, 46.317998], [6.177784, 46.318922], [6.17782, 46.318968], [6.177825, 46.319135], [6.177884, 46.319343], [6.177954, 46.319484], [6.178409, 46.320001], [6.178724, 46.320413], [6.178804, 46.320464], [6.178954, 46.320507], [6.179741, 46.320538], [6.179852, 46.320603], [6.179963, 46.320742], [6.180299, 46.320902], [6.180487, 46.321027], [6.180667, 46.321254], [6.181311, 46.322422], [6.181516, 46.322661], [6.181671, 46.322753], [6.181765, 46.322795], [6.181981, 46.322837], [6.182692, 46.322876], [6.183046, 46.322867], [6.183513, 46.322936], [6.183734, 46.322993], [6.183934, 46.323077], [6.184352, 46.323339], [6.186338, 46.325269], [6.186621, 46.325623], [6.186945, 46.326107], [6.187481, 46.326612], [6.188817, 46.327823], [6.18908, 46.328006], [6.189784, 46.328398], [6.190464, 46.328925], [6.19115, 46.329631], [6.191626, 46.330019], [6.191726, 46.330158], [6.191857, 46.330552], [6.191875, 46.330718], [6.191922, 46.330762], [6.192006, 46.330782], [6.192097, 46.330772], [6.192877, 46.330454], [6.19302, 46.330332], [6.193114, 46.330171], [6.193178, 46.330146], [6.193344, 46.330159], [6.193845, 46.330094], [6.194009, 46.330128], [6.194067, 46.330174], [6.194268, 46.330645], [6.194415, 46.330871], [6.194738, 46.331608], [6.194734, 46.331655], [6.194683, 46.331695], [6.194338, 46.331795], [6.194285, 46.331796], [6.194247, 46.331731], [6.194284, 46.331707], [6.194244, 46.331702], [6.194223, 46.331731], [6.194204, 46.331676]]}, "properties": {"name": "1787759074.Wednesday_Evening_Cycle", "cmt": "2026-08-26", "tstamp": 1787702400, "desc": "---", "src": "6.045085/46.228989/6.194738/46.331796", "bbox": "6.045085/46.228989/6.194738/46.331796"}}]}