{"type": "FeatureCollection", "name": "TrackSet", "crs": {"type": "name", "properties": {"name": "urn:ogc:def:crs:OGC:1.3:CRS84"}}, "bbox": [6.045314, 46.228969, 6.194735, 46.33178], "features": [{"type": "Feature", "bbox": [6.045314, 46.228969, 6.194735, 46.33178], "geometry": {"type": "LineString", "coordinates": [[6.194369, 46.331659], [6.194156, 46.331699], [6.19436, 46.331665], [6.194238, 46.33169], [6.194319, 46.331703], [6.194383, 46.33178], [6.194568, 46.331739], [6.194723, 46.331635], [6.194735, 46.331535], [6.194603, 46.331319], [6.194451, 46.330921], [6.194007, 46.33014], [6.193887, 46.330089], [6.193613, 46.33014], [6.19359, 46.330124], [6.19361, 46.330138], [6.193573, 46.330147], [6.193208, 46.330169], [6.193165, 46.330184], [6.192931, 46.330434], [6.192532, 46.330628], [6.192034, 46.330794], [6.191975, 46.330795], [6.191863, 46.330751], [6.191838, 46.330537], [6.19173, 46.330267], [6.191642, 46.330092], [6.191505, 46.329933], [6.191033, 46.329526], [6.190576, 46.329047], [6.190096, 46.328648], [6.189646, 46.328332], [6.188834, 46.327891], [6.188173, 46.327304], [6.186951, 46.326178], [6.18633, 46.325313], [6.186096, 46.32506], [6.184272, 46.323322], [6.183905, 46.323094], [6.183606, 46.322989], [6.183202, 46.322922], [6.18201, 46.322848], [6.181623, 46.322759], [6.181447, 46.322619], [6.181283, 46.322399], [6.180658, 46.321213], [6.18051, 46.321026], [6.179998, 46.320736], [6.179836, 46.320565], [6.179769, 46.320537], [6.17899, 46.32051], [6.178839, 46.320475], [6.178709, 46.320391], [6.178469, 46.320041], [6.177977, 46.319519], [6.177884, 46.319321], [6.177822, 46.319026], [6.177744, 46.318867], [6.177538, 46.318703], [6.176405, 46.317567], [6.174789, 46.315618], [6.174608, 46.315564], [6.174579, 46.315536], [6.174587, 46.315339], [6.174137, 46.313223], [6.174132, 46.313073], [6.173855, 46.311812], [6.173538, 46.310142], [6.173426, 46.309933], [6.17347, 46.30979], [6.173449, 46.309601], [6.173297, 46.309166], [6.1732, 46.308995], [6.172813, 46.308599], [6.172499, 46.308154], [6.172382, 46.307883], [6.172361, 46.307697], [6.172393, 46.30652], [6.172422, 46.306322], [6.172503, 46.306111], [6.172451, 46.305967], [6.172347, 46.305884], [6.17169, 46.305591], [6.171323, 46.305377], [6.170827, 46.305026], [6.170305, 46.3046], [6.170116, 46.304361], [6.169616, 46.303422], [6.169533, 46.303371], [6.169429, 46.303345], [6.169125, 46.303304], [6.168811, 46.303149], [6.167722, 46.302382], [6.165929, 46.301182], [6.165758, 46.301018], [6.164725, 46.299806], [6.16441, 46.299479], [6.164098, 46.299234], [6.163457, 46.298814], [6.162615, 46.298205], [6.162177, 46.297968], [6.161182, 46.297602], [6.160258, 46.297299], [6.159653, 46.297034], [6.158649, 46.296755], [6.158223, 46.296592], [6.157871, 46.296421], [6.157409, 46.296122], [6.156584, 46.295441], [6.155248, 46.294014], [6.154964, 46.293789], [6.154823, 46.293569], [6.154301, 46.293044], [6.154179, 46.292861], [6.153939, 46.292625], [6.153702, 46.292312], [6.153533, 46.292149], [6.153469, 46.291793], [6.153175, 46.290966], [6.152131, 46.288874], [6.151812, 46.28828], [6.151605, 46.287966], [6.151379, 46.287737], [6.151084, 46.287559], [6.150948, 46.287296], [6.148014, 46.284518], [6.147548, 46.283997], [6.147081, 46.283638], [6.145969, 46.282619], [6.145585, 46.282443], [6.144817, 46.282208], [6.14444, 46.28211], [6.143618, 46.281958], [6.143335, 46.281936], [6.142307, 46.281781], [6.141279, 46.281675], [6.140514, 46.281721], [6.139637, 46.281697], [6.139429, 46.281671], [6.139139, 46.281565], [6.138454, 46.281214], [6.13641, 46.280519], [6.135602, 46.280106], [6.13533, 46.279929], [6.135117, 46.279724], [6.134209, 46.278393], [6.13391, 46.278053], [6.132413, 46.276639], [6.132127, 46.276336], [6.131946, 46.276053], [6.131779, 46.27564], [6.131736, 46.275342], [6.13179, 46.274928], [6.131682, 46.274607], [6.13134, 46.27423], [6.130567, 46.273575], [6.129482, 46.27308], [6.128387, 46.272432], [6.128107, 46.272325], [6.127198, 46.272081], [6.125926, 46.271853], [6.125623, 46.271847], [6.125556, 46.271804], [6.125415, 46.271624], [6.12519, 46.271491], [6.124984, 46.27133], [6.124736, 46.271082], [6.124578, 46.270973], [6.124387, 46.270885], [6.123493, 46.270584], [6.12314, 46.270431], [6.12282, 46.270249], [6.122425, 46.270067], [6.122085, 46.269781], [6.121758, 46.269356], [6.121658, 46.26928], [6.121449, 46.269229], [6.121056, 46.26907], [6.120046, 46.268511], [6.119329, 46.268145], [6.118318, 46.267864], [6.11795, 46.267689], [6.11701, 46.266855], [6.116316, 46.266346], [6.116262, 46.26629], [6.116263, 46.266251], [6.116194, 46.266197], [6.115445, 46.265843], [6.11515, 46.265729], [6.114864, 46.265554], [6.114817, 46.265485], [6.114835, 46.265463], [6.115181, 46.265242], [6.115167, 46.265173], [6.115331, 46.265043], [6.115159, 46.264803], [6.114871, 46.264562], [6.113615, 46.26386], [6.112504, 46.263111], [6.109657, 46.260851], [6.109217, 46.260545], [6.109194, 46.260437], [6.109076, 46.260404], [6.108625, 46.26042], [6.108186, 46.260397], [6.107775, 46.260331], [6.107461, 46.260248], [6.106256, 46.259748], [6.105797, 46.25968], [6.105282, 46.259526], [6.103368, 46.25836], [6.103147, 46.258307], [6.102563, 46.258299], [6.10247, 46.258258], [6.10204, 46.257934], [6.101294, 46.257482], [6.100847, 46.257177], [6.100567, 46.256939], [6.10057, 46.256837], [6.100615, 46.256791], [6.10143, 46.25612], [6.101742, 46.255792], [6.10197, 46.255598], [6.101973, 46.255523], [6.101861, 46.255462], [6.100865, 46.25523], [6.100517, 46.25511], [6.10022, 46.255052], [6.099878, 46.255028], [6.099559, 46.254747], [6.097324, 46.253513], [6.097114, 46.253283], [6.097022, 46.253036], [6.097038, 46.252708], [6.097215, 46.252379], [6.096332, 46.252058], [6.096151, 46.251967], [6.095987, 46.251937], [6.095907, 46.251935], [6.095657, 46.252048], [6.095516, 46.25207], [6.094983, 46.252073], [6.093959, 46.252139], [6.093791, 46.252129], [6.093571, 46.252062], [6.093415, 46.251937], [6.09329, 46.251663], [6.093136, 46.251434], [6.093047, 46.251389], [6.092577, 46.25089], [6.092281, 46.250663], [6.091839, 46.250419], [6.090901, 46.250012], [6.090585, 46.249944], [6.090471, 46.249806], [6.090344, 46.24973], [6.088965, 46.249253], [6.088241, 46.249028], [6.087186, 46.248754], [6.086776, 46.248661], [6.086415, 46.248635], [6.086185, 46.248518], [6.085601, 46.248361], [6.085023, 46.248136], [6.08463, 46.247935], [6.084384, 46.247727], [6.084214, 46.247495], [6.084164, 46.247224], [6.082846, 46.246787], [6.082308, 46.246593], [6.082016, 46.246453], [6.081736, 46.246172], [6.081724, 46.24612], [6.081816, 46.245977], [6.081815, 46.245886], [6.081894, 46.245816], [6.081866, 46.245747], [6.081789, 46.245702], [6.081559, 46.245645], [6.08094, 46.24556], [6.080299, 46.245503], [6.079567, 46.245344], [6.078784, 46.244869], [6.078374, 46.244516], [6.077782, 46.244159], [6.077222, 46.243764], [6.077073, 46.243694], [6.075911, 46.242942], [6.075592, 46.242682], [6.075097, 46.242356], [6.075024, 46.242338], [6.074872, 46.242385], [6.074444, 46.242719], [6.074281, 46.242702], [6.073724, 46.242174], [6.073045, 46.241322], [6.073021, 46.241268], [6.073054, 46.241097], [6.073019, 46.241053], [6.072388, 46.240647], [6.070956, 46.239633], [6.070881, 46.239637], [6.070829, 46.239667], [6.070675, 46.239801], [6.070022, 46.240234], [6.069857, 46.240242], [6.069777, 46.240212], [6.068896, 46.239452], [6.068604, 46.239099], [6.068312, 46.238927], [6.067341, 46.23779], [6.066315, 46.236371], [6.064786, 46.235292], [6.06428, 46.234796], [6.063439, 46.234212], [6.063013, 46.233859], [6.062868, 46.233827], [6.062802, 46.23384], [6.062098, 46.23421], [6.0605, 46.234671], [6.06037, 46.234664], [6.060281, 46.234574], [6.059417, 46.233043], [6.059348, 46.233009], [6.059157, 46.233007], [6.058896, 46.23313], [6.058328, 46.233274], [6.058193, 46.233286], [6.058022, 46.23325], [6.057932, 46.233197], [6.05778, 46.233154], [6.057708, 46.233034], [6.057529, 46.232953], [6.05747, 46.232884], [6.057489, 46.232703], [6.05745, 46.232659], [6.057321, 46.232619], [6.057164, 46.232518], [6.056501, 46.231919], [6.056398, 46.231763], [6.056282, 46.231493], [6.055627, 46.23045], [6.055235, 46.230316], [6.054787, 46.230307], [6.052542, 46.230128], [6.052118, 46.229809], [6.051679, 46.229113], [6.05151, 46.229024], [6.051403, 46.229005], [6.050885, 46.228969], [6.050671, 46.229013], [6.046385, 46.23081], [6.046262, 46.230933], [6.046078, 46.231385], [6.046096, 46.231468], [6.0463, 46.23174], [6.046326, 46.231828], [6.046286, 46.231875], [6.04617, 46.23193], [6.045998, 46.23198], [6.045328, 46.232258], [6.045314, 46.232304], [6.045358, 46.23232], [6.045432, 46.232423], [6.045411, 46.232427], [6.045453, 46.232427], [6.045436, 46.232449], [6.04547, 46.232441], [6.045482, 46.232468], [6.045407, 46.232501], [6.045401, 46.232473]]}, "properties": {"name": "1787636088.Tuesday_Morning_Cycle", "cmt": "2026-08-25", "tstamp": 1787616000, "desc": "---", "src": "6.045314/46.228969/6.194735/46.33178", "bbox": "6.045314/46.228969/6.194735/46.33178"}}]}