{"type": "FeatureCollection", "name": "TrackSet", "crs": {"type": "name", "properties": {"name": "urn:ogc:def:crs:OGC:1.3:CRS84"}}, "bbox": [6.193119, 46.327735, 6.238338, 46.378426], "features": [{"type": "Feature", "bbox": [6.193119, 46.327735, 6.238338, 46.378426], "geometry": {"type": "LineString", "coordinates": [[6.194219, 46.331685], [6.194408, 46.33166], [6.194226, 46.331704], [6.194304, 46.331741], [6.19441, 46.331735], [6.194583, 46.331683], [6.194712, 46.33161], [6.194593, 46.331283], [6.194135, 46.330367], [6.193989, 46.330139], [6.193856, 46.330099], [6.193302, 46.330171], [6.193138, 46.330151], [6.193119, 46.329991], [6.193178, 46.329745], [6.193301, 46.329635], [6.193519, 46.329568], [6.195531, 46.329188], [6.196375, 46.328962], [6.19761, 46.328533], [6.199767, 46.327735], [6.199857, 46.327757], [6.199924, 46.327808], [6.200027, 46.327991], [6.200184, 46.328074], [6.200985, 46.329042], [6.201317, 46.329519], [6.201785, 46.330326], [6.202131, 46.331128], [6.202317, 46.331715], [6.202462, 46.332597], [6.202459, 46.333878], [6.202488, 46.334205], [6.202446, 46.33461], [6.202466, 46.335259], [6.202525, 46.335834], [6.202706, 46.336636], [6.202973, 46.337419], [6.203348, 46.338179], [6.203671, 46.338714], [6.204525, 46.33991], [6.204852, 46.340483], [6.20515, 46.341104], [6.205319, 46.341591], [6.205559, 46.342497], [6.205973, 46.34418], [6.206416, 46.346245], [6.20678, 46.347719], [6.206964, 46.348331], [6.207132, 46.348849], [6.207522, 46.349632], [6.208109, 46.350537], [6.208897, 46.351493], [6.214141, 46.356996], [6.215629, 46.358491], [6.215871, 46.358787], [6.216135, 46.358964], [6.217283, 46.359998], [6.217931, 46.360602], [6.218683, 46.361371], [6.219498, 46.362312], [6.219748, 46.362642], [6.222314, 46.366234], [6.222796, 46.366796], [6.22333, 46.367331], [6.223778, 46.367713], [6.224648, 46.368281], [6.224964, 46.368524], [6.225823, 46.368992], [6.228595, 46.370348], [6.22929, 46.370737], [6.230081, 46.371246], [6.230569, 46.37163], [6.232879, 46.373749], [6.233904, 46.374993], [6.235029, 46.376524], [6.235266, 46.376761], [6.23556, 46.376965], [6.236244, 46.377338], [6.237498, 46.377923], [6.237993, 46.378179], [6.238265, 46.378253], [6.238321, 46.378298], [6.238338, 46.378351], [6.238311, 46.378396], [6.23823, 46.378426], [6.238147, 46.378422], [6.23806, 46.378396], [6.237786, 46.378129], [6.237512, 46.377956], [6.235612, 46.377043], [6.235255, 46.376823], [6.234967, 46.376552], [6.234724, 46.376258], [6.232754, 46.37371], [6.231904, 46.372923], [6.231716, 46.372807], [6.231489, 46.372552], [6.230769, 46.371928], [6.230119, 46.371429], [6.229177, 46.370802], [6.228637, 46.370496], [6.227174, 46.369816], [6.226955, 46.36965], [6.225515, 46.368956], [6.224921, 46.368629], [6.224019, 46.368045], [6.223523, 46.367663], [6.223167, 46.367343], [6.222592, 46.366779], [6.222104, 46.366185], [6.219993, 46.363168], [6.219482, 46.362499], [6.218471, 46.361324], [6.217822, 46.360666], [6.216746, 46.359661], [6.216402, 46.359394], [6.216123, 46.35913], [6.215773, 46.358958], [6.215724, 46.358889], [6.215707, 46.358728], [6.215662, 46.358655], [6.214879, 46.357932], [6.212651, 46.355626], [6.211012, 46.353892], [6.210424, 46.353306], [6.208746, 46.351543], [6.208049, 46.350716], [6.207553, 46.349998], [6.20732, 46.349583], [6.207003, 46.348904], [6.206717, 46.348116], [6.206524, 46.347389], [6.205303, 46.342123], [6.205015, 46.341169], [6.204633, 46.340277], [6.204388, 46.339874], [6.203598, 46.338757], [6.203173, 46.338052], [6.202902, 46.33749], [6.202628, 46.3367], [6.202471, 46.336086], [6.202371, 46.335362], [6.202346, 46.334534], [6.202366, 46.332814], [6.202284, 46.332058], [6.202162, 46.331515], [6.201748, 46.330513], [6.201316, 46.329728], [6.200799, 46.328988], [6.200005, 46.328048], [6.199932, 46.327991], [6.199744, 46.32792], [6.199338, 46.327912], [6.1976, 46.32857], [6.195949, 46.329109], [6.195234, 46.329287], [6.19343, 46.329629], [6.193334, 46.329665], [6.193206, 46.329787], [6.193171, 46.330112], [6.193209, 46.330143], [6.193285, 46.330149], [6.193842, 46.330074], [6.194014, 46.330119], [6.194073, 46.330175], [6.194312, 46.330676], [6.194458, 46.330889], [6.194748, 46.33161], [6.194724, 46.331659], [6.19436, 46.331791], [6.194277, 46.331773], [6.194262, 46.331724], [6.194274, 46.331746], [6.194244, 46.331753], [6.194281, 46.331692]]}, "properties": {"name": "1787031015.Tucking", "cmt": "2026-08-18", "tstamp": 1787011200, "desc": "---", "src": "6.193119/46.327735/6.238338/46.378426", "bbox": "6.193119/46.327735/6.238338/46.378426"}}]}