{"type": "FeatureCollection", "name": "TrackSet", "crs": {"type": "name", "properties": {"name": "urn:ogc:def:crs:OGC:1.3:CRS84"}}, "bbox": [6.19313, 46.327767, 6.238301, 46.378439], "features": [{"type": "Feature", "bbox": [6.19313, 46.327767, 6.238301, 46.378439], "geometry": {"type": "LineString", "coordinates": [[6.194664, 46.331448], [6.19457, 46.331364], [6.194345, 46.330782], [6.193985, 46.330163], [6.19383, 46.330119], [6.19321, 46.330188], [6.19313, 46.330148], [6.193136, 46.329837], [6.193208, 46.329716], [6.19328, 46.329668], [6.193589, 46.329574], [6.195478, 46.329208], [6.196245, 46.329008], [6.1973, 46.328653], [6.199689, 46.327767], [6.199867, 46.3278], [6.199979, 46.327965], [6.200121, 46.328058], [6.200937, 46.329019], [6.201455, 46.329761], [6.201902, 46.330614], [6.202194, 46.331339], [6.202365, 46.331935], [6.202461, 46.33264], [6.202487, 46.334124], [6.202457, 46.335078], [6.202487, 46.335518], [6.20262, 46.3363], [6.202804, 46.336959], [6.203037, 46.337567], [6.203413, 46.338299], [6.204221, 46.339504], [6.204556, 46.339944], [6.204843, 46.340415], [6.205124, 46.341006], [6.205502, 46.342232], [6.206794, 46.347733], [6.206945, 46.348229], [6.207175, 46.348885], [6.207437, 46.349455], [6.207702, 46.349935], [6.208122, 46.350559], [6.209007, 46.351621], [6.212995, 46.355806], [6.214713, 46.357587], [6.21551, 46.358366], [6.215825, 46.358744], [6.216088, 46.358943], [6.2177, 46.360396], [6.218299, 46.360982], [6.218967, 46.361693], [6.219908, 46.362848], [6.222256, 46.366174], [6.222688, 46.366693], [6.223094, 46.367105], [6.223776, 46.3677], [6.224806, 46.368426], [6.225084, 46.368596], [6.226107, 46.369134], [6.228699, 46.370408], [6.229537, 46.370901], [6.230184, 46.371339], [6.231559, 46.372511], [6.232849, 46.373738], [6.234956, 46.376453], [6.235193, 46.376703], [6.235598, 46.376979], [6.2379, 46.378124], [6.238245, 46.378246], [6.238301, 46.378294], [6.238287, 46.378394], [6.23816, 46.378439], [6.238087, 46.378433], [6.237772, 46.37814], [6.237463, 46.377955], [6.235698, 46.377116], [6.235377, 46.376944], [6.235165, 46.376792], [6.234933, 46.376568], [6.233778, 46.375062], [6.232662, 46.373714], [6.231921, 46.373014], [6.231712, 46.372873], [6.231452, 46.372591], [6.230899, 46.372084], [6.229949, 46.371338], [6.229104, 46.370796], [6.228423, 46.37042], [6.227254, 46.369891], [6.226871, 46.369659], [6.225488, 46.368975], [6.225018, 46.368717], [6.224565, 46.368444], [6.223931, 46.368009], [6.223114, 46.367334], [6.222629, 46.366855], [6.222136, 46.366275], [6.21963, 46.362753], [6.21908, 46.362054], [6.218635, 46.361556], [6.217786, 46.360684], [6.21675, 46.359718], [6.216073, 46.359142], [6.215823, 46.359055], [6.215756, 46.359008], [6.215718, 46.358945], [6.215708, 46.358805], [6.215623, 46.358673], [6.215047, 46.35814], [6.213969, 46.357036], [6.211451, 46.354394], [6.209974, 46.352885], [6.208553, 46.351378], [6.208097, 46.350832], [6.20763, 46.35018], [6.207245, 46.349505], [6.207014, 46.348993], [6.206737, 46.348227], [6.20654, 46.347519], [6.205247, 46.342055], [6.204936, 46.341072], [6.204628, 46.340388], [6.204488, 46.340144], [6.203216, 46.338217], [6.202916, 46.337598], [6.202674, 46.336957], [6.202507, 46.336388], [6.202379, 46.335741], [6.202316, 46.3348], [6.202331, 46.332731], [6.202249, 46.332059], [6.202112, 46.331489], [6.201703, 46.330486], [6.201244, 46.329648], [6.200831, 46.329069], [6.200022, 46.328109], [6.199877, 46.328005], [6.199789, 46.327973], [6.199596, 46.327933], [6.199399, 46.327935], [6.197374, 46.328679], [6.195896, 46.329156], [6.195285, 46.329303], [6.193474, 46.329646], [6.193329, 46.329693], [6.193209, 46.329832], [6.193178, 46.33005], [6.19321, 46.330142], [6.193341, 46.330154], [6.193784, 46.33008], [6.193981, 46.330124], [6.194084, 46.330247], [6.194458, 46.330938], [6.194749, 46.331555], [6.194735, 46.331619], [6.194634, 46.331709], [6.194335, 46.331799]]}, "properties": {"name": "1788328999.Quick_blast_before_🇦🇹", "cmt": "2026-09-02", "tstamp": 1788307200, "desc": "---", "src": "6.19313/46.327767/6.238301/46.378439", "bbox": "6.19313/46.327767/6.238301/46.378439"}}]}