{"type": "FeatureCollection", "name": "TrackSet", "crs": {"type": "name", "properties": {"name": "urn:ogc:def:crs:OGC:1.3:CRS84"}}, "bbox": [6.045142, 46.228972, 6.194747, 46.331808], "features": [{"type": "Feature", "bbox": [6.045142, 46.228972, 6.194747, 46.331808], "geometry": {"type": "LineString", "coordinates": [[6.04544, 46.232311], [6.045199, 46.232241], [6.04544, 46.232311], [6.045249, 46.232182], [6.045142, 46.23199], [6.045629, 46.231758], [6.0459, 46.231594], [6.045941, 46.231453], [6.046065, 46.231346], [6.046222, 46.230967], [6.04636, 46.230824], [6.047211, 46.230436], [6.050468, 46.22909], [6.050842, 46.228972], [6.050983, 46.228978], [6.05154, 46.22903], [6.051666, 46.229062], [6.05177, 46.229122], [6.051883, 46.229277], [6.052021, 46.229644], [6.052136, 46.22985], [6.052426, 46.230032], [6.052608, 46.230098], [6.053081, 46.230165], [6.055029, 46.230304], [6.055283, 46.230292], [6.055517, 46.230206], [6.055605, 46.230221], [6.055673, 46.230271], [6.0557, 46.23034], [6.05571, 46.230543], [6.056315, 46.231605], [6.056582, 46.231976], [6.056727, 46.232108], [6.057072, 46.232308], [6.057155, 46.232409], [6.057458, 46.232639], [6.057778, 46.232753], [6.05787, 46.232832], [6.057892, 46.232926], [6.057871, 46.232969], [6.057714, 46.233064], [6.057697, 46.233117], [6.057742, 46.23316], [6.058036, 46.233266], [6.058205, 46.233277], [6.059235, 46.233001], [6.059344, 46.23302], [6.059435, 46.233072], [6.060334, 46.234657], [6.060409, 46.234697], [6.060593, 46.234684], [6.060912, 46.234559], [6.062111, 46.234208], [6.062571, 46.233979], [6.062816, 46.233823], [6.062872, 46.233811], [6.063005, 46.233857], [6.063257, 46.23408], [6.06428, 46.234806], [6.064783, 46.235293], [6.066319, 46.236376], [6.06645, 46.236526], [6.067254, 46.237684], [6.068292, 46.238897], [6.068413, 46.239003], [6.068649, 46.239139], [6.068896, 46.239452], [6.069828, 46.240223], [6.06991, 46.240243], [6.07009, 46.240201], [6.070885, 46.239634], [6.071032, 46.23966], [6.072993, 46.241076], [6.073048, 46.241161], [6.073027, 46.24129], [6.073078, 46.241423], [6.073709, 46.242206], [6.07422, 46.242672], [6.07429, 46.242707], [6.074462, 46.242698], [6.074801, 46.242422], [6.074919, 46.242358], [6.074995, 46.242348], [6.075143, 46.24239], [6.076643, 46.243449], [6.077737, 46.24416], [6.078325, 46.244487], [6.078639, 46.244733], [6.07874, 46.244849], [6.079556, 46.24537], [6.079879, 46.245459], [6.080213, 46.245509], [6.080375, 46.245556], [6.080882, 46.245589], [6.081296, 46.245643], [6.08149, 46.245691], [6.081697, 46.245706], [6.081804, 46.245743], [6.081848, 46.245837], [6.081687, 46.246131], [6.081695, 46.246181], [6.081775, 46.246274], [6.082251, 46.246491], [6.08317, 46.246813], [6.084284, 46.247278], [6.084325, 46.247417], [6.084248, 46.247597], [6.084299, 46.247655], [6.084543, 46.247899], [6.084939, 46.248121], [6.085129, 46.248188], [6.085132, 46.248216], [6.085101, 46.248178], [6.08557, 46.248377], [6.086006, 46.248501], [6.086193, 46.248539], [6.086556, 46.248559], [6.08681, 46.248683], [6.087738, 46.248888], [6.089185, 46.249341], [6.090361, 46.249787], [6.090427, 46.249824], [6.090601, 46.250018], [6.090881, 46.250073], [6.091805, 46.250436], [6.092137, 46.25061], [6.092554, 46.250922], [6.092999, 46.251394], [6.093129, 46.251484], [6.093387, 46.251965], [6.093602, 46.252106], [6.093891, 46.25216], [6.094932, 46.252088], [6.095411, 46.252089], [6.095609, 46.252072], [6.095884, 46.251948], [6.096016, 46.251942], [6.096563, 46.252169], [6.09717, 46.252376], [6.097019, 46.252848], [6.09704, 46.253032], [6.0972, 46.253319], [6.097467, 46.253549], [6.099024, 46.254452], [6.099601, 46.254763], [6.099826, 46.254855], [6.10004, 46.255005], [6.100636, 46.2551], [6.101561, 46.255354], [6.102078, 46.255465], [6.102107, 46.255495], [6.102059, 46.255574], [6.10175, 46.255848], [6.101372, 46.256114], [6.101156, 46.256313], [6.100705, 46.256618], [6.100521, 46.256827], [6.100571, 46.256936], [6.101199, 46.257401], [6.10157, 46.257606], [6.102458, 46.258228], [6.102584, 46.258268], [6.103105, 46.258245], [6.103368, 46.258303], [6.105105, 46.2594], [6.105329, 46.259502], [6.10569, 46.259618], [6.106198, 46.259695], [6.107337, 46.260118], [6.107689, 46.26022], [6.108189, 46.260302], [6.108563, 46.260334], [6.10904, 46.260299], [6.109201, 46.260322], [6.109328, 46.26058], [6.109722, 46.260867], [6.110982, 46.261899], [6.112646, 46.263166], [6.114303, 46.264258], [6.114529, 46.264345], [6.1148, 46.264333], [6.114868, 46.264381], [6.1149, 46.264442], [6.1149, 46.264563], [6.115243, 46.26492], [6.115285, 46.265032], [6.115199, 46.265145], [6.114715, 46.265476], [6.114682, 46.265516], [6.114692, 46.26556], [6.114744, 46.265602], [6.114977, 46.265691], [6.115036, 46.26576], [6.116007, 46.266115], [6.116157, 46.266257], [6.117024, 46.26689], [6.117941, 46.267689], [6.118232, 46.267834], [6.119108, 46.268085], [6.119363, 46.268183], [6.120869, 46.269001], [6.121573, 46.269315], [6.121788, 46.269478], [6.122094, 46.269823], [6.122444, 46.270071], [6.122555, 46.270114], [6.122561, 46.270154], [6.122655, 46.270234], [6.123345, 46.270557], [6.124588, 46.270973], [6.12505, 46.271395], [6.125497, 46.271681], [6.125736, 46.271737], [6.12592, 46.271841], [6.127349, 46.272109], [6.128249, 46.272382], [6.128517, 46.272509], [6.128999, 46.272819], [6.129487, 46.27307], [6.130418, 46.273476], [6.130639, 46.273596], [6.130834, 46.273739], [6.131509, 46.274344], [6.131775, 46.274669], [6.13185, 46.274898], [6.131783, 46.275386], [6.131816, 46.275629], [6.131969, 46.276005], [6.132134, 46.276281], [6.132391, 46.276576], [6.133832, 46.277942], [6.134039, 46.278059], [6.135091, 46.27965], [6.135241, 46.279821], [6.135453, 46.279972], [6.136228, 46.280366], [6.136666, 46.280545], [6.138123, 46.281043], [6.13944, 46.281647], [6.139635, 46.281681], [6.140255, 46.281697], [6.14066, 46.281697], [6.141156, 46.281664], [6.141647, 46.281688], [6.144093, 46.282034], [6.144403, 46.282055], [6.145563, 46.282404], [6.146063, 46.282632], [6.147281, 46.283736], [6.147588, 46.283937], [6.147835, 46.283978], [6.147893, 46.284014], [6.147926, 46.284136], [6.147837, 46.284301], [6.147883, 46.284356], [6.150929, 46.287229], [6.151053, 46.287334], [6.151296, 46.287455], [6.151352, 46.28751], [6.15143, 46.287712], [6.151688, 46.288004], [6.151995, 46.288519], [6.152938, 46.29038], [6.153248, 46.291042], [6.15348, 46.291812], [6.153548, 46.291946], [6.153709, 46.292116], [6.153752, 46.292321], [6.153818, 46.292445], [6.157274, 46.296005], [6.157682, 46.29631], [6.158327, 46.296632], [6.158593, 46.296731], [6.159602, 46.297028], [6.16025, 46.297273], [6.161519, 46.297692], [6.162328, 46.29802], [6.162621, 46.298192], [6.163571, 46.298882], [6.164137, 46.299239], [6.164432, 46.299489], [6.164787, 46.29986], [6.165701, 46.300929], [6.165992, 46.301213], [6.168829, 46.303139], [6.169149, 46.303274], [6.169596, 46.3034], [6.170173, 46.304424], [6.170558, 46.304807], [6.171207, 46.305283], [6.171506, 46.305472], [6.171815, 46.30564], [6.172372, 46.305883], [6.172505, 46.305977], [6.172537, 46.30611], [6.172433, 46.306394], [6.172399, 46.306636], [6.172372, 46.307617], [6.172396, 46.307911], [6.172455, 46.308045], [6.172728, 46.308439], [6.173196, 46.308975], [6.173385, 46.309374], [6.173502, 46.309762], [6.173624, 46.309898], [6.173582, 46.310178], [6.173624, 46.310461], [6.174367, 46.314265], [6.174678, 46.315534], [6.174916, 46.315758], [6.175649, 46.316643], [6.176071, 46.317225], [6.176268, 46.317377], [6.176525, 46.317688], [6.177418, 46.318565], [6.177524, 46.318634], [6.177584, 46.318738], [6.177765, 46.318919], [6.17792, 46.31943], [6.178076, 46.319636], [6.178344, 46.3199], [6.178698, 46.320358], [6.17885, 46.32048], [6.178966, 46.320506], [6.179666, 46.320524], [6.179811, 46.320557], [6.179987, 46.320752], [6.180356, 46.320923], [6.180492, 46.321016], [6.180642, 46.321196], [6.18133, 46.322445], [6.18149, 46.322615], [6.181702, 46.322766], [6.1818, 46.322804], [6.182015, 46.322838], [6.182477, 46.322861], [6.182822, 46.322905], [6.18318, 46.32288], [6.18342, 46.322919], [6.18365, 46.322973], [6.183962, 46.323084], [6.1843, 46.323294], [6.18634, 46.325239], [6.187092, 46.326224], [6.188544, 46.32757], [6.188945, 46.327905], [6.189733, 46.328344], [6.190095, 46.328611], [6.190464, 46.328915], [6.191103, 46.32957], [6.191517, 46.329928], [6.191727, 46.33021], [6.191888, 46.330732], [6.19195, 46.330769], [6.192032, 46.330777], [6.192783, 46.330487], [6.192957, 46.330386], [6.193148, 46.330153], [6.19341, 46.330159], [6.193873, 46.330094], [6.193968, 46.330116], [6.194041, 46.330163], [6.194408, 46.330843], [6.194747, 46.331624], [6.194654, 46.33171], [6.194347, 46.331808], [6.19426, 46.331763], [6.194303, 46.331695], [6.194287, 46.331713], [6.194252, 46.331689], [6.194262, 46.33165]]}, "properties": {"name": "1788450210.Thursday_Evening_Cycle", "cmt": "2026-09-03", "tstamp": 1788393600, "desc": "---", "src": "6.045142/46.228972/6.194747/46.331808", "bbox": "6.045142/46.228972/6.194747/46.331808"}}]}