{"type": "FeatureCollection", "name": "TrackSet", "crs": {"type": "name", "properties": {"name": "urn:ogc:def:crs:OGC:1.3:CRS84"}}, "bbox": [6.033812, 46.23206, 6.194734, 46.331768], "features": [{"type": "Feature", "bbox": [6.033812, 46.23206, 6.194734, 46.331768], "geometry": {"type": "LineString", "coordinates": [[6.194242, 46.33168], [6.194289, 46.331681], [6.194116, 46.331725], [6.194166, 46.331685], [6.194146, 46.331703], [6.194333, 46.331768], [6.194493, 46.331753], [6.194636, 46.331721], [6.194734, 46.33161], [6.194485, 46.33108], [6.19444, 46.330924], [6.193999, 46.330142], [6.19386, 46.330089], [6.193777, 46.330102], [6.193588, 46.330197], [6.193499, 46.33016], [6.19317, 46.330187], [6.193062, 46.330351], [6.192804, 46.330521], [6.192123, 46.330801], [6.191974, 46.330809], [6.191896, 46.330759], [6.191691, 46.330171], [6.191503, 46.329922], [6.191084, 46.329573], [6.190443, 46.328906], [6.189709, 46.328347], [6.18887, 46.327888], [6.187015, 46.32622], [6.186272, 46.325208], [6.184375, 46.3234], [6.184153, 46.323227], [6.183894, 46.323075], [6.183503, 46.322957], [6.182793, 46.322884], [6.181968, 46.322843], [6.18176, 46.322809], [6.181569, 46.322734], [6.181375, 46.322525], [6.181203, 46.322256], [6.180996, 46.321802], [6.180599, 46.321131], [6.180451, 46.320991], [6.179959, 46.320713], [6.179816, 46.320547], [6.178831, 46.3205], [6.178521, 46.320582], [6.177425, 46.320698], [6.176254, 46.320908], [6.17619, 46.320897], [6.176134, 46.32084], [6.175969, 46.320241], [6.175932, 46.320162], [6.175844, 46.320086], [6.175633, 46.320009], [6.174581, 46.320013], [6.174357, 46.320003], [6.174291, 46.319976], [6.174286, 46.319902], [6.174069, 46.319719], [6.173745, 46.319237], [6.173445, 46.318219], [6.173253, 46.317998], [6.172655, 46.31762], [6.17237, 46.31749], [6.171237, 46.317114], [6.170465, 46.316923], [6.170221, 46.316791], [6.169438, 46.315844], [6.16808, 46.314847], [6.167664, 46.31445], [6.167277, 46.313998], [6.166924, 46.313358], [6.166728, 46.313077], [6.165936, 46.312297], [6.165091, 46.31169], [6.164758, 46.311264], [6.164225, 46.310387], [6.163832, 46.309985], [6.163656, 46.309833], [6.163252, 46.309565], [6.162797, 46.309307], [6.162436, 46.309183], [6.162279, 46.309103], [6.161744, 46.308765], [6.161339, 46.308466], [6.161076, 46.308321], [6.161046, 46.308272], [6.161072, 46.308202], [6.161122, 46.308166], [6.161308, 46.30812], [6.162956, 46.307423], [6.163034, 46.307374], [6.163061, 46.307301], [6.162996, 46.307069], [6.163006, 46.306928], [6.162734, 46.306715], [6.162606, 46.306528], [6.162527, 46.306343], [6.162516, 46.306283], [6.16263, 46.305775], [6.16264, 46.305015], [6.162599, 46.3045], [6.162568, 46.304308], [6.16229, 46.303617], [6.162203, 46.303302], [6.162221, 46.303051], [6.162378, 46.302634], [6.162501, 46.301909], [6.162062, 46.30103], [6.161592, 46.300492], [6.161464, 46.300385], [6.161274, 46.300347], [6.161202, 46.300362], [6.161016, 46.300519], [6.160781, 46.300615], [6.160339, 46.300665], [6.158472, 46.300254], [6.158252, 46.300164], [6.158096, 46.300134], [6.157871, 46.300033], [6.156251, 46.299192], [6.155733, 46.298958], [6.155113, 46.298476], [6.154507, 46.29792], [6.154439, 46.297899], [6.154352, 46.297918], [6.153679, 46.298278], [6.153542, 46.29823], [6.153445, 46.298098], [6.153202, 46.297872], [6.150775, 46.295737], [6.150381, 46.295366], [6.150074, 46.29502], [6.149695, 46.294676], [6.149418, 46.294496], [6.149308, 46.294505], [6.148834, 46.294719], [6.14604, 46.296234], [6.145681, 46.29638], [6.144987, 46.296808], [6.14401, 46.297362], [6.14369, 46.297523], [6.143609, 46.297542], [6.143527, 46.297487], [6.143249, 46.297159], [6.14156, 46.295383], [6.139265, 46.293022], [6.138634, 46.292387], [6.138517, 46.292303], [6.138431, 46.292301], [6.138324, 46.292351], [6.13822, 46.292344], [6.137839, 46.292524], [6.137029, 46.293056], [6.135501, 46.294166], [6.134379, 46.29515], [6.13353, 46.295781], [6.132868, 46.296119], [6.132441, 46.296394], [6.131944, 46.296657], [6.131801, 46.296702], [6.131712, 46.296683], [6.131452, 46.295467], [6.131262, 46.294925], [6.130472, 46.291822], [6.130165, 46.290754], [6.130103, 46.290612], [6.129987, 46.290487], [6.129738, 46.290361], [6.128783, 46.290105], [6.128066, 46.289976], [6.1278, 46.289964], [6.12714, 46.289791], [6.126834, 46.289774], [6.126169, 46.289659], [6.125941, 46.289577], [6.12565, 46.289396], [6.12543, 46.289147], [6.125414, 46.289062], [6.12554, 46.288735], [6.125505, 46.2884], [6.125546, 46.288171], [6.125514, 46.288018], [6.125419, 46.287847], [6.125237, 46.287667], [6.121954, 46.285123], [6.120874, 46.284374], [6.118764, 46.282857], [6.114635, 46.280332], [6.114474, 46.280188], [6.114299, 46.279896], [6.114126, 46.279086], [6.113539, 46.277952], [6.112875, 46.277445], [6.112714, 46.277268], [6.112546, 46.277159], [6.112248, 46.277044], [6.111423, 46.276885], [6.111204, 46.27679], [6.109606, 46.275555], [6.109057, 46.275053], [6.108923, 46.274857], [6.108978, 46.274779], [6.108956, 46.274692], [6.108793, 46.274465], [6.108571, 46.274336], [6.108222, 46.27419], [6.107981, 46.274042], [6.107719, 46.27381], [6.106131, 46.272018], [6.105676, 46.271396], [6.105499, 46.27122], [6.10514, 46.271074], [6.104741, 46.271016], [6.104219, 46.27099], [6.103922, 46.270944], [6.102794, 46.270603], [6.102051, 46.270779], [6.10159, 46.270859], [6.101175, 46.270982], [6.100654, 46.271075], [6.100448, 46.271149], [6.100276, 46.271126], [6.100228, 46.271098], [6.09953, 46.270246], [6.09909, 46.269869], [6.098768, 46.269727], [6.098467, 46.269695], [6.098397, 46.269661], [6.098256, 46.2695], [6.098084, 46.269445], [6.097883, 46.269331], [6.097445, 46.269146], [6.097244, 46.269024], [6.0969, 46.268714], [6.095997, 46.267779], [6.094832, 46.267073], [6.093047, 46.26583], [6.092883, 46.265678], [6.092501, 46.26523], [6.092309, 46.265089], [6.091931, 46.264718], [6.091577, 46.264329], [6.091452, 46.264153], [6.091341, 46.264062], [6.091047, 46.263936], [6.090558, 46.263796], [6.089632, 46.263403], [6.089335, 46.263339], [6.08921, 46.263262], [6.089135, 46.263135], [6.089054, 46.263086], [6.088453, 46.262911], [6.088011, 46.262747], [6.086141, 46.261793], [6.085446, 46.261515], [6.084685, 46.261318], [6.083881, 46.26101], [6.083518, 46.260907], [6.083248, 46.260945], [6.0828, 46.261171], [6.082568, 46.261192], [6.082347, 46.26114], [6.079333, 46.258572], [6.076249, 46.255886], [6.075242, 46.255789], [6.07482, 46.255787], [6.074387, 46.255752], [6.073489, 46.255639], [6.07282, 46.255615], [6.072631, 46.255624], [6.072536, 46.255651], [6.072176, 46.255889], [6.071973, 46.255924], [6.071868, 46.255907], [6.071779, 46.255859], [6.071648, 46.255745], [6.07147, 46.255695], [6.071275, 46.255526], [6.071116, 46.255433], [6.070081, 46.255257], [6.068863, 46.255121], [6.067733, 46.254956], [6.066963, 46.254891], [6.066704, 46.254835], [6.066302, 46.254841], [6.065529, 46.254787], [6.062852, 46.254546], [6.060085, 46.254364], [6.059812, 46.254372], [6.05952, 46.254322], [6.059499, 46.254309], [6.059529, 46.254302], [6.059487, 46.254283], [6.059542, 46.254207], [6.059577, 46.254069], [6.059738, 46.253907], [6.059819, 46.253778], [6.061255, 46.252659], [6.061427, 46.252495], [6.061494, 46.252368], [6.061516, 46.252236], [6.061492, 46.252101], [6.061419, 46.251971], [6.061177, 46.251756], [6.059663, 46.250937], [6.057454, 46.249672], [6.056589, 46.249142], [6.053201, 46.246798], [6.052885, 46.246569], [6.052007, 46.245826], [6.05106, 46.24495], [6.050565, 46.244438], [6.050057, 46.24385], [6.04969, 46.24339], [6.048904, 46.242298], [6.047446, 46.240357], [6.046009, 46.238558], [6.045003, 46.237412], [6.044757, 46.237179], [6.044572, 46.237028], [6.044307, 46.236989], [6.044098, 46.236855], [6.044067, 46.236652], [6.035058, 46.239174], [6.034687, 46.239224], [6.034492, 46.239224], [6.034134, 46.23913], [6.033983, 46.239052], [6.033812, 46.238924], [6.033813, 46.238827], [6.034269, 46.238338], [6.034463, 46.238279], [6.034702, 46.238106], [6.035069, 46.238077], [6.035107, 46.238053], [6.035088, 46.237857], [6.035154, 46.237756], [6.035258, 46.237674], [6.035594, 46.237452], [6.036005, 46.237227], [6.037811, 46.236038], [6.038509, 46.235617], [6.03897, 46.235296], [6.040144, 46.234601], [6.040793, 46.234291], [6.042271, 46.233398], [6.043857, 46.232628], [6.044414, 46.232397], [6.044994, 46.232089], [6.045143, 46.23206], [6.045189, 46.232097], [6.045215, 46.232143], [6.045168, 46.232247], [6.045268, 46.232326], [6.045368, 46.232339], [6.045406, 46.232368], [6.045442, 46.232461], [6.045382, 46.232476], [6.045441, 46.232486], [6.045449, 46.232456], [6.045471, 46.232476]]}, "properties": {"name": "1788155354.Monday_Morning_Cycle", "cmt": "2026-08-31", "tstamp": 1788134400, "desc": "---", "src": "6.033812/46.23206/6.194734/46.331768", "bbox": "6.033812/46.23206/6.194734/46.331768"}}]}