{"type": "FeatureCollection", "name": "TrackSet", "crs": {"type": "name", "properties": {"name": "urn:ogc:def:crs:OGC:1.3:CRS84"}}, "bbox": [6.045099, 46.228957, 6.194741, 46.331804], "features": [{"type": "Feature", "bbox": [6.045099, 46.228957, 6.194741, 46.331804], "geometry": {"type": "LineString", "coordinates": [[6.04537, 46.232525], [6.045356, 46.232454], [6.04549, 46.232399], [6.04548, 46.232421], [6.045415, 46.23232], [6.045233, 46.232246], [6.04518, 46.232126], [6.045099, 46.232058], [6.045114, 46.232027], [6.045145, 46.231988], [6.045624, 46.231765], [6.045859, 46.231627], [6.046085, 46.231254], [6.046174, 46.230993], [6.046312, 46.230834], [6.047876, 46.230155], [6.050606, 46.229014], [6.050722, 46.228974], [6.050977, 46.228957], [6.051491, 46.229018], [6.051713, 46.229103], [6.051782, 46.229176], [6.051966, 46.229558], [6.052156, 46.229849], [6.052365, 46.230006], [6.052542, 46.230087], [6.053058, 46.230163], [6.054994, 46.230305], [6.055251, 46.230302], [6.055466, 46.230213], [6.055549, 46.230213], [6.055622, 46.230244], [6.055668, 46.230303], [6.05569, 46.23054], [6.056408, 46.231739], [6.056532, 46.231901], [6.056648, 46.232021], [6.057095, 46.232327], [6.057306, 46.232522], [6.057527, 46.232665], [6.057773, 46.232744], [6.057874, 46.232805], [6.0579, 46.23294], [6.057752, 46.233041], [6.057727, 46.233122], [6.057902, 46.233222], [6.058039, 46.233262], [6.058191, 46.233272], [6.058573, 46.233191], [6.059237, 46.232995], [6.059341, 46.233011], [6.05943, 46.233057], [6.060322, 46.234644], [6.060378, 46.234686], [6.06047, 46.2347], [6.06096, 46.23453], [6.061915, 46.234277], [6.062609, 46.233954], [6.062792, 46.233823], [6.062844, 46.233802], [6.062915, 46.233815], [6.064304, 46.234848], [6.064736, 46.235273], [6.066344, 46.236417], [6.067055, 46.237389], [6.067173, 46.23759], [6.06776, 46.238258], [6.068273, 46.238903], [6.068399, 46.239006], [6.068635, 46.239129], [6.068876, 46.239426], [6.069818, 46.240213], [6.06998, 46.240235], [6.070063, 46.240208], [6.070841, 46.239654], [6.0709, 46.23963], [6.071038, 46.239661], [6.07118, 46.239797], [6.072268, 46.240529], [6.07302, 46.241086], [6.073046, 46.241132], [6.073006, 46.241294], [6.073038, 46.24135], [6.073211, 46.24152], [6.073753, 46.242243], [6.074231, 46.242674], [6.0743, 46.242708], [6.074472, 46.242698], [6.07491, 46.242355], [6.075054, 46.242351], [6.075127, 46.242373], [6.076319, 46.243222], [6.077733, 46.244144], [6.078316, 46.244492], [6.078683, 46.24483], [6.079496, 46.245354], [6.080214, 46.245522], [6.081386, 46.245668], [6.081545, 46.245671], [6.081767, 46.245739], [6.081802, 46.245783], [6.081791, 46.245861], [6.081656, 46.246133], [6.081672, 46.246187], [6.081762, 46.246278], [6.082399, 46.246551], [6.083296, 46.246861], [6.083555, 46.246994], [6.084332, 46.247267], [6.084342, 46.247345], [6.084256, 46.247437], [6.084232, 46.247513], [6.084285, 46.24763], [6.084492, 46.247858], [6.084962, 46.248124], [6.085761, 46.248423], [6.086167, 46.248517], [6.086474, 46.248525], [6.08683, 46.248673], [6.088179, 46.249023], [6.089085, 46.249303], [6.089825, 46.249565], [6.090298, 46.24976], [6.090374, 46.249798], [6.090601, 46.250027], [6.090918, 46.250057], [6.091044, 46.250102], [6.092058, 46.250549], [6.092375, 46.250763], [6.093009, 46.251402], [6.093143, 46.25149], [6.093358, 46.251929], [6.093562, 46.252086], [6.093736, 46.252139], [6.093936, 46.252154], [6.095149, 46.252076], [6.095527, 46.252077], [6.095676, 46.252046], [6.095859, 46.251948], [6.09598, 46.251934], [6.096371, 46.252068], [6.096698, 46.252235], [6.097146, 46.252368], [6.097182, 46.252441], [6.09705, 46.252691], [6.09701, 46.252949], [6.097131, 46.253229], [6.097274, 46.253402], [6.097417, 46.253516], [6.0993, 46.254592], [6.099777, 46.254829], [6.099998, 46.254983], [6.100533, 46.255065], [6.101392, 46.255294], [6.101874, 46.255446], [6.101994, 46.255531], [6.102012, 46.255594], [6.101947, 46.255699], [6.101846, 46.25575], [6.101179, 46.256319], [6.100872, 46.256518], [6.100597, 46.256751], [6.100544, 46.256837], [6.100537, 46.256927], [6.101245, 46.257438], [6.101521, 46.257586], [6.102439, 46.258237], [6.102599, 46.258279], [6.103187, 46.258261], [6.103349, 46.25831], [6.10515, 46.259436], [6.105756, 46.259643], [6.106166, 46.259684], [6.106828, 46.259957], [6.107188, 46.260134], [6.107776, 46.260274], [6.108205, 46.260333], [6.108688, 46.260348], [6.109087, 46.260318], [6.109199, 46.260344], [6.109264, 46.260502], [6.109336, 46.260587], [6.112587, 46.263126], [6.113201, 46.263547], [6.114363, 46.264285], [6.114521, 46.26434], [6.11471, 46.264327], [6.114875, 46.264373], [6.114909, 46.26443], [6.114892, 46.264574], [6.115206, 46.26487], [6.115299, 46.265034], [6.115275, 46.265093], [6.114717, 46.265472], [6.11468, 46.265508], [6.114693, 46.265556], [6.114811, 46.265635], [6.115013, 46.265706], [6.115396, 46.265911], [6.115584, 46.265962], [6.116073, 46.266163], [6.116134, 46.266289], [6.116223, 46.266325], [6.116944, 46.266833], [6.117722, 46.267525], [6.117956, 46.267703], [6.118241, 46.267842], [6.119345, 46.268172], [6.120266, 46.268644], [6.120972, 46.269043], [6.121563, 46.269297], [6.121746, 46.269449], [6.12206, 46.2698], [6.12251, 46.270106], [6.123307, 46.270505], [6.123777, 46.270658], [6.123923, 46.270735], [6.124594, 46.270974], [6.125023, 46.271353], [6.125504, 46.271664], [6.125739, 46.271739], [6.125953, 46.271842], [6.126769, 46.272016], [6.127312, 46.272092], [6.128128, 46.272333], [6.128527, 46.272521], [6.128942, 46.272789], [6.129572, 46.273121], [6.13038, 46.273461], [6.1306, 46.273576], [6.131203, 46.274072], [6.131625, 46.274468], [6.131718, 46.274598], [6.131827, 46.274891], [6.131832, 46.275048], [6.131764, 46.275364], [6.131789, 46.275599], [6.131968, 46.276031], [6.132184, 46.276355], [6.133737, 46.277859], [6.133858, 46.277964], [6.13402, 46.278035], [6.135069, 46.279613], [6.135226, 46.279797], [6.135446, 46.279961], [6.136128, 46.280321], [6.13657, 46.280517], [6.138247, 46.281098], [6.139365, 46.281632], [6.139481, 46.281662], [6.139726, 46.281688], [6.140349, 46.281693], [6.141168, 46.281644], [6.141499, 46.281662], [6.144248, 46.282032], [6.144398, 46.282106], [6.144649, 46.282143], [6.145663, 46.282452], [6.146055, 46.282644], [6.147185, 46.283684], [6.147602, 46.283955], [6.147859, 46.283995], [6.147912, 46.28405], [6.147918, 46.284118], [6.147853, 46.284241], [6.147882, 46.284356], [6.150968, 46.287259], [6.151098, 46.287363], [6.151331, 46.28749], [6.151464, 46.28777], [6.151638, 46.28795], [6.151861, 46.28828], [6.153104, 46.290705], [6.153274, 46.291113], [6.153521, 46.291897], [6.15371, 46.292136], [6.153791, 46.292395], [6.154313, 46.292984], [6.157234, 46.295987], [6.157677, 46.296313], [6.158272, 46.296621], [6.158652, 46.296761], [6.159734, 46.29708], [6.160318, 46.297307], [6.161751, 46.297791], [6.162337, 46.29802], [6.162628, 46.29819], [6.163667, 46.29894], [6.164047, 46.299177], [6.164365, 46.299429], [6.164849, 46.299928], [6.165758, 46.300995], [6.165999, 46.301219], [6.168889, 46.303174], [6.169205, 46.303306], [6.169635, 46.303428], [6.170138, 46.304375], [6.170503, 46.304759], [6.171398, 46.305414], [6.171744, 46.305614], [6.172331, 46.305874], [6.172464, 46.305962], [6.172533, 46.306086], [6.172532, 46.306156], [6.172434, 46.306441], [6.172393, 46.306859], [6.172399, 46.307859], [6.172481, 46.308074], [6.172641, 46.30832], [6.173208, 46.308996], [6.173406, 46.30942], [6.173472, 46.309711], [6.173593, 46.309905], [6.173564, 46.310191], [6.173615, 46.310529], [6.174454, 46.314647], [6.174685, 46.315554], [6.174865, 46.315719], [6.17612, 46.31725], [6.176782, 46.31795], [6.177733, 46.318885], [6.177794, 46.318986], [6.177848, 46.319287], [6.177979, 46.319538], [6.178725, 46.320394], [6.178789, 46.32045], [6.17894, 46.320497], [6.179769, 46.320539], [6.17988, 46.320608], [6.179986, 46.320752], [6.180269, 46.320882], [6.180469, 46.32101], [6.180631, 46.321184], [6.181293, 46.322406], [6.181442, 46.322583], [6.181648, 46.322741], [6.181951, 46.322824], [6.183112, 46.322882], [6.183465, 46.322931], [6.183907, 46.323066], [6.184183, 46.323217], [6.184633, 46.32359], [6.186342, 46.325257], [6.18659, 46.32556], [6.187024, 46.326184], [6.188687, 46.327705], [6.188937, 46.327908], [6.189701, 46.328328], [6.190565, 46.328997], [6.191044, 46.329531], [6.191305, 46.329737], [6.191675, 46.330094], [6.191864, 46.330529], [6.191888, 46.330716], [6.191937, 46.330763], [6.192033, 46.330785], [6.192129, 46.330773], [6.192763, 46.3305], [6.192996, 46.330349], [6.193147, 46.330177], [6.193233, 46.33015], [6.193832, 46.330089], [6.193933, 46.330088], [6.194022, 46.330126], [6.194559, 46.331157], [6.194734, 46.331574], [6.194741, 46.331627], [6.194663, 46.331707], [6.194382, 46.331792], [6.194298, 46.331804], [6.194248, 46.331736], [6.194299, 46.331699], [6.194294, 46.331732], [6.194233, 46.331706]]}, "properties": {"name": "1788279243.Tuesday_Evening_Cycle", "cmt": "2026-09-01", "tstamp": 1788220800, "desc": "---", "src": "6.045099/46.228957/6.194741/46.331804", "bbox": "6.045099/46.228957/6.194741/46.331804"}}]}