{"type": "FeatureCollection", "name": "TrackSet", "crs": {"type": "name", "properties": {"name": "urn:ogc:def:crs:OGC:1.3:CRS84"}}, "bbox": [6.045314, 46.228973, 6.194737, 46.331789], "features": [{"type": "Feature", "bbox": [6.045314, 46.228973, 6.194737, 46.331789], "geometry": {"type": "LineString", "coordinates": [[6.194236, 46.3317], [6.194217, 46.331772], [6.194366, 46.331683], [6.194343, 46.331789], [6.194339, 46.331764], [6.194417, 46.331776], [6.194626, 46.331753], [6.194737, 46.331658], [6.194734, 46.331561], [6.194406, 46.33088], [6.193971, 46.330138], [6.193831, 46.330095], [6.193156, 46.330185], [6.193019, 46.330359], [6.19279, 46.330507], [6.192177, 46.330765], [6.192012, 46.330785], [6.191905, 46.330749], [6.191845, 46.330662], [6.191841, 46.330559], [6.191695, 46.330179], [6.191482, 46.329909], [6.191061, 46.329556], [6.190614, 46.329075], [6.190334, 46.328829], [6.189641, 46.328317], [6.189115, 46.328043], [6.188807, 46.327847], [6.186975, 46.326195], [6.18647, 46.32549], [6.186231, 46.32521], [6.184262, 46.323318], [6.183879, 46.323082], [6.183406, 46.322946], [6.181979, 46.322837], [6.181714, 46.322786], [6.181596, 46.322738], [6.1815, 46.322664], [6.181329, 46.322438], [6.181144, 46.322136], [6.180854, 46.321543], [6.180632, 46.321172], [6.180498, 46.321023], [6.180329, 46.320908], [6.180015, 46.320753], [6.179879, 46.320605], [6.179765, 46.320535], [6.179023, 46.320514], [6.178861, 46.320484], [6.178723, 46.320398], [6.178466, 46.320029], [6.177956, 46.319479], [6.177866, 46.319276], [6.177761, 46.318884], [6.1777, 46.318805], [6.177492, 46.318655], [6.177127, 46.318259], [6.176468, 46.317632], [6.174811, 46.315651], [6.174773, 46.315609], [6.174591, 46.315528], [6.174571, 46.315485], [6.174549, 46.315224], [6.173856, 46.311871], [6.173548, 46.310179], [6.173437, 46.309902], [6.17344, 46.309606], [6.173224, 46.309055], [6.172787, 46.308563], [6.172594, 46.308303], [6.172438, 46.308041], [6.172369, 46.307862], [6.172346, 46.307679], [6.172397, 46.306474], [6.172495, 46.306054], [6.172446, 46.305956], [6.172349, 46.305882], [6.17176, 46.305619], [6.171492, 46.305468], [6.17077, 46.30497], [6.170353, 46.30463], [6.170122, 46.304368], [6.169579, 46.303391], [6.169197, 46.303312], [6.168816, 46.303145], [6.166937, 46.301841], [6.166059, 46.301281], [6.165789, 46.301039], [6.164741, 46.299807], [6.164464, 46.29953], [6.163824, 46.299037], [6.162573, 46.298174], [6.162132, 46.29795], [6.160257, 46.297305], [6.159617, 46.297034], [6.158684, 46.296772], [6.158186, 46.296581], [6.157897, 46.296441], [6.157503, 46.296198], [6.156646, 46.295513], [6.155838, 46.294629], [6.155175, 46.293958], [6.154915, 46.293742], [6.15484, 46.293611], [6.154328, 46.293048], [6.153798, 46.292546], [6.153644, 46.292356], [6.153598, 46.292224], [6.153481, 46.29212], [6.153467, 46.291808], [6.153138, 46.290885], [6.15192, 46.288511], [6.151743, 46.288183], [6.151559, 46.287931], [6.151323, 46.287701], [6.151094, 46.287569], [6.150957, 46.287305], [6.148675, 46.285113], [6.148433, 46.28492], [6.147903, 46.284412], [6.147502, 46.283956], [6.147103, 46.283662], [6.145934, 46.282603], [6.145647, 46.282468], [6.144538, 46.282131], [6.143677, 46.281987], [6.143554, 46.281948], [6.143425, 46.281952], [6.142287, 46.281786], [6.141281, 46.281675], [6.140967, 46.28167], [6.140444, 46.28171], [6.13969, 46.281703], [6.139376, 46.281663], [6.139093, 46.281546], [6.138503, 46.281234], [6.13648, 46.28054], [6.136142, 46.28038], [6.13539, 46.279963], [6.135069, 46.279672], [6.134162, 46.278342], [6.133783, 46.27794], [6.132415, 46.276641], [6.13213, 46.276336], [6.131918, 46.275997], [6.131754, 46.275576], [6.131728, 46.275362], [6.131793, 46.274932], [6.131693, 46.274609], [6.131464, 46.274348], [6.131104, 46.274013], [6.130546, 46.273557], [6.12949, 46.273086], [6.128421, 46.272462], [6.128129, 46.272334], [6.127703, 46.272198], [6.127118, 46.272061], [6.126912, 46.272047], [6.126063, 46.271873], [6.125605, 46.271837], [6.125543, 46.271798], [6.125446, 46.271659], [6.125141, 46.271457], [6.124887, 46.271193], [6.124542, 46.27096], [6.124336, 46.270867], [6.123386, 46.27054], [6.122454, 46.270083], [6.122167, 46.269871], [6.121652, 46.269286], [6.121252, 46.269156], [6.121044, 46.269056], [6.119316, 46.268136], [6.118385, 46.267891], [6.117992, 46.267722], [6.117575, 46.267388], [6.116922, 46.266781], [6.116291, 46.266328], [6.11618, 46.266186], [6.115078, 46.265692], [6.114829, 46.265569], [6.114766, 46.265512], [6.114779, 46.265423], [6.115141, 46.265204], [6.115315, 46.265052], [6.115306, 46.264983], [6.115097, 46.264765], [6.114751, 46.264497], [6.114422, 46.264336], [6.114059, 46.264103], [6.113601, 46.263856], [6.112934, 46.263427], [6.112475, 46.263098], [6.110975, 46.261945], [6.10955, 46.260786], [6.10924, 46.260572], [6.109124, 46.260437], [6.109071, 46.260418], [6.108535, 46.260428], [6.108149, 46.26041], [6.107749, 46.260348], [6.107363, 46.260253], [6.106967, 46.260061], [6.106273, 46.259801], [6.105727, 46.25968], [6.105222, 46.259519], [6.103369, 46.258365], [6.103156, 46.25831], [6.10261, 46.25831], [6.102489, 46.258281], [6.101629, 46.257654], [6.101229, 46.257424], [6.100751, 46.257099], [6.100561, 46.256945], [6.100537, 46.256882], [6.100567, 46.256765], [6.100803, 46.256627], [6.101389, 46.256164], [6.101504, 46.256028], [6.101911, 46.255669], [6.101965, 46.255586], [6.101941, 46.25553], [6.100354, 46.255072], [6.100035, 46.255033], [6.099847, 46.255038], [6.099686, 46.254836], [6.099542, 46.254742], [6.097386, 46.253562], [6.097152, 46.253354], [6.097056, 46.253199], [6.097005, 46.253035], [6.097011, 46.252796], [6.097217, 46.252394], [6.096768, 46.252238], [6.096341, 46.252029], [6.096073, 46.251937], [6.095919, 46.25194], [6.095696, 46.252039], [6.095538, 46.252072], [6.094471, 46.252083], [6.093887, 46.252136], [6.093713, 46.252119], [6.093565, 46.252065], [6.093363, 46.251898], [6.093275, 46.251672], [6.093137, 46.251456], [6.093012, 46.251369], [6.092751, 46.251076], [6.092422, 46.250774], [6.091973, 46.250491], [6.090973, 46.250058], [6.090603, 46.249968], [6.090444, 46.249807], [6.090286, 46.249705], [6.089571, 46.249441], [6.089311, 46.249382], [6.088538, 46.249121], [6.087299, 46.248783], [6.086754, 46.248664], [6.086416, 46.248642], [6.08619, 46.248531], [6.085543, 46.248356], [6.084953, 46.248133], [6.084571, 46.247918], [6.084335, 46.247695], [6.084201, 46.247514], [6.084164, 46.247377], [6.084176, 46.247257], [6.084132, 46.247208], [6.082192, 46.246569], [6.081766, 46.246389], [6.081681, 46.24638], [6.081332, 46.246438], [6.081174, 46.246396], [6.081073, 46.246295], [6.081054, 46.246232], [6.081099, 46.246111], [6.08125, 46.246028], [6.081341, 46.246009], [6.08162, 46.246053], [6.0817, 46.245944], [6.081868, 46.245855], [6.08186, 46.245788], [6.081755, 46.245689], [6.081571, 46.245643], [6.080404, 46.245502], [6.079581, 46.24532], [6.078832, 46.244874], [6.07848, 46.244581], [6.078152, 46.244352], [6.077435, 46.243925], [6.076924, 46.243555], [6.075105, 46.24237], [6.074958, 46.24235], [6.074888, 46.242374], [6.074476, 46.24271], [6.074398, 46.242728], [6.074239, 46.242685], [6.073665, 46.242119], [6.073047, 46.241318], [6.073014, 46.241264], [6.073057, 46.241102], [6.073031, 46.241053], [6.072696, 46.240855], [6.070954, 46.23962], [6.070829, 46.239628], [6.07066, 46.239818], [6.070022, 46.24024], [6.069944, 46.240255], [6.069782, 46.240211], [6.068919, 46.239471], [6.068619, 46.239123], [6.068399, 46.239], [6.068285, 46.238904], [6.067212, 46.237632], [6.066289, 46.236354], [6.064725, 46.235257], [6.064368, 46.234893], [6.063645, 46.234374], [6.062985, 46.233856], [6.062834, 46.233849], [6.062604, 46.233978], [6.062005, 46.234245], [6.060475, 46.234686], [6.060408, 46.234686], [6.06029, 46.234605], [6.059408, 46.233049], [6.059336, 46.233008], [6.059231, 46.232999], [6.059135, 46.233019], [6.05893, 46.233114], [6.058553, 46.233217], [6.058179, 46.233285], [6.058001, 46.233251], [6.057766, 46.233166], [6.057661, 46.233012], [6.05751, 46.232951], [6.057416, 46.232809], [6.057482, 46.232732], [6.057473, 46.232697], [6.057161, 46.232518], [6.056488, 46.231915], [6.055643, 46.230477], [6.055251, 46.230324], [6.054877, 46.230318], [6.05254, 46.230138], [6.052236, 46.229927], [6.052122, 46.229815], [6.051666, 46.229116], [6.051582, 46.229061], [6.051364, 46.229007], [6.050876, 46.228973], [6.050698, 46.229002], [6.046359, 46.230847], [6.046263, 46.230921], [6.046079, 46.231433], [6.046158, 46.231578], [6.046362, 46.231803], [6.046344, 46.231857], [6.046285, 46.231904], [6.046051, 46.231969], [6.045324, 46.23228], [6.045314, 46.232306], [6.04539, 46.232337], [6.045453, 46.232409], [6.045455, 46.232434], [6.045429, 46.232421], [6.045414, 46.232443], [6.045446, 46.23247], [6.045467, 46.232461], [6.04544, 46.232515], [6.045484, 46.232513]]}, "properties": {"name": "1788240631.Tuesday_Morning_Cycle", "cmt": "2026-09-01", "tstamp": 1788220800, "desc": "---", "src": "6.045314/46.228973/6.194737/46.331789", "bbox": "6.045314/46.228973/6.194737/46.331789"}}]}