{"type": "FeatureCollection", "name": "TrackSet", "crs": {"type": "name", "properties": {"name": "urn:ogc:def:crs:OGC:1.3:CRS84"}}, "bbox": [6.045302, 46.228969, 6.194761, 46.331791], "features": [{"type": "Feature", "bbox": [6.045302, 46.228969, 6.194761, 46.331791], "geometry": {"type": "LineString", "coordinates": [[6.194269, 46.331692], [6.194299, 46.331791], [6.194257, 46.331772], [6.194677, 46.3317], [6.194755, 46.331636], [6.194761, 46.331586], [6.194361, 46.330766], [6.193972, 46.330151], [6.193839, 46.330101], [6.193192, 46.330175], [6.192966, 46.330424], [6.192823, 46.330506], [6.192106, 46.33077], [6.191911, 46.33077], [6.191863, 46.33073], [6.191825, 46.330515], [6.191691, 46.330173], [6.191471, 46.329896], [6.191061, 46.329549], [6.190611, 46.329078], [6.189913, 46.32851], [6.189561, 46.32828], [6.18909, 46.328034], [6.188791, 46.327844], [6.187195, 46.326401], [6.186912, 46.326128], [6.186631, 46.325691], [6.186227, 46.325207], [6.184249, 46.323304], [6.183897, 46.323086], [6.183554, 46.322976], [6.183107, 46.322911], [6.182021, 46.322849], [6.18164, 46.322769], [6.181485, 46.322655], [6.181263, 46.322372], [6.180652, 46.32121], [6.180527, 46.321049], [6.180347, 46.320921], [6.18001, 46.320757], [6.179826, 46.320575], [6.179758, 46.320541], [6.179008, 46.32052], [6.178785, 46.32046], [6.178304, 46.319827], [6.177985, 46.319505], [6.177863, 46.319254], [6.17782, 46.319014], [6.17774, 46.318846], [6.17752, 46.318688], [6.177426, 46.318535], [6.176974, 46.31807], [6.176348, 46.317497], [6.175567, 46.316532], [6.174797, 46.315643], [6.17464, 46.3156], [6.174568, 46.315532], [6.174579, 46.31534], [6.173533, 46.31013], [6.173433, 46.309917], [6.173428, 46.30961], [6.173208, 46.309029], [6.172681, 46.308425], [6.172458, 46.308064], [6.172385, 46.307883], [6.172363, 46.30771], [6.17242, 46.306457], [6.172525, 46.306085], [6.172479, 46.30596], [6.172355, 46.305868], [6.171705, 46.305587], [6.171293, 46.305342], [6.170825, 46.305016], [6.170299, 46.304582], [6.170148, 46.304418], [6.169585, 46.303413], [6.169508, 46.303378], [6.169134, 46.303306], [6.168898, 46.303186], [6.166005, 46.301236], [6.16552, 46.300748], [6.164678, 46.299761], [6.164384, 46.299466], [6.164183, 46.299365], [6.16394, 46.299146], [6.163421, 46.298801], [6.162634, 46.298208], [6.162386, 46.298059], [6.162116, 46.297939], [6.160334, 46.297325], [6.159645, 46.297049], [6.158688, 46.296784], [6.158162, 46.29658], [6.157675, 46.296311], [6.157381, 46.296108], [6.156623, 46.295478], [6.155215, 46.293964], [6.154921, 46.293748], [6.154782, 46.293531], [6.153766, 46.292492], [6.153615, 46.29223], [6.153494, 46.292153], [6.153457, 46.292004], [6.153482, 46.291848], [6.153091, 46.290804], [6.152382, 46.289359], [6.151848, 46.288354], [6.151605, 46.28798], [6.151409, 46.287761], [6.151325, 46.287692], [6.15111, 46.287584], [6.151035, 46.287511], [6.150965, 46.287331], [6.150898, 46.28725], [6.147885, 46.2844], [6.14754, 46.283991], [6.147185, 46.283731], [6.145953, 46.282617], [6.145626, 46.282461], [6.144766, 46.282203], [6.144356, 46.282096], [6.143912, 46.282019], [6.142336, 46.281793], [6.14134, 46.281678], [6.1411, 46.28167], [6.140514, 46.281712], [6.139489, 46.281679], [6.139076, 46.281531], [6.138534, 46.281254], [6.137965, 46.281038], [6.137439, 46.280876], [6.136413, 46.280509], [6.135996, 46.280312], [6.135464, 46.280012], [6.135318, 46.279918], [6.135121, 46.279736], [6.134249, 46.27844], [6.133815, 46.277934], [6.132609, 46.27684], [6.132132, 46.276352], [6.131899, 46.275975], [6.131748, 46.275583], [6.131719, 46.275383], [6.131791, 46.274923], [6.131701, 46.27462], [6.13158, 46.274469], [6.131146, 46.274066], [6.130494, 46.273544], [6.129472, 46.273084], [6.128472, 46.272486], [6.128251, 46.272379], [6.127853, 46.272248], [6.127187, 46.272083], [6.12679, 46.27203], [6.125971, 46.271861], [6.125619, 46.271847], [6.125548, 46.271802], [6.125453, 46.271661], [6.125208, 46.271508], [6.124781, 46.271127], [6.124525, 46.270948], [6.123283, 46.27049], [6.122416, 46.270054], [6.122105, 46.269805], [6.121685, 46.269317], [6.12162, 46.269274], [6.121352, 46.2692], [6.121068, 46.269081], [6.120193, 46.26858], [6.119347, 46.268156], [6.11914, 46.268078], [6.11831, 46.267865], [6.117965, 46.267703], [6.116954, 46.2668], [6.11629, 46.266333], [6.116171, 46.266191], [6.115725, 46.266007], [6.115395, 46.265838], [6.114985, 46.265693], [6.11477, 46.265562], [6.114804, 46.265407], [6.115287, 46.265074], [6.115316, 46.264999], [6.115144, 46.264805], [6.114851, 46.26456], [6.113716, 46.263932], [6.112767, 46.263316], [6.111238, 46.262146], [6.110174, 46.261271], [6.109232, 46.260555], [6.109148, 46.260427], [6.10903, 46.260411], [6.108429, 46.260423], [6.108017, 46.260397], [6.107397, 46.260255], [6.106355, 46.259813], [6.105835, 46.259714], [6.105279, 46.259532], [6.104146, 46.258813], [6.103898, 46.258687], [6.103333, 46.258336], [6.103121, 46.258295], [6.102589, 46.258287], [6.102399, 46.258213], [6.102034, 46.257944], [6.101291, 46.257467], [6.100961, 46.257215], [6.100736, 46.257086], [6.100602, 46.256985], [6.100537, 46.25686], [6.100585, 46.256744], [6.100809, 46.256627], [6.101384, 46.256157], [6.101941, 46.255617], [6.101935, 46.255528], [6.100976, 46.25522], [6.100313, 46.255061], [6.099865, 46.255017], [6.099792, 46.254985], [6.099628, 46.254796], [6.099543, 46.254741], [6.097439, 46.253589], [6.09727, 46.253445], [6.097106, 46.253243], [6.097016, 46.253038], [6.097037, 46.252702], [6.097216, 46.252398], [6.096833, 46.252283], [6.096091, 46.251969], [6.095904, 46.251964], [6.0957, 46.252053], [6.095539, 46.252084], [6.09457, 46.252102], [6.093886, 46.252155], [6.093604, 46.25209], [6.09346, 46.252006], [6.093354, 46.251901], [6.09328, 46.25178], [6.093235, 46.251607], [6.093097, 46.251413], [6.092561, 46.250882], [6.092086, 46.250554], [6.091483, 46.25027], [6.090865, 46.250015], [6.090619, 46.249959], [6.090505, 46.249884], [6.090357, 46.24973], [6.088063, 46.248987], [6.086834, 46.248686], [6.086346, 46.248637], [6.0861, 46.248514], [6.085638, 46.248395], [6.085089, 46.248193], [6.084655, 46.247973], [6.084435, 46.247809], [6.08419, 46.24749], [6.084172, 46.247287], [6.08415, 46.247226], [6.084078, 46.247177], [6.083284, 46.246945], [6.082625, 46.246715], [6.082211, 46.246562], [6.081938, 46.246419], [6.081698, 46.24617], [6.081726, 46.246051], [6.081877, 46.245808], [6.081778, 46.245697], [6.081389, 46.245611], [6.079965, 46.245427], [6.079665, 46.245354], [6.078821, 46.244843], [6.07816, 46.244346], [6.077446, 46.243953], [6.07675, 46.243499], [6.075072, 46.242357], [6.075002, 46.242352], [6.074874, 46.242395], [6.074743, 46.242513], [6.074431, 46.242716], [6.074273, 46.242706], [6.074205, 46.242671], [6.074048, 46.242482], [6.073582, 46.242029], [6.073028, 46.241309], [6.07301, 46.241241], [6.073059, 46.241109], [6.073047, 46.241053], [6.072404, 46.240653], [6.071642, 46.240091], [6.070952, 46.239641], [6.070826, 46.239646], [6.07061, 46.239858], [6.070059, 46.240228], [6.069962, 46.240258], [6.069851, 46.240254], [6.069746, 46.240219], [6.06877, 46.239366], [6.068613, 46.239129], [6.068254, 46.238882], [6.067615, 46.238073], [6.067097, 46.237487], [6.066472, 46.236593], [6.066254, 46.236327], [6.064791, 46.235297], [6.064272, 46.234818], [6.062961, 46.233844], [6.062785, 46.233855], [6.062535, 46.234014], [6.061964, 46.234256], [6.060542, 46.234669], [6.060459, 46.234687], [6.060378, 46.234675], [6.060262, 46.234585], [6.060179, 46.234383], [6.059448, 46.233081], [6.05938, 46.23302], [6.059273, 46.232994], [6.059163, 46.233013], [6.058985, 46.233097], [6.058474, 46.233241], [6.058308, 46.23328], [6.058131, 46.233286], [6.057771, 46.233168], [6.05772, 46.233142], [6.057662, 46.23303], [6.057481, 46.232961], [6.057457, 46.232858], [6.057477, 46.232706], [6.057092, 46.232475], [6.05676, 46.232127], [6.056469, 46.231891], [6.056234, 46.231435], [6.055632, 46.230454], [6.055239, 46.230313], [6.055036, 46.230316], [6.054717, 46.23028], [6.053244, 46.230198], [6.052498, 46.230074], [6.052309, 46.229971], [6.052138, 46.229823], [6.051742, 46.229154], [6.051668, 46.229081], [6.051425, 46.228997], [6.050926, 46.228969], [6.050699, 46.228998], [6.046405, 46.230818], [6.04627, 46.23094], [6.046089, 46.231426], [6.046167, 46.23158], [6.046318, 46.231763], [6.046341, 46.231815], [6.046321, 46.231866], [6.04628, 46.23191], [6.046038, 46.231962], [6.045872, 46.232057], [6.045336, 46.232259], [6.045302, 46.232285], [6.045418, 46.232359], [6.045432, 46.232394], [6.045439, 46.23243], [6.045409, 46.232416], [6.045385, 46.232432], [6.045479, 46.232441], [6.04543, 46.232472], [6.04549, 46.23245], [6.045406, 46.232468], [6.045396, 46.232489]]}, "properties": {"name": "1788414849.Thursday_Morning_Cycle", "cmt": "2026-09-03", "tstamp": 1788393600, "desc": "---", "src": "6.045302/46.228969/6.194761/46.331791", "bbox": "6.045302/46.228969/6.194761/46.331791"}}]}