{"type": "FeatureCollection", "name": "TrackSet", "crs": {"type": "name", "properties": {"name": "urn:ogc:def:crs:OGC:1.3:CRS84"}}, "bbox": [6.045308, 46.228973, 6.19474, 46.331781], "features": [{"type": "Feature", "bbox": [6.045308, 46.228973, 6.19474, 46.331781], "geometry": {"type": "LineString", "coordinates": [[6.194207, 46.331661], [6.194225, 46.331686], [6.194207, 46.331661], [6.194204, 46.33168], [6.194254, 46.331653], [6.194207, 46.331661], [6.194396, 46.331761], [6.19438, 46.331781], [6.194642, 46.331698], [6.194721, 46.331642], [6.19474, 46.331595], [6.194605, 46.331369], [6.194422, 46.33089], [6.194046, 46.330241], [6.193939, 46.330115], [6.19379, 46.330095], [6.193582, 46.330141], [6.19319, 46.330172], [6.193111, 46.330228], [6.193005, 46.330369], [6.192746, 46.330522], [6.19214, 46.330767], [6.19197, 46.330787], [6.191913, 46.330766], [6.191845, 46.330678], [6.19182, 46.330527], [6.191664, 46.330137], [6.191534, 46.329969], [6.191278, 46.329718], [6.191107, 46.329594], [6.190456, 46.328945], [6.189885, 46.32849], [6.188827, 46.327876], [6.187036, 46.326263], [6.186846, 46.326039], [6.186485, 46.325498], [6.186241, 46.325208], [6.18432, 46.323364], [6.183922, 46.323109], [6.183508, 46.322975], [6.182934, 46.322906], [6.18198, 46.322852], [6.181723, 46.322803], [6.18156, 46.322725], [6.18144, 46.322617], [6.181283, 46.322397], [6.180893, 46.321628], [6.180525, 46.321055], [6.180422, 46.32097], [6.180006, 46.320751], [6.179796, 46.320552], [6.178779, 46.320495], [6.178397, 46.319943], [6.178025, 46.319578], [6.177874, 46.319285], [6.177772, 46.318912], [6.177563, 46.318715], [6.177486, 46.318683], [6.177167, 46.318776], [6.176925, 46.318793], [6.176615, 46.318759], [6.176458, 46.318699], [6.175847, 46.318356], [6.17562, 46.318304], [6.175399, 46.318303], [6.175335, 46.318279], [6.17525, 46.318209], [6.175109, 46.318009], [6.175053, 46.31799], [6.17498, 46.317996], [6.174871, 46.31806], [6.174146, 46.318318], [6.173587, 46.318562], [6.173502, 46.318565], [6.173462, 46.318506], [6.173404, 46.318182], [6.173192, 46.317973], [6.172575, 46.317588], [6.171712, 46.317279], [6.170565, 46.316962], [6.17018, 46.316784], [6.169434, 46.315854], [6.16847, 46.315168], [6.167987, 46.314782], [6.167651, 46.314473], [6.167272, 46.31402], [6.166903, 46.313355], [6.166699, 46.313068], [6.165948, 46.312312], [6.165329, 46.311887], [6.165018, 46.311629], [6.164488, 46.310864], [6.164222, 46.310391], [6.163878, 46.310043], [6.163536, 46.309751], [6.163278, 46.309584], [6.162832, 46.309334], [6.162454, 46.309192], [6.162229, 46.309077], [6.161335, 46.308476], [6.161067, 46.308325], [6.161034, 46.308274], [6.161121, 46.308176], [6.161471, 46.308068], [6.161775, 46.307913], [6.162939, 46.307434], [6.163027, 46.307386], [6.163071, 46.307313], [6.163013, 46.307078], [6.163015, 46.306929], [6.162739, 46.306725], [6.162523, 46.306355], [6.162522, 46.306229], [6.162617, 46.305986], [6.162654, 46.305729], [6.162586, 46.304542], [6.162529, 46.304234], [6.162194, 46.303377], [6.162201, 46.30306], [6.16245, 46.3024], [6.162527, 46.302088], [6.162526, 46.301885], [6.162342, 46.301618], [6.162129, 46.30118], [6.161772, 46.300649], [6.161484, 46.300377], [6.16129, 46.300353], [6.161195, 46.300378], [6.160871, 46.300633], [6.160711, 46.300696], [6.160387, 46.300698], [6.160206, 46.300675], [6.159344, 46.300444], [6.158515, 46.300202], [6.157797, 46.299957], [6.157487, 46.299792], [6.157231, 46.299703], [6.156677, 46.299392], [6.155984, 46.299115], [6.155838, 46.299032], [6.155213, 46.298545], [6.154473, 46.29791], [6.154321, 46.297939], [6.153721, 46.298241], [6.153643, 46.298253], [6.153509, 46.298211], [6.15344, 46.298096], [6.153157, 46.297826], [6.150707, 46.295699], [6.150367, 46.295356], [6.150174, 46.295201], [6.149776, 46.294784], [6.149476, 46.294542], [6.149379, 46.294502], [6.148687, 46.294807], [6.146094, 46.296217], [6.145931, 46.296289], [6.145715, 46.296343], [6.145602, 46.296444], [6.14393, 46.297401], [6.143624, 46.297527], [6.143547, 46.297519], [6.143457, 46.297451], [6.142772, 46.296666], [6.140367, 46.294162], [6.138618, 46.292373], [6.138561, 46.292324], [6.138478, 46.292306], [6.138394, 46.292313], [6.137985, 46.292446], [6.137385, 46.292787], [6.135934, 46.293842], [6.135294, 46.294349], [6.135161, 46.294498], [6.134214, 46.295301], [6.133673, 46.29569], [6.131905, 46.296671], [6.131758, 46.296687], [6.131708, 46.296584], [6.131704, 46.296456], [6.131473, 46.295685], [6.131221, 46.294639], [6.13088, 46.293499], [6.130865, 46.293326], [6.130254, 46.291033], [6.130135, 46.29066], [6.129979, 46.290469], [6.12961, 46.290328], [6.128397, 46.290033], [6.127704, 46.289942], [6.127231, 46.289831], [6.126616, 46.289765], [6.12615, 46.289671], [6.126034, 46.28963], [6.125723, 46.28944], [6.125493, 46.28922], [6.125459, 46.289137], [6.125473, 46.288985], [6.125569, 46.288728], [6.125535, 46.288551], [6.12554, 46.288323], [6.125469, 46.28799], [6.125396, 46.287826], [6.125303, 46.287725], [6.123187, 46.286135], [6.121618, 46.284901], [6.118827, 46.282914], [6.118212, 46.282511], [6.114615, 46.280337], [6.114439, 46.280168], [6.114311, 46.279972], [6.114234, 46.279704], [6.114199, 46.279338], [6.11414, 46.279103], [6.11365, 46.278132], [6.113498, 46.277915], [6.112894, 46.277465], [6.112666, 46.277235], [6.112578, 46.277184], [6.112289, 46.277062], [6.11148, 46.276904], [6.111196, 46.276787], [6.109635, 46.275586], [6.109281, 46.275269], [6.109006, 46.274918], [6.108918, 46.274863], [6.108963, 46.274793], [6.108815, 46.274501], [6.108543, 46.274336], [6.108168, 46.274184], [6.107985, 46.274066], [6.107655, 46.273771], [6.107361, 46.273422], [6.106833, 46.272878], [6.106597, 46.272563], [6.106193, 46.272106], [6.105649, 46.27139], [6.105469, 46.271223], [6.105255, 46.271122], [6.105048, 46.271073], [6.1046, 46.271017], [6.104032, 46.270979], [6.103503, 46.270843], [6.102908, 46.27064], [6.102753, 46.270612], [6.100383, 46.271139], [6.100269, 46.271132], [6.099543, 46.270273], [6.099028, 46.269838], [6.098686, 46.269714], [6.098522, 46.269718], [6.098384, 46.269672], [6.09826, 46.269509], [6.098094, 46.269457], [6.097621, 46.269237], [6.097277, 46.269049], [6.096878, 46.268712], [6.096073, 46.26787], [6.095971, 46.267728], [6.095955, 46.267621], [6.096087, 46.267464], [6.096106, 46.267275], [6.095865, 46.266463], [6.095755, 46.266207], [6.095521, 46.26582], [6.095335, 46.26562], [6.095115, 46.265308], [6.095035, 46.265134], [6.094907, 46.264688], [6.094286, 46.263901], [6.094068, 46.263729], [6.093817, 46.263626], [6.093739, 46.263411], [6.093045, 46.262584], [6.092864, 46.262328], [6.092794, 46.262107], [6.092726, 46.261625], [6.092369, 46.260787], [6.092344, 46.259804], [6.092321, 46.259635], [6.092246, 46.259479], [6.091854, 46.259202], [6.091654, 46.259021], [6.091353, 46.25869], [6.091239, 46.258489], [6.091091, 46.258366], [6.090426, 46.257847], [6.090024, 46.257584], [6.089984, 46.257503], [6.089906, 46.257502], [6.089738, 46.257399], [6.088899, 46.256813], [6.088719, 46.256607], [6.088455, 46.256085], [6.087902, 46.255446], [6.087635, 46.255235], [6.087578, 46.255008], [6.087456, 46.254773], [6.087449, 46.254686], [6.087654, 46.254502], [6.088518, 46.254038], [6.088622, 46.253962], [6.088626, 46.253923], [6.088593, 46.253886], [6.088493, 46.253851], [6.088051, 46.253826], [6.087728, 46.253778], [6.08731, 46.253762], [6.087072, 46.253725], [6.086293, 46.253556], [6.086104, 46.253485], [6.085741, 46.253397], [6.085531, 46.253294], [6.083753, 46.252168], [6.083687, 46.252022], [6.083384, 46.251837], [6.083388, 46.25178], [6.083646, 46.251408], [6.083633, 46.251335], [6.083514, 46.251206], [6.083052, 46.250892], [6.082817, 46.250784], [6.082259, 46.250466], [6.082009, 46.25027], [6.081808, 46.250175], [6.081599, 46.250011], [6.080875, 46.249599], [6.080767, 46.2495], [6.080711, 46.24929], [6.080386, 46.24872], [6.080345, 46.248558], [6.080356, 46.2483], [6.080288, 46.248051], [6.079838, 46.247508], [6.079756, 46.247469], [6.079759, 46.247422], [6.079867, 46.247302], [6.080723, 46.2467], [6.080978, 46.246479], [6.081077, 46.246353], [6.081067, 46.246211], [6.081148, 46.246092], [6.081328, 46.246028], [6.081516, 46.246035], [6.081619, 46.246067], [6.081723, 46.245936], [6.081872, 46.245862], [6.081869, 46.245791], [6.081691, 46.245691], [6.081471, 46.245678], [6.081345, 46.245638], [6.08093, 46.245577], [6.080318, 46.245516], [6.079709, 46.245378], [6.07949, 46.245298], [6.078748, 46.244823], [6.078319, 46.244435], [6.077739, 46.244108], [6.076708, 46.243448], [6.075122, 46.242369], [6.075049, 46.242345], [6.074874, 46.242366], [6.074505, 46.242684], [6.074349, 46.242719], [6.074257, 46.242697], [6.073732, 46.242209], [6.073044, 46.241322], [6.07301, 46.241264], [6.073041, 46.24108], [6.073007, 46.241033], [6.072554, 46.240762], [6.070939, 46.23964], [6.070812, 46.239648], [6.070648, 46.239828], [6.070041, 46.240229], [6.069888, 46.240251], [6.069806, 46.240234], [6.068872, 46.239444], [6.068571, 46.239094], [6.068285, 46.23892], [6.067377, 46.237838], [6.066299, 46.236383], [6.064777, 46.235305], [6.064238, 46.23479], [6.063488, 46.234266], [6.063023, 46.233886], [6.062957, 46.233854], [6.062788, 46.233867], [6.062396, 46.234099], [6.062006, 46.234253], [6.060496, 46.23468], [6.060407, 46.234686], [6.060328, 46.234661], [6.060269, 46.234603], [6.060193, 46.234409], [6.059413, 46.233072], [6.059348, 46.233019], [6.059256, 46.233], [6.059151, 46.233014], [6.058665, 46.233187], [6.05829, 46.233278], [6.058134, 46.233287], [6.057774, 46.23317], [6.057692, 46.233041], [6.057485, 46.232946], [6.057437, 46.232827], [6.057482, 46.232701], [6.057311, 46.232629], [6.057126, 46.232513], [6.05706, 46.232424], [6.056905, 46.23233], [6.056841, 46.232238], [6.056606, 46.232049], [6.056462, 46.231889], [6.056273, 46.23152], [6.055691, 46.230547], [6.055585, 46.230439], [6.055253, 46.230325], [6.054865, 46.230317], [6.052559, 46.230132], [6.052299, 46.229956], [6.052128, 46.229804], [6.05176, 46.2292], [6.051624, 46.22906], [6.05142, 46.229009], [6.050797, 46.228973], [6.05064, 46.229021], [6.046388, 46.230815], [6.046264, 46.230928], [6.046075, 46.231419], [6.046317, 46.231773], [6.046312, 46.231865], [6.045308, 46.232266], [6.045321, 46.232299], [6.045403, 46.232329], [6.045443, 46.232398], [6.045399, 46.232444], [6.045461, 46.232441], [6.045443, 46.232454], [6.045429, 46.232437], [6.045442, 46.23247], [6.045463, 46.232464], [6.045432, 46.232471]]}, "properties": {"name": "1789624385.Thursday_Morning_Cycle", "cmt": "2026-09-17", "tstamp": 1789603200, "desc": "---", "src": "6.045308/46.228973/6.19474/46.331781", "bbox": "6.045308/46.228973/6.19474/46.331781"}}]}