{"type": "FeatureCollection", "name": "TrackSet", "crs": {"type": "name", "properties": {"name": "urn:ogc:def:crs:OGC:1.3:CRS84"}}, "bbox": [6.04516, 46.228973, 6.194752, 46.331791], "features": [{"type": "Feature", "bbox": [6.04516, 46.228973, 6.194752, 46.331791], "geometry": {"type": "LineString", "coordinates": [[6.045467, 46.232477], [6.045374, 46.2325], [6.045436, 46.232509], [6.045403, 46.232496], [6.045476, 46.232408], [6.045428, 46.232315], [6.045253, 46.232268], [6.04516, 46.23209], [6.045169, 46.232], [6.045206, 46.231961], [6.045687, 46.231737], [6.045882, 46.231604], [6.046073, 46.231275], [6.046193, 46.230983], [6.046315, 46.230845], [6.046509, 46.230742], [6.050427, 46.229103], [6.050812, 46.228973], [6.051095, 46.228981], [6.051518, 46.229033], [6.051644, 46.229064], [6.051752, 46.229128], [6.051821, 46.22921], [6.051923, 46.229463], [6.05218, 46.229891], [6.05254, 46.230074], [6.052791, 46.230128], [6.053236, 46.230176], [6.054995, 46.230309], [6.055271, 46.230304], [6.055513, 46.230218], [6.055601, 46.230241], [6.055669, 46.230291], [6.055688, 46.230357], [6.055666, 46.23049], [6.055688, 46.230551], [6.056507, 46.231872], [6.056682, 46.232056], [6.05706, 46.232296], [6.057149, 46.232397], [6.057496, 46.232664], [6.057653, 46.232731], [6.057784, 46.232754], [6.05789, 46.232821], [6.057905, 46.232922], [6.057716, 46.233098], [6.057727, 46.233144], [6.057861, 46.233222], [6.058178, 46.23328], [6.058586, 46.233202], [6.059215, 46.233012], [6.059324, 46.233023], [6.05942, 46.233069], [6.060328, 46.234668], [6.060405, 46.234702], [6.060504, 46.2347], [6.060847, 46.234573], [6.062012, 46.23424], [6.062484, 46.234019], [6.062835, 46.233813], [6.062981, 46.233853], [6.063432, 46.234212], [6.064349, 46.234876], [6.064786, 46.235299], [6.066309, 46.236388], [6.066447, 46.236545], [6.067246, 46.237677], [6.068221, 46.238841], [6.068399, 46.239009], [6.068641, 46.239147], [6.068839, 46.239402], [6.069776, 46.240201], [6.069851, 46.240235], [6.070028, 46.240222], [6.070867, 46.239644], [6.071008, 46.239655], [6.073017, 46.241098], [6.073037, 46.24115], [6.073013, 46.241326], [6.073753, 46.242242], [6.074223, 46.24268], [6.07439, 46.242728], [6.074485, 46.242707], [6.074916, 46.242365], [6.075079, 46.242369], [6.076052, 46.24306], [6.07778, 46.244187], [6.078059, 46.244329], [6.07843, 46.244567], [6.078779, 46.244887], [6.079601, 46.245376], [6.080234, 46.245528], [6.08134, 46.245653], [6.081747, 46.245735], [6.08179, 46.245765], [6.081811, 46.245834], [6.081682, 46.246143], [6.081691, 46.246203], [6.081776, 46.246289], [6.08241, 46.246569], [6.083435, 46.246909], [6.083839, 46.247101], [6.084192, 46.247223], [6.084297, 46.247337], [6.084301, 46.24741], [6.084241, 46.247534], [6.084294, 46.247649], [6.084544, 46.247892], [6.084998, 46.248158], [6.085722, 46.248411], [6.086187, 46.248523], [6.086592, 46.248557], [6.086874, 46.248684], [6.088167, 46.249007], [6.08926, 46.249346], [6.090318, 46.249738], [6.090615, 46.250012], [6.090955, 46.250054], [6.09206, 46.250575], [6.092454, 46.250843], [6.09284, 46.251209], [6.093007, 46.251408], [6.093138, 46.251499], [6.093372, 46.251955], [6.093592, 46.252115], [6.093914, 46.252175], [6.094737, 46.25211], [6.095535, 46.252084], [6.09572, 46.252037], [6.09594, 46.251929], [6.096024, 46.251935], [6.096717, 46.252261], [6.096891, 46.25229], [6.097161, 46.252381], [6.0972, 46.252471], [6.097045, 46.252807], [6.097018, 46.25291], [6.097041, 46.253016], [6.097195, 46.253335], [6.097459, 46.253559], [6.09941, 46.254651], [6.099852, 46.254868], [6.100015, 46.254999], [6.10051, 46.255066], [6.101612, 46.255388], [6.102085, 46.25547], [6.102103, 46.255519], [6.102069, 46.255564], [6.101952, 46.255635], [6.101299, 46.256226], [6.100772, 46.256602], [6.100617, 46.256748], [6.100563, 46.256856], [6.100621, 46.256962], [6.101065, 46.257299], [6.101852, 46.257796], [6.1025, 46.258267], [6.102564, 46.258281], [6.103166, 46.258259], [6.103341, 46.258292], [6.105142, 46.259428], [6.105371, 46.25953], [6.105875, 46.259676], [6.106275, 46.25973], [6.107262, 46.260111], [6.107775, 46.260258], [6.108307, 46.260334], [6.109073, 46.260308], [6.109172, 46.260357], [6.10935, 46.260614], [6.109809, 46.260937], [6.110927, 46.261846], [6.112918, 46.263359], [6.114374, 46.264298], [6.114569, 46.264353], [6.11476, 46.264337], [6.114894, 46.264407], [6.114901, 46.264592], [6.115212, 46.264877], [6.1153, 46.265041], [6.11528, 46.265102], [6.115222, 46.26515], [6.114696, 46.265498], [6.11469, 46.265545], [6.114732, 46.265593], [6.114936, 46.265659], [6.115445, 46.265929], [6.11575, 46.266034], [6.116165, 46.266222], [6.116215, 46.266334], [6.116377, 46.266421], [6.117022, 46.266895], [6.117806, 46.267595], [6.118036, 46.267754], [6.118509, 46.267944], [6.119033, 46.268075], [6.119342, 46.268183], [6.120927, 46.269032], [6.121343, 46.26922], [6.121579, 46.269296], [6.121758, 46.269401], [6.122098, 46.269818], [6.122554, 46.270129], [6.12332, 46.270521], [6.12461, 46.271007], [6.124857, 46.271176], [6.125091, 46.271425], [6.125552, 46.271702], [6.125731, 46.27175], [6.125988, 46.271861], [6.127357, 46.272101], [6.128249, 46.272369], [6.128508, 46.272496], [6.128993, 46.272821], [6.129551, 46.273114], [6.130536, 46.273545], [6.130774, 46.273711], [6.131209, 46.274083], [6.131625, 46.27447], [6.131727, 46.274611], [6.131805, 46.274765], [6.131839, 46.274926], [6.131771, 46.275415], [6.131796, 46.275574], [6.131974, 46.276017], [6.132186, 46.276358], [6.133738, 46.277857], [6.134084, 46.278121], [6.135066, 46.279596], [6.135291, 46.279853], [6.135503, 46.279999], [6.136248, 46.280382], [6.136649, 46.280547], [6.138268, 46.281117], [6.139423, 46.281659], [6.139736, 46.281693], [6.141357, 46.281674], [6.14203, 46.281741], [6.143815, 46.281987], [6.144452, 46.282091], [6.144731, 46.282162], [6.145592, 46.282416], [6.146053, 46.282637], [6.147208, 46.283688], [6.147553, 46.283925], [6.147872, 46.284007], [6.147923, 46.28406], [6.147928, 46.284128], [6.147847, 46.284242], [6.147835, 46.284303], [6.147877, 46.284356], [6.150966, 46.287268], [6.1511, 46.287369], [6.151339, 46.287491], [6.151419, 46.287696], [6.15168, 46.288], [6.151915, 46.288388], [6.152909, 46.290335], [6.153248, 46.291081], [6.153501, 46.291865], [6.153728, 46.292171], [6.153819, 46.292441], [6.155147, 46.293841], [6.157332, 46.296043], [6.157729, 46.296328], [6.158287, 46.296614], [6.158697, 46.296767], [6.159671, 46.297048], [6.161585, 46.297713], [6.162215, 46.297956], [6.162645, 46.298197], [6.163658, 46.29893], [6.16406, 46.299187], [6.164404, 46.299461], [6.164625, 46.299669], [6.165636, 46.300854], [6.165998, 46.30122], [6.167766, 46.302399], [6.168822, 46.303141], [6.169068, 46.303252], [6.169634, 46.303398], [6.170155, 46.304395], [6.170463, 46.30473], [6.171455, 46.305445], [6.171758, 46.30562], [6.172343, 46.305873], [6.17249, 46.305969], [6.172532, 46.306105], [6.172416, 46.3064], [6.172385, 46.306836], [6.172373, 46.307621], [6.172409, 46.307945], [6.172477, 46.30809], [6.172709, 46.308413], [6.173198, 46.308975], [6.173398, 46.309422], [6.173482, 46.309736], [6.173605, 46.309926], [6.173591, 46.310319], [6.174226, 46.313537], [6.174673, 46.315514], [6.175043, 46.315914], [6.176215, 46.317351], [6.176774, 46.317948], [6.177425, 46.318583], [6.177514, 46.318621], [6.177608, 46.318782], [6.177792, 46.318975], [6.177871, 46.319324], [6.177951, 46.319481], [6.178323, 46.319883], [6.178725, 46.320382], [6.178859, 46.320474], [6.178983, 46.320503], [6.179644, 46.320517], [6.179803, 46.320547], [6.179984, 46.320748], [6.180436, 46.320976], [6.180653, 46.321217], [6.181337, 46.32246], [6.181451, 46.322582], [6.181678, 46.322751], [6.181771, 46.322796], [6.182007, 46.322835], [6.182999, 46.322871], [6.183494, 46.322932], [6.183941, 46.323077], [6.1843, 46.3233], [6.185146, 46.324097], [6.185946, 46.32491], [6.186376, 46.325287], [6.186661, 46.325647], [6.186903, 46.326028], [6.187091, 46.326243], [6.188837, 46.327834], [6.189778, 46.328381], [6.190512, 46.328949], [6.191117, 46.329597], [6.191318, 46.329741], [6.191645, 46.330037], [6.19175, 46.330197], [6.191884, 46.330578], [6.191897, 46.330714], [6.191943, 46.330768], [6.192039, 46.330788], [6.192138, 46.33077], [6.192834, 46.330477], [6.193002, 46.330362], [6.193148, 46.330175], [6.193232, 46.330144], [6.193541, 46.330133], [6.193835, 46.330088], [6.193936, 46.330092], [6.194027, 46.330127], [6.194428, 46.330873], [6.194752, 46.331605], [6.194744, 46.331664], [6.194681, 46.3317], [6.194366, 46.331791], [6.194284, 46.33178], [6.194252, 46.331693]]}, "properties": {"name": "1789575053.Wednesday_Evening_Cycle", "cmt": "2026-09-16", "tstamp": 1789516800, "desc": "---", "src": "6.04516/46.228973/6.194752/46.331791", "bbox": "6.04516/46.228973/6.194752/46.331791"}}]}