{"type": "FeatureCollection", "name": "TrackSet", "crs": {"type": "name", "properties": {"name": "urn:ogc:def:crs:OGC:1.3:CRS84"}}, "bbox": [6.045125, 46.228973, 6.194745, 46.331798], "features": [{"type": "Feature", "bbox": [6.045125, 46.228973, 6.194745, 46.331798], "geometry": {"type": "LineString", "coordinates": [[6.045419, 46.232408], [6.045377, 46.232464], [6.045419, 46.232408], [6.045449, 46.232409], [6.045346, 46.232394], [6.045395, 46.232383], [6.045393, 46.232313], [6.04522, 46.232232], [6.045186, 46.232108], [6.045125, 46.23207], [6.045149, 46.232005], [6.045857, 46.231624], [6.046054, 46.231306], [6.046193, 46.230965], [6.046324, 46.230838], [6.048847, 46.229745], [6.050565, 46.22904], [6.050817, 46.228973], [6.051089, 46.228982], [6.051491, 46.22903], [6.051616, 46.229066], [6.051718, 46.229131], [6.051793, 46.229208], [6.052111, 46.229798], [6.052306, 46.229977], [6.052598, 46.230099], [6.053423, 46.230194], [6.05497, 46.230305], [6.055236, 46.230305], [6.055466, 46.230217], [6.05555, 46.230216], [6.055628, 46.23025], [6.055679, 46.230381], [6.055669, 46.230509], [6.056512, 46.231885], [6.056718, 46.232093], [6.057072, 46.232308], [6.057212, 46.232469], [6.057538, 46.232687], [6.057767, 46.23275], [6.057872, 46.232841], [6.057888, 46.232903], [6.05786, 46.232961], [6.057741, 46.233049], [6.05771, 46.233108], [6.057722, 46.233169], [6.057785, 46.23321], [6.05815, 46.233292], [6.058596, 46.233187], [6.059144, 46.233018], [6.059251, 46.233005], [6.059362, 46.233027], [6.05944, 46.233084], [6.059485, 46.23316], [6.059539, 46.233302], [6.060067, 46.234189], [6.06027, 46.234587], [6.060388, 46.234698], [6.060497, 46.23471], [6.06077, 46.234599], [6.062004, 46.234248], [6.062573, 46.233975], [6.062834, 46.23381], [6.062979, 46.233853], [6.063516, 46.234283], [6.064194, 46.234755], [6.064739, 46.235271], [6.066271, 46.236364], [6.066651, 46.236842], [6.067242, 46.237672], [6.068318, 46.238917], [6.068451, 46.239032], [6.068691, 46.239178], [6.068825, 46.23938], [6.069785, 46.240196], [6.069858, 46.240231], [6.069956, 46.240236], [6.070042, 46.24021], [6.070876, 46.239624], [6.071026, 46.239648], [6.072994, 46.24107], [6.07304, 46.241172], [6.073008, 46.241297], [6.073027, 46.241354], [6.073711, 46.242212], [6.074249, 46.242702], [6.074338, 46.242729], [6.074428, 46.24272], [6.074501, 46.242681], [6.074629, 46.242547], [6.074916, 46.242368], [6.075071, 46.242359], [6.075139, 46.242388], [6.076563, 46.243383], [6.077751, 46.244157], [6.078155, 46.244378], [6.07832, 46.244498], [6.078733, 46.244886], [6.07957, 46.245361], [6.080167, 46.245494], [6.081655, 46.245683], [6.081765, 46.245716], [6.081793, 46.245783], [6.081656, 46.246149], [6.081724, 46.246254], [6.082239, 46.246496], [6.083332, 46.24689], [6.084222, 46.247254], [6.084285, 46.247309], [6.084313, 46.247384], [6.084237, 46.247586], [6.084277, 46.247644], [6.084545, 46.2479], [6.085099, 46.248194], [6.085779, 46.248426], [6.086238, 46.248539], [6.086517, 46.248515], [6.086793, 46.248657], [6.088095, 46.24899], [6.089547, 46.249455], [6.090364, 46.249777], [6.090573, 46.250003], [6.090814, 46.250033], [6.090961, 46.250077], [6.092047, 46.250569], [6.092431, 46.250845], [6.092732, 46.251111], [6.092996, 46.251401], [6.093117, 46.251487], [6.093264, 46.251719], [6.093331, 46.251919], [6.093419, 46.252015], [6.093537, 46.25208], [6.093764, 46.252149], [6.093956, 46.25216], [6.094513, 46.252113], [6.095466, 46.25208], [6.095653, 46.252049], [6.095883, 46.251945], [6.096051, 46.251929], [6.096636, 46.252204], [6.097156, 46.252371], [6.097208, 46.252437], [6.097051, 46.252746], [6.097043, 46.252987], [6.097204, 46.253329], [6.097509, 46.253583], [6.099534, 46.254735], [6.099816, 46.254857], [6.100039, 46.25501], [6.100506, 46.255077], [6.101698, 46.255403], [6.102073, 46.255466], [6.102095, 46.255504], [6.102075, 46.255555], [6.10184, 46.255765], [6.101235, 46.256267], [6.100743, 46.256571], [6.100512, 46.256782], [6.100493, 46.256834], [6.100502, 46.256886], [6.10056, 46.256936], [6.101079, 46.257332], [6.101594, 46.257639], [6.102476, 46.258258], [6.102606, 46.258285], [6.103114, 46.258259], [6.103367, 46.258315], [6.105242, 46.259489], [6.105577, 46.259572], [6.10578, 46.259652], [6.106083, 46.259665], [6.106168, 46.259688], [6.107308, 46.260126], [6.10787, 46.260292], [6.108372, 46.260336], [6.109119, 46.260317], [6.109214, 46.260355], [6.109269, 46.260545], [6.109316, 46.260592], [6.109519, 46.260725], [6.111699, 46.262447], [6.112917, 46.263368], [6.11434, 46.264274], [6.1145, 46.264336], [6.114768, 46.264322], [6.114845, 46.264354], [6.114893, 46.264417], [6.11493, 46.264612], [6.115254, 46.264908], [6.115292, 46.265032], [6.115195, 46.265145], [6.114693, 46.265487], [6.11467, 46.265526], [6.114699, 46.265571], [6.114759, 46.265611], [6.114991, 46.265683], [6.115324, 46.265874], [6.116149, 46.266197], [6.11619, 46.266233], [6.116198, 46.266307], [6.116755, 46.266678], [6.118039, 46.267775], [6.118195, 46.267843], [6.11927, 46.268144], [6.121052, 46.269094], [6.121586, 46.269306], [6.121702, 46.269387], [6.122067, 46.269815], [6.122501, 46.27011], [6.123367, 46.270548], [6.124527, 46.270945], [6.124701, 46.271057], [6.12501, 46.271362], [6.125479, 46.271666], [6.125769, 46.271754], [6.125954, 46.271851], [6.126855, 46.272026], [6.127416, 46.27211], [6.128194, 46.272348], [6.128658, 46.272594], [6.128971, 46.272808], [6.129706, 46.273177], [6.130472, 46.2735], [6.130634, 46.273598], [6.131481, 46.27432], [6.13168, 46.27453], [6.131777, 46.274686], [6.131844, 46.274947], [6.131772, 46.275401], [6.131796, 46.275582], [6.131976, 46.276015], [6.13218, 46.276345], [6.133815, 46.277928], [6.134085, 46.278108], [6.135074, 46.279619], [6.135218, 46.279796], [6.135424, 46.279955], [6.136211, 46.280364], [6.136639, 46.280545], [6.138142, 46.281052], [6.139415, 46.281643], [6.139747, 46.281684], [6.14065, 46.281676], [6.141079, 46.281642], [6.141494, 46.281657], [6.143918, 46.281997], [6.144297, 46.282027], [6.14561, 46.282412], [6.146032, 46.282614], [6.147276, 46.283749], [6.147599, 46.283953], [6.147867, 46.284002], [6.14791, 46.28406], [6.147908, 46.284136], [6.147831, 46.284264], [6.147831, 46.284329], [6.148023, 46.284476], [6.150998, 46.287293], [6.151336, 46.287488], [6.151389, 46.287558], [6.151438, 46.287719], [6.151677, 46.287989], [6.1519, 46.288358], [6.152935, 46.290393], [6.153242, 46.291063], [6.153517, 46.291907], [6.153719, 46.292113], [6.153733, 46.292277], [6.153814, 46.29244], [6.157224, 46.295965], [6.157706, 46.296321], [6.158373, 46.296654], [6.158686, 46.296765], [6.159649, 46.297037], [6.161195, 46.297571], [6.162129, 46.297917], [6.162594, 46.298156], [6.163268, 46.298659], [6.164086, 46.299208], [6.16443, 46.299491], [6.164722, 46.299779], [6.165776, 46.301002], [6.166054, 46.301252], [6.167147, 46.301962], [6.168856, 46.303146], [6.169018, 46.303225], [6.169534, 46.303365], [6.169619, 46.303412], [6.17013, 46.304351], [6.170454, 46.304694], [6.170808, 46.304986], [6.171415, 46.30541], [6.171777, 46.305619], [6.172335, 46.305855], [6.172476, 46.305939], [6.17253, 46.30607], [6.172409, 46.306432], [6.172368, 46.306863], [6.172364, 46.307743], [6.17239, 46.307908], [6.172456, 46.308059], [6.172736, 46.308461], [6.173208, 46.308996], [6.173356, 46.30931], [6.173491, 46.309733], [6.173628, 46.309949], [6.173571, 46.31015], [6.173584, 46.310311], [6.173907, 46.312033], [6.174463, 46.314688], [6.174678, 46.315519], [6.175254, 46.316169], [6.176205, 46.31735], [6.177746, 46.318889], [6.177953, 46.319458], [6.178753, 46.320405], [6.178832, 46.320462], [6.178998, 46.320505], [6.17966, 46.320512], [6.179819, 46.320546], [6.180005, 46.32077], [6.180348, 46.320919], [6.180496, 46.321021], [6.180696, 46.321288], [6.181328, 46.322451], [6.181452, 46.322591], [6.181696, 46.32277], [6.181942, 46.322829], [6.183106, 46.322878], [6.183492, 46.322932], [6.183732, 46.322992], [6.183948, 46.32308], [6.184312, 46.323307], [6.186372, 46.325285], [6.18704, 46.326186], [6.188493, 46.327525], [6.18891, 46.327884], [6.189657, 46.3283], [6.190211, 46.328697], [6.190614, 46.329039], [6.191165, 46.329627], [6.191617, 46.33], [6.191745, 46.330158], [6.191908, 46.330745], [6.19199, 46.330782], [6.192089, 46.330778], [6.19295, 46.330414], [6.193033, 46.330349], [6.193163, 46.33016], [6.193891, 46.330079], [6.19399, 46.3301], [6.19406, 46.330154], [6.194745, 46.331605], [6.19468, 46.331698], [6.194366, 46.331789], [6.194294, 46.331789], [6.19427, 46.331742], [6.194274, 46.331798], [6.194254, 46.331693]]}, "properties": {"name": "1789489269.Tuesday_Evening_Cycle", "cmt": "2026-09-15", "tstamp": 1789430400, "desc": "---", "src": "6.045125/46.228973/6.194745/46.331798", "bbox": "6.045125/46.228973/6.194745/46.331798"}}]}