{"type": "FeatureCollection", "name": "TrackSet", "crs": {"type": "name", "properties": {"name": "urn:ogc:def:crs:OGC:1.3:CRS84"}}, "bbox": [6.0453, 46.228972, 6.194736, 46.331751], "features": [{"type": "Feature", "bbox": [6.0453, 46.228972, 6.194736, 46.331751], "geometry": {"type": "LineString", "coordinates": [[6.194219, 46.3317], [6.194261, 46.331684], [6.194219, 46.3317], [6.19438, 46.331744], [6.194193, 46.331548], [6.194331, 46.331723], [6.194317, 46.331751], [6.194426, 46.331751], [6.194614, 46.331709], [6.19471, 46.331669], [6.194736, 46.331631], [6.194668, 46.331514], [6.194482, 46.33099], [6.193976, 46.330128], [6.193916, 46.330092], [6.193832, 46.33008], [6.19318, 46.330145], [6.193083, 46.330207], [6.192923, 46.330422], [6.192831, 46.330477], [6.192184, 46.330746], [6.192011, 46.33078], [6.191894, 46.330738], [6.191855, 46.330692], [6.191824, 46.330526], [6.191689, 46.330168], [6.191509, 46.329932], [6.191056, 46.329546], [6.190644, 46.329109], [6.190376, 46.328871], [6.189704, 46.328374], [6.188835, 46.327885], [6.187894, 46.327054], [6.186954, 46.326183], [6.186275, 46.325252], [6.184272, 46.32333], [6.183885, 46.323089], [6.183568, 46.322982], [6.183318, 46.322934], [6.181955, 46.322843], [6.18159, 46.322746], [6.181451, 46.322633], [6.181281, 46.322403], [6.180869, 46.321604], [6.180619, 46.32118], [6.180494, 46.321029], [6.180004, 46.320757], [6.179784, 46.320539], [6.178981, 46.320504], [6.178829, 46.320469], [6.178706, 46.320376], [6.178319, 46.319863], [6.178075, 46.319634], [6.177932, 46.319451], [6.177733, 46.318864], [6.177464, 46.318642], [6.177114, 46.318256], [6.176235, 46.317395], [6.175533, 46.316494], [6.174818, 46.315657], [6.174735, 46.315586], [6.174682, 46.315583], [6.174626, 46.315545], [6.174533, 46.315223], [6.174108, 46.313172], [6.173553, 46.310209], [6.173449, 46.309927], [6.173438, 46.309613], [6.173258, 46.309108], [6.172648, 46.308389], [6.172373, 46.307916], [6.172354, 46.307607], [6.172398, 46.306415], [6.172508, 46.306076], [6.172451, 46.305948], [6.172384, 46.3059], [6.171779, 46.305641], [6.171451, 46.305457], [6.170841, 46.305026], [6.170288, 46.304571], [6.170136, 46.304382], [6.169628, 46.303454], [6.169552, 46.303394], [6.169119, 46.3033], [6.168781, 46.303138], [6.165967, 46.301235], [6.165413, 46.300647], [6.164673, 46.299764], [6.164343, 46.299447], [6.163971, 46.29916], [6.163584, 46.298915], [6.162557, 46.298178], [6.162157, 46.297971], [6.161146, 46.2976], [6.160356, 46.297339], [6.159785, 46.297099], [6.158805, 46.296815], [6.158238, 46.296612], [6.157828, 46.296406], [6.157441, 46.296155], [6.15667, 46.29555], [6.155323, 46.294113], [6.154919, 46.293768], [6.154809, 46.293591], [6.154335, 46.293092], [6.154169, 46.292846], [6.154006, 46.292697], [6.153671, 46.292273], [6.153496, 46.292096], [6.153462, 46.291797], [6.153091, 46.290798], [6.151864, 46.288407], [6.151564, 46.28795], [6.151325, 46.287709], [6.151089, 46.287564], [6.15092, 46.287283], [6.147843, 46.284372], [6.147525, 46.283993], [6.147121, 46.283695], [6.145918, 46.282607], [6.145613, 46.28247], [6.144575, 46.282152], [6.143594, 46.281974], [6.142114, 46.281763], [6.14138, 46.281689], [6.14102, 46.28168], [6.140438, 46.28172], [6.139625, 46.281701], [6.139396, 46.28167], [6.139195, 46.281595], [6.138466, 46.28123], [6.136401, 46.280505], [6.135961, 46.280298], [6.135367, 46.279963], [6.135074, 46.279695], [6.134237, 46.278463], [6.133808, 46.27795], [6.132124, 46.276355], [6.1319, 46.275981], [6.13175, 46.275603], [6.131719, 46.275346], [6.131784, 46.274953], [6.131747, 46.274759], [6.131654, 46.274577], [6.131471, 46.274375], [6.130949, 46.273899], [6.1305, 46.273543], [6.129473, 46.27309], [6.128436, 46.272467], [6.127995, 46.272297], [6.127174, 46.27208], [6.126789, 46.272024], [6.126059, 46.27187], [6.125624, 46.271859], [6.125555, 46.271821], [6.125417, 46.271631], [6.125173, 46.271496], [6.124542, 46.270947], [6.123314, 46.270517], [6.122347, 46.270035], [6.122165, 46.269898], [6.121718, 46.269375], [6.121584, 46.269275], [6.121199, 46.269149], [6.119339, 46.268155], [6.118998, 46.268045], [6.118362, 46.267888], [6.118019, 46.267747], [6.117816, 46.267607], [6.116978, 46.266846], [6.116445, 46.266422], [6.116288, 46.266335], [6.116254, 46.266244], [6.116176, 46.266178], [6.114958, 46.265655], [6.114756, 46.265547], [6.114738, 46.265515], [6.114771, 46.265487], [6.114878, 46.265451], [6.114948, 46.265397], [6.114941, 46.265297], [6.114968, 46.265271], [6.115243, 46.265125], [6.115301, 46.265044], [6.115197, 46.264869], [6.115092, 46.26476], [6.114808, 46.26454], [6.114458, 46.264364], [6.113445, 46.263765], [6.112446, 46.263088], [6.109603, 46.260836], [6.109207, 46.260559], [6.109138, 46.260422], [6.109062, 46.260399], [6.108618, 46.260425], [6.108148, 46.260401], [6.107495, 46.260279], [6.106224, 46.25978], [6.105704, 46.259676], [6.105252, 46.259527], [6.103337, 46.258343], [6.103158, 46.258295], [6.102684, 46.258299], [6.102486, 46.258264], [6.101176, 46.257404], [6.100636, 46.257017], [6.10053, 46.256912], [6.100525, 46.256857], [6.100609, 46.25674], [6.101035, 46.256483], [6.1014, 46.256181], [6.101944, 46.255668], [6.101973, 46.255616], [6.101955, 46.255574], [6.101835, 46.255507], [6.101076, 46.255303], [6.100716, 46.255172], [6.100247, 46.25506], [6.099844, 46.255017], [6.099545, 46.25476], [6.097251, 46.253496], [6.097076, 46.253289], [6.096979, 46.253054], [6.096998, 46.252708], [6.097169, 46.252423], [6.097165, 46.252383], [6.097117, 46.252349], [6.09674, 46.252243], [6.096048, 46.251958], [6.095866, 46.251958], [6.09567, 46.252058], [6.095592, 46.252071], [6.09482, 46.252084], [6.093931, 46.252142], [6.093751, 46.252132], [6.093586, 46.252079], [6.093409, 46.251952], [6.093307, 46.251697], [6.093135, 46.25145], [6.093002, 46.251354], [6.092494, 46.250837], [6.09201, 46.250517], [6.090944, 46.250051], [6.090553, 46.249956], [6.090368, 46.249767], [6.089295, 46.249377], [6.088228, 46.249041], [6.087043, 46.248735], [6.086691, 46.248664], [6.086499, 46.248673], [6.086355, 46.248652], [6.086174, 46.248537], [6.085564, 46.248369], [6.084906, 46.248108], [6.084523, 46.247885], [6.084346, 46.247719], [6.084166, 46.247475], [6.084176, 46.247285], [6.08415, 46.247232], [6.082894, 46.246811], [6.082564, 46.246612], [6.081768, 46.246263], [6.081726, 46.246224], [6.081707, 46.24612], [6.081787, 46.245974], [6.081784, 46.245925], [6.081871, 46.245815], [6.081752, 46.245707], [6.08158, 46.245645], [6.08138, 46.245635], [6.081127, 46.245576], [6.080127, 46.245471], [6.079692, 46.245377], [6.079388, 46.245253], [6.078723, 46.244825], [6.078523, 46.244629], [6.078249, 46.244423], [6.078004, 46.244264], [6.077734, 46.244136], [6.0751, 46.242371], [6.074928, 46.242349], [6.074848, 46.242385], [6.074704, 46.242532], [6.074461, 46.242707], [6.074291, 46.242718], [6.074213, 46.242681], [6.073749, 46.242223], [6.073052, 46.241329], [6.073018, 46.24127], [6.073049, 46.241093], [6.073021, 46.241042], [6.07281, 46.240943], [6.071951, 46.240346], [6.071649, 46.240107], [6.070983, 46.239666], [6.070864, 46.239635], [6.070794, 46.239661], [6.070668, 46.239817], [6.070052, 46.240217], [6.069889, 46.240253], [6.069723, 46.240196], [6.06896, 46.239532], [6.068606, 46.239133], [6.068346, 46.238975], [6.068278, 46.238907], [6.068147, 46.238706], [6.067803, 46.238358], [6.067433, 46.237887], [6.067152, 46.237592], [6.066277, 46.236364], [6.065708, 46.235974], [6.064901, 46.235362], [6.064761, 46.235289], [6.06411, 46.234701], [6.063483, 46.234269], [6.062993, 46.233875], [6.062835, 46.233844], [6.062204, 46.23417], [6.061991, 46.234253], [6.060468, 46.234687], [6.060387, 46.23468], [6.060269, 46.234586], [6.059438, 46.233088], [6.05938, 46.233034], [6.059288, 46.233001], [6.059173, 46.233008], [6.058859, 46.233134], [6.058266, 46.233288], [6.058116, 46.233294], [6.057738, 46.23316], [6.057682, 46.233049], [6.057477, 46.23295], [6.057419, 46.232866], [6.05746, 46.23272], [6.057431, 46.232674], [6.057294, 46.232634], [6.057146, 46.23254], [6.057059, 46.232453], [6.057059, 46.232421], [6.056467, 46.231894], [6.055648, 46.230489], [6.055583, 46.230442], [6.055167, 46.230318], [6.054981, 46.230329], [6.053299, 46.230203], [6.052446, 46.230073], [6.052372, 46.230044], [6.052173, 46.229891], [6.052058, 46.229769], [6.051648, 46.229101], [6.051559, 46.229045], [6.051346, 46.228993], [6.050889, 46.228972], [6.050689, 46.229009], [6.04639, 46.230823], [6.046262, 46.230936], [6.04606, 46.231409], [6.046153, 46.231593], [6.046326, 46.231804], [6.046321, 46.231852], [6.046209, 46.231923], [6.046021, 46.231975], [6.045301, 46.232271], [6.0453, 46.232305], [6.045396, 46.23234], [6.045429, 46.232419], [6.045371, 46.23242], [6.045451, 46.232425], [6.045425, 46.232432], [6.045414, 46.232457], [6.045426, 46.232441], [6.045437, 46.232456]]}, "properties": {"name": "1789364274.Monday_Morning_Cycle", "cmt": "2026-09-14", "tstamp": 1789344000, "desc": "---", "src": "6.0453/46.228972/6.194736/46.331751", "bbox": "6.0453/46.228972/6.194736/46.331751"}}]}