{"type": "FeatureCollection", "name": "TrackSet", "crs": {"type": "name", "properties": {"name": "urn:ogc:def:crs:OGC:1.3:CRS84"}}, "bbox": [6.045305, 46.228977, 6.19474, 46.331802], "features": [{"type": "Feature", "bbox": [6.045305, 46.228977, 6.19474, 46.331802], "geometry": {"type": "LineString", "coordinates": [[6.194225, 46.331663], [6.194262, 46.331737], [6.194381, 46.331802], [6.194315, 46.331777], [6.194434, 46.331776], [6.194639, 46.331715], [6.19473, 46.331655], [6.19474, 46.331609], [6.194652, 46.331474], [6.194398, 46.330848], [6.193969, 46.330123], [6.193822, 46.330096], [6.193688, 46.33013], [6.193157, 46.330187], [6.193058, 46.330337], [6.192869, 46.330476], [6.192239, 46.330741], [6.192081, 46.330787], [6.191923, 46.330775], [6.191864, 46.330708], [6.191852, 46.330564], [6.191702, 46.330165], [6.191543, 46.329956], [6.191245, 46.329676], [6.191074, 46.329558], [6.190745, 46.329205], [6.19037, 46.32887], [6.189663, 46.328351], [6.189084, 46.328049], [6.188783, 46.327857], [6.187438, 46.326638], [6.18694, 46.32617], [6.186285, 46.325247], [6.184368, 46.323395], [6.184014, 46.323144], [6.183652, 46.322998], [6.183087, 46.322916], [6.181968, 46.322845], [6.181697, 46.322789], [6.181577, 46.322735], [6.181348, 46.322484], [6.181197, 46.322261], [6.181043, 46.321902], [6.180607, 46.321139], [6.180411, 46.32096], [6.179983, 46.320736], [6.179838, 46.320564], [6.179667, 46.320533], [6.178792, 46.32051], [6.178286, 46.320617], [6.177791, 46.320683], [6.177369, 46.320712], [6.176227, 46.320904], [6.176133, 46.320827], [6.175942, 46.320221], [6.17577, 46.320022], [6.175199, 46.320004], [6.174374, 46.320038], [6.174271, 46.320018], [6.17428, 46.320003], [6.174194, 46.319973], [6.17372, 46.319273], [6.173463, 46.318254], [6.17344, 46.318194], [6.173293, 46.318037], [6.173043, 46.317859], [6.172516, 46.317557], [6.17175, 46.31728], [6.170524, 46.31694], [6.170215, 46.316786], [6.169424, 46.315846], [6.168072, 46.314891], [6.16761, 46.314433], [6.16723, 46.313967], [6.166701, 46.31308], [6.165866, 46.312259], [6.165149, 46.311773], [6.165031, 46.311664], [6.164572, 46.31103], [6.164219, 46.310419], [6.163783, 46.309964], [6.163289, 46.309597], [6.162844, 46.309344], [6.162346, 46.309116], [6.161837, 46.30882], [6.161373, 46.308495], [6.161087, 46.308333], [6.161047, 46.308283], [6.161057, 46.308223], [6.161114, 46.308176], [6.161376, 46.30809], [6.16301, 46.307405], [6.163064, 46.30734], [6.163071, 46.307269], [6.162989, 46.306899], [6.162827, 46.306809], [6.162711, 46.306701], [6.162562, 46.306455], [6.162519, 46.306328], [6.162604, 46.306021], [6.162635, 46.305762], [6.162634, 46.305078], [6.16259, 46.304505], [6.162499, 46.304119], [6.162196, 46.303371], [6.162214, 46.303047], [6.162372, 46.302686], [6.162459, 46.302311], [6.162511, 46.301931], [6.162496, 46.30185], [6.162366, 46.301656], [6.162058, 46.301011], [6.161603, 46.300488], [6.161473, 46.300384], [6.161294, 46.30035], [6.161192, 46.300382], [6.160883, 46.300611], [6.160711, 46.300652], [6.160443, 46.300664], [6.160255, 46.300639], [6.159563, 46.300442], [6.158984, 46.300328], [6.157973, 46.300006], [6.155902, 46.299005], [6.155191, 46.298493], [6.154524, 46.29792], [6.154455, 46.2979], [6.154377, 46.29791], [6.153784, 46.298228], [6.15364, 46.298264], [6.153569, 46.298252], [6.153204, 46.297872], [6.152976, 46.297701], [6.1523, 46.297075], [6.150789, 46.295763], [6.150449, 46.295445], [6.150146, 46.295108], [6.149591, 46.294597], [6.149435, 46.294506], [6.14931, 46.294534], [6.14862, 46.294847], [6.146113, 46.296197], [6.145652, 46.296381], [6.145493, 46.296517], [6.145333, 46.296586], [6.144036, 46.297353], [6.143719, 46.297504], [6.143651, 46.297529], [6.143573, 46.297525], [6.1435, 46.297495], [6.142661, 46.29657], [6.138618, 46.292365], [6.138496, 46.292305], [6.138415, 46.292306], [6.138151, 46.29238], [6.137837, 46.292529], [6.136915, 46.293105], [6.136366, 46.293485], [6.135221, 46.294308], [6.135055, 46.294497], [6.134616, 46.294898], [6.13396, 46.295466], [6.133713, 46.295644], [6.133043, 46.296056], [6.132151, 46.296531], [6.131834, 46.296675], [6.131783, 46.296683], [6.13169, 46.296645], [6.131182, 46.294627], [6.130868, 46.293551], [6.130709, 46.292756], [6.130169, 46.290781], [6.130095, 46.290628], [6.129975, 46.290497], [6.129696, 46.290365], [6.127835, 46.289918], [6.127217, 46.289802], [6.126189, 46.289659], [6.125946, 46.289575], [6.125565, 46.289305], [6.125492, 46.289235], [6.125441, 46.289066], [6.125513, 46.288853], [6.125499, 46.28841], [6.125526, 46.288211], [6.125403, 46.287856], [6.12528, 46.287711], [6.124622, 46.287181], [6.123506, 46.286359], [6.121597, 46.284893], [6.119159, 46.283162], [6.119007, 46.283084], [6.118821, 46.28292], [6.11822, 46.282524], [6.114599, 46.280334], [6.11445, 46.28019], [6.114313, 46.279986], [6.114252, 46.279807], [6.114127, 46.279122], [6.113888, 46.27869], [6.113614, 46.278093], [6.113494, 46.277926], [6.112901, 46.27748], [6.112676, 46.277248], [6.112513, 46.277139], [6.112201, 46.27704], [6.111456, 46.276899], [6.111167, 46.276768], [6.109588, 46.275552], [6.109219, 46.275235], [6.108983, 46.274976], [6.108914, 46.274865], [6.108918, 46.274736], [6.108775, 46.27447], [6.108575, 46.27435], [6.108219, 46.27421], [6.108021, 46.274083], [6.10769, 46.273784], [6.106841, 46.272899], [6.105665, 46.271432], [6.105434, 46.271198], [6.105092, 46.27108], [6.103944, 46.270971], [6.102936, 46.270646], [6.10278, 46.270619], [6.100408, 46.271142], [6.100289, 46.271129], [6.100191, 46.271073], [6.099585, 46.270325], [6.099017, 46.269835], [6.09874, 46.269735], [6.098502, 46.269733], [6.098426, 46.26971], [6.098227, 46.269494], [6.098052, 46.269436], [6.097385, 46.269113], [6.097174, 46.268981], [6.096889, 46.268714], [6.096144, 46.267943], [6.09604, 46.267793], [6.095879, 46.267669], [6.095887, 46.267623], [6.096077, 46.26752], [6.096101, 46.267232], [6.095885, 46.266539], [6.095704, 46.266115], [6.095497, 46.265795], [6.095154, 46.265368], [6.0949, 46.264666], [6.094753, 46.264506], [6.094405, 46.264023], [6.094209, 46.263819], [6.09406, 46.26371], [6.093806, 46.263606], [6.093738, 46.263408], [6.092898, 46.26238], [6.092791, 46.262092], [6.092731, 46.261617], [6.092362, 46.260779], [6.092361, 46.259954], [6.092289, 46.259542], [6.092159, 46.259402], [6.091629, 46.259], [6.091325, 46.258653], [6.091251, 46.258506], [6.090947, 46.25825], [6.090346, 46.257805], [6.090001, 46.257597], [6.089975, 46.257506], [6.089885, 46.25751], [6.089038, 46.256942], [6.088893, 46.256816], [6.088737, 46.25664], [6.088504, 46.256138], [6.087951, 46.255485], [6.087832, 46.255371], [6.087643, 46.255249], [6.087587, 46.255009], [6.087463, 46.254782], [6.08748, 46.254686], [6.087651, 46.254535], [6.087984, 46.254324], [6.088616, 46.253985], [6.088649, 46.253943], [6.088622, 46.253894], [6.088458, 46.253854], [6.088022, 46.253832], [6.087054, 46.253733], [6.086399, 46.253592], [6.085936, 46.253463], [6.085717, 46.253382], [6.085477, 46.253257], [6.083762, 46.252176], [6.083678, 46.252019], [6.083376, 46.251856], [6.083354, 46.251809], [6.083639, 46.251424], [6.083647, 46.251359], [6.083174, 46.250954], [6.082336, 46.250523], [6.082007, 46.250277], [6.08179, 46.250165], [6.08164, 46.25004], [6.080877, 46.249615], [6.080767, 46.24951], [6.080702, 46.249291], [6.080367, 46.248686], [6.080316, 46.248153], [6.08028, 46.248069], [6.079762, 46.247455], [6.079765, 46.24739], [6.080941, 46.246503], [6.081064, 46.246381], [6.081091, 46.246308], [6.081069, 46.246164], [6.081113, 46.2461], [6.081197, 46.246055], [6.081397, 46.246026], [6.081612, 46.246063], [6.081731, 46.245924], [6.081879, 46.24585], [6.081889, 46.245816], [6.081842, 46.245751], [6.081722, 46.245691], [6.081534, 46.245654], [6.080236, 46.245485], [6.079828, 46.245391], [6.079525, 46.245294], [6.078731, 46.244795], [6.078544, 46.244623], [6.078157, 46.244341], [6.07784, 46.244173], [6.076813, 46.243524], [6.07508, 46.242361], [6.074988, 46.242349], [6.074894, 46.242368], [6.074518, 46.242688], [6.074448, 46.242718], [6.074265, 46.242702], [6.073773, 46.242248], [6.073339, 46.241694], [6.073039, 46.241274], [6.073042, 46.241072], [6.072812, 46.240948], [6.072641, 46.240797], [6.072397, 46.240655], [6.070945, 46.239642], [6.070886, 46.239635], [6.070821, 46.239663], [6.070676, 46.23982], [6.070028, 46.240242], [6.069851, 46.240255], [6.069762, 46.240222], [6.068882, 46.239438], [6.068597, 46.239114], [6.068344, 46.238979], [6.068283, 46.238921], [6.067329, 46.237804], [6.066256, 46.23635], [6.064758, 46.235282], [6.064311, 46.234853], [6.063666, 46.234395], [6.063016, 46.233879], [6.062937, 46.233846], [6.062748, 46.233869], [6.062497, 46.234028], [6.061954, 46.234267], [6.061252, 46.234448], [6.060475, 46.234686], [6.060396, 46.234688], [6.060322, 46.234652], [6.060277, 46.23459], [6.059415, 46.233056], [6.059337, 46.233014], [6.059233, 46.233009], [6.058613, 46.233209], [6.058335, 46.233282], [6.058188, 46.233296], [6.057767, 46.233176], [6.057667, 46.233035], [6.057485, 46.232946], [6.057441, 46.232854], [6.057471, 46.232715], [6.057105, 46.232508], [6.057062, 46.232441], [6.056482, 46.231926], [6.055702, 46.230556], [6.055586, 46.230444], [6.055223, 46.230325], [6.054925, 46.230333], [6.053333, 46.230217], [6.053239, 46.230193], [6.05313, 46.230202], [6.052959, 46.230131], [6.052631, 46.23008], [6.052348, 46.229971], [6.052179, 46.229866], [6.052058, 46.229715], [6.051707, 46.229126], [6.05162, 46.229055], [6.051495, 46.229009], [6.051353, 46.228994], [6.050775, 46.228977], [6.046367, 46.230825], [6.046251, 46.230951], [6.046072, 46.231403], [6.046112, 46.2315], [6.046318, 46.231757], [6.046324, 46.231847], [6.046207, 46.231916], [6.045906, 46.232005], [6.045305, 46.232271], [6.045309, 46.232301], [6.045395, 46.232321], [6.045437, 46.232423], [6.045391, 46.232442], [6.045443, 46.232457], [6.045412, 46.232479], [6.045426, 46.232503], [6.04546, 46.232493], [6.045443, 46.232479]]}, "properties": {"name": "1789538265.Wednesday_Morning_Cycle", "cmt": "2026-09-16", "tstamp": 1789516800, "desc": "---", "src": "6.045305/46.228977/6.19474/46.331802", "bbox": "6.045305/46.228977/6.19474/46.331802"}}]}