{"type": "FeatureCollection", "name": "TrackSet", "crs": {"type": "name", "properties": {"name": "urn:ogc:def:crs:OGC:1.3:CRS84"}}, "bbox": [6.033774, 46.232051, 6.194708, 46.331728], "features": [{"type": "Feature", "bbox": [6.033774, 46.232051, 6.194708, 46.331728], "geometry": {"type": "LineString", "coordinates": [[6.194258, 46.331701], [6.194337, 46.331674], [6.19428, 46.331624], [6.194322, 46.331728], [6.194615, 46.331677], [6.194708, 46.331595], [6.194708, 46.331551], [6.194478, 46.331056], [6.193984, 46.330153], [6.193862, 46.330096], [6.193788, 46.330098], [6.193148, 46.330185], [6.193048, 46.33033], [6.192834, 46.330488], [6.192168, 46.330767], [6.192015, 46.330796], [6.191903, 46.330769], [6.191864, 46.33073], [6.191854, 46.330582], [6.191713, 46.330216], [6.19152, 46.329943], [6.191097, 46.329587], [6.190541, 46.329014], [6.19026, 46.328773], [6.189658, 46.328337], [6.188841, 46.327888], [6.187279, 46.326479], [6.186923, 46.326137], [6.186291, 46.325259], [6.184364, 46.323393], [6.183997, 46.323136], [6.183598, 46.32298], [6.183245, 46.322919], [6.181954, 46.322835], [6.181742, 46.322798], [6.181561, 46.322727], [6.181443, 46.322611], [6.181221, 46.32229], [6.181019, 46.321866], [6.180596, 46.321129], [6.180456, 46.320991], [6.179973, 46.320723], [6.179812, 46.320547], [6.179641, 46.320522], [6.178858, 46.320492], [6.178269, 46.320612], [6.177352, 46.320707], [6.176775, 46.320796], [6.176241, 46.320912], [6.176183, 46.320896], [6.176141, 46.320843], [6.17596, 46.320199], [6.175844, 46.320058], [6.175731, 46.320011], [6.175086, 46.320003], [6.174446, 46.320025], [6.174209, 46.319972], [6.173722, 46.319254], [6.173625, 46.318789], [6.173446, 46.318227], [6.173249, 46.318009], [6.172771, 46.3177], [6.172331, 46.317486], [6.172092, 46.317419], [6.171627, 46.317241], [6.170516, 46.316941], [6.170257, 46.316832], [6.169434, 46.315851], [6.168073, 46.314874], [6.167835, 46.314643], [6.16738, 46.314131], [6.167, 46.313542], [6.166885, 46.313298], [6.166717, 46.313074], [6.165906, 46.312274], [6.165347, 46.311905], [6.165095, 46.3117], [6.164802, 46.311342], [6.164171, 46.310332], [6.163788, 46.309934], [6.163608, 46.309785], [6.162954, 46.309407], [6.162422, 46.309184], [6.162118, 46.309008], [6.161051, 46.308311], [6.161026, 46.308257], [6.161116, 46.308177], [6.161369, 46.30809], [6.162991, 46.307405], [6.163056, 46.307348], [6.163069, 46.307268], [6.163017, 46.307115], [6.163006, 46.306914], [6.16273, 46.306701], [6.16253, 46.306325], [6.162645, 46.305763], [6.162589, 46.304539], [6.162528, 46.304211], [6.162205, 46.303373], [6.162218, 46.303046], [6.16239, 46.302605], [6.162476, 46.302091], [6.162469, 46.301817], [6.162009, 46.300968], [6.161674, 46.300544], [6.161487, 46.300384], [6.16131, 46.300335], [6.161222, 46.300358], [6.160806, 46.300645], [6.160437, 46.300689], [6.15932, 46.300418], [6.158773, 46.300318], [6.158315, 46.300161], [6.157538, 46.299842], [6.156443, 46.299281], [6.155824, 46.299018], [6.155125, 46.2985], [6.154471, 46.297916], [6.154393, 46.297908], [6.154317, 46.297932], [6.153725, 46.298253], [6.153587, 46.298254], [6.15346, 46.298157], [6.153345, 46.298016], [6.150566, 46.29558], [6.149718, 46.294705], [6.149398, 46.294462], [6.149265, 46.294502], [6.148869, 46.29469], [6.147161, 46.295634], [6.145063, 46.296742], [6.144045, 46.297339], [6.143677, 46.29752], [6.143574, 46.297543], [6.141492, 46.295334], [6.139762, 46.293577], [6.138635, 46.292373], [6.138511, 46.292298], [6.138428, 46.292297], [6.138158, 46.29237], [6.137951, 46.29246], [6.136923, 46.293119], [6.135409, 46.294217], [6.134987, 46.294605], [6.134791, 46.294741], [6.134109, 46.295387], [6.133541, 46.295784], [6.131932, 46.296644], [6.13183, 46.296686], [6.131734, 46.296684], [6.13168, 46.296635], [6.13166, 46.29639], [6.1314, 46.295472], [6.131249, 46.294787], [6.130963, 46.293809], [6.130812, 46.293084], [6.130549, 46.29224], [6.13017, 46.290784], [6.13011, 46.290633], [6.129998, 46.290512], [6.129631, 46.290323], [6.129341, 46.290259], [6.127586, 46.289929], [6.127188, 46.289833], [6.12664, 46.289768], [6.126161, 46.289677], [6.125925, 46.28959], [6.125716, 46.289459], [6.125466, 46.289241], [6.125431, 46.289157], [6.125429, 46.289072], [6.125537, 46.288802], [6.12549, 46.288391], [6.125499, 46.288159], [6.125428, 46.287923], [6.125218, 46.287658], [6.123754, 46.286551], [6.122148, 46.285291], [6.11895, 46.283001], [6.118219, 46.282524], [6.114634, 46.280354], [6.114453, 46.280176], [6.114343, 46.280016], [6.114244, 46.279748], [6.114213, 46.279429], [6.114133, 46.279102], [6.113636, 46.278079], [6.113442, 46.277876], [6.112945, 46.277517], [6.112576, 46.277182], [6.112275, 46.27706], [6.111462, 46.276895], [6.111177, 46.276776], [6.109614, 46.275583], [6.109268, 46.275266], [6.109235, 46.275262], [6.109011, 46.275003], [6.108924, 46.274857], [6.108954, 46.274796], [6.108935, 46.274731], [6.108802, 46.274483], [6.108665, 46.27439], [6.108179, 46.27418], [6.107783, 46.273887], [6.107468, 46.273558], [6.107291, 46.273314], [6.106693, 46.272695], [6.106074, 46.27195], [6.105625, 46.271353], [6.105503, 46.271237], [6.10534, 46.271145], [6.105217, 46.271155], [6.104458, 46.271075], [6.10417, 46.271084], [6.104094, 46.271124], [6.104006, 46.271249], [6.10347, 46.271417], [6.102945, 46.271676], [6.101366, 46.272599], [6.100494, 46.272916], [6.099431, 46.273225], [6.098966, 46.273329], [6.097921, 46.273914], [6.096572, 46.274609], [6.096461, 46.274617], [6.096411, 46.274597], [6.095783, 46.274111], [6.095611, 46.273934], [6.094954, 46.273434], [6.094892, 46.273347], [6.094966, 46.27321], [6.09495, 46.273164], [6.094822, 46.273075], [6.094734, 46.273048], [6.093894, 46.273197], [6.093246, 46.273462], [6.092606, 46.273657], [6.092373, 46.273769], [6.091682, 46.274212], [6.091302, 46.27439], [6.090666, 46.274584], [6.089773, 46.2748], [6.089669, 46.274782], [6.089505, 46.274694], [6.087624, 46.27303], [6.087066, 46.272564], [6.086891, 46.272454], [6.086121, 46.272158], [6.08437, 46.271417], [6.082593, 46.27074], [6.081976, 46.270482], [6.081715, 46.270341], [6.080717, 46.269969], [6.080335, 46.269803], [6.078691, 46.269504], [6.078481, 46.269441], [6.075007, 46.267734], [6.074851, 46.267691], [6.074718, 46.267694], [6.074449, 46.267622], [6.074177, 46.26762], [6.073994, 46.267587], [6.073719, 46.267488], [6.073473, 46.267349], [6.073241, 46.267192], [6.072793, 46.266757], [6.07252, 46.266537], [6.072294, 46.266297], [6.071945, 46.266013], [6.071643, 46.26582], [6.071113, 46.265616], [6.070871, 46.265488], [6.070388, 46.265185], [6.070075, 46.264891], [6.070043, 46.264683], [6.070275, 46.264447], [6.070331, 46.264304], [6.070913, 46.263641], [6.070959, 46.263493], [6.07091, 46.263418], [6.070714, 46.263329], [6.069523, 46.262977], [6.068924, 46.262754], [6.068333, 46.262586], [6.066237, 46.26191], [6.065787, 46.261731], [6.065607, 46.261604], [6.065488, 46.261463], [6.064265, 46.259746], [6.063197, 46.25853], [6.062625, 46.2578], [6.062513, 46.257784], [6.062486, 46.257737], [6.062527, 46.257642], [6.062469, 46.257568], [6.060864, 46.256452], [6.060747, 46.256445], [6.060677, 46.256407], [6.060554, 46.256443], [6.060556, 46.256467], [6.060608, 46.256465], [6.060637, 46.256435], [6.060616, 46.256355], [6.060561, 46.256314], [6.060115, 46.256591], [6.059967, 46.25665], [6.059906, 46.256717], [6.059605, 46.256887], [6.059556, 46.256958], [6.059469, 46.256942], [6.059289, 46.256787], [6.057775, 46.255729], [6.05775, 46.255673], [6.057814, 46.255569], [6.058034, 46.255492], [6.0583, 46.255282], [6.058475, 46.255192], [6.058548, 46.255116], [6.058721, 46.255054], [6.058873, 46.25504], [6.05902, 46.254992], [6.059487, 46.254679], [6.059583, 46.25446], [6.059498, 46.254275], [6.059585, 46.254058], [6.059724, 46.253932], [6.059832, 46.253779], [6.061418, 46.252501], [6.061495, 46.252328], [6.061509, 46.25221], [6.061415, 46.251971], [6.061192, 46.251771], [6.060016, 46.251144], [6.057549, 46.249737], [6.056503, 46.249095], [6.053492, 46.247038], [6.052804, 46.246532], [6.051743, 46.24563], [6.050729, 46.244646], [6.049775, 46.24354], [6.047321, 46.240222], [6.046004, 46.238572], [6.045389, 46.237901], [6.044986, 46.237412], [6.044551, 46.237029], [6.044292, 46.236989], [6.044054, 46.236835], [6.044044, 46.236661], [6.035044, 46.239165], [6.034601, 46.239218], [6.034348, 46.239198], [6.03404, 46.239088], [6.033774, 46.238894], [6.033777, 46.238855], [6.033961, 46.238661], [6.034035, 46.238594], [6.034115, 46.238568], [6.03416, 46.238452], [6.034263, 46.238338], [6.034517, 46.238286], [6.034597, 46.238197], [6.034701, 46.238141], [6.034836, 46.238131], [6.035038, 46.238062], [6.035074, 46.238029], [6.035063, 46.237853], [6.035205, 46.237688], [6.03598, 46.237252], [6.038892, 46.235321], [6.042241, 46.233393], [6.043976, 46.232552], [6.04439, 46.232383], [6.044521, 46.232294], [6.044706, 46.232231], [6.045043, 46.232064], [6.045118, 46.232051], [6.045187, 46.232082], [6.045208, 46.23214], [6.045155, 46.232268], [6.045249, 46.232318], [6.045356, 46.232321], [6.045393, 46.232345], [6.045452, 46.232442], [6.045428, 46.23245], [6.045422, 46.232433], [6.045457, 46.232433], [6.045436, 46.232471]]}, "properties": {"name": "1789451039.Tuesday_Morning_Cycle", "cmt": "2026-09-15", "tstamp": 1789430400, "desc": "---", "src": "6.033774/46.232051/6.194708/46.331728", "bbox": "6.033774/46.232051/6.194708/46.331728"}}]}