{"type": "FeatureCollection", "name": "TrackSet", "crs": {"type": "name", "properties": {"name": "urn:ogc:def:crs:OGC:1.3:CRS84"}}, "bbox": [6.045302, 46.22897, 6.194734, 46.331796], "features": [{"type": "Feature", "bbox": [6.045302, 46.22897, 6.194734, 46.331796], "geometry": {"type": "LineString", "coordinates": [[6.194421, 46.331669], [6.194172, 46.331674], [6.194158, 46.331717], [6.194329, 46.331796], [6.194504, 46.331753], [6.194671, 46.331678], [6.194734, 46.331616], [6.194731, 46.331567], [6.194514, 46.331122], [6.194485, 46.330958], [6.193975, 46.330113], [6.193833, 46.330091], [6.193175, 46.330182], [6.193022, 46.330368], [6.19281, 46.330497], [6.192243, 46.330737], [6.192041, 46.330789], [6.191927, 46.33077], [6.191854, 46.330688], [6.191813, 46.330486], [6.191688, 46.330153], [6.191514, 46.329937], [6.191211, 46.329655], [6.191094, 46.32958], [6.19061, 46.329074], [6.189901, 46.328502], [6.189544, 46.328265], [6.188957, 46.327963], [6.188709, 46.327786], [6.186993, 46.326214], [6.186791, 46.325964], [6.186474, 46.325468], [6.186251, 46.325208], [6.18425, 46.323299], [6.183878, 46.323073], [6.183496, 46.32296], [6.183107, 46.322906], [6.18198, 46.322846], [6.181626, 46.32276], [6.181421, 46.322595], [6.181267, 46.322385], [6.181051, 46.321906], [6.180641, 46.32118], [6.180523, 46.321046], [6.18026, 46.320872], [6.180032, 46.32076], [6.179837, 46.320562], [6.17968, 46.320531], [6.178956, 46.320507], [6.178817, 46.320459], [6.178706, 46.320367], [6.178326, 46.319888], [6.178005, 46.319589], [6.177903, 46.319395], [6.177803, 46.31901], [6.177734, 46.31887], [6.176257, 46.317412], [6.175237, 46.316153], [6.1748, 46.315642], [6.174691, 46.315574], [6.174591, 46.315449], [6.173849, 46.311791], [6.17356, 46.310215], [6.173467, 46.309919], [6.173439, 46.309604], [6.173367, 46.309357], [6.173191, 46.309004], [6.172795, 46.308569], [6.172521, 46.308203], [6.172364, 46.307822], [6.172399, 46.306505], [6.172502, 46.306097], [6.172476, 46.305994], [6.17232, 46.30587], [6.17175, 46.305615], [6.171315, 46.305358], [6.170317, 46.304592], [6.17017, 46.304427], [6.169659, 46.303472], [6.169604, 46.303414], [6.169506, 46.303372], [6.169208, 46.303328], [6.168809, 46.303155], [6.166086, 46.301316], [6.165707, 46.300975], [6.164619, 46.299704], [6.164273, 46.29937], [6.162641, 46.298209], [6.16229, 46.298012], [6.161979, 46.297884], [6.160264, 46.297302], [6.15973, 46.297079], [6.15866, 46.29678], [6.158225, 46.296618], [6.157743, 46.296361], [6.157419, 46.296145], [6.156643, 46.295515], [6.156029, 46.294876], [6.155726, 46.294481], [6.155165, 46.293955], [6.154975, 46.29382], [6.15482, 46.293592], [6.153934, 46.292699], [6.153653, 46.292368], [6.153654, 46.292247], [6.153484, 46.292093], [6.153471, 46.291837], [6.15309, 46.290816], [6.15194, 46.288515], [6.151565, 46.287933], [6.151334, 46.28771], [6.151098, 46.287582], [6.150958, 46.287325], [6.14798, 46.284491], [6.147499, 46.283948], [6.147175, 46.283723], [6.145937, 46.282601], [6.145605, 46.282457], [6.144459, 46.282121], [6.142177, 46.281773], [6.141248, 46.281685], [6.140997, 46.281684], [6.140515, 46.281725], [6.139447, 46.281692], [6.139133, 46.28158], [6.138502, 46.281257], [6.136401, 46.280514], [6.135438, 46.280016], [6.135215, 46.279863], [6.135076, 46.279708], [6.134635, 46.279029], [6.134116, 46.278307], [6.133716, 46.277884], [6.132271, 46.276515], [6.132087, 46.276302], [6.131886, 46.275953], [6.13175, 46.275598], [6.131725, 46.275353], [6.13178, 46.274927], [6.131699, 46.27465], [6.131595, 46.274502], [6.131344, 46.274249], [6.130557, 46.273574], [6.129555, 46.273125], [6.128397, 46.27245], [6.128132, 46.272341], [6.127208, 46.272086], [6.126566, 46.271989], [6.125958, 46.271858], [6.125617, 46.271846], [6.125419, 46.271645], [6.125197, 46.271512], [6.124742, 46.271102], [6.124503, 46.270937], [6.123699, 46.270674], [6.123244, 46.270497], [6.122353, 46.270034], [6.122147, 46.26988], [6.12167, 46.269314], [6.121609, 46.269273], [6.121085, 46.269096], [6.119307, 46.268149], [6.119118, 46.268078], [6.118369, 46.267895], [6.118005, 46.267742], [6.11767, 46.267485], [6.116945, 46.266817], [6.116307, 46.266354], [6.116242, 46.266292], [6.11622, 46.266225], [6.116159, 46.266183], [6.115696, 46.265981], [6.115376, 46.265792], [6.115124, 46.265716], [6.114793, 46.265563], [6.114759, 46.265511], [6.11479, 46.265428], [6.115179, 46.265187], [6.115315, 46.26506], [6.115185, 46.264855], [6.114915, 46.264616], [6.113482, 46.263774], [6.112506, 46.263113], [6.110463, 46.261531], [6.109547, 46.260777], [6.109234, 46.260557], [6.109111, 46.260415], [6.108428, 46.260421], [6.108198, 46.260402], [6.107898, 46.260364], [6.107414, 46.260254], [6.10626, 46.259803], [6.105844, 46.259723], [6.105228, 46.259519], [6.103346, 46.258351], [6.103187, 46.258311], [6.102574, 46.258306], [6.102461, 46.258272], [6.101678, 46.257706], [6.101242, 46.257445], [6.100635, 46.257001], [6.100584, 46.256959], [6.10057, 46.256901], [6.100663, 46.256757], [6.100794, 46.256682], [6.101465, 46.256165], [6.101982, 46.25562], [6.101962, 46.255529], [6.101905, 46.255497], [6.100963, 46.255264], [6.100396, 46.255091], [6.100236, 46.255061], [6.099846, 46.255046], [6.099616, 46.254786], [6.097334, 46.253526], [6.097085, 46.253238], [6.09702, 46.253085], [6.097017, 46.252775], [6.097073, 46.252624], [6.097213, 46.25243], [6.097168, 46.252357], [6.096743, 46.252234], [6.096444, 46.252084], [6.096009, 46.251952], [6.095846, 46.251965], [6.095652, 46.252054], [6.095502, 46.252085], [6.095094, 46.252082], [6.094003, 46.252156], [6.093747, 46.252139], [6.093472, 46.252058], [6.093399, 46.252011], [6.093326, 46.251898], [6.093247, 46.251635], [6.093108, 46.251438], [6.09296, 46.251342], [6.092458, 46.250813], [6.092187, 46.250614], [6.091979, 46.250502], [6.09093, 46.250037], [6.090781, 46.249987], [6.090624, 46.249966], [6.090559, 46.249932], [6.090396, 46.249748], [6.08931, 46.249372], [6.087783, 46.24891], [6.086845, 46.248683], [6.086404, 46.248642], [6.086167, 46.248529], [6.085895, 46.248472], [6.085541, 46.24836], [6.084925, 46.248118], [6.084598, 46.247939], [6.084401, 46.247772], [6.084204, 46.247523], [6.084181, 46.247264], [6.084153, 46.247242], [6.084039, 46.247186], [6.083812, 46.247127], [6.082628, 46.246712], [6.082309, 46.246514], [6.081766, 46.246255], [6.081711, 46.246187], [6.081705, 46.246121], [6.08179, 46.246001], [6.081797, 46.245907], [6.081877, 46.245804], [6.081785, 46.245693], [6.081374, 46.2456], [6.080499, 46.245523], [6.080051, 46.245453], [6.07952, 46.245288], [6.079342, 46.245168], [6.079179, 46.245096], [6.078766, 46.244819], [6.0785, 46.244566], [6.07815, 46.244302], [6.077785, 46.24413], [6.076541, 46.243343], [6.07595, 46.242963], [6.075137, 46.242383], [6.075059, 46.242353], [6.074886, 46.242379], [6.074501, 46.242694], [6.074356, 46.242722], [6.074269, 46.242697], [6.073804, 46.242292], [6.073035, 46.241327], [6.073008, 46.241266], [6.073039, 46.241079], [6.071, 46.239662], [6.070883, 46.239628], [6.070814, 46.23964], [6.070624, 46.239849], [6.069996, 46.240249], [6.069901, 46.240259], [6.069723, 46.240198], [6.068833, 46.239408], [6.068628, 46.239144], [6.068307, 46.238955], [6.067298, 46.237746], [6.066339, 46.23639], [6.064744, 46.235268], [6.064338, 46.234833], [6.063587, 46.234332], [6.063013, 46.233877], [6.062868, 46.233846], [6.062796, 46.233865], [6.062463, 46.234045], [6.06197, 46.234258], [6.060548, 46.234668], [6.060398, 46.234682], [6.060279, 46.234599], [6.059449, 46.233083], [6.059395, 46.233027], [6.059298, 46.233001], [6.059097, 46.233022], [6.058821, 46.233158], [6.05834, 46.233272], [6.058193, 46.233287], [6.058051, 46.233263], [6.057748, 46.23315], [6.057674, 46.23302], [6.057453, 46.232905], [6.057434, 46.232858], [6.05748, 46.232693], [6.057424, 46.232651], [6.057295, 46.232615], [6.057153, 46.23251], [6.056939, 46.232289], [6.05661, 46.232032], [6.056451, 46.231874], [6.05626, 46.231487], [6.055686, 46.230502], [6.055625, 46.230447], [6.055272, 46.230327], [6.05516, 46.230313], [6.054929, 46.230322], [6.052561, 46.230146], [6.052101, 46.229803], [6.051688, 46.229132], [6.051603, 46.229065], [6.051349, 46.228996], [6.05089, 46.22897], [6.050682, 46.229005], [6.046365, 46.230831], [6.046278, 46.230916], [6.046189, 46.231097], [6.046076, 46.231421], [6.046153, 46.231566], [6.046342, 46.231777], [6.046338, 46.231823], [6.046303, 46.231867], [6.046177, 46.231928], [6.045313, 46.232269], [6.045302, 46.232298], [6.045393, 46.232333], [6.045453, 46.232405], [6.045453, 46.232437], [6.045377, 46.232462], [6.045392, 46.232479], [6.045442, 46.23246], [6.045419, 46.232523]]}, "properties": {"name": "1789969250.Monday_Morning_Cycle", "cmt": "2026-09-21", "tstamp": 1789948800, "desc": "---", "src": "6.045302/46.22897/6.194734/46.331796", "bbox": "6.045302/46.22897/6.194734/46.331796"}}]}