{"type": "FeatureCollection", "name": "TrackSet", "crs": {"type": "name", "properties": {"name": "urn:ogc:def:crs:OGC:1.3:CRS84"}}, "bbox": [6.045151, 46.228991, 6.20334, 46.334733], "features": [{"type": "Feature", "bbox": [6.045151, 46.228991, 6.20334, 46.334733], "geometry": {"type": "LineString", "coordinates": [[6.04547, 46.232421], [6.045461, 46.232447], [6.045505, 46.232417], [6.045484, 46.232372], [6.045309, 46.232302], [6.045223, 46.232225], [6.045151, 46.232099], [6.045153, 46.231983], [6.045418, 46.231873], [6.045863, 46.231636], [6.04591, 46.231579], [6.045916, 46.231505], [6.046057, 46.231318], [6.046216, 46.230947], [6.046376, 46.230817], [6.050391, 46.229128], [6.050615, 46.229046], [6.050859, 46.228991], [6.05112, 46.228997], [6.0515, 46.229034], [6.051719, 46.229107], [6.051792, 46.229177], [6.051949, 46.229545], [6.052092, 46.229784], [6.052229, 46.229923], [6.052522, 46.230096], [6.052951, 46.230155], [6.054928, 46.230297], [6.055247, 46.23029], [6.055441, 46.230211], [6.055516, 46.23021], [6.055649, 46.230271], [6.055684, 46.230326], [6.055681, 46.230498], [6.055937, 46.230926], [6.055974, 46.230975], [6.055979, 46.230939], [6.055955, 46.230966], [6.055983, 46.230969], [6.055991, 46.231042], [6.056329, 46.231642], [6.056595, 46.231992], [6.057101, 46.232337], [6.057451, 46.232656], [6.057567, 46.232717], [6.057771, 46.232752], [6.057879, 46.232823], [6.057884, 46.232938], [6.05772, 46.233063], [6.057708, 46.233154], [6.057781, 46.233196], [6.058172, 46.233276], [6.05875, 46.233144], [6.059207, 46.233011], [6.059313, 46.233009], [6.059407, 46.233054], [6.059477, 46.233111], [6.059562, 46.233319], [6.060303, 46.234614], [6.060344, 46.234669], [6.060422, 46.234705], [6.060519, 46.234699], [6.060861, 46.234568], [6.062025, 46.234239], [6.062647, 46.233946], [6.062809, 46.233816], [6.062861, 46.233806], [6.062922, 46.233827], [6.063614, 46.234367], [6.064342, 46.234889], [6.064752, 46.235298], [6.06489, 46.235362], [6.065241, 46.235646], [6.065588, 46.235862], [6.066306, 46.236375], [6.067179, 46.23759], [6.068336, 46.238948], [6.06863, 46.239131], [6.068819, 46.239378], [6.06978, 46.240192], [6.069931, 46.240238], [6.070028, 46.24022], [6.070846, 46.239643], [6.070916, 46.23963], [6.071066, 46.239659], [6.071212, 46.239811], [6.072978, 46.241054], [6.073036, 46.241133], [6.073014, 46.241268], [6.073109, 46.241443], [6.073225, 46.241556], [6.073682, 46.242172], [6.074228, 46.242679], [6.074303, 46.242712], [6.074476, 46.242694], [6.074889, 46.242369], [6.074961, 46.24235], [6.075124, 46.242391], [6.075944, 46.242975], [6.077429, 46.243963], [6.077813, 46.244211], [6.078208, 46.244419], [6.078509, 46.244634], [6.078747, 46.244881], [6.079521, 46.245355], [6.080537, 46.245556], [6.081251, 46.245632], [6.081723, 46.245728], [6.081766, 46.245761], [6.081776, 46.245857], [6.081725, 46.245927], [6.081663, 46.246127], [6.081769, 46.246294], [6.082466, 46.246595], [6.083521, 46.246958], [6.084248, 46.247246], [6.084299, 46.24729], [6.084315, 46.247353], [6.084231, 46.24753], [6.084279, 46.247647], [6.084515, 46.247896], [6.084994, 46.248151], [6.085749, 46.248426], [6.086139, 46.24852], [6.086549, 46.248545], [6.086785, 46.24866], [6.088128, 46.249002], [6.088984, 46.249272], [6.090185, 46.2497], [6.090346, 46.24977], [6.090568, 46.249983], [6.090971, 46.250076], [6.091342, 46.250218], [6.09192, 46.250488], [6.092377, 46.250773], [6.092617, 46.250988], [6.092971, 46.251374], [6.093151, 46.251509], [6.093388, 46.251958], [6.093616, 46.252114], [6.093827, 46.252155], [6.09486, 46.252089], [6.09546, 46.252081], [6.095644, 46.252054], [6.095872, 46.251944], [6.09603, 46.251934], [6.096238, 46.252032], [6.096381, 46.252064], [6.096684, 46.252204], [6.097181, 46.25238], [6.097206, 46.252486], [6.097076, 46.252729], [6.097045, 46.25293], [6.097208, 46.253292], [6.097329, 46.253428], [6.097543, 46.25359], [6.099447, 46.254676], [6.099811, 46.254839], [6.10002, 46.254992], [6.100139, 46.255024], [6.100422, 46.255047], [6.100884, 46.255163], [6.10189, 46.255468], [6.101954, 46.255515], [6.101991, 46.255587], [6.101915, 46.255704], [6.101244, 46.256252], [6.100726, 46.256612], [6.100525, 46.256866], [6.100542, 46.256927], [6.100852, 46.257169], [6.101281, 46.257467], [6.10163, 46.257661], [6.102425, 46.25823], [6.102531, 46.25828], [6.103199, 46.258263], [6.103383, 46.258319], [6.105241, 46.259487], [6.105787, 46.259648], [6.106144, 46.259674], [6.106686, 46.259891], [6.107609, 46.260215], [6.108207, 46.260329], [6.108584, 46.260333], [6.10896, 46.260302], [6.10908, 46.260307], [6.109184, 46.260353], [6.109433, 46.260654], [6.109701, 46.260832], [6.111831, 46.26256], [6.112624, 46.263168], [6.114373, 46.264303], [6.114529, 46.264353], [6.114724, 46.26433], [6.114875, 46.264372], [6.114894, 46.264582], [6.11525, 46.264928], [6.115301, 46.265033], [6.115276, 46.265094], [6.114704, 46.265488], [6.114676, 46.265526], [6.114701, 46.265572], [6.114992, 46.265702], [6.115167, 46.265811], [6.116146, 46.266212], [6.116273, 46.266377], [6.116805, 46.266718], [6.117774, 46.267577], [6.117994, 46.267734], [6.118257, 46.267855], [6.119259, 46.268139], [6.12022, 46.268631], [6.120874, 46.268999], [6.121367, 46.269217], [6.12159, 46.269289], [6.121788, 46.269433], [6.122089, 46.269818], [6.122518, 46.270117], [6.12317, 46.270469], [6.123911, 46.270752], [6.124591, 46.270967], [6.125066, 46.271405], [6.125487, 46.271672], [6.125697, 46.271725], [6.12598, 46.27186], [6.126661, 46.272002], [6.127435, 46.272126], [6.128299, 46.272396], [6.128513, 46.272509], [6.129025, 46.272846], [6.129636, 46.273154], [6.130543, 46.273547], [6.130957, 46.273862], [6.131549, 46.274391], [6.131762, 46.274661], [6.131844, 46.274896], [6.131832, 46.275142], [6.131777, 46.27539], [6.131793, 46.275557], [6.131978, 46.276026], [6.132205, 46.276382], [6.133762, 46.277878], [6.133865, 46.277967], [6.13407, 46.27806], [6.134151, 46.278242], [6.135073, 46.279619], [6.135216, 46.279795], [6.135416, 46.279955], [6.13636, 46.280437], [6.138291, 46.281121], [6.139409, 46.281647], [6.139721, 46.28169], [6.14142, 46.281666], [6.142257, 46.281755], [6.143329, 46.281931], [6.144384, 46.28205], [6.1445, 46.282108], [6.145577, 46.282416], [6.146056, 46.282641], [6.147184, 46.283681], [6.147541, 46.283928], [6.147619, 46.283958], [6.147806, 46.283972], [6.147877, 46.284011], [6.147909, 46.284077], [6.147898, 46.284151], [6.14782, 46.284269], [6.147841, 46.284333], [6.150946, 46.287254], [6.151075, 46.287358], [6.151315, 46.287484], [6.151441, 46.287748], [6.151706, 46.288051], [6.152089, 46.288723], [6.153122, 46.29078], [6.153501, 46.291854], [6.153574, 46.291973], [6.153691, 46.292074], [6.153755, 46.292336], [6.153825, 46.292455], [6.154055, 46.292725], [6.157096, 46.295832], [6.157534, 46.296203], [6.15797, 46.296466], [6.158349, 46.296643], [6.159727, 46.297072], [6.160249, 46.297285], [6.161769, 46.297795], [6.162403, 46.298062], [6.162719, 46.298258], [6.163586, 46.298889], [6.164105, 46.29922], [6.164445, 46.299506], [6.164788, 46.299863], [6.165664, 46.300895], [6.16603, 46.301247], [6.167116, 46.301962], [6.168756, 46.303114], [6.169094, 46.303262], [6.169618, 46.303405], [6.170162, 46.304401], [6.170454, 46.304708], [6.170827, 46.305009], [6.171517, 46.305483], [6.172483, 46.305939], [6.172527, 46.305985], [6.172589, 46.306209], [6.172603, 46.306495], [6.172632, 46.306565], [6.172735, 46.306659], [6.172953, 46.306802], [6.173079, 46.306827], [6.173629, 46.306773], [6.174185, 46.306817], [6.174625, 46.306752], [6.174705, 46.306757], [6.174756, 46.306794], [6.174806, 46.307138], [6.174947, 46.307392], [6.175224, 46.307632], [6.175459, 46.307941], [6.176321, 46.308838], [6.176462, 46.308895], [6.177075, 46.308966], [6.17766, 46.30907], [6.177873, 46.309086], [6.177979, 46.309067], [6.178636, 46.308865], [6.178975, 46.308725], [6.179626, 46.308388], [6.180508, 46.307832], [6.180743, 46.307724], [6.180886, 46.30772], [6.181028, 46.307769], [6.181136, 46.307839], [6.182162, 46.308729], [6.182277, 46.308778], [6.182422, 46.308781], [6.18283, 46.30866], [6.183288, 46.30842], [6.183411, 46.308276], [6.183475, 46.308244], [6.183562, 46.30825], [6.183634, 46.308292], [6.183684, 46.308362], [6.183724, 46.308504], [6.183945, 46.308654], [6.187286, 46.312268], [6.187965, 46.312977], [6.188235, 46.313203], [6.190265, 46.314397], [6.191923, 46.315326], [6.192005, 46.315329], [6.192184, 46.315172], [6.192423, 46.315026], [6.192315, 46.315074], [6.192289, 46.315111], [6.192501, 46.315234], [6.192559, 46.315328], [6.192529, 46.315378], [6.192314, 46.315506], [6.192325, 46.315559], [6.192639, 46.315746], [6.193095, 46.316138], [6.193312, 46.316367], [6.19361, 46.316778], [6.194153, 46.317305], [6.194277, 46.31747], [6.194921, 46.318572], [6.197796, 46.323735], [6.198523, 46.325339], [6.198858, 46.326174], [6.199683, 46.327618], [6.199946, 46.327968], [6.20017, 46.328106], [6.200968, 46.329067], [6.201345, 46.329608], [6.201595, 46.330029], [6.202027, 46.33089], [6.202267, 46.331543], [6.202371, 46.331978], [6.20246, 46.332779], [6.20246, 46.33382], [6.202469, 46.333865], [6.202574, 46.333976], [6.202506, 46.334033], [6.20257, 46.334071], [6.202545, 46.334165], [6.202574, 46.334399], [6.202532, 46.334441], [6.202583, 46.334408], [6.203145, 46.334373], [6.203229, 46.334413], [6.203288, 46.334546], [6.203283, 46.334529], [6.203251, 46.334543], [6.203286, 46.334536], [6.203193, 46.334373], [6.202572, 46.334412], [6.202533, 46.334439], [6.202618, 46.334413], [6.202904, 46.334413], [6.203054, 46.33439], [6.203195, 46.334402], [6.203234, 46.334426], [6.203296, 46.334538], [6.203258, 46.334545], [6.20328, 46.334548], [6.203262, 46.334516], [6.203257, 46.334533], [6.203296, 46.334533], [6.203279, 46.334518], [6.20329, 46.334538], [6.203256, 46.334534], [6.203259, 46.334599], [6.203219, 46.334576], [6.203232, 46.334668], [6.2032, 46.334733], [6.202927, 46.334662], [6.202729, 46.334663], [6.20334, 46.334594], [6.203325, 46.33457], [6.203319, 46.334603], [6.203301, 46.334519], [6.203277, 46.334518], [6.203305, 46.334534], [6.203289, 46.334552], [6.203297, 46.334523], [6.203287, 46.334552], [6.203257, 46.334535], [6.203266, 46.334515], [6.203266, 46.334539], [6.203283, 46.334517], [6.203299, 46.334534], [6.203305, 46.334507], [6.203205, 46.334361], [6.203114, 46.334348], [6.202706, 46.334386], [6.202609, 46.334337], [6.202601, 46.334049], [6.202581, 46.334019], [6.202532, 46.334018], [6.202599, 46.333988], [6.202595, 46.333916], [6.20257, 46.333878], [6.202491, 46.333865], [6.202513, 46.333839], [6.20238, 46.333801], [6.202336, 46.333702], [6.202349, 46.332718], [6.202275, 46.332019], [6.202152, 46.331493], [6.201886, 46.330854], [6.201412, 46.329872], [6.201078, 46.329373], [6.200697, 46.328878], [6.200089, 46.328183], [6.199923, 46.328033], [6.199807, 46.327977], [6.199487, 46.327926], [6.199362, 46.327929], [6.198681, 46.328166], [6.198539, 46.328239], [6.197299, 46.328699], [6.195912, 46.32914], [6.195347, 46.329277], [6.193536, 46.329615], [6.193365, 46.329663], [6.193273, 46.329716], [6.19319, 46.329868], [6.19317, 46.330095], [6.193192, 46.330131], [6.19324, 46.330154], [6.193316, 46.330152], [6.193851, 46.330072], [6.193985, 46.330097], [6.194071, 46.330186], [6.19443, 46.330888], [6.194743, 46.331612], [6.194728, 46.33166], [6.194667, 46.331699], [6.194504, 46.331761], [6.194314, 46.331809], [6.194267, 46.331775], [6.194293, 46.331696], [6.19431, 46.331706], [6.194264, 46.331723], [6.194321, 46.331795], [6.194288, 46.331763]]}, "properties": {"name": "1789744182.Friday_Evening_Cycle", "cmt": "2026-09-18", "tstamp": 1789689600, "desc": "---", "src": "6.045151/46.228991/6.20334/46.334733", "bbox": "6.045151/46.228991/6.20334/46.334733"}}]}