{"type": "FeatureCollection", "name": "TrackSet", "crs": {"type": "name", "properties": {"name": "urn:ogc:def:crs:OGC:1.3:CRS84"}}, "bbox": [6.045278, 46.228977, 6.194729, 46.331804], "features": [{"type": "Feature", "bbox": [6.045278, 46.228977, 6.194729, 46.331804], "geometry": {"type": "LineString", "coordinates": [[6.194306, 46.331674], [6.194251, 46.331667], [6.194306, 46.331674], [6.194222, 46.331792], [6.194249, 46.331746], [6.194223, 46.331778], [6.194259, 46.331769], [6.194369, 46.331804], [6.194605, 46.331728], [6.194711, 46.331645], [6.194729, 46.331596], [6.194472, 46.330981], [6.194336, 46.330784], [6.19411, 46.330322], [6.193945, 46.330121], [6.193795, 46.330107], [6.193172, 46.33018], [6.193, 46.33037], [6.192814, 46.330492], [6.192124, 46.330773], [6.192019, 46.330789], [6.191901, 46.330769], [6.191839, 46.33069], [6.191807, 46.330267], [6.191665, 46.330065], [6.191261, 46.329685], [6.191079, 46.329569], [6.190534, 46.329014], [6.190034, 46.328602], [6.189637, 46.328328], [6.189107, 46.328065], [6.188813, 46.327882], [6.187935, 46.327106], [6.186951, 46.326197], [6.186466, 46.325488], [6.18619, 46.325172], [6.184232, 46.323293], [6.183849, 46.32307], [6.183457, 46.322962], [6.182917, 46.322904], [6.181992, 46.322854], [6.181741, 46.322808], [6.181577, 46.322736], [6.18143, 46.322597], [6.181252, 46.322345], [6.181044, 46.321913], [6.180543, 46.321059], [6.179952, 46.320723], [6.17978, 46.320544], [6.179626, 46.320551], [6.179601, 46.320518], [6.179553, 46.320512], [6.178942, 46.320494], [6.178818, 46.320446], [6.178714, 46.32036], [6.178353, 46.319916], [6.177914, 46.319465], [6.177834, 46.319271], [6.177772, 46.31899], [6.177698, 46.318842], [6.177457, 46.318652], [6.17677, 46.317921], [6.176433, 46.31761], [6.175328, 46.316262], [6.174789, 46.315648], [6.174559, 46.315518], [6.174569, 46.315336], [6.174534, 46.315148], [6.17353, 46.310188], [6.173436, 46.309876], [6.173414, 46.309545], [6.173202, 46.309021], [6.172659, 46.308408], [6.172427, 46.308043], [6.172362, 46.307849], [6.172389, 46.306482], [6.172506, 46.306074], [6.172459, 46.305969], [6.172343, 46.305886], [6.171773, 46.30564], [6.171487, 46.305483], [6.170852, 46.305048], [6.170395, 46.30468], [6.170178, 46.304466], [6.169634, 46.303462], [6.169563, 46.303399], [6.169461, 46.303359], [6.169137, 46.303314], [6.168799, 46.30315], [6.166741, 46.301738], [6.166552, 46.301603], [6.166394, 46.301445], [6.166199, 46.301386], [6.165988, 46.30122], [6.165599, 46.300848], [6.164735, 46.299835], [6.164322, 46.29942], [6.16396, 46.299135], [6.163574, 46.298891], [6.162598, 46.298196], [6.162181, 46.29798], [6.16119, 46.297614], [6.160434, 46.29737], [6.159835, 46.297103], [6.15881, 46.296821], [6.158335, 46.296659], [6.157746, 46.296363], [6.157498, 46.296203], [6.156617, 46.295494], [6.155999, 46.294869], [6.15583, 46.29465], [6.155332, 46.294127], [6.154942, 46.293808], [6.154807, 46.293589], [6.154449, 46.293235], [6.153695, 46.292309], [6.153471, 46.292095], [6.153474, 46.29188], [6.153092, 46.290817], [6.151877, 46.288419], [6.151606, 46.287994], [6.151347, 46.287726], [6.151068, 46.287562], [6.150991, 46.287375], [6.150895, 46.287262], [6.147887, 46.284414], [6.147529, 46.283995], [6.147157, 46.283725], [6.145922, 46.282606], [6.145649, 46.282479], [6.144468, 46.28213], [6.142261, 46.28179], [6.141338, 46.28169], [6.140985, 46.281689], [6.140527, 46.281723], [6.139485, 46.281693], [6.139171, 46.281581], [6.138539, 46.281256], [6.136449, 46.280525], [6.13622, 46.280427], [6.135473, 46.280029], [6.135256, 46.279877], [6.13511, 46.279727], [6.134404, 46.278661], [6.134134, 46.278311], [6.133762, 46.277908], [6.132439, 46.276688], [6.132105, 46.276327], [6.131894, 46.275979], [6.131757, 46.275622], [6.13172, 46.275385], [6.131785, 46.274917], [6.131704, 46.274651], [6.131606, 46.27451], [6.13135, 46.274255], [6.130937, 46.273887], [6.130497, 46.273546], [6.129518, 46.27311], [6.128398, 46.272451], [6.128204, 46.27237], [6.127772, 46.272233], [6.127182, 46.272086], [6.126846, 46.272043], [6.125982, 46.271875], [6.125649, 46.271873], [6.125585, 46.271852], [6.125409, 46.271639], [6.125194, 46.271515], [6.124742, 46.271113], [6.12451, 46.270945], [6.123343, 46.270537], [6.122377, 46.270053], [6.122139, 46.269862], [6.121661, 46.269314], [6.121034, 46.269069], [6.119333, 46.268159], [6.119135, 46.268078], [6.118457, 46.267912], [6.118054, 46.267762], [6.11785, 46.267631], [6.116864, 46.26675], [6.116301, 46.266337], [6.116258, 46.266291], [6.116283, 46.266272], [6.11622, 46.26621], [6.115633, 46.26592], [6.115522, 46.265837], [6.115011, 46.265656], [6.114773, 46.265518], [6.114762, 46.265417], [6.115282, 46.26507], [6.115274, 46.264968], [6.11513, 46.264798], [6.114785, 46.26453], [6.113864, 46.264017], [6.112585, 46.263183], [6.111106, 46.262035], [6.10961, 46.26083], [6.109234, 46.260576], [6.109218, 46.260521], [6.109115, 46.260434], [6.109052, 46.26041], [6.108423, 46.260426], [6.108042, 46.260395], [6.107669, 46.260335], [6.107264, 46.260226], [6.106647, 46.260024], [6.106478, 46.259892], [6.106313, 46.259817], [6.105845, 46.259726], [6.105271, 46.259537], [6.103327, 46.258344], [6.103159, 46.258305], [6.102591, 46.258308], [6.102435, 46.258255], [6.102228, 46.258075], [6.101131, 46.257373], [6.100632, 46.257009], [6.100542, 46.256913], [6.100574, 46.256805], [6.101442, 46.256187], [6.101905, 46.255748], [6.101995, 46.255633], [6.101978, 46.255545], [6.10186, 46.255494], [6.100899, 46.255252], [6.100347, 46.255083], [6.099826, 46.255037], [6.099661, 46.254847], [6.09952, 46.254752], [6.09736, 46.253556], [6.097235, 46.253457], [6.097095, 46.253285], [6.096994, 46.253033], [6.09701, 46.252741], [6.097177, 46.252497], [6.097199, 46.252409], [6.097165, 46.252377], [6.096037, 46.25193], [6.095957, 46.25193], [6.095674, 46.252051], [6.095518, 46.252084], [6.095025, 46.25209], [6.093886, 46.252166], [6.093648, 46.252123], [6.093414, 46.251978], [6.093124, 46.251454], [6.092981, 46.251358], [6.092586, 46.250926], [6.092269, 46.250676], [6.091945, 46.250492], [6.090955, 46.250041], [6.090577, 46.249946], [6.090452, 46.249796], [6.090384, 46.249755], [6.088887, 46.249238], [6.088126, 46.249008], [6.086925, 46.248704], [6.086685, 46.248664], [6.086421, 46.248654], [6.086192, 46.248549], [6.085631, 46.248399], [6.08513, 46.248214], [6.084643, 46.247973], [6.084439, 46.247823], [6.084193, 46.247526], [6.084159, 46.247392], [6.084174, 46.247268], [6.084126, 46.247219], [6.082182, 46.246574], [6.081964, 46.246476], [6.081701, 46.246157], [6.081711, 46.246096], [6.081871, 46.245842], [6.081873, 46.245801], [6.081749, 46.24569], [6.081619, 46.245642], [6.080568, 46.245517], [6.07969, 46.245346], [6.079463, 46.245267], [6.078729, 46.244806], [6.078525, 46.24461], [6.078125, 46.244312], [6.077454, 46.24393], [6.075078, 46.242355], [6.074912, 46.24235], [6.074837, 46.242384], [6.074497, 46.242691], [6.074435, 46.24272], [6.074289, 46.242709], [6.073962, 46.242433], [6.073665, 46.242128], [6.073479, 46.241863], [6.073278, 46.241644], [6.073023, 46.241285], [6.073043, 46.241087], [6.073008, 46.241031], [6.07268, 46.240848], [6.07096, 46.239644], [6.070898, 46.239629], [6.070823, 46.239643], [6.07061, 46.239855], [6.070008, 46.240241], [6.069829, 46.240246], [6.069746, 46.240209], [6.06882, 46.239399], [6.068567, 46.239088], [6.068316, 46.238962], [6.068107, 46.23867], [6.067346, 46.237808], [6.066309, 46.236387], [6.064751, 46.235286], [6.064355, 46.23485], [6.064022, 46.23461], [6.063829, 46.23451], [6.062957, 46.233842], [6.062866, 46.233832], [6.06277, 46.233856], [6.062517, 46.234021], [6.061955, 46.234271], [6.060523, 46.234673], [6.060359, 46.234678], [6.060258, 46.234577], [6.060212, 46.234451], [6.059408, 46.233059], [6.059332, 46.233015], [6.05923, 46.232997], [6.059126, 46.233012], [6.058832, 46.23315], [6.058194, 46.233302], [6.058052, 46.233281], [6.057793, 46.233178], [6.057677, 46.233034], [6.057483, 46.232973], [6.057432, 46.23287], [6.057482, 46.232722], [6.057455, 46.232676], [6.057158, 46.232525], [6.056451, 46.231888], [6.056314, 46.231577], [6.055606, 46.230447], [6.055408, 46.230368], [6.055196, 46.230323], [6.054964, 46.230329], [6.052567, 46.230163], [6.052484, 46.230134], [6.052201, 46.229923], [6.05207, 46.229792], [6.051688, 46.229154], [6.051502, 46.229033], [6.051374, 46.229008], [6.050816, 46.228977], [6.050619, 46.229029], [6.04636, 46.230833], [6.046249, 46.230959], [6.046061, 46.231402], [6.046095, 46.231502], [6.04634, 46.231799], [6.046339, 46.231843], [6.046224, 46.231919], [6.04592, 46.232016], [6.045278, 46.232286], [6.045305, 46.232318], [6.0454, 46.232323], [6.045444, 46.232416], [6.045398, 46.232433], [6.045441, 46.232431], [6.045438, 46.232453], [6.045466, 46.232432], [6.045458, 46.232505], [6.045494, 46.232522]]}, "properties": {"name": "1790228488.Thursday_Morning_Cycle", "cmt": "2026-09-24", "tstamp": 1790208000, "desc": "---", "src": "6.045278/46.228977/6.194729/46.331804", "bbox": "6.045278/46.228977/6.194729/46.331804"}}]}