{"type": "FeatureCollection", "name": "TrackSet", "crs": {"type": "name", "properties": {"name": "urn:ogc:def:crs:OGC:1.3:CRS84"}}, "bbox": [6.045133, 46.228979, 6.194763, 46.331801], "features": [{"type": "Feature", "bbox": [6.045133, 46.228979, 6.194763, 46.331801], "geometry": {"type": "LineString", "coordinates": [[6.045548, 46.232399], [6.045433, 46.232279], [6.045286, 46.232285], [6.045134, 46.232064], [6.045133, 46.232019], [6.045167, 46.231976], [6.045483, 46.23184], [6.045867, 46.231619], [6.046064, 46.23131], [6.046218, 46.230964], [6.046355, 46.230833], [6.048089, 46.230072], [6.050535, 46.229066], [6.050772, 46.228986], [6.051033, 46.228979], [6.051538, 46.229039], [6.051755, 46.229124], [6.05182, 46.229199], [6.051907, 46.229426], [6.052125, 46.229804], [6.052265, 46.22995], [6.05257, 46.230102], [6.053045, 46.230166], [6.054973, 46.230304], [6.055237, 46.230301], [6.055463, 46.230216], [6.055543, 46.230213], [6.055619, 46.230245], [6.055682, 46.230289], [6.055708, 46.23035], [6.055698, 46.23053], [6.056429, 46.231756], [6.056571, 46.231938], [6.056702, 46.232067], [6.057078, 46.232308], [6.057244, 46.232497], [6.057499, 46.23268], [6.057769, 46.232738], [6.057867, 46.232802], [6.057917, 46.232926], [6.057859, 46.233002], [6.057757, 46.233053], [6.057745, 46.233132], [6.057922, 46.233233], [6.058209, 46.233281], [6.058584, 46.233194], [6.059191, 46.233012], [6.05929, 46.233002], [6.059384, 46.233029], [6.059505, 46.233154], [6.059619, 46.233403], [6.059945, 46.233933], [6.060297, 46.234596], [6.06039, 46.234689], [6.060562, 46.234679], [6.060786, 46.234587], [6.062057, 46.234218], [6.062598, 46.233959], [6.062822, 46.2338], [6.063005, 46.233845], [6.063414, 46.234202], [6.064305, 46.234843], [6.064776, 46.2353], [6.066356, 46.236434], [6.067146, 46.237546], [6.068312, 46.238913], [6.068431, 46.239024], [6.068663, 46.23916], [6.068909, 46.239465], [6.069838, 46.240233], [6.070014, 46.240238], [6.070096, 46.240207], [6.070868, 46.239636], [6.07099, 46.239638], [6.073031, 46.241095], [6.073018, 46.241317], [6.073074, 46.241418], [6.073681, 46.242172], [6.073905, 46.242405], [6.074263, 46.242702], [6.074421, 46.242708], [6.074871, 46.242387], [6.074935, 46.24236], [6.075078, 46.242371], [6.077796, 46.244196], [6.078372, 46.244514], [6.078755, 46.244878], [6.079055, 46.245058], [6.079472, 46.245362], [6.08014, 46.245516], [6.081381, 46.245659], [6.081729, 46.245724], [6.081782, 46.245828], [6.081649, 46.246122], [6.081657, 46.246172], [6.081746, 46.246266], [6.082419, 46.246571], [6.08425, 46.24726], [6.084308, 46.247373], [6.084248, 46.247549], [6.084296, 46.247652], [6.084569, 46.247921], [6.085063, 46.248181], [6.085737, 46.248427], [6.086172, 46.248527], [6.086494, 46.248534], [6.086796, 46.248662], [6.088194, 46.249014], [6.089276, 46.249355], [6.090348, 46.249769], [6.090464, 46.249848], [6.09059, 46.250005], [6.09065, 46.250028], [6.090807, 46.250026], [6.090943, 46.250054], [6.091846, 46.250464], [6.09221, 46.250648], [6.09249, 46.250863], [6.093034, 46.251434], [6.093128, 46.251495], [6.093358, 46.251938], [6.093548, 46.252095], [6.093623, 46.252125], [6.093976, 46.25217], [6.094891, 46.252095], [6.095541, 46.252077], [6.095707, 46.252041], [6.095883, 46.25194], [6.096018, 46.251927], [6.096565, 46.252166], [6.09716, 46.252374], [6.097192, 46.252436], [6.097068, 46.252644], [6.097016, 46.252924], [6.097179, 46.253289], [6.09746, 46.253546], [6.099032, 46.254452], [6.099579, 46.254749], [6.099867, 46.254867], [6.100053, 46.255006], [6.100451, 46.255053], [6.101621, 46.255383], [6.102079, 46.25546], [6.102122, 46.255496], [6.101399, 46.25614], [6.101194, 46.256289], [6.10094, 46.256419], [6.100765, 46.256565], [6.100593, 46.256718], [6.100519, 46.256861], [6.100526, 46.256919], [6.101193, 46.257427], [6.101678, 46.257696], [6.102446, 46.258243], [6.102559, 46.258285], [6.103141, 46.258264], [6.103313, 46.258301], [6.103475, 46.258376], [6.104613, 46.259113], [6.105227, 46.259479], [6.105796, 46.259654], [6.105954, 46.259646], [6.106117, 46.259677], [6.107456, 46.260177], [6.108096, 46.26032], [6.108594, 46.260351], [6.10905, 46.260314], [6.109148, 46.260325], [6.10936, 46.260608], [6.109717, 46.260865], [6.111199, 46.262072], [6.112967, 46.263406], [6.114354, 46.264286], [6.114508, 46.264342], [6.114762, 46.264327], [6.114838, 46.264351], [6.11489, 46.2644], [6.114894, 46.264582], [6.115197, 46.264868], [6.115301, 46.265019], [6.115242, 46.265119], [6.114718, 46.265468], [6.114686, 46.26555], [6.114795, 46.265632], [6.115027, 46.265698], [6.115413, 46.265896], [6.116189, 46.266224], [6.116235, 46.266336], [6.116773, 46.266694], [6.117901, 46.267684], [6.11824, 46.267854], [6.119195, 46.268121], [6.119408, 46.268211], [6.119856, 46.268428], [6.120962, 46.269051], [6.121313, 46.269207], [6.121557, 46.269277], [6.121734, 46.269405], [6.121877, 46.269598], [6.122096, 46.269814], [6.122519, 46.270111], [6.123135, 46.270431], [6.123491, 46.270582], [6.124603, 46.270975], [6.125085, 46.27141], [6.125506, 46.271677], [6.125751, 46.271749], [6.125968, 46.271854], [6.12673, 46.272012], [6.127373, 46.272109], [6.128229, 46.272378], [6.128439, 46.272469], [6.128979, 46.272821], [6.129617, 46.273142], [6.130368, 46.273459], [6.130654, 46.273619], [6.131455, 46.274307], [6.131732, 46.274619], [6.131834, 46.274923], [6.131766, 46.275403], [6.131793, 46.275566], [6.13194, 46.27595], [6.132152, 46.27631], [6.132377, 46.276563], [6.133774, 46.277891], [6.1341, 46.278111], [6.135082, 46.279622], [6.135228, 46.279796], [6.135427, 46.279956], [6.136058, 46.280297], [6.136466, 46.280484], [6.138254, 46.281112], [6.139373, 46.281636], [6.13973, 46.281688], [6.140647, 46.281686], [6.141187, 46.281654], [6.141551, 46.281677], [6.144285, 46.282049], [6.145642, 46.282447], [6.146048, 46.282638], [6.147032, 46.283543], [6.14731, 46.283763], [6.147584, 46.283932], [6.147897, 46.284012], [6.147934, 46.284067], [6.147925, 46.284141], [6.147847, 46.284257], [6.147851, 46.284316], [6.1479, 46.28437], [6.150912, 46.287226], [6.151097, 46.287372], [6.151323, 46.287487], [6.151445, 46.28774], [6.151734, 46.288081], [6.152367, 46.289255], [6.15319, 46.290912], [6.1535, 46.291851], [6.153573, 46.291955], [6.153717, 46.292079], [6.153757, 46.292312], [6.153846, 46.292466], [6.155553, 46.294262], [6.157313, 46.296027], [6.157751, 46.296342], [6.15834, 46.296643], [6.158714, 46.296778], [6.15968, 46.29706], [6.160246, 46.297275], [6.161447, 46.297667], [6.162186, 46.297951], [6.162612, 46.298174], [6.16358, 46.298889], [6.16405, 46.299197], [6.164538, 46.299595], [6.165769, 46.301011], [6.166027, 46.301244], [6.167851, 46.302458], [6.168867, 46.303174], [6.16913, 46.303275], [6.169611, 46.303402], [6.170161, 46.304421], [6.170665, 46.304897], [6.171515, 46.305492], [6.172474, 46.305941], [6.172538, 46.306068], [6.172408, 46.306499], [6.172381, 46.306756], [6.172395, 46.307869], [6.172519, 46.308149], [6.173232, 46.309041], [6.173319, 46.309208], [6.173478, 46.309733], [6.173613, 46.309937], [6.173575, 46.310181], [6.17362, 46.310499], [6.174451, 46.314644], [6.174672, 46.315526], [6.174903, 46.315756], [6.176204, 46.31734], [6.177741, 46.318904], [6.177778, 46.318952], [6.177867, 46.319303], [6.177973, 46.319506], [6.17874, 46.320401], [6.178816, 46.320462], [6.178981, 46.32051], [6.17977, 46.320545], [6.179834, 46.320577], [6.179954, 46.320735], [6.180452, 46.320999], [6.180621, 46.321168], [6.180791, 46.321444], [6.181313, 46.322414], [6.181418, 46.322553], [6.181633, 46.322738], [6.181738, 46.322786], [6.181971, 46.322837], [6.183004, 46.322874], [6.183513, 46.322942], [6.183876, 46.323049], [6.184088, 46.323154], [6.184267, 46.323281], [6.186343, 46.325259], [6.187028, 46.326178], [6.188777, 46.327787], [6.189097, 46.328003], [6.189712, 46.328337], [6.190118, 46.32863], [6.190614, 46.32904], [6.191152, 46.329624], [6.191656, 46.330054], [6.191757, 46.330217], [6.19192, 46.330755], [6.191997, 46.330779], [6.192085, 46.330774], [6.192857, 46.330428], [6.19301, 46.330321], [6.193151, 46.330156], [6.193803, 46.330077], [6.193985, 46.330105], [6.194107, 46.330222], [6.194763, 46.331634], [6.194744, 46.331677], [6.19468, 46.331707], [6.194313, 46.331801], [6.194286, 46.331679], [6.194247, 46.331676], [6.194246, 46.331635], [6.194276, 46.331631], [6.194273, 46.331653]]}, "properties": {"name": "1790870533.Thursday_Evening_Cycle", "cmt": "2026-10-01", "tstamp": 1790812800, "desc": "---", "src": "6.045133/46.228979/6.194763/46.331801", "bbox": "6.045133/46.228979/6.194763/46.331801"}}]}