{"type": "FeatureCollection", "name": "TrackSet", "crs": {"type": "name", "properties": {"name": "urn:ogc:def:crs:OGC:1.3:CRS84"}}, "bbox": [6.045173, 46.228964, 6.194746, 46.331799], "features": [{"type": "Feature", "bbox": [6.045173, 46.228964, 6.194746, 46.331799], "geometry": {"type": "LineString", "coordinates": [[6.045479, 46.232459], [6.045515, 46.232465], [6.045531, 46.232445], [6.045238, 46.232236], [6.045173, 46.232092], [6.045186, 46.232002], [6.045381, 46.231895], [6.045399, 46.231854], [6.045913, 46.231575], [6.046083, 46.231272], [6.046208, 46.230954], [6.046362, 46.230806], [6.047924, 46.230126], [6.050274, 46.229154], [6.050775, 46.228971], [6.051048, 46.228964], [6.051573, 46.229025], [6.051692, 46.229074], [6.051781, 46.229149], [6.051974, 46.229554], [6.052138, 46.229814], [6.052298, 46.229968], [6.052569, 46.230102], [6.053075, 46.230172], [6.054962, 46.230298], [6.055244, 46.230301], [6.055335, 46.230286], [6.055487, 46.230213], [6.055574, 46.230208], [6.05565, 46.230247], [6.055703, 46.230314], [6.055694, 46.230513], [6.055901, 46.230817], [6.056405, 46.231735], [6.056514, 46.231879], [6.05671, 46.232063], [6.057043, 46.232257], [6.057146, 46.232392], [6.057307, 46.232524], [6.057528, 46.232658], [6.057786, 46.232739], [6.057887, 46.232818], [6.057897, 46.232924], [6.057863, 46.232978], [6.057739, 46.233047], [6.057711, 46.233089], [6.05774, 46.233142], [6.057901, 46.233218], [6.058131, 46.233265], [6.058218, 46.233261], [6.05917, 46.233001], [6.05928, 46.232991], [6.05938, 46.23302], [6.059463, 46.233081], [6.059508, 46.233155], [6.059922, 46.233968], [6.060097, 46.234208], [6.060347, 46.234664], [6.060439, 46.23469], [6.06054, 46.234678], [6.060807, 46.234575], [6.062016, 46.234224], [6.062822, 46.233822], [6.062879, 46.233813], [6.063019, 46.233859], [6.063421, 46.2342], [6.064241, 46.234795], [6.06478, 46.235289], [6.066315, 46.236383], [6.066517, 46.236605], [6.067271, 46.237707], [6.067667, 46.238133], [6.068289, 46.238878], [6.068394, 46.238987], [6.068686, 46.239161], [6.068917, 46.239451], [6.069794, 46.240204], [6.069868, 46.240231], [6.070046, 46.240206], [6.070835, 46.239645], [6.070899, 46.239618], [6.070972, 46.239634], [6.073009, 46.241081], [6.07304, 46.241165], [6.073013, 46.241254], [6.07304, 46.241341], [6.073185, 46.241497], [6.073537, 46.241998], [6.07379, 46.242293], [6.074261, 46.242698], [6.074331, 46.242726], [6.0745, 46.242697], [6.07491, 46.242368], [6.075072, 46.24236], [6.076522, 46.243355], [6.078105, 46.244352], [6.078381, 46.244553], [6.078741, 46.244874], [6.079554, 46.245358], [6.079812, 46.245433], [6.080319, 46.245531], [6.081094, 46.245587], [6.081697, 46.24567], [6.081802, 46.24576], [6.081656, 46.246107], [6.081708, 46.246224], [6.081831, 46.246304], [6.08236, 46.246526], [6.083293, 46.24685], [6.083629, 46.247005], [6.084319, 46.247253], [6.084364, 46.247302], [6.084236, 46.247457], [6.084225, 46.247548], [6.084257, 46.247598], [6.08456, 46.2479], [6.085128, 46.248191], [6.08575, 46.248424], [6.086037, 46.248496], [6.086251, 46.248529], [6.086472, 46.248503], [6.086547, 46.248518], [6.086833, 46.24866], [6.08739, 46.248786], [6.089119, 46.249307], [6.089831, 46.249558], [6.090325, 46.249767], [6.090598, 46.250009], [6.090925, 46.250057], [6.091773, 46.250395], [6.09216, 46.250598], [6.092597, 46.25096], [6.093028, 46.251425], [6.093163, 46.25152], [6.093273, 46.251706], [6.093348, 46.251916], [6.093554, 46.252088], [6.093751, 46.252148], [6.093975, 46.252179], [6.094976, 46.252084], [6.095497, 46.252079], [6.095699, 46.252035], [6.095952, 46.251917], [6.096148, 46.25196], [6.096708, 46.25221], [6.09718, 46.252375], [6.097194, 46.252485], [6.097053, 46.252697], [6.096983, 46.252922], [6.096997, 46.252991], [6.097125, 46.253243], [6.09746, 46.253546], [6.099009, 46.254443], [6.099553, 46.254738], [6.09984, 46.254862], [6.100029, 46.254999], [6.100374, 46.255036], [6.100683, 46.255102], [6.101835, 46.255435], [6.101972, 46.255523], [6.101982, 46.255652], [6.101535, 46.256017], [6.101371, 46.25611], [6.101284, 46.256208], [6.101096, 46.256299], [6.101043, 46.256378], [6.100584, 46.256762], [6.100528, 46.256908], [6.101035, 46.257303], [6.101566, 46.257617], [6.102327, 46.258137], [6.102472, 46.258265], [6.10261, 46.258291], [6.102863, 46.25826], [6.103131, 46.258258], [6.10339, 46.258313], [6.105085, 46.259402], [6.105283, 46.259506], [6.105612, 46.259583], [6.10579, 46.259666], [6.106019, 46.259652], [6.106113, 46.259667], [6.107501, 46.260196], [6.107847, 46.260288], [6.108211, 46.260344], [6.108652, 46.260348], [6.109096, 46.260308], [6.109183, 46.260325], [6.109156, 46.260344], [6.109252, 46.260401], [6.109279, 46.260534], [6.10932, 46.260584], [6.110042, 46.261126], [6.111617, 46.262395], [6.112633, 46.263159], [6.114365, 46.264284], [6.114524, 46.264342], [6.114801, 46.26433], [6.114876, 46.264364], [6.114908, 46.264432], [6.114898, 46.264563], [6.115273, 46.264925], [6.115328, 46.265038], [6.115304, 46.265099], [6.114725, 46.265488], [6.114706, 46.265524], [6.11473, 46.265566], [6.115071, 46.26572], [6.115477, 46.265946], [6.11602, 46.266153], [6.116135, 46.266225], [6.116164, 46.266292], [6.116447, 46.266453], [6.116926, 46.266796], [6.117612, 46.267419], [6.117959, 46.267697], [6.118299, 46.267854], [6.119266, 46.26813], [6.120257, 46.268629], [6.120735, 46.268928], [6.121269, 46.269194], [6.121521, 46.269269], [6.121762, 46.26946], [6.121879, 46.269638], [6.122089, 46.269841], [6.122442, 46.270068], [6.122955, 46.270344], [6.123421, 46.27056], [6.124656, 46.27099], [6.124864, 46.271174], [6.125008, 46.271345], [6.125559, 46.271701], [6.125782, 46.271769], [6.125972, 46.27186], [6.127381, 46.272102], [6.128125, 46.272325], [6.128422, 46.272456], [6.12893, 46.272783], [6.129592, 46.27312], [6.130525, 46.273523], [6.130794, 46.273722], [6.131302, 46.274166], [6.131603, 46.274453], [6.131749, 46.27465], [6.131815, 46.274798], [6.131839, 46.274952], [6.131774, 46.275494], [6.131996, 46.276068], [6.132171, 46.276329], [6.13244, 46.276621], [6.133741, 46.277854], [6.133858, 46.277956], [6.134071, 46.278078], [6.13511, 46.279669], [6.135271, 46.279835], [6.135486, 46.279981], [6.136118, 46.280318], [6.136524, 46.280498], [6.138294, 46.281109], [6.139055, 46.281481], [6.139483, 46.281651], [6.139743, 46.281696], [6.140601, 46.281688], [6.141162, 46.281657], [6.141715, 46.2817], [6.144421, 46.282082], [6.145192, 46.282331], [6.145561, 46.282421], [6.146056, 46.282633], [6.147212, 46.283692], [6.147539, 46.283917], [6.147849, 46.283997], [6.147912, 46.284036], [6.147927, 46.284157], [6.147842, 46.284268], [6.147841, 46.284324], [6.150978, 46.287272], [6.151345, 46.287502], [6.151433, 46.28771], [6.151692, 46.288016], [6.151909, 46.288352], [6.152657, 46.289885], [6.152839, 46.290191], [6.153234, 46.291049], [6.153505, 46.291881], [6.153725, 46.292124], [6.153757, 46.292348], [6.153842, 46.292479], [6.157254, 46.295983], [6.157779, 46.296358], [6.158303, 46.296625], [6.158881, 46.296827], [6.159576, 46.297019], [6.160272, 46.297281], [6.161675, 46.297756], [6.16227, 46.297992], [6.162592, 46.298156], [6.163589, 46.298893], [6.163898, 46.299078], [6.164261, 46.299345], [6.164758, 46.299835], [6.165777, 46.301017], [6.166054, 46.301259], [6.167112, 46.301957], [6.168724, 46.303077], [6.168961, 46.30321], [6.169213, 46.303308], [6.169638, 46.303383], [6.169717, 46.303601], [6.170148, 46.304368], [6.170464, 46.304713], [6.171462, 46.305449], [6.171948, 46.305704], [6.172368, 46.305882], [6.172504, 46.305975], [6.172544, 46.306111], [6.172422, 46.306488], [6.17237, 46.306924], [6.172367, 46.307866], [6.172542, 46.30822], [6.173214, 46.309032], [6.173364, 46.30942], [6.17342, 46.309718], [6.173567, 46.309945], [6.173528, 46.310109], [6.173539, 46.310273], [6.174327, 46.314099], [6.174675, 46.315523], [6.174902, 46.315741], [6.175944, 46.317038], [6.17652, 46.317681], [6.176718, 46.317846], [6.177333, 46.318491], [6.177575, 46.318673], [6.177744, 46.318864], [6.177807, 46.318972], [6.177844, 46.319207], [6.177954, 46.319464], [6.178435, 46.319997], [6.17877, 46.320419], [6.178862, 46.32047], [6.178979, 46.320497], [6.179622, 46.32051], [6.17977, 46.320533], [6.17983, 46.320569], [6.179944, 46.320719], [6.180488, 46.321021], [6.180631, 46.321194], [6.180782, 46.32145], [6.18132, 46.322445], [6.181427, 46.322567], [6.181636, 46.322732], [6.181727, 46.322779], [6.181938, 46.32283], [6.183013, 46.322866], [6.183592, 46.322945], [6.184003, 46.323092], [6.184325, 46.323302], [6.185, 46.323925], [6.185825, 46.324761], [6.186364, 46.325264], [6.186605, 46.325564], [6.186941, 46.326069], [6.187156, 46.326294], [6.188853, 46.327834], [6.189776, 46.328366], [6.190353, 46.328803], [6.190719, 46.329143], [6.191131, 46.329607], [6.191604, 46.330004], [6.191744, 46.330226], [6.191873, 46.330578], [6.191874, 46.33071], [6.191937, 46.330763], [6.192041, 46.330777], [6.192144, 46.330759], [6.192763, 46.330471], [6.192966, 46.330352], [6.193149, 46.33016], [6.193227, 46.330134], [6.193808, 46.330075], [6.194002, 46.3301], [6.194068, 46.330155], [6.194595, 46.331229], [6.194746, 46.331629], [6.194704, 46.331672], [6.194328, 46.331799], [6.19426, 46.33174], [6.194306, 46.331709], [6.194295, 46.331685], [6.194313, 46.331721], [6.194305, 46.331674]]}, "properties": {"name": "1790258994.Thursday_Afternoon_Cycle", "cmt": "2026-09-24", "tstamp": 1790208000, "desc": "---", "src": "6.045173/46.228964/6.194746/46.331799", "bbox": "6.045173/46.228964/6.194746/46.331799"}}]}