{"type": "FeatureCollection", "name": "TrackSet", "crs": {"type": "name", "properties": {"name": "urn:ogc:def:crs:OGC:1.3:CRS84"}}, "bbox": [6.045317, 46.22898, 6.194746, 46.331802], "features": [{"type": "Feature", "bbox": [6.045317, 46.22898, 6.194746, 46.331802], "geometry": {"type": "LineString", "coordinates": [[6.194166, 46.33165], [6.194314, 46.331652], [6.194222, 46.331661], [6.194273, 46.331653], [6.194229, 46.33166], [6.194203, 46.331777], [6.194321, 46.331802], [6.194611, 46.331712], [6.194698, 46.331667], [6.194746, 46.331594], [6.194378, 46.330839], [6.19397, 46.330133], [6.193829, 46.330097], [6.193639, 46.330142], [6.193168, 46.33018], [6.193029, 46.330355], [6.192818, 46.330504], [6.192125, 46.330789], [6.19202, 46.330808], [6.191906, 46.330787], [6.191844, 46.330698], [6.191839, 46.330552], [6.191653, 46.330102], [6.191292, 46.329708], [6.191026, 46.329506], [6.190482, 46.328976], [6.189934, 46.328542], [6.189697, 46.328379], [6.18893, 46.327968], [6.188663, 46.327763], [6.186975, 46.326205], [6.186533, 46.32559], [6.186283, 46.325314], [6.186217, 46.325204], [6.184285, 46.323344], [6.183839, 46.323076], [6.183446, 46.322969], [6.183056, 46.322923], [6.181992, 46.322858], [6.181727, 46.322821], [6.181616, 46.32278], [6.181445, 46.322652], [6.181261, 46.3224], [6.180708, 46.321318], [6.180588, 46.321121], [6.180493, 46.321032], [6.180036, 46.320782], [6.179781, 46.320537], [6.178987, 46.320517], [6.178852, 46.320486], [6.178749, 46.320418], [6.178386, 46.319934], [6.178029, 46.319587], [6.177929, 46.31941], [6.177826, 46.31903], [6.177746, 46.318866], [6.177561, 46.31872], [6.177501, 46.318634], [6.176382, 46.317543], [6.174826, 46.315671], [6.174785, 46.315626], [6.174607, 46.315535], [6.174576, 46.315492], [6.174406, 46.314499], [6.173785, 46.311532], [6.173549, 46.310183], [6.173449, 46.309918], [6.173423, 46.309563], [6.173332, 46.309273], [6.173214, 46.30903], [6.172643, 46.308371], [6.172476, 46.308114], [6.172372, 46.307851], [6.17242, 46.306388], [6.172507, 46.306103], [6.172455, 46.305972], [6.172358, 46.305899], [6.171768, 46.305636], [6.171422, 46.305443], [6.170756, 46.304971], [6.17039, 46.304668], [6.170144, 46.304413], [6.169617, 46.303433], [6.169543, 46.303387], [6.169182, 46.303319], [6.16881, 46.303157], [6.166053, 46.301293], [6.165764, 46.301036], [6.164743, 46.299848], [6.164402, 46.299496], [6.163988, 46.299175], [6.163603, 46.298937], [6.162561, 46.298189], [6.16222, 46.298002], [6.161699, 46.297798], [6.160328, 46.297332], [6.159595, 46.297044], [6.158629, 46.296767], [6.158151, 46.296572], [6.157752, 46.296358], [6.157446, 46.296154], [6.156591, 46.295451], [6.156002, 46.294863], [6.155765, 46.294577], [6.155194, 46.293987], [6.154964, 46.293809], [6.154823, 46.293585], [6.154452, 46.293221], [6.154268, 46.293011], [6.154202, 46.292887], [6.15351, 46.292122], [6.153489, 46.291896], [6.153189, 46.291028], [6.153069, 46.290763], [6.15208, 46.288784], [6.151632, 46.288016], [6.151354, 46.28773], [6.151087, 46.287569], [6.150934, 46.287309], [6.147943, 46.284463], [6.147495, 46.28396], [6.147172, 46.28374], [6.145961, 46.282634], [6.145584, 46.282463], [6.144613, 46.282165], [6.143979, 46.282044], [6.143694, 46.282041], [6.142276, 46.281803], [6.141388, 46.281696], [6.141072, 46.281686], [6.140447, 46.281728], [6.13961, 46.281712], [6.139408, 46.281683], [6.139129, 46.281578], [6.138542, 46.281277], [6.136383, 46.280506], [6.135895, 46.280272], [6.135488, 46.280043], [6.13524, 46.279865], [6.135079, 46.279688], [6.134233, 46.278448], [6.133814, 46.277965], [6.13236, 46.276603], [6.132119, 46.276337], [6.131934, 46.276045], [6.131757, 46.275619], [6.131723, 46.275373], [6.131782, 46.274888], [6.13168, 46.274617], [6.131275, 46.274188], [6.130513, 46.273556], [6.129451, 46.273076], [6.128331, 46.272427], [6.127541, 46.272142], [6.12683, 46.272047], [6.126037, 46.271877], [6.125879, 46.271871], [6.125742, 46.271894], [6.125629, 46.271878], [6.125578, 46.271848], [6.125469, 46.271689], [6.12501, 46.271377], [6.12478, 46.271145], [6.124559, 46.270982], [6.12447, 46.270932], [6.123884, 46.270738], [6.12321, 46.270475], [6.122261, 46.269958], [6.121628, 46.269302], [6.121035, 46.269075], [6.119328, 46.268166], [6.118295, 46.267869], [6.118003, 46.267734], [6.117671, 46.267473], [6.116998, 46.266843], [6.116309, 46.266337], [6.116263, 46.266295], [6.116256, 46.266234], [6.114804, 46.265547], [6.114789, 46.265428], [6.115255, 46.265114], [6.115312, 46.265046], [6.115299, 46.264978], [6.115124, 46.264787], [6.114831, 46.264551], [6.114245, 46.264234], [6.114042, 46.264096], [6.113465, 46.263796], [6.112736, 46.263288], [6.110451, 46.261523], [6.109587, 46.260822], [6.109254, 46.260599], [6.109133, 46.260429], [6.108204, 46.260407], [6.107866, 46.260366], [6.107481, 46.260275], [6.107322, 46.260192], [6.106825, 46.260025], [6.106298, 46.259811], [6.105714, 46.259686], [6.105254, 46.259531], [6.103352, 46.258357], [6.103157, 46.25831], [6.102612, 46.25831], [6.102447, 46.258259], [6.101544, 46.257636], [6.101225, 46.257455], [6.100543, 46.256959], [6.100526, 46.256898], [6.100545, 46.256813], [6.100853, 46.256601], [6.101153, 46.256301], [6.101774, 46.255791], [6.101933, 46.255628], [6.101931, 46.255546], [6.101833, 46.255486], [6.100785, 46.255216], [6.100465, 46.255104], [6.100212, 46.25506], [6.099845, 46.255033], [6.099783, 46.255002], [6.09965, 46.254822], [6.099573, 46.254776], [6.097316, 46.253526], [6.097117, 46.253314], [6.097, 46.253081], [6.097009, 46.252764], [6.097107, 46.252531], [6.097195, 46.252421], [6.09716, 46.252347], [6.096793, 46.252249], [6.096173, 46.25199], [6.095962, 46.251945], [6.095882, 46.251943], [6.095603, 46.25206], [6.095522, 46.25207], [6.094726, 46.252087], [6.093908, 46.252151], [6.093665, 46.252121], [6.093449, 46.252044], [6.09336, 46.251959], [6.093301, 46.25172], [6.093115, 46.251454], [6.092979, 46.251365], [6.092537, 46.250891], [6.092283, 46.250691], [6.092016, 46.250523], [6.090952, 46.250053], [6.09057, 46.24996], [6.090453, 46.249809], [6.090382, 46.249771], [6.089223, 46.24935], [6.088366, 46.249082], [6.08713, 46.248758], [6.086681, 46.248667], [6.086392, 46.248654], [6.086145, 46.248529], [6.085874, 46.24847], [6.085428, 46.248327], [6.08489, 46.248118], [6.084574, 46.24794], [6.084326, 46.247717], [6.084161, 46.247464], [6.084166, 46.247268], [6.084125, 46.247216], [6.083527, 46.247039], [6.082632, 46.246727], [6.082157, 46.246454], [6.08181, 46.246301], [6.081703, 46.24616], [6.081726, 46.246061], [6.081792, 46.245968], [6.081797, 46.24589], [6.08187, 46.245798], [6.081777, 46.245693], [6.081519, 46.245648], [6.081389, 46.245601], [6.080478, 46.245526], [6.079918, 46.245418], [6.079617, 46.245332], [6.078803, 46.244853], [6.078557, 46.244626], [6.078183, 46.244362], [6.077425, 46.243919], [6.075035, 46.242354], [6.074868, 46.242379], [6.07467, 46.242569], [6.074444, 46.242729], [6.074271, 46.242723], [6.074153, 46.242638], [6.07363, 46.242107], [6.07304, 46.241314], [6.073009, 46.241257], [6.073022, 46.241083], [6.072991, 46.241037], [6.072393, 46.240656], [6.070965, 46.23965], [6.070849, 46.239634], [6.070787, 46.239664], [6.070625, 46.239835], [6.070042, 46.240226], [6.069905, 46.24026], [6.069758, 46.240221], [6.068815, 46.239394], [6.068573, 46.2391], [6.068341, 46.238985], [6.068284, 46.238933], [6.067144, 46.237568], [6.066288, 46.236373], [6.064915, 46.235413], [6.064682, 46.235229], [6.064386, 46.234913], [6.064201, 46.234757], [6.062988, 46.233879], [6.062923, 46.233855], [6.062777, 46.233868], [6.062466, 46.234046], [6.062013, 46.234245], [6.060557, 46.234671], [6.060421, 46.234691], [6.060351, 46.234674], [6.06026, 46.234588], [6.06022, 46.23447], [6.059471, 46.233131], [6.059371, 46.233021], [6.059281, 46.232994], [6.059181, 46.232999], [6.058894, 46.233126], [6.058209, 46.233286], [6.058069, 46.233266], [6.057757, 46.233169], [6.057712, 46.233141], [6.057653, 46.233028], [6.057471, 46.232952], [6.057428, 46.232819], [6.057457, 46.23269], [6.05741, 46.232657], [6.057282, 46.232628], [6.057226, 46.23256], [6.05711, 46.232497], [6.056808, 46.232188], [6.056647, 46.232065], [6.056423, 46.231809], [6.055698, 46.230547], [6.055588, 46.230438], [6.055251, 46.230321], [6.054857, 46.230319], [6.053162, 46.230199], [6.052515, 46.230131], [6.052098, 46.229818], [6.051655, 46.229122], [6.051475, 46.229029], [6.051358, 46.229013], [6.050875, 46.22898], [6.050704, 46.229003], [6.048877, 46.229792], [6.046384, 46.230815], [6.046274, 46.230917], [6.046071, 46.231395], [6.046107, 46.231516], [6.046315, 46.231778], [6.046316, 46.231866], [6.046213, 46.231937], [6.04566, 46.232136], [6.045317, 46.23229], [6.045466, 46.232388], [6.045469, 46.23244], [6.045413, 46.232447], [6.045455, 46.232443], [6.045436, 46.23247]]}, "properties": {"name": "1790746385.Wednesday_Morning_Cycle", "cmt": "2026-09-30", "tstamp": 1790726400, "desc": "---", "src": "6.045317/46.22898/6.194746/46.331802", "bbox": "6.045317/46.22898/6.194746/46.331802"}}]}