{"type": "FeatureCollection", "name": "TrackSet", "crs": {"type": "name", "properties": {"name": "urn:ogc:def:crs:OGC:1.3:CRS84"}}, "bbox": [6.045321, 46.228982, 6.194747, 46.331806], "features": [{"type": "Feature", "bbox": [6.045321, 46.228982, 6.194747, 46.331806], "geometry": {"type": "LineString", "coordinates": [[6.194178, 46.331658], [6.19426, 46.331654], [6.194138, 46.331806], [6.194239, 46.33179], [6.19436, 46.331698], [6.194362, 46.331762], [6.194614, 46.3317], [6.194705, 46.331658], [6.194747, 46.331585], [6.194439, 46.330949], [6.193982, 46.33015], [6.193868, 46.330104], [6.193184, 46.330185], [6.193109, 46.330238], [6.193012, 46.330367], [6.192846, 46.330486], [6.192171, 46.330771], [6.19202, 46.330798], [6.191912, 46.330771], [6.191858, 46.330692], [6.191786, 46.330261], [6.191685, 46.330084], [6.191264, 46.329688], [6.19109, 46.329564], [6.19066, 46.32912], [6.19031, 46.328809], [6.189664, 46.328347], [6.189069, 46.328026], [6.188772, 46.327831], [6.187062, 46.326286], [6.186844, 46.326044], [6.186527, 46.32557], [6.186234, 46.325221], [6.184308, 46.323366], [6.183887, 46.323102], [6.183517, 46.322982], [6.183059, 46.322918], [6.182022, 46.322846], [6.181774, 46.32281], [6.18161, 46.322758], [6.181487, 46.322671], [6.181224, 46.322318], [6.180771, 46.321424], [6.180608, 46.32115], [6.180484, 46.321023], [6.180009, 46.320756], [6.179862, 46.320602], [6.179753, 46.320539], [6.178951, 46.320516], [6.17882, 46.320468], [6.178716, 46.320383], [6.178323, 46.31986], [6.178015, 46.31956], [6.177913, 46.319375], [6.177812, 46.318992], [6.177738, 46.318849], [6.177538, 46.318692], [6.176392, 46.317545], [6.17575, 46.31681], [6.175547, 46.316529], [6.174799, 46.315648], [6.174629, 46.315556], [6.174565, 46.315467], [6.174566, 46.315356], [6.174173, 46.313488], [6.173559, 46.310166], [6.173449, 46.309892], [6.173434, 46.309605], [6.173225, 46.309064], [6.172792, 46.308578], [6.172542, 46.308247], [6.172399, 46.307997], [6.172345, 46.307827], [6.172383, 46.30649], [6.172487, 46.306118], [6.172481, 46.306039], [6.172429, 46.305958], [6.172295, 46.305869], [6.171733, 46.305621], [6.171341, 46.305396], [6.170775, 46.304991], [6.170312, 46.304609], [6.17014, 46.304406], [6.169578, 46.303405], [6.169149, 46.303307], [6.168815, 46.303144], [6.166053, 46.301263], [6.165759, 46.301], [6.164678, 46.299756], [6.164434, 46.299512], [6.163828, 46.299036], [6.162565, 46.298166], [6.162178, 46.297972], [6.161839, 46.297841], [6.160278, 46.297302], [6.159554, 46.297009], [6.158711, 46.296794], [6.158112, 46.296565], [6.157725, 46.296349], [6.157302, 46.296061], [6.156705, 46.295556], [6.156202, 46.295077], [6.15539, 46.294182], [6.155148, 46.293943], [6.154938, 46.293785], [6.154853, 46.293629], [6.153959, 46.292645], [6.153715, 46.292324], [6.15352, 46.292161], [6.15348, 46.292042], [6.153484, 46.29184], [6.153097, 46.290787], [6.152012, 46.288654], [6.151617, 46.288003], [6.151362, 46.28774], [6.151091, 46.287576], [6.150921, 46.287281], [6.147896, 46.284409], [6.147528, 46.283978], [6.147066, 46.283636], [6.145993, 46.28265], [6.14573, 46.282506], [6.144552, 46.282145], [6.142301, 46.281794], [6.141174, 46.281678], [6.140537, 46.281725], [6.139473, 46.281685], [6.139188, 46.28159], [6.138513, 46.281248], [6.136435, 46.280529], [6.135957, 46.280298], [6.135389, 46.27998], [6.135243, 46.279868], [6.135009, 46.279607], [6.134778, 46.27922], [6.134111, 46.278285], [6.133753, 46.277892], [6.13231, 46.276561], [6.132079, 46.276295], [6.13188, 46.275943], [6.131743, 46.275585], [6.131717, 46.275406], [6.131776, 46.274935], [6.131673, 46.274612], [6.131199, 46.274115], [6.13048, 46.273537], [6.129507, 46.273104], [6.128456, 46.272492], [6.128143, 46.272348], [6.127167, 46.272082], [6.126901, 46.272052], [6.125923, 46.271861], [6.12569, 46.271876], [6.125617, 46.271861], [6.125554, 46.271819], [6.125418, 46.271638], [6.125189, 46.271505], [6.124805, 46.27115], [6.124571, 46.270978], [6.124373, 46.270889], [6.123523, 46.270607], [6.123151, 46.270448], [6.122522, 46.270122], [6.122223, 46.269938], [6.121634, 46.269287], [6.121154, 46.26913], [6.120967, 46.269044], [6.119287, 46.268126], [6.119093, 46.268057], [6.118269, 46.267847], [6.117986, 46.267709], [6.117691, 46.267485], [6.116872, 46.266737], [6.116299, 46.266331], [6.116259, 46.266278], [6.116282, 46.266256], [6.116148, 46.266161], [6.116038, 46.266134], [6.115572, 46.265892], [6.115034, 46.265674], [6.114831, 46.265537], [6.114818, 46.265454], [6.114845, 46.265407], [6.115133, 46.265228], [6.11532, 46.265064], [6.115286, 46.264961], [6.114989, 46.264663], [6.114768, 46.264509], [6.1144, 46.264323], [6.113393, 46.263726], [6.112626, 46.263207], [6.110488, 46.261551], [6.109326, 46.260617], [6.109145, 46.260422], [6.109061, 46.260388], [6.108955, 46.260385], [6.108667, 46.26042], [6.108159, 46.260404], [6.107844, 46.260364], [6.10734, 46.260241], [6.10635, 46.259855], [6.105776, 46.259713], [6.105247, 46.259546], [6.103331, 46.25835], [6.103176, 46.258312], [6.102605, 46.258303], [6.10249, 46.258278], [6.101958, 46.257877], [6.101225, 46.257435], [6.100561, 46.256942], [6.100552, 46.256814], [6.10095, 46.256589], [6.101319, 46.256271], [6.101916, 46.255701], [6.101959, 46.255608], [6.101935, 46.255565], [6.101878, 46.255524], [6.100536, 46.255117], [6.100231, 46.25506], [6.099859, 46.255063], [6.099652, 46.254811], [6.097272, 46.253494], [6.097098, 46.253268], [6.096999, 46.253024], [6.097003, 46.252738], [6.097161, 46.252443], [6.09717, 46.252403], [6.097128, 46.252369], [6.096785, 46.25226], [6.096175, 46.251993], [6.095976, 46.251947], [6.095896, 46.251955], [6.095717, 46.252053], [6.09558, 46.252087], [6.095027, 46.252082], [6.094131, 46.25214], [6.093913, 46.252174], [6.093648, 46.252117], [6.093482, 46.252026], [6.093388, 46.251939], [6.093229, 46.251595], [6.093125, 46.251442], [6.092963, 46.251348], [6.092527, 46.250865], [6.092127, 46.250589], [6.091796, 46.250412], [6.090818, 46.249999], [6.090582, 46.249976], [6.090532, 46.249944], [6.090483, 46.249849], [6.090316, 46.249733], [6.089298, 46.24938], [6.088379, 46.249082], [6.087588, 46.248871], [6.086853, 46.248699], [6.086404, 46.248668], [6.086315, 46.248643], [6.086104, 46.24852], [6.08576, 46.248446], [6.084979, 46.248163], [6.084571, 46.247942], [6.084378, 46.247776], [6.084186, 46.247529], [6.084151, 46.247393], [6.084166, 46.247271], [6.084126, 46.247217], [6.083613, 46.247073], [6.082672, 46.246742], [6.082403, 46.246569], [6.081777, 46.246268], [6.081709, 46.246183], [6.081709, 46.246081], [6.081779, 46.245997], [6.081785, 46.24591], [6.081872, 46.245798], [6.081823, 46.245724], [6.081718, 46.245657], [6.080919, 46.245527], [6.079914, 46.245412], [6.079566, 46.245315], [6.079477, 46.245233], [6.079294, 46.245168], [6.07875, 46.244819], [6.078691, 46.244729], [6.078252, 46.24439], [6.077265, 46.243821], [6.075048, 46.242362], [6.074967, 46.242354], [6.074889, 46.242375], [6.074477, 46.242711], [6.074316, 46.242732], [6.07424, 46.242702], [6.073725, 46.242202], [6.073065, 46.241335], [6.073029, 46.241281], [6.073039, 46.241065], [6.070958, 46.239643], [6.070859, 46.239645], [6.070747, 46.23976], [6.070007, 46.24025], [6.069933, 46.240261], [6.06978, 46.240231], [6.068834, 46.239405], [6.068599, 46.23911], [6.068309, 46.238948], [6.067156, 46.237559], [6.066619, 46.236786], [6.066275, 46.236348], [6.064867, 46.235359], [6.064672, 46.235207], [6.064226, 46.23478], [6.062985, 46.23387], [6.062839, 46.233855], [6.06277, 46.233877], [6.062562, 46.234009], [6.061953, 46.234267], [6.060523, 46.234674], [6.060386, 46.234679], [6.060324, 46.23465], [6.060247, 46.23455], [6.05942, 46.233074], [6.059365, 46.233026], [6.059282, 46.232998], [6.059186, 46.233002], [6.058736, 46.233168], [6.058327, 46.233274], [6.058134, 46.23329], [6.05774, 46.233157], [6.057665, 46.233052], [6.057491, 46.232983], [6.05743, 46.232853], [6.057467, 46.232687], [6.057163, 46.232548], [6.056938, 46.232316], [6.056592, 46.232024], [6.056408, 46.231813], [6.056238, 46.231444], [6.055612, 46.230459], [6.05519, 46.230319], [6.054908, 46.230322], [6.05258, 46.23016], [6.052216, 46.229923], [6.052099, 46.229816], [6.051724, 46.229205], [6.051597, 46.229082], [6.05139, 46.229021], [6.050922, 46.228982], [6.050687, 46.229018], [6.046345, 46.230837], [6.046234, 46.230978], [6.046068, 46.2314], [6.046147, 46.231558], [6.046314, 46.231747], [6.046323, 46.231852], [6.046283, 46.231908], [6.046218, 46.231937], [6.045876, 46.232046], [6.045348, 46.232269], [6.045321, 46.232292], [6.045442, 46.232388], [6.045452, 46.23244], [6.045423, 46.232454], [6.045463, 46.232464], [6.045479, 46.232443], [6.04547, 46.232491], [6.045452, 46.232477], [6.045502, 46.232499]]}, "properties": {"name": "1790919559.Friday_Morning_Cycle", "cmt": "2026-10-02", "tstamp": 1790899200, "desc": "---", "src": "6.045321/46.228982/6.194747/46.331806", "bbox": "6.045321/46.228982/6.194747/46.331806"}}]}