{"type": "FeatureCollection", "name": "TrackSet", "crs": {"type": "name", "properties": {"name": "urn:ogc:def:crs:OGC:1.3:CRS84"}}, "bbox": [6.045311, 46.228978, 6.194734, 46.331811], "features": [{"type": "Feature", "bbox": [6.045311, 46.228978, 6.194734, 46.331811], "geometry": {"type": "LineString", "coordinates": [[6.194474, 46.331811], [6.194697, 46.331687], [6.19473, 46.331651], [6.194734, 46.331565], [6.194464, 46.330972], [6.193956, 46.330122], [6.193817, 46.330081], [6.193193, 46.330171], [6.193126, 46.330218], [6.19304, 46.330362], [6.192824, 46.330505], [6.192216, 46.330744], [6.192043, 46.330792], [6.191922, 46.33078], [6.191851, 46.330689], [6.19184, 46.330528], [6.191693, 46.330182], [6.191512, 46.32995], [6.191025, 46.329524], [6.19063, 46.329101], [6.190369, 46.328873], [6.189705, 46.328375], [6.188827, 46.327881], [6.187215, 46.326428], [6.186935, 46.326146], [6.186681, 46.325763], [6.186282, 46.325258], [6.184203, 46.323277], [6.183842, 46.323073], [6.183504, 46.322973], [6.182982, 46.322913], [6.18203, 46.322851], [6.181611, 46.322763], [6.18147, 46.322646], [6.181265, 46.322367], [6.180821, 46.321512], [6.180594, 46.321133], [6.180499, 46.321033], [6.180309, 46.320882], [6.180096, 46.320814], [6.179969, 46.320736], [6.17986, 46.320604], [6.17977, 46.320554], [6.178937, 46.320512], [6.178738, 46.320414], [6.178319, 46.31987], [6.178002, 46.319559], [6.177852, 46.319262], [6.177787, 46.318968], [6.177701, 46.318837], [6.177517, 46.318708], [6.177413, 46.318544], [6.176343, 46.317494], [6.174793, 46.315646], [6.174643, 46.315561], [6.174565, 46.315485], [6.174554, 46.315302], [6.173717, 46.311193], [6.17355, 46.310217], [6.173435, 46.309945], [6.173423, 46.309562], [6.173228, 46.309064], [6.172778, 46.308561], [6.172586, 46.308301], [6.172431, 46.308042], [6.172369, 46.307862], [6.172391, 46.306482], [6.172487, 46.306102], [6.172469, 46.306], [6.172321, 46.305879], [6.171759, 46.305634], [6.171335, 46.305387], [6.17079, 46.305007], [6.170409, 46.304703], [6.170238, 46.30455], [6.170117, 46.304378], [6.16959, 46.30343], [6.169513, 46.303385], [6.169128, 46.303316], [6.168818, 46.303175], [6.167978, 46.302571], [6.166034, 46.301277], [6.165734, 46.301002], [6.164823, 46.299948], [6.164381, 46.299493], [6.163993, 46.29919], [6.163652, 46.29898], [6.162538, 46.29817], [6.162163, 46.297982], [6.160969, 46.297539], [6.160288, 46.297315], [6.159663, 46.297071], [6.15864, 46.296775], [6.15833, 46.296661], [6.157943, 46.296474], [6.157573, 46.296254], [6.156703, 46.295579], [6.156011, 46.294877], [6.155768, 46.294578], [6.155265, 46.294063], [6.154942, 46.293805], [6.154831, 46.293609], [6.15431, 46.293065], [6.154172, 46.292854], [6.153871, 46.292547], [6.153679, 46.292293], [6.153488, 46.29214], [6.153484, 46.291869], [6.153096, 46.290825], [6.152038, 46.288726], [6.1516, 46.287988], [6.151303, 46.287699], [6.151065, 46.287575], [6.150937, 46.287308], [6.148524, 46.285029], [6.148457, 46.285001], [6.148145, 46.284681], [6.148118, 46.284608], [6.147909, 46.284467], [6.147658, 46.284209], [6.147574, 46.284106], [6.14753, 46.28399], [6.147367, 46.283887], [6.147275, 46.28376], [6.14704, 46.283633], [6.145959, 46.282633], [6.145658, 46.282487], [6.144487, 46.282134], [6.143772, 46.282002], [6.142883, 46.281886], [6.142335, 46.281789], [6.141167, 46.281669], [6.140564, 46.281711], [6.139611, 46.281702], [6.139384, 46.28167], [6.139082, 46.281548], [6.138433, 46.281226], [6.136405, 46.280512], [6.136144, 46.280394], [6.135428, 46.280001], [6.135285, 46.279899], [6.135063, 46.279661], [6.134112, 46.278297], [6.133715, 46.277863], [6.132344, 46.276599], [6.132096, 46.276321], [6.131882, 46.27595], [6.131743, 46.275569], [6.13172, 46.275377], [6.131787, 46.274936], [6.131693, 46.274646], [6.131501, 46.274407], [6.130867, 46.273833], [6.13053, 46.273575], [6.129472, 46.2731], [6.128918, 46.27279], [6.128536, 46.272542], [6.128131, 46.272351], [6.127218, 46.272099], [6.126081, 46.271889], [6.125595, 46.271865], [6.125464, 46.271686], [6.125167, 46.271495], [6.124844, 46.271197], [6.124525, 46.270967], [6.124432, 46.270917], [6.123428, 46.270569], [6.122404, 46.270069], [6.1222, 46.269923], [6.121765, 46.269422], [6.121602, 46.269279], [6.121249, 46.26917], [6.120965, 46.269034], [6.119319, 46.268152], [6.118233, 46.267853], [6.118012, 46.267745], [6.117698, 46.267511], [6.116745, 46.266659], [6.116251, 46.266311], [6.116224, 46.266226], [6.115472, 46.265861], [6.115177, 46.265757], [6.114827, 46.265562], [6.114852, 46.265417], [6.115182, 46.265196], [6.115325, 46.265058], [6.115301, 46.264976], [6.115162, 46.264828], [6.114783, 46.26454], [6.113604, 46.263874], [6.112633, 46.263229], [6.109643, 46.260876], [6.109213, 46.260568], [6.109095, 46.260417], [6.108271, 46.260417], [6.107788, 46.260351], [6.107336, 46.260237], [6.107079, 46.260111], [6.106319, 46.259846], [6.106181, 46.259788], [6.106202, 46.25977], [6.105795, 46.259705], [6.105262, 46.259537], [6.103345, 46.258358], [6.103188, 46.258313], [6.102649, 46.258326], [6.102469, 46.258291], [6.1024, 46.258211], [6.10177, 46.257742], [6.101319, 46.257498], [6.100605, 46.256992], [6.100541, 46.256881], [6.100579, 46.256779], [6.101307, 46.256258], [6.101587, 46.256001], [6.101887, 46.255708], [6.101897, 46.255605], [6.101783, 46.255535], [6.100615, 46.255155], [6.100237, 46.255067], [6.09984, 46.255053], [6.099646, 46.254811], [6.097343, 46.253544], [6.09718, 46.253398], [6.097017, 46.253134], [6.096999, 46.252779], [6.097073, 46.252581], [6.097157, 46.252475], [6.09715, 46.252394], [6.09673, 46.25224], [6.096249, 46.252019], [6.09602, 46.25196], [6.095846, 46.251973], [6.095545, 46.252089], [6.095018, 46.252084], [6.093886, 46.252157], [6.093629, 46.252099], [6.093491, 46.25203], [6.093334, 46.2519], [6.093261, 46.251649], [6.093114, 46.251443], [6.092972, 46.251343], [6.092565, 46.250906], [6.09224, 46.250655], [6.092035, 46.250536], [6.090986, 46.250083], [6.090793, 46.250013], [6.090597, 46.249985], [6.090431, 46.24979], [6.089978, 46.249604], [6.088478, 46.249115], [6.0877, 46.248902], [6.086796, 46.248686], [6.086535, 46.248677], [6.086353, 46.248641], [6.086123, 46.248533], [6.085596, 46.248396], [6.08488, 46.248123], [6.084558, 46.247937], [6.084313, 46.247702], [6.084175, 46.247509], [6.084154, 46.247267], [6.084124, 46.247228], [6.082285, 46.246609], [6.08206, 46.246487], [6.081708, 46.246189], [6.081705, 46.246133], [6.081813, 46.245884], [6.081874, 46.245814], [6.081772, 46.245708], [6.081632, 46.245665], [6.080281, 46.245498], [6.079811, 46.245411], [6.079566, 46.245332], [6.078772, 46.244852], [6.078608, 46.244685], [6.078247, 46.244411], [6.077762, 46.244153], [6.076623, 46.243413], [6.076061, 46.243046], [6.075584, 46.242693], [6.075408, 46.242602], [6.075118, 46.242378], [6.074935, 46.242359], [6.074852, 46.242394], [6.074473, 46.24272], [6.074314, 46.242727], [6.074232, 46.242687], [6.07373, 46.242195], [6.073062, 46.241344], [6.073018, 46.241231], [6.073051, 46.241104], [6.073023, 46.241051], [6.070984, 46.23965], [6.07093, 46.239629], [6.0708, 46.239661], [6.070605, 46.239843], [6.070057, 46.240211], [6.069978, 46.240241], [6.06988, 46.240244], [6.069714, 46.240181], [6.069474, 46.239947], [6.068835, 46.23941], [6.068691, 46.239172], [6.068615, 46.239103], [6.068311, 46.238952], [6.068243, 46.238884], [6.06792, 46.238458], [6.067261, 46.237692], [6.066468, 46.23658], [6.066254, 46.236337], [6.064824, 46.23533], [6.064306, 46.234841], [6.062979, 46.233866], [6.062814, 46.233856], [6.062738, 46.233883], [6.062505, 46.234037], [6.061953, 46.234269], [6.060522, 46.234677], [6.060372, 46.234678], [6.060263, 46.23459], [6.060188, 46.234414], [6.059419, 46.233065], [6.059345, 46.23302], [6.059147, 46.23301], [6.058762, 46.233168], [6.058171, 46.233298], [6.057956, 46.233253], [6.057729, 46.233168], [6.057647, 46.233021], [6.0575, 46.232974], [6.057438, 46.232867], [6.05746, 46.232709], [6.05733, 46.232659], [6.057174, 46.232555], [6.057074, 46.232455], [6.057101, 46.23245], [6.056639, 46.232074], [6.056438, 46.231872], [6.055681, 46.230557], [6.05558, 46.23045], [6.055246, 46.230334], [6.054863, 46.230327], [6.052596, 46.230164], [6.05252, 46.230142], [6.05221, 46.229928], [6.052094, 46.229815], [6.051646, 46.229109], [6.05156, 46.229055], [6.051337, 46.229009], [6.050865, 46.228978], [6.050698, 46.229007], [6.0464, 46.230818], [6.046253, 46.23095], [6.046071, 46.231404], [6.046148, 46.231579], [6.04632, 46.231768], [6.046351, 46.231842], [6.04625, 46.231913], [6.045869, 46.232035], [6.045311, 46.232283], [6.045404, 46.232355], [6.045441, 46.232423], [6.045393, 46.232443], [6.045451, 46.232429], [6.045443, 46.232453]]}, "properties": {"name": "1790834434.Thursday_Morning_Cycle", "cmt": "2026-10-01", "tstamp": 1790812800, "desc": "---", "src": "6.045311/46.228978/6.194734/46.331811", "bbox": "6.045311/46.228978/6.194734/46.331811"}}]}