{"type": "FeatureCollection", "name": "TrackSet", "crs": {"type": "name", "properties": {"name": "urn:ogc:def:crs:OGC:1.3:CRS84"}}, "bbox": [6.045124, 46.213664, 6.199844, 46.331796], "features": [{"type": "Feature", "bbox": [6.045124, 46.213664, 6.199844, 46.331796], "geometry": {"type": "LineString", "coordinates": [[6.045375, 46.23245], [6.045362, 46.232522], [6.045402, 46.232486], [6.04539, 46.232458], [6.045235, 46.232311], [6.045183, 46.232133], [6.045124, 46.232045], [6.045206, 46.231975], [6.045654, 46.231758], [6.045864, 46.231627], [6.046034, 46.231359], [6.046193, 46.230974], [6.04633, 46.23083], [6.047852, 46.230161], [6.050542, 46.229061], [6.050773, 46.228994], [6.050897, 46.228989], [6.05116, 46.228997], [6.051632, 46.229075], [6.051783, 46.229197], [6.051907, 46.229458], [6.051962, 46.229493], [6.052056, 46.229499], [6.052334, 46.229409], [6.05262, 46.229349], [6.052664, 46.229328], [6.052676, 46.229241], [6.05275, 46.229223], [6.052756, 46.22924], [6.052962, 46.229161], [6.053159, 46.229163], [6.053481, 46.229215], [6.053755, 46.229186], [6.054152, 46.229093], [6.054856, 46.228871], [6.056043, 46.228595], [6.057373, 46.228221], [6.057417, 46.228179], [6.057366, 46.228046], [6.057552, 46.227864], [6.057551, 46.227812], [6.057461, 46.227738], [6.056597, 46.227326], [6.055588, 46.226754], [6.055545, 46.226691], [6.05557, 46.226642], [6.055747, 46.226502], [6.059007, 46.225647], [6.059204, 46.225637], [6.059468, 46.22568], [6.059664, 46.225536], [6.060004, 46.225484], [6.060365, 46.22531], [6.061622, 46.224958], [6.062227, 46.224827], [6.063043, 46.224571], [6.06642, 46.223646], [6.067694, 46.22332], [6.067951, 46.223282], [6.068112, 46.223335], [6.068182, 46.223334], [6.068518, 46.22309], [6.069316, 46.222826], [6.071737, 46.222214], [6.072789, 46.221997], [6.073261, 46.221805], [6.074606, 46.221702], [6.075729, 46.221795], [6.075932, 46.221841], [6.076221, 46.221809], [6.07632, 46.22175], [6.076362, 46.221562], [6.076213, 46.221403], [6.076124, 46.221025], [6.075936, 46.220825], [6.075474, 46.220576], [6.075439, 46.220517], [6.075455, 46.22048], [6.075637, 46.220317], [6.076424, 46.219898], [6.076942, 46.219546], [6.078532, 46.218058], [6.078658, 46.217837], [6.078789, 46.216897], [6.07883, 46.216835], [6.078906, 46.216794], [6.079207, 46.216758], [6.079396, 46.216769], [6.08033, 46.216725], [6.080602, 46.216733], [6.083129, 46.217068], [6.083599, 46.2171], [6.083859, 46.217084], [6.084004, 46.217051], [6.084014, 46.217091], [6.084011, 46.217067], [6.084662, 46.216982], [6.084937, 46.216906], [6.085219, 46.216796], [6.085489, 46.216656], [6.086059, 46.216265], [6.086158, 46.216245], [6.086352, 46.216257], [6.086533, 46.216337], [6.086744, 46.216506], [6.087277, 46.216843], [6.088939, 46.218051], [6.089269, 46.218241], [6.089737, 46.218442], [6.09015, 46.218583], [6.091451, 46.218879], [6.092376, 46.218968], [6.092723, 46.218973], [6.093024, 46.219068], [6.093494, 46.219041], [6.094493, 46.21885], [6.094616, 46.218814], [6.094619, 46.218737], [6.094707, 46.218711], [6.094705, 46.218754], [6.09468, 46.21876], [6.094573, 46.218658], [6.09427, 46.218232], [6.094157, 46.217985], [6.094162, 46.217932], [6.094253, 46.21805], [6.094367, 46.218095], [6.094606, 46.218076], [6.094736, 46.218002], [6.094756, 46.217933], [6.094734, 46.217866], [6.094631, 46.217746], [6.094643, 46.217615], [6.094756, 46.217506], [6.094838, 46.217468], [6.09534, 46.217305], [6.095397, 46.21724], [6.095411, 46.217159], [6.095378, 46.216936], [6.095456, 46.216796], [6.097213, 46.215644], [6.097355, 46.215602], [6.097436, 46.215629], [6.097561, 46.215731], [6.098529, 46.216336], [6.098721, 46.216393], [6.098909, 46.216379], [6.099056, 46.216314], [6.099482, 46.215934], [6.100263, 46.215413], [6.100893, 46.215028], [6.101414, 46.214763], [6.102951, 46.213664], [6.103193, 46.213833], [6.103321, 46.21377], [6.103373, 46.21377], [6.103425, 46.213804], [6.104424, 46.214906], [6.105054, 46.215376], [6.105407, 46.215543], [6.105572, 46.215682], [6.105524, 46.215764], [6.105416, 46.21583], [6.104893, 46.216283], [6.104836, 46.216377], [6.104767, 46.216343], [6.104689, 46.216386], [6.104074, 46.21689], [6.103789, 46.217173], [6.103412, 46.217439], [6.10312, 46.217746], [6.102666, 46.218066], [6.102644, 46.218115], [6.102622, 46.218098], [6.102629, 46.218134], [6.10251, 46.218184], [6.102504, 46.218291], [6.102631, 46.218482], [6.102617, 46.218629], [6.10272, 46.218687], [6.102735, 46.218736], [6.102811, 46.218797], [6.10292, 46.218802], [6.103005, 46.21875], [6.103064, 46.218671], [6.103043, 46.218699], [6.102884, 46.218727], [6.102878, 46.218771], [6.102769, 46.218768], [6.102741, 46.218735], [6.102586, 46.218891], [6.102415, 46.218994], [6.102243, 46.219029], [6.101932, 46.219142], [6.101946, 46.219102], [6.101952, 46.219137], [6.102002, 46.219141], [6.102082, 46.219061], [6.102069, 46.219027], [6.102223, 46.21881], [6.102139, 46.218597], [6.102235, 46.218501], [6.10234, 46.2185], [6.102445, 46.218586], [6.10252, 46.218604], [6.102606, 46.218688], [6.102783, 46.218892], [6.102797, 46.218948], [6.103105, 46.218985], [6.103136, 46.219039], [6.103299, 46.219072], [6.103237, 46.218728], [6.103275, 46.218676], [6.103383, 46.218674], [6.103379, 46.218789], [6.103253, 46.218816], [6.103251, 46.218799], [6.103212, 46.218808], [6.103068, 46.218772], [6.102986, 46.218839], [6.103059, 46.218967], [6.103179, 46.219026], [6.103218, 46.219009], [6.103065, 46.219097], [6.102828, 46.219099], [6.102765, 46.219078], [6.102533, 46.218837], [6.102493, 46.218832], [6.102997, 46.218848], [6.102962, 46.21887], [6.102882, 46.21886], [6.102901, 46.218839], [6.102903, 46.21886], [6.102877, 46.21885], [6.102926, 46.21895], [6.102869, 46.218981], [6.102883, 46.219065], [6.102837, 46.219109], [6.102886, 46.219125], [6.103089, 46.219536], [6.103838, 46.220329], [6.104089, 46.220507], [6.104153, 46.220621], [6.10414, 46.220729], [6.104073, 46.220829], [6.103834, 46.220945], [6.103669, 46.221111], [6.103002, 46.221559], [6.102946, 46.221639], [6.102961, 46.221734], [6.103991, 46.222481], [6.105076, 46.223194], [6.105233, 46.223264], [6.105617, 46.223545], [6.105725, 46.223657], [6.105992, 46.223836], [6.106243, 46.223962], [6.106363, 46.22409], [6.106894, 46.224425], [6.107171, 46.224558], [6.107438, 46.224763], [6.107525, 46.224758], [6.107552, 46.224712], [6.107793, 46.224535], [6.108189, 46.2243], [6.108546, 46.224016], [6.108616, 46.223858], [6.108773, 46.223755], [6.108941, 46.223846], [6.109024, 46.223819], [6.109327, 46.224], [6.109612, 46.224063], [6.109676, 46.224097], [6.111189, 46.225045], [6.111961, 46.225633], [6.112767, 46.226295], [6.113264, 46.2268], [6.114147, 46.227864], [6.116006, 46.229782], [6.116248, 46.230006], [6.11663, 46.230275], [6.11681, 46.23039], [6.117198, 46.23057], [6.121073, 46.232185], [6.122432, 46.232904], [6.123153, 46.233202], [6.123532, 46.233307], [6.12381, 46.23347], [6.124309, 46.234133], [6.125131, 46.235063], [6.125419, 46.235328], [6.125631, 46.235571], [6.125913, 46.235799], [6.126305, 46.236181], [6.126684, 46.236583], [6.127063, 46.237085], [6.127506, 46.237585], [6.127861, 46.238129], [6.127966, 46.238402], [6.128492, 46.24041], [6.128501, 46.241381], [6.128541, 46.241705], [6.129072, 46.242968], [6.129118, 46.243283], [6.129095, 46.24363], [6.129131, 46.2437], [6.129267, 46.243741], [6.129645, 46.243784], [6.130395, 46.243739], [6.130704, 46.243741], [6.131014, 46.243772], [6.136333, 46.244822], [6.1374, 46.245024], [6.137498, 46.245019], [6.137593, 46.244977], [6.137654, 46.24491], [6.137753, 46.244701], [6.137947, 46.244464], [6.138563, 46.244021], [6.13927, 46.243727], [6.139815, 46.243441], [6.140853, 46.242954], [6.141316, 46.242764], [6.141888, 46.242579], [6.142736, 46.242372], [6.143469, 46.242091], [6.143512, 46.242118], [6.143602, 46.242304], [6.143682, 46.242363], [6.144135, 46.242555], [6.144982, 46.243138], [6.145441, 46.243389], [6.145756, 46.243454], [6.146041, 46.243449], [6.146445, 46.243411], [6.146644, 46.243372], [6.146775, 46.243318], [6.146711, 46.243362], [6.146362, 46.243418], [6.146343, 46.243485], [6.146904, 46.244381], [6.14706, 46.244538], [6.14713, 46.244503], [6.147155, 46.244448], [6.147204, 46.243272], [6.147289, 46.243205], [6.14796, 46.24288], [6.14884, 46.242651], [6.150358, 46.242339], [6.150472, 46.242341], [6.151081, 46.242482], [6.151276, 46.242398], [6.151432, 46.242399], [6.151662, 46.242474], [6.151899, 46.242395], [6.152165, 46.242494], [6.152157, 46.242595], [6.152015, 46.242768], [6.151923, 46.243075], [6.151916, 46.243216], [6.15192, 46.243357], [6.152037, 46.243545], [6.15208, 46.243749], [6.152159, 46.244453], [6.152129, 46.245071], [6.152086, 46.245273], [6.151811, 46.246067], [6.151633, 46.246311], [6.151546, 46.246659], [6.151031, 46.248038], [6.150912, 46.248514], [6.150924, 46.249095], [6.151176, 46.251122], [6.151289, 46.251491], [6.151653, 46.25203], [6.152149, 46.252499], [6.155282, 46.255052], [6.155707, 46.255423], [6.156062, 46.255811], [6.156127, 46.255935], [6.156538, 46.257227], [6.156805, 46.257793], [6.1571, 46.258286], [6.157701, 46.259062], [6.161121, 46.263188], [6.161528, 46.263745], [6.161866, 46.264341], [6.165723, 46.270444], [6.166752, 46.272348], [6.167362, 46.273609], [6.167514, 46.27401], [6.167779, 46.274292], [6.168335, 46.274666], [6.16868, 46.27497], [6.169432, 46.275881], [6.169625, 46.276244], [6.169634, 46.276434], [6.169212, 46.277049], [6.168678, 46.27794], [6.167086, 46.280375], [6.166415, 46.281312], [6.166078, 46.28172], [6.16585, 46.282135], [6.165863, 46.2845], [6.165806, 46.28539], [6.165816, 46.286446], [6.165733, 46.288317], [6.165729, 46.288818], [6.16576, 46.289077], [6.165719, 46.289667], [6.165799, 46.289898], [6.165804, 46.292303], [6.165873, 46.292756], [6.166092, 46.293395], [6.166887, 46.294757], [6.167133, 46.295249], [6.167741, 46.296225], [6.168412, 46.296993], [6.168739, 46.297243], [6.168997, 46.297352], [6.169065, 46.297405], [6.169169, 46.297521], [6.169315, 46.297771], [6.1701, 46.298359], [6.17105, 46.298955], [6.171829, 46.299371], [6.172438, 46.299656], [6.172946, 46.299958], [6.174786, 46.300857], [6.175289, 46.301139], [6.177533, 46.302548], [6.178665, 46.303381], [6.179652, 46.304203], [6.179942, 46.304463], [6.180185, 46.30474], [6.180653, 46.305067], [6.180762, 46.305282], [6.181142, 46.305613], [6.182015, 46.306536], [6.183687, 46.30849], [6.183849, 46.3086], [6.184865, 46.309653], [6.187989, 46.313005], [6.188356, 46.313297], [6.188966, 46.313658], [6.192742, 46.315782], [6.193147, 46.316097], [6.193596, 46.316602], [6.193679, 46.316754], [6.194219, 46.317308], [6.197763, 46.323645], [6.198972, 46.326389], [6.199844, 46.327824], [6.199839, 46.327885], [6.199784, 46.327934], [6.199709, 46.327955], [6.199401, 46.327931], [6.19926, 46.327959], [6.197511, 46.328609], [6.195843, 46.329152], [6.193652, 46.329597], [6.19331, 46.329693], [6.193214, 46.329803], [6.19319, 46.330111], [6.193247, 46.330153], [6.1933, 46.330157], [6.193789, 46.330082], [6.193931, 46.330086], [6.193995, 46.330113], [6.194103, 46.330249], [6.194578, 46.331198], [6.19474, 46.331581], [6.194726, 46.331667], [6.194381, 46.331792], [6.194308, 46.331796], [6.194256, 46.331739]]}, "properties": {"name": "1790094584.Tuesday_Evening_Cycle", "cmt": "2026-09-22", "tstamp": 1790035200, "desc": "---", "src": "6.045124/46.213664/6.199844/46.331796", "bbox": "6.045124/46.213664/6.199844/46.331796"}}]}