{"type": "FeatureCollection", "name": "TrackSet", "crs": {"type": "name", "properties": {"name": "urn:ogc:def:crs:OGC:1.3:CRS84"}}, "bbox": [6.04532, 46.228975, 6.194757, 46.331775], "features": [{"type": "Feature", "bbox": [6.04532, 46.228975, 6.194757, 46.331775], "geometry": {"type": "LineString", "coordinates": [[6.194124, 46.331721], [6.194275, 46.331651], [6.194242, 46.331661], [6.194247, 46.331689], [6.194242, 46.331661], [6.194275, 46.33167], [6.194361, 46.331775], [6.194665, 46.331691], [6.194757, 46.331586], [6.194441, 46.330926], [6.193982, 46.330141], [6.193864, 46.330098], [6.193177, 46.330193], [6.1931, 46.330243], [6.193072, 46.330324], [6.193013, 46.330382], [6.192787, 46.330523], [6.192114, 46.330786], [6.192008, 46.330796], [6.191904, 46.330755], [6.191702, 46.33017], [6.191312, 46.329741], [6.191125, 46.329622], [6.190491, 46.328967], [6.190062, 46.32862], [6.189658, 46.328338], [6.188929, 46.32795], [6.188641, 46.327725], [6.18697, 46.326192], [6.186651, 46.325721], [6.186219, 46.325185], [6.184336, 46.323381], [6.183988, 46.323145], [6.183636, 46.323005], [6.183172, 46.322933], [6.181917, 46.322843], [6.181664, 46.322781], [6.181558, 46.322726], [6.181441, 46.322614], [6.181264, 46.32236], [6.181035, 46.321882], [6.180616, 46.321128], [6.180424, 46.320958], [6.180013, 46.320742], [6.179863, 46.320574], [6.179722, 46.320529], [6.178806, 46.320509], [6.178208, 46.320631], [6.177496, 46.320698], [6.17682, 46.320793], [6.176327, 46.320901], [6.176233, 46.320952], [6.176128, 46.320846], [6.175986, 46.320316], [6.175854, 46.320081], [6.17572, 46.320032], [6.175383, 46.320012], [6.174451, 46.320025], [6.174226, 46.319996], [6.173733, 46.319253], [6.173459, 46.318221], [6.173284, 46.318014], [6.172539, 46.317563], [6.171425, 46.317174], [6.170487, 46.316926], [6.170183, 46.316757], [6.169465, 46.315872], [6.168133, 46.314916], [6.167497, 46.314293], [6.167257, 46.313984], [6.166872, 46.313293], [6.166708, 46.313056], [6.165932, 46.312286], [6.165338, 46.311891], [6.165033, 46.311645], [6.164722, 46.311223], [6.164208, 46.310385], [6.163896, 46.31006], [6.163641, 46.309829], [6.16341, 46.309665], [6.162866, 46.309354], [6.162364, 46.309153], [6.161671, 46.308714], [6.161405, 46.308494], [6.161274, 46.308417], [6.161119, 46.308366], [6.161066, 46.308321], [6.161047, 46.308261], [6.161131, 46.308166], [6.161487, 46.30807], [6.16182, 46.307908], [6.162946, 46.307445], [6.163034, 46.307391], [6.163073, 46.307312], [6.162992, 46.306922], [6.16276, 46.306764], [6.162707, 46.3067], [6.162555, 46.306437], [6.162517, 46.306306], [6.162675, 46.305728], [6.162626, 46.304552], [6.162536, 46.304165], [6.162253, 46.303479], [6.162218, 46.303228], [6.162238, 46.303043], [6.162383, 46.302687], [6.162442, 46.302435], [6.162519, 46.301936], [6.162499, 46.3018], [6.162329, 46.301555], [6.162208, 46.301249], [6.162057, 46.301012], [6.161806, 46.30067], [6.161475, 46.300359], [6.161392, 46.300339], [6.161186, 46.30037], [6.160956, 46.30054], [6.160774, 46.300602], [6.160615, 46.300607], [6.16, 46.300518], [6.158746, 46.300211], [6.157874, 46.299916], [6.157597, 46.299772], [6.156943, 46.299506], [6.155855, 46.298982], [6.155153, 46.298468], [6.154532, 46.297935], [6.154475, 46.297911], [6.154335, 46.297933], [6.153799, 46.298232], [6.153627, 46.298251], [6.153506, 46.298168], [6.153441, 46.298068], [6.153257, 46.297897], [6.15074, 46.295711], [6.150279, 46.295237], [6.149805, 46.294842], [6.14962, 46.294634], [6.149425, 46.294502], [6.149281, 46.294527], [6.148744, 46.294779], [6.146186, 46.296163], [6.145803, 46.2964], [6.145729, 46.296421], [6.145677, 46.296478], [6.145592, 46.296492], [6.145384, 46.296595], [6.144298, 46.29721], [6.143709, 46.29751], [6.143579, 46.297521], [6.143527, 46.297493], [6.143355, 46.297273], [6.142463, 46.296317], [6.139519, 46.293267], [6.138663, 46.2924], [6.138571, 46.292314], [6.138502, 46.29229], [6.138429, 46.292296], [6.137945, 46.292479], [6.137328, 46.292855], [6.135544, 46.294169], [6.134147, 46.295379], [6.133526, 46.295804], [6.132005, 46.296634], [6.131809, 46.296713], [6.131715, 46.296677], [6.131642, 46.296487], [6.131618, 46.296236], [6.131359, 46.295131], [6.130943, 46.29364], [6.13028, 46.290956], [6.130177, 46.290674], [6.129973, 46.290414], [6.129431, 46.290263], [6.129325, 46.290257], [6.128561, 46.290078], [6.127621, 46.289924], [6.127262, 46.289828], [6.126876, 46.289795], [6.126331, 46.289699], [6.125992, 46.289587], [6.125693, 46.289402], [6.125485, 46.289182], [6.125469, 46.289099], [6.125561, 46.288772], [6.125527, 46.288548], [6.125548, 46.28839], [6.125524, 46.288036], [6.125426, 46.287802], [6.125252, 46.287637], [6.124223, 46.286889], [6.121848, 46.285051], [6.118857, 46.28293], [6.118311, 46.282576], [6.114592, 46.280315], [6.114339, 46.280006], [6.114171, 46.279116], [6.113669, 46.278133], [6.113529, 46.277922], [6.112873, 46.27742], [6.112648, 46.277204], [6.112478, 46.277114], [6.112198, 46.277024], [6.111474, 46.276884], [6.111221, 46.276782], [6.109642, 46.275567], [6.109094, 46.275073], [6.109009, 46.274966], [6.10894, 46.274846], [6.108892, 46.274602], [6.108828, 46.274495], [6.108609, 46.274348], [6.108306, 46.274237], [6.108071, 46.274106], [6.107598, 46.273706], [6.107413, 46.273444], [6.106815, 46.272828], [6.10571, 46.271444], [6.105487, 46.27121], [6.105079, 46.271065], [6.104647, 46.27101], [6.104003, 46.270969], [6.103432, 46.27081], [6.102902, 46.270631], [6.102759, 46.270612], [6.101874, 46.270824], [6.101565, 46.270877], [6.101246, 46.270976], [6.100759, 46.271063], [6.100427, 46.271158], [6.100324, 46.27115], [6.100205, 46.271074], [6.099558, 46.270279], [6.099077, 46.269847], [6.098762, 46.269733], [6.09853, 46.269737], [6.098401, 46.269703], [6.09825, 46.269508], [6.098097, 46.269459], [6.097798, 46.269303], [6.097599, 46.269242], [6.097218, 46.269007], [6.096887, 46.268713], [6.096284, 46.268069], [6.09618, 46.26791], [6.095977, 46.267727], [6.095974, 46.267616], [6.096103, 46.267452], [6.096114, 46.267199], [6.095848, 46.266407], [6.095746, 46.266172], [6.095528, 46.26581], [6.095138, 46.265323], [6.094894, 46.264633], [6.094747, 46.264481], [6.09441, 46.264014], [6.094222, 46.263816], [6.094081, 46.263713], [6.093834, 46.263613], [6.093779, 46.263447], [6.093574, 46.263156], [6.092902, 46.26235], [6.092821, 46.262143], [6.092728, 46.261537], [6.092442, 46.260959], [6.092366, 46.26074], [6.092362, 46.259976], [6.092333, 46.259662], [6.092276, 46.259511], [6.09172, 46.259083], [6.091307, 46.258638], [6.091204, 46.258439], [6.090419, 46.257826], [6.090038, 46.257582], [6.08998, 46.257498], [6.089897, 46.257498], [6.089853, 46.25747], [6.088916, 46.256814], [6.088749, 46.256619], [6.088484, 46.256088], [6.088011, 46.255521], [6.087672, 46.25525], [6.087566, 46.254932], [6.087456, 46.25474], [6.087464, 46.254686], [6.087697, 46.254481], [6.088523, 46.254011], [6.088649, 46.253919], [6.08866, 46.253866], [6.088605, 46.253826], [6.088522, 46.253809], [6.088042, 46.253815], [6.087715, 46.253766], [6.087137, 46.253728], [6.086391, 46.253561], [6.08611, 46.253475], [6.085906, 46.253454], [6.085558, 46.253302], [6.083751, 46.252165], [6.08368, 46.252015], [6.083405, 46.251875], [6.08336, 46.251774], [6.083616, 46.251402], [6.08361, 46.251335], [6.0835, 46.251214], [6.083066, 46.2509], [6.082773, 46.250768], [6.082318, 46.250512], [6.08202, 46.250277], [6.081891, 46.25024], [6.081555, 46.249982], [6.081138, 46.249722], [6.080854, 46.249588], [6.080752, 46.249488], [6.080706, 46.249287], [6.080348, 46.248639], [6.080343, 46.248299], [6.080259, 46.248044], [6.079892, 46.247561], [6.079746, 46.24745], [6.079735, 46.247411], [6.079762, 46.247369], [6.080777, 46.246659], [6.08102, 46.246443], [6.081086, 46.246313], [6.081073, 46.246177], [6.081172, 46.246062], [6.081365, 46.246017], [6.08165, 46.246046], [6.081721, 46.245933], [6.08187, 46.245872], [6.081897, 46.245837], [6.081881, 46.245797], [6.081795, 46.245726], [6.081055, 46.245504], [6.080355, 46.24545], [6.079772, 46.245343], [6.079492, 46.245242], [6.079199, 46.245099], [6.078824, 46.244873], [6.07851, 46.244591], [6.078091, 46.244286], [6.077883, 46.244197], [6.077695, 46.244058], [6.076932, 46.243601], [6.075953, 46.242956], [6.075139, 46.242379], [6.075067, 46.242353], [6.074905, 46.242376], [6.074499, 46.242695], [6.074353, 46.242724], [6.074279, 46.2427], [6.073755, 46.242199], [6.07306, 46.241314], [6.073034, 46.241207], [6.073073, 46.241104], [6.07304, 46.241065], [6.07246, 46.240675], [6.071858, 46.240227], [6.070972, 46.239637], [6.07085, 46.23963], [6.070649, 46.239834], [6.070062, 46.240226], [6.069915, 46.240246], [6.069765, 46.240202], [6.068992, 46.239531], [6.068827, 46.23937], [6.068646, 46.239131], [6.068354, 46.238968], [6.068304, 46.238914], [6.067067, 46.237423], [6.066306, 46.23636], [6.064824, 46.235312], [6.064311, 46.234811], [6.063527, 46.234254], [6.063096, 46.233888], [6.062961, 46.233839], [6.062872, 46.233846], [6.061958, 46.234274], [6.060485, 46.234684], [6.060349, 46.234656], [6.059457, 46.233084], [6.059402, 46.233032], [6.059314, 46.233002], [6.059214, 46.233004], [6.058917, 46.233127], [6.058298, 46.233282], [6.058153, 46.233291], [6.057875, 46.233189], [6.057801, 46.233183], [6.057716, 46.233034], [6.057518, 46.232983], [6.057453, 46.232828], [6.057504, 46.232735], [6.057496, 46.232681], [6.057121, 46.232481], [6.057095, 46.232427], [6.056527, 46.231936], [6.056439, 46.231827], [6.056297, 46.231536], [6.055678, 46.2305], [6.055555, 46.230414], [6.055242, 46.230313], [6.054881, 46.230308], [6.052577, 46.230142], [6.052145, 46.229847], [6.05181, 46.229293], [6.05164, 46.229084], [6.051436, 46.22901], [6.050936, 46.228975], [6.050763, 46.228991], [6.04636, 46.230837], [6.046276, 46.230936], [6.046073, 46.23142], [6.046332, 46.231831], [6.046252, 46.231912], [6.045995, 46.231992], [6.045473, 46.232221], [6.045323, 46.232263], [6.04532, 46.232293], [6.045438, 46.232354], [6.045463, 46.232428], [6.045406, 46.23244], [6.045444, 46.232449], [6.045415, 46.232471], [6.045461, 46.232491], [6.045429, 46.232488]]}, "properties": {"name": "1791352426.Wednesday_Morning_Cycle", "cmt": "2026-10-07", "tstamp": 1791331200, "desc": "---", "src": "6.04532/46.228975/6.194757/46.331775", "bbox": "6.04532/46.228975/6.194757/46.331775"}}]}