{"type": "FeatureCollection", "name": "TrackSet", "crs": {"type": "name", "properties": {"name": "urn:ogc:def:crs:OGC:1.3:CRS84"}}, "bbox": [6.193105, 46.327736, 6.238352, 46.378442], "features": [{"type": "Feature", "bbox": [6.193105, 46.327736, 6.238352, 46.378442], "geometry": {"type": "LineString", "coordinates": [[6.194203, 46.331678], [6.194316, 46.331677], [6.194189, 46.331732], [6.194377, 46.33184], [6.194423, 46.331775], [6.19434, 46.331775], [6.19445, 46.331776], [6.194627, 46.331732], [6.194724, 46.331638], [6.194531, 46.331149], [6.194058, 46.330257], [6.193964, 46.33013], [6.19382, 46.330097], [6.193607, 46.330145], [6.193216, 46.330177], [6.193121, 46.330144], [6.193105, 46.330041], [6.193149, 46.329818], [6.193209, 46.3297], [6.193269, 46.329649], [6.193449, 46.329578], [6.195397, 46.329228], [6.195989, 46.329087], [6.19733, 46.328643], [6.199749, 46.327736], [6.199888, 46.327778], [6.2, 46.327967], [6.200211, 46.328102], [6.201055, 46.329127], [6.201366, 46.329579], [6.201952, 46.33068], [6.202183, 46.331279], [6.202388, 46.332065], [6.202459, 46.332696], [6.202486, 46.334204], [6.202446, 46.334897], [6.202479, 46.33546], [6.202617, 46.336295], [6.202803, 46.336971], [6.203014, 46.337513], [6.203416, 46.338302], [6.204206, 46.339503], [6.204649, 46.340105], [6.205045, 46.340843], [6.20531, 46.341573], [6.205646, 46.342791], [6.206435, 46.3463], [6.206973, 46.348346], [6.207121, 46.348779], [6.20751, 46.34959], [6.207779, 46.35005], [6.208223, 46.350693], [6.209171, 46.351801], [6.215586, 46.358448], [6.215855, 46.358762], [6.216078, 46.358892], [6.216169, 46.359005], [6.21786, 46.360532], [6.218574, 46.361244], [6.219217, 46.361967], [6.220037, 46.363008], [6.222173, 46.366059], [6.222602, 46.366577], [6.223193, 46.367188], [6.223872, 46.367759], [6.225103, 46.368601], [6.226371, 46.369258], [6.228849, 46.37048], [6.229497, 46.370863], [6.230115, 46.371267], [6.230596, 46.371639], [6.231016, 46.372009], [6.232865, 46.373719], [6.235145, 46.376651], [6.235376, 46.376838], [6.235639, 46.376999], [6.237589, 46.37792], [6.238048, 46.378187], [6.238298, 46.378261], [6.238347, 46.378301], [6.238352, 46.378354], [6.238312, 46.378407], [6.238164, 46.378442], [6.238074, 46.378426], [6.237701, 46.378074], [6.237352, 46.377885], [6.235701, 46.377094], [6.235226, 46.376822], [6.234872, 46.376468], [6.234083, 46.375426], [6.233576, 46.374796], [6.233403, 46.374624], [6.2327, 46.373724], [6.231989, 46.373022], [6.23168, 46.372796], [6.231588, 46.372664], [6.230479, 46.371705], [6.230068, 46.371401], [6.229439, 46.370977], [6.228665, 46.37052], [6.227269, 46.369874], [6.226927, 46.36965], [6.225442, 46.368926], [6.224906, 46.368628], [6.223949, 46.367998], [6.223167, 46.367359], [6.222634, 46.366824], [6.222109, 46.366188], [6.219722, 46.362837], [6.219208, 46.362179], [6.21858, 46.361456], [6.217848, 46.360694], [6.216747, 46.359681], [6.216123, 46.359156], [6.215744, 46.358956], [6.21571, 46.358734], [6.215664, 46.358666], [6.215211, 46.358274], [6.214377, 46.357429], [6.211042, 46.353929], [6.210252, 46.353145], [6.208901, 46.351731], [6.208112, 46.350818], [6.207674, 46.350202], [6.207268, 46.349486], [6.206943, 46.348753], [6.206734, 46.348168], [6.205343, 46.342267], [6.205171, 46.341631], [6.204962, 46.341014], [6.204683, 46.340344], [6.204394, 46.339836], [6.203618, 46.338777], [6.203191, 46.338078], [6.202836, 46.337333], [6.202534, 46.336435], [6.202431, 46.335983], [6.202375, 46.335539], [6.202351, 46.334876], [6.202388, 46.333062], [6.202354, 46.33253], [6.202254, 46.331802], [6.202086, 46.331244], [6.201581, 46.330174], [6.201235, 46.329583], [6.200388, 46.328492], [6.20006, 46.328111], [6.199944, 46.328017], [6.199795, 46.327951], [6.19954, 46.327917], [6.199376, 46.327929], [6.197446, 46.328639], [6.19594, 46.329128], [6.195391, 46.329267], [6.193494, 46.329631], [6.193295, 46.329699], [6.193198, 46.329841], [6.193197, 46.330138], [6.193302, 46.330158], [6.193756, 46.330085], [6.193979, 46.330087], [6.194039, 46.330125], [6.19411, 46.330235], [6.194436, 46.330862], [6.194755, 46.331643], [6.194654, 46.331706], [6.194327, 46.331792], [6.194293, 46.331791], [6.194249, 46.331744], [6.19428, 46.331708], [6.194253, 46.331727], [6.194217, 46.331703]]}, "properties": {"name": "1791265804.Tuesday_Morning_Cycle", "cmt": "2026-10-06", "tstamp": 1791244800, "desc": "---", "src": "6.193105/46.327736/6.238352/46.378442", "bbox": "6.193105/46.327736/6.238352/46.378442"}}]}