{"type": "FeatureCollection", "name": "TrackSet", "crs": {"type": "name", "properties": {"name": "urn:ogc:def:crs:OGC:1.3:CRS84"}}, "bbox": [6.045303, 46.228978, 6.194736, 46.331758], "features": [{"type": "Feature", "bbox": [6.045303, 46.228978, 6.194736, 46.331758], "geometry": {"type": "LineString", "coordinates": [[6.194157, 46.331659], [6.194345, 46.331758], [6.194446, 46.331757], [6.194703, 46.331669], [6.194736, 46.331633], [6.194729, 46.331574], [6.194099, 46.330349], [6.193985, 46.330167], [6.193903, 46.33009], [6.193156, 46.330186], [6.193032, 46.330348], [6.192771, 46.330521], [6.192138, 46.330773], [6.192028, 46.330792], [6.191915, 46.330765], [6.191873, 46.330729], [6.191852, 46.330574], [6.191675, 46.330134], [6.191321, 46.329749], [6.191097, 46.329599], [6.190546, 46.329013], [6.189976, 46.328551], [6.189547, 46.328265], [6.189045, 46.328018], [6.188798, 46.327854], [6.187125, 46.32634], [6.186885, 46.326097], [6.186556, 46.325607], [6.186267, 46.325245], [6.184243, 46.323298], [6.183878, 46.323084], [6.183512, 46.322972], [6.183071, 46.32291], [6.182018, 46.322855], [6.181582, 46.322751], [6.181461, 46.322648], [6.181256, 46.32236], [6.180857, 46.321573], [6.180623, 46.321174], [6.180506, 46.321036], [6.179993, 46.320741], [6.179779, 46.320537], [6.179007, 46.320506], [6.178865, 46.320465], [6.178737, 46.320389], [6.178319, 46.319855], [6.178008, 46.319558], [6.177907, 46.319368], [6.177807, 46.31899], [6.17773, 46.318848], [6.177515, 46.318677], [6.177491, 46.318622], [6.176254, 46.317395], [6.175648, 46.31663], [6.174798, 46.315649], [6.174732, 46.315602], [6.174595, 46.315567], [6.174569, 46.315279], [6.174068, 46.312948], [6.173537, 46.310188], [6.173438, 46.309933], [6.173443, 46.309645], [6.173279, 46.309187], [6.173188, 46.30902], [6.172822, 46.30862], [6.172572, 46.308288], [6.17242, 46.308039], [6.172363, 46.307867], [6.172389, 46.30647], [6.172497, 46.30606], [6.172457, 46.305971], [6.172373, 46.3059], [6.171808, 46.305648], [6.171418, 46.305421], [6.170644, 46.30487], [6.170362, 46.304631], [6.170137, 46.304377], [6.16959, 46.303409], [6.169514, 46.303373], [6.169159, 46.30331], [6.168791, 46.303137], [6.165964, 46.301203], [6.165555, 46.300784], [6.164766, 46.299867], [6.164419, 46.299511], [6.164004, 46.299185], [6.163436, 46.298813], [6.162587, 46.298194], [6.162185, 46.29798], [6.161215, 46.297615], [6.160253, 46.297299], [6.15966, 46.297048], [6.158529, 46.296721], [6.158177, 46.296581], [6.157793, 46.296379], [6.15749, 46.296185], [6.156658, 46.295518], [6.155368, 46.29416], [6.155158, 46.293954], [6.154972, 46.29382], [6.15479, 46.29353], [6.154354, 46.293107], [6.154157, 46.292844], [6.15392, 46.292617], [6.153687, 46.292304], [6.153522, 46.292146], [6.153476, 46.292007], [6.153487, 46.291857], [6.153074, 46.290748], [6.151928, 46.288473], [6.151613, 46.287983], [6.151412, 46.287764], [6.151086, 46.28754], [6.150939, 46.287289], [6.147859, 46.284381], [6.14747, 46.283934], [6.147131, 46.283689], [6.146042, 46.282675], [6.145808, 46.282531], [6.145435, 46.282399], [6.144507, 46.282126], [6.14401, 46.282037], [6.142166, 46.281766], [6.141435, 46.281689], [6.141035, 46.281671], [6.140533, 46.281715], [6.13962, 46.281701], [6.139429, 46.281674], [6.139154, 46.281586], [6.138492, 46.281242], [6.136532, 46.280559], [6.136122, 46.280377], [6.135497, 46.280031], [6.135181, 46.279779], [6.134475, 46.278728], [6.134137, 46.278276], [6.133748, 46.277852], [6.133206, 46.277376], [6.132169, 46.276385], [6.131918, 46.276], [6.131758, 46.275589], [6.131731, 46.27538], [6.131791, 46.274957], [6.131694, 46.274616], [6.13147, 46.274354], [6.130755, 46.273717], [6.130499, 46.27354], [6.129601, 46.27315], [6.128824, 46.272721], [6.12842, 46.272461], [6.128097, 46.27233], [6.127211, 46.272091], [6.126609, 46.271994], [6.125987, 46.271863], [6.125679, 46.271867], [6.12561, 46.271848], [6.125418, 46.271634], [6.125135, 46.271455], [6.124704, 46.271064], [6.124472, 46.270915], [6.123588, 46.270614], [6.123169, 46.270446], [6.12241, 46.270064], [6.122179, 46.269886], [6.121631, 46.269249], [6.121626, 46.269127], [6.121703, 46.269021], [6.122597, 46.268436], [6.122965, 46.268231], [6.123286, 46.268108], [6.124248, 46.267849], [6.124549, 46.267746], [6.125081, 46.267447], [6.125274, 46.267226], [6.125301, 46.267044], [6.125149, 46.266368], [6.12482, 46.265677], [6.124731, 46.265209], [6.124711, 46.264986], [6.124754, 46.264468], [6.124716, 46.263984], [6.124732, 46.263514], [6.124606, 46.263476], [6.121465, 46.261777], [6.121117, 46.261628], [6.120839, 46.261441], [6.119534, 46.260759], [6.118289, 46.260043], [6.117827, 46.259818], [6.116917, 46.259308], [6.116142, 46.25893], [6.114438, 46.257993], [6.113172, 46.257325], [6.112937, 46.257224], [6.111953, 46.256677], [6.111621, 46.256445], [6.111248, 46.256136], [6.110978, 46.255844], [6.11077, 46.255545], [6.1105, 46.255238], [6.110067, 46.254899], [6.109841, 46.254764], [6.108925, 46.254356], [6.107346, 46.253785], [6.106837, 46.253544], [6.106599, 46.253404], [6.105412, 46.252643], [6.104688, 46.252122], [6.101871, 46.250204], [6.101596, 46.250084], [6.101338, 46.249867], [6.100878, 46.24956], [6.09905, 46.248409], [6.097077, 46.247088], [6.096184, 46.246454], [6.095991, 46.246355], [6.095914, 46.246213], [6.095748, 46.24614], [6.095064, 46.245652], [6.094805, 46.245502], [6.094681, 46.245475], [6.094594, 46.245507], [6.094386, 46.245259], [6.094342, 46.245163], [6.094107, 46.244958], [6.092908, 46.244159], [6.088486, 46.241154], [6.08828, 46.241038], [6.088174, 46.240915], [6.085268, 46.23898], [6.085153, 46.238792], [6.084707, 46.238575], [6.083538, 46.237786], [6.083046, 46.237498], [6.082974, 46.23748], [6.082886, 46.237494], [6.082821, 46.237541], [6.08251, 46.237827], [6.081014, 46.238899], [6.080701, 46.239183], [6.080262, 46.239503], [6.079804, 46.23992], [6.079392, 46.24025], [6.079207, 46.240354], [6.079096, 46.240385], [6.078855, 46.240376], [6.078648, 46.240291], [6.078368, 46.240053], [6.077066, 46.23917], [6.076962, 46.239014], [6.076148, 46.238462], [6.075601, 46.238166], [6.075223, 46.237865], [6.074786, 46.237613], [6.074507, 46.237399], [6.074357, 46.237322], [6.074264, 46.237312], [6.07417, 46.237344], [6.073955, 46.237538], [6.072535, 46.238483], [6.072332, 46.238651], [6.070071, 46.2402], [6.069914, 46.240248], [6.06974, 46.240201], [6.068891, 46.239454], [6.068631, 46.239146], [6.068328, 46.238963], [6.068274, 46.238906], [6.067336, 46.237795], [6.067035, 46.237404], [6.066512, 46.236627], [6.066272, 46.236332], [6.064771, 46.235281], [6.06433, 46.234838], [6.06352, 46.234275], [6.063046, 46.233887], [6.062981, 46.233854], [6.062821, 46.233853], [6.062571, 46.233993], [6.061991, 46.234256], [6.060486, 46.234683], [6.060331, 46.234656], [6.060277, 46.234606], [6.059413, 46.23305], [6.059338, 46.233006], [6.059141, 46.232998], [6.058762, 46.233153], [6.058166, 46.233285], [6.057782, 46.233163], [6.057734, 46.233135], [6.057662, 46.233005], [6.057502, 46.232969], [6.057425, 46.232843], [6.057468, 46.23272], [6.057448, 46.232682], [6.057169, 46.232545], [6.056477, 46.231911], [6.056238, 46.231452], [6.055627, 46.230462], [6.055465, 46.230385], [6.055195, 46.230319], [6.054893, 46.230321], [6.053177, 46.230207], [6.052518, 46.23014], [6.052114, 46.229834], [6.051684, 46.229152], [6.051509, 46.229035], [6.051391, 46.229007], [6.050868, 46.228978], [6.050691, 46.229006], [6.048821, 46.229816], [6.046398, 46.230811], [6.046269, 46.230925], [6.046074, 46.2314], [6.046105, 46.231496], [6.046339, 46.231794], [6.046332, 46.231841], [6.046236, 46.231922], [6.045889, 46.232022], [6.045303, 46.232279], [6.045321, 46.232312], [6.045404, 46.232337], [6.045468, 46.232417], [6.045411, 46.23244], [6.045456, 46.232427], [6.045442, 46.232473], [6.045466, 46.232465], [6.045427, 46.232475], [6.045459, 46.232577]]}, "properties": {"name": "1791437561.Thursday_Morning_Cycle", "cmt": "2026-10-08", "tstamp": 1791417600, "desc": "---", "src": "6.045303/46.228978/6.194736/46.331758", "bbox": "6.045303/46.228978/6.194736/46.331758"}}]}