{"type": "FeatureCollection", "name": "TrackSet", "crs": {"type": "name", "properties": {"name": "urn:ogc:def:crs:OGC:1.3:CRS84"}}, "bbox": [6.045157, 46.22898, 6.194754, 46.33179], "features": [{"type": "Feature", "bbox": [6.045157, 46.22898, 6.194754, 46.33179], "geometry": {"type": "LineString", "coordinates": [[6.045587, 46.232324], [6.045545, 46.232159], [6.045542, 46.232317], [6.045471, 46.232398], [6.045382, 46.232315], [6.045278, 46.232291], [6.045166, 46.232138], [6.045157, 46.232006], [6.045879, 46.231624], [6.046061, 46.231306], [6.046207, 46.230969], [6.04633, 46.230842], [6.046517, 46.230744], [6.050517, 46.229071], [6.050731, 46.228998], [6.050968, 46.22898], [6.05144, 46.229026], [6.051654, 46.22908], [6.051785, 46.229207], [6.052041, 46.229707], [6.052151, 46.229852], [6.052348, 46.230002], [6.052571, 46.230105], [6.05306, 46.230177], [6.054997, 46.230311], [6.055239, 46.230309], [6.055516, 46.230218], [6.055589, 46.230239], [6.055676, 46.230329], [6.055668, 46.230504], [6.055901, 46.23087], [6.056137, 46.231322], [6.056534, 46.231892], [6.05679, 46.232131], [6.056999, 46.232242], [6.057119, 46.232339], [6.057151, 46.232412], [6.057318, 46.232554], [6.057502, 46.232673], [6.0578, 46.232761], [6.05787, 46.232827], [6.057879, 46.232957], [6.057718, 46.233089], [6.057769, 46.233177], [6.057891, 46.233231], [6.058176, 46.233285], [6.058627, 46.233186], [6.059217, 46.233007], [6.059397, 46.233047], [6.059502, 46.233162], [6.060357, 46.234678], [6.060504, 46.234702], [6.06081, 46.23459], [6.062045, 46.234235], [6.062838, 46.233824], [6.06295, 46.233842], [6.06307, 46.233907], [6.063381, 46.234168], [6.064376, 46.23489], [6.064781, 46.235292], [6.066299, 46.236368], [6.066432, 46.236513], [6.067235, 46.237663], [6.068312, 46.238925], [6.068435, 46.239033], [6.068658, 46.23917], [6.068849, 46.239411], [6.069807, 46.240214], [6.069878, 46.240242], [6.070047, 46.240223], [6.070826, 46.239647], [6.070942, 46.239616], [6.071003, 46.239637], [6.073012, 46.241086], [6.07304, 46.241127], [6.073006, 46.241356], [6.073145, 46.241455], [6.073757, 46.242256], [6.074128, 46.242596], [6.074292, 46.242713], [6.074371, 46.242727], [6.074528, 46.242677], [6.07461, 46.242584], [6.074905, 46.242365], [6.074967, 46.242343], [6.075102, 46.242368], [6.077383, 46.243929], [6.077749, 46.244168], [6.078193, 46.244389], [6.078566, 46.244674], [6.078785, 46.244878], [6.079312, 46.24523], [6.07956, 46.245358], [6.080548, 46.245587], [6.080783, 46.245598], [6.081746, 46.245727], [6.081777, 46.245834], [6.081686, 46.245944], [6.08165, 46.246134], [6.081745, 46.246265], [6.081856, 46.246332], [6.082563, 46.246619], [6.083899, 46.247126], [6.084315, 46.247262], [6.084364, 46.247334], [6.084252, 46.247506], [6.084279, 46.247602], [6.08454, 46.247894], [6.084864, 46.24808], [6.08573, 46.248418], [6.086201, 46.248529], [6.0865, 46.248532], [6.086771, 46.248659], [6.088384, 46.249076], [6.089341, 46.249386], [6.090363, 46.249791], [6.090594, 46.250014], [6.09065, 46.250035], [6.09075, 46.250022], [6.090842, 46.250041], [6.091891, 46.250498], [6.092213, 46.25067], [6.092565, 46.250929], [6.093163, 46.251519], [6.093366, 46.251941], [6.09359, 46.252106], [6.093742, 46.252148], [6.093994, 46.252167], [6.094935, 46.252088], [6.095547, 46.252073], [6.095709, 46.252034], [6.095841, 46.251961], [6.09599, 46.251931], [6.096142, 46.251971], [6.096739, 46.25225], [6.097168, 46.252363], [6.097214, 46.252423], [6.09703, 46.252891], [6.097059, 46.253027], [6.097167, 46.253264], [6.097466, 46.25354], [6.099442, 46.254673], [6.099825, 46.254845], [6.100056, 46.255011], [6.100466, 46.255061], [6.100811, 46.255147], [6.101852, 46.25545], [6.101969, 46.255524], [6.101993, 46.255628], [6.101937, 46.255705], [6.101515, 46.256032], [6.101322, 46.256143], [6.101201, 46.256261], [6.100804, 46.256552], [6.100568, 46.256822], [6.10056, 46.256929], [6.1013, 46.257471], [6.101659, 46.257668], [6.102466, 46.25824], [6.102572, 46.258276], [6.103191, 46.258255], [6.103343, 46.258298], [6.105109, 46.259411], [6.105276, 46.259485], [6.105817, 46.259649], [6.106167, 46.25967], [6.107585, 46.26021], [6.108336, 46.260329], [6.108928, 46.260316], [6.108964, 46.260411], [6.109089, 46.260439], [6.109121, 46.260481], [6.109291, 46.260522], [6.111146, 46.262017], [6.112945, 46.263389], [6.114377, 46.264299], [6.114589, 46.264353], [6.11475, 46.264331], [6.114886, 46.264383], [6.114921, 46.264438], [6.11494, 46.264602], [6.115177, 46.26481], [6.115287, 46.264951], [6.115305, 46.265058], [6.115261, 46.265112], [6.114705, 46.265489], [6.114694, 46.265559], [6.115376, 46.265905], [6.116182, 46.266246], [6.11621, 46.266307], [6.116345, 46.266384], [6.116477, 46.266508], [6.116759, 46.266674], [6.117045, 46.266903], [6.117928, 46.267701], [6.118353, 46.267898], [6.119315, 46.268162], [6.120926, 46.269018], [6.121386, 46.269231], [6.121559, 46.269285], [6.121775, 46.269464], [6.122085, 46.2698], [6.122512, 46.270096], [6.122952, 46.270338], [6.123366, 46.270529], [6.124616, 46.270975], [6.124697, 46.271021], [6.125071, 46.271377], [6.125564, 46.271687], [6.125755, 46.271737], [6.125983, 46.271848], [6.126633, 46.271985], [6.127456, 46.272121], [6.128205, 46.272356], [6.128411, 46.272446], [6.128944, 46.272785], [6.129256, 46.272949], [6.130607, 46.273579], [6.131512, 46.274359], [6.131683, 46.274537], [6.131769, 46.274673], [6.13184, 46.274895], [6.13177, 46.275362], [6.131776, 46.27552], [6.131908, 46.275891], [6.132147, 46.276307], [6.132415, 46.276606], [6.133858, 46.277963], [6.134076, 46.278063], [6.134133, 46.278226], [6.135113, 46.279667], [6.135259, 46.279829], [6.135462, 46.279974], [6.136197, 46.280364], [6.136597, 46.280535], [6.138125, 46.281051], [6.139366, 46.281619], [6.139631, 46.281667], [6.140452, 46.281692], [6.141057, 46.281654], [6.141307, 46.281661], [6.142296, 46.281768], [6.143018, 46.281899], [6.143787, 46.282005], [6.14428, 46.282035], [6.145126, 46.282322], [6.145673, 46.282456], [6.146049, 46.282645], [6.147196, 46.283683], [6.14757, 46.283928], [6.147795, 46.283973], [6.147911, 46.284041], [6.147919, 46.284156], [6.147843, 46.284263], [6.147847, 46.284318], [6.147896, 46.284371], [6.148363, 46.284781], [6.150719, 46.287032], [6.151048, 46.28733], [6.151325, 46.28749], [6.151449, 46.287735], [6.151739, 46.288072], [6.152159, 46.28883], [6.153118, 46.29076], [6.153228, 46.291012], [6.153495, 46.291849], [6.153732, 46.292132], [6.15375, 46.292291], [6.15384, 46.292457], [6.154061, 46.292716], [6.157237, 46.295965], [6.157747, 46.296344], [6.158346, 46.296648], [6.158898, 46.296845], [6.159202, 46.296917], [6.159783, 46.297104], [6.16017, 46.297265], [6.161984, 46.297872], [6.162336, 46.298011], [6.16274, 46.298242], [6.163611, 46.298895], [6.164012, 46.29913], [6.164475, 46.299512], [6.164779, 46.299823], [6.165668, 46.300872], [6.166026, 46.301224], [6.167531, 46.302214], [6.168788, 46.303107], [6.169086, 46.303247], [6.16962, 46.303403], [6.170161, 46.304389], [6.170507, 46.304746], [6.170892, 46.305046], [6.171516, 46.305472], [6.171966, 46.305708], [6.172352, 46.305869], [6.172529, 46.306005], [6.172533, 46.306135], [6.172393, 46.306579], [6.172388, 46.307825], [6.172459, 46.308036], [6.172576, 46.308221], [6.173229, 46.30903], [6.173365, 46.309338], [6.173478, 46.30974], [6.173601, 46.30992], [6.173566, 46.31025], [6.174338, 46.314026], [6.174672, 46.315494], [6.176352, 46.317501], [6.177652, 46.318779], [6.177765, 46.318925], [6.177939, 46.319433], [6.178251, 46.319777], [6.178728, 46.320376], [6.178845, 46.320469], [6.178966, 46.320501], [6.179765, 46.320535], [6.179891, 46.320616], [6.17996, 46.320726], [6.180028, 46.320773], [6.180357, 46.320932], [6.180507, 46.321037], [6.180626, 46.321166], [6.18085, 46.321531], [6.181329, 46.322439], [6.181508, 46.322642], [6.181676, 46.322759], [6.181779, 46.322804], [6.182016, 46.322849], [6.183036, 46.322875], [6.183551, 46.322944], [6.183905, 46.323056], [6.184113, 46.323162], [6.18429, 46.323288], [6.186342, 46.325245], [6.186679, 46.325676], [6.186911, 46.326034], [6.18717, 46.326296], [6.18887, 46.327845], [6.189647, 46.328288], [6.190053, 46.32857], [6.190682, 46.329107], [6.191209, 46.329673], [6.191642, 46.330023], [6.191747, 46.33018], [6.191914, 46.330724], [6.191959, 46.330763], [6.192107, 46.330776], [6.192808, 46.33047], [6.192962, 46.330375], [6.193164, 46.330174], [6.19331, 46.330139], [6.193482, 46.330144], [6.193823, 46.330085], [6.193986, 46.330114], [6.194087, 46.330221], [6.19444, 46.330883], [6.194754, 46.331596], [6.194749, 46.33164], [6.194656, 46.331707], [6.194349, 46.33179], [6.194299, 46.331777], [6.194277, 46.331734], [6.194328, 46.33172], [6.194311, 46.33168], [6.194249, 46.331685], [6.194241, 46.331726], [6.194198, 46.331684]]}, "properties": {"name": "1791391734.Wednesday_Evening_Cycle", "cmt": "2026-10-07", "tstamp": 1791331200, "desc": "---", "src": "6.045157/46.22898/6.194754/46.33179", "bbox": "6.045157/46.22898/6.194754/46.33179"}}]}