{"type": "FeatureCollection", "name": "TrackSet", "crs": {"type": "name", "properties": {"name": "urn:ogc:def:crs:OGC:1.3:CRS84"}}, "bbox": [6.045126, 46.228961, 6.194745, 46.331802], "features": [{"type": "Feature", "bbox": [6.045126, 46.228961, 6.194745, 46.331802], "geometry": {"type": "LineString", "coordinates": [[6.04543, 46.232357], [6.045387, 46.232455], [6.04543, 46.232357], [6.045407, 46.232329], [6.045415, 46.232385], [6.045448, 46.232379], [6.045485, 46.232409], [6.045412, 46.232333], [6.045317, 46.232318], [6.045224, 46.232265], [6.045126, 46.232074], [6.045136, 46.23201], [6.045774, 46.231678], [6.045894, 46.23159], [6.045943, 46.231459], [6.046044, 46.231338], [6.046228, 46.230921], [6.046379, 46.230796], [6.047959, 46.230112], [6.050373, 46.229114], [6.050697, 46.228989], [6.050809, 46.228961], [6.050929, 46.228966], [6.051415, 46.229015], [6.051653, 46.229093], [6.05181, 46.229232], [6.05212, 46.229807], [6.052286, 46.229955], [6.052553, 46.230095], [6.053123, 46.23018], [6.054941, 46.230307], [6.05524, 46.230307], [6.055501, 46.230216], [6.055594, 46.23023], [6.055661, 46.230277], [6.055691, 46.230341], [6.055664, 46.230472], [6.055682, 46.230538], [6.056509, 46.231897], [6.056641, 46.232036], [6.057098, 46.232337], [6.057145, 46.232432], [6.057266, 46.232526], [6.057576, 46.232726], [6.057785, 46.232792], [6.057878, 46.232859], [6.057884, 46.23297], [6.057717, 46.233084], [6.057768, 46.233166], [6.057889, 46.233238], [6.058139, 46.233292], [6.05842, 46.233248], [6.059143, 46.233025], [6.059247, 46.23301], [6.05936, 46.233031], [6.059449, 46.233081], [6.059511, 46.233152], [6.059595, 46.233377], [6.060235, 46.234509], [6.060357, 46.234684], [6.06044, 46.234706], [6.060538, 46.234685], [6.060711, 46.234611], [6.062046, 46.234227], [6.062615, 46.23395], [6.06285, 46.233809], [6.062976, 46.233859], [6.063343, 46.234154], [6.064332, 46.234843], [6.064778, 46.235286], [6.0649, 46.235346], [6.065164, 46.235569], [6.066398, 46.236463], [6.067351, 46.237812], [6.067641, 46.238113], [6.068342, 46.23895], [6.068407, 46.239011], [6.068656, 46.239144], [6.06885, 46.239408], [6.069806, 46.240213], [6.069881, 46.240243], [6.069976, 46.240244], [6.070062, 46.240214], [6.070836, 46.239647], [6.0709, 46.239617], [6.070968, 46.239624], [6.072706, 46.240855], [6.072878, 46.241006], [6.072994, 46.241067], [6.073036, 46.241168], [6.073006, 46.241323], [6.073042, 46.24137], [6.073154, 46.241477], [6.073771, 46.242261], [6.074271, 46.242712], [6.074444, 46.24272], [6.074519, 46.242689], [6.074871, 46.242383], [6.074936, 46.242358], [6.07509, 46.242368], [6.076022, 46.24304], [6.076727, 46.243505], [6.077778, 46.244178], [6.078238, 46.244426], [6.078517, 46.244644], [6.078649, 46.244808], [6.078772, 46.244908], [6.079553, 46.245362], [6.079865, 46.245441], [6.080552, 46.245561], [6.081695, 46.245707], [6.081791, 46.245819], [6.081649, 46.246128], [6.081689, 46.246213], [6.081782, 46.246302], [6.082885, 46.246736], [6.083061, 46.246825], [6.084254, 46.24726], [6.084298, 46.24733], [6.084229, 46.247562], [6.08426, 46.247635], [6.084589, 46.247931], [6.084908, 46.248101], [6.085732, 46.248417], [6.086147, 46.248523], [6.086497, 46.248534], [6.086834, 46.24868], [6.087921, 46.248948], [6.08924, 46.249359], [6.090338, 46.249772], [6.090593, 46.250029], [6.090935, 46.250069], [6.092069, 46.250582], [6.092524, 46.250903], [6.093006, 46.251401], [6.093164, 46.251528], [6.093389, 46.25197], [6.093606, 46.252123], [6.093908, 46.252174], [6.094895, 46.252092], [6.095575, 46.252072], [6.095668, 46.252054], [6.095895, 46.251942], [6.095982, 46.25193], [6.096074, 46.251944], [6.096444, 46.252124], [6.097167, 46.252387], [6.097197, 46.252466], [6.097039, 46.252773], [6.097023, 46.25293], [6.097059, 46.2531], [6.097214, 46.253361], [6.097471, 46.253573], [6.099461, 46.254678], [6.099848, 46.254856], [6.100053, 46.255009], [6.100457, 46.255054], [6.101619, 46.255388], [6.102066, 46.255462], [6.102095, 46.255486], [6.102064, 46.255568], [6.101965, 46.255626], [6.101627, 46.255952], [6.101009, 46.256423], [6.100608, 46.256796], [6.100561, 46.256885], [6.100622, 46.25698], [6.101336, 46.257487], [6.101711, 46.257705], [6.102481, 46.258262], [6.102592, 46.258293], [6.103172, 46.258263], [6.103342, 46.258307], [6.105206, 46.259471], [6.105785, 46.259644], [6.106007, 46.259647], [6.106156, 46.259675], [6.107484, 46.260183], [6.107911, 46.260279], [6.108373, 46.260341], [6.109072, 46.260294], [6.109184, 46.260316], [6.109226, 46.260354], [6.109314, 46.26057], [6.109676, 46.260824], [6.11182, 46.262539], [6.112865, 46.263327], [6.114339, 46.26428], [6.11449, 46.264342], [6.114764, 46.264332], [6.114845, 46.264356], [6.114921, 46.264478], [6.11491, 46.264598], [6.11522, 46.264888], [6.115295, 46.265054], [6.11521, 46.26516], [6.114741, 46.265472], [6.114696, 46.265555], [6.114978, 46.265675], [6.11546, 46.265941], [6.11603, 46.266152], [6.116131, 46.266214], [6.116196, 46.266314], [6.116916, 46.2668], [6.117835, 46.267626], [6.118044, 46.267776], [6.11827, 46.267881], [6.11882, 46.268008], [6.119278, 46.268146], [6.119982, 46.268504], [6.120722, 46.268925], [6.121282, 46.26919], [6.121576, 46.269292], [6.1218, 46.269488], [6.122088, 46.269812], [6.122446, 46.270065], [6.123321, 46.270526], [6.124604, 46.270979], [6.124687, 46.271027], [6.125067, 46.271399], [6.125464, 46.271663], [6.125738, 46.271743], [6.125961, 46.271863], [6.126871, 46.272036], [6.127297, 46.272095], [6.12779, 46.272221], [6.128214, 46.272364], [6.128422, 46.272459], [6.128985, 46.272816], [6.129552, 46.273112], [6.130559, 46.273552], [6.131393, 46.274246], [6.131639, 46.274489], [6.131736, 46.274624], [6.131807, 46.274773], [6.131837, 46.27493], [6.131774, 46.275332], [6.131794, 46.275577], [6.13194, 46.275955], [6.132153, 46.276311], [6.132315, 46.276502], [6.133804, 46.277923], [6.133907, 46.277988], [6.134063, 46.27804], [6.134141, 46.278257], [6.134308, 46.278463], [6.135105, 46.279676], [6.135262, 46.279844], [6.135474, 46.279994], [6.136253, 46.280397], [6.136816, 46.280619], [6.138228, 46.281094], [6.139375, 46.281643], [6.139663, 46.281688], [6.140378, 46.281688], [6.141277, 46.281651], [6.142167, 46.281747], [6.14394, 46.281994], [6.14457, 46.282126], [6.145503, 46.282386], [6.145838, 46.28252], [6.146046, 46.282634], [6.147264, 46.28374], [6.147551, 46.283934], [6.147867, 46.284012], [6.147929, 46.284132], [6.147847, 46.284248], [6.147833, 46.284307], [6.147867, 46.284358], [6.150943, 46.287247], [6.151064, 46.28735], [6.151305, 46.287462], [6.151356, 46.287512], [6.151454, 46.287748], [6.151654, 46.28797], [6.151816, 46.28821], [6.152299, 46.289129], [6.153187, 46.290937], [6.153516, 46.291929], [6.153713, 46.292093], [6.153755, 46.292336], [6.153838, 46.292478], [6.157275, 46.296005], [6.157703, 46.296324], [6.158304, 46.296631], [6.158786, 46.2968], [6.15958, 46.297021], [6.161785, 46.297803], [6.162355, 46.298033], [6.162642, 46.298209], [6.163238, 46.298642], [6.163983, 46.299135], [6.164403, 46.299457], [6.164677, 46.299727], [6.165693, 46.300923], [6.166014, 46.301233], [6.168825, 46.303141], [6.169157, 46.303289], [6.169593, 46.303373], [6.169643, 46.303411], [6.169715, 46.303593], [6.170188, 46.304452], [6.170508, 46.30476], [6.170882, 46.305056], [6.171539, 46.305503], [6.171797, 46.305642], [6.172348, 46.305877], [6.172498, 46.305978], [6.172539, 46.306128], [6.172404, 46.306532], [6.172406, 46.307883], [6.172455, 46.308036], [6.172578, 46.308241], [6.173218, 46.309034], [6.173468, 46.309719], [6.173614, 46.309941], [6.17357, 46.310147], [6.173576, 46.310305], [6.174127, 46.313113], [6.174478, 46.314764], [6.174684, 46.315543], [6.174855, 46.315706], [6.176204, 46.317341], [6.177121, 46.318295], [6.177755, 46.318895], [6.177815, 46.319011], [6.177901, 46.319346], [6.178006, 46.319541], [6.178407, 46.319974], [6.178751, 46.320402], [6.178868, 46.320481], [6.178978, 46.320508], [6.179662, 46.320518], [6.179813, 46.320545], [6.179986, 46.320744], [6.18045, 46.320981], [6.180625, 46.32116], [6.181324, 46.322436], [6.181491, 46.322628], [6.181651, 46.322743], [6.181853, 46.322819], [6.181978, 46.322837], [6.183003, 46.322874], [6.183513, 46.322938], [6.183977, 46.323088], [6.184344, 46.323327], [6.186366, 46.325291], [6.186984, 46.326144], [6.188737, 46.327764], [6.188942, 46.327925], [6.189654, 46.328323], [6.190043, 46.328589], [6.190593, 46.329042], [6.191118, 46.329603], [6.191622, 46.330029], [6.191739, 46.33018], [6.191929, 46.330769], [6.192008, 46.330794], [6.192099, 46.330786], [6.192876, 46.330462], [6.193163, 46.330181], [6.193893, 46.330112], [6.193986, 46.330133], [6.194056, 46.330182], [6.194745, 46.331639], [6.194676, 46.331715], [6.194349, 46.331802], [6.194241, 46.331733], [6.194226, 46.331684]]}, "properties": {"name": "1791217420.Monday_Evening_Cycle", "cmt": "2026-10-05", "tstamp": 1791158400, "desc": "---", "src": "6.045126/46.228961/6.194745/46.331802", "bbox": "6.045126/46.228961/6.194745/46.331802"}}]}