{"type": "FeatureCollection", "name": "TrackSet", "crs": {"type": "name", "properties": {"name": "urn:ogc:def:crs:OGC:1.3:CRS84"}}, "bbox": [6.193111, 46.327752, 6.23835, 46.378436], "features": [{"type": "Feature", "bbox": [6.193111, 46.327752, 6.23835, 46.378436], "geometry": {"type": "LineString", "coordinates": [[6.194254, 46.331668], [6.194212, 46.331848], [6.194394, 46.331716], [6.194351, 46.33171], [6.194344, 46.331761], [6.194464, 46.331777], [6.194651, 46.331709], [6.194729, 46.331629], [6.194736, 46.331572], [6.194401, 46.330871], [6.194019, 46.330168], [6.193958, 46.330129], [6.193801, 46.330104], [6.193386, 46.330176], [6.193214, 46.330188], [6.193142, 46.330162], [6.193111, 46.330085], [6.193158, 46.32998], [6.193148, 46.329886], [6.193235, 46.329671], [6.19343, 46.329595], [6.194995, 46.329319], [6.196063, 46.329058], [6.197468, 46.328599], [6.199106, 46.327982], [6.19958, 46.327827], [6.199724, 46.327756], [6.199821, 46.327752], [6.199898, 46.327785], [6.199996, 46.327987], [6.200156, 46.328068], [6.200814, 46.328838], [6.201239, 46.329405], [6.201626, 46.330046], [6.202065, 46.330999], [6.202293, 46.331666], [6.202435, 46.332508], [6.202474, 46.333736], [6.202439, 46.334533], [6.202458, 46.335337], [6.202573, 46.336144], [6.20279, 46.336977], [6.202967, 46.337447], [6.203356, 46.338219], [6.203903, 46.339077], [6.204613, 46.340079], [6.205118, 46.341053], [6.205318, 46.341576], [6.205523, 46.342333], [6.206701, 46.347353], [6.20703, 46.348522], [6.207254, 46.349086], [6.207567, 46.349704], [6.207906, 46.350251], [6.208195, 46.350651], [6.208619, 46.351179], [6.209126, 46.351745], [6.214135, 46.357001], [6.215564, 46.358437], [6.215832, 46.358758], [6.216106, 46.358952], [6.217612, 46.360313], [6.218936, 46.361615], [6.219979, 46.362915], [6.222199, 46.366069], [6.222624, 46.366595], [6.223275, 46.367265], [6.223899, 46.367786], [6.224685, 46.368309], [6.224894, 46.368481], [6.225702, 46.368928], [6.228791, 46.370457], [6.230099, 46.371267], [6.230464, 46.371551], [6.231485, 46.372465], [6.232883, 46.373771], [6.233741, 46.374911], [6.235149, 46.376683], [6.235387, 46.376868], [6.235655, 46.377022], [6.237604, 46.377947], [6.237959, 46.378161], [6.238258, 46.378256], [6.238326, 46.378294], [6.23835, 46.378348], [6.238318, 46.378405], [6.238256, 46.378436], [6.238072, 46.378422], [6.238002, 46.378386], [6.237753, 46.378111], [6.237398, 46.377903], [6.235627, 46.377075], [6.235252, 46.376855], [6.234958, 46.376574], [6.234299, 46.375694], [6.233576, 46.374779], [6.233352, 46.374534], [6.233128, 46.374204], [6.232858, 46.373883], [6.232156, 46.373183], [6.231854, 46.372928], [6.231694, 46.372843], [6.231568, 46.372666], [6.231283, 46.372392], [6.230511, 46.371745], [6.230046, 46.371394], [6.2295, 46.371025], [6.228501, 46.370448], [6.227314, 46.369915], [6.227121, 46.369815], [6.226872, 46.369636], [6.225543, 46.368996], [6.22496, 46.368681], [6.224096, 46.368118], [6.223299, 46.367492], [6.222797, 46.367009], [6.222238, 46.366378], [6.219781, 46.36289], [6.219082, 46.362017], [6.218498, 46.36137], [6.217676, 46.360536], [6.216209, 46.35922], [6.216074, 46.359124], [6.215755, 46.358986], [6.21568, 46.358674], [6.215185, 46.358245], [6.21461, 46.357671], [6.212034, 46.355004], [6.211084, 46.353988], [6.210813, 46.353735], [6.2088, 46.351597], [6.208142, 46.350833], [6.207841, 46.35043], [6.20748, 46.34987], [6.207066, 46.349051], [6.206798, 46.34835], [6.206536, 46.347405], [6.205723, 46.34374], [6.205285, 46.342025], [6.204987, 46.341128], [6.204672, 46.34033], [6.204481, 46.339947], [6.204329, 46.339701], [6.203817, 46.339045], [6.20322, 46.3381], [6.202954, 46.337583], [6.202713, 46.336971], [6.202509, 46.336257], [6.202401, 46.335561], [6.202372, 46.335127], [6.202387, 46.332805], [6.202281, 46.331892], [6.202172, 46.331433], [6.202046, 46.331235], [6.201616, 46.330254], [6.201306, 46.329705], [6.200788, 46.328983], [6.200058, 46.328123], [6.199927, 46.328017], [6.199746, 46.327949], [6.199556, 46.327923], [6.199369, 46.327935], [6.197324, 46.328683], [6.195842, 46.329156], [6.193496, 46.329639], [6.193306, 46.329696], [6.193208, 46.329821], [6.193184, 46.330128], [6.193286, 46.330159], [6.193843, 46.330074], [6.193994, 46.330098], [6.194079, 46.330196], [6.194549, 46.331144], [6.194749, 46.331652], [6.194706, 46.33169], [6.19434, 46.331803], [6.19427, 46.331761], [6.194282, 46.331691], [6.194265, 46.331682], [6.19425, 46.331736], [6.194234, 46.331748], [6.194229, 46.331732]]}, "properties": {"name": "1791525044.Friday_Morning_Cycle", "cmt": "2026-10-09", "tstamp": 1791504000, "desc": "---", "src": "6.193111/46.327752/6.23835/46.378436", "bbox": "6.193111/46.327752/6.23835/46.378436"}}]}