{"type": "FeatureCollection", "name": "TrackSet", "crs": {"type": "name", "properties": {"name": "urn:ogc:def:crs:OGC:1.3:CRS84"}}, "bbox": [6.045312, 46.228981, 6.19478, 46.331826], "features": [{"type": "Feature", "bbox": [6.045312, 46.228981, 6.19478, 46.331826], "geometry": {"type": "LineString", "coordinates": [[6.194159, 46.331676], [6.194248, 46.331667], [6.194385, 46.331826], [6.194348, 46.33181], [6.194355, 46.331769], [6.194651, 46.331676], [6.194773, 46.3316], [6.19478, 46.331556], [6.194526, 46.331155], [6.194156, 46.330424], [6.193976, 46.33013], [6.193851, 46.330095], [6.193191, 46.330173], [6.192961, 46.330406], [6.192739, 46.330532], [6.192342, 46.330703], [6.19209, 46.330784], [6.192033, 46.330792], [6.191911, 46.330763], [6.191874, 46.330727], [6.191827, 46.330507], [6.191652, 46.330103], [6.191253, 46.329689], [6.191078, 46.329568], [6.190606, 46.329077], [6.189996, 46.328582], [6.189608, 46.328314], [6.188999, 46.327992], [6.188755, 46.32782], [6.187116, 46.326349], [6.186882, 46.326107], [6.186528, 46.325581], [6.186283, 46.325272], [6.184268, 46.323315], [6.183911, 46.32309], [6.183464, 46.322957], [6.18288, 46.322894], [6.181983, 46.322846], [6.181722, 46.3228], [6.181614, 46.322759], [6.181484, 46.322662], [6.181301, 46.322422], [6.180657, 46.321215], [6.180503, 46.32103], [6.179951, 46.320719], [6.179813, 46.320553], [6.179747, 46.320533], [6.17897, 46.320505], [6.178829, 46.320473], [6.178771, 46.320432], [6.178546, 46.320108], [6.178008, 46.319547], [6.1779, 46.319358], [6.177797, 46.318983], [6.177731, 46.31886], [6.17758, 46.318739], [6.177488, 46.318592], [6.177308, 46.318398], [6.176331, 46.317458], [6.174797, 46.315622], [6.174631, 46.315596], [6.174561, 46.315523], [6.17458, 46.315351], [6.173763, 46.311444], [6.173533, 46.3102], [6.173427, 46.309899], [6.173435, 46.309622], [6.173196, 46.309017], [6.172705, 46.308446], [6.172475, 46.308105], [6.172362, 46.307842], [6.172366, 46.307005], [6.172427, 46.306377], [6.172503, 46.306123], [6.172472, 46.305995], [6.172333, 46.305888], [6.171733, 46.305622], [6.171454, 46.305461], [6.170839, 46.305024], [6.170308, 46.304599], [6.170083, 46.304303], [6.169591, 46.303424], [6.169202, 46.303329], [6.168838, 46.303166], [6.16778, 46.302422], [6.165954, 46.301208], [6.165671, 46.30092], [6.164645, 46.299729], [6.164333, 46.299418], [6.162562, 46.298152], [6.162218, 46.297976], [6.16165, 46.297763], [6.160339, 46.297319], [6.159777, 46.297097], [6.15869, 46.296777], [6.158162, 46.296572], [6.157905, 46.296449], [6.157528, 46.296223], [6.156651, 46.295512], [6.156082, 46.294929], [6.155838, 46.294609], [6.155589, 46.294351], [6.155231, 46.293995], [6.154942, 46.293772], [6.154785, 46.293543], [6.154396, 46.293163], [6.15418, 46.292859], [6.153951, 46.292633], [6.153713, 46.292323], [6.153533, 46.292157], [6.153492, 46.292095], [6.153468, 46.291801], [6.153076, 46.290771], [6.151951, 46.288549], [6.15158, 46.287949], [6.151371, 46.287737], [6.151096, 46.287579], [6.150927, 46.287279], [6.147942, 46.284471], [6.147612, 46.284117], [6.147544, 46.284004], [6.147117, 46.28369], [6.145978, 46.282635], [6.145712, 46.282498], [6.144782, 46.282205], [6.144413, 46.282109], [6.143852, 46.282008], [6.143566, 46.281987], [6.142097, 46.281759], [6.141266, 46.281684], [6.140473, 46.281721], [6.139594, 46.281702], [6.139385, 46.281663], [6.139185, 46.281592], [6.138469, 46.281227], [6.136515, 46.280552], [6.135988, 46.28031], [6.135502, 46.280037], [6.135119, 46.279737], [6.134565, 46.278909], [6.134112, 46.278294], [6.133638, 46.277789], [6.132398, 46.276641], [6.132155, 46.276385], [6.131903, 46.275988], [6.131767, 46.275644], [6.13173, 46.275358], [6.131791, 46.274962], [6.131752, 46.274748], [6.131702, 46.274648], [6.131572, 46.274476], [6.131268, 46.274176], [6.130878, 46.273835], [6.130494, 46.273546], [6.129489, 46.273094], [6.128458, 46.27248], [6.128217, 46.272369], [6.127559, 46.272164], [6.127226, 46.272085], [6.125983, 46.271867], [6.125638, 46.271861], [6.125528, 46.271773], [6.125459, 46.271653], [6.125047, 46.271382], [6.124748, 46.271086], [6.124598, 46.270977], [6.123278, 46.270493], [6.122286, 46.269976], [6.122146, 46.269861], [6.121691, 46.269331], [6.121627, 46.269292], [6.121237, 46.269165], [6.12097, 46.269042], [6.119376, 46.268176], [6.119101, 46.268078], [6.118333, 46.267874], [6.117987, 46.267714], [6.117819, 46.267595], [6.116923, 46.266783], [6.116234, 46.266284], [6.11624, 46.26624], [6.116134, 46.26616], [6.115642, 46.265934], [6.115526, 46.265857], [6.115046, 46.265692], [6.114863, 46.265595], [6.114841, 46.265509], [6.114934, 46.265463], [6.115092, 46.265316], [6.115234, 46.265254], [6.115356, 46.265131], [6.115353, 46.265094], [6.115147, 46.264836], [6.114854, 46.264587], [6.114267, 46.264267], [6.114011, 46.264096], [6.113883, 46.264047], [6.112817, 46.263368], [6.110885, 46.26188], [6.109682, 46.260895], [6.109258, 46.260587], [6.10909, 46.260408], [6.108321, 46.260413], [6.107701, 46.260324], [6.107512, 46.260273], [6.106412, 46.259864], [6.10588, 46.259742], [6.10542, 46.259601], [6.105178, 46.259497], [6.103351, 46.258361], [6.103154, 46.258314], [6.102668, 46.258314], [6.102494, 46.258273], [6.101629, 46.257672], [6.101081, 46.257331], [6.100605, 46.256982], [6.100536, 46.256877], [6.100544, 46.256791], [6.101155, 46.256323], [6.101734, 46.255821], [6.101903, 46.255656], [6.101916, 46.255563], [6.101806, 46.25549], [6.100893, 46.255246], [6.100581, 46.255128], [6.100256, 46.255056], [6.099808, 46.255035], [6.099724, 46.25489], [6.099481, 46.254717], [6.09732, 46.253527], [6.097115, 46.253316], [6.09701, 46.25308], [6.097005, 46.252762], [6.097183, 46.2524], [6.097122, 46.25234], [6.096918, 46.252296], [6.096103, 46.251963], [6.095956, 46.25194], [6.095532, 46.25207], [6.095074, 46.252073], [6.093882, 46.252163], [6.093724, 46.252143], [6.093541, 46.252086], [6.093416, 46.251989], [6.093277, 46.251679], [6.093127, 46.251453], [6.09304, 46.251402], [6.092542, 46.25088], [6.092382, 46.25075], [6.092005, 46.250519], [6.09093, 46.250049], [6.090568, 46.24997], [6.090459, 46.249836], [6.090349, 46.249753], [6.089498, 46.249449], [6.088354, 46.249076], [6.087712, 46.248901], [6.086795, 46.248681], [6.086449, 46.248665], [6.08636, 46.248642], [6.086145, 46.248524], [6.085652, 46.248407], [6.084999, 46.248165], [6.084601, 46.247961], [6.084358, 46.247754], [6.084176, 46.247517], [6.084167, 46.247276], [6.084134, 46.247231], [6.08242, 46.246643], [6.082303, 46.24657], [6.08216, 46.246427], [6.081809, 46.246282], [6.081709, 46.246127], [6.081809, 46.245875], [6.081884, 46.245803], [6.081786, 46.24569], [6.081522, 46.245596], [6.080874, 46.245549], [6.080286, 46.24545], [6.079637, 46.245282], [6.07943, 46.245157], [6.079186, 46.24507], [6.078727, 46.244811], [6.077962, 46.244229], [6.077664, 46.244072], [6.077197, 46.243777], [6.076115, 46.243034], [6.075041, 46.242351], [6.074901, 46.242363], [6.074426, 46.242712], [6.074363, 46.242715], [6.074243, 46.242675], [6.073845, 46.242331], [6.073575, 46.242045], [6.073017, 46.241296], [6.073004, 46.241246], [6.073055, 46.241096], [6.07302, 46.241055], [6.072797, 46.240928], [6.072159, 46.240458], [6.070972, 46.239651], [6.070863, 46.239627], [6.070806, 46.239655], [6.07071, 46.239783], [6.070011, 46.240244], [6.06986, 46.240249], [6.069718, 46.240182], [6.068819, 46.239399], [6.068587, 46.239106], [6.068299, 46.238946], [6.06726, 46.237684], [6.066928, 46.237194], [6.066291, 46.23636], [6.065978, 46.236114], [6.065852, 46.236053], [6.064939, 46.235409], [6.064172, 46.234725], [6.063689, 46.234397], [6.062994, 46.233871], [6.062843, 46.233865], [6.061934, 46.234276], [6.061377, 46.234418], [6.060497, 46.234691], [6.060415, 46.234695], [6.060346, 46.23467], [6.060258, 46.234558], [6.059491, 46.233169], [6.059351, 46.233028], [6.059271, 46.23301], [6.059184, 46.233021], [6.058773, 46.233164], [6.058197, 46.233298], [6.057978, 46.233271], [6.057684, 46.233132], [6.057643, 46.233043], [6.057481, 46.232948], [6.057445, 46.2329], [6.057459, 46.232696], [6.057094, 46.232499], [6.057052, 46.232435], [6.056481, 46.231928], [6.055625, 46.230453], [6.055207, 46.230318], [6.054916, 46.230328], [6.052541, 46.230156], [6.052094, 46.229819], [6.051867, 46.229391], [6.05171, 46.229182], [6.051549, 46.229066], [6.051329, 46.229015], [6.050842, 46.228981], [6.050675, 46.229017], [6.0464, 46.230815], [6.046266, 46.230944], [6.046073, 46.231401], [6.046328, 46.231805], [6.046317, 46.23185], [6.046215, 46.231917], [6.045992, 46.231978], [6.045312, 46.232273], [6.045318, 46.232303], [6.045425, 46.232358], [6.045466, 46.232429], [6.045416, 46.232458], [6.045459, 46.232478]]}, "properties": {"name": "1791178748.Monday_Morning_Cycle", "cmt": "2026-10-05", "tstamp": 1791158400, "desc": "---", "src": "6.045312/46.228981/6.19478/46.331826", "bbox": "6.045312/46.228981/6.19478/46.331826"}}]}