{"type": "FeatureCollection", "name": "TrackSet", "crs": {"type": "name", "properties": {"name": "urn:ogc:def:crs:OGC:1.3:CRS84"}}, "bbox": [6.045128, 46.228955, 6.195592, 46.331793], "features": [{"type": "Feature", "bbox": [6.045128, 46.228955, 6.195592, 46.331793], "geometry": {"type": "LineString", "coordinates": [[6.045487, 46.232355], [6.045481, 46.232399], [6.045505, 46.232377], [6.045452, 46.23231], [6.045234, 46.232249], [6.045128, 46.232063], [6.045145, 46.231964], [6.045767, 46.231681], [6.04591, 46.231579], [6.046209, 46.230955], [6.046349, 46.230802], [6.050245, 46.229167], [6.050707, 46.228984], [6.050958, 46.228955], [6.051452, 46.229016], [6.051679, 46.229076], [6.051804, 46.22921], [6.051965, 46.229554], [6.052129, 46.229818], [6.052301, 46.229972], [6.052524, 46.230088], [6.053033, 46.23017], [6.054978, 46.230309], [6.055298, 46.230292], [6.055433, 46.230224], [6.055506, 46.230214], [6.055646, 46.23027], [6.055681, 46.230322], [6.055664, 46.230496], [6.055692, 46.230551], [6.05613, 46.231258], [6.05626, 46.231541], [6.056514, 46.231889], [6.056818, 46.232157], [6.056999, 46.232246], [6.057024, 46.232295], [6.057124, 46.232348], [6.0572, 46.232453], [6.057466, 46.232656], [6.057795, 46.232767], [6.057875, 46.232845], [6.05792, 46.232931], [6.057722, 46.233073], [6.057726, 46.233135], [6.05777, 46.233176], [6.058046, 46.233268], [6.058203, 46.233283], [6.058522, 46.233212], [6.059231, 46.232999], [6.059332, 46.233012], [6.059417, 46.233054], [6.059475, 46.233116], [6.05956, 46.233312], [6.060338, 46.234669], [6.060411, 46.2347], [6.060504, 46.234695], [6.060817, 46.234577], [6.062016, 46.234238], [6.062553, 46.233988], [6.062805, 46.233828], [6.062851, 46.23382], [6.062959, 46.233856], [6.064274, 46.23483], [6.064772, 46.235303], [6.066308, 46.236386], [6.067332, 46.237778], [6.068339, 46.238944], [6.068676, 46.239166], [6.068892, 46.23944], [6.069794, 46.240206], [6.069858, 46.240237], [6.070018, 46.240229], [6.07084, 46.239653], [6.070893, 46.239626], [6.07102, 46.239657], [6.071577, 46.240081], [6.072221, 46.240505], [6.072768, 46.240915], [6.072976, 46.241036], [6.07304, 46.241122], [6.073002, 46.241283], [6.073034, 46.241328], [6.073769, 46.242258], [6.074271, 46.242703], [6.074339, 46.242726], [6.074493, 46.242699], [6.074872, 46.242383], [6.074999, 46.242334], [6.075071, 46.24234], [6.07661, 46.243405], [6.077157, 46.24374], [6.077777, 46.244169], [6.078236, 46.244423], [6.078443, 46.244574], [6.078724, 46.244837], [6.079468, 46.245316], [6.079688, 46.2454], [6.08031, 46.245536], [6.081319, 46.245664], [6.081538, 46.245668], [6.081705, 46.245704], [6.081808, 46.245837], [6.081668, 46.246124], [6.081754, 46.246266], [6.081886, 46.246341], [6.082883, 46.246741], [6.08388, 46.247049], [6.084942, 46.247419], [6.085412, 46.247553], [6.086171, 46.247636], [6.086325, 46.247625], [6.086646, 46.247546], [6.086779, 46.247582], [6.086828, 46.24763], [6.086835, 46.24775], [6.086698, 46.247901], [6.086562, 46.248447], [6.086597, 46.248542], [6.086699, 46.248631], [6.08807, 46.248979], [6.089252, 46.249343], [6.090274, 46.249727], [6.090403, 46.249808], [6.090629, 46.250025], [6.090756, 46.250019], [6.090942, 46.250061], [6.091777, 46.250404], [6.092179, 46.250609], [6.092557, 46.25091], [6.092998, 46.251385], [6.093144, 46.251495], [6.093348, 46.251919], [6.093545, 46.25207], [6.093805, 46.252143], [6.094086, 46.252156], [6.094785, 46.25209], [6.095598, 46.252061], [6.095882, 46.251933], [6.095955, 46.25193], [6.096042, 46.25194], [6.096337, 46.252086], [6.096845, 46.252284], [6.097153, 46.252374], [6.09716, 46.25249], [6.097029, 46.252777], [6.097037, 46.252983], [6.097186, 46.253294], [6.097474, 46.253553], [6.09935, 46.254611], [6.099828, 46.254836], [6.100015, 46.254988], [6.100483, 46.255052], [6.101688, 46.255397], [6.102086, 46.255467], [6.102084, 46.255546], [6.10166, 46.255921], [6.101316, 46.256212], [6.101065, 46.256367], [6.100856, 46.25654], [6.100591, 46.256843], [6.100574, 46.256933], [6.101246, 46.257433], [6.101739, 46.257725], [6.102481, 46.258259], [6.102596, 46.258284], [6.103173, 46.258258], [6.103341, 46.258304], [6.105237, 46.259476], [6.105579, 46.259571], [6.105736, 46.259642], [6.106208, 46.259709], [6.107462, 46.260176], [6.10809, 46.260323], [6.108556, 46.260333], [6.109081, 46.260303], [6.109205, 46.260336], [6.109261, 46.260404], [6.109294, 46.260553], [6.109348, 46.260599], [6.109539, 46.26072], [6.111533, 46.262311], [6.112894, 46.26334], [6.114364, 46.264289], [6.11451, 46.264344], [6.11483, 46.264345], [6.114887, 46.264387], [6.114917, 46.264443], [6.114921, 46.264611], [6.115222, 46.264886], [6.115297, 46.265039], [6.115228, 46.265142], [6.114687, 46.265506], [6.114668, 46.265548], [6.114757, 46.265607], [6.115385, 46.265882], [6.11621, 46.266211], [6.116213, 46.266286], [6.116249, 46.266323], [6.116772, 46.266685], [6.117715, 46.267539], [6.117955, 46.267723], [6.118175, 46.267835], [6.118517, 46.267951], [6.119376, 46.268172], [6.120902, 46.269021], [6.121289, 46.269197], [6.121626, 46.26931], [6.121751, 46.2694], [6.122107, 46.269814], [6.122544, 46.27012], [6.123012, 46.270372], [6.123443, 46.270567], [6.124665, 46.271011], [6.125023, 46.271364], [6.125502, 46.271673], [6.125694, 46.271726], [6.125978, 46.271857], [6.126612, 46.271997], [6.127353, 46.272106], [6.128094, 46.27232], [6.128431, 46.272465], [6.129046, 46.272852], [6.129669, 46.273166], [6.130389, 46.273466], [6.130593, 46.273583], [6.131394, 46.274246], [6.131667, 46.274516], [6.131751, 46.274643], [6.131844, 46.274925], [6.131776, 46.275365], [6.131793, 46.275581], [6.131951, 46.275981], [6.132181, 46.276352], [6.133827, 46.277934], [6.134072, 46.278082], [6.135105, 46.279643], [6.135246, 46.279805], [6.135434, 46.279956], [6.136037, 46.280276], [6.136559, 46.280507], [6.138287, 46.28111], [6.13935, 46.281627], [6.139706, 46.28168], [6.140463, 46.281687], [6.1411, 46.281647], [6.141362, 46.281655], [6.142004, 46.281723], [6.143985, 46.282001], [6.144206, 46.282002], [6.145542, 46.282404], [6.146035, 46.282621], [6.147224, 46.283711], [6.147592, 46.283943], [6.147873, 46.284011], [6.14793, 46.284114], [6.147838, 46.284253], [6.14788, 46.284352], [6.15095, 46.287244], [6.151047, 46.287325], [6.151349, 46.287485], [6.151422, 46.287703], [6.15166, 46.287973], [6.152047, 46.288636], [6.153081, 46.290693], [6.153296, 46.291215], [6.153508, 46.291869], [6.153704, 46.292063], [6.153793, 46.292387], [6.154077, 46.292721], [6.155703, 46.294409], [6.157296, 46.296009], [6.157838, 46.29639], [6.158314, 46.296625], [6.158837, 46.296802], [6.159581, 46.297013], [6.160304, 46.297287], [6.161316, 46.29761], [6.162228, 46.297962], [6.162698, 46.298227], [6.163317, 46.298693], [6.16421, 46.299293], [6.164525, 46.299559], [6.165673, 46.300886], [6.166004, 46.301217], [6.168797, 46.30312], [6.169076, 46.303248], [6.169624, 46.303418], [6.170146, 46.304355], [6.170439, 46.304674], [6.170763, 46.304943], [6.171402, 46.305404], [6.171831, 46.305643], [6.172409, 46.305903], [6.172509, 46.305984], [6.17253, 46.306093], [6.172394, 46.30652], [6.172372, 46.307818], [6.17243, 46.308004], [6.172527, 46.308172], [6.173233, 46.309064], [6.173345, 46.309305], [6.173486, 46.309743], [6.173617, 46.309921], [6.173566, 46.310179], [6.173584, 46.310315], [6.174138, 46.313131], [6.174665, 46.315511], [6.174847, 46.315683], [6.176157, 46.317291], [6.176837, 46.318], [6.177757, 46.318889], [6.17786, 46.319237], [6.178004, 46.31953], [6.178731, 46.320381], [6.178833, 46.320456], [6.178968, 46.320497], [6.179759, 46.320533], [6.179862, 46.320593], [6.180007, 46.320752], [6.180446, 46.320975], [6.180665, 46.321232], [6.181338, 46.322451], [6.181485, 46.322605], [6.181672, 46.322743], [6.181942, 46.322827], [6.183016, 46.322869], [6.183445, 46.322921], [6.183939, 46.323068], [6.184324, 46.32331], [6.186375, 46.325291], [6.186972, 46.326116], [6.188415, 46.327455], [6.188856, 46.327841], [6.189843, 46.328418], [6.19037, 46.328818], [6.190713, 46.329127], [6.191153, 46.329608], [6.191646, 46.330027], [6.191745, 46.330153], [6.191919, 46.330719], [6.191957, 46.330763], [6.19211, 46.330779], [6.192808, 46.330477], [6.192958, 46.330391], [6.193147, 46.330183], [6.193838, 46.330087], [6.194, 46.330116], [6.19409, 46.330223], [6.194387, 46.33081], [6.194726, 46.331592], [6.194732, 46.331636], [6.19466, 46.331714], [6.194314, 46.331793], [6.194272, 46.331782], [6.194282, 46.331732], [6.194254, 46.331732], [6.194274, 46.331673], [6.194307, 46.331668], [6.194286, 46.331695], [6.194228, 46.331688], [6.194145, 46.331574], [6.194243, 46.331649], [6.194653, 46.331462], [6.194989, 46.3313], [6.195592, 46.330888], [6.195171, 46.331111], [6.194435, 46.331656], [6.194105, 46.331699], [6.194168, 46.33166], [6.19413, 46.331695], [6.194413, 46.331658], [6.194419, 46.33163], [6.194359, 46.331653], [6.194423, 46.331641], [6.194266, 46.331649], [6.194368, 46.331655], [6.194256, 46.331654], [6.194432, 46.331674], [6.194274, 46.331661], [6.194416, 46.331635], [6.194423, 46.33165], [6.194416, 46.331635]]}, "properties": {"name": "1791475864.Thursday_Evening_Cycle", "cmt": "2026-10-08", "tstamp": 1791417600, "desc": "---", "src": "6.045128/46.228955/6.195592/46.331793", "bbox": "6.045128/46.228955/6.195592/46.331793"}}]}