<?xml version="1.0" encoding="UTF-8"?>
<gpx xmlns="http://www.topografix.com/GPX/1/1" xmlns:xsi="http://www.w3.org/2001/XMLSchema-instance" xsi:schemaLocation="http://www.topografix.com/GPX/1/1 http://www.topografix.com/GPX/1/1/gpx.xsd" version="1.1" creator="gpx.py -- https://github.com/tkrajina/gpxpy">
  <metadata>
    <name>1785157929.Monday_Evening_Walk</name>
    <time>2026-07-27T13:12:09Z</time>
    <keywords>19497681335</keywords>
  </metadata>
  <trk>
    <name>1785157929.Monday_Evening_Walk</name>
    <cmt>2026-07-27</cmt>
    <type>Walk</type>
    <trkseg>
      <trkpt lat="13.599093" lon="109.229226">
        <ele>5.6</ele>
        <time>2026-07-27T13:12:09Z</time>
      </trkpt>
      <trkpt lat="13.599093" lon="109.229226">
        <ele>5.6</ele>
        <time>2026-07-27T13:12:11Z</time>
      </trkpt>
      <trkpt lat="13.599091" lon="109.229214">
        <ele>5.5</ele>
        <time>2026-07-27T13:12:12Z</time>
      </trkpt>
      <trkpt lat="13.599082" lon="109.229203">
        <ele>5.5</ele>
        <time>2026-07-27T13:12:13Z</time>
      </trkpt>
      <trkpt lat="13.599073" lon="109.229189">
        <ele>5.5</ele>
        <time>2026-07-27T13:12:14Z</time>
      </trkpt>
      <trkpt lat="13.599067" lon="109.22918">
        <ele>5.5</ele>
        <time>2026-07-27T13:12:15Z</time>
      </trkpt>
      <trkpt lat="13.599064" lon="109.229167">
        <ele>5.5</ele>
        <time>2026-07-27T13:12:16Z</time>
      </trkpt>
      <trkpt lat="13.599059" lon="109.229154">
        <ele>5.5</ele>
        <time>2026-07-27T13:12:17Z</time>
      </trkpt>
      <trkpt lat="13.599054" lon="109.229144">
        <ele>5.4</ele>
        <time>2026-07-27T13:12:18Z</time>
      </trkpt>
      <trkpt lat="13.59905" lon="109.229132">
        <ele>5.4</ele>
        <time>2026-07-27T13:12:19Z</time>
      </trkpt>
      <trkpt lat="13.599046" lon="109.22912">
        <ele>5.4</ele>
        <time>2026-07-27T13:12:20Z</time>
      </trkpt>
      <trkpt lat="13.599042" lon="109.229111">
        <ele>5.4</ele>
        <time>2026-07-27T13:12:21Z</time>
      </trkpt>
      <trkpt lat="13.599037" lon="109.229098">
        <ele>5.4</ele>
        <time>2026-07-27T13:12:22Z</time>
      </trkpt>
      <trkpt lat="13.599031" lon="109.22909">
        <ele>5.4</ele>
        <time>2026-07-27T13:12:23Z</time>
      </trkpt>
      <trkpt lat="13.599026" lon="109.229083">
        <ele>5.4</ele>
        <time>2026-07-27T13:12:24Z</time>
      </trkpt>
      <trkpt lat="13.599019" lon="109.229078">
        <ele>5.3</ele>
        <time>2026-07-27T13:12:25Z</time>
      </trkpt>
      <trkpt lat="13.599012" lon="109.229069">
        <ele>5.3</ele>
        <time>2026-07-27T13:12:26Z</time>
      </trkpt>
      <trkpt lat="13.59901" lon="109.229059">
        <ele>5.3</ele>
        <time>2026-07-27T13:12:27Z</time>
      </trkpt>
      <trkpt lat="13.599003" lon="109.229045">
        <ele>5.3</ele>
        <time>2026-07-27T13:12:28Z</time>
      </trkpt>
      <trkpt lat="13.598997" lon="109.229031">
        <ele>5.3</ele>
        <time>2026-07-27T13:12:29Z</time>
      </trkpt>
      <trkpt lat="13.598991" lon="109.229015">
        <ele>5.2</ele>
        <time>2026-07-27T13:12:30Z</time>
      </trkpt>
      <trkpt lat="13.59898" lon="109.22901">
        <ele>5.2</ele>
        <time>2026-07-27T13:12:31Z</time>
      </trkpt>
      <trkpt lat="13.598974" lon="109.229001">
        <ele>5.2</ele>
        <time>2026-07-27T13:12:32Z</time>
      </trkpt>
      <trkpt lat="13.59897" lon="109.228994">
        <ele>5.2</ele>
        <time>2026-07-27T13:12:33Z</time>
      </trkpt>
      <trkpt lat="13.59897" lon="109.228986">
        <ele>5.2</ele>
        <time>2026-07-27T13:12:34Z</time>
      </trkpt>
      <trkpt lat="13.598976" lon="109.22897">
        <ele>5.2</ele>
        <time>2026-07-27T13:12:35Z</time>
      </trkpt>
      <trkpt lat="13.598978" lon="109.228956">
        <ele>5.1</ele>
        <time>2026-07-27T13:12:36Z</time>
      </trkpt>
      <trkpt lat="13.598975" lon="109.228945">
        <ele>5.1</ele>
        <time>2026-07-27T13:12:37Z</time>
      </trkpt>
      <trkpt lat="13.59898" lon="109.22893">
        <ele>5.1</ele>
        <time>2026-07-27T13:12:38Z</time>
      </trkpt>
      <trkpt lat="13.59898" lon="109.228917">
        <ele>5.1</ele>
        <time>2026-07-27T13:12:39Z</time>
      </trkpt>
      <trkpt lat="13.598981" lon="109.228911">
        <ele>5.1</ele>
        <time>2026-07-27T13:12:40Z</time>
      </trkpt>
      <trkpt lat="13.598987" lon="109.228913">
        <ele>5.1</ele>
        <time>2026-07-27T13:12:41Z</time>
      </trkpt>
      <trkpt lat="13.598981" lon="109.228899">
        <ele>5.1</ele>
        <time>2026-07-27T13:12:42Z</time>
      </trkpt>
      <trkpt lat="13.598982" lon="109.228888">
        <ele>5.1</ele>
        <time>2026-07-27T13:12:43Z</time>
      </trkpt>
      <trkpt lat="13.598981" lon="109.228878">
        <ele>5.1</ele>
        <time>2026-07-27T13:12:44Z</time>
      </trkpt>
      <trkpt lat="13.598985" lon="109.228862">
        <ele>5.0</ele>
        <time>2026-07-27T13:12:45Z</time>
      </trkpt>
      <trkpt lat="13.598982" lon="109.228853">
        <ele>5.0</ele>
        <time>2026-07-27T13:12:46Z</time>
      </trkpt>
      <trkpt lat="13.59898" lon="109.228847">
        <ele>5.0</ele>
        <time>2026-07-27T13:12:47Z</time>
      </trkpt>
      <trkpt lat="13.598977" lon="109.228834">
        <ele>5.0</ele>
        <time>2026-07-27T13:12:48Z</time>
      </trkpt>
      <trkpt lat="13.598976" lon="109.228829">
        <ele>5.0</ele>
        <time>2026-07-27T13:12:49Z</time>
      </trkpt>
      <trkpt lat="13.598976" lon="109.228823">
        <ele>5.0</ele>
        <time>2026-07-27T13:12:50Z</time>
      </trkpt>
      <trkpt lat="13.598976" lon="109.228815">
        <ele>5.0</ele>
        <time>2026-07-27T13:12:51Z</time>
      </trkpt>
      <trkpt lat="13.598975" lon="109.228807">
        <ele>5.0</ele>
        <time>2026-07-27T13:12:52Z</time>
      </trkpt>
      <trkpt lat="13.598978" lon="109.2288">
        <ele>5.0</ele>
        <time>2026-07-27T13:12:53Z</time>
      </trkpt>
      <trkpt lat="13.598975" lon="109.228797">
        <ele>5.0</ele>
        <time>2026-07-27T13:12:54Z</time>
      </trkpt>
      <trkpt lat="13.598977" lon="109.228786">
        <ele>5.0</ele>
        <time>2026-07-27T13:12:55Z</time>
      </trkpt>
      <trkpt lat="13.598972" lon="109.228779">
        <ele>4.9</ele>
        <time>2026-07-27T13:12:56Z</time>
      </trkpt>
      <trkpt lat="13.598962" lon="109.228771">
        <ele>4.9</ele>
        <time>2026-07-27T13:12:57Z</time>
      </trkpt>
      <trkpt lat="13.598961" lon="109.228769">
        <ele>4.9</ele>
        <time>2026-07-27T13:12:58Z</time>
      </trkpt>
      <trkpt lat="13.598968" lon="109.228773">
        <ele>4.9</ele>
        <time>2026-07-27T13:12:59Z</time>
      </trkpt>
      <trkpt lat="13.598969" lon="109.228767">
        <ele>4.9</ele>
        <time>2026-07-27T13:13:00Z</time>
      </trkpt>
      <trkpt lat="13.598968" lon="109.228766">
        <ele>4.9</ele>
        <time>2026-07-27T13:13:01Z</time>
      </trkpt>
      <trkpt lat="13.598971" lon="109.228772">
        <ele>4.9</ele>
        <time>2026-07-27T13:13:02Z</time>
      </trkpt>
      <trkpt lat="13.598968" lon="109.22878">
        <ele>4.9</ele>
        <time>2026-07-27T13:13:03Z</time>
      </trkpt>
      <trkpt lat="13.598965" lon="109.228777">
        <ele>4.9</ele>
        <time>2026-07-27T13:13:04Z</time>
      </trkpt>
      <trkpt lat="13.598964" lon="109.228778">
        <ele>4.9</ele>
        <time>2026-07-27T13:13:05Z</time>
      </trkpt>
      <trkpt lat="13.598962" lon="109.228775">
        <ele>4.9</ele>
        <time>2026-07-27T13:13:06Z</time>
      </trkpt>
      <trkpt lat="13.598964" lon="109.228774">
        <ele>4.9</ele>
        <time>2026-07-27T13:13:07Z</time>
      </trkpt>
      <trkpt lat="13.598954" lon="109.228777">
        <ele>4.9</ele>
        <time>2026-07-27T13:13:08Z</time>
      </trkpt>
      <trkpt lat="13.598959" lon="109.228777">
        <ele>4.9</ele>
        <time>2026-07-27T13:13:09Z</time>
      </trkpt>
      <trkpt lat="13.598966" lon="109.228781">
        <ele>4.9</ele>
        <time>2026-07-27T13:13:10Z</time>
      </trkpt>
      <trkpt lat="13.598967" lon="109.228782">
        <ele>4.9</ele>
        <time>2026-07-27T13:13:11Z</time>
      </trkpt>
      <trkpt lat="13.598966" lon="109.228778">
        <ele>4.9</ele>
        <time>2026-07-27T13:13:12Z</time>
      </trkpt>
      <trkpt lat="13.598967" lon="109.228777">
        <ele>4.9</ele>
        <time>2026-07-27T13:13:13Z</time>
      </trkpt>
      <trkpt lat="13.598981" lon="109.228782">
        <ele>4.9</ele>
        <time>2026-07-27T13:13:14Z</time>
      </trkpt>
      <trkpt lat="13.599" lon="109.228783">
        <ele>4.8</ele>
        <time>2026-07-27T13:13:15Z</time>
      </trkpt>
      <trkpt lat="13.599009" lon="109.228788">
        <ele>4.8</ele>
        <time>2026-07-27T13:13:16Z</time>
      </trkpt>
    </trkseg>
  </trk>
</gpx>