{"type": "FeatureCollection", "name": "TrackSet", "crs": {"type": "name", "properties": {"name": "urn:ogc:def:crs:OGC:1.3:CRS84"}}, "bbox": [6.361075, 46.462114, 6.361605, 46.462721], "features": [{"type": "Feature", "bbox": [6.361075, 46.462114, 6.361605, 46.462721], "geometry": {"type": "LineString", "coordinates": [[6.36113, 46.46253], [6.3613, 46.462135], [6.361191, 46.462133], [6.361173, 46.462114], [6.361529, 46.462193], [6.361254, 46.46228], [6.361204, 46.462276], [6.361209, 46.462253], [6.361096, 46.46253], [6.361079, 46.462685], [6.361209, 46.462721], [6.361605, 46.46269], [6.361075, 46.462709]]}, "properties": {"name": "1788447701.Perroy_dip", "cmt": "2026-09-03", "tstamp": 1788393600, "desc": "---", "src": "6.361075/46.462114/6.361605/46.462721", "bbox": "6.361075/46.462114/6.361605/46.462721"}}]}